ATCOCode,NaptanCode,PlateCode,CleardownCode,CommonName,CommonNameLang,ShortCommonName,ShortCommonNameLang,Landmark,LandmarkLang,Street,StreetLang,Crossing,CrossingLang,Indicator,IndicatorLang,Bearing,NptgLocalityCode,LocalityName,ParentLocalityName,GrandParentLocalityName,Town,TownLang,Suburb,SuburbLang,LocalityCentre,GridType,Easting,Northing,Longitude,Latitude,StopType,BusStopType,TimingStatus,DefaultWaitTime,Notes,NotesLang,AdministrativeAreaCode,CreationDateTime,ModificationDateTime,RevisionNumber,Modification,Status
02900042,ltnapm,,,Luton Station Interchange,,,,Luton Railway Station,,,,,,Stand 12,,,N0071638,Luton Town Centre,Luton,,Luton,EN,Town Centre,EN,false,UKOS,509110,221589,-0.41621,51.8822,BCS,,,,,,028,2013-05-31T00:00:00,2024-08-17T12:54:37,148,new,active
02900043,ltnapt,,,Luton Station Interchange,,,,Luton Railway Station,,,,,,Stand 13,,,N0071638,Luton Town Centre,Luton,,Luton,EN,Town Centre,EN,false,UKOS,509089,221596,-0.41651,51.88226,BCS,,,,,,028,2013-05-31T00:00:00,2023-11-07T16:41:32,120,new,active
02900031,ltnatd,,,Luton Station Interchange,,,,Luton Railway Station,,,,,,Stand 1,,,N0071638,Luton Town Centre,Luton,,Luton,EN,Town Centre,EN,false,UKOS,509155,221603,-0.41555,51.88231,BCS,,,,,,028,2013-05-31T00:00:00,2024-08-17T12:54:50,151,new,active
02900032,ltnatg,,,Luton Station Interchange,,,,Luton Railway Station,,,,,,Stand 2,,,N0071638,Luton Town Centre,Luton,,Luton,EN,Town Centre,EN,false,UKOS,509178,221597,-0.41522,51.88226,BCS,,,,,,028,2013-05-31T00:00:00,2023-11-07T16:41:54,117,new,active
02900033,ltnamg,,,Luton Station Interchange,,,,Luton Railway Station,,,,,,Stand 3,,,N0071638,Luton Town Centre,Luton,,Luton,EN,Luton Town,EN,false,UKOS,509208,221588,-0.41479,51.88217,BCS,,,,,,028,2013-05-31T00:00:00,2023-11-07T16:42:10,117,new,active
02900034,ltnamj,,,Luton Station Interchange,,,,Luton Railway Station,,,,,,Stand 4,,,N0071638,Luton Town Centre,Luton,,Luton,EN,Town Centre,EN,false,UKOS,509213,221573,-0.41472,51.88203,BCS,,,,,,028,2013-05-31T00:00:00,2023-11-07T16:42:26,119,new,active
02900035,ltnamp,,,Luton Station Interchange,,,,Luton Railway Station,,,,,,Stand 5,,,N0071638,Luton Town Centre,Luton,,Luton,EN,Town Centre,EN,false,UKOS,509190,221580,-0.41505,51.8821,BCS,,,,,,028,2013-05-31T00:00:00,2023-11-07T16:42:44,119,new,active
02900036,ltnamt,,,Luton Station Interchange,,,,Luton Railway Station,,,,,,Stand 6,,,N0071638,Luton Town Centre,Luton,,Luton,EN,Town Centre,EN,false,UKOS,509161,221587,-0.41547,51.88217,BCS,,,,,,028,2013-05-31T00:00:00,2023-11-07T16:43:00,119,new,active
02900037,ltnamw,,,Luton Station Interchange,,,,Luton Railway Station,,,,,,Stand 7,,,N0071638,Luton Town Centre,Luton,,Luton,EN,Town Centre,EN,false,UKOS,509138,221594,-0.4158,51.88224,BCS,,,,,,028,2013-05-31T00:00:00,2023-11-07T16:43:17,119,new,active
02900038,ltnapa,,,Luton Station Interchange,,,,Luton Railway Station,,,,,,Stand 8,,,N0071638,Luton Town Centre,Luton,,Luton,EN,Town Centre,EN,false,UKOS,509125,221597,-0.41599,51.88227,BCS,,,,,,028,2013-05-31T00:00:00,2023-11-07T16:43:38,119,new,active
02900039,ltnapd,,,Luton Station Interchange,,,,Luton Railway Station,,,,,,Stand 9,,,N0071638,Luton Town Centre,Luton,,Luton,EN,Town Centre,EN,false,UKOS,509183,221568,-0.41516,51.88199,BCS,,,,,,028,2013-05-31T00:00:00,2024-08-17T12:54:16,163,new,active
029051116,ltnatj,,,Luton Station Interchange,,,,Luton Railway Station,,Station Road,,,,Main Entrance,,,N0071638,Luton Town Centre,Luton,,Luton,EN,Town Centre,EN,false,UKOS,509250,221558,-0.41419,51.88189,BCE,,,,,,028,2013-05-28T00:00:00,2013-05-28T16:49:00,0,new,active
02900040,ltnapg,,,Luton Station Interchange,,,,Luton Railway Station,,,,,,Stand 10,,,N0071638,Luton Town Centre,Luton,,Luton,EN,Town Centre,EN,false,UKOS,509156,221576,-0.41554,51.88207,BCS,,,,,,028,2013-05-31T00:00:00,2024-06-27T17:59:16,159,new,active
02900041,ltnapj,,,Luton Station Interchange,,,,Luton Railway Station,,,,,,Stand 11,,,N0071638,Luton Town Centre,Luton,,Luton,EN,Town Centre,EN,false,UKOS,509133,221583,-0.41588,51.88214,BCS,,,,,,028,2013-05-31T00:00:00,2023-11-07T16:40:54,117,new,active
029051117,ltnatm,,,Luton Station Interchange,,,,Luton Railway Station,,Guildford Street,,,,Main Entrance,,,N0071638,Luton Town Centre,Luton,,Luton,EN,Town Centre,EN,false,UKOS,509040,221602,-0.41722,51.88233,BCE,,,,,,028,2013-05-29T00:00:00,2013-05-29T13:41:00,0,new,active
029051118,ltnatp,,,Luton Station Interchange,,,,Luton Railway Entrance,,Station Road,,,,Main Entrance,,,N0071638,Luton Town Centre,Luton,,Luton,EN,Town Centre,EN,false,UKOS,509251,221582,-0.41416,51.88211,BCE,,,,,,028,2013-05-29T00:00:00,2013-05-29T13:32:00,0,new,active
02900028,ltnawa,,,Clifton Road,,,,Luton Town Football Club,,,,,,SE-bound,,SE,E0057190,Luton,,,Luton,EN,Busway,EN,false,UKOS,507826,221814,-0.43479,51.88447,BCT,MKD,OTH,,,,028,2019-03-12T00:00:00,2024-06-27T17:58:12,61,new,active
02900029,ltnawd,,,Clifton Road,,,,Luton Town Football Club,,,,,,W-bound,,W,E0057190,Luton,,,Luton,EN,Busway,EN,false,UKOS,507809,221812,-0.43503,51.88445,BCT,MKD,OTH,,,,028,2013-08-13T00:00:00,2024-06-27T17:58:28,51,new,active
02900046,ltnawp,,,Chaul End Lane,,,,Hattersway Retail Park,,,,,,E-bound,,E,E0057190,Luton,,,Luton,EN,Busway,EN,false,UKOS,506206,222189,-0.4582,51.88815,BCT,MKD,OTH,,,,028,2016-04-14T00:00:00,2024-06-27T17:57:30,51,new,active
02900047,ltnawt,,,Chaul End Lane,,,,Hattersway Retail Park,,,,,,W-bound,,W,E0057190,Luton,,,Luton,EN,Busway,EN,false,UKOS,506173,222176,-0.45868,51.88804,BCT,MKD,OTH,,,,028,2016-04-14T00:00:00,2024-06-27T17:57:12,51,new,active
02900007,ltngmjp,,,Airport Bus Station,,,,London Luton Airport,,Luton Airport,,,,taxi rank,,,N0060524,Luton Airport,Luton,,Luton,EN,Luton International Airport,EN,false,UKOS,511945,221254,-0.37515,51.87863,TXR,,,,,,028,2003-03-24T00:00:00,2023-02-24T13:46:25,0,new,active
029051224,ltngpap,,,Airport Bus Station,,,,Airport arrivals exit,,Airport Way,,,,o/s,,,N0060524,Luton Airport,Luton,,Luton,EN,Luton International Airport,EN,false,UKOS,511888,221390,-0.37593,51.87986,BCE,,,,,,028,2003-03-24T00:00:00,2013-05-15T14:03:00,0,new,active
02900057,ltndgj,,,Airport Bus Station,,,,London Luton Airport,,Luton Airport,,,,Bay F,,,N0060524,Luton Airport,Luton,,Luton,EN,Luton International AIro,EN,false,UKOS,511952,221328,-0.37502,51.87929,BCS,,,,,,028,2020-09-09T00:00:00,2023-01-24T16:55:11,42,new,active
02900066,ltndjp,,,Airport Bus Station,,,,London Luton Airport,,Luton Airport,,,,Bay Q,,,N0060524,Luton Airport,Luton,,Luton,EN,Luton International Airport,EN,false,UKOS,511896,221320,-0.37584,51.87923,BCS,,,,,,028,2020-09-09T00:00:00,2023-01-24T17:01:55,42,new,active
02900054,ltndaw,,,Airport Bus Station,,,,London Luton Airport,,Luton Airport,,,,Bay C,,,N0060524,Luton Airport,Luton,,Luton,EN,Luton International Airport,EN,false,UKOS,511963,221311,-0.37487,51.87913,BCS,,,,,,028,2020-09-09T00:00:00,2023-01-24T16:54:24,42,new,active
02900060,ltndgt,,,Airport Bus Station,,,,London Luton Airport,,,,,,Bay J,,,N0060524,Luton Airport,Luton,,Luton,EN,Luton International Airport,EN,false,UKOS,511928,221329,-0.37537,51.8793,BCS,,,,,,028,2020-09-09T00:00:00,2023-01-24T17:00:25,42,new,active
02900061,ltndgw,,,Airport Bus Station,,,,London Luton Airport,,,,,,Bay K,,,N0060524,Luton Airport,Luton,,Luton,EN,Luton International Airport,EN,false,UKOS,511923,221328,-0.37544,51.87929,BCS,,,,,,028,2020-09-09T00:00:00,2023-01-24T17:00:38,42,new,active
02900053,ltndat,,,Airport Bus Station,,,,London Luton Airport,,Luton Airport,,,,Bay B,,,N0060524,Luton Airport,Luton,,Luton,EN,Luton International Airport,EN,false,UKOS,511965,221306,-0.37484,51.87909,BCS,,,,,,028,2020-09-09T00:00:00,2023-01-24T16:54:04,42,new,active
02900069,ltndma,,,Airport Bus Station,,,,London Luton Airport,,Luton Airport,,,,Bay T,,,N0060524,Luton Airport,Luton,,Luton,EN,Luton International Airport,EN,false,UKOS,511886,221284,-0.37599,51.87891,BCS,,,,,,028,2020-09-09T00:00:00,2023-01-24T17:02:32,42,new,active
02900067,ltndjt,,,Airport Bus Station,,,,London Luton Airport,,Luton Airport,,,,Bay R,,,N0060524,Luton Airport,Luton,,Luton,EN,Luton International Airport,EN,false,UKOS,511891,221318,-0.37591,51.87921,BCS,,,,,,028,2020-09-09T00:00:00,2023-01-24T17:02:08,42,new,active
02900062,ltndja,,,Airport Bus Station,,,,London Luton Airport,,Luton Airport,,,,Bay L,,,N0060524,Luton Airport,Luton,,Luton,EN,Luton International Airport,EN,false,UKOS,511917,221326,-0.37553,51.87928,BCS,,,,,,028,2020-09-09T00:00:00,2023-03-10T17:16:47,42,new,active
02900063,ltndjd,,,Airport Bus Station,,,,London Luton Airport,,Luton Airport,,,,Bay M,,,N0060524,Luton Airport,Luton,,Luton,EN,Luton International Airport,EN,false,UKOS,511911,221324,-0.37562,51.87926,BCS,,,,,,028,2020-09-09T00:00:00,2023-01-24T17:01:04,42,new,active
02900055,ltndga,,,Airport Bus Station,,,,London Luton Airport,,Luton Airport,,,,Bay D,,,N0060524,Luton Airport,Luton,,Luton,EN,Luton International Airport,EN,false,UKOS,511961,221317,-0.37489,51.87919,BCS,,,,,,028,2020-09-09T00:00:00,2023-01-24T16:54:44,42,new,active
02900064,ltndjg,,,Airport Bus Station,,,,London Luton Airport,,Luton Airport,,,,Bay N,,,N0060524,Luton Airport,Luton,,Luton,EN,Luton International Airport,EN,false,UKOS,511907,221323,-0.37568,51.87925,BCS,,,,,,028,2020-09-09T00:00:00,2023-01-24T17:01:21,42,new,active
02900065,ltndjm,,,Airport Bus Station,,,,London Luton Airport,,Luton Airport,,,,Bay P,,,N0060524,Luton Airport,Luton,,Luton,EN,Luton International Airport,EN,false,UKOS,511902,221321,-0.37575,51.87924,BCS,,,,,,028,2020-09-09T00:00:00,2023-01-24T17:01:43,42,new,active
02900059,ltndgp,,,Airport Bus Station,,,,London Luton Airport,,,,,,Bay H,,,N0060524,Luton Airport,Luton,,Luton,EN,Luton International Airport,EN,false,UKOS,511935,221331,-0.37527,51.87932,BCS,,,,,,028,2020-09-09T00:00:00,2023-01-24T17:00:12,42,new,active
02900056,ltndgd,,,Airport Bus Station,,,,London Luton Airport,,,,,,Bay E,,,N0060524,Luton Airport,Luton,,Luton,EN,Luton International Airport,EN,false,UKOS,511957,221324,-0.37495,51.87925,BCS,,,,,,028,2020-09-09T00:00:00,2023-01-24T16:54:59,42,new,active
02900068,ltndjw,,,Airport Bus Station,,,,London Luton Airport,,Luton Airport,,,,Bay S,,,N0060524,Luton Airport,Luton,,Luton,EN,Luton International Airport,EN,false,UKOS,511886,221316,-0.37598,51.87919,BCS,,,,,,028,2020-09-09T00:00:00,2023-01-24T17:02:21,42,new,active
02900052,ltndap,,,Airport Bus Station,,,,London Luton Airport,,Luton Airport,,,,Bay A,,,N0060524,Luton Airport,Luton,,Luton,EN,London Luton Airport,EN,false,UKOS,511967,221300,-0.37481,51.87903,BCS,,,,,,028,2020-09-09T00:00:00,2023-01-24T16:53:42,42,new,active
02900058,ltndgm,,,Airport Bus Station,,,,London Luton Airport,,Luton Airport,,,,Bay G,,,N0060524,Luton Airport,Luton,,Luton,EN,Luton International Airport,EN,false,UKOS,511942,221331,-0.37517,51.87932,BCS,,,,,,028,2020-09-09T00:00:00,2023-01-24T16:59:57,42,new,active
02900202,ltnadaj,,,Luton Airport Parkway Rail Station,,,,Central island near station entrance,,,,,,o/s,,E,N0060524,Luton Airport,Luton,,Luton,EN,Vauxhall,EN,false,UKOS,510514,220511,-0.39616,51.87223,BCT,MKD,OTH,,,,028,2020-09-09T00:00:00,2023-01-24T17:27:10,42,new,active
02900208,ltnadadg,,,Luton Airport Parkway Rail Station,,,,,,,,,,o/s,,E,N0060524,Luton Airport,Luton,,,,,,false,UKOS,510531,220514,-0.39592,51.87226,BCT,MKD,OTH,,,,028,2022-05-27T00:00:00,2023-01-24T17:27:23,100,new,active
02900209,ltnadadj,,,Luton Airport Parkway Rail Station,,,,,,,,,,o/s,,E,N0060524,Luton Airport,Luton,,,,,,false,UKOS,510531,220520,-0.39591,51.87231,BCT,MKD,OTH,,,,028,2022-05-27T00:00:00,2023-01-24T17:27:00,99,new,active
02900210,ltnadadm,,,Luton Airport Parkway Rail Station,,,,,,,,,,o/s,,E,N0060524,Luton Airport,Luton,,,,,,false,UKOS,510500,220516,-0.39637,51.87228,BCT,MKD,OTH,,,,028,2022-05-27T00:00:00,2023-01-24T17:26:52,95,new,active
02901204,ltnagjg,,,Old Airport Bus Station,,,,Bus Station,,Luton Airport,,,,Bay,,S,N0060524,Luton Airport,Luton,,Luton,EN,Luton International Airport,EN,false,UKOS,511898,221346,-0.3758,51.87946,BCT,MKD,OTH,,,,028,2019-07-19T00:00:00,2022-08-25T10:17:49,10,delete,inactive
02901218,ltnagmt,,,Old Airport Bus Station,,,,Bus Station,,Luton Airport,,,,Bay,,N,N0060524,Luton Airport,Luton,,Luton,EN,Luton International Airport,EN,false,UKOS,511865,221333,-0.37628,51.87935,BCT,MKD,OTH,,,,028,2019-07-19T00:00:00,2022-08-25T10:18:00,10,delete,inactive
02901202,ltnagja,,,Old Airport Bus Station,,,,Bus Station,,Luton Airport,,,,Bay,,S,N0060524,Luton Airport,Luton,,Luton,EN,Luton International Airport,EN,false,UKOS,511906,221325,-0.37569,51.87927,BCT,MKD,OTH,,,,028,2019-07-19T00:00:00,2022-08-25T10:18:11,10,delete,inactive
02901201,ltnagdw,,,Old Airport Bus Station,,,,Bus Station,,Luton Airport,,,,Bay,,S,N0060524,Luton Airport,Luton,,Luton,EN,Luton International Airport,EN,false,UKOS,511910,221313,-0.37564,51.87916,BCT,MKD,OTH,,,,028,2019-07-19T00:00:00,2022-08-25T10:18:25,10,delete,inactive
02901210,ltnagjw,,,Old Airport Bus Station,,,,Bus Station,,Luton Airport,,,,Bay,,S,N0060524,Luton Airport,Luton,,Luton,EN,Luton International Airport,EN,false,UKOS,511888,221342,-0.37595,51.87943,BCT,MKD,OTH,,,,028,2019-07-19T00:00:00,2022-08-25T10:18:34,11,delete,inactive
02901208,ltnagjp,,,Old Airport Bus Station,,,,Bus Station,,Luton Airport,,,,Bay,,S,N0060524,Luton Airport,Luton,,Luton,EN,Luton International Airport,EN,false,UKOS,511895,221321,-0.37585,51.87924,BCT,MKD,OTH,,,,028,2019-07-19T00:00:00,2022-08-25T10:18:48,10,delete,inactive
02901207,ltnagjm,,,Old Airport Bus Station,,,,Bus Station,,Luton Airport,,,,Bay,,S,N0060524,Luton Airport,Luton,,Luton,EN,Luton International Airport,EN,false,UKOS,511900,221310,-0.37578,51.87914,BCT,MKD,OTH,,,,028,2019-07-19T00:00:00,2022-08-25T10:19:01,10,delete,inactive
02901214,ltnagmg,,,Old Airport Bus Station,,,,Bus Station,,,,,,Bay,,N,N0060524,Luton Airport,Luton,,Luton,EN,Luton International Airport,EN,false,UKOS,511875,221337,-0.37614,51.87939,BCT,MKD,OTH,,,,028,2019-07-19T00:00:00,2022-08-25T10:19:13,10,delete,inactive
02901213,ltnagmd,,,Old Airport Bus Station,,,,Bus Station,,Luton Airport,,,,Bay,,N,N0060524,Luton Airport,Luton,,Luton,EN,Luton International Airport,EN,false,UKOS,511880,221324,-0.37607,51.87927,BCT,MKD,OTH,,,,028,2019-07-19T00:00:00,2022-08-25T10:19:23,10,delete,inactive
02901212,ltnagma,,,Old Airport Bus Station,,,,Bus Station,,Luton Airport,,,,Bay,,N,N0060524,Luton Airport,Luton,,Luton,EN,Luton International Airport,EN,false,UKOS,511885,221310,-0.376,51.87914,BCT,MKD,OTH,,,,028,2019-07-19T00:00:00,2022-08-25T10:19:32,10,delete,inactive
02903004,ltnatgm,,,Luton & Dunstable Hospital,,L & D Hospital,,Luton & Dunstable Hospital,,,,,,opp,,N,N0071653,Lewsey,Luton,,Luton,EN,Luton & Dunstable Hospital,EN,false,UKOS,504987,222773,-0.47573,51.89363,BCT,MKD,OTH,,,,028,2020-09-09T00:00:00,2020-09-09T08:37:19,0,new,active
02903003,ltnatgj,,,Luton & Dunstable Hospital,,L & D Hospital,,Luton & Dunstable Hospital,,,,,,adj,,S,N0071653,Lewsey,Luton,,Luton,EN,Luton & Dunstable Hospital,EN,false,UKOS,504950,222880,-0.47623,51.8946,BCT,MKD,OTH,,,,028,2020-09-09T00:00:00,2020-09-09T08:37:19,0,new,active
02903007,ltnatgw,,,Luton & Dunstable Hospital,,,,Luton & Dunstable Hospital,,,,,,Main Entrance,,W,N0071653,Lewsey,Luton,,Luton,EN,Luton & Dunstable Hospital,EN,false,UKOS,505039,223004,-0.4749,51.8957,BCT,MKD,OTH,,,,028,2020-09-09T00:00:00,2020-09-09T08:37:20,0,new,active
02903629,ltndjgt,,,Park Square,,,,University of Bedfordshire,,Park Street,,,,Stop P3,,SE,N0071638,Luton Town Centre,Luton,,Luton,EN,Town Centre,EN,false,UKOS,509448,221070,-0.41146,51.87747,BCT,MKD,OTH,,,,028,2020-09-09T00:00:00,2024-08-17T12:50:27,50,new,active
02903622,ltndjdw,,,Park Square,,,,George Street,,,,,,Stop P1,,N,N0071638,Luton Town Centre,Luton,,Luton,EN,Town Centre,EN,false,UKOS,509347,221126,-0.41291,51.87799,BCT,MKD,OTH,,,,028,2020-09-09T00:00:00,2024-08-17T12:49:58,84,new,active
02903621,ltndjdt,,,Park Square,,,,George Street,,,,,,Stop P2,,NE,N0071638,Luton Town Centre,Luton,,Luton,EN,Town Centre,EN,false,UKOS,509345,221141,-0.41294,51.87813,BCT,MKD,OTH,,,,028,2020-09-09T00:00:00,2024-08-17T12:50:12,85,new,active
02903620,ltndjdp,,,Church Street,,,,Town Centre,,,,,,Stop C1,,NE,N0071638,Luton Town Centre,Luton,,Luton,EN,Town Centre,EN,false,UKOS,509350,221157,-0.41286,51.87827,BCT,MKD,OTH,,,,028,2020-09-09T00:00:00,2024-08-17T12:47:19,81,new,active
02903619,ltndjdm,,,Church Street,,,,Town Centre,,,,,,Stop C2,,NE,N0071638,Luton Town Centre,Luton,,Luton,EN,Town Centre,EN,false,UKOS,509362,221169,-0.41268,51.87837,BCT,MKD,OTH,,,,028,2020-09-09T00:00:00,2024-08-17T12:47:33,104,new,active
02903504,ltndawj,,,Church Street,,,,Town Centre,,,,,,Stop C3,,NE,N0071638,Luton Town Centre,Luton,,Luton,EN,Town Centre,EN,false,UKOS,509381,221184,-0.4124,51.8785,BCT,MKD,OTH,,,,028,2020-09-09T00:00:00,2024-08-17T12:47:47,50,new,active
02903617,ltndjdg,,,Church Street,,,,Town Centre,,,,,,Stop C4,,NE,N0071638,Luton Town Centre,Luton,,Luton,EN,Town Centre,EN,false,UKOS,509403,221200,-0.41208,51.87864,BCT,MKD,OTH,,,,028,2020-09-09T00:00:00,2024-08-17T12:48:02,75,new,active
02903616,ltndjda,,,Church Street,,,,Town Centre,,Church Street,,,,Stop C5,,NE,N0071638,Luton Town Centre,Luton,,Luton,EN,Town Centre,EN,false,UKOS,509412,221205,-0.41194,51.87869,BCT,MKD,OTH,,,,028,2020-09-09T00:00:00,2024-08-17T12:48:18,50,new,active
02903503,ltndawg,,,Church Street,,,,Town Centre,,,,,,Stop C6,,NE,N0071638,Luton Town Centre,Luton,,Luton,EN,Town Centre,EN,false,UKOS,509436,221221,-0.41159,51.87883,BCT,MKD,OTH,,,,028,2020-09-09T00:00:00,2024-08-17T12:48:32,52,new,active
02903596,ltngmtp,,,Church Street,,,,St Mary's Church,,,,,,Stop C7,,NE,N0071638,Luton Town Centre,Luton,,Luton,EN,Town Centre,EN,false,UKOS,509486,221276,-0.41085,51.87931,BCT,MKD,OTH,,,,028,2020-09-09T00:00:00,2024-08-17T12:48:46,52,new,active
02903597,ltngmtw,,,Church Street,,,,St Mary's Church,,,,,,Stop C8,,NE,N0071638,Luton Town Centre,Luton,,Luton,EN,Town Centre,EN,false,UKOS,509499,221291,-0.41065,51.87944,BCT,MKD,OTH,,,,028,2020-09-09T00:00:00,2024-08-17T12:49:00,50,new,active
02903502,ltndawd,,,Church Street,,,,St Mary's Church,,,,,,Stop C9,,SW,N0071638,Luton Town Centre,Luton,,Luton,EN,Town Centre,EN,false,UKOS,509501,221266,-0.41063,51.87922,BCT,MKD,OTH,,,,028,2020-09-09T00:00:00,2024-08-17T12:49:16,50,new,active
02903625,ltndjgd,,,Flowers Way,,,,,,,,,,opp,,NE,N0071638,Luton Town Centre,Luton,,Luton,EN,Town Centre,EN,false,UKOS,509125,221054,-0.41616,51.87739,BCT,MKD,OTH,,,,028,2020-09-09T00:00:00,2020-09-09T08:37:19,0,new,active
02903508,ltndgad,,,Silver Street,,,,Arndale Centre,,Silver Street,,,,Stop S3,,NW,N0071638,Luton Town Centre,Luton,,Luton,EN,Town Centre,EN,false,UKOS,509187,221358,-0.41516,51.88011,BCT,MKD,OTH,,,,028,2021-10-12T00:00:00,2024-08-17T12:45:51,52,new,active
02903599,ltngmwd,,,Silver Street,,,,Arndale Centre,,,,,,Stop S5,,NW,N0071638,Luton Town Centre,Luton,,Luton,EN,Town Centre,EN,false,UKOS,509149,221383,-0.41571,51.88034,BCT,MKD,OTH,,,,028,2021-10-12T00:00:00,2024-08-17T12:46:27,55,new,active
02903598,ltngmwa,,,Silver Street,,,,Arndale Centre,,,,,,Stop S1,,NW,N0071638,Luton Town Centre,Luton,,Luton,EN,Town Centre,EN,false,UKOS,509224,221338,-0.41463,51.87992,BCT,MKD,OTH,,,,028,2021-10-12T00:00:00,2024-08-17T12:45:19,52,new,active
02903600,ltngmwg,,,Silver Street,,,,Arndale Centre,,,,,,Stop S6,,NW,N0071638,Luton Town Centre,Luton,,Luton,EN,Town Centre,EN,false,UKOS,509139,221391,-0.41585,51.88041,BCT,MKD,OTH,,,,028,2021-10-12T00:00:00,2024-08-17T12:46:40,55,new,active
02903614,ltndjaw,,,Silver Street,,,,Arndale Centre,,Silver Street,,,,Stop S4,,NW,N0071638,Luton Town Centre,Luton,,Luton,EN,Town Centre,EN,false,UKOS,509172,221366,-0.41538,51.88018,BCT,MKD,OTH,,,,028,2021-10-12T00:00:00,2024-08-17T12:46:12,52,new,active
02903615,ltngpad,,,Silver Street,,,,Arndale Centre,,,,,,Stop S2,,NW,N0071638,Luton Town Centre,Luton,,Luton,EN,Town Centre,EN,false,UKOS,509208,221346,-0.41486,51.87999,BCT,MKD,OTH,,,,028,2021-10-12T00:00:00,2024-08-17T12:45:35,52,new,active
02903044,ltnatwm,,,Dallow Road,,,,,,,,,,nr,,NW,N0071638,Luton Town Centre,Luton,,Luton,EN,Town Centre,EN,false,UKOS,508607,221448,-0.42356,51.88103,BCT,MKD,OTH,,,,028,2020-09-09T00:00:00,2020-09-09T08:37:19,0,new,active
02903022,ltnatjp,,,Kenilworth Road,,,,Luton Town Football Club,,,,,,opp,,SE,N0060419,Bury Park,Luton,,Luton,EN,Bury Park,EN,false,UKOS,508254,221950,-0.42853,51.88561,BCT,MKD,OTH,,,,028,2020-09-09T00:00:00,2020-09-09T08:37:19,0,new,active
02903021,ltnatjm,,,Kenilworth Road,,,,Luton Town Football Club,,,,,,nr,,NW,N0060419,Bury Park,Luton,,Luton,EN,Bury Park,EN,false,UKOS,508352,221786,-0.42716,51.88412,BCT,MKD,OTH,,,,028,2020-09-09T00:00:00,2020-09-09T08:37:19,0,new,active
02901216,ltnagmj,,,Airparks Shuttle,,,,Drop Off & Pick Up Zone,,Luton Airport,,,,Stop 12,,N,N0060524,Luton Airport,Luton,,Luton,EN,Luton International Airport,EN,false,UKOS,512004,221289,-0.37428,51.87893,BCT,MKD,OTH,,,,028,2020-09-09T00:00:00,2023-02-24T13:44:44,35,delete,inactive
02901217,ltnagmp,,,Carparkz Shuttle,,,,Drop off & Pick Up Zone,,Luton Airport,,,,Stop 11,,N,N0060524,Luton Airport,Luton,,Luton,EN,Luton International Airport,EN,false,UKOS,512017,221258,-0.3741,51.87865,BCT,MKD,OTH,,,,028,2020-09-09T00:00:00,2023-02-24T13:44:58,40,delete,inactive
02903043,ltnatwj,,,Birch Link,,,,,,,,,,NW-bound,,NW,N0060419,Bury Park,Luton,,Luton,EN,Bury Park,EN,false,UKOS,508138,222012,-0.43019,51.88619,BCT,MKD,OTH,,,,028,2020-12-16T00:00:00,2020-12-16T13:20:33,0,new,active
02903024,ltnatjw,,,Birch Link,,,,,,,,,,E-bound,,E,N0060419,Bury Park,Luton,,Luton,EN,Bury Park,EN,false,UKOS,508030,222083,-0.43174,51.88685,BCT,MKD,OTH,,,,028,2020-12-16T00:00:00,2020-12-16T13:20:33,0,new,active
02903023,ltnatjt,,,Birch Link,,,,,,,,,,NW-bound,,NW,N0060419,Bury Park,Luton,,Luton,EN,Bury Park,EN,false,UKOS,508097,222035,-0.43078,51.8864,BCT,MKD,OTH,,,,028,2020-12-16T00:00:00,2020-12-16T13:20:33,0,new,active
02903601,ltngmwj,,,Galaxy Centre,,,,Galaxy Centre,,,,,,Stop G1,,SE,N0071638,Luton Town Centre,Luton,,Luton,EN,Town Centre,EN,false,UKOS,508970,221490,-0.41827,51.88134,BCT,MKD,OTH,,,,028,2020-09-09T00:00:00,2024-08-17T12:43:32,50,new,active
02903602,ltngmwm,,,Galaxy Centre,,,,Galaxy Centre,,New Bedford Road,,,,Stop G2,,SE,N0071638,Luton Town Centre,Luton,,Luton,EN,Town Centre,EN,false,UKOS,508978,221470,-0.41816,51.88115,BCT,MKD,OTH,,,,028,2020-09-09T00:00:00,2024-08-17T12:43:47,50,new,active
02903603,ltngmwp,,,Galaxy Centre,,,,Galaxy Centre,,,,,,Stop G3,,SE,N0071638,Luton Town Centre,Luton,,Luton,EN,Town Centre,EN,false,UKOS,508987,221463,-0.41803,51.88109,BCT,MKD,OTH,,,,028,2020-09-09T00:00:00,2024-08-17T12:44:03,52,new,active
02903604,ltngmwt,,,Galaxy Centre,,,,Galaxy Centre,,,,,,Stop G4,,SE,N0071638,Luton Town Centre,Luton,,Luton,EN,Town Centre,EN,false,UKOS,508997,221446,-0.41789,51.88093,BCT,MKD,OTH,,,,028,2020-09-09T00:00:00,2024-08-17T12:44:18,50,new,active
02903630,ltndjgw,,,Jobcentre Plus,,,,Jobcentre Plus,,Guildford Street,,,,opp,,E,N0071638,Luton Town Centre,Luton,,Luton,EN,Town Centre,EN,false,UKOS,509175,221487,-0.4153,51.88127,BCT,MKD,OTH,,,,028,2021-10-12T00:00:00,2022-06-06T13:50:43,4,delete,inactive
02903020,ltnatjg,,,St Marys Road,,,,St Marys Church,,,,,,SE-bound,,SE,N0071638,Luton Town Centre,Luton,,Luton,EN,Town Centre,EN,false,UKOS,509576,221260,-0.40955,51.87915,BCT,MKD,OTH,,,,028,2020-12-16T00:00:00,2024-08-17T12:52:38,50,new,active
02903019,ltnatjd,,,St Marys Road,,,,St Marys Church,,St Marys Road,,,,NW-bound,,NW,N0071638,Luton Town Centre,Luton,,Luton,EN,Town Centre,EN,false,UKOS,509563,221238,-0.40974,51.87895,BCT,MKD,OTH,,,,028,2020-12-16T00:00:00,2024-08-17T12:52:55,50,new,active
02901244,ltnagpj,,,Venue 360,,,,,,Gipsy Lane,,,,o/s,,NW,N0060524,Luton Airport,Luton,,Luton,EN,Vauxhall,EN,false,UKOS,510447,220441,-0.39716,51.87162,BCT,MKD,OTH,,,,028,2020-09-09T00:00:00,2023-01-24T17:23:56,40,new,active
02901245,ltnagpm,,,Venue 360,,,,,,,,,,opp,,SE,N0060524,Luton Airport,Luton,,Luton,EN,Vauxhall,EN,false,UKOS,510454,220446,-0.39706,51.87166,BCT,MKD,OTH,,,,028,2020-09-09T00:00:00,2023-01-24T17:24:11,40,new,active
02901250,ltnagtd,,,Hampton by Hilton,,,,War Memorial,,,,,,opp,,SE,N0071659,Vauxhall,Luton,,Luton,EN,Vauxhall,EN,false,UKOS,510506,220738,-0.39621,51.87427,BCT,MKD,OTH,,,,028,2020-09-09T00:00:00,2023-07-17T15:59:30,9,new,active
02901249,ltnagta,,,Hampton by Hilton,,,,War Memorial,,,,,,o/s,,NW,N0071659,Vauxhall,Luton,,Luton,EN,Vauxhall,EN,false,UKOS,510468,220740,-0.39676,51.8743,BCT,MKD,OTH,,,,028,2020-09-09T00:00:00,2020-09-09T08:37:19,8,new,active
02901348,ltngmpw,,,Rail Station Entrance,,,,,,,,,,opp,,E,E0039083,High Town,Luton,,Luton,EN,High Town,EN,false,UKOS,509370,221654,-0.41241,51.88273,BCT,MKD,OTH,,,,028,2020-09-09T00:00:00,2020-09-09T08:37:19,0,new,active
02901357,ltnamja,,,Rail Station Entrance,,,,,,,,,,nr,,W,E0039083,High Town,Luton,,Luton,EN,High Town,EN,false,UKOS,509234,221697,-0.41437,51.88314,BCT,MKD,OTH,,,,028,2020-09-09T00:00:00,2023-01-23T15:16:05,0,new,active
02903006,ltnatgt,,,Stanton Road,,,,Luton & Dunstable Hospital,,,,,,adj,,W,N0071653,Lewsey,Luton,,Luton,EN,Luton & Dunstable Hospital,EN,false,UKOS,505105,222689,-0.47404,51.89285,BCT,MKD,OTH,,,,028,2020-09-09T00:00:00,2020-09-09T08:37:19,0,new,active
02903005,ltnatgp,,,Stanton Road,,,,Luton & Dunstable Hospital,,,,,,opp,,E,N0071653,Lewsey,Luton,,Luton,EN,Luton & Dunstable Hospital,EN,false,UKOS,505085,222719,-0.47432,51.89313,BCT,MKD,OTH,,,,028,2020-09-09T00:00:00,2023-02-06T16:37:49,0,new,active
02904508,ltndpwa,,,Leagrave Railway Station,,,,,,,,,,NE-bound,,NE,E0039084,Leagrave,Luton,,Luton,EN,Leagrave,EN,false,UKOS,506228,224370,-0.45721,51.90775,BCT,MKD,OTH,,,,028,2020-12-16T00:00:00,2020-12-16T13:20:33,0,new,active
02903157,ltnawgt,,,Leagrave Railway Station,,,,,,,,,,SE-bound,,SE,E0039084,Leagrave,Luton,,Luton,EN,Leagrave,EN,false,UKOS,506217,224253,-0.4574,51.9067,BCT,MKD,OTH,,,,028,2020-12-16T00:00:00,2020-12-16T13:20:33,0,new,active
02903158,ltnawgw,,,Leagrave Railway Station,,,,BP Garage,,,,,,SW-bound,,SW,E0039084,Leagrave,Luton,,Luton,EN,Leagrave,EN,false,UKOS,506125,224227,-0.45875,51.90648,BCT,MKD,OTH,,,,028,2020-12-16T00:00:00,2023-04-14T11:48:21,0,new,active
02904509,ltndpwd,,,Leagrave Railway Station,,,,,,,,,,NW-bound,,NW,E0039084,Leagrave,Luton,,Luton,EN,Leagrave,EN,false,UKOS,506040,224315,-0.45996,51.90729,BCT,MKD,OTH,,,,028,2020-12-16T00:00:00,2020-12-16T13:20:33,0,new,active
02903214,ltnawtg,,,Barnfield College,,,,Barnfield College NBR,,,,,,opp,,E,N0071649,Barnfield,Luton,,Luton,EN,Barnfield,EN,false,UKOS,508588,224368,-0.42292,51.90728,BCT,MKD,OTH,,,,028,2002-10-10T00:00:00,2023-01-03T16:42:45,16,new,active
02903215,ltnawtj,,,Barnfield College,,,,Barnfield College NBR,,,,,,adj,,W,N0071649,Barnfield,Luton,,Luton,EN,Barnfield,EN,false,UKOS,508696,224396,-0.42134,51.90751,BCT,MKD,OTH,,,,028,2020-09-09T00:00:00,2023-01-03T16:42:31,23,new,active
02903216,ltnawtm,,,Barnfield Avenue,,,,,,,,,,adj,,S,N0071649,Barnfield,Luton,,Luton,EN,Barnfield,EN,false,UKOS,508559,224237,-0.42338,51.9061,BCT,MKD,OTH,,,,028,2020-09-09T00:00:00,2020-09-09T08:37:19,0,new,active
02903217,ltnawtp,,,Barnfield Avenue,,,,,,,,,,opp,,N,N0071649,Barnfield,Luton,,Luton,EN,Barnfield,EN,false,UKOS,508486,224419,-0.42438,51.90775,BCT,MKD,OTH,,,,028,2020-09-09T00:00:00,2020-09-09T08:37:19,0,new,active
02903558,ltndgpa,,,Tomlinson Avenue Junction,,Tomlinson Junction,,Wheatfield Court,,,,,,NW-bound,,NW,N0060399,Lewsey Farm,Luton,,Luton,EN,Lewsey Farm,EN,false,UKOS,503426,223809,-0.49809,51.90323,BCT,MKD,OTH,,,,028,2020-12-16T00:00:00,2020-12-16T13:20:33,0,new,active
02903556,ltndgmt,,,Tomlinson Avenue Junction,,Tomlinson Junction,,Wheatfield Court,,,,,,SW-bound,,SW,N0060399,Lewsey Farm,Luton,,Luton,EN,Lewsey Farm,EN,false,UKOS,503483,223856,-0.49725,51.90364,BCT,MKD,OTH,,,,028,2020-12-16T00:00:00,2020-12-16T13:20:33,0,new,active
02903567,ltndgpg,,,Tomlinson Avenue Junction,,Tomlinson Junction,,Wheatfield Court,,,,,,NE-bound,,NE,N0060399,Lewsey Farm,Luton,,Luton,EN,Lewsey Farm,EN,false,UKOS,503352,223787,-0.49917,51.90305,BCT,MKD,OTH,,,,028,2020-12-16T00:00:00,2020-12-16T13:20:33,0,new,active
02903802,ltndmda,,,Burr Street,,,,,,,,,,opp,,S,N0071638,Luton Town Centre,Luton,,Luton,EN,Town Centre,EN,false,UKOS,509551,221668,-0.40978,51.88282,BCT,MKD,OTH,,,,028,2020-09-09T00:00:00,2024-04-08T18:21:15,0,new,active
02903803,ltndmdg,,,Burr Street,,,,,,,,,,adj,,N,N0071638,Luton Town Centre,Luton,,Luton,EN,Town Centre,EN,false,UKOS,509530,221648,-0.41009,51.88265,BCT,MKD,OTH,,,,028,2020-09-09T00:00:00,2020-09-09T08:37:19,0,new,active
02904513,ltndpwg,,,Browns Close,,,,,,,,,,nr,,NW,E0039084,Leagrave,Luton,,Luton,EN,Leagrave,EN,false,UKOS,505956,224237,-0.4612,51.9066,BCT,MKD,OTH,,,,028,2020-09-09T00:00:00,2020-09-09T08:37:19,0,new,active
02904532,ltndtaj,,,Station Road,,,,,,,,,,opp,,NE,E0039084,Leagrave,Luton,,Luton,EN,Leagrave,EN,false,UKOS,505985,224085,-0.46083,51.90523,BCT,MKD,OTH,,,,028,2020-09-09T00:00:00,2020-09-09T08:37:19,0,new,active
02904533,ltndtam,,,Station Road,,,,,,,,,,adj,,SW,E0039084,Leagrave,Luton,,Luton,EN,Leagrave,EN,false,UKOS,506011,224099,-0.46044,51.90535,BCT,MKD,OTH,,,,028,2020-09-09T00:00:00,2020-09-09T08:37:19,0,new,active
02904723,ltndwpt,,,Icknield High School,,,,,,Riddy Lane,,,,adj,,E,N0071649,Barnfield,Luton,,Luton,EN,Barnfield,EN,false,UKOS,508424,224295,-0.42532,51.90665,BCT,MKD,OTH,,,,028,2020-09-09T00:00:00,2020-09-09T08:37:19,0,new,active
02904724,ltndwpw,,,Icknield High School,,,,,,Riddy Lane,,,,opp,,W,N0071649,Barnfield,Luton,,Luton,EN,Barnfield,EN,false,UKOS,508458,224280,-0.42483,51.90651,BCT,MKD,OTH,,,,028,2020-09-09T00:00:00,2020-09-09T08:37:19,0,new,active
0290LEAGRVE0,,,,Leagrave Rail Station,,,,,,,,,,Entrance,,,E0039084,Leagrave,Luton,,,,,,false,UKOS,506138,224083,-0.4586,51.90519,RSE,,,,,,028,2024-11-07T00:00:00,2024-11-29T16:55:21,20,new,active
029LUTOAPY0,,,,Luton Airport Parkway Rail Station,,,,,,,,,,Entrance,,,N0060524,Luton Airport,Luton,,,,,,false,UKOS,510517,220525,-0.39612,51.87236,RSE,,,,,,028,2024-11-06T00:00:00,2024-11-29T17:16:23,20,new,active
029LUTOAPY1,,,,Luton Airport Parkway Rail Station,,,,,,,,,,Entrance,,,N0060524,Luton Airport,Luton,,,,,,false,UKOS,510511,220612,-0.39618,51.87314,RSE,,,,,,028,2024-11-06T00:00:00,2024-11-29T17:15:36,28,new,active
0290LUTON0,,,,Luton Rail Station,,,,,,,,,,Entrance,,,E0057190,Luton,,,,,,,false,UKOS,509257,221597,-0.41407,51.88224,RSE,,,,,,028,1970-01-01T00:00:00,2024-11-29T17:11:24,2,new,active
0290LUTON3,,,,Luton Rail Station,,,,,,,,,,Entrance,,,E0057190,Luton,,,,,,,false,UKOS,509278,221618,-0.41376,51.88243,RSE,,,,,,028,1970-01-01T00:00:00,2024-11-29T17:10:46,10,new,active
02901408,ltnapjg,,,Frederick Street,,,,,,,,,,opp,,NW,E0039095,Wardown,Luton,,Luton,EN,Wardown,EN,false,UKOS,508979,221940,-0.418,51.88538,BCT,MKD,OTH,,,,028,2020-09-09T00:00:00,2020-09-09T08:37:19,0,new,active
02901409,ltnapjm,,,Frederick Street,,,,,,,,,,nr,,SE,E0039095,Wardown,Luton,,Luton,EN,Wardown,EN,false,UKOS,508996,221928,-0.41776,51.88527,BCT,MKD,OTH,,,,028,2020-09-09T00:00:00,2020-09-09T08:37:19,0,new,active
02901403,ltnapgp,,,Wardown Crescent,,,,,,,,,,adj,,S,E0039095,Wardown,Luton,,Luton,EN,Wardown,EN,false,UKOS,509002,222668,-0.41744,51.89192,BCT,MKD,OTH,,,,028,2020-09-09T00:00:00,2020-09-09T08:37:19,0,new,active
02901401,ltnapgj,,,Wardown Crescent,,,,,,,,,,opp,,N,E0039095,Wardown,Luton,,Luton,EN,Wardown,EN,false,UKOS,509021,222753,-0.41713,51.89268,BCT,MKD,OTH,,,,028,2020-09-09T00:00:00,2020-09-09T08:37:19,0,new,active
02901405,ltnapgw,,,Knights Field,,,,,,,,,,adj,,N,E0039095,Wardown,Luton,,Luton,EN,Wardown,EN,false,UKOS,508923,222380,-0.41867,51.88934,BCT,MKD,OTH,,,,028,2020-09-09T00:00:00,2022-07-04T12:58:56,3,new,active
02901404,ltnapgt,,,Knights Field,,,,,,,,,,opp,,S,E0039095,Wardown,Luton,,Luton,EN,Wardown,EN,false,UKOS,508928,222360,-0.41861,51.88916,BCT,MKD,OTH,,,,028,2020-09-09T00:00:00,2022-07-04T12:58:45,14,new,active
02901410,ltnapjp,,,Clarendon Road,,,,,,,,,,adj,,SE,E0039095,Wardown,Luton,,Luton,EN,Wardown,EN,false,UKOS,508929,222106,-0.41867,51.88688,BCT,MKD,OTH,,,,028,2020-09-09T00:00:00,2020-09-09T08:37:19,0,new,active
02901407,ltnapjd,,,Clarendon Road,,,,The Larches,,,,,,opp,,NW,E0039095,Wardown,Luton,,Luton,EN,Wardown,EN,false,UKOS,508928,222081,-0.4187,51.88665,BCT,MKD,OTH,,,,028,2020-09-09T00:00:00,2020-09-09T08:37:19,0,new,active
02903926,ltndmtj,,,Bushmead Road,,,,,,,,,,nr,,S,N0071649,Barnfield,Luton,,Luton,EN,Barnfield,EN,false,UKOS,509019,224062,-0.41675,51.90444,BCT,MKD,OTH,,,,028,2020-09-09T00:00:00,2020-09-09T08:37:19,0,new,active
02903924,ltndmtd,,,Bushmead Road,,,,,,,,,,opp,,N,N0071649,Barnfield,Luton,,Luton,EN,Barnfield,EN,false,UKOS,508994,224175,-0.41708,51.90546,BCT,MKD,OTH,,,,028,2020-09-09T00:00:00,2020-09-09T08:37:19,0,new,active
02901393,ltnapdg,,,Priory Gardens,,,,,,,,,,adj,,N,N0071649,Barnfield,Luton,,Luton,EN,Barnfield,EN,false,UKOS,509089,223481,-0.41592,51.89921,BCT,MKD,OTH,,,,028,2020-09-09T00:00:00,2020-09-09T08:37:19,0,new,active
02901392,ltnapda,,,Priory Gardens,,,,,,,,,,opp,,S,N0071649,Barnfield,Luton,,Luton,EN,Barnfield,EN,false,UKOS,509104,223444,-0.41571,51.89887,BCT,MKD,OTH,,,,028,2020-09-09T00:00:00,2020-09-09T08:37:19,0,new,active
02903170,ltnawjm,,,St Ethelbert Avenue,,,,,,,,,,opp,,NW,N0071655,Saints,Luton,,Luton,EN,Saints,EN,false,UKOS,507711,223573,-0.43591,51.9003,BCT,MKD,OTH,,,,028,2020-09-09T00:00:00,2020-09-09T08:37:19,0,new,active
02903171,ltnawjp,,,St Ethelbert Avenue,,,,,,,,,,adj,,SE,N0071655,Saints,Luton,,Luton,EN,Saints,EN,false,UKOS,507747,223563,-0.43539,51.9002,BCT,MKD,OTH,,,,028,2020-09-09T00:00:00,2020-09-09T08:37:19,0,new,active
02904583,ltndtpm,,,Selina Close,,,,,,,,,,adj,,SE,E0039093,Sundon Park,Luton,,Luton,EN,Sundon Park,EN,false,UKOS,505432,225002,-0.46858,51.91358,BCT,MKD,OTH,,,,028,2020-09-09T00:00:00,2020-09-09T08:37:19,0,new,active
02904582,ltndtpj,,,Selina Close,,,,,,,,,,opp,,NW,E0039093,Sundon Park,Luton,,Luton,EN,Sundon Park,EN,false,UKOS,505411,225026,-0.46888,51.9138,BCT,MKD,OTH,,,,028,2020-09-09T00:00:00,2020-09-09T08:37:19,0,new,active
02900025,ltnapw,,,Airport Carparkz Park & Ride,,,,Airport Carparkz Park & Ride,,Eaton Green Road,,,,inside,,E,N0060524,Luton Airport,Luton,,Luton,EN,Luton International Airport,EN,false,UKOS,511196,221696,-0.38588,51.88275,BCT,MKD,OTH,,,,028,2020-09-09T00:00:00,2020-09-09T08:37:19,0,new,active
02905081,ltngmjg,,,Acworth Crescent,,,,,,,,,,opp,,S,N0060398,Hockwell Ring,Luton,,Luton,EN,Hockwell Ring,EN,false,UKOS,505548,224233,-0.46713,51.90665,BCT,MKD,OTH,,,,028,2003-07-01T00:00:00,2013-04-24T15:45:00,0,new,active
02905051,ltngmam,,,Weldon Close,,,,,,,,,,nr,,SE,N0071637,Wigmore Park,Luton,,Luton,EN,Wigmore Park,EN,false,UKOS,512314,222428,-0.36941,51.8891,BCT,CUS,OTH,,,,028,2002-10-10T00:00:00,2013-04-24T10:37:00,0,new,active
02901264,ltnagwt,,,Cutlers Green,,,,Perrymead,,,,,,nr,,NW,N0071637,Wigmore Park,Luton,,Luton,EN,Wigmore Park,EN,false,UKOS,512578,222716,-0.36548,51.89164,BCT,MKD,OTH,,,,028,2002-10-10T00:00:00,2013-04-24T16:04:00,0,new,active
02905055,ltngmaw,,,Rose Wood Close,,,,,,,,,,nr,,NW,E0039089,Round Green,Luton,,Luton,EN,Round Green,EN,false,UKOS,510000,223040,-0.40282,51.89506,BCT,MKD,OTH,,,,028,2002-10-10T00:00:00,2013-04-24T10:46:00,0,new,active
02901378,ltnamwa,,,Birchen Grove,,,,,,,,,,nr,,NE,E0039089,Round Green,Luton,,Luton,EN,Round Green,EN,false,UKOS,510061,223057,-0.40193,51.8952,BCT,MKD,OTH,,,,028,2002-10-10T00:00:00,2024-04-09T13:59:14,32,new,active
02901622,ltnapwt,,,Leonardo UK,,,,Selex ES,,Service Road,,,,o/s,,NE,N0080460,Capability Green,,,Luton,EN,Capability Green,EN,false,UKOS,509542,219755,-0.41052,51.86563,BCT,MKD,OTH,,,,028,2013-05-17T00:00:00,2024-04-09T19:55:12,81,new,active
02901624,ltnatag,,,Building 500,,,,AB Inbev UK,,,,,,o/s,,SW,N0080460,Capability Green,,,Luton,EN,Capability Green,EN,false,UKOS,509665,219617,-0.40877,51.86437,BCT,MKD,OTH,,,,028,2013-05-17T00:00:00,2024-04-03T12:25:06,18,new,active
02903904,ltndmgj,,,Robinswood,,,,Stopsley Common Farm,,,,,,nr,,E,N0060422,Bushmead,Luton,,Luton,EN,Bushmead,EN,false,UKOS,509305,224301,-0.41252,51.90653,BCT,MKD,OTH,,,,028,2013-11-14T00:00:00,2013-11-14T14:20:00,0,new,active
02905002,ltngjdt,,,Broxley Mead,,,,Clifford Crescent,,,,,,SW-bound,,SW,N0060398,Hockwell Ring,Luton,,Luton,EN,Hockwell Ring,EN,false,UKOS,505451,224066,-0.46859,51.90516,BCT,MKD,OTH,,,,028,2020-12-16T00:00:00,2020-12-16T13:20:33,0,new,active
02900030,ltnawg,,,Lothair Road,,,,Plaza 668 Car Park,,Hitchin Road,,,,opp,,S,E0039092,Stopsley,Luton,,Luton,EN,Stopsley,EN,false,UKOS,510520,223963,-0.39497,51.90326,BCT,MKD,OTH,,,,028,2014-03-28T00:00:00,2014-03-28T14:30:00,0,new,active
02905083,ltngpaw,,,Latimer Road,,,,Holly Street,,Latimer Road,,,,S-bound,,S,E0039088,Park Town,Luton,,Luton,EN,Park Town,EN,false,UKOS,509316,220754,-0.41348,51.87465,BCT,MKD,OTH,,,,028,2020-09-09T00:00:00,2020-09-09T08:37:20,0,new,active
02905084,ltnadagd,,,Latimer Road,,,,Holly Street,,Latimer Road,,,,N-bound,,N,E0039088,Park Town,Luton,,Luton,EN,Park Town,EN,false,UKOS,509287,220706,-0.41392,51.87423,BCT,CUS,OTH,,,,028,2020-09-09T00:00:00,2024-03-06T14:28:52,46,new,active
02904714,ltndwmj,,,Grasmere Road,,,,,,,,,,adj,,N,E0039094,Warden Hill,Luton,,Luton,EN,Warden Hill,EN,false,UKOS,508286,225428,-0.42697,51.91686,BCT,MKD,OTH,,,,028,2020-09-09T00:00:00,2023-05-22T12:14:27,0,new,active
02903025,ltnatma,,,Durbar Road,,,,Post Office Tesco Express,,,,,,adj,,NW,N0071654,Maidenhall,Luton,,Luton,EN,Maidenhall,EN,false,UKOS,507590,222206,-0.43809,51.88804,BCT,MKD,OTH,,,,028,2020-09-09T00:00:00,2020-09-09T08:37:19,0,new,active
02900021,ltnajt,,,Butterfield Business Park,,,,Hilton Garden Inn,,,,,,nr,,S,E0039092,Stopsley,Luton,,Luton,EN,Stopsley,EN,false,UKOS,511062,224933,-0.38679,51.91187,BCT,MKD,OTH,,,,028,2020-09-09T00:00:00,2022-05-30T12:23:28,4,new,active
02904106,ltndmwg,,,Quantock Close,,,,Quantock Court,,,,,,opp,,S,N0071636,Bramingham Park,Luton,,Luton,EN,Bramingham Park,EN,false,UKOS,507833,225966,-0.43339,51.92178,BCT,MKD,OTH,,,,028,2020-09-09T00:00:00,2020-09-09T08:37:19,0,new,active
02904107,ltndmwj,,,Dexter Close,,,,,,,,,,adj,,N,N0071636,Bramingham Park,Luton,,Luton,EN,Bramingham Park,EN,false,UKOS,507808,226010,-0.43374,51.92218,BCT,MKD,OTH,,,,028,2020-09-09T00:00:00,2020-09-09T08:37:19,0,new,active
02904114,ltndpam,,,Speedwell Close,,,,Sainsbury's,,,,,,adj,,NW,N0071636,Bramingham Park,Luton,,Luton,EN,Bramingham Park,EN,false,UKOS,507522,225712,-0.43799,51.91956,BCT,MKD,OTH,,,,028,2020-09-09T00:00:00,2020-09-09T08:37:19,0,new,active
02904115,ltndpap,,,Speedwell Close,,,,Sainsbury's,,,,,,opp,,SE,N0071636,Bramingham Park,Luton,,Luton,EN,Bramingham Park,EN,false,UKOS,507546,225716,-0.43764,51.91959,BCT,MKD,OTH,,,,028,2020-09-09T00:00:00,2020-09-09T08:37:19,0,new,active
02900100,ltngmjt,,,Luton Centre Park Square,,,,Church Street,,,,,,Taxi rank,,,N0071638,Luton Town Centre,Luton,,Luton,EN,Town Centre,EN,false,UKOS,509362,221117,-0.4127,51.87791,TXR,,,,,,028,2020-09-09T00:00:00,2024-02-19T11:16:48,0,new,active
02900101,ltngmjw,,,Luton Centre Park Street,,,,Park Street West,,,,,,Taxi rank,,,N0071638,Luton Town Centre,Luton,,Luton,EN,Town Centre,EN,false,UKOS,509388,221099,-0.41233,51.87774,TXR,,,,,,028,2020-09-09T00:00:00,2024-02-19T11:16:57,0,new,active
02900207,ltngmpm,,,Luton Rail Station,,,,Luton Rail Station,,Station Road,,,,Taxi rank,,,N0071638,Luton Town Centre,Luton,,Luton,EN,Town Centre,EN,false,UKOS,509181,221616,-0.41517,51.88243,TXR,,,,,,028,2021-10-12T00:00:00,2021-10-12T16:29:04,0,new,active
02900205,ltngmpg,,,Luton Airport Parkway Rail Station,,,,Adjacent entrance,,Luton Airport Parkway Rail Station,,,,Taxi rank,,,N0071659,Vauxhall,Luton,,Luton,EN,Vauxhall,EN,false,UKOS,510536,220509,-0.39585,51.87221,TXR,,,,,,028,2020-09-09T00:00:00,2020-09-09T08:37:20,0,new,active
02900102,ltngmpa,,,Luton Centre Cheapside,,,,John Street,,,,,,Taxi rank,,,N0071638,Luton Town Centre,Luton,,Luton,EN,Town Centre,EN,false,UKOS,509262,221380,-0.41407,51.88029,TXR,,,,,,028,2020-09-09T00:00:00,2020-09-09T08:37:20,0,new,active
02904727,ltndwtg,,,Kinsgley Road,,,,,,,,,,opp,,W,E0039085,Limbury,Luton,,Luton,EN,Limbury,EN,false,UKOS,507424,223965,-0.43995,51.90388,BCT,MKD,OTH,,,,028,2020-09-09T00:00:00,2022-11-29T16:57:14,1,new,active
02904728,ltndwtj,,,Kingsley Road,,,,Limbury Baptist Church,,,,,,nr,,E,E0039085,Limbury,Luton,,Luton,EN,Limbury,EN,false,UKOS,507329,224017,-0.44132,51.90436,BCT,MKD,OTH,,,,028,2020-09-09T00:00:00,2020-09-09T08:37:19,0,new,active
02904741,ltngadt,,,African Caribbean Centre,,,,,,,,,,nr,,NW,E0039085,Limbury,Luton,,Luton,EN,Limbury,EN,false,UKOS,507622,223869,-0.43711,51.90298,BCT,MKD,OTH,,,,028,2020-09-09T00:00:00,2020-09-09T08:37:19,0,new,active
02904740,ltngadp,,,African Caribbean Centre,,,,,,,,,,opp,,SE,E0039085,Limbury,Luton,,Luton,EN,Limbury,EN,false,UKOS,507559,223916,-0.43801,51.90341,BCT,MKD,OTH,,,,028,2020-09-09T00:00:00,2020-09-09T08:37:19,0,new,active
02903902,ltndmga,,,Harveys Hill,,,,,,,,,,nr,,S,N0060422,Bushmead,Luton,,Luton,EN,Bushmead,EN,false,UKOS,509499,224272,-0.40971,51.90623,BCT,MKD,OTH,,,,028,2020-09-09T00:00:00,2020-09-09T08:37:19,0,new,active
02903901,ltndmdw,,,Harveys Hill,,,,,,,,,,opp,,NE,N0060422,Bushmead,Luton,,Luton,EN,Bushmead,EN,false,UKOS,509466,224220,-0.4102,51.90577,BCT,MKD,OTH,,,,028,2020-09-09T00:00:00,2020-09-09T08:37:19,0,new,active
02907023,ltngdaw,,,Whitethorn Way,,,,,,,,,,opp,,W,N0060420,Farley Hill,Luton,,Luton,EN,Farley Hill,EN,false,UKOS,507269,220885,-0.44316,51.87623,BCT,MKD,OTH,,,,028,2020-09-09T00:00:00,2020-09-09T08:37:19,0,new,active
02907038,ltngdma,,,Wilsden Avenue,,,,,,,,,,opp,,SW,N0060420,Farley Hill,Luton,,Luton,EN,Farley Hill,EN,false,UKOS,508538,220264,-0.42493,51.8704,BCT,MKD,OTH,,,,028,2020-09-09T00:00:00,2020-09-09T08:37:19,0,new,active
02907039,ltngdmd,,,Wilsden Avenue,,,,Flint Court,,,,,,nr,,NE,N0060420,Farley Hill,Luton,,Luton,EN,Farley Hill,EN,false,UKOS,508616,220423,-0.42375,51.87181,BCT,MKD,OTH,,,,028,2020-09-09T00:00:00,2020-09-09T08:37:19,0,new,active
02907203,ltngdpm,,,Farley Farm Road,,,,,,Farley Hill,,,,opp,,SW,N0060420,Farley Hill,Luton,,Luton,EN,Farley Hill,EN,false,UKOS,508136,219964,-0.43086,51.86778,BCT,MKD,OTH,,,,028,2020-09-09T00:00:00,2020-09-09T08:37:19,0,new,active
02907204,ltngdpt,,,Farley Farm Road,,,,,,Farley Hill,,,,nr,,NE,N0060420,Farley Hill,Luton,,Luton,EN,Farley Hill,EN,false,UKOS,508033,219933,-0.43237,51.86752,BCT,MKD,OTH,,,,028,2020-09-09T00:00:00,2020-09-09T08:37:19,0,new,active
02907013,ltngawj,,,Meyrick Avenue,,,,,,,,,,o/s,,SW,N0071651,Chapel Langley,Luton,,Luton,EN,Chapel Langley,EN,false,UKOS,508012,220829,-0.43239,51.87558,BCT,MKD,OTH,,,,028,2020-09-09T00:00:00,2020-09-09T08:37:19,0,new,active
02904130,ltndpgt,,,Morris Close,,,,,,,,,,adj,,N,E0039086,Marsh Farm,Luton,,Luton,EN,Marsh Farm,EN,false,UKOS,506407,225769,-0.45417,51.92029,BCT,MKD,OTH,,,,028,2020-09-09T00:00:00,2020-09-09T08:37:19,0,new,active
02904129,ltndpgp,,,Wexham Close,,,,,,,,,,adj,,NW,E0039086,Marsh Farm,Luton,,Luton,EN,Marsh Farm,EN,false,UKOS,506336,225929,-0.45516,51.92174,BCT,MKD,OTH,,,,028,2020-09-09T00:00:00,2020-09-09T08:37:19,0,new,active
02904128,ltndpgm,,,Wexham Close,,,,,,,,,,opp,,SE,E0039086,Marsh Farm,Luton,,Luton,EN,Marsh Farm,EN,false,UKOS,506370,225878,-0.45468,51.92127,BCT,MKD,OTH,,,,028,2020-09-09T00:00:00,2020-09-09T08:37:19,0,new,active
02904105,ltndmwd,,,Edgcott Close,,,,,,,,,,adj,,N,N0071636,Bramingham Park,Luton,,Luton,EN,Bramingham Park,EN,false,UKOS,507750,226195,-0.43452,51.92386,BCT,MKD,OTH,,,,028,2020-09-09T00:00:00,2020-09-09T08:37:19,0,new,active
02904104,ltndmwa,,,Edgcott Close,,,,,,,,,,opp,,S,N0071636,Bramingham Park,Luton,,Luton,EN,Bramingham Park,EN,false,UKOS,507778,226157,-0.43413,51.92351,BCT,MKD,OTH,,,,028,2020-09-09T00:00:00,2020-09-09T08:37:19,0,new,active
02903543,ltndgdw,,,Runham Close,,,,,,,,,,opp,,E,N0060401,Lewsey Park,Luton,,Luton,EN,Lewsey Park,EN,false,UKOS,504564,223781,-0.48157,51.90277,BCT,MKD,OTH,,,,028,2020-09-09T00:00:00,2020-09-09T08:37:19,0,new,active
02903542,ltndgdt,,,Runham Close,,,,,,,,,,adj,,W,N0060401,Lewsey Park,Luton,,Luton,EN,Lewsey Park,EN,false,UKOS,504540,223772,-0.48192,51.90269,BCT,MKD,OTH,,,,028,2020-09-09T00:00:00,2020-09-09T08:37:19,0,new,active
02901081,ltnadwd,,,Ilford Close,,,,Seaford Close,,,,,,adj,,E,N0060424,Wigmore,Luton,,Luton,EN,Wigmore,EN,false,UKOS,511461,223280,-0.38152,51.89693,BCT,MKD,OTH,,,,028,2020-09-09T00:00:00,2020-09-09T08:37:19,0,new,active
02902010,ltnatdt,,,Sundon Arch,,,,Brocket Court,,,,,,nr,,SE,E0039084,Leagrave,Luton,,Luton,EN,Leagrave,EN,false,UKOS,505683,224516,-0.46508,51.90916,BCT,MKD,OTH,,,,028,2020-09-09T00:00:00,2020-09-09T08:37:19,0,new,active
02902009,ltnatdp,,,Sundon Arch,,,,Green Bushes,,,,,,opp,,NW,E0039084,Leagrave,Luton,,Luton,EN,Leagrave,EN,false,UKOS,505652,224524,-0.46553,51.90924,BCT,MKD,OTH,,,,028,2020-09-09T00:00:00,2020-09-09T08:37:19,0,new,active
02904137,ltndpjt,,,Littlewood Croft,,,,,,,,,,nr,,S,E0039086,Marsh Farm,Luton,,Luton,EN,Marsh Farm,EN,false,UKOS,506208,225171,-0.45725,51.91495,BCT,MKD,OTH,,,,028,2021-10-12T00:00:00,2021-10-12T16:29:04,0,new,active
02904136,ltndpjp,,,Littlewood Croft,,,,,,,,,,opp,,N,E0039086,Marsh Farm,Luton,,Luton,EN,Marsh Farm,EN,false,UKOS,506180,225110,-0.45768,51.91441,BCT,MKD,OTH,,,,028,2021-10-12T00:00:00,2021-10-12T16:29:04,0,new,active
02901026,ltnadjg,,,Abbots Wood Road,,,,St Anne's Parish Church,,,,,,nr,,NE,N0071656,St Annes,Luton,,Luton,EN,St Annes,EN,false,UKOS,510365,221723,-0.39794,51.88316,BCT,MKD,OTH,,,,028,2020-09-09T00:00:00,2020-09-09T08:37:19,0,new,active
02904573,ltndtmd,,,Wraysbury Close,,,,Wraysbury Close,,,,,,nr,,SE,E0039084,Leagrave,Luton,,Luton,EN,Leagrave,EN,false,UKOS,505707,223308,-0.4651,51.8983,BCT,MKD,OTH,,,,028,2020-09-09T00:00:00,2020-09-09T08:37:19,0,new,active
02904572,ltndtma,,,Wraysbury Close,,,,,,,,,,opp,,NW,E0039084,Leagrave,Luton,,Luton,EN,Leagrave,EN,false,UKOS,505739,223267,-0.46465,51.89793,BCT,MKD,OTH,,,,028,2020-09-09T00:00:00,2020-09-09T08:37:19,0,new,active
02904577,ltndtmt,,,Ouseley Close,,,,,,,,,,adj,,SW,E0039084,Leagrave,Luton,,Luton,EN,Leagrave,EN,false,UKOS,505689,223482,-0.46531,51.89987,BCT,MKD,OTH,,,,028,2020-09-09T00:00:00,2020-09-09T08:37:19,0,new,active
02904576,ltndtmp,,,Ouseley Close,,,,,,,,,,opp,,NE,E0039084,Leagrave,Luton,,Luton,EN,Leagrave,EN,false,UKOS,505658,223472,-0.46576,51.89979,BCT,MKD,OTH,,,,028,2020-09-09T00:00:00,2020-09-09T08:37:19,0,new,active
02907025,ltngdgd,,,Bluebell Wood Close,,,,,,,,,,adj,,N,N0060420,Farley Hill,Luton,,Luton,EN,Farley Hill,EN,false,UKOS,507045,221079,-0.44636,51.87801,BCT,MKD,OTH,,,,028,2020-09-09T00:00:00,2020-09-09T08:37:19,0,new,active
02901029,ltnadjt,,,Somerset House,,,,Somerset House,,,,,,nr,,NE,N0071656,St Annes,Luton,,Luton,EN,St Annes,EN,false,UKOS,510754,222167,-0.39215,51.88707,BCT,MKD,OTH,,,,028,2020-09-09T00:00:00,2023-01-23T16:39:46,0,new,active
02901028,ltnadjp,,,Somerset House,,,,Somerset House,,,,,,opp,,SW,N0071656,St Annes,Luton,,Luton,EN,St Annes,EN,false,UKOS,510699,222100,-0.39297,51.88648,BCT,MKD,OTH,,,,028,2020-09-09T00:00:00,2023-01-23T16:39:08,0,new,active
02901002,ltnadap,,,Crescent Road,,,,,,,,,,nr,,NE,N0071656,St Annes,Luton,,Luton,EN,St Annes,EN,false,UKOS,510024,221312,-0.40302,51.87953,BCT,MKD,OTH,,,,028,2020-09-09T00:00:00,2023-01-23T16:43:33,0,new,active
02901003,ltnadat,,,Crescent Road,,,,,,,,,,opp,,SW,N0071656,St Annes,Luton,,Luton,EN,St Annes,EN,false,UKOS,510015,221292,-0.40316,51.87935,BCT,MKD,OTH,,,,028,2020-09-09T00:00:00,2023-01-23T16:43:53,0,new,active
02907012,ltngawg,,,Milton Road,,,,,,,,,,W-bound,,W,N0071651,Chapel Langley,Luton,,Luton,EN,Chapel Langley,EN,false,UKOS,508172,220817,-0.43007,51.87544,BCT,MKD,OTH,,,,028,2020-09-09T00:00:00,2020-09-09T08:37:20,0,new,active
02907011,ltngawd,,,Milton Road,,,,,,,,,,nr,,E,N0071651,Chapel Langley,Luton,,Luton,EN,Chapel Langley,EN,false,UKOS,508203,220816,-0.42962,51.87543,BCT,MKD,OTH,,,,028,2020-09-09T00:00:00,2020-09-09T08:37:19,0,new,active
02901025,ltnadjd,,,Leygreen Close,,,,,,,,,,adj,,SW,N0071656,St Annes,Luton,,Luton,EN,St Annes,EN,false,UKOS,510476,221846,-0.39629,51.88424,BCT,MKD,OTH,,,,028,2020-09-09T00:00:00,2020-09-09T08:37:19,0,new,active
02907019,ltngdaj,,,Rotheram Avenue,,,,,,,,,,adj,,NW,N0060420,Farley Hill,Luton,,Luton,EN,Farley Hill,EN,false,UKOS,507626,220505,-0.4381,51.87274,BCT,MKD,OTH,,,,028,2020-09-09T00:00:00,2020-09-09T08:37:19,0,new,active
02903917,ltndmpd,,,Thetford Gardens,,,,,,,,,,opp,,W,N0060422,Bushmead,Luton,,Luton,EN,Bushmead,EN,false,UKOS,509026,224804,-0.41641,51.91111,BCT,MKD,OTH,,,,028,2020-09-09T00:00:00,2020-09-09T08:37:19,0,new,active
02903918,ltndmpg,,,Thetford Gardens,,,,,,,,,,nr,,E,N0060422,Bushmead,Luton,,Luton,EN,Bushmead,EN,false,UKOS,509076,224789,-0.41569,51.91096,BCT,MKD,OTH,,,,028,2020-09-09T00:00:00,2023-05-22T12:06:47,0,new,active
02903209,ltnawpm,,,Fairford Avenue Roundabout,,,,,,,,,,nr,,E,N0060422,Bushmead,Luton,,Luton,EN,Bushmead,EN,false,UKOS,509267,224162,-0.41311,51.90529,BCT,MKD,OTH,,,,028,2020-09-09T00:00:00,2020-09-09T08:37:19,0,new,active
02903907,ltndmgt,,,Gleneagles Drive,,,,Bushmead Shops,,,,,,opp,,NW,N0060422,Bushmead,Luton,,Luton,EN,Bushmead,EN,false,UKOS,509392,224514,-0.41119,51.90843,BCT,MKD,OTH,,,,028,2020-09-09T00:00:00,2020-09-09T08:37:19,0,new,active
02903908,ltndmgw,,,Gleneagles Drive,,,,Bushmead Shops,,,,,,nr,,SE,N0060422,Bushmead,Luton,,Luton,EN,Bushmead,EN,false,UKOS,509390,224546,-0.41121,51.90872,BCT,MKD,OTH,,,,028,2020-09-09T00:00:00,2020-09-09T08:37:19,0,new,active
02902007,ltnatdj,,,Stoneways Close,,,,,,,,,,opp,,E,N0071658,Tophill,Luton,,Luton,EN,Tophill,EN,false,UKOS,505517,224643,-0.46746,51.91034,BCT,MKD,OTH,,,,028,2021-10-12T00:00:00,2021-10-12T16:29:04,0,new,active
02904549,ltndtda,,,Beechwood Roundabout,,,,Larkspur Gardens,,,,,,SE-bound,,SE,N0071654,Maidenhall,Luton,,Luton,EN,Maidenhall,EN,false,UKOS,506650,222870,-0.45154,51.89419,BCT,MKD,OTH,,,,028,2020-12-16T00:00:00,2020-12-16T13:20:33,0,new,active
02904548,ltndtaw,,,Beechwood Roundabout,,,,,,,,,,NW-bound,,NW,N0071654,Maidenhall,Luton,,Luton,EN,Maidenhall,EN,false,UKOS,506621,222889,-0.45195,51.89436,BCT,MKD,OTH,,,,028,2020-12-16T00:00:00,2020-12-16T13:20:33,0,new,active
02904743,ltngaga,,,Black Swan Lane,,,,,,,,,,opp,,N,E0039085,Limbury,Luton,,Luton,EN,Limbury,EN,false,UKOS,507203,224265,-0.44307,51.90662,BCT,MKD,OTH,,,,028,2020-09-09T00:00:00,2020-09-09T08:37:19,0,new,active
02904744,ltngagd,,,Black Swan Lane,,,,,,,,,,nr,,S,E0039085,Limbury,Luton,,Luton,EN,Limbury,EN,false,UKOS,507206,224343,-0.443,51.90732,BCT,MKD,OTH,,,,028,2020-09-09T00:00:00,2020-09-09T08:37:19,0,new,active
02903200,ltnawmg,,,Cromwell Hill,,,,,,,,,,nr,,S,E0039095,Wardown,Luton,,Luton,EN,Wardown,EN,false,UKOS,508771,222084,-0.42098,51.88671,BCT,MKD,OTH,,,,028,2020-09-09T00:00:00,2020-09-09T08:37:19,0,new,active
02903202,ltnawmp,,,Cromwell Hill,,,,,,,,,,opp,,N,E0039095,Wardown,Luton,,Luton,EN,Wardown,EN,false,UKOS,508755,222178,-0.42118,51.88756,BCT,MKD,OTH,,,,028,2020-09-09T00:00:00,2020-09-09T08:37:19,0,new,active
02901098,ltnagat,,,Summers Road,,,,,,,,,,opp,,S,N0071660,Vauxhall Park,Luton,,Luton,EN,Vauxhall Park,EN,false,UKOS,511477,222422,-0.38157,51.88922,BCT,MKD,OTH,,,,028,2020-09-09T00:00:00,2020-09-09T08:37:19,0,new,active
02901099,ltnagaw,,,Summers Road,,,,,,,,,,adj,,N,N0071660,Vauxhall Park,Luton,,Luton,EN,Vauxhall Park,EN,false,UKOS,511465,222434,-0.38174,51.88933,BCT,MKD,OTH,,,,028,2020-09-09T00:00:00,2020-09-09T08:37:19,0,new,active
02901364,ltnampa,,,St Matthew's Primary School,,,,St Matthew's Primary School,,,,,,opp,,NE,E0039083,High Town,Luton,,Luton,EN,High Town,EN,false,UKOS,509370,222086,-0.41228,51.88661,BCT,MKD,OTH,,,,028,2020-09-09T00:00:00,2020-09-09T08:37:19,0,new,active
02901330,ltnamdp,,,St Matthew's Primary School,,,,St Matthew's Primary School,,North Street,,,,o/s,,SW,E0039083,High Town,Luton,,Luton,EN,High Town,EN,false,UKOS,509395,222085,-0.41191,51.8866,BCT,MKD,OTH,,,,028,2020-09-09T00:00:00,2020-09-09T08:37:19,0,new,active
02903714,ltndjwp,,,Warren Road,,,,Bilton Way Trade Park,,,,,,opp,,E,N0071652,Dallow,Luton,,Luton,EN,Dallow,EN,false,UKOS,506637,221799,-0.45206,51.88456,BCT,MKD,OTH,,,,028,2020-09-09T00:00:00,2020-09-09T08:37:19,0,new,active
02903713,ltndjwm,,,Warren Road,,,,Bilton Way Trade Park,,,,,,nr,,W,N0071652,Dallow,Luton,,Luton,EN,Dallow,EN,false,UKOS,506659,221786,-0.45174,51.88444,BCT,MKD,OTH,,,,028,2020-09-09T00:00:00,2023-07-27T11:58:14,0,new,active
02903704,ltndjtj,,,Dallow Primary School,,,,Dallow Primary School,,,,,,opp,,W,N0071652,Dallow,Luton,,Luton,EN,Dallow,EN,false,UKOS,508226,221459,-0.42909,51.8812,BCT,MKD,OTH,,,,028,2020-09-09T00:00:00,2023-02-06T15:10:58,0,new,active
02903703,ltndjtg,,,Dallow Primary School,,,,Dallow Primary School,,,,,,o/s,,E,N0071652,Dallow,Luton,,Luton,EN,Dallow,EN,false,UKOS,508309,221459,-0.42788,51.88119,BCT,MKD,OTH,,,,028,2020-09-09T00:00:00,2023-06-07T16:45:32,0,new,active
02903711,ltndjwg,,,Foxdell Infant School,,,,Foxdell Infant School,,,,,,opp,,E,N0071652,Dallow,Luton,,Luton,EN,Dallow,EN,false,UKOS,507087,221725,-0.44555,51.88381,BCT,MKD,OTH,,,,028,2020-09-09T00:00:00,2020-09-09T08:37:19,0,new,active
02903712,ltndjwj,,,Foxdell Infant School,,,,Foxdell Infant School,,,,,,nr,,W,N0071652,Dallow,Luton,,Luton,EN,Dallow,EN,false,UKOS,506937,221733,-0.44772,51.88391,BCT,MKD,OTH,,,,028,2020-09-09T00:00:00,2024-02-29T18:36:48,0,new,active
02904614,ltndwdg,,,Wolfsburg Court,,,,,,,,,,adj,,SE,N0060398,Hockwell Ring,Luton,,Luton,EN,Hockwell Ring,EN,false,UKOS,505172,224140,-0.47262,51.90588,BCT,MKD,OTH,,,,028,2020-09-09T00:00:00,2023-10-30T21:24:27,0,new,active
02904610,ltndwap,,,Strangers Way,,,,,,,,,,nr,,SW,N0060398,Hockwell Ring,Luton,,Luton,EN,Hockwell Ring,EN,false,UKOS,505166,223957,-0.47277,51.90424,BCT,MKD,OTH,,,,028,2020-09-09T00:00:00,2020-09-09T08:37:19,0,new,active
02901358,ltnamjd,,,Villa Road,,,,,,,,,,opp,,S,E0039095,Wardown,Luton,,Luton,EN,Wardown,EN,false,UKOS,509052,221721,-0.41701,51.8834,BCT,MKD,OTH,,,,028,2020-09-09T00:00:00,2020-09-09T08:37:19,0,new,active
02901359,ltnamjg,,,Villa Road,,,,,,,,,,nr,,N,E0039095,Wardown,Luton,,Luton,EN,Wardown,EN,false,UKOS,509009,221844,-0.4176,51.88451,BCT,MKD,OTH,,,,028,2020-09-09T00:00:00,2020-09-09T08:37:19,0,new,active
02901402,ltnapgm,,,Bowling Green Lane,,,,,,,,,,adj,,S,E0039095,Wardown,Luton,,Luton,EN,Wardown,EN,false,UKOS,509059,222874,-0.41654,51.89376,BCT,MKD,OTH,,,,028,2020-09-09T00:00:00,2020-09-09T08:37:19,0,new,active
02901400,ltnapgd,,,Bowling Green Lane,,,,,,,,,,opp,,N,E0039095,Wardown,Luton,,Luton,EN,Wardown,EN,false,UKOS,509052,222932,-0.41663,51.89428,BCT,MKD,OTH,,,,028,2020-09-09T00:00:00,2020-09-09T08:37:19,0,new,active
02901406,ltnapja,,,The Wickets,,,,,,,,,,opp,,N,E0039095,Wardown,Luton,,Luton,EN,Wardown,EN,false,UKOS,508912,222288,-0.41886,51.88852,BCT,MKD,OTH,,,,028,2020-09-09T00:00:00,2022-08-25T10:55:27,6,delete,inactive
02903900,ltndmdt,,,Foxhill,,,,,,,,,,opp,,SW,N0060422,Bushmead,Luton,,Luton,EN,Bushmead,EN,false,UKOS,509440,224175,-0.4106,51.90537,BCT,MKD,OTH,,,,028,2020-09-09T00:00:00,2020-09-09T08:37:19,0,new,active
02903541,ltndgdp,,,Roydon Close,,,,Lewsey Park Court,,,,,,opp,,S,N0060401,Lewsey Park,Luton,,Luton,EN,Lewsey Park,EN,false,UKOS,504355,223655,-0.48464,51.90168,BCT,MKD,OTH,,,,028,2020-09-09T00:00:00,2020-09-09T08:37:19,0,new,active
02903540,ltndgdm,,,Roydon Close,,,,Lewsey Park Court,,,,,,nr,,NE,N0060401,Lewsey Park,Luton,,Luton,EN,Lewsey Park,EN,false,UKOS,504365,223727,-0.48447,51.90232,BCT,MKD,OTH,,,,028,2020-09-09T00:00:00,2020-09-09T08:37:19,0,new,active
02903903,ltndmgd,,,Pytchley Close,,,,,,,,,,nr,,SW,N0060422,Bushmead,Luton,,Luton,EN,Bushmead,EN,false,UKOS,509367,224322,-0.41161,51.90671,BCT,MKD,OTH,,,,028,2020-09-09T00:00:00,2022-06-08T11:29:54,5,new,active
02907002,ltngapw,,,Elizabeth Street,,,,,,,,,,opp,,S,N0071651,Chapel Langley,Luton,,Luton,EN,Chapel Langley,EN,false,UKOS,509003,220809,-0.41801,51.87521,BCT,MKD,OTH,,,,028,2020-09-09T00:00:00,2020-09-09T08:37:19,0,new,active
02907042,ltngdmp,,,Elizabeth Street,,,,,,,,,,adj,,N,N0071651,Chapel Langley,Luton,,Luton,EN,Chapel Langley,EN,false,UKOS,508976,220780,-0.41841,51.87495,BCT,MKD,OTH,,,,028,2020-09-09T00:00:00,2020-09-09T08:37:19,0,new,active
02907003,ltngata,,,Dumfries Court,,,,,,,,,,o/s,,W,N0071651,Chapel Langley,Luton,,Luton,EN,Chapel Langley,EN,false,UKOS,508958,220873,-0.41864,51.87579,BCT,MKD,OTH,,,,028,2020-09-09T00:00:00,2020-09-09T08:37:19,0,new,active
02904612,ltndwaw,,,Ickley Close,,,,,,,,,,nr,,NE,N0060398,Hockwell Ring,Luton,,Luton,EN,Hockwell Ring,EN,false,UKOS,504894,224019,-0.4767,51.90485,BCT,MKD,OTH,,,,028,2020-09-09T00:00:00,2020-09-09T08:37:19,0,new,active
02904613,ltndwda,,,Pond Close,,,,,,,,,,nr,,NE,N0060398,Hockwell Ring,Luton,,Luton,EN,Hockwell Ring,EN,false,UKOS,504966,224097,-0.47563,51.90553,BCT,MKD,OTH,,,,028,2020-09-09T00:00:00,2020-09-09T08:37:19,0,new,active
02903925,ltndmtg,,,Luton 6th Form,,,,Luton 6th Form College,,,,,,opp,,N,N0071649,Barnfield,Luton,,Luton,EN,Barnfield,EN,false,UKOS,509041,223830,-0.4165,51.90235,BCT,MKD,OTH,,,,028,2020-09-09T00:00:00,2020-09-09T08:37:19,0,new,active
02901390,ltnapat,,,Luton 6th Form,,,,Luton 6th Form College,,,,,,nr,,S,N0071649,Barnfield,Luton,,Luton,EN,Barnfield,EN,false,UKOS,509084,223715,-0.41591,51.90131,BCT,MKD,OTH,,,,028,2020-09-09T00:00:00,2020-09-09T08:37:19,0,new,active
02903544,ltndgja,,,Heacham Close,,,,,,,,,,opp,,S,N0060401,Lewsey Park,Luton,,Luton,EN,Lewsey Park,EN,false,UKOS,504658,223955,-0.48015,51.90431,BCT,MKD,OTH,,,,028,2020-09-09T00:00:00,2020-09-09T08:37:19,0,new,active
02903545,ltndgjd,,,Heacham Close,,,,,,,,,,nr,,N,N0060401,Lewsey Park,Luton,,Luton,EN,Lewsey Park,EN,false,UKOS,504622,223973,-0.48066,51.90448,BCT,MKD,OTH,,,,028,2020-09-09T00:00:00,2020-09-09T08:37:19,0,new,active
02907034,ltngdjm,,,The Crossway,,,,,,,,,,opp,,NW,N0060420,Farley Hill,Luton,,Luton,EN,Farley Hill,EN,false,UKOS,508184,220243,-0.43008,51.87028,BCT,MKD,OTH,,,,028,2020-09-09T00:00:00,2020-09-09T08:37:19,0,new,active
02907035,ltngdjp,,,The Crossway,,,,,,,,,,nr,,SE,N0060420,Farley Hill,Luton,,Luton,EN,Farley Hill,EN,false,UKOS,508223,220231,-0.42952,51.87017,BCT,MKD,OTH,,,,028,2020-09-09T00:00:00,2020-09-09T08:37:19,0,new,active
02903045,ltnatwp,,,Liverpool Road,,,,,,,,,,opp,,NW,N0071638,Luton Town Centre,Luton,,Luton,EN,Town Centre,EN,false,UKOS,508636,221406,-0.42315,51.88065,BCT,MKD,OTH,,,,028,2020-09-09T00:00:00,2020-09-09T08:37:19,0,new,active
02903509,ltndgag,,,Liverpool Road,,,,,,,,,,adj,,SE,N0071638,Luton Town Centre,Luton,,Luton,EN,Town Centre,EN,false,UKOS,508670,221397,-0.42266,51.88056,BCT,MKD,OTH,,,,028,2020-09-09T00:00:00,2020-09-09T08:37:19,0,new,active
02903028,ltnatmj,,,Kingsway,,,,,,,,,,opp,,E,N0071654,Maidenhall,Luton,,Luton,EN,Maidenhall,EN,false,UKOS,507136,222500,-0.44459,51.89077,BCT,MKD,OTH,,,,028,2020-09-09T00:00:00,2023-06-07T15:46:52,0,new,active
02903027,ltnatmg,,,Kingsway,,,,,,,,,,nr,,NW,N0071654,Maidenhall,Luton,,Luton,EN,Maidenhall,EN,false,UKOS,507273,222437,-0.44262,51.89018,BCT,MKD,OTH,,,,028,2020-09-09T00:00:00,2023-02-22T17:22:01,0,new,active
02903040,ltnatwd,,,Browning Road,,,,,,,,,,opp,,W,N0071653,Lewsey,Luton,,Luton,EN,Luton & Dunstable Hospital,EN,false,UKOS,504455,222532,-0.48353,51.89156,BCT,MKD,OTH,,,,028,2020-09-09T00:00:00,2020-09-09T08:37:19,0,new,active
02903041,ltnatwg,,,Browning Road,,,,,,,,,,adj,,E,N0071653,Lewsey,Luton,,Luton,EN,Luton & Dunstable Hospital,EN,false,UKOS,504388,222528,-0.4845,51.89154,BCT,MKD,OTH,,,,028,2020-09-09T00:00:00,2020-09-09T08:37:19,0,new,active
02901041,ltnadpj,,,Hallwicks Road,,,,,,,,,,nr,,SW,E0039092,Stopsley,Luton,,Luton,EN,Stopsley,EN,false,UKOS,510643,223352,-0.39338,51.89774,BCT,MKD,OTH,,,,028,2020-09-09T00:00:00,2020-09-09T08:37:19,0,new,active
02901042,ltnadpm,,,Hallwicks Road,,,,,,,,,,opp,,NE,E0039092,Stopsley,Luton,,Luton,EN,Stopsley,EN,false,UKOS,510661,223387,-0.39311,51.89805,BCT,MKD,OTH,,,,028,2020-09-09T00:00:00,2020-09-09T08:37:19,0,new,active
02901043,ltnadpt,,,Walnut Close,,,,,,,,,,opp,,S,E0039092,Stopsley,Luton,,Luton,EN,Stopsley,EN,false,UKOS,510731,223546,-0.39204,51.89947,BCT,MKD,OTH,,,,028,2020-09-09T00:00:00,2020-09-09T08:37:19,0,new,active
02901044,ltnadpw,,,Walnut Close,,,,,,,,,,nr,,N,E0039092,Stopsley,Luton,,Luton,EN,Stopsley,EN,false,UKOS,510708,223582,-0.39236,51.89979,BCT,MKD,OTH,,,,028,2020-09-09T00:00:00,2020-09-09T08:37:19,0,new,active
02904902,ltngapm,,,Turnpike Drive,,,,,,,,,,nr,,S,E0039094,Warden Hill,Luton,,Luton,EN,Warden Hill,EN,false,UKOS,508085,226339,-0.42961,51.92509,BCT,MKD,OTH,,,,028,2020-09-09T00:00:00,2020-09-09T08:37:19,0,new,active
02904717,ltndwmw,,,Dewsbury Road,,,,,,Birdsfoot Lane,,,,nr,,SW,E0039090,Runfold,Luton,,Luton,EN,Runfold,EN,false,UKOS,508045,224973,-0.43062,51.91282,BCT,CUS,OTH,,,,028,2020-09-09T00:00:00,2024-04-16T11:28:51,36,new,active
02904736,ltngadm,,,Dewsbury Road,,,,,,Birdsfoot Lane,,,,opp,,NE,E0039090,Runfold,Luton,,Luton,EN,Runfold,EN,false,UKOS,508049,225010,-0.43055,51.91315,BCT,CUS,OTH,,,,028,2020-09-09T00:00:00,2024-04-16T11:28:41,12,new,active
02904720,ltndwpg,,,Parys Road,,,,Birdsfoot Lane Shops,,,,,,opp,,S,E0039090,Runfold,Luton,,Luton,EN,Runfold,EN,false,UKOS,507779,224515,-0.43462,51.90875,BCT,MKD,OTH,,,,028,2020-09-09T00:00:00,2020-09-09T08:37:19,0,new,active
02907031,ltngdja,,,Farley Methodist Church,,,,,,,,,,opp,,SE,N0060420,Farley Hill,Luton,,Luton,EN,Farley Hill,EN,false,UKOS,507960,220827,-0.43315,51.87557,BCT,MKD,OTH,,,,028,2020-09-09T00:00:00,2020-09-09T08:37:19,0,new,active
02907014,ltngawm,,,Meyrick Avenue Turn,,,,,,,,,,adj,,SE,N0060420,Farley Hill,Luton,,Luton,EN,Farley Hill,EN,false,UKOS,508010,220779,-0.43244,51.87513,BCT,MKD,OTH,,,,028,2020-09-09T00:00:00,2020-09-09T08:37:19,0,new,active
02901351,ltnamgd,,,Turners Road South,,,,,,,,,,opp,,N,E0039089,Round Green,Luton,,Luton,EN,Round Green,EN,false,UKOS,510033,222541,-0.4025,51.89057,BCT,MKD,OTH,,,,028,2020-09-09T00:00:00,2020-09-09T08:37:19,0,new,active
02903548,ltndgjp,,,Coltsfoot Green,,,,,,,,,,adj,,SW,N0060401,Lewsey Park,Luton,,Luton,EN,Lewsey Park,EN,false,UKOS,504251,224162,-0.486,51.90625,BCT,MKD,OTH,,,,028,2020-09-09T00:00:00,2020-09-09T08:37:19,0,new,active
02903549,ltndgjt,,,Coltsfoot Green,,,,,,,,,,opp,,NE,N0060401,Lewsey Park,Luton,,Luton,EN,Lewsey Park,EN,false,UKOS,504262,224190,-0.48583,51.9065,BCT,MKD,OTH,,,,028,2020-09-09T00:00:00,2020-09-09T08:37:19,0,new,active
02901095,ltnagaj,,,Barrowby Close,,,,,,,,,,opp,,NW,N0071660,Vauxhall Park,Luton,,Luton,EN,Vauxhall Park,EN,false,UKOS,511653,222047,-0.37913,51.88581,BCT,MKD,OTH,,,,028,2021-10-12T00:00:00,2021-10-12T16:29:04,0,new,active
02901094,ltnagag,,,Barrowby Close,,,,,,,,,,nr,,SE,N0071660,Vauxhall Park,Luton,,Luton,EN,Vauxhall Park,EN,false,UKOS,511691,222020,-0.37859,51.88556,BCT,MKD,OTH,,,,028,2021-10-12T00:00:00,2021-10-12T16:29:04,0,new,active
02901096,ltnagam,,,Newnham Close,,,,,,,,,,opp,,NW,N0071660,Vauxhall Park,Luton,,Luton,EN,Vauxhall Park,EN,false,UKOS,511538,222184,-0.38076,51.88707,BCT,MKD,OTH,,,,028,2020-09-09T00:00:00,2020-09-09T08:37:19,0,new,active
02901097,ltnagap,,,Newnham Close,,,,,,,,,,adj,,SE,N0071660,Vauxhall Park,Luton,,Luton,EN,Vauxhall Park,EN,false,UKOS,511534,222216,-0.3808,51.88735,BCT,MKD,OTH,,,,028,2020-09-09T00:00:00,2020-09-09T08:37:19,0,new,active
02903529,ltndgaj,,,Bracknell Close,,,,,,Leagrave High Street,,,,adj,,SW,N0060399,Lewsey Farm,Luton,,Luton,EN,Lewsey Farm,EN,false,UKOS,503796,223124,-0.49292,51.89701,BCT,MKD,OTH,,,,028,2020-09-09T00:00:00,2023-02-06T16:24:47,0,new,active
02904620,ltndwga,,,Bracknell Close,,,,,,Leagrave High Street,,,,opp,,NE,N0060399,Lewsey Farm,Luton,,Luton,EN,Lewsey Farm,EN,false,UKOS,503700,223081,-0.49433,51.89664,BCT,MKD,OTH,,,,028,2020-09-09T00:00:00,2023-02-06T16:24:34,0,new,active
02903107,ltnawdg,,,Millfield Road,,,,,,,,,,opp,,NW,N0071655,Saints,Luton,,Luton,EN,Saints,EN,false,UKOS,507402,223041,-0.44056,51.89558,BCT,MKD,OTH,,,,028,2020-09-09T00:00:00,2024-03-11T11:45:35,10,new,active
02903106,ltnawda,,,Millfield Road,,,,,,,,,,adj,,SE,N0071655,Saints,Luton,,Luton,EN,Saints,EN,false,UKOS,507402,223051,-0.44056,51.89567,BCT,MKD,OTH,,,,028,2020-09-09T00:00:00,2024-03-11T11:45:44,10,new,active
02903108,ltnawdj,,,Avenue Grimaldi,,,,,,,,,,nr,,SE,N0071655,Saints,Luton,,Luton,EN,Saints,EN,false,UKOS,507253,223132,-0.4427,51.89643,BCT,MKD,OTH,,,,028,2020-09-09T00:00:00,2020-09-09T08:37:19,0,new,active
02903109,ltnawdm,,,Avenue Grimaldi,,,,,,,,,,opp,,NW,N0071655,Saints,Luton,,Luton,EN,Saints,EN,false,UKOS,507140,223217,-0.44431,51.89721,BCT,MKD,OTH,,,,028,2020-09-09T00:00:00,2020-09-09T08:37:19,0,new,active
02907022,ltngdat,,,Cades Close,,,,,,,,,,nr,,W,N0060420,Farley Hill,Luton,,Luton,EN,Farley Hill,EN,false,UKOS,507387,220842,-0.44146,51.87582,BCT,MKD,OTH,,,,028,2020-09-09T00:00:00,2024-03-13T11:44:28,10,new,active
02901300,ltnajta,,,Walcot Avenue,,,,,,,,,,nr,,SE,N0071656,St Annes,Luton,,Luton,EN,St Annes,EN,false,UKOS,510615,222244,-0.39414,51.88779,BCT,MKD,OTH,,,,028,2020-09-09T00:00:00,2020-09-09T08:37:19,0,new,active
02904102,ltndmtp,,,Skelton Close,,,,Skelton Close,,,,,,adj,,NE,N0071636,Bramingham Park,Luton,,Luton,EN,Bramingham Park,EN,false,UKOS,507772,226337,-0.43416,51.92513,BCT,MKD,OTH,,,,028,2020-09-09T00:00:00,2020-09-09T08:37:19,0,new,active
02904103,ltndmtw,,,Gatehill Gardens,,,,,,,,,,opp,,SW,N0071636,Bramingham Park,Luton,,Luton,EN,Bramingham Park,EN,false,UKOS,507842,226391,-0.43312,51.9256,BCT,MKD,OTH,,,,028,2020-09-09T00:00:00,2020-09-09T08:37:19,0,new,active
02901080,ltnadwa,,,Lullington Close,,,,,,,,,,opp,,SE,N0060424,Wigmore,Luton,,Luton,EN,Wigmore,EN,false,UKOS,511339,223305,-0.38329,51.89718,BCT,MKD,OTH,,,,028,2020-09-09T00:00:00,2020-09-09T08:37:19,0,new,active
02904702,ltndwgt,,,Five Springs,,,,Wauluds Primary School,,,,,,opp,,S,E0039086,Marsh Farm,Luton,,Luton,EN,Marsh Farm,EN,false,UKOS,506202,224926,-0.45741,51.91275,BCT,MKD,OTH,,,,028,2020-09-09T00:00:00,2020-09-09T08:37:19,0,new,active
02904132,ltndpja,,,Woodlands Secondary School,,,,,,,,,,opp,,NW,E0039086,Marsh Farm,Luton,,Luton,EN,Marsh Farm,EN,false,UKOS,506671,225316,-0.45048,51.91617,BCT,MKD,OTH,,,,028,2020-09-09T00:00:00,2020-09-09T08:37:19,0,new,active
02907024,ltngdga,,,Lachbury Close,,,,,,,,,,adj,,NW,N0060420,Farley Hill,Luton,,Luton,EN,Farley Hill,EN,false,UKOS,507112,220956,-0.44542,51.8769,BCT,MKD,OTH,,,,028,2020-09-09T00:00:00,2020-09-09T08:37:19,0,new,active
02907010,ltngawa,,,Tenzing Grove,,,,,,,,,,adj,,W,N0071651,Chapel Langley,Luton,,Luton,EN,Chapel Langley,EN,false,UKOS,508347,220766,-0.42755,51.87495,BCT,MKD,OTH,,,,028,2020-09-09T00:00:00,2020-09-09T08:37:19,0,new,active
02907020,ltngdam,,,Roebuck Close,,,,,,,,,,nr,,N,N0060420,Farley Hill,Luton,,Luton,EN,Farley Hill,EN,false,UKOS,507560,220619,-0.43902,51.87378,BCT,MKD,OTH,,,,028,2020-09-09T00:00:00,2020-09-09T08:37:19,0,new,active
02901305,ltnajtp,,,Abbey Drive,,,,,,,,,,opp,,NE,N0071656,St Annes,Luton,,Luton,EN,St Annes,EN,false,UKOS,510126,222256,-0.40124,51.88799,BCT,MKD,OTH,,,,028,2020-09-09T00:00:00,2020-09-09T08:37:19,0,new,active
02901036,ltnadmt,,,Marshall Road,,,,,,,,,,opp,,NW,E0039092,Stopsley,Luton,,Luton,EN,Stopsley,EN,false,UKOS,510976,222778,-0.38873,51.89252,BCT,MKD,OTH,,,,028,2020-09-09T00:00:00,2020-09-09T08:37:19,0,new,active
02901037,ltnadmw,,,Marshall Road,,,,,,,,,,nr,,SE,E0039092,Stopsley,Luton,,Luton,EN,Stopsley,EN,false,UKOS,510947,222814,-0.38914,51.89284,BCT,MKD,OTH,,,,028,2020-09-09T00:00:00,2020-09-09T08:37:19,5,new,active
02903221,ltndadj,,,William Austin Infants School,,,,,,Austin Road,,,,opp,,E,E0039085,Limbury,Luton,,Luton,EN,Limbury,EN,false,UKOS,507988,223783,-0.43182,51.90213,BCT,MKD,OTH,,,,028,2020-09-09T00:00:00,2023-01-03T14:31:30,11,new,active
02903220,ltndadg,,,William Austin Infants School,,,,,,,,,,nr,,W,E0039085,Limbury,Luton,,Luton,EN,Limbury,EN,false,UKOS,507955,223771,-0.4323,51.90203,BCT,MKD,OTH,,,,028,2020-09-09T00:00:00,2020-09-09T08:37:19,0,new,active
02901303,ltnajtj,,,Stanford Road,,,,,,,,,,nr,,NE,N0071656,St Annes,Luton,,Luton,EN,St Annes,EN,false,UKOS,510397,222429,-0.39725,51.88949,BCT,MKD,OTH,,,,028,2020-09-09T00:00:00,2023-02-06T14:56:28,0,new,active
02901304,ltnajtm,,,Elmore Road,,,,,,,,,,adj,,E,N0071656,St Annes,Luton,,Luton,EN,St Annes,EN,false,UKOS,510256,222340,-0.39933,51.88872,BCT,MKD,OTH,,,,028,2020-09-09T00:00:00,2020-09-09T08:37:19,0,new,active
02901311,ltnajwm,,,Falks Hill,,,,,,,,,,nr,,N,N0071656,St Annes,Luton,,Luton,EN,St Annes,EN,false,UKOS,509999,221763,-0.40324,51.88359,BCT,MKD,OTH,,,,028,2020-09-09T00:00:00,2020-09-09T08:37:19,0,new,active
02901266,ltnajag,,,Laxton Close,,,,,,,,,,adj,,SE,N0071637,Wigmore Park,Luton,,Luton,EN,Wigmore Park,EN,false,UKOS,512394,222343,-0.36827,51.88832,BCT,MKD,OTH,,,,028,2020-09-09T00:00:00,2024-03-11T20:27:16,0,new,active
02905101,ltnadagp,,,Laxton Close,,,,,,,,,,opp,,N,N0071637,Wigmore Park,Luton,,Luton,EN,Wigmore Park,EN,false,UKOS,512401,222317,-0.36818,51.88809,BCT,MKD,OTH,,,,028,2020-09-09T00:00:00,2024-03-13T10:42:16,20,new,active
02903224,ltndadm,,,Cranleigh Gardens,,,,,,,,,,nr,,W,N0071655,Saints,Luton,,Luton,EN,Saints,EN,false,UKOS,508336,223339,-0.4269,51.89808,BCT,MKD,OTH,,,,028,2020-09-09T00:00:00,2020-09-09T08:37:19,0,new,active
02901242,ltnagpd,,,Airport Executive Park,,,,,,President Way,,,,o/s,,NE,N0060524,Luton Airport,Luton,,Luton,EN,Luton International Airport,EN,false,UKOS,511783,221880,-0.3773,51.88428,BCT,MKD,OTH,,,,028,2020-09-09T00:00:00,2020-09-09T08:37:19,0,new,active
02901241,ltnagpa,,,Airport Executive Park,,,,,,President Way,,,,opp,,SW,N0060524,Luton Airport,Luton,,Luton,EN,Luton International Airport,EN,false,UKOS,511744,221814,-0.37788,51.8837,BCT,MKD,OTH,,,,028,2020-09-09T00:00:00,2020-09-09T08:37:19,0,new,active
02901243,ltnagpg,,,Airport Executive Park,,,,,,President Way,,,,nr,,W,N0060524,Luton Airport,Luton,,Luton,EN,Luton International Airport,EN,false,UKOS,511930,221928,-0.37515,51.88469,BCT,MKD,OTH,,,,028,2020-09-09T00:00:00,2020-09-09T08:37:19,0,new,active
02904805,ltngajd,,,Mendip Way,,,,,,,,,,adj,,SE,E0039093,Sundon Park,Luton,,Luton,EN,Sundon Park,EN,false,UKOS,505251,225889,-0.47094,51.92159,BCT,MKD,OTH,,,,028,2020-09-09T00:00:00,2020-09-09T08:37:19,0,new,active
02904813,ltnadamj,,,Mendip Way,,,,,,,,,,Opposite,,NW,E0039093,Sundon Park,Luton,,Luton,EN,Sundon Park,EN,false,UKOS,505252,225878,-0.47093,51.92149,BCT,MKD,OTH,,,,028,2020-09-09T00:00:00,2024-11-19T11:03:30,46,new,active
02901288,ltnajmg,,,Peartree Road,,,,,,Stapleford Road,,,,nr,,S,E0039092,Stopsley,Luton,,Luton,EN,Stopsley,EN,false,UKOS,511038,223736,-0.38752,51.90111,BCT,MKD,OTH,,,,028,2020-09-09T00:00:00,2020-09-09T08:37:19,0,new,active
02901289,ltnajmj,,,Peartree Road,,,,,,Stapleford Road,,,,opp,,N,E0039092,Stopsley,Luton,,Luton,EN,Stopsley,EN,false,UKOS,511042,223679,-0.38748,51.9006,BCT,MKD,OTH,,,,028,2020-09-09T00:00:00,2020-09-09T08:37:19,0,new,active
02901308,ltnajwd,,,Tower Way,,,,,,,,,,NE-bound,,NE,N0071656,St Annes,Luton,,Luton,EN,St Annes,EN,false,UKOS,510197,221945,-0.40031,51.88518,BCT,MKD,OTH,,,,028,2020-12-16T00:00:00,2020-12-16T13:20:33,0,new,active
02901284,ltnajgt,,,Mayfield Road,,,,,,Hawthorn Avenue,,,,opp,,E,E0039092,Stopsley,Luton,,Luton,EN,Stopsley,EN,false,UKOS,510824,223800,-0.39061,51.90173,BCT,MKD,OTH,,,,028,2020-09-09T00:00:00,2020-09-09T08:37:19,0,new,active
02901285,ltnajgw,,,Mayfield Road,,,,,,Hawthorn Avenue,,,,adj,,W,E0039092,Stopsley,Luton,,Luton,EN,Stopsley,EN,false,UKOS,510863,223777,-0.39005,51.90152,BCT,MKD,OTH,,,,028,2020-09-09T00:00:00,2020-09-09T08:37:19,0,new,active
02904703,ltndwgw,,,Harding Close,,,,,,,,,,adj,,S,E0039086,Marsh Farm,Luton,,Luton,EN,Marsh Farm,EN,false,UKOS,506051,225129,-0.45955,51.9146,BCT,MKD,OTH,,,,028,2020-09-09T00:00:00,2020-09-09T08:37:19,0,new,active
02907016,ltngawt,,,Farley Junior School,,,,,,,,,,o/s,,S,N0060420,Farley Hill,Luton,,Luton,EN,Farley Hill,EN,false,UKOS,508007,220590,-0.43254,51.87343,BCT,MKD,OTH,,,,028,2020-09-09T00:00:00,2020-09-09T08:37:19,0,new,active
02907043,ltngdmt,,,Farley Junior School,,,,,,,,,,nr,,SW,N0060420,Farley Hill,Luton,,Luton,EN,Farley Hill,EN,false,UKOS,507986,220476,-0.43288,51.87241,BCT,MKD,OTH,,,,028,2020-09-09T00:00:00,2022-08-25T10:57:04,14,delete,inactive
02907027,ltngdgm,,,Rockley Road,,,,,,,,,,opp,,SE,N0060420,Farley Hill,Luton,,Luton,EN,Farley Hill,EN,false,UKOS,507283,221106,-0.44289,51.87821,BCT,MKD,OTH,,,,028,2020-09-09T00:00:00,2020-09-09T08:37:19,0,new,active
02901371,ltnamta,,,Sunridge Avenue,,,,,,,,,,adj,,N,E0039089,Round Green,Luton,,Luton,EN,Round Green,EN,false,UKOS,509576,222550,-0.40914,51.89074,BCT,MKD,OTH,,,,028,2020-09-09T00:00:00,2020-09-09T08:37:19,0,new,active
02901372,ltnamtd,,,Sunridge Avenue,,,,,,,,,,opp,,S,E0039089,Round Green,Luton,,Luton,EN,Round Green,EN,false,UKOS,509586,222567,-0.40899,51.89089,BCT,MKD,OTH,,,,028,2020-09-09T00:00:00,2020-09-09T08:37:19,0,new,active
02907017,ltngdad,,,Whipperley Way Roundabout,,,,,,,,,,nr,,SW,N0060420,Farley Hill,Luton,,Luton,EN,Farley Hill,EN,false,UKOS,507932,220427,-0.43368,51.87198,BCT,MKD,OTH,,,,028,2020-09-09T00:00:00,2020-09-09T08:37:19,0,new,active
02903172,ltnawjt,,,St Augustine Avenue,,,,,,,,,,opp,,NW,N0071655,Saints,Luton,,Luton,EN,Saints,EN,false,UKOS,507842,223346,-0.43407,51.89823,BCT,MKD,OTH,,,,028,2020-09-09T00:00:00,2020-09-09T08:37:19,0,new,active
02903173,ltnawjw,,,St Augustine Avenue,,,,,,,,,,nr,,S,N0071655,Saints,Luton,,Luton,EN,Saints,EN,false,UKOS,507862,223313,-0.43379,51.89793,BCT,MKD,OTH,,,,028,2020-09-09T00:00:00,2020-09-09T08:37:19,0,new,active
02904880,ltngamd,,,Dunsby Road,,,,,,Swasedale Road,,,,opp,,W,N0071648,Limbury Meads,Luton,,Luton,EN,Limbury Meads,EN,false,UKOS,507266,224673,-0.44203,51.91027,BCT,MKD,OTH,,,,028,2020-09-09T00:00:00,2020-09-09T08:37:19,0,new,active
02904140,ltndpmd,,,Purway Close,,,,Futures House,,,,,,opp,,NE,E0039086,Marsh Farm,Luton,,Luton,EN,Marsh Farm,EN,false,UKOS,506399,225514,-0.45437,51.918,BCT,MKD,OTH,,,,028,2020-09-09T00:00:00,2020-09-09T08:37:19,0,new,active
02904139,ltndpma,,,Purway Close,,,,Futures House,,,,,,adj,,SW,E0039086,Marsh Farm,Luton,,Luton,EN,Marsh Farm,EN,false,UKOS,506410,225500,-0.45421,51.91787,BCT,MKD,OTH,,,,028,2020-09-09T00:00:00,2020-09-09T08:37:19,0,new,active
02904141,ltndpmg,,,Fitzwarin Close,,,,,,,,,,adj,,SE,E0039086,Marsh Farm,Luton,,Luton,EN,Marsh Farm,EN,false,UKOS,506176,225451,-0.45763,51.91747,BCT,MKD,OTH,,,,028,2020-09-09T00:00:00,2020-09-09T08:37:19,0,new,active
02901363,ltnamjw,,,St Matthews Church,,,,,,,,,,opp,,SW,E0039083,High Town,Luton,,Luton,EN,High Town,EN,false,UKOS,509381,221950,-0.41216,51.88539,BCT,MKD,OTH,,,,028,2020-09-09T00:00:00,2020-09-09T08:37:19,0,new,active
02907028,ltngdgp,,,Whipperley Infant School,,,,,,,,,,opp,,E,N0060420,Farley Hill,Luton,,Luton,EN,Farley Hill,EN,false,UKOS,507486,220978,-0.43998,51.87702,BCT,MKD,OTH,,,,028,2020-09-09T00:00:00,2020-09-09T08:37:19,0,new,active
02901296,ltnajpj,,,Sowerby Avenue,,,,,,,,,,nr,,E,E0039092,Stopsley,Luton,,Luton,EN,Stopsley,EN,false,UKOS,511133,223235,-0.3863,51.89659,BCT,MKD,OTH,,,,028,2020-09-09T00:00:00,2020-09-09T08:37:19,0,new,active
02901297,ltnajpm,,,Sowerby Avenue,,,,,,,,,,opp,,W,E0039092,Stopsley,Luton,,Luton,EN,Stopsley,EN,false,UKOS,511048,223259,-0.38753,51.89682,BCT,MKD,OTH,,,,028,2020-09-09T00:00:00,2020-09-09T08:37:19,0,new,active
02901605,ltnapmj,,,Ludlow Avenue,,,,,,,,,,adj,,S,N0071657,Stockwood,Luton,,Luton,EN,Stockwood,EN,false,UKOS,509102,219558,-0.41697,51.86395,BCT,MKD,OTH,,,,028,2020-09-09T00:00:00,2020-09-09T08:37:19,0,new,active
02901603,ltnapmd,,,Gardner Court,,,,,,Cutenhoe Road,,,,nr,,NE,N0071657,Stockwood,Luton,,Luton,EN,Stockwood,EN,false,UKOS,509146,219753,-0.41627,51.86569,BCT,MKD,OTH,,,,028,2020-09-09T00:00:00,2020-09-09T08:37:19,0,new,active
02901608,ltnapmw,,,The Mount,,,,,,,,,,opp,,N,N0071657,Stockwood,Luton,,Luton,EN,Stockwood,EN,false,UKOS,508984,219941,-0.41856,51.86741,BCT,MKD,OTH,,,,028,2020-09-09T00:00:00,2020-09-09T08:37:19,0,new,active
02903804,ltndmdj,,,Thistle Road,,,,,,Windmill Road,,,,adj,,SE,N0071659,Vauxhall,Luton,,Luton,EN,Vauxhall,EN,false,UKOS,509904,221020,-0.40486,51.87693,BCT,MKD,OTH,,,,028,2020-09-09T00:00:00,2020-09-09T08:37:19,0,new,active
02901612,ltnaptj,,,Holly Street,,,,,,,,,,opp,,NE,E0039087,New Town,Luton,,Luton,EN,New Town,EN,false,UKOS,509100,220773,-0.41661,51.87487,BCT,MKD,OTH,,,,028,2020-09-09T00:00:00,2020-09-09T08:37:19,0,new,active
02901613,ltnaptm,,,Holly Street,,,,,,,,,,adj,,SW,E0039087,New Town,Luton,,Luton,EN,New Town,EN,false,UKOS,509149,220823,-0.41588,51.87531,BCT,MKD,OTH,,,,028,2020-09-09T00:00:00,2020-09-09T08:37:19,0,new,active
02900005,ltnadp,,,Auction House,,,,Auction House,,Crescent Road,,,,o/s,,NW,N0071656,St Annes,Luton,,Luton,EN,St Annes,EN,false,UKOS,509924,221360,-0.40446,51.87998,BCT,MKD,OTH,,,,028,2020-09-09T00:00:00,2023-01-23T15:13:57,0,new,active
02900006,ltnadt,,,Auction House,,,,Auction House,,,,,,opp,,SE,N0071656,St Annes,Luton,,Luton,EN,St Annes,EN,false,UKOS,509928,221379,-0.4044,51.88015,BCT,MKD,OTH,,,,028,2020-09-09T00:00:00,2023-01-23T15:14:09,0,new,active
02900009,ltnadg,,,Moulton Rise,,,,Moulton Court,,,,,,adj,,SE,N0071656,St Annes,Luton,,Luton,EN,St Annes,EN,false,UKOS,509802,221503,-0.40619,51.88129,BCT,MKD,OTH,,,,028,2020-09-09T00:00:00,2020-09-09T08:37:19,0,new,active
02900004,ltnadm,,,Moulton Rise,,,,Moulton Court,,Crescent Road,,,,opp,,NW,N0071656,St Annes,Luton,,Luton,EN,St Annes,EN,false,UKOS,509800,221488,-0.40622,51.88115,BCT,MKD,OTH,,,,028,2020-09-09T00:00:00,2023-01-23T15:15:11,0,new,active
02903032,ltnatpa,,,Chaul End Centre,,,,PC World,,,,,,o/s,,W,N0071650,Challney,Luton,,Luton,EN,Challney,EN,false,UKOS,506232,222626,-0.45769,51.89207,BCT,MKD,OTH,,,,028,2020-09-09T00:00:00,2020-09-09T08:37:19,0,new,active
02903036,ltnatpm,,,Simpson Close,,,,Travelodge Junction 11,,,,,,nr,,SE,N0071650,Challney,Luton,,Luton,EN,Challney,EN,false,UKOS,505719,222705,-0.46511,51.89288,BCT,MKD,OTH,,,,028,2020-09-09T00:00:00,2023-02-06T16:38:46,0,new,active
02901350,ltnamga,,,Post Office,,,,Round Green Tavern,,,,,,opp,,SW,E0039089,Round Green,Luton,,Luton,EN,Round Green,EN,false,UKOS,510085,222651,-0.40171,51.89155,BCT,MKD,OTH,,,,028,2020-09-09T00:00:00,2023-03-13T15:23:02,44,new,active
02903922,ltndmpw,,,Barnfield Avenue Turn,,,,,,,,,,nr,,N,N0071649,Barnfield,Luton,,Luton,EN,Barnfield,EN,false,UKOS,508944,224559,-0.41768,51.90892,BCT,MKD,OTH,,,,028,2020-09-09T00:00:00,2020-09-09T08:37:19,0,new,active
02903923,ltndmta,,,Barnfield Avenue Turn,,,,,,,,,,opp,,S,N0071649,Barnfield,Luton,,Luton,EN,Barnfield,EN,false,UKOS,508983,224421,-0.41716,51.90767,BCT,MKD,OTH,,,,028,2020-09-09T00:00:00,2020-09-09T08:37:19,0,new,active
02901032,ltnadmd,,,Williton Road,,,,,,,,,,opp,,W,N0071660,Vauxhall Park,Luton,,Luton,EN,Vauxhall Park,EN,false,UKOS,511206,222475,-0.38548,51.88975,BCT,MKD,OTH,,,,028,2020-09-09T00:00:00,2020-09-09T08:37:19,0,new,active
02901031,ltnadma,,,Dovehouse Hill,,,,Coverly Court,,,,,,nr,,NE,N0071660,Vauxhall Park,Luton,,Luton,EN,Vauxhall Park,EN,false,UKOS,511064,222359,-0.38758,51.88873,BCT,MKD,OTH,,,,028,2020-09-09T00:00:00,2020-09-09T08:37:19,0,new,active
02901030,ltnadjw,,,Dovehouse Hill,,,,Coverly Court,,,,,,opp,,SW,N0071660,Vauxhall Park,Luton,,Luton,EN,Vauxhall Park,EN,false,UKOS,511027,222303,-0.38814,51.88824,BCT,MKD,OTH,,,,028,2020-09-09T00:00:00,2020-09-09T08:37:19,0,new,active
02901092,ltnadwt,,,Chertsey Close,,,,,,,,,,opp,,SW,N0071660,Vauxhall Park,Luton,,Luton,EN,Vauxhall Park,EN,false,UKOS,511635,221904,-0.37944,51.88453,BCT,MKD,OTH,,,,028,2020-09-09T00:00:00,2020-09-09T08:37:19,0,new,active
02901355,ltnamgt,,,Jubilee Street,,,,,,,,,,opp,,SW,E0039083,High Town,Luton,,Luton,EN,High Town,EN,false,UKOS,509776,221988,-0.40641,51.88565,BCT,MKD,OTH,,,,028,2020-09-09T00:00:00,2024-04-09T17:26:07,10,new,active
02901609,ltnapta,,,Tennyson House,,,,,,,,,,o/s,,S,N0071657,Stockwood,Luton,,Luton,EN,Stockwood,EN,false,UKOS,508996,220080,-0.41834,51.86866,BCT,MKD,OTH,,,,028,2020-09-09T00:00:00,2020-09-09T08:37:19,0,new,active
02901307,ltnajwa,,,Tower Court,,,,Kernow Court,,,,,,opp,,NW,N0071656,St Annes,Luton,,Luton,EN,St Annes,EN,false,UKOS,510187,222049,-0.40042,51.88612,BCT,MKD,OTH,,,,028,2020-09-09T00:00:00,2023-02-06T14:55:36,0,new,active
02901306,ltnajtw,,,Hart Walk,,,,Shops,,,,,,nr,,N,N0071656,St Annes,Luton,,Luton,EN,St Annes,EN,false,UKOS,510149,222156,-0.40094,51.88709,BCT,MKD,OTH,,,,028,2020-09-09T00:00:00,2020-09-09T08:37:19,0,new,active
02905003,ltngdwt,,,Acworth Court,,,,Acworth Court,,Acworth Crescent,,,,o/s,,SW,N0060398,Hockwell Ring,Luton,,Luton,EN,Hockwell Ring,EN,false,UKOS,505360,224351,-0.46983,51.90774,BCT,MKD,OTH,,,,028,2020-09-09T00:00:00,2020-09-09T08:37:19,0,new,active
02904615,ltndwdj,,,Acworth Court,,,,Acworth Court,,,,,,opp,,NE,N0060398,Hockwell Ring,Luton,,Luton,EN,Hockwell Ring,EN,false,UKOS,505367,224371,-0.46972,51.90792,BCT,MKD,OTH,,,,028,2020-09-09T00:00:00,2020-09-09T08:37:19,0,new,active
02904571,ltndtjw,,,Paisley Close,,,,Paisley Close,,,,,,nr,,NE,E0039084,Leagrave,Luton,,Luton,EN,Leagrave,EN,false,UKOS,505914,223340,-0.46209,51.89855,BCT,MKD,OTH,,,,028,2020-09-09T00:00:00,2020-09-09T08:37:19,0,new,active
02904570,ltndtjt,,,Villiers Close,,,,,,,,,,adj,,SW,E0039084,Leagrave,Luton,,Luton,EN,Leagrave,EN,false,UKOS,505871,223243,-0.46274,51.89769,BCT,MKD,OTH,,,,028,2020-09-09T00:00:00,2023-02-06T16:40:12,0,new,active
02901240,ltnagmw,,,Holiday Inn Express,,,,Holiday Inn Express,,,,,,nr,,E,N0060524,Luton Airport,Luton,,Luton,EN,Luton International Airport,EN,false,UKOS,511653,221033,-0.37946,51.8767,BCT,MKD,OTH,,,,028,2020-09-09T00:00:00,2023-03-27T15:05:00,0,new,active
02900070,ltnadada,,,Holiday Inn Express,,,,Holiday Inn Express,,,,,,opp,,W,N0060524,Luton Airport,Luton,,Luton,EN,Luton International Airport,EN,false,UKOS,511794,221019,-0.37742,51.87654,BCT,MKD,OTH,,,,028,2020-09-09T00:00:00,2023-03-27T15:28:56,26,new,active
02903160,ltnawja,,,Alder Crescent,,,,32,,Alder Crescent,,,,o/s,,SE,N0071655,Saints,Luton,,Luton,EN,Saints,EN,false,UKOS,507253,223526,-0.44258,51.89997,BCT,MKD,OTH,,,,028,2020-09-09T00:00:00,2020-09-09T08:37:19,0,new,active
02903161,ltnawjd,,,Alder Crescent,,,,,,Alder Crescent,,,,opp,,NW,N0071655,Saints,Luton,,Luton,EN,Saints,EN,false,UKOS,507231,223520,-0.4429,51.89992,BCT,MKD,OTH,,,,028,2020-09-09T00:00:00,2020-09-09T08:37:19,0,new,active
02903162,ltnawjg,,,High Mead,,,,,,Alder Crescent,,,,opp,,E,N0071655,Saints,Luton,,Luton,EN,Saints,EN,false,UKOS,507494,223336,-0.43913,51.89821,BCT,MKD,OTH,,,,028,2020-09-09T00:00:00,2020-09-09T08:37:19,0,new,active
02905039,ltngjtw,,,Arthur Street,,,,,,,,,,adj,,N,E0039087,New Town,Luton,,Luton,EN,New Town,EN,false,UKOS,509286,220474,-0.41401,51.87214,BCT,MKD,OTH,,,,028,2020-09-09T00:00:00,2020-09-09T08:37:19,0,new,active
02901034,ltnadmj,,,Ashcroft Road,,,,,,,,,,o/s,,NW,E0039092,Stopsley,Luton,,Luton,EN,Stopsley,EN,false,UKOS,511146,222569,-0.38633,51.8906,BCT,MKD,OTH,,,,028,2020-09-09T00:00:00,2022-08-24T11:54:53,5,new,active
02901035,ltnadmp,,,Ashcroft Road,,,,,,,,,,opp,,SE,E0039092,Stopsley,Luton,,Luton,EN,Stopsley,EN,false,UKOS,511119,222627,-0.3867,51.89113,BCT,MKD,OTH,,,,028,2020-09-09T00:00:00,2022-08-24T11:54:34,5,new,active
02901040,ltnadpg,,,Ramridge Primary School,,,,,,,,,,opp,,SE,E0039092,Stopsley,Luton,,Luton,EN,Stopsley,EN,false,UKOS,510642,223088,-0.39348,51.89537,BCT,MKD,OTH,,,,028,2020-09-09T00:00:00,2020-09-09T08:37:19,0,new,active
02901039,ltnadpd,,,Ramridge Primary School,,,,,,,,,,o/s,,NW,E0039092,Stopsley,Luton,,Luton,EN,Stopsley,EN,false,UKOS,510625,223084,-0.39373,51.89534,BCT,MKD,OTH,,,,028,2020-09-09T00:00:00,2020-09-09T08:37:19,0,new,active
02901038,ltnadpa,,,Yeovil Road,,,,,,,,,,nr,,NW,E0039092,Stopsley,Luton,,Luton,EN,Stopsley,EN,false,UKOS,510849,222875,-0.39054,51.89341,BCT,MKD,OTH,,,,028,2020-09-09T00:00:00,2020-09-09T08:37:19,0,new,active
02904810,ltngajw,,,Wellfield Avenue,,,,,,,,,,opp,,SW,E0039093,Sundon Park,Luton,,Luton,EN,Sundon Park,EN,false,UKOS,505198,225723,-0.47176,51.9201,BCT,MKD,OTH,,,,028,2020-09-09T00:00:00,2024-11-19T11:01:18,0,new,active
02904814,ltnadamp,,,Wellfield Avenue,,,,,,,,,,Adjacent,,NE,E0039093,Sundon Park,Luton,,Luton,EN,Sundon Park,EN,false,UKOS,505196,225736,-0.47179,51.92022,BCT,MKD,OTH,,,,028,2020-09-09T00:00:00,2024-11-19T10:59:33,46,new,active
02904726,ltndwtd,,,Britannia Avenue,,,,,,,,,,opp,,NE,E0039085,Limbury,Luton,,Luton,EN,Limbury,EN,false,UKOS,507554,224015,-0.43805,51.9043,BCT,MKD,OTH,,,,028,2020-09-09T00:00:00,2020-09-09T08:37:19,0,new,active
02904725,ltndwta,,,Britannia Avenue,,,,,,,,,,nr,,SW,E0039085,Limbury,Luton,,Luton,EN,Limbury,EN,false,UKOS,507657,224131,-0.43652,51.90533,BCT,MKD,OTH,,,,028,2020-09-09T00:00:00,2020-09-09T08:37:19,0,new,active
02903921,ltndmpt,,,Blandford Avenue,,,,,,,,,,opp,,SW,N0071649,Barnfield,Luton,,Luton,EN,Barnfield,EN,false,UKOS,508924,224464,-0.418,51.90807,BCT,MKD,OTH,,,,028,2020-09-09T00:00:00,2020-09-09T08:37:19,0,new,active
02903218,ltnawtw,,,Enderby Road,,,,,,,,,,nr,,N,N0071649,Barnfield,Luton,,Luton,EN,Barnfield,EN,false,UKOS,508426,224775,-0.42514,51.91096,BCT,MKD,OTH,,,,028,2020-09-09T00:00:00,2020-09-09T08:37:19,0,new,active
02903219,ltndada,,,Enderby Road,,,,,,,,,,opp,,S,N0071649,Barnfield,Luton,,Luton,EN,Barnfield,EN,false,UKOS,508436,224807,-0.42499,51.91125,BCT,MKD,OTH,,,,028,2020-09-09T00:00:00,2020-09-09T08:37:19,0,new,active
02904562,ltndtgp,,,Dawlish Road,,,,,,,,,,adj,,SE,E0039084,Leagrave,Luton,,Luton,EN,Leagrave,EN,false,UKOS,506551,222997,-0.45294,51.89535,BCT,MKD,OTH,,,,028,2020-09-09T00:00:00,2020-09-09T08:37:19,0,new,active
02904561,ltndtgm,,,Dawlish Road,,,,,,,,,,opp,,NW,E0039084,Leagrave,Luton,,Luton,EN,Leagrave,EN,false,UKOS,506457,223093,-0.45427,51.89623,BCT,MKD,OTH,,,,028,2020-09-09T00:00:00,2020-09-09T08:37:19,0,new,active
02905060,ltngmdp,,,Sunningdale,,,,Sunningdale,,,,,,opp,,NW,E0039089,Round Green,Luton,,Luton,EN,Round Green,EN,false,UKOS,509760,223190,-0.40626,51.89646,BCT,MKD,OTH,,,,028,2020-09-09T00:00:00,2020-09-09T08:37:19,0,new,active
02904719,ltndwpd,,,Catsbrook Road,,,,Birdsfoot Lane Shops,,,,,,adj,,N,E0039090,Runfold,Luton,,Luton,EN,Runfold,EN,false,UKOS,507783,224601,-0.43454,51.90953,BCT,MKD,OTH,,,,028,2020-09-09T00:00:00,2020-09-09T08:37:19,0,new,active
02904303,ltndptd,,,Dorrington Close,,,,,,,,,,nr,,NW,E0039081,Biscot,Luton,,Luton,EN,Biscot,EN,false,UKOS,508274,222437,-0.42808,51.88998,BCT,MKD,OTH,,,,028,2020-09-09T00:00:00,2020-09-09T08:37:19,0,new,active
02904304,ltndptg,,,Dorrington Close,,,,,,,,,,opp,,SE,E0039081,Biscot,Luton,,Luton,EN,Biscot,EN,false,UKOS,508307,222394,-0.42762,51.88959,BCT,MKD,OTH,,,,028,2020-09-09T00:00:00,2020-09-09T08:37:19,0,new,active
02904302,ltndpta,,,Blenheim Crescent,,,,,,,,,,opp,,NW,E0039081,Biscot,Luton,,Luton,EN,Biscot,EN,false,UKOS,508147,222686,-0.42985,51.89224,BCT,MKD,OTH,,,,028,2020-09-09T00:00:00,2020-09-09T08:37:19,0,new,active
02904301,ltndpmw,,,Blenheim Crescent,,,,,,,,,,adj,,SE,E0039081,Biscot,Luton,,Luton,EN,Biscot,EN,false,UKOS,508158,222684,-0.42969,51.89222,BCT,MKD,OTH,,,,028,2020-09-09T00:00:00,2020-09-09T08:37:19,0,new,active
02904742,ltngadw,,,Tintagel Close,,,,,,,,,,opp,,S,N0071655,Saints,Luton,,Luton,EN,Saints,EN,false,UKOS,507706,223790,-0.43591,51.90225,BCT,MKD,OTH,,,,028,2020-09-09T00:00:00,2020-09-09T08:37:19,0,new,active
02901302,ltnajtg,,,Bloomfield Avenue,,,,,,,,,,adj,,SE,N0071656,St Annes,Luton,,Luton,EN,St Annes,EN,false,UKOS,510448,222431,-0.39651,51.8895,BCT,MKD,OTH,,,,028,2020-09-09T00:00:00,2020-09-09T08:37:19,0,new,active
02904886,ltngamw,,,St Josephs Infants School,,,,,,,,,,o/s,,NE,E0039085,Limbury,Luton,,Luton,EN,Limbury,EN,false,UKOS,507283,223652,-0.4421,51.90109,BCT,MKD,OTH,,,,028,2020-09-09T00:00:00,2020-09-09T08:37:19,0,new,active
02903159,ltngdtj,,,St Josephs Infant School,,,,,,,,,,nr,,NE,E0039085,Limbury,Luton,,Luton,EN,Limbury,EN,false,UKOS,507207,223586,-0.44323,51.90051,BCT,CUS,OTH,,,,028,2020-09-09T00:00:00,2020-09-09T08:37:19,0,new,active
02907015,ltngawp,,,Bolingbroke Road,,,,,,,,,,o/s,,S,N0060420,Farley Hill,Luton,,Luton,EN,Farley Hill,EN,false,UKOS,508059,220692,-0.43175,51.87434,BCT,MKD,OTH,,,,028,2020-09-09T00:00:00,2020-09-09T08:37:19,0,new,active
02904700,ltndwgm,,,Wauluds Bank Drive,,,,,,,,,,opp,,SW,N0071648,Limbury Meads,Luton,,Luton,EN,Limbury Meads,EN,false,UKOS,506381,224504,-0.45494,51.90892,BCT,MKD,OTH,,,,028,2020-09-09T00:00:00,2020-09-09T08:37:19,0,new,active
02904701,ltndwgp,,,Wauluds Bank Drive,,,,,,,,,,adj,,NE,N0071648,Limbury Meads,Luton,,Luton,EN,Limbury Meads,EN,false,UKOS,506398,224550,-0.45468,51.90933,BCT,MKD,OTH,,,,028,2020-09-09T00:00:00,2020-09-09T08:37:19,0,new,active
02903177,ltnawma,,,Solway Road North,,,,,,Bristol Road,,,,opp,,NW,N0071655,Saints,Luton,,Luton,EN,Saints,EN,false,UKOS,507539,223697,-0.43837,51.90145,BCT,MKD,OTH,,,,028,2020-09-09T00:00:00,2020-09-09T08:37:19,0,new,active
02901312,ltnajwp,,,Haddon Road,,,,,,,,,,nr,,NW,N0071656,St Annes,Luton,,Luton,EN,St Annes,EN,false,UKOS,510056,221666,-0.40245,51.8827,BCT,MKD,OTH,,,,028,2020-09-09T00:00:00,2020-09-09T08:37:19,0,new,active
02903208,ltnawpj,,,Bushmead Primary School,,,,,,,,,,o/s,,E,N0060422,Bushmead,Luton,,Luton,EN,Bushmead,EN,false,UKOS,509053,224129,-0.41623,51.90504,BCT,MKD,OTH,,,,028,2020-09-09T00:00:00,2020-09-09T08:37:19,0,new,active
02903905,ltndmgm,,,Bushmead Medical Centre,,,,Bushmead Medical Centre,,,,,,o/s,,N,N0060422,Bushmead,Luton,,Luton,EN,Bushmead,EN,false,UKOS,509215,224358,-0.41381,51.90706,BCT,MKD,OTH,,,,028,2020-09-09T00:00:00,2020-09-09T08:37:19,0,new,active
02903906,ltndmgp,,,Bushmead Medical Centre,,,,Bushmead Medical Centre,,,,,,opp,,S,N0060422,Bushmead,Luton,,Luton,EN,Bushmead,EN,false,UKOS,509223,224334,-0.4137,51.90685,BCT,MKD,OTH,,,,028,2020-09-09T00:00:00,2020-09-09T08:37:19,0,new,active
02902000,ltnataj,,,Hunston Close,,,,,,,,,,adj,,S,N0060398,Hockwell Ring,Luton,,Luton,EN,Hockwell Ring,EN,false,UKOS,504806,224271,-0.4779,51.90713,BCT,MKD,OTH,,,,028,2020-09-09T00:00:00,2023-10-30T21:23:55,23,new,active
02901349,ltnamdw,,,Railway Bridge,,,,,,,,,,opp,,E,E0039083,High Town,Luton,,Luton,EN,High Town,EN,false,UKOS,508992,221729,-0.41788,51.88348,BCT,MKD,OTH,,,,028,2020-09-09T00:00:00,2020-09-09T08:37:19,0,new,active
02904565,ltndtja,,,Camford Way,,,,Camford Depot,,Camford Way,,,,E-bound,,E,E0039093,Sundon Park,Luton,,Luton,EN,Sundon Park,EN,false,UKOS,504614,225836,-0.48022,51.92123,BCT,CUS,OTH,,,,028,2020-09-09T00:00:00,2020-09-09T08:37:20,0,new,active
02904564,ltndtgw,,,Camford Way,,,,Multishape Works,,Camford Way,,,,W-bound,,W,E0039093,Sundon Park,Luton,,Luton,EN,Sundon Park,EN,false,UKOS,504577,225810,-0.48076,51.921,BCT,CUS,OTH,,,,028,2020-09-09T00:00:00,2020-09-09T08:37:20,0,new,active
02904745,ltngagj,,,Cardinal Newman School,,,,School Playground,,,,,,in,,E,E0039094,Warden Hill,Luton,,Luton,EN,Warden Hill,EN,false,UKOS,508433,225939,-0.42467,51.92142,BCT,MKD,OTH,,,,028,2021-10-12T00:00:00,2021-10-12T16:29:04,0,new,active
02904734,ltngadg,,,Canberra Gardens,,,,Runfold Avenue,,,,,,adj,,SE,E0039090,Runfold,Luton,,Luton,EN,Runfold,EN,false,UKOS,507585,224808,-0.43735,51.91142,BCT,MKD,OTH,,,,028,2020-09-09T00:00:00,2020-09-09T08:37:19,0,new,active
02907001,ltngapt,,,New Street,,,,,,,,,,opp,,S,N0071651,Chapel Langley,Luton,,Luton,EN,Chapel Langley,EN,false,UKOS,509063,220931,-0.4171,51.87629,BCT,MKD,OTH,,,,028,2020-09-09T00:00:00,2020-09-09T08:37:19,0,new,active
02903722,ltngdtw,,,Hatters Way Retail Park,,,,Hatters Way Retail Park,,,,,,opp,,N,N0071650,Challney,Luton,,Luton,EN,Challney,EN,false,UKOS,506341,222375,-0.45618,51.8898,BCT,MKD,OTH,,,,028,2020-09-09T00:00:00,2024-03-13T11:09:05,36,new,active
02903717,ltndmag,,,Hatters Way Retail Park,,,,Hatters Way Retail Park,,,,,,o/s,,S,N0071650,Challney,Luton,,Luton,EN,Challney,EN,false,UKOS,506346,222320,-0.45612,51.8893,BCT,MKD,OTH,,,,028,2020-09-09T00:00:00,2024-03-13T11:09:17,15,new,active
02901267,ltnajaj,,,Colwell Rise,,,,,,,,,,nr,,W,N0071637,Wigmore Park,Luton,,Luton,EN,Wigmore Park,EN,false,UKOS,512349,222241,-0.36896,51.88741,BCT,MKD,OTH,,,,028,2020-09-09T00:00:00,2022-05-30T15:57:00,4,delete,inactive
02901263,ltnagwp,,,Colwell Court,,,,Colwell Court,,,,,,o/s,,SW,N0071637,Wigmore Park,Luton,,Luton,EN,Wigmore Park,EN,false,UKOS,512408,222635,-0.36797,51.89094,BCT,MKD,OTH,,,,028,2020-09-09T00:00:00,2020-09-09T08:37:19,0,new,active
02901033,ltnadmg,,,Queen Elizabeth School,,,,Ashcroft High School,,,,,,o/s,,E,N0071660,Vauxhall Park,Luton,,Luton,EN,Vauxhall Park,EN,false,UKOS,511274,222505,-0.38449,51.89,BCT,MKD,OTH,,,,028,2020-09-09T00:00:00,2023-01-23T13:42:47,40,new,active
02901051,ltnadadw,,,Queen Elizabeth School,,,,Ashcroft High School,,,,,,adj,,SE,N0071660,Vauxhall Park,Luton,,Luton,EN,Vauxhall Park,EN,false,UKOS,511356,222557,-0.38328,51.89045,BCT,CUS,OTH,,,,028,2020-09-09T00:00:00,2024-03-12T21:03:53,91,new,active
02901256,ltnagwa,,,Lalleford Road,,,,,,Crawley Green Road,,,,opp,,E,N0071660,Vauxhall Park,Luton,,Luton,EN,Vauxhall Park,EN,false,UKOS,511538,222498,-0.38066,51.88989,BCT,MKD,OTH,,,,028,2020-09-09T00:00:00,2020-09-09T08:37:19,0,new,active
02901257,ltnagwd,,,Lalleford Road,,,,,,Crawley Green Road,,,,nr,,W,N0071660,Vauxhall Park,Luton,,Luton,EN,Vauxhall Park,EN,false,UKOS,511614,222471,-0.37956,51.88963,BCT,MKD,OTH,,,,028,2020-09-09T00:00:00,2020-09-09T08:37:19,0,new,active
02901027,ltnadjm,,,Devon Road turn,,,,,,,,,,opp,,NE,N0071656,St Annes,Luton,,Luton,EN,St Annes,EN,false,UKOS,510602,222009,-0.39441,51.88568,BCT,MKD,OTH,,,,028,2020-09-09T00:00:00,2020-09-09T08:37:19,0,new,active
02901004,ltnadaw,,,Hart Lane,,,,,,,,,,opp,,SW,N0071656,St Annes,Luton,,Luton,EN,St Annes,EN,false,UKOS,510270,221598,-0.39936,51.88205,BCT,MKD,OTH,,,,028,2020-09-09T00:00:00,2023-01-23T16:42:41,0,new,active
02901089,ltnadwj,,,Wigmore Church,,,,Wigmore Community Centre,,,,,,opp,,NE,N0071637,Wigmore Park,Luton,,Luton,EN,Wigmore Park,EN,false,UKOS,512274,222827,-0.36986,51.8927,BCT,MKD,OTH,,,,028,2020-09-09T00:00:00,2020-09-09T08:37:19,0,new,active
02900008,ltnadw,,,Crescent Rise,,,,Affinity Water,,,,,,adj,,E,N0071656,St Annes,Luton,,Luton,EN,St Annes,EN,false,UKOS,509616,221590,-0.40886,51.88211,BCT,MKD,OTH,,,,028,2020-09-09T00:00:00,2020-09-09T08:37:19,0,new,active
02901388,ltnapam,,,Crescent Rise,,,,Affinity Water,,Crescent Road,,,,opp,,W,N0071656,St Annes,Luton,,Luton,EN,St Annes,EN,false,UKOS,509602,221580,-0.40907,51.88202,BCT,MKD,OTH,,,,028,2020-09-09T00:00:00,2020-09-09T08:37:19,0,new,active
02905072,ltngmja,,,Croft Road,,,,The Shops,,Croft Road,,,,NE-bound,,NE,E0039092,Stopsley,Luton,,Luton,EN,Stopsley,EN,false,UKOS,510926,223306,-0.38928,51.89727,BCT,MKD,OTH,,,,028,2020-09-09T00:00:00,2020-09-09T08:37:20,0,new,active
02900013,ltnagp,,,Croft Road,,,,The Shops,,Croft Road,,,,SW-bound,,SW,E0039092,Stopsley,Luton,,Luton,EN,Stopsley,EN,false,UKOS,510936,223305,-0.38914,51.89726,BCT,MKD,OTH,,,,028,2020-09-09T00:00:00,2020-09-09T08:37:20,0,new,active
02903253,ltndagm,,,Cromwell Road,,,,New Bedford Road,,,,,,SW-bound,,SW,E0039081,Biscot,Luton,,Luton,EN,Biscot,EN,false,UKOS,508729,222103,-0.42158,51.88689,BCT,MKD,OTH,,,,028,2020-12-16T00:00:00,2020-12-16T13:20:33,0,new,active
02903227,ltndadw,,,Winslow Close,,,,,,Culverhouse Road,,,,opp,,N,N0071655,Saints,Luton,,Luton,EN,Saints,EN,false,UKOS,508249,223622,-0.42808,51.90064,BCT,MKD,OTH,,,,028,2020-09-09T00:00:00,2020-09-09T08:37:19,0,new,active
02903230,ltnadajt,,,Winslow Close,,,,,,Culverhouse Road,,,,nr,,N,N0071655,Saints,Luton,,Luton,EN,Saints,EN,false,UKOS,508262,223624,-0.42789,51.90065,BCT,CUS,OTH,,,,028,2020-09-09T00:00:00,2024-06-14T17:47:00,46,new,active
02901602,ltnapma,,,Capability Green Walk,,,,,,Cutenhoe Road,,,,nr,,SW,E0039088,Park Town,Luton,,Luton,EN,Park Town,EN,false,UKOS,509358,219861,-0.41315,51.86662,BCT,MKD,OTH,,,,028,2020-09-09T00:00:00,2020-09-09T08:37:19,0,new,active
02901604,ltnapmg,,,Cutenhoe Court,,,,,,Cutenhoe Road,,,,opp,,SW,N0071657,Stockwood,Luton,,Luton,EN,Stockwood,EN,false,UKOS,509104,219718,-0.41689,51.86538,BCT,MKD,OTH,,,,028,2020-09-09T00:00:00,2024-04-10T10:56:20,10,new,active
02901619,ltnapwj,,,Hoylake Court,,,,,,Cutenhoe Road,,,,o/s,,SW,E0039088,Park Town,Luton,,Luton,EN,Park Town,EN,false,UKOS,509915,220335,-0.40492,51.87077,BCT,MKD,OTH,,,,028,2020-09-09T00:00:00,2024-04-09T18:37:57,42,new,active
02901621,ltnapwp,,,Barnfield South Academy,,,,,,Cutenhoe Road,,,,opp,,NE,E0039088,Park Town,Luton,,Luton,EN,Park Town,EN,false,UKOS,509641,220163,-0.40895,51.86928,BCT,MKD,OTH,,,,028,2020-09-09T00:00:00,2024-04-09T18:41:23,10,new,active
02901620,ltnapwm,,,Barnfield South Academy,,,,,,Cutenhoe Road,,,,nr,,SW,E0039088,Park Town,Luton,,Luton,EN,Park Town,EN,false,UKOS,509635,220148,-0.40904,51.86914,BCT,MKD,OTH,,,,028,2020-09-09T00:00:00,2024-04-09T18:41:30,10,new,active
02901601,ltnapjw,,,West Hill Road,,,,,,Cutenhoe Road,,,,adj,,NE,N0071657,Stockwood,Luton,,Luton,EN,Stockwood,EN,false,UKOS,509394,219979,-0.41259,51.86767,BCT,MKD,OTH,,,,028,2020-09-09T00:00:00,2020-09-09T08:37:19,0,new,active
02901600,ltnapjt,,,West Hill Road,,,,,,Cutenhoe Road,,,,opp,,SW,N0071657,Stockwood,Luton,,Luton,EN,Stockwood,EN,false,UKOS,509404,219959,-0.41246,51.86749,BCT,MKD,OTH,,,,028,2020-09-09T00:00:00,2024-04-09T18:42:44,10,new,active
02903708,ltndjtw,,,Ferndale Road,,,,Gibbs and Dandy,,,,,,adj,,W,N0071652,Dallow,Luton,,Luton,EN,Dallow,EN,false,UKOS,507710,221592,-0.43654,51.8825,BCT,MKD,OTH,,,,028,2020-09-09T00:00:00,2023-02-06T15:09:19,20,new,active
02903707,ltndjtp,,,Ferndale Road,,,,Gibbs and Dandy,,,,,,opp,,E,N0071652,Dallow,Luton,,Luton,EN,Dallow,EN,false,UKOS,507763,221603,-0.43577,51.88259,BCT,MKD,OTH,,,,028,2020-09-09T00:00:00,2023-02-06T15:08:50,20,new,active
02901020,ltnadgm,,,Devon Road,,,,,,,,,,o/s,,SE,N0071656,St Annes,Luton,,Luton,EN,St Annes,EN,false,UKOS,510889,221822,-0.3903,51.88394,BCT,MKD,OTH,,,,028,2020-09-09T00:00:00,2020-09-09T08:37:19,0,new,active
02901018,ltnadgd,,,Buchanan Drive,,,,,,,,,,opp,,NE,N0071656,St Annes,Luton,,Luton,EN,St Annes,EN,false,UKOS,510699,221975,-0.39301,51.88535,BCT,MKD,OTH,,,,028,2020-09-09T00:00:00,2023-01-23T16:41:25,0,new,active
02901022,ltnadgt,,,Gayland Avenue,,,,,,,,,,opp,,SW,N0071656,St Annes,Luton,,Luton,EN,St Annes,EN,false,UKOS,510731,221523,-0.39269,51.88129,BCT,MKD,OTH,,,,028,2020-09-09T00:00:00,2023-02-06T14:57:49,0,new,active
02901019,ltnadgj,,,Plymouth Close,,,,,,,,,,nr,,SE,N0071656,St Annes,Luton,,Luton,EN,St Annes,EN,false,UKOS,510812,222005,-0.39136,51.8856,BCT,MKD,OTH,,,,028,2020-09-09T00:00:00,2020-09-09T08:37:19,0,new,active
02901021,ltnadgp,,,Harrowden Road steps,,,,,,,,,,at,,S,N0071656,St Annes,Luton,,Luton,EN,St Annes,EN,false,UKOS,510886,221686,-0.39039,51.88272,BCT,MKD,OTH,,,,028,2021-10-12T00:00:00,2021-10-12T16:29:04,0,new,active
02907004,ltngatd,,,Princess Street,,,,,,,,,,opp,,W,N0071651,Chapel Langley,Luton,,Luton,EN,Chapel Langley,EN,false,UKOS,508787,220949,-0.4211,51.87651,BCT,MKD,OTH,,,,028,2020-09-09T00:00:00,2020-09-09T08:37:19,0,new,active
02903031,ltnatmw,,,Dunstable Road,,,,Big Yellow Storage,,,,,,nr,,NW,N0071654,Maidenhall,Luton,,Luton,EN,Maidenhall,EN,false,UKOS,506786,222680,-0.44962,51.89245,BCT,MKD,OTH,,,,028,2020-09-09T00:00:00,2020-09-09T08:37:19,0,new,active
02903029,ltnatmp,,,Arundel Road,,,,,,,,,,opp,,W,N0071654,Maidenhall,Luton,,Luton,EN,Maidenhall,EN,false,UKOS,506954,222519,-0.44723,51.89097,BCT,MKD,OTH,,,,028,2020-09-09T00:00:00,2020-09-09T08:37:19,0,new,active
02903030,ltnatmt,,,Arundel Road,,,,Beechwood Road,,,,,,nr,,E,N0071654,Maidenhall,Luton,,Luton,EN,Maidenhall,EN,false,UKOS,506878,222611,-0.44831,51.89181,BCT,MKD,OTH,,,,028,2020-09-09T00:00:00,2020-09-09T08:37:19,0,new,active
02903038,ltnatpw,,,Shelley Road,,,,,,,,,,opp,,W,N0071653,Lewsey,Luton,,Luton,EN,Luton & Dunstable Hospital,EN,false,UKOS,504680,222602,-0.48024,51.89215,BCT,MKD,OTH,,,,028,2020-09-09T00:00:00,2020-09-09T08:37:19,0,new,active
02903039,ltnatwa,,,Shelley Road,,,,,,,,,,nr,,E,N0071653,Lewsey,Luton,,Luton,EN,Luton & Dunstable Hospital,EN,false,UKOS,504715,222640,-0.47972,51.89249,BCT,MKD,OTH,,,,028,2020-09-09T00:00:00,2023-02-06T16:37:24,0,new,active
02903033,ltnatpd,,,Oakley Road,,,,PC World,,,,,,nr,,E,N0071650,Challney,Luton,,Luton,EN,Challney,EN,false,UKOS,506301,222629,-0.45668,51.89209,BCT,MKD,OTH,,,,028,2020-09-09T00:00:00,2020-09-09T08:37:19,0,new,active
02903046,ltnatwt,,,Thornhill Road,,,,Arriva Depot,,,,,,nr,,W,N0071650,Challney,Luton,,Luton,EN,Challney,EN,false,UKOS,506668,222625,-0.45135,51.89198,BCT,MKD,OTH,,,,028,2020-09-09T00:00:00,2020-09-09T08:37:19,0,new,active
02901023,ltnadgw,,,Durham Road,,,,,,,,,,o/s,,NW,N0071656,St Annes,Luton,,Luton,EN,St Annes,EN,false,UKOS,510530,221381,-0.39565,51.88005,BCT,MKD,OTH,,,,028,2020-09-09T00:00:00,2023-02-06T14:58:53,0,new,active
02901024,ltnadja,,,Rutland Crescent,,,,,,,,,,nr,,NW,N0071656,St Annes,Luton,,Luton,EN,St Annes,EN,false,UKOS,510420,221487,-0.39722,51.88102,BCT,MKD,OTH,,,,028,2020-09-09T00:00:00,2020-09-09T08:37:19,0,new,active
02901272,ltnajda,,,Brendon Avenue,,,,,,Eaton Green Road,,,,adj,,E,N0071660,Vauxhall Park,Luton,,Luton,EN,Vauxhall Park,EN,false,UKOS,511167,221732,-0.38629,51.88308,BCT,MKD,OTH,,,,028,2020-09-09T00:00:00,2020-09-09T08:37:19,0,new,active
02901271,ltnajaw,,,Brendon Avenue,,,,,,,,,,opp,,SW,N0071660,Vauxhall Park,Luton,,Luton,EN,Vauxhall Park,EN,false,UKOS,511165,221711,-0.38633,51.88289,BCT,MKD,OTH,,,,028,2020-09-09T00:00:00,2020-09-09T08:37:19,0,new,active
02901093,ltnagad,,,Hartop Court,,,,,,,,,,o/s,,NE,N0071660,Vauxhall Park,Luton,,Luton,EN,Vauxhall Park,EN,false,UKOS,511671,221954,-0.3789,51.88497,BCT,MKD,OTH,,,,028,2020-09-09T00:00:00,2020-09-09T08:37:19,0,new,active
02901270,ltnajat,,,Mistletoe Hill,,,,,,Eaton Green Road,,,,opp,,W,N0071660,Vauxhall Park,Luton,,Luton,EN,Vauxhall Park,EN,false,UKOS,511331,221812,-0.38388,51.88376,BCT,MKD,OTH,,,,028,2020-09-09T00:00:00,2020-09-09T08:37:19,0,new,active
02901268,ltnajam,,,Raynham Way Community Centre,,,,,,,,,,nr,,NE,N0060424,Wigmore,Luton,,Luton,EN,Wigmore,EN,false,UKOS,511978,222113,-0.37439,51.88634,BCT,MKD,OTH,,,,028,2020-09-09T00:00:00,2020-09-09T08:37:19,0,new,active
02901269,ltnajap,,,Raynham Way Community Centre,,,,,,,,,,opp,,SW,N0060424,Wigmore,Luton,,Luton,EN,Wigmore,EN,false,UKOS,511850,222037,-0.37627,51.88568,BCT,MKD,OTH,,,,028,2020-09-09T00:00:00,2020-09-09T08:37:19,0,new,active
02901313,ltnajwt,,,Eaton Valley Road,,,,,,Eaton Valley Road,,,,N-bound,,N,N0071656,St Annes,Luton,,Luton,EN,St Annes,EN,false,UKOS,510849,222118,-0.39078,51.88661,BCT,MKD,OTH,,,,028,2021-10-12T00:00:00,2021-10-12T16:29:04,0,new,active
02901314,ltnamad,,,Harrowden Road,,,,,,Eaton Valley Road,,,,N-bound,,N,N0071656,St Annes,Luton,,Luton,EN,St Annes,EN,false,UKOS,510972,221720,-0.38913,51.88301,BCT,MKD,OTH,,,,028,2020-09-09T00:00:00,2020-09-09T08:37:20,0,new,active
02907040,ltngdmg,,,Chapel Street Nursery,,,,,,,,,,opp,,SW,N0071651,Chapel Langley,Luton,,Luton,EN,Chapel Langley,EN,false,UKOS,508914,220658,-0.41935,51.87387,BCT,MKD,OTH,,,,028,2021-10-12T00:00:00,2021-10-12T16:29:04,0,new,active
02907041,ltngdmj,,,Chapel Street nursery,,,,,,,,,,o/s,,SE,N0071651,Chapel Langley,Luton,,Luton,EN,Chapel Langley,EN,false,UKOS,508879,220715,-0.41984,51.87439,BCT,MKD,OTH,,,,028,2021-10-12T00:00:00,2021-10-12T16:29:04,0,new,active
02905057,ltngmdg,,,St Martin's Avenue,,,,,,,,,,nr,,S,E0039089,Round Green,Luton,,Luton,EN,Round Green,EN,false,UKOS,509552,222910,-0.40937,51.89398,BCT,MKD,OTH,,,,028,2020-09-09T00:00:00,2020-09-09T08:37:19,0,new,active
02903226,ltndadt,,,Fountains Road,,,,,,Culverhouse Road,,,,opp,,N,N0071655,Saints,Luton,,Luton,EN,Saints,EN,false,UKOS,508291,223419,-0.42753,51.8988,BCT,MKD,OTH,,,,028,2020-09-09T00:00:00,2020-09-09T08:37:19,0,new,active
02903231,ltnadajw,,,Fountains Road,,,,,,Culverhouse Road,,,,adj,,S,N0071655,Saints,Luton,,Luton,EN,Saints,EN,false,UKOS,508302,223415,-0.42737,51.89877,BCT,CUS,OTH,,,,028,2020-09-09T00:00:00,2024-06-14T17:50:16,48,new,active
02903260,ltndagp,,,St Michaels Crescent,,,,,,Fountains Road,,,,opp,,W,N0071655,Saints,Luton,,Luton,EN,Saints,EN,false,UKOS,508574,223379,-0.42343,51.89839,BCT,MKD,OTH,,,,028,2020-09-09T00:00:00,2020-09-09T08:37:19,0,new,active
02904584,ltndtpt,,,Fourth Avenue,,,,,,Fourth Avenue,,,,SW-bound,,SW,E0039093,Sundon Park,Luton,,Luton,EN,Sundon Park,EN,false,UKOS,505525,225109,-0.4672,51.91452,BCT,MKD,OTH,,,,028,2020-12-16T00:00:00,2020-12-16T13:20:33,0,new,active
02901102,ltnagdj,,,Frank Lester Way,,,,,,,,,,NW-bound,,NW,N0060524,Luton Airport,Luton,,Luton,EN,Luton International Airport,EN,false,UKOS,511578,221783,-0.38031,51.88345,BCT,MKD,OTH,,,,028,2020-09-09T00:00:00,2020-09-09T08:37:20,0,new,active
02901103,ltnagdm,,,Frank Lester Way,,,,,,,,,,SE-bound,,SE,N0060524,Luton Airport,Luton,,Luton,EN,Luton International Airport,EN,false,UKOS,511643,221747,-0.37937,51.88312,BCT,MKD,OTH,,,,028,2020-09-09T00:00:00,2020-09-09T08:37:20,0,new,active
02904733,ltngada,,,St Olams Close,,,,,,,,,,opp,,SW,E0039090,Runfold,Luton,,Luton,EN,Runfold,EN,false,UKOS,507598,224890,-0.43714,51.91216,BCT,MKD,OTH,,,,028,2020-09-09T00:00:00,2024-04-16T11:24:23,34,new,active
02904524,ltndtad,,,Linacres,,,,,,,,,,nr,,NE,E0039084,Leagrave,Luton,,Luton,EN,Leagrave,EN,false,UKOS,505824,223863,-0.46323,51.90327,BCT,MKD,OTH,,,,028,2020-09-09T00:00:00,2020-09-09T08:37:19,0,new,active
02904516,ltndpwm,,,Linacres,,,,,,,,,,opp,,SW,E0039084,Leagrave,Luton,,Luton,EN,Leagrave,EN,false,UKOS,505837,223861,-0.46305,51.90325,BCT,MKD,OTH,,,,028,2020-09-09T00:00:00,2020-09-09T08:37:19,0,new,active
02901273,ltnajdg,,,Long Close,,,,,,Hallwicks Road,,,,opp,,N,E0039092,Stopsley,Luton,,Luton,EN,Stopsley,EN,false,UKOS,510965,223128,-0.38878,51.89566,BCT,MKD,OTH,,,,028,2020-09-09T00:00:00,2020-09-09T08:37:19,0,new,active
02903909,ltndmja,,,Lambourn Drive,,,,,,,,,,opp,,NW,N0060422,Bushmead,Luton,,Luton,EN,Bushmead,EN,false,UKOS,509151,224614,-0.41466,51.90938,BCT,MKD,OTH,,,,028,2020-09-09T00:00:00,2020-09-09T08:37:19,0,new,active
02903910,ltndmjd,,,Lambourn Drive,,,,,,,,,,nr,,SE,N0060422,Bushmead,Luton,,Luton,EN,Bushmead,EN,false,UKOS,509184,224602,-0.41418,51.90926,BCT,MKD,OTH,,,,028,2020-09-09T00:00:00,2020-09-09T08:37:19,0,new,active
02902003,ltnatat,,,Harry Scott Court,,,,Harry Scott Court,,,,,,adj,,E,N0071658,Tophill,Luton,,Luton,EN,Tophill,EN,false,UKOS,505043,224781,-0.4743,51.91167,BCT,MKD,OTH,,,,028,2020-09-09T00:00:00,2020-09-09T08:37:19,0,new,active
02901005,ltnadga,,,Whitecroft Road,,,,,,,,,,adj,,NW,N0071656,St Annes,Luton,,Luton,EN,St Annes,EN,false,UKOS,510241,221663,-0.39976,51.88264,BCT,MKD,OTH,,,,028,2020-09-09T00:00:00,2020-09-09T08:37:19,0,new,active
02901286,ltnajma,,,Applecroft Road,,,,,,Hawthorn Avenue,,,,opp,,E,E0039092,Stopsley,Luton,,Luton,EN,Stopsley,EN,false,UKOS,510957,223779,-0.38868,51.90152,BCT,MKD,OTH,,,,028,2020-09-09T00:00:00,2020-09-09T08:37:19,0,new,active
02901287,ltnajmd,,,Applecroft Road,,,,,,Hawthorn Avenue,,,,nr,,W,E0039092,Stopsley,Luton,,Luton,EN,Stopsley,EN,false,UKOS,510993,223771,-0.38816,51.90144,BCT,MKD,OTH,,,,028,2020-09-09T00:00:00,2020-09-09T08:37:19,0,new,active
02901282,ltnajgm,,,Putteridge Road,,,,,,Hawthorn Avenue,,,,nr,,SE,E0039092,Stopsley,Luton,,Luton,EN,Stopsley,EN,false,UKOS,510713,223866,-0.3922,51.90235,BCT,MKD,OTH,,,,028,2020-09-09T00:00:00,2020-09-09T08:37:19,0,new,active
02901320,ltnamag,,,Bracklesham Gardens,,,,,,,,,,adj,,NE,N0060424,Wigmore,Luton,,Luton,EN,Wigmore,EN,false,UKOS,511667,223344,-0.37851,51.89746,BCT,MKD,OTH,,,,028,2020-09-09T00:00:00,2020-09-09T08:37:19,0,new,active
02901077,ltnadtm,,,Telscombe Way,,,,,,,,,,nr,,N,N0060424,Wigmore,Luton,,Luton,EN,Wigmore,EN,false,UKOS,511698,223560,-0.37799,51.8994,BCT,MKD,OTH,,,,028,2020-09-09T00:00:00,2020-09-09T08:37:19,0,new,active
02901322,ltnamam,,,Handcross Road,,,,,,,,,,nr,,SW,N0060424,Wigmore,Luton,,Luton,EN,Wigmore,EN,false,UKOS,511509,223143,-0.38087,51.89569,BCT,MKD,OTH,,,,028,2020-09-09T00:00:00,2020-09-09T08:37:19,0,new,active
02901323,ltnamap,,,Handcross Road,,,,,,,,,,opp,,NE,N0060424,Wigmore,Luton,,Luton,EN,Wigmore,EN,false,UKOS,511505,223171,-0.38092,51.89594,BCT,MKD,OTH,,,,028,2020-09-09T00:00:00,2020-09-09T08:37:19,0,new,active
02901260,ltnagwg,,,Bowbrook Vale,,,,,,,,,,opp,,E,N0071637,Wigmore Park,Luton,,Luton,EN,Wigmore Park,EN,false,UKOS,512633,222398,-0.36478,51.88877,BCT,MKD,OTH,,,,028,2020-09-09T00:00:00,2024-10-08T16:31:29,20,new,active
02901626,ltnadama,,,Bowbrook Vale,,,,,,,,,,Adjacent,,W,N0071637,Wigmore Park,Luton,,Luton,EN,Wigmore Park,EN,false,UKOS,512634,222390,-0.36477,51.8887,BCT,CUS,OTH,,,,028,2020-09-09T00:00:00,2024-10-08T16:31:00,37,new,active
02901261,ltnagwj,,,Reedsdale,,,,Emmer Green,,,,,,opp,,NW,N0071637,Wigmore Park,Luton,,Luton,EN,Wigmore Park,EN,false,UKOS,512752,222584,-0.36299,51.89042,BCT,MKD,OTH,,,,028,2020-09-09T00:00:00,2020-09-09T08:37:19,0,new,active
02901262,ltnagwm,,,Rowington Close,,,,,,,,,,adj,,NW,N0071637,Wigmore Park,Luton,,Luton,EN,Wigmore Park,EN,false,UKOS,512410,222861,-0.36787,51.89297,BCT,MKD,OTH,,,,028,2020-09-09T00:00:00,2020-09-09T08:37:19,0,new,active
02904707,ltndwjm,,,Strawberry Field,,,,,,,,,,adj,,S,E0039086,Marsh Farm,Luton,,Luton,EN,Marsh Farm,EN,false,UKOS,505983,225445,-0.46044,51.91746,BCT,MKD,OTH,,,,028,2020-09-09T00:00:00,2020-09-09T08:37:19,0,new,active
02904706,ltndwjg,,,Strawberry Field,,,,,,,,,,opp,,N,E0039086,Marsh Farm,Luton,,Luton,EN,Marsh Farm,EN,false,UKOS,505984,225379,-0.46044,51.91686,BCT,MKD,OTH,,,,028,2020-09-09T00:00:00,2020-09-09T08:37:19,0,new,active
02904704,ltndwja,,,Little Berries,,,,,,,,,,opp,,N,E0039086,Marsh Farm,Luton,,Luton,EN,Marsh Farm,EN,false,UKOS,506022,225197,-0.45995,51.91522,BCT,MKD,OTH,,,,028,2020-09-09T00:00:00,2020-09-09T08:37:19,0,new,active
02904705,ltndwjd,,,Little Berries,,,,,,,,,,adj,,S,E0039086,Marsh Farm,Luton,,Luton,EN,Marsh Farm,EN,false,UKOS,506024,225258,-0.4599,51.91577,BCT,MKD,OTH,,,,028,2020-09-09T00:00:00,2020-09-09T08:37:19,0,new,active
02904534,ltndtap,,,Westlea,,,,,,,,,,o/s,,SW,E0039084,Leagrave,Luton,,Luton,EN,Leagrave,EN,false,UKOS,505423,223596,-0.46914,51.90094,BCT,MKD,OTH,,,,028,2020-09-09T00:00:00,2020-09-09T08:37:19,0,new,active
02904535,ltndtat,,,Westlea,,,,,,,,,,opp,,NE,E0039084,Leagrave,Luton,,Luton,EN,Leagrave,EN,false,UKOS,505447,223624,-0.46878,51.90119,BCT,MKD,OTH,,,,028,2020-09-09T00:00:00,2020-09-09T08:37:19,0,new,active
02904811,ltngama,,,Hill Rise Shops,,,,,,,,,,o/s,,E,E0039093,Sundon Park,Luton,,Luton,EN,Sundon Park,EN,false,UKOS,505375,225279,-0.46932,51.91608,BCT,MKD,OTH,,,,028,2020-09-09T00:00:00,2020-09-09T08:37:19,0,new,active
02901376,ltnamtp,,,Deep Denes,,,,,,,,,,opp,,N,E0039089,Round Green,Luton,,Luton,EN,Round Green,EN,false,UKOS,510103,222828,-0.40139,51.89314,BCT,MKD,OTH,,,,028,2020-09-09T00:00:00,2020-09-09T08:37:19,0,new,active
02901377,ltnamtw,,,Deep Denes,,,,,,,,,,adj,,S,E0039089,Round Green,Luton,,Luton,EN,Round Green,EN,false,UKOS,510089,222922,-0.40157,51.89399,BCT,MKD,OTH,,,,028,2020-09-09T00:00:00,2020-09-09T08:37:19,0,new,active
02901356,ltnamgw,,,Charles Street,,,,,,,,,,adj,,NE,E0039083,High Town,Luton,,Luton,EN,High Town,EN,false,UKOS,509693,221897,-0.40764,51.88485,BCT,MKD,OTH,,,,028,2020-09-09T00:00:00,2020-09-09T08:37:19,0,new,active
02901354,ltnamgp,,,High Town Road,,,,,,,,,,nr,,NE,E0039083,High Town,Luton,,Luton,EN,High Town,EN,false,UKOS,509963,222327,-0.40359,51.88866,BCT,MKD,OTH,,,,028,2020-09-09T00:00:00,2020-09-09T08:37:19,0,new,active
02901382,ltnamwm,,,Lynwood Avenue,,,,,,,,,,adj,,N,E0039092,Stopsley,Luton,,Luton,EN,Stopsley,EN,false,UKOS,510197,223437,-0.39983,51.89859,BCT,MKD,OTH,,,,028,2020-09-09T00:00:00,2020-09-09T08:37:19,0,new,active
02901381,ltnamwj,,,Lynwood Avenue,,,,,,,,,,opp,,S,E0039092,Stopsley,Luton,,Luton,EN,Stopsley,EN,false,UKOS,510205,223477,-0.3997,51.89895,BCT,MKD,OTH,,,,028,2020-09-09T00:00:00,2020-09-09T08:37:19,0,new,active
02901385,ltnapad,,,Mount Grace Road,,,,,,Hitchin Road,,,,opp,,NE,E0039092,Stopsley,Luton,,Luton,EN,Stopsley,EN,false,UKOS,511012,224690,-0.38759,51.90969,BCT,MKD,OTH,,,,028,2020-09-09T00:00:00,2020-09-09T08:37:19,0,new,active
02901384,ltnamwt,,,Mount Grace Road,,,,,,Hitchin Road,,,,adj,,SW,E0039092,Stopsley,Luton,,Luton,EN,Stopsley,EN,false,UKOS,511005,224619,-0.38771,51.90906,BCT,MKD,OTH,,,,028,2020-09-09T00:00:00,2020-09-09T08:37:19,0,new,active
02901380,ltnamwg,,,Stopsley Primary School,,,,,,,,,,opp,,NE,E0039092,Stopsley,Luton,,Luton,EN,Stopsley,EN,false,UKOS,510298,223782,-0.39826,51.90167,BCT,MKD,OTH,,,,028,2020-09-09T00:00:00,2020-09-09T08:37:19,0,new,active
02901379,ltnamwd,,,Stopsley Primary School,,,,Stopsley Primary School,,,,,,o/s,,SW,E0039092,Stopsley,Luton,,Luton,EN,Stopsley,EN,false,UKOS,510280,223725,-0.39854,51.90116,BCT,MKD,OTH,,,,028,2020-09-09T00:00:00,2020-09-09T08:37:19,0,new,active
02904611,ltndwat,,,Hockwell Ring,,,,,,,,,,o/s,,NW,N0060398,Hockwell Ring,Luton,,Luton,EN,Hockwell Ring,EN,false,UKOS,504930,223894,-0.47621,51.90372,BCT,MKD,OTH,,,,028,2020-09-09T00:00:00,2020-09-09T08:37:19,0,new,active
02903547,ltndgjm,,,Gelding Close,,,,,,Pastures Way,,,,opp,,S,N0060401,Lewsey Park,Luton,,Luton,EN,Lewsey Park,EN,false,UKOS,503877,224075,-0.49146,51.90554,BCT,MKD,OTH,,,,028,2020-09-09T00:00:00,2020-09-09T08:37:19,0,new,active
02901246,ltngdta,,,The Busway,,,,Hayward Tyler,,,,,,opp,,W,N0071659,Vauxhall,Luton,,Luton,EN,Vauxhall,EN,false,UKOS,510210,220854,-0.40047,51.87538,BCT,CUS,OTH,,,,028,2020-09-09T00:00:00,2020-09-09T08:37:19,0,new,active
02900049,ltndag,,,The Busway,,,,Hayward Tyler,,,,,,nr,,E,N0071659,Vauxhall,Luton,,Luton,EN,Vauxhall,EN,false,UKOS,510116,220860,-0.40183,51.87545,BCT,CUS,OTH,,,,028,2020-09-09T00:00:00,2020-09-09T08:37:19,1,new,active
02904715,ltndwmp,,,Laburnum Grove,,,,Runfold Shops,,,,,,NW-bound,,NW,E0039090,Runfold,Luton,,Luton,EN,Runfold,EN,false,UKOS,508075,225081,-0.43015,51.91378,BCT,MKD,OTH,,,,028,2020-09-09T00:00:00,2024-04-16T11:26:18,34,new,active
02904716,ltndwmt,,,Laburnum Grove,,,,Runfold Shops,,Laburnum Grove,,,,SE-bound,,SE,E0039090,Runfold,Luton,,Luton,EN,Runfold,EN,false,UKOS,508071,225097,-0.4302,51.91393,BCT,MKD,OTH,,,,028,2020-09-09T00:00:00,2020-09-09T08:37:20,0,new,active
02903659,ltndjpt,,,Landrace Road,,,,,,,,,,adj,,NW,N0060399,Lewsey Farm,Luton,,Luton,EN,Lewsey Farm,EN,false,UKOS,503490,223745,-0.49718,51.90265,BCT,MKD,OTH,,,,028,2020-09-09T00:00:00,2020-09-09T08:37:19,0,new,active
02903557,ltndgmw,,,Landrace Road,,,,,,,,,,opp,,SE,N0060399,Lewsey Farm,Luton,,Luton,EN,Lewsey Farm,EN,false,UKOS,503479,223775,-0.49733,51.90292,BCT,MKD,OTH,,,,028,2020-09-09T00:00:00,2020-09-09T08:37:19,0,new,active
02903656,ltndjpm,,,Copperfields,,,,,,,,,,nr,,E,N0071653,Lewsey,Luton,,Luton,EN,Luton & Dunstable Hospital,EN,false,UKOS,505126,223446,-0.4735,51.89965,BCT,MKD,OTH,,,,028,2020-09-09T00:00:00,2020-09-09T08:37:19,0,new,active
02903655,ltndjpj,,,Copperfields,,,,,,,,,,opp,,W,N0071653,Lewsey,Luton,,Luton,EN,Luton & Dunstable Hospital,EN,false,UKOS,505096,223415,-0.47395,51.89938,BCT,MKD,OTH,,,,028,2020-09-09T00:00:00,2020-09-09T08:37:19,0,new,active
02903110,ltnawdp,,,Waller Avenue,,,,,,,,,,opp,,SE,N0071655,Saints,Luton,,Luton,EN,Saints,EN,false,UKOS,507065,223322,-0.44537,51.89817,BCT,MKD,OTH,,,,028,2020-09-09T00:00:00,2020-09-09T08:37:19,0,new,active
02903150,ltnawdt,,,Waller Avenue,,,,,,,,,,nr,,NW,N0071655,Saints,Luton,,Luton,EN,Leagrave,EN,false,UKOS,506940,223440,-0.44715,51.89925,BCT,MKD,OTH,,,,028,2020-09-09T00:00:00,2024-03-08T11:02:55,1,new,active
02903104,ltnawat,,,Tudor Road,,,,,,,,,,nr,,SE,E0039081,Biscot,Luton,,Luton,EN,Biscot,EN,false,UKOS,507724,222793,-0.43596,51.89329,BCT,MKD,OTH,,,,028,2020-09-09T00:00:00,2020-09-09T08:37:19,0,new,active
02903105,ltnawaw,,,Tudor Road,,,,,,,,,,opp,,NW,E0039081,Biscot,Luton,,Luton,EN,Biscot,EN,false,UKOS,507666,222846,-0.43679,51.89378,BCT,MKD,OTH,,,,028,2020-09-09T00:00:00,2020-09-09T08:37:19,0,new,active
02903103,ltnawap,,,Saxon Road,,,,,,,,,,opp,,NW,E0039081,Biscot,Luton,,Luton,EN,Biscot,EN,false,UKOS,507900,222542,-0.43348,51.891,BCT,MKD,OTH,,,,028,2020-09-09T00:00:00,2020-09-09T08:37:19,0,new,active
02903102,ltnawam,,,Saxon Road,,,,,,,,,,nr,,SE,E0039081,Biscot,Luton,,Luton,EN,Biscot,EN,false,UKOS,507971,222473,-0.43247,51.89036,BCT,MKD,OTH,,,,028,2020-09-09T00:00:00,2020-09-09T08:37:19,0,new,active
02903100,ltnawag,,,Selbourne Road,,,,,,,,,,opp,,SE,N0060419,Bury Park,Luton,,Luton,EN,Bury Park,EN,false,UKOS,508015,222248,-0.4319,51.88833,BCT,MKD,OTH,,,,028,2020-09-09T00:00:00,2020-09-09T08:37:19,0,new,active
02903101,ltnawaj,,,Selbourne Road,,,,,,,,,,adj,,N,N0060419,Bury Park,Luton,,Luton,EN,Bury Park,EN,false,UKOS,507972,222267,-0.43252,51.88851,BCT,MKD,OTH,,,,028,2020-09-09T00:00:00,2020-09-09T08:37:19,0,new,active
02903581,ltndgtw,,,St Dominics Square,,,,,,,,,,o/s,,NW,N0060399,Lewsey Farm,Luton,,Luton,EN,Lewsey Farm,EN,false,UKOS,503592,223690,-0.49572,51.90213,BCT,MKD,OTH,,,,028,2020-09-09T00:00:00,2020-09-09T08:37:19,0,new,active
02903580,ltndgtp,,,St Dominics Square,,,,,,,,,,opp,,SE,N0060399,Lewsey Farm,Luton,,Luton,EN,Lewsey Farm,EN,false,UKOS,503629,223673,-0.49518,51.90197,BCT,MKD,OTH,,,,028,2020-09-09T00:00:00,2020-09-09T08:37:19,0,new,active
02903002,ltnatgd,,,Lime Avenue,,,,,,,,,,opp,,NW,N0071653,Lewsey,Luton,,Luton,EN,Luton & Dunstable Hospital,EN,false,UKOS,504833,223101,-0.47786,51.89661,BCT,MKD,OTH,,,,028,2020-09-09T00:00:00,2020-09-09T08:37:19,0,new,active
02903001,ltnatga,,,Lime Avenue,,,,,,,,,,adj,,SE,N0071653,Lewsey,Luton,,Luton,EN,Luton & Dunstable Hospital,EN,false,UKOS,504820,223182,-0.47803,51.89734,BCT,MKD,OTH,,,,028,2020-09-09T00:00:00,2020-09-09T08:37:19,0,new,active
02901274,ltnajdj,,,The Severalls,,,,,,Little Church Road,,,,adj,,SE,E0039092,Stopsley,Luton,,Luton,EN,Stopsley,EN,false,UKOS,510839,223202,-0.39058,51.89635,BCT,MKD,OTH,,,,028,2020-09-09T00:00:00,2020-09-09T08:37:19,0,new,active
02901610,ltnaptd,,,Whitehill Avenue,,,,,,,,,,adj,,N,N0071657,Stockwood,Luton,,Luton,EN,Stockwood,EN,false,UKOS,509003,220181,-0.41821,51.86956,BCT,MKD,OTH,,,,028,2020-09-09T00:00:00,2020-09-09T08:37:19,0,new,active
02901105,ltngmpt,,,Prospect Way,,,,,,,,,,adj,,NW,N0060524,Luton Airport,Luton,,Luton,EN,Luton International Airport,EN,false,UKOS,511327,221265,-0.38412,51.87885,BCT,MKD,OTH,,,,028,2020-09-09T00:00:00,2024-05-29T12:20:14,25,new,active
02901106,ltnadaga,,,Prospect Way,,,,,,,,,,opp,,SW,N0060524,Luton Airport,Luton,,Luton,EN,Luton International Airport,EN,false,UKOS,511337,221353,-0.38394,51.87964,BCT,MKD,OTH,,,,028,2020-09-09T00:00:00,2023-03-13T12:32:00,30,new,active
02903631,ltndjma,,,Crown Court,,,,,,,,,,o/s,,SE,N0071638,Luton Town Centre,Luton,,Luton,EN,Town Centre,EN,false,UKOS,509281,221019,-0.41391,51.87704,BCT,MKD,OTH,,,,028,2020-09-09T00:00:00,2020-09-09T08:37:19,0,new,active
02903501,ltndawa,,,Vicarage Street,,,,University of Bedfordshire,,,,,,SW-bound,,SW,N0071638,Luton Town Centre,Luton,,Luton,EN,Town Centre,EN,false,UKOS,509580,221060,-0.40955,51.87735,BCT,MKD,OTH,,,,028,2020-12-16T00:00:00,2022-07-14T16:54:18,10,new,active
02903510,ltnadadp,,,Vicarage Street,,,,University of Bedfordshire,,,,,,SW-bound,,SW,N0071638,Luton Town Centre,Luton,,Luton,EN,Town Centre,EN,false,UKOS,509599,221083,-0.40927,51.87755,BCT,MKD,OTH,,,,028,2020-12-16T00:00:00,2022-07-14T16:54:26,9,new,active
02904135,ltndpjm,,,Axe Close,,,,,,,,,,adj,,NE,E0039086,Marsh Farm,Luton,,Luton,EN,Marsh Farm,EN,false,UKOS,506472,224893,-0.4535,51.9124,BCT,MKD,OTH,,,,028,2020-09-09T00:00:00,2020-09-09T08:37:19,0,new,active
02904134,ltndpjg,,,Sherd Close,,,,,,,,,,adj,,NE,E0039086,Marsh Farm,Luton,,Luton,EN,Marsh Farm,EN,false,UKOS,506634,225119,-0.45108,51.9144,BCT,MKD,OTH,,,,028,2020-09-09T00:00:00,2020-09-09T08:37:19,0,new,active
02903154,ltnawgj,,,Archway Road,,,,,,,,,,nr,,NW,E0039084,Leagrave,Luton,,Luton,EN,Leagrave,EN,false,UKOS,506529,223994,-0.45295,51.90431,BCT,MKD,OTH,,,,028,2020-09-09T00:00:00,2020-09-09T08:37:19,0,new,active
02903153,ltnawgd,,,Archway Road,,,,,,,,,,opp,,SE,E0039084,Leagrave,Luton,,Luton,EN,Leagrave,EN,false,UKOS,506617,223890,-0.4517,51.90336,BCT,MKD,OTH,,,,028,2020-09-09T00:00:00,2020-09-09T08:37:19,0,new,active
02903156,ltnawgp,,,Hewlett Road,,,,,,,,,,adj,,NW,E0039084,Leagrave,Luton,,Luton,EN,Leagrave,EN,false,UKOS,506415,224090,-0.45458,51.9052,BCT,MKD,OTH,,,,028,2020-09-09T00:00:00,2020-09-09T08:37:19,0,new,active
02903155,ltnawgm,,,Hewlett Road,,,,,,,,,,opp,,SE,E0039084,Leagrave,Luton,,Luton,EN,Leagrave,EN,false,UKOS,506445,224082,-0.45414,51.90512,BCT,MKD,OTH,,,,028,2020-09-09T00:00:00,2020-09-09T08:37:19,0,new,active
02903151,ltnawdw,,,Roman Road,,,,,,,,,,opp,,SE,E0039084,Leagrave,Luton,,Luton,EN,Leagrave,EN,false,UKOS,506805,223624,-0.44905,51.90093,BCT,MKD,OTH,,,,028,2020-09-09T00:00:00,2020-09-09T08:37:19,0,new,active
02903152,ltnawga,,,Roman Road,,,,,,,,,,adj,,NW,E0039084,Leagrave,Luton,,Luton,EN,Leagrave,EN,false,UKOS,506717,223707,-0.45031,51.9017,BCT,MKD,OTH,,,,028,2020-09-09T00:00:00,2020-09-09T08:37:19,0,new,active
02904605,ltndwam,,,Bramble Road,,,,Adlington Court,,,,,,adj,,NW,N0060398,Hockwell Ring,Luton,,Luton,EN,Hockwell Ring,EN,false,UKOS,505395,224028,-0.46942,51.90483,BCT,MKD,OTH,,,,028,2020-09-09T00:00:00,2020-09-09T08:37:19,0,new,active
02904604,ltndwaj,,,Bramble Road,,,,,,,,,,opp,,SE,N0060398,Hockwell Ring,Luton,,Luton,EN,Hockwell Ring,EN,false,UKOS,505463,223961,-0.46845,51.90422,BCT,MKD,OTH,,,,028,2020-09-09T00:00:00,2020-09-09T08:37:19,0,new,active
02904603,ltndwag,,,Orchard Way,,,,,,,,,,opp,,SE,N0060398,Hockwell Ring,Luton,,Luton,EN,Hockwell Ring,EN,false,UKOS,505559,223760,-0.46712,51.90239,BCT,MKD,OTH,,,,028,2020-09-09T00:00:00,2020-09-09T08:37:19,0,new,active
02904602,ltndwad,,,Orchard Way,,,,,,,,,,adj,,NW,N0060398,Hockwell Ring,Luton,,Luton,EN,Hockwell Ring,EN,false,UKOS,505530,223794,-0.46753,51.9027,BCT,MKD,OTH,,,,028,2020-09-09T00:00:00,2020-09-09T08:37:19,0,new,active
02907009,ltngatw,,,Russell Rise,,,,,,,,,,opp,,E,N0071651,Chapel Langley,Luton,,Luton,EN,Chapel Langley,EN,false,UKOS,508413,220790,-0.42658,51.87515,BCT,MKD,OTH,,,,028,2020-09-09T00:00:00,2020-09-09T08:37:19,0,new,active
02907008,ltngatp,,,Russell Rise,,,,,,,,,,adj,,W,N0071651,Chapel Langley,Luton,,Luton,EN,Chapel Langley,EN,false,UKOS,508501,220803,-0.4253,51.87525,BCT,MKD,OTH,,,,028,2020-09-09T00:00:00,2020-09-09T08:37:19,0,new,active
02903225,ltndadp,,,Culverhouse Road,,,,,,,,,,nr,,E,E0039081,Biscot,Luton,,Luton,EN,Biscot,EN,false,UKOS,508387,223168,-0.42621,51.89653,BCT,CUS,OTH,,,,028,2020-09-09T00:00:00,2024-06-14T17:50:50,36,new,active
02904729,ltndwtm,,,Westmorland Avenue,,,,Neville Road Surgery,,,,,,adj,,N,E0039085,Limbury,Luton,,Luton,EN,Limbury,EN,false,UKOS,507240,224065,-0.4426,51.90481,BCT,MKD,OTH,,,,028,2020-09-09T00:00:00,2020-09-09T08:37:19,0,new,active
02903204,ltnawmw,,,Alexandra Avenue,,,,,,,,,,nr,,N,E0039095,Wardown,Luton,,Luton,EN,Wardown,EN,false,UKOS,508740,222527,-0.42129,51.8907,BCT,MKD,OTH,,,,028,2020-09-09T00:00:00,2020-09-09T08:37:19,0,new,active
02903212,ltnawta,,,Austin Road,,,,,,,,,,nr,,N,N0071649,Barnfield,Luton,,Luton,EN,Barnfield,EN,false,UKOS,508585,224005,-0.42307,51.90401,BCT,MKD,OTH,,,,028,2020-09-09T00:00:00,2020-09-09T08:37:19,0,new,active
02903213,ltnawtd,,,Austin Road,,,,,,,,,,opp,,S,N0071649,Barnfield,Luton,,Luton,EN,Barnfield,EN,false,UKOS,508628,223877,-0.42249,51.90285,BCT,MKD,OTH,,,,028,2020-09-09T00:00:00,2020-09-09T08:37:19,0,new,active
02903206,ltnawpd,,,Bath Road,,,,Museum,,,,,,o/s,,N,E0039095,Wardown,Luton,,Luton,EN,Wardown,EN,false,UKOS,508737,222946,-0.4212,51.89447,BCT,MKD,OTH,,,,028,2020-09-09T00:00:00,2020-09-09T08:37:19,0,new,active
02903205,ltnawpa,,,Bath Road,,,,,,,,,,opp,,S,E0039095,Wardown,Luton,,Luton,EN,Wardown,EN,false,UKOS,508749,222857,-0.42105,51.89366,BCT,MKD,OTH,,,,028,2020-09-09T00:00:00,2020-09-09T08:37:19,0,new,active
02903201,ltnawmj,,,Brook Street,,,,,,,,,,nr,,N,E0039095,Wardown,Luton,,Luton,EN,Wardown,EN,false,UKOS,508782,221903,-0.42087,51.88508,BCT,MKD,OTH,,,,028,2020-09-09T00:00:00,2020-09-09T08:37:19,0,new,active
02903250,ltndagd,,,Cranleigh Gardens,,,,,,,,,,adj,,N,N0071649,Barnfield,Luton,,Luton,EN,Barnfield,EN,false,UKOS,508727,223315,-0.42123,51.89778,BCT,MKD,OTH,,,,028,2020-09-09T00:00:00,2020-09-09T08:37:19,0,new,active
02903415,ltndajw,,,Graham Gardens,,,,,,,,,,nr,,N,N0071649,Barnfield,Luton,,Luton,EN,Barnfield,EN,false,UKOS,508642,223731,-0.42233,51.90154,BCT,MKD,OTH,,,,028,2020-09-09T00:00:00,2020-09-09T08:37:19,0,new,active
02903252,ltndagj,,,Graham Gardens,,,,,,,,,,opp,,S,N0071649,Barnfield,Luton,,Luton,EN,Barnfield,EN,false,UKOS,508699,223561,-0.42156,51.9,BCT,MKD,OTH,,,,028,2020-09-09T00:00:00,2020-09-09T08:37:19,0,new,active
02903203,ltnawmt,,,Lansdowne Road,,,,,,,,,,opp,,S,E0039095,Wardown,Luton,,Luton,EN,Wardown,EN,false,UKOS,508751,222409,-0.42116,51.88964,BCT,MKD,OTH,,,,028,2020-09-09T00:00:00,2020-09-09T08:37:19,0,new,active
02903207,ltnawpg,,,Stockingstone Road,,,,Sports Ground,,,,,,adj,,S,N0071649,Barnfield,Luton,,Luton,EN,Barnfield,EN,false,UKOS,508740,223104,-0.4211,51.89589,BCT,MKD,OTH,,,,028,2020-09-09T00:00:00,2020-09-09T08:37:19,0,new,active
02907202,ltngdpj,,,Luton Rugby Club,,,,Luton Rugby Club,,Newlands Road,,,,o/s,,NW,N0060420,Farley Hill,Luton,,Luton,EN,Farley Hill,EN,false,UKOS,508234,219357,-0.42963,51.86231,BCT,MKD,OTH,,,,028,2020-09-09T00:00:00,2020-09-09T08:37:19,0,new,active
02907201,ltngdpg,,,Luton Rugby Club,,,,Luton Rugby Club,,Newlands Road,,,,opp,,SE,N0060420,Farley Hill,Luton,,Luton,EN,Farley Hill,EN,false,UKOS,508263,219344,-0.42921,51.86219,BCT,MKD,OTH,,,,028,2020-09-09T00:00:00,2020-09-09T08:37:19,0,new,active
02901367,ltnampj,,,Kingston Road,,,,,,,,,,NE-bound,,NE,E0039083,High Town,Luton,,Luton,EN,High Town,EN,false,UKOS,509643,222370,-0.40822,51.88911,BCT,CUS,OTH,,,,028,2020-09-09T00:00:00,2020-09-09T08:37:20,0,new,active
02901368,ltnampm,,,Kingston Road,,,,,,,,,,SW-bound,,SW,E0039083,High Town,Luton,,Luton,EN,High Town,EN,false,UKOS,509659,222368,-0.40799,51.88909,BCT,MKD,OTH,,,,028,2020-09-09T00:00:00,2022-05-23T15:25:04,5,new,active
02904131,ltndpgw,,,Lea Manor High School,,,,,,,,,,opp,,NW,E0039086,Marsh Farm,Luton,,Luton,EN,Marsh Farm,EN,false,UKOS,506570,225535,-0.45188,51.91815,BCT,MKD,OTH,,,,028,2020-09-09T00:00:00,2020-09-09T08:37:19,0,new,active
02904550,ltndtdg,,,Newbury Close,,,,,,Oakley Road,,,,adj,,NW,N0071650,Challney,Luton,,Luton,EN,Challney,EN,false,UKOS,506361,222745,-0.45578,51.89312,BCT,MKD,OTH,,,,028,2020-09-09T00:00:00,2020-09-09T08:37:19,0,new,active
02904551,ltndtdj,,,Newbury Close,,,,,,Oakley Road,,,,opp,,SE,N0071650,Challney,Luton,,Luton,EN,Challney,EN,false,UKOS,506377,222746,-0.45554,51.89312,BCT,MKD,OTH,,,,028,2020-09-09T00:00:00,2020-09-09T08:37:19,0,new,active
02904553,ltndtdp,,,Juniper Close,,,,,,Oakley Road,,,,opp,,SE,N0071650,Challney,Luton,,Luton,EN,Challney,EN,false,UKOS,506228,223021,-0.45762,51.89562,BCT,MKD,OTH,,,,028,2020-09-09T00:00:00,2020-09-09T08:37:19,0,new,active
02904552,ltndtdm,,,Juniper Close,,,,,,Oakley Road,,,,adj,,NW,N0071650,Challney,Luton,,Luton,EN,Challney,EN,false,UKOS,506228,222980,-0.45764,51.89526,BCT,MKD,OTH,,,,028,2020-09-09T00:00:00,2020-09-09T08:37:19,0,new,active
02904555,ltngdwa,,,Linden Road,,,,,,,,,,opp,,NW,E0039084,Leagrave,Luton,,Luton,EN,Leagrave,EN,false,UKOS,505947,223441,-0.46158,51.89945,BCT,MKD,OTH,,,,028,2020-09-09T00:00:00,2024-07-15T18:03:03,42,new,active
02904556,ltngdwd,,,Linden Road,,,,,,,,,,adj,,SE,E0039084,Leagrave,Luton,,Luton,EN,Leagrave,EN,false,UKOS,505890,223540,-0.46237,51.90035,BCT,MKD,OTH,,,,028,2020-09-09T00:00:00,2024-07-15T18:02:52,23,new,active
02904554,ltndtdt,,,Morgan Close,,,,,,,,,,opp,,NW,E0039084,Leagrave,Luton,,Luton,EN,Leagrave,EN,false,UKOS,506042,223316,-0.46023,51.89831,BCT,MKD,OTH,,,,028,2020-09-09T00:00:00,2020-09-09T08:37:19,0,new,active
02904563,ltndtgt,,,Morgan Close,,,,,,,,,,adj,,SE,E0039084,Leagrave,Luton,,Luton,EN,Leagrave,EN,false,UKOS,506083,223286,-0.45965,51.89803,BCT,MKD,OTH,,,,028,2020-09-09T00:00:00,2020-09-09T08:37:19,0,new,active
02901399,ltnapga,,,Cricket Ground,,,,,,,,,,opp,,S,E0039095,Wardown,Luton,,Luton,EN,Wardown,EN,false,UKOS,509067,223105,-0.41635,51.89583,BCT,MKD,OTH,,,,028,2020-09-09T00:00:00,2022-06-08T11:19:06,17,new,active
02901398,ltnapdw,,,Cricket Ground,,,,,,,,,,adj,,N,E0039095,Wardown,Luton,,Luton,EN,Wardown,EN,false,UKOS,509057,223085,-0.41651,51.89565,BCT,MKD,OTH,,,,028,2020-09-09T00:00:00,2022-06-08T11:18:58,9,new,active
02903920,ltndmpm,,,Cromer Way Roundabout,,,,,,,,,,N-bound,,N,N0071649,Barnfield,Luton,,Luton,EN,Barnfield,EN,false,UKOS,508900,224696,-0.41828,51.91016,BCT,MKD,OTH,,,,028,2020-12-16T00:00:00,2020-12-16T13:20:33,0,new,active
02903919,ltndmpj,,,Cromer Way Roundabout,,,,,,,,,,S-bound,,S,N0071649,Barnfield,Luton,,Luton,EN,Barnfield,EN,false,UKOS,508922,224662,-0.41797,51.90985,BCT,MKD,OTH,,,,028,2020-12-16T00:00:00,2020-12-16T13:20:33,0,new,active
02901617,ltnapwd,,,Griffin House,,,,,,Osborne Road,,,,o/s,,NE,E0039088,Park Town,Luton,,Luton,EN,Park Town,EN,false,UKOS,509920,220590,-0.40476,51.87306,BCT,MKD,OTH,,,,028,2020-09-09T00:00:00,2020-09-09T08:37:19,0,new,active
02901616,ltnapwa,,,Griffin House,,,,,,Osborne Road,,,,opp,,SW,E0039088,Park Town,Luton,,Luton,EN,Park Town,EN,false,UKOS,510060,220671,-0.4027,51.87376,BCT,MKD,OTH,,,,028,2020-09-09T00:00:00,2020-09-09T08:37:19,0,new,active
02901618,ltnapwg,,,Alton Road,,,,Cutenhoe Road,,Park Street,,,,opp,,SE,E0039088,Park Town,Luton,,Luton,EN,Park Town,EN,false,UKOS,509930,220452,-0.40466,51.87182,BCT,MKD,OTH,,,,028,2020-09-09T00:00:00,2020-09-09T08:37:19,0,new,active
02903800,ltndmat,,,Bailey Street,,,,Manor Park,,Park Street,,,,nr,,NW,E0039088,Park Town,Luton,,Luton,EN,Park Town,EN,false,UKOS,509689,220807,-0.40805,51.87506,BCT,MKD,OTH,,,,028,2020-09-09T00:00:00,2023-02-07T11:44:07,0,new,active
02903801,ltndmaw,,,Bailey Street,,,,Manor Park,,Park Street,,,,opp,,SE,E0039088,Park Town,Luton,,Luton,EN,Park Town,EN,false,UKOS,509690,220822,-0.40803,51.87519,BCT,MKD,OTH,,,,028,2020-09-09T00:00:00,2023-02-07T11:43:53,0,new,active
02903589,ltndgwm,,,Pastures Court,,,,,,,,,,opp,,SE,N0060399,Lewsey Farm,Luton,,Luton,EN,Lewsey Farm,EN,false,UKOS,504438,223265,-0.48355,51.89815,BCT,MKD,OTH,,,,028,2020-09-09T00:00:00,2020-09-09T08:37:19,0,new,active
02903590,ltndgwp,,,Pastures Court,,,,,,,,,,o/s,,NW,N0060399,Lewsey Farm,Luton,,Luton,EN,Lewsey Farm,EN,false,UKOS,504448,223236,-0.48342,51.89789,BCT,MKD,OTH,,,,028,2020-09-09T00:00:00,2020-09-09T08:37:19,0,new,active
02901100,ltnagda,,,Carteret Road,,,,,,Lyneham Road,,,,opp,,W,N0071660,Vauxhall Park,Luton,,Luton,EN,Luton International Airport,EN,false,UKOS,511330,222158,-0.38379,51.88687,BCT,MKD,OTH,,,,028,2020-09-09T00:00:00,2020-09-09T08:37:19,0,new,active
02901104,ltnagdp,,,Provost Way,,,,,,,,,,opp,,SW,N0060524,Luton Airport,Luton,,Luton,EN,Luton International Airport,EN,false,UKOS,511501,221509,-0.38151,51.88101,BCT,MKD,OTH,,,,028,2020-09-09T00:00:00,2020-09-09T08:37:19,0,new,active
02901101,ltnagdg,,,Provost Way,,,,,,,,,,adj,,NE,N0060524,Luton Airport,Luton,,Luton,EN,Luton International Airport,EN,false,UKOS,511481,221507,-0.3818,51.88099,BCT,MKD,OTH,,,,028,2020-09-09T00:00:00,2020-09-09T08:37:19,0,new,active
02905082,ltngmjm,,,Eskdale Close,,,,,,,,,,opp,,S,N0060398,Hockwell Ring,Luton,,Luton,EN,Hockwell Ring,EN,false,UKOS,505512,224346,-0.46762,51.90767,BCT,MKD,OTH,,,,028,2020-09-09T00:00:00,2020-09-09T08:37:19,0,new,active
02904619,ltndwdw,,,Old Dairy Court,,,,,,Poynters Road,,,,opp,,SE,N0071653,Lewsey,Luton,,Luton,EN,Luton & Dunstable Hospital,EN,false,UKOS,503986,222766,-0.49027,51.89375,BCT,MKD,OTH,,,,028,2020-09-09T00:00:00,2020-09-09T08:37:19,0,new,active
02904618,ltndwdt,,,Katherine Drive,,,,,,Poynters Road,,,,opp,,SE,N0060399,Lewsey Farm,Luton,,Luton,EN,Luton & Dunstable Hospital,EN,false,UKOS,503719,222952,-0.49409,51.89548,BCT,MKD,OTH,,,,028,2020-09-09T00:00:00,2024-04-29T15:29:29,10,new,active
02903572,ltndgta,,,Poynters House,,,,,,Poynters Road,,,,opp,,SE,N0060399,Lewsey Farm,Luton,,Luton,EN,Lewsey Farm,EN,false,UKOS,503053,223398,-0.50363,51.89961,BCT,MKD,OTH,,,,028,2020-09-09T00:00:00,2020-09-09T08:37:19,0,new,active
02903574,ltndgtd,,,Wilbury Drive,,,,,,Poynters Road,,,,opp,,SE,N0060399,Lewsey Farm,Luton,,Luton,EN,Lewsey Farm,EN,false,UKOS,503402,223161,-0.49863,51.89741,BCT,MKD,OTH,,,,028,2020-09-09T00:00:00,2023-02-06T16:23:01,0,new,active
02907026,ltngdgj,,,Priestleys,,,,,,,,,,opp,,E,N0060420,Farley Hill,Luton,,Luton,EN,Farley Hill,EN,false,UKOS,507152,221209,-0.44476,51.87916,BCT,MKD,OTH,,,,028,2020-09-09T00:00:00,2020-09-09T08:37:19,0,new,active
02901050,ltnadtj,,,Collingtree,,,,,,,,,,opp,,E,E0039092,Stopsley,Luton,,Luton,EN,Stopsley,EN,false,UKOS,510853,223975,-0.39013,51.9033,BCT,MKD,OTH,,,,028,2020-09-09T00:00:00,2020-09-09T08:37:19,0,new,active
02901049,ltnadtg,,,Collingtree,,,,,,,,,,adj,,W,E0039092,Stopsley,Luton,,Luton,EN,Stopsley,EN,false,UKOS,510845,223960,-0.39025,51.90316,BCT,MKD,OTH,,,,028,2020-09-09T00:00:00,2020-09-09T08:37:19,0,new,active
02901281,ltnajgj,,,Jansel House,,,,,,,,,,o/s,,NE,E0039092,Stopsley,Luton,,Luton,EN,Stopsley,EN,false,UKOS,510577,223871,-0.39417,51.90242,BCT,MKD,OTH,,,,028,2020-09-09T00:00:00,2020-09-09T08:37:19,0,new,active
02901280,ltnajgd,,,Jansel House,,,,,,,,,,opp,,SW,E0039092,Stopsley,Luton,,Luton,EN,Stopsley,EN,false,UKOS,510560,223851,-0.39443,51.90224,BCT,MKD,OTH,,,,028,2020-09-09T00:00:00,2020-09-09T08:37:19,0,new,active
02901278,ltnajdw,,,Wood Green Road,,,,,,,,,,opp,,W,E0039092,Stopsley,Luton,,Luton,EN,Stopsley,EN,false,UKOS,511092,223999,-0.38665,51.90347,BCT,MKD,OTH,,,,028,2020-09-09T00:00:00,2020-09-09T08:37:19,0,new,active
02901279,ltnajga,,,Wood Green Road,,,,,,,,,,adj,,E,E0039092,Stopsley,Luton,,Luton,EN,Stopsley,EN,false,UKOS,511151,224027,-0.38578,51.90371,BCT,MKD,OTH,,,,028,2020-09-09T00:00:00,2020-09-09T08:37:19,0,new,active
02904101,ltndmtm,,,Holford Way,,,,,,,,,,adj,,W,N0071636,Bramingham Park,Luton,,Luton,EN,Bramingham Park,EN,false,UKOS,507986,226399,-0.43103,51.92565,BCT,MKD,OTH,,,,028,2020-09-09T00:00:00,2020-09-09T08:37:19,0,new,active
02904108,ltndmwm,,,Sainsburys,,,,Sainsbury's,,,,,,opp,,SW,N0071636,Bramingham Park,Luton,,Luton,EN,Bramingham Park,EN,false,UKOS,507773,225809,-0.43431,51.92038,BCT,MKD,OTH,,,,028,2020-09-09T00:00:00,2022-06-20T15:28:00,13,new,active
02904109,ltndmwp,,,Sainsburys,,,,Sainsbury's,,,,,,o/s,,NE,N0071636,Bramingham Park,Luton,,Luton,EN,Bramingham Park,EN,false,UKOS,507734,225796,-0.43488,51.92028,BCT,MKD,OTH,,,,028,2020-09-09T00:00:00,2022-06-20T15:27:22,13,new,active
02901375,ltnamtm,,,Moreton Road South,,,,Bus Turning Circle,,,,,,opp,,SE,E0039089,Round Green,Luton,,Luton,EN,Round Green,EN,false,UKOS,510138,222706,-0.40092,51.89203,BCT,MKD,OTH,,,,028,2020-09-09T00:00:00,2023-03-13T12:02:34,0,new,active
02903539,ltndgdj,,,Goldcrest Close,,,,,,,,,,adj,,NW,N0060401,Lewsey Park,Luton,,Luton,EN,Lewsey Park,EN,false,UKOS,504442,224243,-0.4832,51.90694,BCT,MKD,OTH,,,,028,2020-09-09T00:00:00,2020-09-09T08:37:19,0,new,active
02903546,ltndgjg,,,Goldcrest Close,,,,,,,,,,opp,,SE,N0060401,Lewsey Park,Luton,,Luton,EN,Lewsey Park,EN,false,UKOS,504494,224195,-0.48246,51.9065,BCT,MKD,OTH,,,,028,2020-09-09T00:00:00,2020-09-09T08:37:19,0,new,active
02903587,ltndgwg,,,Lewsey swimming pool,,,,,,,,,,opp,,NE,N0060401,Lewsey Park,Luton,,Luton,EN,Lewsey Park,EN,false,UKOS,504272,223492,-0.4859,51.90023,BCT,MKD,OTH,,,,028,2020-09-09T00:00:00,2020-09-09T08:37:19,0,new,active
02903588,ltndgwj,,,Lewsey swimming pool,,,,,,,,,,adj,,SW,N0060401,Lewsey Park,Luton,,Luton,EN,Lewsey Park,EN,false,UKOS,504311,223505,-0.48532,51.90034,BCT,MKD,OTH,,,,028,2020-09-09T00:00:00,2020-09-09T08:37:19,0,new,active
02901369,ltnampt,,,Dorel Close,,,,,,,,,,adj,,E,E0039089,Round Green,Luton,,Luton,EN,Round Green,EN,false,UKOS,509729,222469,-0.40694,51.88999,BCT,MKD,OTH,,,,028,2020-09-09T00:00:00,2020-09-09T08:37:19,0,new,active
02901370,ltnampw,,,Dorel Close,,,,,,,,,,opp,,W,E0039089,Round Green,Luton,,Luton,EN,Round Green,EN,false,UKOS,509721,222457,-0.40706,51.88988,BCT,MKD,OTH,,,,028,2020-09-09T00:00:00,2020-09-09T08:37:19,0,new,active
02901374,ltnamtj,,,Mountfield Road,,,,,,,,,,adj,,N,E0039089,Round Green,Luton,,Luton,EN,Round Green,EN,false,UKOS,509591,222762,-0.40885,51.89265,BCT,MKD,OTH,,,,028,2020-09-09T00:00:00,2020-09-09T08:37:19,0,new,active
02901373,ltnamtg,,,Mountfield Road,,,,,,,,,,opp,,S,E0039089,Round Green,Luton,,Luton,EN,Round Green,EN,false,UKOS,509611,222771,-0.40856,51.89272,BCT,MKD,OTH,,,,028,2020-09-09T00:00:00,2020-09-09T08:37:19,0,new,active
02904557,ltndtdw,,,Chester Avenue,,,,,,,,,,opp,,NE,E0039084,Leagrave,Luton,,Luton,EN,Leagrave,EN,false,UKOS,506142,223253,-0.4588,51.89773,BCT,MKD,OTH,,,,028,2020-09-09T00:00:00,2023-02-06T16:41:48,0,new,active
02904558,ltndtga,,,Chester Avenue,,,,,,,,,,adj,,SW,E0039084,Leagrave,Luton,,Luton,EN,Leagrave,EN,false,UKOS,506168,223261,-0.45842,51.89779,BCT,MKD,OTH,,,,028,2020-09-09T00:00:00,2023-02-06T16:42:02,0,new,active
02907007,ltngatm,,,Salisbury Road,,,,,,,,,,opp,,W,N0071651,Chapel Langley,Luton,,Luton,EN,Chapel Langley,EN,false,UKOS,508615,220819,-0.42364,51.87537,BCT,MKD,OTH,,,,028,2020-09-09T00:00:00,2022-06-17T12:08:19,22,new,active
02907006,ltngatj,,,Salisbury Road,,,,,,,,,,adj,,E,N0071651,Chapel Langley,Luton,,Luton,EN,Chapel Langley,EN,false,UKOS,508621,220829,-0.42355,51.87546,BCT,MKD,OTH,,,,028,2020-09-09T00:00:00,2022-06-17T12:05:13,13,new,active
02900016,ltnaja,,,Seymour Road,,,,,,,,,,opp,,SE,E0039088,Park Town,Luton,,Luton,EN,Park Town,EN,false,UKOS,509821,220621,-0.40619,51.87336,BCT,MKD,OTH,,,,028,2020-09-09T00:00:00,2020-09-09T08:37:19,0,new,active
02903047,ltnawad,,,Tesco Store Skimpot,,,,,,Skimpot Road,,,,opp,,S,N0071653,Lewsey,Luton,,Luton,EN,Luton & Dunstable Hospital,EN,false,UKOS,504414,222362,-0.48417,51.89004,BCT,MKD,OTH,,,,028,2020-09-09T00:00:00,2023-01-03T15:54:49,19,new,active
02901301,ltnajtd,,,Somerset Avenue,,,,,,,,,,o/s,,SE,N0071656,St Annes,Luton,,Luton,EN,St Annes,EN,false,UKOS,510508,222359,-0.39566,51.88884,BCT,MKD,OTH,,,,028,2020-09-09T00:00:00,2020-09-09T08:37:19,0,new,active
02907018,ltngdag,,,Friars Way,,,,,,,,,,nr,,W,N0060420,Farley Hill,Luton,,Luton,EN,Farley Hill,EN,false,UKOS,507831,220400,-0.43515,51.87176,BCT,MKD,OTH,,,,028,2020-09-09T00:00:00,2020-09-09T08:37:19,0,new,active
02901292,ltnajmw,,,Green Lane,,,,,,Sowerby Avenue,,,,opp,,SW,E0039092,Stopsley,Luton,,Luton,EN,Stopsley,EN,false,UKOS,511186,223440,-0.38546,51.89842,BCT,MKD,OTH,,,,028,2020-09-09T00:00:00,2020-09-09T08:37:19,0,new,active
02901293,ltnajpa,,,Green Lane,,,,,,Sowerby Avenue,,,,adj,,NE,E0039092,Stopsley,Luton,,Luton,EN,Stopsley,EN,false,UKOS,511194,223460,-0.38534,51.8986,BCT,MKD,OTH,,,,028,2020-09-09T00:00:00,2020-09-09T08:37:19,0,new,active
02904300,ltndpmt,,,Woodland Avenue,,,,,,,,,,nr,,NW,N0071655,Saints,Luton,,Luton,EN,Saints,EN,false,UKOS,507889,223195,-0.43344,51.89687,BCT,MKD,OTH,,,,028,2020-09-09T00:00:00,2020-09-09T08:37:19,0,new,active
02907005,ltngatg,,,Stanley Street,,,,,,,,,,S-bound,,S,N0071651,Chapel Langley,Luton,,Luton,EN,Chapel Langley,EN,false,UKOS,508709,220819,-0.42227,51.87536,BCT,MKD,OTH,,,,028,2020-09-09T00:00:00,2020-09-09T08:37:20,0,new,active
02901291,ltnajmt,,,Stapleford Road,,,,,,Green Lane,,,,opp,,NW,E0039092,Stopsley,Luton,,Luton,EN,Stopsley,EN,false,UKOS,511123,223530,-0.38635,51.89924,BCT,MKD,OTH,,,,028,2020-09-09T00:00:00,2020-09-09T08:37:19,0,new,active
02901290,ltnajmp,,,Stapleford Road,,,,,,Green Lane,,,,nr,,SE,E0039092,Stopsley,Luton,,Luton,EN,Stopsley,EN,false,UKOS,511159,223527,-0.38583,51.89921,BCT,MKD,OTH,,,,028,2020-09-09T00:00:00,2020-09-09T08:37:19,0,new,active
02904143,ltndpmp,,,Whitefield Primary Academy,,,,,,,,,,o/s,,SW,E0039086,Marsh Farm,Luton,,Luton,EN,Marsh Farm,EN,false,UKOS,506121,225923,-0.45828,51.92173,BCT,MKD,OTH,,,,028,2020-09-09T00:00:00,2023-01-24T18:02:30,40,new,active
02901395,ltnapdm,,,Preston Gardens,,,,,,,,,,opp,,E,E0039089,Round Green,Luton,,Luton,EN,Round Green,EN,false,UKOS,509803,222733,-0.40578,51.89234,BCT,MKD,OTH,,,,028,2020-09-09T00:00:00,2020-09-09T08:37:19,0,new,active
02901396,ltnapdp,,,Preston Gardens,,,,,,,,,,nr,,NW,E0039089,Round Green,Luton,,Luton,EN,Round Green,EN,false,UKOS,509755,222721,-0.40648,51.89224,BCT,MKD,OTH,,,,028,2020-09-09T00:00:00,2020-09-09T08:37:19,0,new,active
02901397,ltnapdt,,,Manton Drive,,,,,,,,,,adj,,E,E0039095,Wardown,Luton,,Luton,EN,Wardown,EN,false,UKOS,508912,223203,-0.41858,51.89674,BCT,MKD,OTH,,,,028,2020-09-09T00:00:00,2020-09-09T08:37:19,0,new,active
02901277,ltnajdt,,,Putteridge Primary School,,,,Putteridge Primary School,,,,,,o/s,,NE,E0039092,Stopsley,Luton,,Luton,EN,Stopsley,EN,false,UKOS,511268,224103,-0.38406,51.90437,BCT,MKD,OTH,,,,028,2020-09-09T00:00:00,2022-06-17T12:21:30,10,new,active
02903632,ltndjmd,,,Dunstable Place,,,,,,,,,,adj,,SE,N0071638,Luton Town Centre,Luton,,Luton,EN,Town Centre,EN,false,UKOS,508839,221224,-0.42026,51.87897,BCT,MKD,OTH,,,,028,2020-09-09T00:00:00,2024-03-11T20:40:55,14,new,active
02904568,ltndtjm,,,Ashwell Avenue,,,,,,,,,,nr,,SE,E0039093,Sundon Park,Luton,,Luton,EN,Sundon Park,EN,false,UKOS,505185,225506,-0.47202,51.91816,BCT,MKD,OTH,,,,028,2020-09-09T00:00:00,2020-09-09T08:37:19,0,new,active
02904569,ltndtjp,,,Ashwell Avenue,,,,,,,,,,opp,,NW,E0039093,Sundon Park,Luton,,Luton,EN,Sundon Park,EN,false,UKOS,505068,225729,-0.47365,51.92018,BCT,MKD,OTH,,,,028,2020-09-09T00:00:00,2020-09-09T08:37:19,0,new,active
02904567,ltndtjg,,,Chestnut Avenue,,,,,,,,,,opp,,NW,E0039093,Sundon Park,Luton,,Luton,EN,Sundon Park,EN,false,UKOS,504954,226034,-0.47521,51.92294,BCT,MKD,OTH,,,,028,2020-09-09T00:00:00,2020-09-09T08:37:19,0,new,active
02904566,ltndtjd,,,Chestnut Avenue,,,,,,Sundon Park Road,,,,nr,,SE,E0039093,Sundon Park,Luton,,Luton,EN,Sundon Park,EN,false,UKOS,504967,226024,-0.47503,51.92285,BCT,MKD,OTH,,,,028,2020-09-09T00:00:00,2020-09-09T08:37:19,0,new,active
02904581,ltndtpg,,,Hill Rise,,,,Sundon Shops,,,,,,adj,,SE,E0039093,Sundon Park,Luton,,Luton,EN,Sundon Park,EN,false,UKOS,505332,225203,-0.46997,51.9154,BCT,MKD,OTH,,,,028,2020-09-09T00:00:00,2020-09-09T08:37:19,0,new,active
02904580,ltndtpd,,,Hill Rise,,,,Sundon Shops,,,,,,opp,,NW,E0039093,Sundon Park,Luton,,Luton,EN,Sundon Park,EN,false,UKOS,505273,225286,-0.4708,51.91616,BCT,MKD,OTH,,,,028,2020-09-09T00:00:00,2020-09-09T08:37:19,0,new,active
02904590,ltndtwm,,,Leagrave Common,,,,Sundon Arch,,,,,,nr,,SE,E0039093,Sundon Park,Luton,,Luton,EN,Leagrave,EN,false,UKOS,505553,224764,-0.4669,51.91142,BCT,MKD,OTH,,,,028,2020-09-09T00:00:00,2020-09-09T08:37:19,7,new,active
02904589,ltndtwj,,,Leagrave Common,,,,Sundon Arch,,,,,,opp,,NW,E0039093,Sundon Park,Luton,,Luton,EN,Sundon Park,EN,false,UKOS,505558,224711,-0.46684,51.91094,BCT,MKD,OTH,,,,028,2020-09-09T00:00:00,2020-09-09T08:37:19,0,new,active
02904899,ltngapd,,,Swasedale Road,,,,,,,,,,opp,,S,N0071648,Limbury Meads,Luton,,Luton,EN,Limbury Meads,EN,false,UKOS,507286,224640,-0.44175,51.90997,BCT,MKD,OTH,,,,028,2020-09-09T00:00:00,2020-09-09T08:37:19,0,new,active
02904883,ltngamj,,,Thelby Close,,,,,,Swasedale Road,,,,adj,,NE,N0071648,Limbury Meads,Luton,,Luton,EN,Limbury Meads,EN,false,UKOS,506933,224859,-0.44681,51.91201,BCT,MKD,OTH,,,,028,2020-09-09T00:00:00,2020-09-09T08:37:19,0,new,active
02904884,ltngamp,,,Thelby Close,,,,,,Swasedale Road,,,,opp,,SW,N0071648,Limbury Meads,Luton,,Luton,EN,Limbury Meads,EN,false,UKOS,506910,224838,-0.44715,51.91182,BCT,MKD,OTH,,,,028,2020-09-09T00:00:00,2020-09-09T08:37:19,0,new,active
02904882,ltngdwj,,,Wistow Road,,,,,,Swasedale Road,,,,adj,,E,N0071648,Limbury Meads,Luton,,Luton,EN,Limbury Meads,EN,false,UKOS,507052,224876,-0.44508,51.91214,BCT,CUS,OTH,,,,028,2020-09-09T00:00:00,2020-09-09T08:37:19,0,new,active
02904881,ltngamg,,,Wistow Road,,,,,,Swasedale Road,,,,opp,,W,N0071648,Limbury Meads,Luton,,Luton,EN,Limbury Meads,EN,false,UKOS,507083,224871,-0.44463,51.91209,BCT,MKD,OTH,,,,028,2020-09-09T00:00:00,2020-09-09T08:37:19,0,new,active
02901079,ltnadtw,,,Alfriston Close,,,,,,,,,,nr,,SW,N0060424,Wigmore,Luton,,Luton,EN,Wigmore,EN,false,UKOS,511326,223431,-0.38343,51.89831,BCT,MKD,OTH,,,,028,2020-09-09T00:00:00,2020-09-09T08:37:19,0,new,active
02901078,ltnadtp,,,Roedean Close,,,,,,,,,,opp,,SW,N0060424,Wigmore,Luton,,Luton,EN,Wigmore,EN,false,UKOS,511536,223532,-0.38035,51.89918,BCT,MKD,OTH,,,,028,2020-09-09T00:00:00,2020-09-09T08:37:19,0,new,active
02905034,ltngjtd,,,Tennyson Road Upper,,,,,,Tennyson Road,,,,N-bound,,,N0071657,Stockwood,Luton,,Luton,EN,Stockwood,EN,false,UKOS,509107,219982,-0.41676,51.86776,BCT,HAR,OTH,,,,028,2019-01-09T00:00:00,2024-06-14T17:36:38,42,new,active
02905035,ltngjtg,,,Tennyson Road Lower,,,,,,Tennyson Road,,,,N-bound,,,E0039087,New Town,Luton,,Luton,EN,New Town,EN,false,UKOS,509196,220260,-0.41538,51.87024,BCT,HAR,OTH,,,,028,2019-01-09T00:00:00,2024-06-14T17:36:38,71,new,active
02904138,ltndpjw,,,Thrales Close,,,,,,,,,,adj,,SW,E0039086,Marsh Farm,Luton,,Luton,EN,Marsh Farm,EN,false,UKOS,506285,225326,-0.45608,51.91633,BCT,MKD,OTH,,,,028,2020-09-09T00:00:00,2020-09-09T08:37:19,0,new,active
02902004,ltnataw,,,Anstee Road,,,,,,,,,,opp,,W,N0071658,Tophill,Luton,,Luton,EN,Tophill,EN,false,UKOS,504954,224789,-0.47559,51.91175,BCT,MKD,OTH,,,,028,2020-09-09T00:00:00,2020-09-09T08:37:19,0,new,active
02902005,ltnatda,,,Montague Avenue,,,,,,,,,,opp,,E,N0071658,Tophill,Luton,,Luton,EN,Tophill,EN,false,UKOS,505241,224726,-0.47144,51.91113,BCT,MKD,OTH,,,,028,2020-09-09T00:00:00,2020-09-09T08:37:19,0,new,active
02902006,ltnatdg,,,Montague Avenue,,,,,,,,,,nr,,W,N0071658,Tophill,Luton,,Luton,EN,Tophill,EN,false,UKOS,505168,224729,-0.4725,51.91118,BCT,MKD,OTH,,,,028,2020-09-09T00:00:00,2020-09-09T08:37:19,0,new,active
02902002,ltnatap,,,Sedgwick Road,,,,Waste Transfer Station,,,,,,opp,,W,N0071658,Tophill,Luton,,Luton,EN,Tophill,EN,false,UKOS,504735,224854,-0.47876,51.91238,BCT,MKD,OTH,,,,028,2020-09-09T00:00:00,2020-09-09T08:37:19,0,new,active
02902001,ltnatam,,,Sedgwick Road,,,,Waste Transfer Station,,,,,,nr,,E,N0071658,Tophill,Luton,,Luton,EN,Tophill,EN,false,UKOS,504718,224868,-0.479,51.91251,BCT,MKD,OTH,,,,028,2020-09-09T00:00:00,2020-09-09T08:37:19,0,new,active
02902008,ltnatdm,,,Andover Close,,,,,,,,,,opp,,W,N0071658,Tophill,Luton,,Luton,EN,Tophill,EN,false,UKOS,505478,224643,-0.46802,51.91034,BCT,MKD,OTH,,,,028,2021-10-12T00:00:00,2021-10-12T16:29:04,0,new,active
02904530,ltndtag,,,The Avenue,,,,,,,,,,nr,,NW,E0039084,Leagrave,Luton,,Luton,EN,Leagrave,EN,false,UKOS,505840,224348,-0.46285,51.90762,BCT,MKD,OTH,,,,028,2020-09-09T00:00:00,2020-09-09T08:37:19,0,new,active
02904514,ltndpwj,,,The Avenue,,,,,,,,,,opp,,SE,E0039084,Leagrave,Luton,,Luton,EN,Leagrave,EN,false,UKOS,505914,224300,-0.46179,51.90718,BCT,MKD,OTH,,,,028,2020-09-09T00:00:00,2020-09-09T08:37:19,0,new,active
02903579,ltndgtm,,,Brunel Road,,,,,,,,,,nr,,N,N0060399,Lewsey Farm,Luton,,Luton,EN,Lewsey Farm,EN,false,UKOS,503709,223523,-0.49407,51.90061,BCT,MKD,OTH,,,,028,2020-09-09T00:00:00,2020-09-09T08:37:19,0,new,active
02903577,ltndgtg,,,Brunel Road,,,,,,,,,,opp,,SE,N0060399,Lewsey Farm,Luton,,Luton,EN,Lewsey Farm,EN,false,UKOS,503751,223456,-0.49348,51.9,BCT,MKD,OTH,,,,028,2020-09-09T00:00:00,2020-09-09T08:37:19,0,new,active
02903578,ltndgtj,,,Kirkwood Road,,,,,,,,,,nr,,NW,N0060399,Lewsey Farm,Luton,,Luton,EN,Lewsey Farm,EN,false,UKOS,503804,223224,-0.49278,51.8979,BCT,MKD,OTH,,,,028,2020-09-09T00:00:00,2023-02-06T16:26:46,0,new,active
02901310,ltnajwj,,,Derwent Road,,,,,,,,,,opp,,E,N0071656,St Annes,Luton,,Luton,EN,St Annes,EN,false,UKOS,510070,221866,-0.40218,51.8845,BCT,MKD,OTH,,,,028,2020-09-09T00:00:00,2020-09-09T08:37:19,0,new,active
02901115,ltnagdt,,,Vauxhall Gate 3,,,,,,Airport Way,,,,o/s,,N,N0071659,Vauxhall,Luton,,Luton,EN,Vauxhall,EN,false,UKOS,511043,221539,-0.38815,51.88137,BCT,MKD,OTH,,,,028,2020-09-09T00:00:00,2020-09-09T08:37:19,0,new,active
02904142,ltndpmj,,,Copenhagen Close,,,,,,,,,,opp,,SE,E0039086,Marsh Farm,Luton,,Luton,EN,Marsh Farm,EN,false,UKOS,506046,225614,-0.45947,51.91896,BCT,MKD,OTH,,,,028,2020-09-09T00:00:00,2020-09-09T08:37:19,0,new,active
02901361,ltnamjp,,,Berkley Path,,,,,,,,,,opp,,SW,E0039083,High Town,Luton,,Luton,EN,High Town,EN,false,UKOS,509271,221873,-0.41378,51.88472,BCT,MKD,OTH,,,,028,2020-09-09T00:00:00,2023-01-23T15:17:13,0,new,active
02901362,ltnamjt,,,Berkley Path,,,,,,,,,,adj,,NE,E0039083,High Town,Luton,,Luton,EN,High Town,EN,false,UKOS,509304,221911,-0.41329,51.88505,BCT,MKD,OTH,,,,028,2020-09-09T00:00:00,2023-01-23T15:17:00,0,new,active
02903911,ltndmjg,,,Weybourne Drive,,,,,,Weybourne Drive,,,,SW-bound,,SW,E0039094,Warden Hill,Luton,,Luton,EN,Bushmead,EN,false,UKOS,508361,225418,-0.42588,51.91676,BCT,MKD,OTH,,,,028,2020-09-09T00:00:00,2023-05-22T12:02:29,0,new,active
02903912,ltndmjm,,,Weybourne Drive,,,,,,Weybourne Drive,,,,NE-bound,,NE,E0039094,Warden Hill,Luton,,Luton,EN,Bushmead,EN,false,UKOS,508374,225441,-0.42569,51.91696,BCT,MKD,OTH,,,,028,2020-09-09T00:00:00,2020-09-09T08:37:20,0,new,active
02903571,ltndgpw,,,Wheatfield Road,,,,,,Wheatfield Road,,,,opp,,NE,N0060399,Lewsey Farm,Luton,,Luton,EN,Lewsey Farm,EN,false,UKOS,503021,223567,-0.50405,51.90113,BCT,MKD,OTH,,,,028,2020-09-09T00:00:00,2022-07-04T12:27:41,6,delete,inactive
02903570,ltndgpt,,,Wheatfield Road,,,,,,Wheatfield Road,,,,o/s,,SW,N0060399,Lewsey Farm,Luton,,Luton,EN,Lewsey Farm,EN,false,UKOS,502984,223500,-0.50461,51.90054,BCT,MKD,OTH,,,,028,2020-09-09T00:00:00,2022-07-04T12:27:23,6,delete,inactive
02903553,ltndgmg,,,Radnor Road,,,,,,,,,,adj,,W,N0060399,Lewsey Farm,Luton,,Luton,EN,Lewsey Farm,EN,false,UKOS,503789,223931,-0.49278,51.90426,BCT,MKD,OTH,,,,028,2020-09-09T00:00:00,2020-09-09T08:37:19,0,new,active
02903552,ltndgmd,,,Radnor Road,,,,,,,,,,opp,,E,N0060399,Lewsey Farm,Luton,,Luton,EN,Lewsey Farm,EN,false,UKOS,503812,223959,-0.49244,51.90451,BCT,MKD,OTH,,,,028,2020-09-09T00:00:00,2020-09-09T08:37:19,0,new,active
02903569,ltndgpm,,,Regis Road,,,,,,,,,,nr,,SW,N0060399,Lewsey Farm,Luton,,Luton,EN,Lewsey Farm,EN,false,UKOS,503138,223635,-0.50233,51.90172,BCT,MKD,OTH,,,,028,2020-09-09T00:00:00,2020-09-09T08:37:19,0,new,active
02903568,ltndgpj,,,Regis Road,,,,,,,,,,opp,,NE,N0060399,Lewsey Farm,Luton,,Luton,EN,Lewsey Farm,EN,false,UKOS,503123,223641,-0.50254,51.90178,BCT,MKD,OTH,,,,028,2020-09-09T00:00:00,2020-09-09T08:37:19,0,new,active
02903555,ltndgmp,,,Wheatfield Road Layby,,,,Wheatfield Surgery,,Wheatfield Road,,,,inside,,E,N0060399,Lewsey Farm,Luton,,Luton,EN,Lewsey Farm,EN,false,UKOS,503581,223935,-0.4958,51.90434,BCT,MKD,OTH,,,,028,2020-09-09T00:00:00,2020-09-09T08:37:19,0,new,active
02903554,ltndgmj,,,Wheatfield Road Layby,,,,Wheatfield Surgery,,,,,,o/s,,E,N0060399,Lewsey Farm,Luton,,Luton,EN,Lewsey Farm,EN,false,UKOS,503582,223922,-0.49579,51.90422,BCT,MKD,OTH,,,,028,2020-09-09T00:00:00,2024-03-04T17:34:52,0,new,active
02907029,ltngdgt,,,Jill Jenkins Court,,,,,,,,,,opp,,SE,N0060420,Farley Hill,Luton,,Luton,EN,Farley Hill,EN,false,UKOS,507661,220933,-0.43746,51.87658,BCT,MKD,OTH,,,,028,2020-09-09T00:00:00,2020-09-09T08:37:19,0,new,active
02907021,ltngdap,,,Cades Lane,,,,,,,,,,adj,,NW,N0060420,Farley Hill,Luton,,Luton,EN,Farley Hill,EN,false,UKOS,507495,220692,-0.43994,51.87445,BCT,MKD,OTH,,,,028,2020-09-09T00:00:00,2020-09-09T08:37:19,0,new,active
02907044,ltngdmw,,,Market Square,,,,,,,,,,opp,,W,N0060420,Farley Hill,Luton,,Luton,EN,Farley Hill,EN,false,UKOS,507608,220669,-0.43831,51.87422,BCT,MKD,OTH,,,,028,2020-09-09T00:00:00,2023-03-13T15:20:51,46,new,active
02907045,ltngdpa,,,Market Square,,,,,,Whipperley Ring,,,,o/s,,NE,N0060420,Farley Hill,Luton,,Luton,EN,Farley Hill,EN,false,UKOS,507697,220775,-0.43698,51.87516,BCT,MKD,OTH,,,,028,2020-09-09T00:00:00,2020-09-09T08:37:19,0,new,active
02907037,ltngdjw,,,Whipperley Way,,,,,,,,,,opp,,SW,N0060420,Farley Hill,Luton,,Luton,EN,Farley Hill,EN,false,UKOS,508394,220170,-0.42705,51.86958,BCT,MKD,OTH,,,,028,2020-09-09T00:00:00,2020-09-09T08:37:19,0,new,active
02907036,ltngdjt,,,Whipperley Way,,,,,,,,,,adj,,NE,N0060420,Farley Hill,Luton,,Luton,EN,Farley Hill,EN,false,UKOS,508352,220168,-0.42766,51.86957,BCT,MKD,OTH,,,,028,2020-09-09T00:00:00,2020-09-09T08:37:19,0,new,active
02907033,ltngdjg,,,South Drift Way,,,,,,,,,,opp,,SE,N0060420,Farley Hill,Luton,,Luton,EN,Farley Hill,EN,false,UKOS,507994,220434,-0.43278,51.87203,BCT,MKD,OTH,,,,028,2020-09-09T00:00:00,2020-09-09T08:37:19,0,new,active
02907032,ltngdjd,,,Whipperley Ring,,,,,,,,,,adj,,SE,N0060420,Farley Hill,Luton,,Luton,EN,Farley Hill,EN,false,UKOS,507707,220712,-0.43686,51.87459,BCT,MKD,OTH,,,,028,2020-09-09T00:00:00,2020-09-09T08:37:19,0,new,active
02904118,ltndpda,,,Woodmere,,,,,,,,,,adj,,SE,N0071636,Bramingham Park,Luton,,Luton,EN,Bramingham Park,EN,false,UKOS,507277,226122,-0.44142,51.92329,BCT,MKD,OTH,,,,028,2020-09-09T00:00:00,2020-09-09T08:37:19,0,new,active
02904119,ltndpdg,,,Woodmere,,,,,,,,,,opp,,NW,N0071636,Bramingham Park,Luton,,Luton,EN,Bramingham Park,EN,false,UKOS,507257,226132,-0.44171,51.92339,BCT,MKD,OTH,,,,028,2020-09-09T00:00:00,2020-09-09T08:37:19,0,new,active
02904120,ltndpdj,,,Burford Close,,,,,,,,,,adj,,E,N0071636,Bramingham Park,Luton,,Luton,EN,Bramingham Park,EN,false,UKOS,507028,226271,-0.44499,51.92468,BCT,MKD,OTH,,,,028,2020-09-09T00:00:00,2020-09-09T08:37:19,0,new,active
02904121,ltndpdm,,,Burford Close,,,,,,,,,,opp,,W,N0071636,Bramingham Park,Luton,,Luton,EN,Bramingham Park,EN,false,UKOS,507005,226259,-0.44533,51.92458,BCT,MKD,OTH,,,,028,2020-09-09T00:00:00,2020-09-09T08:37:19,0,new,active
02904116,ltndpat,,,Kirby Drive,,,,,,,,,,opp,,SE,N0071636,Bramingham Park,Luton,,Luton,EN,Bramingham Park,EN,false,UKOS,507349,225904,-0.44044,51.92132,BCT,MKD,OTH,,,,028,2020-09-09T00:00:00,2020-09-09T08:37:19,0,new,active
02904117,ltndpaw,,,Kirby Drive,,,,,,,,,,adj,,NW,N0071636,Bramingham Park,Luton,,Luton,EN,Bramingham Park,EN,false,UKOS,507317,225935,-0.4409,51.9216,BCT,MKD,OTH,,,,028,2020-09-09T00:00:00,2020-09-09T08:37:19,0,new,active
02904127,ltndpgj,,,Olympic Close,,,,,,,,,,opp,,W,E0039086,Marsh Farm,Luton,,Luton,EN,Marsh Farm,EN,false,UKOS,506427,226056,-0.4538,51.92286,BCT,MKD,OTH,,,,028,2020-09-09T00:00:00,2020-09-09T08:37:19,0,new,active
02904126,ltndpgd,,,Olympic Close,,,,,,,,,,adj,,E,E0039086,Marsh Farm,Luton,,Luton,EN,Marsh Farm,EN,false,UKOS,506464,226090,-0.45325,51.92316,BCT,MKD,OTH,,,,028,2020-09-09T00:00:00,2020-09-09T08:37:19,0,new,active
02904125,ltndpga,,,Underwood Close,,,,,,,,,,adj,,E,E0039086,Marsh Farm,Luton,,Luton,EN,Marsh Farm,EN,false,UKOS,506598,226127,-0.45129,51.92347,BCT,MKD,OTH,,,,028,2020-09-09T00:00:00,2020-09-09T08:37:19,0,new,active
02904124,ltndpdw,,,Underwood Close,,,,,,,,,,opp,,W,E0039086,Marsh Farm,Luton,,Luton,EN,Marsh Farm,EN,false,UKOS,506598,226103,-0.4513,51.92325,BCT,MKD,OTH,,,,028,2020-09-09T00:00:00,2020-09-09T08:37:19,0,new,active
02904122,ltndpdp,,,Whitehaven,,,,,,,,,,opp,,W,E0039086,Marsh Farm,Luton,,Luton,EN,Marsh Farm,EN,false,UKOS,506813,226185,-0.44814,51.92395,BCT,MKD,OTH,,,,028,2020-09-09T00:00:00,2020-09-09T08:37:19,0,new,active
02904123,ltndpdt,,,Whitehaven,,,,,,,,,,nr,,E,E0039086,Marsh Farm,Luton,,Luton,EN,Marsh Farm,EN,false,UKOS,506785,226183,-0.44855,51.92394,BCT,MKD,OTH,,,,028,2020-09-09T00:00:00,2020-09-09T08:37:19,0,new,active
02901090,ltnadwm,,,ASDA,,,,Asda,,,,,,opp,,NW,N0060424,Wigmore,Luton,,Luton,EN,Wigmore,EN,false,UKOS,512022,222325,-0.37368,51.88824,BCT,MKD,OTH,,,,028,2020-09-09T00:00:00,2020-09-09T08:37:19,0,new,active
02901091,ltnadwp,,,ASDA,,,,Asda,,,,,,o/s,,SE,N0060424,Wigmore,Luton,,Luton,EN,Wigmore,EN,false,UKOS,512157,222284,-0.37173,51.88784,BCT,MKD,OTH,,,,028,2020-09-09T00:00:00,2020-09-09T08:37:19,0,new,active
02901324,ltnamat,,,Hayling Drive,,,,Someries Hill,,,,,,opp,,NW,N0060424,Wigmore,Luton,,Luton,EN,Wigmore,EN,false,UKOS,511531,223014,-0.38059,51.89453,BCT,MKD,OTH,,,,028,2020-09-09T00:00:00,2020-09-09T08:37:19,0,new,active
02901325,ltnamaw,,,Hayling Drive,,,,Someries Hill,,,,,,nr,,SE,N0060424,Wigmore,Luton,,Luton,EN,Wigmore,EN,false,UKOS,511564,223004,-0.38011,51.89443,BCT,MKD,OTH,,,,028,2020-09-09T00:00:00,2023-08-04T12:57:37,0,new,active
02901327,ltnamdg,,,Buckingham Drive,,,,,,,,,,adj,,NW,N0060424,Wigmore,Luton,,Luton,EN,Wigmore,EN,false,UKOS,511737,222832,-0.37766,51.89285,BCT,MKD,OTH,,,,028,2020-09-09T00:00:00,2020-09-09T08:37:19,0,new,active
02901326,ltnamda,,,Buckingham Drive,,,,,,,,,,opp,,S,N0060424,Wigmore,Luton,,Luton,EN,Wigmore,EN,false,UKOS,511770,222789,-0.37719,51.89246,BCT,MKD,OTH,,,,028,2020-09-09T00:00:00,2023-08-04T12:57:04,0,new,active
02901298,ltnajpt,,,Someries Infant School,,,,Someries Infant School,,,,,,opp,,SE,N0060424,Wigmore,Luton,,Luton,EN,Wigmore,EN,false,UKOS,511328,223123,-0.3835,51.89555,BCT,MKD,OTH,,,,028,2021-10-12T00:00:00,2021-10-12T16:29:04,0,new,active
02901299,ltnajpw,,,Someries Infant School,,,,,,,,,,o/s,,NW,N0060424,Wigmore,Luton,,Luton,EN,Wigmore,EN,false,UKOS,511280,223124,-0.3842,51.89556,BCT,MKD,OTH,,,,028,2021-10-12T00:00:00,2021-10-12T16:29:04,0,new,active
02901295,ltnajpg,,,Wigmore Lane,,,,,,Sowerby Avenue,,,,opp,,NE,E0039092,Stopsley,Luton,,Luton,EN,Stopsley,EN,false,UKOS,511020,223344,-0.38791,51.89759,BCT,MKD,OTH,,,,028,2020-09-09T00:00:00,2020-09-09T08:37:19,0,new,active
02901294,ltnajpd,,,Wigmore Lane,,,,,,Sowerby Avenue,,,,adj,,SW,E0039092,Stopsley,Luton,,Luton,EN,Stopsley,EN,false,UKOS,511010,223324,-0.38806,51.89742,BCT,MKD,OTH,,,,028,2020-09-09T00:00:00,2020-09-09T08:37:19,0,new,active
02901329,ltnamdm,,,Polegate,,,,,,,,,,opp,,N,N0060424,Wigmore,Luton,,Luton,EN,Wigmore,EN,false,UKOS,511785,222607,-0.37703,51.89082,BCT,MKD,OTH,,,,028,2020-09-09T00:00:00,2020-09-09T08:37:19,0,new,active
02901328,ltnamdj,,,Polegate,,,,,,,,,,adj,,S,N0060424,Wigmore,Luton,,Luton,EN,Wigmore,EN,false,UKOS,511797,222587,-0.37686,51.89064,BCT,MKD,OTH,,,,028,2020-09-09T00:00:00,2020-09-09T08:37:19,0,new,active
02901389,ltnapap,,,Poplars Close,,,,,,,,,,opp,,N,E0039092,Stopsley,Luton,,Luton,EN,Stopsley,EN,false,UKOS,510882,223469,-0.38987,51.89874,BCT,MKD,OTH,,,,028,2020-09-09T00:00:00,2020-09-09T08:37:19,0,new,active
02901387,ltnapaj,,,Poplars Close,,,,,,,,,,adj,,S,E0039092,Stopsley,Luton,,Luton,EN,Stopsley,EN,false,UKOS,510914,223445,-0.38941,51.89852,BCT,MKD,OTH,,,,028,2020-09-09T00:00:00,2020-09-09T08:37:19,0,new,active
02903806,ltndmdp,,,The Windmill Inn,,,,,,Windmill Road,,,,opp,,NW,N0071659,Vauxhall,Luton,,Luton,EN,Vauxhall,EN,false,UKOS,509985,220881,-0.40373,51.87566,BCT,MKD,OTH,,,,028,2020-09-09T00:00:00,2023-03-10T17:14:27,0,new,active
02903805,ltndmdm,,,The Windmill Inn,,,,,,Windmill Road,,,,nr,,SE,N0071659,Vauxhall,Luton,,Luton,EN,Vauxhall,EN,false,UKOS,509986,220899,-0.40371,51.87582,BCT,MKD,OTH,,,,028,2020-09-09T00:00:00,2020-09-09T08:37:19,0,new,active
02903228,ltndaga,,,Heathfield Road,,,,,,Austin Road,,,,opp,,E,N0071655,Saints,Luton,,Luton,EN,Saints,EN,false,UKOS,508389,223872,-0.42596,51.90286,BCT,MKD,OTH,,,,028,2020-09-09T00:00:00,2020-09-09T08:37:19,0,new,active
02903229,ltnadajp,,,Heathfield Road,,,,,,Austin Road,,,,adj,,E,N0071655,Saints,Luton,,Luton,EN,Saints,EN,false,UKOS,508392,223863,-0.42592,51.90277,BCT,CUS,OTH,,,,028,2020-09-09T00:00:00,2024-06-14T17:43:40,46,new,active
02903401,ltndagt,,,Wingate Road,,,,Malham Close,,Wingate Road,,,,E-bound,,E,N0071654,Maidenhall,Luton,,Luton,EN,Maidenhall,EN,false,UKOS,506645,222933,-0.45159,51.89475,BCT,MKD,OTH,,,,028,2020-09-09T00:00:00,2020-09-09T08:37:20,0,new,active
02901623,ltnatad,,,Impellam Group,,,,Impellam Group,,Service Road,,,,o/s,,SE,N0080460,Capability Green,,,Luton,EN,Capability Green,EN,false,UKOS,509653,219794,-0.40889,51.86596,BCT,MKD,OTH,,,,028,2021-10-12T00:00:00,2024-04-10T16:40:59,39,new,active
02903412,ltndajt,,,Maidenhall Road,,,,,,Sherwood Road,,,,adj,,SE,N0071654,Maidenhall,Luton,,Luton,EN,Maidenhall,EN,false,UKOS,507302,222775,-0.4421,51.89321,BCT,MKD,OTH,,,,028,2020-09-09T00:00:00,2020-09-09T08:37:19,0,new,active
02901411,ltngmta,,,Presentation Court,,,,,,Manor Road,,,,opp,,NE,E0039088,Park Town,Luton,,Luton,EN,Park Town,EN,false,UKOS,509710,220930,-0.4077,51.87616,BCT,MKD,OTH,,,,028,2020-09-09T00:00:00,2020-09-09T08:37:19,0,new,active
02901412,ltngmtd,,,St Thomas Road,,,,Mixes Hill Court,,St Thomas Road,,,,W-bound,,W,E0039092,Stopsley,Luton,,Luton,EN,Stopsley,EN,false,UKOS,510048,223769,-0.40189,51.90161,BCT,MKD,OTH,,,,028,2020-09-09T00:00:00,2020-09-09T08:37:20,0,new,active
02901413,ltngmtg,,,Wigmore Church,,,,Wigmore Community Centre,,,,,,o/s,,SW,N0060424,Wigmore,Luton,,Luton,EN,Wigmore,EN,false,UKOS,512246,222779,-0.37028,51.89227,BCT,MKD,OTH,,,,028,2020-09-09T00:00:00,2020-09-09T08:37:19,0,new,active
02901088,ltnadwg,,,Rushall Green,,,,,,,,,,Adjacent,,NE,N0060424,Wigmore,Luton,,Luton,EN,Wigmore Park,EN,false,UKOS,512048,222662,-0.37319,51.89126,BCT,MKD,OTH,,,,028,2020-09-09T00:00:00,2024-10-04T16:06:10,48,new,active
02901414,ltngmtj,,,Rushall Green,,,,,,,,,,opp,,SW,N0060424,Wigmore,Luton,,Luton,EN,Wigmore,EN,false,UKOS,512037,222638,-0.37336,51.89105,BCT,MKD,OTH,,,,028,2020-09-09T00:00:00,2024-10-04T16:06:31,12,new,active
02901415,ltngmtm,,,Brays Road,,,,,,Brays Road,,,,SW-bound,,SW,E0039092,Stopsley,Luton,,Luton,EN,Stopsley,EN,false,UKOS,510700,223235,-0.39259,51.89668,BCT,MKD,OTH,,,,028,2020-12-16T00:00:00,2020-12-16T13:20:33,0,new,active
02901275,ltnajdm,,,Brays Road,,,,,,Brays Road,,,,NE-bound,,NE,E0039092,Stopsley,Luton,,Luton,EN,Stopsley,EN,false,UKOS,510636,223213,-0.39353,51.89649,BCT,MKD,OTH,,,,028,2020-12-16T00:00:00,2020-12-16T13:20:33,0,new,active
02900010,ltnagd,,,Epping Way,,,,,,,,,,adj,,S,E0039093,Sundon Park,Luton,,Luton,EN,Sundon Park,EN,false,UKOS,505132,226044,-0.47262,51.923,BCT,MKD,OTH,,,,028,2020-09-09T00:00:00,2020-09-09T08:37:19,0,new,active
02904885,ltngamt,,,Limbury Meads Shops,,,,Shops,,Calverton Road,,,,opp,,N,N0071648,Limbury Meads,Luton,,Luton,EN,Limbury Meads,EN,false,UKOS,506845,224685,-0.44814,51.91046,BCT,MKD,OTH,,,,028,2020-09-09T00:00:00,2020-09-09T08:37:19,0,new,active
02900011,ltnagj,,,Limbury Meads Shops,,,,Shops,,Calverton Road,,,,o/s,,S,N0071648,Limbury Meads,Luton,,Luton,EN,Limbury Meads,EN,false,UKOS,506860,224672,-0.44793,51.91034,BCT,MKD,OTH,,,,028,2020-09-09T00:00:00,2020-09-09T08:37:19,0,new,active
02900012,ltnagm,,,Blundell Road,,,,,,Bristol Road,,,,nr,,NW,N0071655,Saints,Luton,,Luton,EN,Saints,EN,false,UKOS,507438,223786,-0.43981,51.90227,BCT,MKD,OTH,,,,028,2020-09-09T00:00:00,2020-09-09T08:37:19,0,new,active
02900014,ltnagt,,,Keepers Close,,,,,,,,,,opp,,NE,E0039092,Stopsley,Luton,,Luton,EN,Stopsley,EN,false,UKOS,511166,222859,-0.38594,51.89321,BCT,MKD,OTH,,,,028,2020-09-09T00:00:00,2023-01-23T16:34:43,0,new,active
02904560,ltndtgj,,,Pembroke Avenue,,,,,,,,,,nr,,SE,E0039084,Leagrave,Luton,,Luton,EN,Leagrave,EN,false,UKOS,506383,223212,-0.45531,51.89731,BCT,MKD,OTH,,,,028,2020-09-09T00:00:00,2020-09-09T08:37:19,0,new,active
02904559,ltndtgd,,,Pembroke Avenue,,,,,,,,,,opp,,NW,E0039084,Leagrave,Luton,,Luton,EN,Leagrave,EN,false,UKOS,506324,223264,-0.45615,51.89779,BCT,MKD,OTH,,,,028,2020-09-09T00:00:00,2023-02-06T16:43:07,0,new,active
02901394,ltnapdj,,,Talbot Road,,,,,,,,,,nr,,W,E0039089,Round Green,Luton,,Luton,EN,Round Green,EN,false,UKOS,509962,222719,-0.40348,51.89219,BCT,MKD,OTH,,,,028,2020-09-09T00:00:00,2020-09-09T08:37:19,0,new,active
02901254,ltnagtp,,,General Motors,,,,,,,,,,opp,,W,N0071659,Vauxhall,Luton,,Luton,EN,Vauxhall,EN,false,UKOS,510732,220674,-0.39295,51.87365,BCT,MKD,OTH,,,,028,2020-09-09T00:00:00,2023-03-13T13:42:59,44,new,active
02901255,ltnagtw,,,General Motors,,,,,,,,,,o/s,,E,N0071659,Vauxhall,Luton,,Luton,EN,Vauxhall,EN,false,UKOS,510877,220685,-0.39084,51.87372,BCT,MKD,OTH,,,,028,2020-09-09T00:00:00,2023-03-13T13:42:35,45,new,active
02900017,ltnajd,,,Needham Road,,,,,,,,,,E-bound,,E,N0071658,Tophill,Luton,,Luton,EN,Tophill,EN,false,UKOS,504907,224741,-0.47629,51.91133,BCT,MKD,OTH,,,,028,2020-09-09T00:00:00,2023-10-30T21:23:00,23,new,active
02900015,ltnagw,,,Moor Park,,,,Leaside Hotel,,,,,,opp,,S,E0039095,Wardown,Luton,,Luton,EN,Wardown,EN,false,UKOS,508820,221822,-0.42035,51.88435,BCT,MKD,OTH,,,,028,2020-09-09T00:00:00,2023-05-22T10:54:17,0,new,active
02903612,ltnada,,,Freshwater Close,,,,,,Northwell Drive,,,,adj,,SE,E0039086,Marsh Farm,Luton,,Luton,EN,Marsh Farm,EN,false,UKOS,506852,225125,-0.44791,51.91441,BCT,MKD,OTH,,,,028,2020-09-09T00:00:00,2020-09-09T08:37:19,0,new,active
02904133,ltndpjd,,,Freshwater Close,,,,,,Northwell Drive,,,,opp,,NW,E0039086,Marsh Farm,Luton,,Luton,EN,Marsh Farm,EN,false,UKOS,506832,225136,-0.44819,51.91452,BCT,MKD,OTH,,,,028,2020-09-09T00:00:00,2020-09-09T08:37:19,0,new,active
02900044,ltnawj,,,Holiday Inn,,,,Ibis Hotel,,,,,,o/s,,NE,N0060524,Luton Airport,Luton,,Luton,EN,Luton International Airport,EN,false,UKOS,511418,220954,-0.3829,51.87603,BCT,MKD,OTH,,,,028,2020-09-09T00:00:00,2023-01-24T17:56:35,2,new,active
02900045,ltnawm,,,Holiday Inn,,,,Ibis Hotel,,,,,,opp,,SW,N0060524,Luton Airport,Luton,,Luton,EN,Luton International Airport,EN,false,UKOS,511434,220955,-0.38266,51.87604,BCT,MKD,OTH,,,,028,2020-09-09T00:00:00,2023-01-24T17:56:23,1,new,active
02900003,ltnadj,,,Wendover Way,,,,,,,,,,opp,,S,E0039089,Round Green,Luton,,Luton,EN,Round Green,EN,false,UKOS,509590,223138,-0.40875,51.89602,BCT,MKD,OTH,,,,028,2020-09-09T00:00:00,2020-09-09T08:37:19,0,new,active
02900018,ltnajg,,,Putteridge High School,,,,Putteridge High School,,,,,,in,,NE,E0039092,Stopsley,Luton,,Luton,EN,Stopsley,EN,false,UKOS,511415,224184,-0.3819,51.90506,BCT,CUS,OTH,,,,028,2020-09-09T00:00:00,2022-09-02T10:33:08,4,new,active
02900019,ltnajm,,,Newtondale,,,,,,,,,,opp,,NE,N0060398,Hockwell Ring,Luton,,Luton,EN,Hockwell Ring,EN,false,UKOS,505309,224338,-0.47057,51.90763,BCT,MKD,OTH,,,,028,2020-09-09T00:00:00,2020-09-09T08:37:19,0,new,active
02900020,ltnajp,,,Chaworth Green,,,,,,,,,,adj,,N,N0071658,Tophill,Luton,,Luton,EN,Tophill,EN,false,UKOS,505263,224497,-0.47119,51.90907,BCT,MKD,OTH,,,,028,2020-09-09T00:00:00,2020-09-09T08:37:19,0,new,active
02901365,ltnampd,,,Bell's Park,,,,,,,,,,opp,,SW,E0039083,High Town,Luton,,Luton,EN,High Town,EN,false,UKOS,509578,222178,-0.40923,51.8874,BCT,MKD,OTH,,,,028,2020-09-09T00:00:00,2022-05-23T15:13:29,14,new,active
02901366,ltnampg,,,Bell's Park,,,,Bell's Park,,,,,,o/s,,N,E0039083,High Town,Luton,,Luton,EN,High Town,EN,false,UKOS,509579,222228,-0.4092,51.88785,BCT,MKD,OTH,,,,028,2020-09-09T00:00:00,2022-05-23T15:13:43,3,new,active
02900051,ltndam,,,Courtyard Marriott,,,,Ibis Budget,,Airport Way,,,,opp,,NE,N0060524,Luton Airport,Luton,,Luton,EN,Luton International Airport,EN,false,UKOS,511319,220866,-0.38436,51.87526,BCT,CUS,OTH,,,,028,2019-07-05T00:00:00,2019-07-05T12:17:00,0,new,active
02900050,ltndaj,,,Courtyard Marriott,,,,Ibis Budget,,Airport Way,,,,o/s,,SW,N0060524,Luton Airport,Luton,,Luton,EN,Luton International Airport,EN,false,UKOS,511286,220824,-0.38485,51.87489,BCT,CUS,OTH,,,,028,2019-07-05T00:00:00,2023-01-24T17:57:53,1,new,active
02904616,ltndwdm,,,Buteley Road,,,,Pirton Hill School,,,,,,nr,,W,N0071658,Tophill,Luton,,Luton,EN,Tophill,EN,false,UKOS,504917,224430,-0.47624,51.90854,BCT,MKD,OTH,,,,028,2002-10-10T00:00:00,2024-03-13T14:46:32,58,new,active
02904621,ltnadajg,,,Buteley Road,,,,Pirton Hill School,,,,,,nr,,N,N0071658,Tophill,Luton,,Luton,EN,Tophill,EN,false,UKOS,504774,224354,-0.47834,51.90788,BCT,CUS,OTH,,,,028,2002-10-10T00:00:00,2024-03-13T14:50:54,25,new,active
02904617,ltndwdp,,,Pirton Hill School,,,,Pirton Hill School,,,,,,opp,,S,N0071658,Tophill,Luton,,Luton,EN,Tophill,EN,false,UKOS,504959,224612,-0.47557,51.91016,BCT,MKD,OTH,,,,028,2020-09-09T00:00:00,2024-03-11T12:50:12,44,new,active
02900048,ltndad,,,Laburnum Close,,,,,,,,,,opp,,NW,E0039090,Runfold,Luton,,Luton,EN,Runfold,EN,false,UKOS,507980,225165,-0.4315,51.91456,BCT,MKD,OTH,,,,028,2016-10-28T00:00:00,2024-04-16T11:25:52,31,new,active
02907205,ltnadadt,,,Stockwood Park Academy,,,,,,,,,,o/s,,NW,N0060420,Farley Hill,Luton,,,,,,false,UKOS,507708,220318,-0.43697,51.87105,BCT,CUS,OTH,,,,028,2022-10-03T00:00:00,2022-10-03T15:08:01,51,new,active
02900071,ltnadamg,,,Airport Bus Station,,,,London Luton Airport,,Luton Airport,,,,Inside,,W,N0060524,Luton Airport,Luton,,Luton,EN,Luton International Airport,EN,false,UKOS,512053,221259,-0.37358,51.87865,BCT,MKD,OTH,,,,028,2020-09-09T00:00:00,2024-11-08T16:16:17,160,new,active
02900211,ltnadamd,,,Luton Airport Parkway Rail Station,,,,,,,,,,Inside,,SE,N0060524,Luton Airport,Luton,,,,,,false,UKOS,510576,220564,-0.39525,51.8727,BCT,MKD,OTH,,,,028,2022-05-27T00:00:00,2024-11-08T16:14:30,205,new,active
02903633,ltnadagj,,,Regent Link,,,,,,,,,,opp,,SE,N0071638,Luton Town Centre,Luton,,,,,,false,UKOS,509077,221050,-0.41686,51.87736,BCT,MKD,OTH,,,,028,2024-03-06T00:00:00,2024-03-06T15:58:39,41,new,active
02903111,ltnadagm,,,Rondini Avenue,,,,,,,,,,adj,,SE,N0071655,Saints,Luton,,,,,,false,UKOS,507527,222972,-0.43877,51.89493,BCT,MKD,OTH,,,,028,2024-03-11T00:00:00,2024-03-11T12:00:35,40,new,active
02903723,ltnadagt,,,Brantwood Road,,,,,,,,,,adj,,E,N0071652,Dallow,Luton,,,,,,false,UKOS,508340,221233,-0.4275,51.87915,BCT,CUS,OTH,,,,028,2024-03-13T00:00:00,2024-03-13T11:12:19,40,new,active
02903724,ltnadagw,,,Brantwood Road,,,,,,,,,,opp,,W,N0071652,Dallow,Luton,,,,,,false,UKOS,508333,221228,-0.42761,51.8791,BCT,CUS,OTH,,,,028,2024-03-13T00:00:00,2024-03-13T11:13:20,40,new,active
02903725,ltnadajd,,,Winsdon Hill,,,,,,,,,,adj,,W,N0071652,Dallow,Luton,,,,,,false,UKOS,507695,221360,-0.43683,51.88041,BCT,MKD,OTH,,,,028,2024-03-13T00:00:00,2024-03-13T11:40:06,55,new,active
02903726,ltnadajd,,,Winsdon Hill,,,,,,,,,,opp,,E,N0071652,Dallow,Luton,,,,,,false,UKOS,507708,221364,-0.43664,51.88045,BCT,CUS,OTH,,,,028,2024-03-13T00:00:00,2024-03-13T11:39:53,55,new,active
02904574,ltndtmg,,,Angel Close,,,,,,,,,,adj,,NW,E0039084,Leagrave,Luton,,Luton,EN,Leagrave,EN,false,UKOS,505615,223338,-0.46643,51.89859,BCT,MKD,OTH,,,,028,2020-09-09T00:00:00,2020-09-09T08:37:19,0,new,active
02901625,ltnadajm,,,Astra Zeneca,,,,,,,,,,nr,,SW,N0080460,Capability Green,,,,,,,false,UKOS,509823,219850,-0.40641,51.86643,BCT,MKD,OTH,,,,028,2024-04-09T00:00:00,2024-04-10T16:40:12,62,new,active
02904579,ltndtpa,,,Oakley Road,,,,,,,,,,SW-bound,,SW,E0039084,Leagrave,Luton,,Luton,EN,Leagrave,EN,false,UKOS,505787,223616,-0.46385,51.90106,BCT,MKD,OTH,,,,028,2020-12-16T00:00:00,2020-12-16T13:20:33,0,new,active
02904578,ltndtmw,,,Oakley Road,,,,,,,,,,NE-bound,,NE,E0039084,Leagrave,Luton,,Luton,EN,Leagrave,EN,false,UKOS,505782,223605,-0.46392,51.90096,BCT,MKD,OTH,,,,028,2020-12-16T00:00:00,2020-12-16T13:20:33,0,new,active
02901045,ltnadta,,,Stopsley Way,,,,,,,,,,nr,,NW,E0039092,Stopsley,Luton,,Luton,EN,Stopsley,EN,false,UKOS,510561,223767,-0.39444,51.90149,BCT,MKD,OTH,,,,028,2020-09-09T00:00:00,2020-09-09T08:37:19,0,new,active
02901046,ltnadtd,,,Stopsley Way,,,,,,,,,,opp,,SE,E0039092,Stopsley,Luton,,Luton,EN,Stopsley,EN,false,UKOS,510558,223785,-0.39448,51.90165,BCT,MKD,OTH,,,,028,2020-09-09T00:00:00,2020-09-09T08:37:19,0,new,active
02904713,ltndwmg,,,Birdsfoot Lane,,,,,,,,,,opp,,S,E0039094,Warden Hill,Luton,,Luton,EN,Warden Hill,EN,false,UKOS,508325,225315,-0.42644,51.91584,BCT,MKD,OTH,,,,028,2020-09-09T00:00:00,2020-09-09T08:37:19,0,new,active
02904903,ltngdwm,,,Great Bramingham Lane,,,,,,Barton Road,,,,adj,,N,E0039094,Warden Hill,Luton,,Luton,EN,Warden Hill,EN,false,UKOS,508022,226512,-0.43047,51.92665,BCT,CUS,OTH,,,,028,2020-09-09T00:00:00,2022-12-21T18:01:12,9,new,active
02904711,ltndwma,,,Warden Hill Road,,,,,,,,,,adj,,S,E0039094,Warden Hill,Luton,,Luton,EN,Warden Hill,EN,false,UKOS,508208,225871,-0.42797,51.92086,BCT,MKD,OTH,,,,028,2020-09-09T00:00:00,2020-09-09T08:37:19,0,new,active
02904712,ltndwmd,,,Warden Hill Road,,,,,,,,,,opp,,N,E0039094,Warden Hill,Luton,,Luton,EN,Warden Hill,EN,false,UKOS,508188,225916,-0.42824,51.92127,BCT,MKD,OTH,,,,028,2020-09-09T00:00:00,2020-09-09T08:37:19,0,new,active
02904718,ltndwpa,,,Halyard Close,,,,,,,,,,adj,,NE,E0039090,Runfold,Luton,,Luton,EN,Runfold,EN,false,UKOS,507907,224844,-0.43266,51.91169,BCT,MKD,OTH,,,,028,2020-09-09T00:00:00,2020-09-09T08:37:19,0,new,active
02904722,ltndwpm,,,Icknield Primary School,,,,Icknield Primary School,,,,,,opp,,N,E0039090,Runfold,Luton,,Luton,EN,Runfold,EN,false,UKOS,507734,224304,-0.43534,51.90687,BCT,MKD,OTH,,,,028,2020-09-09T00:00:00,2020-09-09T08:37:19,0,new,active
02904721,ltndwpj,,,Icknield Primary School,,,,Icknield Primary School,,,,,,o/s,,S,E0039090,Runfold,Luton,,Luton,EN,Runfold,EN,false,UKOS,507740,224268,-0.43527,51.90654,BCT,MKD,OTH,,,,028,2020-09-09T00:00:00,2020-09-09T08:37:19,0,new,active
02904305,ltndptj,,,Studley Road,,,,,,,,,,nr,,SE,E0039081,Biscot,Luton,,Luton,EN,Biscot,EN,false,UKOS,508489,222060,-0.42508,51.88655,BCT,MKD,OTH,,,,028,2020-09-09T00:00:00,2020-09-09T08:37:19,0,new,active
02904306,ltndptm,,,Studley Road,,,,,,,,,,opp,,NW,E0039081,Biscot,Luton,,Luton,EN,Biscot,EN,false,UKOS,508475,222071,-0.42528,51.88665,BCT,MKD,OTH,,,,028,2020-09-09T00:00:00,2020-09-09T08:37:19,0,new,active
02904308,ltndptw,,,Kennington Road,,,,,,,,,,opp,,SE,E0039081,Biscot,Luton,,Luton,EN,Biscot,EN,false,UKOS,507986,223020,-0.43208,51.89528,BCT,MKD,OTH,,,,028,2020-09-09T00:00:00,2020-09-09T08:37:19,0,new,active
02904307,ltndptp,,,Kennington Road,,,,,,,,,,adj,,NW,E0039081,Biscot,Luton,,Luton,EN,Biscot,EN,false,UKOS,507959,223050,-0.43247,51.89555,BCT,MKD,OTH,,,,028,2020-09-09T00:00:00,2020-09-09T08:37:19,0,new,active
02907030,ltngdgw,,,Whipperley Ring Turn,,,,,,,,,,adj,,NE,N0060420,Farley Hill,Luton,,Luton,EN,O.S,EN,false,UKOS,507709,220940,-0.43676,51.87664,BCT,MKD,OTH,,,,028,2020-09-09T00:00:00,2020-09-09T08:37:19,0,new,active
02907046,ltngdpd,,,Whipperley Ring Turn,,,,,,,,,,opp,,SW,N0060420,Farley Hill,Luton,,Luton,EN,Farley Hill,EN,false,UKOS,507707,220925,-0.43679,51.8765,BCT,MKD,OTH,,,,028,2020-09-09T00:00:00,2020-09-09T08:37:19,0,new,active
02904710,ltndwjw,,,Ailsworth Road,,,,,,,,,,nr,,W,N0071648,Limbury Meads,Luton,,Luton,EN,Limbury Meads,EN,false,UKOS,507149,225097,-0.4436,51.91411,BCT,MKD,OTH,,,,028,2020-09-09T00:00:00,2020-09-09T08:37:19,0,new,active
02904709,ltndwjt,,,Ailsworth Road,,,,,,,,,,opp,,E,N0071648,Limbury Meads,Luton,,Luton,EN,Limbury Meads,EN,false,UKOS,507110,225105,-0.44416,51.91419,BCT,MKD,OTH,,,,028,2020-09-09T00:00:00,2020-09-09T08:37:19,0,new,active
02903701,ltndjta,,,Vestry Close,,,,Guru Nanak Gurdwara,,,,,,nr,,SW,N0071652,Dallow,Luton,,Luton,EN,Dallow,EN,false,UKOS,508547,221462,-0.42442,51.88117,BCT,MKD,OTH,,,,028,2020-09-09T00:00:00,2023-02-06T15:12:40,0,new,active
02903702,ltndjtd,,,Vestry Close,,,,Guru Nanak Gurdwara,,,,,,opp,,E,N0071652,Dallow,Luton,,Luton,EN,Dallow,EN,false,UKOS,508506,221457,-0.42502,51.88113,BCT,MKD,OTH,,,,028,2020-09-09T00:00:00,2023-02-06T15:12:30,0,new,active
02903715,ltndjwt,,,Easingwold Gardens,,,,,,,,,,nr,,W,N0071652,Dallow,Luton,,Luton,EN,Dallow,EN,false,UKOS,506501,221808,-0.45403,51.88467,BCT,MKD,OTH,,,,028,2020-09-09T00:00:00,2023-01-26T14:32:25,0,new,active
02903705,ltngdtp,,,Newcombe Road,,,,,,,,,,opp,,E,N0071652,Dallow,Luton,,Luton,EN,Dallow,EN,false,UKOS,508116,221497,-0.43067,51.88156,BCT,MKD,OTH,,,,028,2020-09-09T00:00:00,2024-10-08T15:10:19,36,new,active
02903706,ltndjtm,,,Newcombe Road,,,,,,,,,,adj,,W,N0071652,Dallow,Luton,,Luton,EN,Dallow,EN,false,UKOS,508049,221501,-0.43164,51.88161,BCT,MKD,OTH,,,,028,2020-09-09T00:00:00,2023-02-06T15:10:20,0,new,active
02903716,ltndmad,,,Cosgrove Way,,,,B&Q,,,,,,opp,,S,N0071652,Dallow,Luton,,Luton,EN,Dallow,EN,false,UKOS,506298,222059,-0.4569,51.88696,BCT,MKD,OTH,,,,028,2020-09-09T00:00:00,2020-09-09T08:37:19,0,new,active
02903718,ltndmaj,,,Cosgrove Way,,,,B&D,,,,,,adj,,N,N0071652,Dallow,Luton,,Luton,EN,Dallow,EN,false,UKOS,506271,222064,-0.45729,51.88701,BCT,MKD,OTH,,,,028,2020-09-09T00:00:00,2020-09-09T08:37:19,0,new,active
02903709,ltndjwa,,,Runley Road,,,,,,,,,,opp,,E,N0071652,Dallow,Luton,,Luton,EN,Dallow,EN,false,UKOS,507254,221694,-0.44313,51.8835,BCT,MKD,OTH,,,,028,2020-09-09T00:00:00,2020-09-09T08:37:19,0,new,active
02903710,ltndjwd,,,Runley Road,,,,,,,,,,adj,,W,N0071652,Dallow,Luton,,Luton,EN,Dallow,EN,false,UKOS,507232,221669,-0.44346,51.88328,BCT,MKD,OTH,,,,028,2020-09-09T00:00:00,2020-09-09T08:37:19,0,new,active
02903026,ltnatmd,,,Lincoln Road,,,,,,,,,,adj,,SE,N0071654,Maidenhall,Luton,,Luton,EN,Maidenhall,EN,false,UKOS,507510,222301,-0.43922,51.88891,BCT,MKD,OTH,,,,028,2020-09-09T00:00:00,2020-09-09T08:37:19,0,new,active
02903035,ltnatpj,,,Leicester Road,,,,Leicester Arms,,,,,,opp,,E,N0071650,Challney,Luton,,Luton,EN,Challney,EN,false,UKOS,506025,222664,-0.46068,51.89245,BCT,MKD,OTH,,,,028,2020-09-09T00:00:00,2020-09-09T08:37:19,0,new,active
02903034,ltnatpg,,,Leicester Road,,,,Leicester Arms,,,,,,adj,,W,N0071650,Challney,Luton,,Luton,EN,Challney,EN,false,UKOS,506013,222646,-0.46086,51.89229,BCT,MKD,OTH,,,,028,2020-09-09T00:00:00,2020-09-09T08:37:19,0,new,active
02903037,ltnatpt,,,Halfway Avenue,,,,Travelodge Junction 11,,,,,,adj,,W,N0071650,Challney,Luton,,Luton,EN,Challney,EN,false,UKOS,505650,222700,-0.46612,51.89285,BCT,MKD,OTH,,,,028,2020-09-09T00:00:00,2023-02-06T16:38:27,0,new,active
02903585,ltndgwa,,,Sainsburys,,,,Sainsbury's,,,,,,o/s,,SE,N0060419,Bury Park,Luton,,Luton,EN,Bury Park,EN,false,UKOS,508497,221619,-0.4251,51.88259,BCT,MKD,OTH,,,,028,2020-09-09T00:00:00,2020-09-09T08:37:19,0,new,active
02904731,ltngdwg,,,The Furrows,,,,The Furrows,,,,,,opp,,SW,E0039090,Runfold,Luton,,Luton,EN,Runfold,EN,false,UKOS,507797,225082,-0.43419,51.91385,BCT,MKD,OTH,,,,028,2020-09-09T00:00:00,2024-04-16T11:25:24,36,new,active
02904600,ltndtwp,,,Torquay Drive,,,,,,,,,,opp,,W,E0039084,Leagrave,Luton,,Luton,EN,Leagrave,EN,false,UKOS,505695,223760,-0.46514,51.90237,BCT,MKD,OTH,,,,028,2020-09-09T00:00:00,2020-09-09T08:37:19,0,new,active
02904601,ltndtwt,,,Torquay Drive,,,,,,,,,,adj,,E,E0039084,Leagrave,Luton,,Luton,EN,Leagrave,EN,false,UKOS,505655,223754,-0.46572,51.90232,BCT,MKD,OTH,,,,028,2020-09-09T00:00:00,2020-09-09T08:37:19,0,new,active
02904800,ltngagm,,,Eighth Avenue,,,,,,,,,,opp,,NE,E0039093,Sundon Park,Luton,,Luton,EN,Sundon Park,EN,false,UKOS,505731,225432,-0.4641,51.91739,BCT,MKD,OTH,,,,028,2020-09-09T00:00:00,2020-09-09T08:37:19,0,new,active
02904588,ltndtwg,,,Eighth Avenue,,,,,,,,,,adj,,SW,E0039093,Sundon Park,Luton,,Luton,EN,Sundon Park,EN,false,UKOS,505715,225375,-0.46435,51.91688,BCT,MKD,OTH,,,,028,2020-09-09T00:00:00,2020-09-09T08:37:19,0,new,active
02901353,ltnamgm,,,Hart Lane,,,,,,,,,,nr,,SW,E0039089,Round Green,Luton,,Luton,EN,Round Green,EN,false,UKOS,510013,222416,-0.40283,51.88945,BCT,MKD,OTH,,,,028,2020-09-09T00:00:00,2020-09-09T08:37:19,0,new,active
02901386,ltnapag,,,Inspire,,,,Luton Sports Village,,,,,,o/s,,NE,E0039092,Stopsley,Luton,,Luton,EN,Stopsley,EN,false,UKOS,510643,224253,-0.39309,51.90584,BCT,MKD,OTH,,,,028,2020-09-09T00:00:00,2020-09-09T08:37:19,0,new,active
02901383,ltnamwp,,,Inspire,,,,Luton Sports Village,,,,,,opp,,SW,E0039092,Stopsley,Luton,,Luton,EN,Stopsley,EN,false,UKOS,510671,224249,-0.39269,51.9058,BCT,MKD,OTH,,,,028,2020-09-09T00:00:00,2024-04-22T18:05:29,23,new,active
02904522,ltndpwp,,,The Green Shops,,,,,,,,,,opp,,SW,N0060398,Hockwell Ring,Luton,,Luton,EN,Hockwell Ring,EN,false,UKOS,505280,224088,-0.47107,51.90539,BCT,MKD,OTH,,,,028,2020-09-09T00:00:00,2020-09-09T08:37:19,0,new,active
02904523,ltndpwt,,,The Green Shops,,,,,,,,,,o/s,,NE,N0060398,Hockwell Ring,Luton,,Luton,EN,Hockwell Ring,EN,false,UKOS,505265,224123,-0.47128,51.90571,BCT,MKD,OTH,,,,028,2020-09-09T00:00:00,2020-09-09T08:37:19,0,new,active
02903550,ltndgjw,,,Buzzard Road,,,,,,,,,,adj,,SW,N0060401,Lewsey Park,Luton,,Luton,EN,Lewsey Park,EN,false,UKOS,504067,224066,-0.4887,51.90542,BCT,MKD,OTH,,,,028,2020-09-09T00:00:00,2020-09-09T08:37:19,0,new,active
02903551,ltndgma,,,Buzzard Road,,,,,,,,,,opp,,NE,N0060401,Lewsey Park,Luton,,Luton,EN,Lewsey Park,EN,false,UKOS,503997,224043,-0.48972,51.90523,BCT,MKD,OTH,,,,028,2020-09-09T00:00:00,2020-09-09T08:37:19,0,new,active
02903530,ltndgam,,,Chalk Hills Academy,,Barnfield West,,Barnfield West Academy,,,,,,opp,,SE,N0060399,Lewsey Farm,Luton,,Luton,EN,Lewsey Farm,EN,false,UKOS,503837,223185,-0.49231,51.89755,BCT,MKD,OTH,,,,028,2020-09-09T00:00:00,2023-02-06T16:36:44,22,new,active
02903531,ltndgap,,,Emerald Road,,,,,,,,,,adj,,NW,N0060399,Lewsey Farm,Luton,,Luton,EN,Lewsey Farm,EN,false,UKOS,504102,223125,-0.48848,51.89696,BCT,MKD,OTH,,,,028,2020-09-09T00:00:00,2020-09-09T08:37:19,0,new,active
02903532,ltndgat,,,Emerald Road,,,,,,,,,,opp,,E,N0060399,Lewsey Farm,Luton,,Luton,EN,Lewsey Farm,EN,false,UKOS,504178,223107,-0.48738,51.89678,BCT,MKD,OTH,,,,028,2020-09-09T00:00:00,2020-09-09T08:37:19,0,new,active
02903533,ltndgaw,,,Carmelite Road,,,,,,,,,,nr,,SW,N0060399,Lewsey Farm,Luton,,Luton,EN,Lewsey Farm,EN,false,UKOS,504415,223105,-0.48393,51.89672,BCT,MKD,OTH,,,,028,2020-09-09T00:00:00,2023-02-06T16:34:40,0,new,active
02903534,ltndgda,,,Carmelite Road,,,,,,,,,,opp,,NE,N0060399,Lewsey Farm,Luton,,Luton,EN,Lewsey Farm,EN,false,UKOS,504437,223134,-0.48361,51.89698,BCT,MKD,OTH,,,,028,2020-09-09T00:00:00,2024-01-18T14:08:49,0,new,active
02903535,ltndgdg,,,Lewsey Road,,,,Ferrars Infant School,,,,,,nr,,SW,N0071653,Lewsey,Luton,,Luton,EN,Luton & Dunstable Hospital,EN,false,UKOS,504682,223268,-0.48001,51.89814,BCT,MKD,OTH,,,,028,2020-09-09T00:00:00,2023-02-06T16:35:08,0,new,active
02903560,ltndgpd,,,Lewsey Road,,,,Ferrars Infant School,,,,,,opp,,E,N0071653,Lewsey,Luton,,Luton,EN,Luton & Dunstable Hospital,EN,false,UKOS,504789,223333,-0.47843,51.8987,BCT,MKD,OTH,,,,028,2020-09-09T00:00:00,2023-02-06T16:35:17,0,new,active
02901606,ltnapmp,,,Stockwood Park Entrance,,,,,,,,,,o/s,,N,N0071657,Stockwood,Luton,,Luton,EN,Stockwood,EN,false,UKOS,509034,219749,-0.41789,51.86568,BCT,MKD,OTH,,,,028,2020-09-09T00:00:00,2020-09-09T08:37:19,0,new,active
02901607,ltnapmt,,,Stockwood Park Entrance,,,,,,,,,,opp,,S,N0071657,Stockwood,Luton,,Luton,EN,Stockwood,EN,false,UKOS,509047,219793,-0.41769,51.86607,BCT,MKD,OTH,,,,028,2020-09-09T00:00:00,2020-09-09T08:37:19,0,new,active
