ATCOCode,NaptanCode,PlateCode,CleardownCode,CommonName,CommonNameLang,ShortCommonName,ShortCommonNameLang,Landmark,LandmarkLang,Street,StreetLang,Crossing,CrossingLang,Indicator,IndicatorLang,Bearing,NptgLocalityCode,LocalityName,ParentLocalityName,GrandParentLocalityName,Town,TownLang,Suburb,SuburbLang,LocalityCentre,GridType,Easting,Northing,Longitude,Latitude,StopType,BusStopType,TimingStatus,DefaultWaitTime,Notes,NotesLang,AdministrativeAreaCode,CreationDateTime,ModificationDateTime,RevisionNumber,Modification,Status
03700001,slgadmt,,,Huntercombe Lane,,,,Kinnaird Close,,Bath Road,,,,E-bound,,E,N0072218,Burnham,Slough,,Slough,,,,0,UKOS,493160,181046,-0.658677,51.520658,BCT,MKD,OTH,,,,050,2003-08-28T00:00:00.000,2014-01-08T09:04:07.000,3,revise,active
03700002,slgadmw,,,Westlands Avenue,,,,Greenfern Avenue,,Westlands Avenue,,,,N-bound,,N,N0072218,Burnham,Slough,,Slough,,Burnham,,0,UKOS,493309,181271,-0.656471,51.522656,BCT,MKD,OTH,,,,050,2003-08-28T00:00:00.000,2010-04-05T21:45:00.000,1,revise,active
03700004,slgadpa,,,Goldsworthy Way,,,,Goldsworthy Way middle,,Goldsworthy Way,,,,nr 48,,S,N0072218,Burnham,Slough,,Slough,,Burnham,,0,UKOS,493400,181264,-0.655161,51.522578,BCT,MKD,TIP,,,,050,2003-08-28T00:00:00.000,2010-04-05T17:54:00.000,1,revise,active
03700006,slgadpd,,,St Andrews Way,,,,Bath Road,,St Andrews Way,,,,o/s 7,,S,E0041739,Cippenham,Slough,,Slough,,Cippenham,,0,UKOS,493749,180917,-0.650225,51.519401,BCT,MKD,TIP,,,,050,2004-12-23T00:00:00.000,2010-04-05T20:43:00.000,3,revise,active
03700008,slgadpg,,,Dennis Way,,,,St Georges Cres south end,,St Andrews Way,,,,o/s 56,,N,E0041739,Cippenham,Slough,,Slough,,Cippenham,,0,UKOS,493767,180688,-0.650026,51.51734,BCT,MKD,OTH,,,,050,2004-05-19T00:00:00.000,2008-03-05T11:31:00.000,1,revise,active
03700009,slgadpj,,,Dennis Way,,,,Dennis Way,,St Andrews Way,,,,o/s 73,,S,E0041739,Cippenham,Slough,,Slough,,Cippenham,,0,UKOS,493782,180655,-0.649819,51.517041,BCT,MKD,OTH,,,,050,2004-05-19T00:00:00.000,2008-03-05T11:31:00.000,1,revise,active
03700010,slgadpm,,,Moreton Way,,,,Moreton Way,,St Andrews Way,,,,N-bound,,N,E0041739,Cippenham,Slough,,Slough,,Cippenham,,0,UKOS,493816,180304,-0.649422,51.51388,BCT,MKD,TIP,,,,050,2004-12-21T00:00:00.000,2010-04-05T18:33:00.000,1,revise,active
03700011,slgadpt,,,Moreton Way,,,,Moreton Way,,St Andrews Way,,,,S-bound,,S,E0041739,Cippenham,Slough,,Slough,,Cippenham,,0,UKOS,493831,180248,-0.649221,51.513374,BCT,MKD,TIP,,,,050,2004-12-21T00:00:00.000,2010-04-05T18:34:00.000,1,revise,active
03700012,slgadpw,,,Mercian Recreation Ground,,,,Oldway Lane,,Mercian Way,,,,opp 58,,W,E0041739,Cippenham,Slough,,Slough,,Cippenham,,0,UKOS,493950,180225,-0.647513,51.513148,BCT,MKD,OTH,,,,050,2004-12-21T00:00:00.000,2008-03-05T11:31:00.000,1,revise,active
03700014,slgadta,,,Warner Close,,,,Elmshott Lane,,Mercian Way,,,,opp,,E,E0041739,Cippenham,Slough,,,,,,0,UKOS,494215,180300,-0.643675,51.513778,BCT,MKD,OTH,,,,050,2004-09-21T00:00:00.000,2014-06-05T09:12:07.786,4,revise,inactive
03700015,slgadtd,,,Warner Close,,,,Elmshott Lane,,Mercian Way,,,,nr,,W,E0041739,Cippenham,Slough,,Slough,,Cippenham,,0,UKOS,494211,180291,-0.643735,51.513697,BCT,MKD,OTH,,,,050,2004-12-21T00:00:00.000,2009-08-28T21:23:00.000,1,revise,active
03700016,slgadtg,,,Cippenham Green,,,,Alder Close,,Lower Cippenham Lane,,,,adj,,SW,E0041739,Cippenham,Slough,,Slough,,Cippenham,,1,UKOS,494607,180437,-0.637991,51.514944,BCT,MKD,TIP,,,,050,2003-08-28T00:00:00.000,2010-04-05T16:57:00.000,1,revise,active
03700017,slgadtj,,,Cippenham Green,,,,Bower Drive,,Lower Cippenham Lane,,,,opp,,NE,E0041739,Cippenham,Slough,,Slough,,Cippenham,,1,UKOS,494622,180479,-0.6377633,51.5153188,BCT,MKD,TIP,,,,050,2004-09-21T00:00:00.000,2014-06-05T09:12:34.259,2,revise,inactive
03700018,slgadtm,,,Lower Cippenham La,,,,Spring Lane,,Lower Cippenham Lane,,,,opp 90,,NW,E0041739,Cippenham,Slough,,Slough,,Cippenham,,0,UKOS,494745,180500,-0.635986,51.515487,BCT,MKD,OTH,,,,050,2003-08-28T00:00:00.000,2009-08-28T21:25:00.000,2,revise,active
03700019,slgadtp,,,Lower Cippenham La,,,,Spring Lane,,Lower Cippenham Lane,,,,o/s 84,,SE,E0041739,Cippenham,Slough,,Slough,,Cippenham,,0,UKOS,494773,180488,-0.6355854,51.5153744,BCT,MKD,OTH,,,,050,2004-09-21T00:00:00.000,2014-06-05T09:12:54.177,3,revise,inactive
03700020,slgadtw,,,Spring Lane,,,,Cippenham Close,,Spring Lane,,,,o/s 10,,NE,E0041739,Cippenham,Slough,,Slough,,Cippenham,,0,UKOS,494883,180452,-0.6340103,51.5150323,BCT,MKD,OTH,,,,050,2003-08-28T00:00:00.000,2014-06-05T09:13:18.912,2,revise,inactive
03700021,slgadwa,,,Spring Lane,,,,Cippenham Close,,Spring Lane,,,,o/s 9,,SW,E0041739,Cippenham,Slough,,Slough,,Cippenham,,0,UKOS,494886,180442,-0.63397,51.514942,BCT,MKD,OTH,,,,050,2003-08-28T00:00:00.000,2008-03-05T11:31:00.000,1,revise,active
03700022,slgadwd,,,Boarlands Close,,,,Boarlands Close,,Cippenham Lane,,,,nr,,SE,E0041739,Cippenham,Slough,,Slough,,Cippenham,,0,UKOS,494918,180636,-0.633457,51.51668,BCT,MKD,OTH,,,,050,2003-12-08T00:00:00.000,2008-05-04T15:17:00.000,2,revise,active
03700023,slgdgpj,,,Mallard Drive,,,,Westgate Cres,,Cippenham Lane,,,,adj,,N,E0041739,Cippenham,Slough,,Slough,,Cippenham,,0,UKOS,494878,180728,-0.6340081,51.5175142,BCT,MKD,OTH,,,,050,2003-12-08T00:00:00.000,2014-06-05T09:13:41.431,9,revise,inactive
03700024,slgadwg,,,Central Drive,,,,Central Drive,,Bower Way,,,,adj,,E,E0041739,Cippenham,Slough,,Slough,,Cippenham,,0,UKOS,494547,180788,-0.638761,51.518109,BCT,MKD,OTH,,,,050,2003-08-28T00:00:00.000,2023-05-03T15:06:45.170,4,revise,inactive
03700025,slgadwj,,,Browns Court,,,,Abbey Close,,Bower Way,,,,o/s,,E,E0041739,Cippenham,Slough,,,,Cippenham,,0,UKOS,494283,180742,-0.642579,51.517744,BCT,MKD,OTH,,,,050,2003-08-28T00:00:00.000,2023-05-03T15:06:15.113,2,revise,inactive
03700026,slgadwm,,,St Andrews Church,,,,Elmshott Lane,,Washington Drive,,,,o/s,,E,E0041739,Cippenham,Slough,,Slough,,Cippenham,,0,UKOS,494070,180862,-0.645614,51.518854,BCT,MKD,OTH,,,,050,2003-08-28T00:00:00.000,2023-05-03T15:05:48.774,2,revise,inactive
03700027,slgadwp,,,Lincoln Way,,,,Lincoln Way,,Washington Drive,,,,nr,,E,E0041739,Cippenham,Slough,,Slough,,Cippenham,,0,UKOS,493781,180830,-0.649787,51.518614,BCT,MKD,OTH,,,,050,2003-08-28T00:00:00.000,2023-05-03T15:05:28.757,4,revise,inactive
03700029,slgadwt,,,St Andrews Way,,,,St Andrews Way,,Bath Road,,,,nr,,W,E0041739,Cippenham,Slough,,Slough,,Cippenham,,0,UKOS,493640,180990,-0.651776,51.520076,BCT,MKD,TIP,,,,050,2005-09-12T00:00:00.000,2010-04-05T20:43:00.000,3,revise,active
03700030,slgagad,,,Huntercombe Lane,,,,Huntercombe Lane South,,Bath Road,,,,W-bound,,W,N0072218,Burnham,Slough,,Slough,,,,0,UKOS,493062,181011,-0.660099,51.52036,BCT,MKD,OTH,,,,050,2003-08-28T00:00:00.000,2014-01-08T09:04:15.000,5,revise,active
03700031,slgagag,,,Goodman Park,,,,Goodman Park,,Uxbridge Road,,,,opp,,NE,E0041749,Upton Lea,Slough,,Slough,,Upton Lea,,0,UKOS,498975,180199,-0.575128,51.512057,BCT,MKD,TIP,,,,050,2003-08-28T00:00:00.000,2010-04-05T17:54:00.000,1,revise,active
03700032,slgagaj,,,Goodman Park,,,,Goodman Park,,Uxbridge Road,,,,adj,,SW,E0041749,Upton Lea,Slough,,Slough,,Upton Lea,,0,UKOS,498992,180183,-0.574888,51.51191,BCT,MKD,TIP,,,,050,2003-08-28T00:00:00.000,2010-04-05T17:54:00.000,1,revise,active
03700033,slgagam,,,Rochfords Gardens,,,,Broadmark Road,,Uxbridge Road,,,,opp,,NE,E0041749,Upton Lea,Slough,,,,Upton Lea,,0,UKOS,499153,180465,-0.572489,51.514417,BCT,MKD,OTH,,,,050,2003-12-08T00:00:00.000,2010-04-05T19:03:00.000,1,revise,active
03700034,slgagap,,,Mirador Crescent,,,,Mirador Crescent,,Uxbridge Road,,,,adj,,NE,E0041749,Upton Lea,Slough,,Slough,,Upton Lea,,0,UKOS,499339,180836,-0.569705,51.517719,BCT,MKD,TIP,,,,050,2003-12-08T00:00:00.000,2008-10-26T10:02:00.000,1,revise,active
03700036,slgagat,,,Dornels,,,,Dornels,,Knolton Way,,,,nr,,NE,N0072211,Wexham Court,Slough,,Slough,,Wexham Court,,0,UKOS,499327,181117,-0.569799,51.520247,BCT,MKD,OTH,,,,050,2003-08-28T00:00:00.000,2010-04-05T17:17:00.000,1,revise,active
03700037,slgagaw,,,Dornels,,,,Dornels,,Knolton Way,,,,opp,,SW,N0072211,Wexham Court,Slough,,Slough,,Wexham Court,,0,UKOS,499362,181164,-0.569281,51.520663,BCT,MKD,OTH,,,,050,2003-08-28T00:00:00.000,2010-04-05T17:17:00.000,1,revise,active
03700038,slgagda,,,Berryfield Veterinary Centre,,,,Berryfield,,Knolton Way,,,,nr,,NW,N0072211,Wexham Court,Slough,,Slough,,Wexham Court,,0,UKOS,499239,181341,-0.571004,51.522276,BCT,MKD,OTH,,,,050,2003-08-28T00:00:00.000,2010-04-05T16:11:00.000,1,revise,active
03700039,slgagdg,,,Berryfield Veterinary Centre,,,,Berryfield,,Knolton Way,,,,opp,,SE,N0072211,Wexham Court,Slough,,Slough,,Wexham Court,,0,UKOS,499149,181398,-0.572285,51.522804,BCT,MKD,OTH,,,,050,2003-08-28T00:00:00.000,2010-04-05T16:11:00.000,1,revise,active
03700040,slgagdj,,,Knolton Way Shops,,,,Edmunds Way,,Knolton Way,,,,o/s,,W,N0072211,Wexham Court,Slough,,,,,,1,UKOS,498996,181415,-0.574484,51.522984,BCT,MKD,TIP,,,,050,2003-08-28T00:00:00.000,2010-07-30T00:00:00.000,2,revise,active
03700041,slgagdm,,,Knolton Way Shops,,,,Edmunds Way,,Knolton Way,,,,opp,,E,N0072211,Wexham Court,Slough,,,,,,1,UKOS,499001,181439,-0.574406,51.523198,BCT,MKD,TIP,,,,050,2003-08-28T00:00:00.000,2010-07-30T00:00:00.000,2,revise,active
03700042,slgagdp,,,The Normans,,,,The Normans,,Knolton Way,,,,adj,,W,N0072211,Wexham Court,Slough,,Slough,,Wexham Court,,0,UKOS,498760,181430,-0.577881,51.52316,BCT,MKD,OTH,,,,050,2003-08-28T00:00:00.000,2010-04-05T21:23:00.000,1,revise,active
03700043,slgagdt,,,The Normans,,,,Almons Way,,Knolton Way,,,,opp,,E,N0072211,Wexham Court,Slough,,Slough,,Wexham Court,,0,UKOS,498714,181437,-0.578542,51.523231,BCT,MKD,OTH,,,,050,2003-08-28T00:00:00.000,2010-04-05T21:23:00.000,1,revise,active
03700044,slgagdw,,,The Frithe,,,,Wexham Road,,Knolton Way,,,,nr,,W,N0072211,Wexham Court,Slough,,Slough,,Wexham Court,,0,UKOS,498617,181411,-0.579947,51.523014,BCT,MKD,OTH,,,,050,2003-08-28T00:00:00.000,2009-05-16T09:33:00.000,3,revise,active
03700045,slgagja,,,Norway Drive,,,,Norway Drive,,Wexham Road,,,,opp,,N,N0072211,Wexham Court,Slough,,Slough,,Wexham Court,,0,UKOS,498530,181631,-0.581139,51.525007,BCT,MKD,OTH,,,,050,2003-08-28T00:00:00.000,2010-06-21T14:49:00.000,5,revise,active
03700046,slgagjd,,,Extra Care Centre,,,,Extra Care Centre,,Wexham Road,,,,nr,,S,N0072211,Wexham Court,Slough,,Slough,,Wexham Court,,0,UKOS,498568,181765,-0.580554,51.526204,BCT,MKD,OTH,,,,050,2003-08-28T00:00:00.000,2010-06-21T14:49:00.000,6,revise,active
03700047,slgagjg,,,Wexham Post Office,,,,Stoke Green,,Wexham Road,,,,opp,,N,N0072211,Wexham Court,Slough,,Slough,,Wexham Court,,0,UKOS,498688,182200,-0.578703,51.530094,BCT,MKD,OTH,,,,050,2003-08-28T00:00:00.000,2008-03-24T13:09:00.000,1,revise,active
03700048,slgagjm,,,Wexham Post Office,,,,Stoke Green,,Wexham Road,,,,adj,,S,N0072211,Wexham Court,Slough,,Slough,,Wexham Court,,0,UKOS,498695,182147,-0.578617,51.529616,BCT,MKD,OTH,,,,050,2003-08-28T00:00:00.000,2008-03-24T13:09:00.000,1,revise,active
03700049,slgagjp,,,Wexham Park Hospital,,,,Wexham Park Hospital,,Hospital access road,,,,arrivals,,E,N0072211,Wexham Court,Slough,,,,,,0,UKOS,498862,182471,-0.576119,51.532499,BCT,MKD,TIP,,,,050,2004-07-21T00:00:00.000,2010-08-03T00:00:00.000,2,revise,active
03700051,slgagjt,,,Wexham Park Hospital,,,,Wexham Park Hospital,,Wexham Road,,,,main entrance,,SE,N0072211,Wexham Court,Slough,,Slough,,Wexham Court,,0,UKOS,498891,182461,-0.575704,51.532404,BCT,MKD,TIP,,,,050,2004-07-21T00:00:00.000,2010-04-05T17:32:00.000,1,revise,active
03700052,slgagjw,,,Knolton Way North,,,,Knolton Way,,The Frithe,,,,N-bound,,N,N0072211,Wexham Court,Slough,,Slough,,Wexham Court,,0,UKOS,498655,181362,-0.5794128,51.5225668,BCT,MKD,OTH,,,,050,2003-08-28T00:00:00.000,2014-06-05T09:14:15.652,4,revise,inactive
03700053,slgagma,,,Knolton Way North,,,,Knolton Way,,The Frithe,,,,S-bound,,S,N0072211,Wexham Court,Slough,,Slough,,Wexham Court,,0,UKOS,498669,181335,-0.579219,51.522322,BCT,MKD,OTH,,,,050,2003-08-28T00:00:00.000,2010-04-05T18:09:00.000,3,revise,active
037000534,slgdjga,,,Heart of Slough Bus Station,,Bus Station Set-Down,,,,,,,,Set Down,,,N0072213,Slough Town Centre,Slough,,,,,,0,UKOS,497728,180132,-0.593111,51.511671,BCS,,PPT,,,,050,2011-04-18T13:07:38.000,2011-04-18T13:06:42.000,0,new,inactive
03700054,slgagmd,,,Prestwood,,,,Prestwood,,The Frithe,,,,opp,,NW,N0072211,Wexham Court,Slough,,Slough,,Wexham Court,,0,UKOS,498696,181216,-0.5788629,51.5212473,BCT,MKD,OTH,,,,050,2003-08-28T00:00:00.000,2014-06-05T09:14:36.085,2,revise,inactive
03700055,slgagmg,,,Prestwood,,,,Prestwood,,The Frithe,,,,nr,,SE,N0072211,Wexham Court,Slough,,Slough,,Wexham Court,,0,UKOS,498719,181187,-0.57854,51.520983,BCT,MKD,OTH,,,,050,2003-08-28T00:00:00.000,2010-04-05T18:52:00.000,1,revise,active
03700056,slgagmj,,,Sheehy Way,,,,Sheehy Way,,The Frithe,,,,nr,,NW,N0072211,Wexham Court,Slough,,Slough,,Wexham Court,,0,UKOS,498799,181035,-0.5774295,51.5196023,BCT,MKD,TIP,,,,050,2004-05-19T00:00:00.000,2014-06-05T09:14:58.898,2,revise,inactive
03700057,slgagmp,,,Sheehy Way,,,,Berryfield,,The Frithe,,,,opp,,E,N0072211,Wexham Court,Slough,,Slough,,Wexham Court,,0,UKOS,498987,181003,-0.57473,51.519282,BCT,MKD,TIP,,,,050,2004-05-19T00:00:00.000,2010-04-05T20:38:00.000,1,revise,active
03700058,slgagmt,,,Knolton Way,,,,Knolton Way,,The Frithe,,,,opp,,W,N0072211,Wexham Court,Slough,,Slough,,Wexham Court,,0,UKOS,499188,180964,-0.5718446,51.5188959,BCT,MKD,OTH,,,,050,2003-08-28T00:00:00.000,2014-06-05T09:15:16.203,4,revise,inactive
03700059,slgagmw,,,Mirador Crescent,,,,Mirador Crescent,,Uxbridge Road,,,,opp,,SW,E0041749,Upton Lea,Slough,,Slough,,Wexham Court,,0,UKOS,499305,180731,-0.570224,51.516781,BCT,MKD,TIP,,,,050,2004-12-21T00:00:00.000,2008-10-26T10:02:00.000,2,revise,active
03700060,slgagpa,,,Beresford Avenue,,,,Beresford Avenue,,Broadmark Road,,,,opp,,W,E0041749,Upton Lea,Slough,,Slough,,Upton Lea,,0,UKOS,499056,180456,-0.573889,51.514353,BCT,MKD,OTH,,,,050,2004-07-21T00:00:00.000,2008-02-03T12:33:00.000,3,revise,active
03700061,slgagpd,,,Carlton Road,,,,Carlton Road,,BROADMARK ROAD,,,,adj,,E,E0041749,Upton Lea,Slough,,Slough,,Upton Lea,,1,UKOS,498736,180607,-0.578455,51.515768,BCT,MKD,TIP,,,,050,2004-03-17T00:00:00.000,2010-06-21T14:51:00.000,2,revise,active
03700062,slgagpg,,,Lea School,,,,Broadmark Road,,Wexham Road,,,,opp,,SW,E0041749,Upton Lea,Slough,,Slough,,Upton Lea,,1,UKOS,498680,180572,-0.579274,51.515461,BCT,MKD,TIP,,,,050,2004-03-17T00:00:00.000,2010-06-21T14:52:00.000,5,revise,active
03700063,slgagpj,,,St Pauls Avenue,,,,Business Village,,Wexham Road,,,,nr,,N,E0041749,Upton Lea,Slough,,Slough,,Upton Lea,,0,UKOS,498536,180398,-0.581397,51.513922,BCT,MKD,OTH,,,,050,2003-08-28T00:00:00.000,2010-04-05T20:55:00.000,3,revise,active
03700064,slgagpm,,,St Pauls Avenue,,,,Business Village,,Wexham Road,,,,opp,,S,E0041749,Upton Lea,Slough,,Slough,,Upton Lea,,0,UKOS,498529,180323,-0.581519,51.513249,BCT,MKD,OTH,,,,050,2003-08-28T00:00:00.000,2010-04-05T20:55:00.000,1,revise,active
03700065,slgagpt,,,Lea School,,,,Broadmark Road,,Wexham Road,,,,o/s,,N,E0041749,Upton Lea,Slough,,,,Upton Lea,,1,UKOS,498712,180700,-0.578784,51.516606,BCT,MKD,OTH,,,,050,2004-03-17T00:00:00.000,2021-07-13T16:32:10.444,3,revise,active
03700066,slgagpw,,,Mirador Crescent Roundabout,,,,Grasmere Avenue,,Wexham Road,,,,N-bound,,NW,N0072211,Wexham Court,Slough,,Slough,,Wexham Court,,0,UKOS,498734,180887,-0.578407,51.518283,BCT,MKD,OTH,,,,050,2003-12-08T00:00:00.000,2010-06-21T15:24:00.000,3,revise,active
03700067,slgagta,,,Mirador Crescent Roundabout,,,,Mirador Crescent,,Wexham Road,,,,S-bound,,S,N0072211,Wexham Court,Slough,,Slough,,Wexham Court,,0,UKOS,498749,180823,-0.578209,51.517705,BCT,MKD,OTH,,,,050,2003-12-08T00:00:00.000,2010-06-21T15:24:00.000,3,revise,active
03700068,slgagtd,,,Borderside,,,,Borderside,,Wexham Road,,,,adj,,NW,N0072211,Wexham Court,Slough,,Slough,,Wexham Court,,0,UKOS,498628,181116,-0.579871,51.52036,BCT,MKD,OTH,,,,050,2003-08-28T00:00:00.000,2010-04-05T16:19:00.000,1,revise,active
03700069,slgagtg,,,Borderside,,,,Borderside,,Wexham Road,,,,opp,,SE,N0072211,Wexham Court,Slough,,Slough,,Wexham Court,,0,UKOS,498622,181152,-0.579947,51.520685,BCT,MKD,OTH,,,,050,2003-08-28T00:00:00.000,2010-04-05T16:19:00.000,1,revise,active
03700070,slgagtj,,,ICI Paint Factory,,,,Petersfield Avenue,,Wexham Road,,,,o/s,,S,E0041749,Upton Lea,Slough,,Slough,,Upton Lea,,0,UKOS,498452,180190,-0.582665,51.512067,BCT,MKD,OTH,,,,050,2003-08-28T00:00:00.000,2010-04-05T18:04:00.000,1,revise,active
03700071,slgagtm,,,ICI Paint Factory,,,,Petersfield Avenue,,Wexham Road,,,,opp,,N,E0041749,Upton Lea,Slough,,Slough,,Upton Lea,,0,UKOS,498445,180202,-0.582762,51.512176,BCT,MKD,OTH,,,,050,2003-08-28T00:00:00.000,2010-04-05T18:04:00.000,1,revise,active
03700072,slgagtp,,,Diamond Road,,,,Wellington Street,,Wexham Road,,,,S-bound,,S,N0072213,Slough Town Centre,Slough,,Slough,,Town Centre,,0,UKOS,498399,179877,-0.583516,51.509263,BCT,MKD,OTH,,,,050,2003-08-28T00:00:00.000,2010-04-05T17:13:00.000,1,revise,active
03700073,slgagtw,,,Diamond Road,,,,Wellington Street,,Wexham Road,,,,N-bound,,N,N0072213,Slough Town Centre,Slough,,Slough,,Town Centre,,0,UKOS,498390,179890,-0.583642,51.509381,BCT,MKD,OTH,,,,050,2003-08-28T00:00:00.000,2010-04-05T17:13:00.000,1,revise,active
03700074,slgagwa,,,St Bernards Convent,,,,Langley Road,,London Road,,,,SE-bound,,SE,E0041742,Langley,,,Slough,,Upton Lea,,0,UKOS,499114,179413,-0.573346,51.504967,BCT,MKD,OTH,,,,050,2003-08-28T00:00:00.000,2009-04-15T14:29:00.000,4,revise,active
03700075,slgagwd,,,St Bernards Convent,,,,Langley Road,,London Road,,,,NW-bound,,NW,E0041742,Langley,,,,,Upton Lea,,0,UKOS,499150,179380,-0.572833,51.504665,BCT,MKD,OTH,,,,050,2003-08-28T00:00:00.000,2009-04-15T14:29:00.000,4,revise,active
03700076,slgagwg,,,Kaywood Close,,,,Hurworth Avenue,,London Road,,,,westbound,,NW,E0041742,Langley,,,Slough,,Upton Lea,,0,UKOS,499392,179212,-0.569399,51.503112,BCT,MKD,OTH,,,,050,2003-08-28T00:00:00.000,2008-12-15T12:37:00.000,2,revise,active
03700077,slgagwj,,,Kaywood Close,,,,Kaywood Close,,London Road,,,,eastbound,,SE,E0041742,Langley,,,Slough,,Upton Lea,,0,UKOS,499480,179169,-0.568143,51.50271,BCT,MKD,OTH,,,,050,2003-08-28T00:00:00.000,2008-12-15T12:37:00.000,1,revise,active
03700078,slgagwm,,,Upton Court Road Junction,,,,Upton Court Road,,London Road,,,,W-bound,,NW,E0041742,Langley,,,Slough,,Upton Lea,,0,UKOS,499654,179008,-0.565683,51.501232,BCT,MKD,OTH,,,,050,2003-08-28T00:00:00.000,2008-06-06T18:50:00.000,3,revise,active
03700079,slgagwp,,,Upton Court Road Junction,,,,Upton Court Road,,London Road,,,,E-bound,,SE,E0041742,Langley,,,Slough,,Upton Lea,,0,UKOS,499781,178935,-0.563874,51.500553,BCT,MKD,OTH,,,,050,2006-03-31T00:00:00.000,2008-06-06T18:51:00.000,3,revise,active
03700080,slgagwt,,,Drake Avenue,,,,Drake Avenue,,London Road,,,,westbound,,NW,E0041742,Langley,,,,,,,0,UKOS,499926,178832,-0.561815,51.499602,BCT,MKD,OTH,,,,050,2003-08-28T00:00:00.000,2011-02-21T10:32:14.000,2,revise,active
03700081,slgajad,,,Drake Avenue,,,,Drake Avenue,,London Road,,,,E-bound,,SE,E0041742,Langley,,,Slough,,Langley,,0,UKOS,500070,178806,-0.559749,51.499343,BCT,MKD,OTH,,,,050,2003-08-28T00:00:00.000,2010-04-05T17:20:00.000,1,revise,active
03700082,slgajag,,,Cedar Way,,,,Cedar Way,,London Road,,,,opp,,SE,E0041742,Langley,,,Slough,,Langley,,0,UKOS,500299,178640,-0.556498,51.49781,BCT,MKD,OTH,,,,050,2003-08-28T00:00:00.000,2010-04-05T16:41:00.000,1,revise,active
03700083,slgajaj,,,Cedar Way,,,,Cedar Way,,London Road,,,,adj,,NW,E0041742,Langley,,,Slough,,Langley,,0,UKOS,500333,178600,-0.556019,51.497453,BCT,MKD,OTH,,,,050,2003-08-28T00:00:00.000,2010-04-07T09:49:00.000,2,revise,active
03700084,slgajam,,,Ditton Park Road,,,,Haynes Close,,London Road,,,,nr,,NW,E0041742,Langley,,,Slough,,Langley,,0,UKOS,500576,178434,-0.552567,51.495909,BCT,MKD,OTH,,,,050,2003-08-28T00:00:00.000,2010-04-05T17:16:00.000,1,revise,active
03700085,slgajap,,,Ditton Park Road,,,,Langley Broom,,London Road,,,,opp,,SE,E0041742,Langley,,,Slough,,Langley,,0,UKOS,500750,178320,-0.550094,51.494862,BCT,MKD,OTH,,,,050,2003-08-28T00:00:00.000,2010-04-05T17:16:00.000,1,revise,active
03700086,slgajat,,,The Toby,,,,High Street Langley,,London Road,,,,opp,,NW,E0041742,Langley,,,Slough,,Langley,,0,UKOS,500839,178239,-0.548835,51.494118,BCT,MKD,TIP,,,,050,2003-08-28T00:00:00.000,2010-04-05T21:26:00.000,2,revise,active
03700087,slgajaw,,,The Toby,,,,High Street Langley,,London Road,,,,o/s,,SE,E0041742,Langley,,,Slough,,Langley,,0,UKOS,500993,178179,-0.546635,51.493543,BCT,MKD,TIP,,,,050,2005-09-12T00:00:00.000,2009-04-15T14:38:00.000,2,revise,active
03700088,slgajda,,,The Toby,,,,London Road,,Ditton Road,,,,S-bound,,S,E0041742,Langley,,,Slough,,,,0,UKOS,500914,178147,-0.547782,51.493269,BCT,MKD,TIP,,,,050,2003-08-28T00:00:00.000,2013-09-12T08:57:47.000,4,revise,inactive
03700089,slgajdg,,,Sutton Lane,,,,Sutton Lane,,London Road,,,,nr,,SE,E0041737,Brands Hill,,,Slough,,Brands Hill,,0,UKOS,501663,177763,-0.537107,51.489692,BCT,MKD,OTH,,,,050,2003-08-28T00:00:00.000,2010-04-05T21:30:00.000,2,revise,active
03700091,slgadad,,,Sutton Lane,,,,Sutton Lane,,London Road,,,,o/s,,NW,E0041737,Brands Hill,,,,,Brands Hill,,0,UKOS,501629,177770,-0.537599,51.489761,BCT,MKD,OTH,,,,050,2004-12-07T00:00:00.000,2024-03-08T13:27:54.024,4,revise,active
03700092,slgajdm,,,Sutton Place,,,,London Road,,Sutton Lane,,,,o/s,,N,E0041737,Brands Hill,,,Slough,,Brands Hill,,0,UKOS,501831,177767,-0.534687,51.489689,BCT,MKD,OTH,,,,050,2004-12-24T00:00:00.000,2008-10-26T10:02:00.000,1,revise,active
03700093,slgajdp,,,Sutton Place,,,,London Road,,Sutton Lane,,,,opp,,S,E0041737,Brands Hill,,,Slough,,Brands Hill,,0,UKOS,501841,177750,-0.534547,51.489543,BCT,MKD,OTH,,,,050,2004-12-24T00:00:00.000,2008-10-26T10:02:00.000,1,revise,active
03700094,slgajdt,,,Axis Park,,,,Sutton Lane,,Hurricane Way,,,,E-bound,,SE,E0041742,Langley,,,Slough,,Langley,,0,UKOS,501986,178396,-0.532273,51.495315,BCT,MKD,TIP,,,,050,2003-08-28T00:00:00.000,2020-09-15T13:58:59.533,2,revise,active
03700095,slgajdw,,,Sutton Lane North,,,,Parlaunt Road,,Sutton Lane,,,,N-bound,,N,E0041742,Langley,,,Slough,,Langley,,0,UKOS,502277,178972,-0.527916,51.50044,BCT,MKD,OTH,,,,050,2004-12-21T00:00:00.000,2008-11-23T10:30:00.000,3,revise,active
03700096,slgajga,,,Sutton Lane North,,,,Parlaunt Road,,Sutton Lane,,,,S-bound,,S,E0041742,Langley,,,Slough,,Langley,,0,UKOS,502289,178960,-0.527747,51.50033,BCT,MKD,OTH,,,,050,2004-12-21T00:00:00.000,2008-11-23T10:31:00.000,3,revise,active
03700097,slgajgd,,,Sutton Lane North Park,,,,Sutton Lane,,Parlaunt Road,,,,W-bound,,SW,E0041742,Langley,,,Slough,,Langley,,0,UKOS,502195,179073,-0.529068,51.501363,BCT,MKD,OTH,,,,050,2004-12-21T00:00:00.000,2010-04-05T21:13:00.000,3,revise,active
03700098,slgajgj,,,Market Lane,,,,Market Lane,,Parlaunt Road,,,,opp,,SW,E0041742,Langley,,,Slough,,Langley,,0,UKOS,502020,179016,-0.531605,51.500882,BCT,MKD,OTH,,,,050,2003-08-28T00:00:00.000,2010-04-05T18:29:00.000,1,revise,active
03700099,slgajgm,,,Market Lane,,,,Market Lane,,Parlaunt Road,,,,nr,,NE,E0041742,Langley,,,Slough,,Langley,,0,UKOS,502007,179032,-0.531787,51.501028,BCT,MKD,OTH,,,,050,2003-08-28T00:00:00.000,2010-04-05T18:30:00.000,1,revise,active
03700100,slgajgp,,,Langley Leisure Centre,,,,Tamar Way,,Parlaunt Road,,,,o/s,,W,E0041742,Langley,,,Slough,,Langley,,0,UKOS,501662,178854,-0.536807,51.499499,BCT,MKD,OTH,,,,050,2003-12-08T00:00:00.000,2010-04-05T18:12:00.000,3,revise,active
03700101,slgajgt,,,Humber Way,,,,Parlaunt Road,,Tamar Way,,,,adj,,N,E0041742,Langley,,,Slough,,Langley,,0,UKOS,501616,178800,-0.537485,51.499013,BCT,MKD,OTH,,,,050,2003-08-28T00:00:00.000,2010-04-05T21:15:00.000,1,revise,active
03700102,slgajgw,,,Humber Way,,,,Parlaunt Road,,Tamar Way,,,,opp,,S,E0041742,Langley,,,Slough,,Langley,,0,UKOS,501630,178774,-0.537291,51.498777,BCT,MKD,OTH,,,,050,2003-08-28T00:00:00.000,2010-04-05T21:15:00.000,1,revise,active
03700103,slgajma,,,Parlaunt Road Church,,,,High Street Langley,,Parlaunt Road,,,,o/s,,W,E0041742,Langley,,,Slough,,Langley,,0,UKOS,501378,178879,-0.54089,51.499766,BCT,MKD,OTH,,,,050,2003-08-28T00:00:00.000,2008-03-24T13:09:00.000,1,revise,active
03700104,slgajmd,,,Parlaunt Road Church,,,,High Street Langley,,Parlaunt Road,,,,opp,,E,E0041742,Langley,,,Slough,,Langley,,0,UKOS,501383,178892,-0.540815,51.499882,BCT,MKD,OTH,,,,050,2003-08-28T00:00:00.000,2008-03-24T13:09:00.000,1,revise,active
03700105,slgajmg,,,Cheviot Road,,,,Langley Health Centre,,Common Road,,,,opp,,SE,E0041742,Langley,,,Slough,,Langley,,0,UKOS,501334,178469,-0.541641,51.496097,BCT,MKD,OTH,,,,050,2003-08-28T00:00:00.000,2010-04-05T17:04:00.000,1,revise,active
03700106,slgajmj,,,Cheviot Road,,,,Langley Health Centre,,Common Road,,,,nr,,NW,E0041742,Langley,,,Slough,,Langley,,0,UKOS,501318,178474,-0.54187,51.496145,BCT,MKD,OTH,,,,050,2003-08-28T00:00:00.000,2010-04-05T17:05:00.000,1,revise,active
03700107,slgajmp,,,Parlaunt Flats,,,,Common Road,,Tamar Way,,,,nr,,SW,E0041742,Langley,,,Slough,,Langley,,0,UKOS,501595,178515,-0.53787,51.496455,BCT,MKD,OTH,,,,050,2004-05-20T00:00:00.000,2010-04-05T18:49:00.000,2,revise,active
03700108,slgajmt,,,Parlaunt Flats,,,,Common Road,,Tamar Way,,,,opp,,NE,E0041742,Langley,,,Slough,,Langley,,0,UKOS,501530,178445,-0.538826,51.495838,BCT,MKD,OTH,,,,050,2003-08-28T00:00:00.000,2010-04-05T18:48:00.000,1,revise,active
03700109,slgajmw,,,Burroway Road,,,,Market Lane,,Burroway Road,,,,W-bound,,W,E0041742,Langley,,,Slough,,Langley,,0,UKOS,501949,179150,-0.5325886,51.5020992,BCT,MKD,OTH,,,,050,2003-08-28T00:00:00.000,2014-06-05T09:17:31.558,2,revise,inactive
03700110,slgajpa,,,Burroway Road,,,,Market Lane,,Burroway Road,,,,E-bound,,E,E0041742,Langley,,,Slough,,Langley,,0,UKOS,501980,179165,-0.5321378,51.5022285,BCT,MKD,OTH,,,,050,2003-08-28T00:00:00.000,2014-06-05T09:17:51.665,2,revise,inactive
03700111,slgajpd,,,Ember Road,,,,Willoughby Road,,Kennett Road,,,,opp,,W,E0041742,Langley,,,Slough,,Langley,,0,UKOS,501599,179194,-0.5376168,51.5025577,BCT,MKD,OTH,,,,050,2003-08-28T00:00:00.000,2014-06-05T09:18:09.940,2,revise,inactive
03700112,slgajpg,,,Ember Road,,,,Willoughby Road,,Kennett Road,,,,nr,,E,E0041742,Langley,,,Slough,,Langley,,0,UKOS,501547,179214,-0.5383600,51.5027468,BCT,MKD,OTH,,,,050,2003-08-28T00:00:00.000,2014-06-05T09:18:31.353,2,revise,inactive
03700113,slgajpj,,,Mead Avenue,,,,Willoughby Road,,Meadfield Road,,,,opp,,W,E0041742,Langley,,,Slough,,Langley,,0,UKOS,501522,179450,-0.5386522,51.5048727,BCT,MKD,OTH,,,,050,2003-08-28T00:00:00.000,2014-06-05T09:18:49.468,2,revise,inactive
03700114,slgajpm,,,Mead Avenue,,,,Willoughby Road,,Meadfield Road,,,,adj,,E,E0041742,Langley,,,Slough,,Langley,,0,UKOS,501477,179469,-0.5392949,51.5050515,BCT,MKD,OTH,,,,050,2003-08-28T00:00:00.000,2014-06-05T09:19:05.403,3,revise,inactive
03700115,slgajpt,,,Marish Court,,,,Elmhurst Road,,High Street Langley,,,,o/s,,N,E0041742,Langley,,,Slough,,Langley,,0,UKOS,501254,179130,-0.542604,51.502053,BCT,MKD,OTH,,,,050,2004-02-09T00:00:00.000,2008-03-24T13:09:00.000,1,revise,active
03700116,slgajpw,,,Marish Court,,,,Elmhurst Road,,High Street,,,,opp,,S,E0041742,Langley,,,,,Langley,,0,UKOS,501256,179102,-0.542593,51.501793,BCT,MKD,OTH,,,,050,2004-02-09T00:00:00.000,2008-03-24T13:09:00.000,1,revise,active
03700117,slgajta,,,Harrow Market,,Harrow Market,,East Berks College,,Station Road,,,,Stop C,,N,E0041742,Langley,,,,,,,1,UKOS,501140,179420,-0.544163,51.50468,BCT,MKD,TIP,,,,050,2004-03-17T00:00:00.000,2014-06-05T10:09:41.398,3,revise,active
03700118,slgajtd,,,Harrow Market,,Harrow Market,,East Berks College,,Langley Road,,,,Stop A,,W,E0041742,Langley,,,,,,,1,UKOS,501070,179310,-0.545206,51.503699,BCT,MKD,TIP,,,,050,2004-03-17T00:00:00.000,2021-03-17T17:08:36.426,9,revise,active
03700119,slgajtg,,,Harrow Market,,Harrow Market,,East Berks College,,High Street Langley,,,,opp,,NW,E0041742,Langley,,,,,,,1,UKOS,501216,179332,-0.543094,51.503867,BCT,MKD,TIP,,,,050,2004-03-17T00:00:00.000,2014-06-04T10:46:51.796,4,revise,inactive
03700120,slgajtj,,,Harrow Market,,Harrow Market,,East Berks College,,High Street Langley,,,,Stop B,,SE,E0041742,Langley,,,,,,,1,UKOS,501235,179338,-0.542818,51.503926,BCT,MKD,TIP,,,,050,2004-03-17T00:00:00.000,2014-06-05T10:10:29.715,4,revise,active
03700122,slgajtm,,,Langley Business Park,,,,Langley Business Park,,Station Road,,,,o/s,,S,E0041742,Langley,,,,,Langley,,0,UKOS,501182,179587,-0.543509,51.506173,BCT,MKD,OTH,,,,050,2005-10-06T00:00:00.000,2010-04-05T18:19:00.000,2,revise,active
03700124,slgajtp,,,Langley Business Park,,,,Langley Business Park,,Station Road,,,,opp,,N,E0041742,Langley,,,Slough,,Langley,,0,UKOS,501195,179655,-0.543303,51.506774,BCT,MKD,OTH,,,,050,2005-10-06T00:00:00.000,2010-04-05T18:19:00.000,2,revise,active
03700126,slgajtw,,,Spencer Road North,,,,Spencer Road,,Langley Road,,,,nr,,W,E0041742,Langley,,,Slough,,Langley,,0,UKOS,500850,179341,-0.548362,51.504013,BCT,MKD,OTH,,,,050,2004-12-24T00:00:00.000,2008-11-23T10:23:00.000,2,revise,active
03700127,slgajwa,,,Spencer Road North,,,,Spencer Road,,Langley Road,,,,opp,,E,E0041742,Langley,,,,,Langley,,0,UKOS,500895,179345,-0.547717,51.504045,BCT,MKD,OTH,,,,050,2004-12-24T00:00:00.000,2021-03-17T17:07:57.119,3,revise,active
03700130,slgajwd,,,St Marys Road,,,,St Marys Road,,Langley Road,,,,opp,,W,E0041742,Langley,,,Slough,,Langley,,0,UKOS,500415,179415,-0.554607,51.504756,BCT,MKD,OTH,,,,050,2004-12-24T00:00:00.000,2010-04-05T20:53:00.000,1,revise,active
03700131,slgajwg,,,St Marys Road,,,,St Marys Road,,Langley Road,,,,nr,,E,E0041742,Langley,,,Slough,,Langley,,0,UKOS,500522,179430,-0.553061,51.50488,BCT,MKD,OTH,,,,050,2004-12-24T00:00:00.000,2010-04-05T20:53:00.000,1,revise,active
03700133,slgajwj,,,Hillary Road,,,,Cockett Road,,Langley Road,,,,nr,,E,E0041742,Langley,,,Slough,,Langley,,0,UKOS,500111,179486,-0.558965,51.505448,BCT,MKD,OTH,,,,050,2003-08-28T00:00:00.000,2010-04-05T17:59:00.000,1,revise,active
03700134,slgajwm,,,Hillary Road,,,,Cockett Road,,Langley Road,,,,opp,,W,E0041742,Langley,,,Slough,,Langley,,0,UKOS,500175,179459,-0.558051,51.505194,BCT,MKD,OTH,,,,050,2003-08-28T00:00:00.000,2010-04-05T17:59:00.000,1,revise,active
03700135,slgajwp,,,Middlegreen Road,,,,Middlegreen Road,,Langley Road,,,,nr,,E,E0041742,Langley,,,Slough,,Langley,,0,UKOS,499800,179565,-0.563423,51.506213,BCT,MKD,OTH,,,,050,2003-08-28T00:00:00.000,2010-04-05T18:35:00.000,3,revise,active
03700136,slgajwt,,,Middlegreen Road,,,,Middlegreen Road,,Langley Road,,,,opp,,W,E0041742,Langley,,,Slough,,Langley,,0,UKOS,499703,179514,-0.564834,51.50578,BCT,MKD,OTH,,,,050,2003-08-28T00:00:00.000,2010-04-05T18:35:00.000,1,revise,active
03700137,slgamad,,,Hempson Avenue,,,,Hempson Avenue,,Langley Road,,,,opp,,E,E0041742,Langley,,,Slough,,Langley,,0,UKOS,499414,179514,-0.568997,51.505822,BCT,MKD,OTH,,,,050,2003-08-28T00:00:00.000,2010-04-05T17:57:00.000,1,revise,active
03700138,slgamag,,,Hempson Avenue,,,,Hempson Avenue,,Langley Road,,,,adj,,W,E0041742,Langley,,,Slough,,Langley,,0,UKOS,499380,179506,-0.569489,51.505765,BCT,MKD,OTH,,,,050,2003-08-28T00:00:00.000,2010-04-05T17:57:00.000,1,revise,active
03700139,slgamaj,,,St Bernards Convent,,,,London Road,,Langley Road,,,,opp,,SW,E0041742,Langley,,,Slough,,Langley,,0,UKOS,499113,179472,-0.573344,51.505498,BCT,MKD,OTH,,,,050,2003-08-28T00:00:00.000,2009-04-15T14:27:00.000,1,revise,active
03700140,slgamam,,,St Bernards Convent,,,,London Road,,Langley Road,,,,adj,,NE,E0041742,Langley,,,Slough,,Langley,,0,UKOS,499133,179495,-0.57305,51.505701,BCT,MKD,OTH,,,,050,2003-08-28T00:00:00.000,2009-04-15T14:27:00.000,1,revise,active
03700141,slgamap,,,Upton Court Road Junction,,,,Langley Fire Station,,Blandford Road South,,,,N-bound,,N,E0041742,Langley,,,Slough,,Langley,,0,UKOS,499751,179061,-0.564271,51.501691,BCT,MKD,OTH,,,,050,2003-08-28T00:00:00.000,2008-06-10T08:14:00.000,2,revise,active
03700142,slgamat,,,Ryvers Primary School,,,,Mortimer Road,,Trelawney Avenue,,,,opp,,W,E0041742,Langley,,,Slough,,Langley,,0,UKOS,499964,179194,-0.561165,51.502849,BCT,MKD,OTH,,,,050,2003-08-28T00:00:00.000,2019-11-26T16:19:03.849,2,revise,active
03700143,slgamaw,,,Ryvers Primary School,,,,Fox Road,,Trelawney Avenue,,,,nr,,E,E0041742,Langley,,,Slough,,Langley,,0,UKOS,500009,179191,-0.560518,51.502814,BCT,MKD,OTH,,,,050,2003-08-28T00:00:00.000,2019-11-26T16:21:48.274,2,revise,active
03700144,slgamda,,,Trelawney Ave Surgery,,,,Meadow Road,,Trelawney Avenue,,,,o/s,,E,E0041742,Langley,,,Slough,,Langley,,0,UKOS,500227,179130,-0.557396,51.502227,BCT,MKD,OTH,,,,050,2003-08-28T00:00:00.000,2010-04-05T21:37:00.000,1,revise,active
03700145,slgamdg,,,Trelawney Ave Surgery,,,,Meadow Road,,Trelawney Avenue,,,,opp,,W,E0041742,Langley,,,,,Langley,,0,UKOS,500260,179102,-0.556925,51.501973,BCT,MKD,OTH,,,,050,2003-08-28T00:00:00.000,2008-03-24T13:09:00.000,1,revise,active
03700146,slgamdj,,,Trelawney Ave Library,,,,Holy Family Church,,Trelawney Avenue,,,,opp,,E,E0041742,Langley,,,Slough,,Langley,,0,UKOS,500484,179062,-0.553713,51.501579,BCT,MKD,TIP,,,,050,2003-08-28T00:00:00.000,2010-04-05T21:36:00.000,1,revise,active
03700147,slgamdm,,,Trelawney Ave Library,,,,Holy Family Church,,Trelawney Avenue,,,,o/s,,W,E0041742,Langley,,,Slough,,Langley,,0,UKOS,500470,179051,-0.553918,51.501474,BCT,MKD,TIP,,,,050,2003-08-28T00:00:00.000,2010-04-05T21:36:00.000,1,revise,active
03700148,slgamdp,,,Spencer Road South,,,,Spencer Road,,Trelawney Avenue,,,,opp,,W,E0041742,Langley,,,Slough,,Langley,,0,UKOS,500766,178972,-0.549678,51.500711,BCT,MKD,OTH,,,,050,2003-08-28T00:00:00.000,2008-11-23T10:25:00.000,2,revise,active
03700149,slgamdt,,,Spencer Road South,,,,Spencer Road,,Trelawney Avenue,,,,nr,,E,E0041742,Langley,,,Slough,,Langley,,0,UKOS,500799,178971,-0.549202,51.500705,BCT,MKD,OTH,,,,050,2003-08-28T00:00:00.000,2008-11-23T10:25:00.000,2,revise,active
03700150,slgamdw,,,Nash Road,,,,Denny Road,,Trelawney Avenue,,,,opp,,N,E0041742,Langley,,,Slough,,Langley,,0,UKOS,500936,178760,-0.54729,51.498784,BCT,MKD,OTH,,,,050,2003-12-08T00:00:00.000,2010-04-05T18:42:00.000,1,revise,active
03700151,slgamga,,,Nash Road,,,,Nash Road,,Trelawney Avenue,,,,nr,,S,E0041742,Langley,,,Slough,,Langley,,0,UKOS,500950,178656,-0.547118,51.497838,BCT,MKD,OTH,,,,050,2003-12-08T00:00:00.000,2010-04-05T18:42:00.000,1,revise,active
03700152,slgamgd,,,Police Station,,,,High Street Langley,,Trelawney Avenue,,,,adj,,NW,E0041742,Langley,,,Slough,,Langley,,0,UKOS,500979,178483,-0.54675,51.496278,BCT,MKD,OTH,,,,050,2003-08-28T00:00:00.000,2008-03-24T13:09:00.000,1,revise,active
03700153,slgamgj,,,Wylands Road,,,,Wylands Road,,High Street Langley,,,,opp,,NE,E0041742,Langley,,,Slough,,Langley,,0,UKOS,501084,178557,-0.545217,51.496924,BCT,MKD,OTH,,,,050,2003-08-28T00:00:00.000,2010-04-05T17:38:00.000,1,revise,active
03700154,slgamgm,,,Wylands Road,,,,Wylands Road,,High Street Langley,,,,adj,,SW,E0041742,Langley,,,Slough,,Langley,,0,UKOS,501113,178577,-0.544793,51.497099,BCT,MKD,OTH,,,,050,2004-05-19T00:00:00.000,2010-04-05T17:38:00.000,1,revise,active
03700155,slgamgp,,,Crown Close,,,,Crown Meadow,,London Road,,,,adj,,NW,E0041737,Brands Hill,,,,,,,0,UKOS,502032,177470,-0.531878,51.486992,BCT,MKD,OTH,,,,050,2004-02-09T00:00:00.000,2020-09-14T14:47:50.012,4,revise,active
03700156,slgamgt,,,Crown Close,,,,Crown Meadow,,Bath Road,,,,opp,,SE,E0041737,Brands Hill,,,,,,,0,UKOS,502180,177319,-0.529791,51.485608,BCT,MKD,OTH,,,,050,2004-02-09T00:00:00.000,2020-09-14T14:48:24.369,3,revise,active
03700157,slgamgw,,,Red Lion,,,,Horton Road,,High Street Colnbrook,,,,o/s,,SE,E0057239,Colnbrook,,,Slough,,Colnbrook,,0,UKOS,502317,177191,-0.527856,51.484424,BCT,MKD,OTH,,,,050,2004-02-09T00:00:00.000,2010-04-05T18:00:00.000,1,revise,active
03700158,slgamja,,,Red Lion,,,,Horton Road,,High Street Colnbrook,,,,opp,,NW,E0057239,Colnbrook,,,Slough,,Colnbrook,,0,UKOS,502331,177173,-0.527659,51.484268,BCT,MKD,OTH,,,,050,2004-02-09T00:00:00.000,2010-04-05T18:00:00.000,1,revise,active
03700159,slgamjd,,,Ye Olde George Inn,,,,Mill Street,,High Street Colnbrook,,,,opp,,W,E0057239,Colnbrook,,,Slough,,Colnbrook,,0,UKOS,502602,177106,-0.523777,51.483617,BCT,MKD,TIP,,,,050,2004-02-09T00:00:00.000,2008-03-24T13:09:00.000,1,revise,active
03700160,slgamjg,,,Ye Olde George Inn,,,,Colnbrook Primary School,,High Street Colnbrook,,,,o/s,,E,E0057239,Colnbrook,,,Slough,,Colnbrook,,0,UKOS,502697,177107,-0.522409,51.483609,BCT,MKD,TIP,,,,050,2004-02-09T00:00:00.000,2008-03-24T13:09:00.000,1,revise,active
03700161,slgamjm,,,Star & Garter,,,,King John's Palace,,Park Street,,,,at,,NW,E0057239,Colnbrook,,,Slough,,Colnbrook,,0,UKOS,502845,176978,-0.520316,51.482414,BCT,MKD,OTH,,,,050,2004-02-11T00:00:00.000,2010-04-05T20:58:00.000,1,revise,active
03700162,slgamjp,,,Coleridge Crescent West,,,,Coleridge Crescent (west),,Bath Road,,,,nr,,SE,E0057239,Colnbrook,,,Slough,,Colnbrook,,0,UKOS,503127,176786,-0.516312,51.480645,BCT,MKD,OTH,,,,050,2006-04-05T00:00:00.000,2010-04-05T17:01:00.000,1,revise,active
03700163,slgamjt,,,Coleridge Crescent West,,,,Coleridge Crescent (west),,Bath Road,,,,opp,,NW,E0057239,Colnbrook,,,Slough,,Colnbrook,,0,UKOS,503140,176768,-0.51613,51.480481,BCT,MKD,OTH,,,,050,2006-04-05T00:00:00.000,2010-04-05T17:00:00.000,1,revise,active
03700164,slgamjw,,,Poyle Road Junction,,,,Bath Road,,Coleridge Crescent,,,,S-bound,,S,E0057239,Colnbrook,,,Slough,,Colnbrook,,0,UKOS,503332,176739,-0.513375,51.480177,BCT,MKD,TIP,,,,050,2003-08-28T00:00:00.000,2008-06-05T16:19:00.000,3,revise,active
03700165,slgampa,,,Poyle Road Junction,,,,Poyle Road,,Bath Road,,,,opp,,E,E0057239,Colnbrook,,,Slough,,Colnbrook,,0,UKOS,503356,176692,-0.513044,51.47975,BCT,MKD,OTH,,,,050,2003-08-28T00:00:00.000,2008-06-05T16:16:00.000,1,revise,active
03700166,slgampd,,,Poyle Road Junction,,,,Poyle Road,,Bath Road,,,,nr,,W,E0057239,Colnbrook,,,Slough,,Colnbrook,,0,UKOS,503392,176680,-0.512529,51.479644,BCT,MKD,OTH,,,,050,2003-08-28T00:00:00.000,2008-06-05T16:17:00.000,2,revise,active
03700167,slgampg,,,Galleymead Road,,,,Meadowbrook Close,,Bath Road,,,,nr,,E,E0057239,Colnbrook,,,Slough,,Colnbrook,,0,UKOS,503582,176655,-0.509801,51.479385,BCT,MKD,OTH,,,,050,2003-08-28T00:00:00.000,2010-04-05T17:50:00.000,1,revise,active
03700168,slgampj,,,Galleymead Road,,,,Galleymead Road,,Bath Road,,,,opp,,W,E0057239,Colnbrook,,,Slough,,Colnbrook,,0,UKOS,503688,176598,-0.508292,51.478853,BCT,MKD,OTH,,,,050,2003-08-28T00:00:00.000,2010-04-05T17:51:00.000,1,revise,active
03700169,slgampm,,,Lakeside Road,,,,Lakeside Road,,Colnbrook By-Pass,,,,opp,,W,E0057239,Colnbrook,,,,,Colnbrook,,0,UKOS,503305,177306,-0.513606,51.485283,BCT,MKD,OTH,,,,050,2003-08-28T00:00:00.000,2010-04-05T17:02:00.000,1,revise,active
03700170,slgampt,,,Coniston Crescent,,,,Coniston Crescent,,Buttermere Avenue,,,,adj,,E,N0072218,Burnham,Slough,,,,,,0,UKOS,493196,181686,-0.657989,51.526406,BCT,MKD,OTH,,,,050,2003-08-28T00:00:00.000,2023-05-03T15:49:30.946,4,revise,active
03700171,slgampw,,,Buttermere Avenue East,,,,Buttermere Avenue,,Derwent Drive,,,,opp,,S,N0072218,Burnham,Slough,,,,,,0,UKOS,493362,181631,-0.655612,51.525884,BCT,MKD,OTH,,,,050,2003-08-28T00:00:00.000,2010-12-07T10:36:55.000,3,revise,active
03700172,slgamta,,,Priory Estate Shops,,,,Anslow Place,,Windermere Way,,,,at,,N,N0072218,Burnham,Slough,,,,,,1,UKOS,493133,181627,-0.658913,51.525886,BCT,MKD,TIP,,,,050,2003-08-28T00:00:00.000,2010-12-07T10:48:12.000,2,revise,active
03700173,slgamtd,,,Stomp Corner,,,,Stomp Road,,Huntercombe Lane North,,,,S-bound,,S,N0072218,Burnham,Slough,,Slough,,Burnham,,0,UKOS,493059,181784,-0.659938,51.527309,BCT,MKD,OTH,,,,050,2003-08-28T00:00:00.000,2010-04-05T20:59:00.000,1,revise,active
03700174,slgamtg,,,Stomp Corner,,,,Priory Road,,Stomp Road,,,,N-bound,,N,N0072218,Burnham,Slough,,Slough,,Burnham,,0,UKOS,493061,181891,-0.659881,51.528271,BCT,MKD,OTH,,,,050,2003-08-28T00:00:00.000,2010-04-05T20:58:00.000,1,revise,active
03700177,slgamtj,,,Leaholme Gardens,,,,Leaholme Gardens,,Burnham Lane,,,,opp,,SE,N0072218,Burnham,Slough,,Slough,,Burnham,,0,UKOS,493582,181997,-0.652344,51.529137,BCT,MKD,OTH,,,,050,2003-08-28T00:00:00.000,2010-06-21T15:19:00.000,3,revise,active
03700178,slgamtm,,,Leaholme Gardens,,,,Leaholme Gardens,,Burnham Lane,,,,nr,,NW,N0072218,Burnham,Slough,,Slough,,Burnham,,0,UKOS,493549,182016,-0.652815,51.529314,BCT,MKD,OTH,,,,050,2003-08-28T00:00:00.000,2010-06-21T15:19:00.000,3,revise,active
03700179,slgamtp,,,Orchard Ave,,,,Orchard Avenue,,Burnham Lane,,,,nr,,NW,N0072218,Burnham,Slough,,Slough,,Burnham,,0,UKOS,493671,181890,-0.65109,51.528161,BCT,MKD,OTH,,,,050,2004-03-17T00:00:00.000,2008-05-04T15:18:00.000,2,revise,active
03700180,slgamtw,,,Crosthwaite Way,,,,Crosthwaite Way,,Burnham Lane,,,,adj,,NW,N0072218,Burnham,Slough,,,,,,0,UKOS,493829,181775,-0.648844,51.527101,BCT,MKD,OTH,,,,050,2004-05-17T00:00:00.000,2010-07-09T00:00:00.000,4,revise,active
03700181,slgamwa,,,Crosthwaite Way,,,,Crosthwaite Way,,Burnham Lane,,,,opp,,SE,N0072218,Burnham,Slough,,,,,,0,UKOS,493866,181759,-0.648315,51.526951,BCT,MKD,OTH,,,,050,2003-08-28T00:00:00.000,2010-07-09T00:00:00.000,5,revise,active
03700182,slgadag,,,Orchard Ave,,,,Lammas Road,,Burnham Lane,,,,opp,,SE,N0072218,Burnham,Slough,,Slough,,Burnham,,0,UKOS,493717,181856,-0.650436,51.527848,BCT,CUS,OTH,,,,050,2004-03-17T00:00:00.000,2008-05-04T15:19:00.000,1,revise,active
03700185,slgamwd,,,Phipps Road,,Phipps Road,,Phipps Road,,Haymill Road,,,,opp,,N,N0072218,Burnham,Slough,,,,,,0,UKOS,493851,181954,-0.648479,51.528706,BCT,MKD,OTH,,,,050,2004-08-03T00:00:00.000,2010-07-22T00:00:00.000,2,revise,active
03700186,slgadaj,,,Phipps Road,,Phipps Road,,Phipps Road,,Haymill Road,,,,adj,,S,N0072218,Burnham,Slough,,,,,,0,UKOS,493853,181989,-0.648441,51.529021,BCT,MKD,OTH,,,,050,2005-01-20T00:00:00.000,2010-07-22T00:00:00.000,2,revise,active
03700189,slgamwg,,,Ramsey Court,,,,Ramsey Court,,Lower Britwell Road,,,,opp,,NE,N0072218,Burnham,Slough,,Slough,,Burnham,,0,UKOS,493613,182142,-0.651859,51.530436,BCT,MKD,OTH,,,,050,2004-08-03T00:00:00.000,2010-06-21T15:20:00.000,8,revise,active
03700190,slgamwj,,,Ramsey Court,,,,Ramsey Court,,Lower Britwell Road,,,,adj,,SW,N0072218,Burnham,Slough,,Slough,,Burnham,,0,UKOS,493596,182110,-0.652112,51.530151,BCT,MKD,OTH,,,,050,2004-08-03T00:00:00.000,2010-06-21T15:20:00.000,8,revise,active
03700191,slgamwm,,,Priory Road flats,,,,Derwent Drive,,Priory Road,,,,nr,,SW,N0072218,Burnham,Slough,,Slough,,Burnham,,0,UKOS,493309,181968,-0.656286,51.528922,BCT,MKD,OTH,,,,050,2004-03-17T00:00:00.000,2009-05-16T09:34:00.000,1,revise,active
03700194,slgamwp,,,Derwent Drive,,,,Buttermere Avenue,,Derwent Drive,,,,o/s 100,,S,N0072218,Burnham,Slough,,Slough,,Burnham,,0,UKOS,493366,181728,-0.655528,51.526755,BCT,MKD,OTH,,,,050,2004-03-17T00:00:00.000,2023-05-03T15:27:49.366,2,revise,inactive
03700197,slgapad,,,Haymill Road,,,,Kingsley Path,,Whittaker Road,,,,W-bound,,W,E0053685,Britwell,Slough,,Slough,,Britwell,,0,UKOS,493881,182097,-0.648008,51.529987,BCT,MKD,OTH,,,,050,2005-09-12T00:00:00.000,2010-04-05T17:56:00.000,3,revise,active
03700198,slgapag,,,Haymill Road,,,,Kingsley Path,,Whittaker Road,,,,E-bound,,E,E0053685,Britwell,Slough,,Slough,,Britwell,,0,UKOS,493919,182108,-0.647458,51.530079,BCT,MKD,OTH,,,,050,2005-09-12T00:00:00.000,2010-04-05T17:56:00.000,3,revise,active
03700199,slgapaj,,,Littlebrook Avenue,,,,Littlebrook Avenue,,Whittaker Road,,,,W-bound,,W,E0053685,Britwell,Slough,,Slough,,Britwell,,0,UKOS,494026,182096,-0.645919,51.529954,BCT,MKD,OTH,,,,050,2005-09-12T00:00:00.000,2010-04-05T18:28:00.000,1,revise,active
03700200,slgadam,,,Littlebrook Avenue,,,,Littlebrook Avenue,,Whittaker Road,,,,E-bound,,E,E0053685,Britwell,Slough,,Slough,,Britwell,,0,UKOS,494065,182105,-0.645355,51.530028,BCT,CUS,OTH,,,,050,2005-09-12T00:00:00.000,2010-04-05T18:28:00.000,1,revise,active
03700201,slgapam,,,Pemberton Road,,,,Pemberton Road,,Whittaker Road,,,,adj,,E,E0053685,Britwell,Slough,,Slough,,Britwell,,0,UKOS,494267,182101,-0.642444,51.529958,BCT,MKD,OTH,,,,050,2005-09-12T00:00:00.000,2010-04-05T18:51:00.000,1,revise,active
03700202,slgapap,,,Pemberton Road,,,,Pemberton Road,,Whittaker Road,,,,opp,,W,E0053685,Britwell,Slough,,,,Britwell,,0,UKOS,494242,182094,-0.642813,51.5299,BCT,MKD,OTH,,,,050,2005-09-12T00:00:00.000,2010-04-05T18:51:00.000,1,revise,active
03700203,slgapat,,,Fairview Road,,,,Fairview Road,,Whittaker Road,,,,opp,,W,E0053685,Britwell,Slough,,Slough,,Britwell,,0,UKOS,494544,182078,-0.638458,51.529705,BCT,MKD,OTH,,,,050,2005-09-12T00:00:00.000,2010-04-05T17:30:00.000,1,revise,active
03700204,slgapaw,,,Fairview Road,,,,Fairview Road,,Whittaker Road,,,,adj,,E,E0053685,Britwell,Slough,,Slough,,Britwell,,0,UKOS,494587,182088,-0.637836,51.529788,BCT,MKD,OTH,,,,050,2005-09-12T00:00:00.000,2010-04-05T17:30:00.000,1,revise,active
03700205,slgapda,,,Scafell Road Bungalows,,,,Northmead Road,,Scafell Road,,,,o/s,,N,E0053685,Britwell,Slough,,Slough,,Britwell,,0,UKOS,494655,182022,-0.636874,51.529184,BCT,MKD,OTH,,,,050,2003-08-28T00:00:00.000,2008-03-24T13:09:00.000,1,revise,active
03700206,slgapdg,,,Teesdale Road,,,,Teesdale Road,,Scafell Road,,,,adj,,E,E0053685,Britwell,Slough,,Slough,,Britwell,,0,UKOS,494787,181882,-0.635009,51.527903,BCT,MKD,TIP,,,,050,2004-12-21T00:00:00.000,2010-04-05T21:16:00.000,2,revise,active
03700207,slgapdj,,,Teesdale Road,,,,Teesdale Road,,Scafell Road,,,,opp,,W,E0053685,Britwell,Slough,,Slough,,Britwell,,0,UKOS,494790,181871,-0.634969,51.527804,BCT,MKD,TIP,,,,050,2004-12-21T00:00:00.000,2010-04-05T21:16:00.000,2,revise,active
03700208,slgapdm,,,Pevensey Road junction,,,,Pevensey Road,,Scafell Road,,,,S-bound,,S,E0053685,Britwell,Slough,,,,,,0,UKOS,495048,181887,-0.631246,51.527904,BCT,MKD,OTH,,,,050,2003-08-28T00:00:00.000,2010-07-07T00:00:00.000,3,revise,active
03700209,slgapdp,,,Pevensey Road junction,,,,Pevensey Road,,Scafell Road,,,,N-bound,,N,E0053685,Britwell,Slough,,,,,,0,UKOS,495038,181889,-0.63139,51.527924,BCT,MKD,OTH,,,,050,2003-08-28T00:00:00.000,2010-07-07T00:00:00.000,3,revise,active
03700210,slgapdt,,,Pennine Road,,,,Pennine Road,,Pevensey Road,,,,adj,,E,E0053685,Britwell,Slough,,Slough,,Britwell,,0,UKOS,495156,181884,-0.629691,51.527859,BCT,MKD,OTH,,,,050,2003-08-28T00:00:00.000,2008-02-03T10:36:00.000,1,revise,active
03700211,slgapdw,,,Pennine Road,,,,Pennine Road,,Pevensey Road,,,,opp,,W,E0053685,Britwell,Slough,,Slough,,Britwell,,0,UKOS,495216,181858,-0.628833,51.527615,BCT,MKD,OTH,,,,050,2003-08-28T00:00:00.000,2008-02-03T10:36:00.000,1,revise,active
03700212,slgapga,,,Edinburgh Avenue,,,,Edinburgh Avenue,,Fairlie Road,,,,opp,,N,N0072216,Slough Trading Estate,Slough,,Slough,,Slough Trading Estate,,0,UKOS,495211,181661,-0.628958,51.525845,BCT,MKD,TIP,,,,050,2003-08-28T00:00:00.000,2019-09-25T08:21:13.785,3,revise,inactive
03700214,slgapgd,,,Wordsworth Road,,,,Wordsworth Road (west end),,Long Furlong Drive,,,,nr,,NW,E0053685,Britwell,Slough,,Slough,,Britwell,,0,UKOS,493967,182355,-0.6467,51.532292,BCT,MKD,OTH,,,,050,2003-08-28T00:00:00.000,2010-04-05T17:35:00.000,3,revise,active
03700215,slgapgj,,,Wordsworth Road,,,,Wordsworth Road (east end),,Long Furlong Drive,,,,opp,,SE,E0053685,Britwell,Slough,,Slough,,Britwell,,0,UKOS,494037,182338,-0.645696,51.532127,BCT,MKD,OTH,,,,050,2004-08-03T00:00:00.000,2010-04-05T17:35:00.000,2,revise,active
03700216,slgapgm,,,Lynch Pin PH,,,,Coverdale Way,,Long Furlong Drive,,,,opp,,W,E0053685,Britwell,Slough,,Slough,,Britwell,,0,UKOS,494310,182342,-0.64176,51.532118,BCT,MKD,OTH,,,,050,2004-08-03T00:00:00.000,2008-02-03T10:38:00.000,1,revise,active
03700217,slgapgp,,,Lynch Pin PH,,,,Downing Path,,Long Furlong Drive,,,,nr,,E,E0053685,Britwell,Slough,,Slough,,Britwell,,0,UKOS,494381,182348,-0.640735,51.53216,BCT,MKD,OTH,,,,050,2003-08-28T00:00:00.000,2008-02-03T10:39:00.000,1,revise,active
03700218,slgapgt,,,St George's Church,,,,Cecil Way,,Long Furlong Drive,,,,o/s 225,,W,E0053685,Britwell,Slough,,Slough,,Britwell,,0,UKOS,494597,182346,-0.637623,51.532106,BCT,MKD,OTH,,,,050,2003-08-28T00:00:00.000,2008-03-24T13:09:00.000,1,revise,active
03700219,slgapgw,,,St George's Church,,,,Pemberton Road,,Long Furlong Drive,,,,o/s 226,,E,E0053685,Britwell,Slough,,Slough,,Britwell,,0,UKOS,494638,182363,-0.637027,51.532252,BCT,MKD,OTH,,,,050,2004-05-17T00:00:00.000,2008-03-24T13:09:00.000,1,revise,active
03700226,slgapja,,,Hawkshill Road,,,,Hawkshill Road,,Doddsfield Road,,,,adj,,N,E0053685,Britwell,Slough,,Slough,,Britwell,,0,UKOS,495431,182677,-0.625513,51.534941,BCT,MKD,OTH,,,,050,2004-02-11T00:00:00.000,2010-04-05T17:55:00.000,3,revise,active
03700227,slgapjd,,,Hawkshill Road,,,,Hawkshill Road,,Doddsfield Road,,,,opp,,S,E0053685,Britwell,Slough,,Slough,,Britwell,,0,UKOS,495437,182660,-0.625431,51.534787,BCT,MKD,OTH,,,,050,2003-08-28T00:00:00.000,2010-04-05T17:55:00.000,3,revise,active
03700228,slgapjg,,,Claycots Primary School,,,,Long Readings Lane,,Monksfield Way,,,,adj,,W,E0053685,Britwell,Slough,,Slough,,Britwell,,0,UKOS,495543,182534,-0.623937,51.533637,BCT,MKD,OTH,,,,050,2003-08-28T00:00:00.000,2010-04-05T18:38:00.000,1,revise,active
03700229,slgapjm,,,Claycots Primary School,,,,Long Readings Lane,,Monksfield Way,,,,opp,,E,E0053685,Britwell,Slough,,Slough,,Britwell,,0,UKOS,495511,182547,-0.624395,51.533759,BCT,MKD,OTH,,,,050,2003-08-28T00:00:00.000,2010-04-05T18:38:00.000,1,revise,active
03700230,slgapjp,,,Doddsfield Road,,,,Elmar Green,,Doddsfield Road,,,,o/s 97,,W,E0053685,Britwell,Slough,,Slough,,Britwell,,0,UKOS,495393,182922,-0.625994,51.53715,BCT,MKD,OTH,,,,050,2003-08-28T00:00:00.000,2008-03-24T12:59:00.000,1,revise,active
03700231,slgapjt,,,Doddsfield Road,,,,Elmar Green,,Doddsfield Road,,,,o/s 80,,E,E0053685,Britwell,Slough,,Slough,,Britwell,,0,UKOS,495414,182928,-0.62569,51.5372,BCT,MKD,OTH,,,,050,2003-08-28T00:00:00.000,2008-03-24T12:59:00.000,1,revise,active
03700232,slgapjw,,,Kidderminster Road,,,,Kidderminster Road,,Doddsfield Road,,,,adj,,E,E0053685,Britwell,Slough,,Slough,,Britwell,,0,UKOS,495186,182933,-0.628975,51.537283,BCT,MKD,OTH,,,,050,2003-08-28T00:00:00.000,2010-04-05T18:06:00.000,3,revise,active
03700233,slgapma,,,Kidderminster Road,,,,Kidderminster Road,,Doddsfield Road,,,,opp,,W,E0053685,Britwell,Slough,,Slough,,Britwell,,0,UKOS,495119,182924,-0.629943,51.537214,BCT,MKD,OTH,,,,050,2003-08-28T00:00:00.000,2010-04-05T18:06:00.000,3,revise,active
03700234,slgapmd,,,Ex Servicemen's Club,,,,Ex Servicemens Club,,Wentworth Avenue,,,,o/s,,S,E0053685,Britwell,Slough,,Slough,,Britwell,,0,UKOS,495094,182825,-0.63033,51.536328,BCT,MKD,OTH,,,,050,2003-08-28T00:00:00.000,2014-12-19T08:40:15.786,3,revise,inactive
03700235,slgapmg,,,Britwell Shopping Centre,,,,Ravenworth Road,,Wentworth Avenue,,,,at,,W,E0053685,Britwell,Slough,,,,,,1,UKOS,495072,182759,-0.630665,51.535738,BCT,MKD,TIP,,,,050,2003-08-28T00:00:00.000,2014-10-30T08:12:09.005,3,revise,inactive
03700236,slgapmj,,,Wentworth Avenue,,,,Long Furlong Drive,,Wentworth Avenue,,,,o/s 16,,S,E0053685,Britwell,Slough,,Slough,,Britwell,,0,UKOS,495066,182445,-0.630836,51.532917,BCT,MKD,OTH,,,,050,2003-08-28T00:00:00.000,2014-10-30T08:11:27.675,3,revise,active
03700237,slgapmp,,,Wentworth Avenue,,,,Long Furlong Drive,,Wentworth Avenue,,,,o/s 3,,N,E0053685,Britwell,Slough,,Slough,,Britwell,,0,UKOS,495057,182400,-0.630978,51.532514,BCT,MKD,OTH,,,,050,2004-05-17T00:00:00.000,2014-10-15T19:21:16.377,2,revise,inactive
03700238,slgapmt,,,Cowper Road,,,,path to Crofthill Road,,Long Readings Lane,,,,nr,,N,E0053685,Britwell,Slough,,Slough,,Britwell,,0,UKOS,495583,182249,-0.623438,51.531068,BCT,MKD,OTH,,,,050,2003-08-28T00:00:00.000,2008-11-23T10:17:00.000,3,revise,active
03700239,slgapmw,,,Cowper Road,,,,path to Crofthill Road,,Long Readings Lane,,,,opp,,S,E0053685,Britwell,Slough,,,,Britwell,,0,UKOS,495593,182145,-0.623318,51.530131,BCT,MKD,OTH,,,,050,2003-08-28T00:00:00.000,2008-11-23T10:18:00.000,2,revise,active
03700240,slgapta,,,Franklin Ave Playground,,,,Franklin Avenue,,Northborough Road,,,,o/s,,W,E0053685,Britwell,Slough,,Slough,,Britwell,,0,UKOS,495640,182037,-0.622674,51.529153,BCT,MKD,OTH,,,,050,2003-08-28T00:00:00.000,2010-04-05T17:49:00.000,2,revise,active
03700241,slgaptd,,,Trevose House,,,,Farnham Road,,Northborough Road,,,,opp,,E,E0053685,Britwell,Slough,,Slough,,Britwell,,0,UKOS,495889,182062,-0.619079,51.529335,BCT,MKD,OTH,,,,050,2005-09-12T00:00:00.000,2010-04-05T21:38:00.000,2,revise,active
03700242,slgaptg,,,Trevose House,,,,Farnham Road,,Northborough Road,,,,o/s,,W,E0053685,Britwell,Slough,,Slough,,Britwell,,0,UKOS,495929,182061,-0.618503,51.529319,BCT,MKD,OTH,,,,050,2005-09-12T00:00:00.000,2010-04-05T21:38:00.000,1,revise,active
03700248,slgdgpw,,,Bedford Avenue,,,,Bedford Avenue,,Dover Road,,,,opp,,N,N0072216,Slough Trading Estate,Slough,,Slough,,Slough Trading Estate,,0,UKOS,494912,181296,-0.6333654,51.5226143,BCT,MKD,OTH,,,,050,2003-08-28T00:00:00.000,2014-06-05T09:22:33.424,5,revise,inactive
03700249,slgaptp,,,Bedford Avenue,,,,Bedford Avenue,,Dover Road,,,,nr,,S,N0072216,Slough Trading Estate,Slough,,Slough,,,,0,UKOS,494913,181221,-0.633371,51.52194,BCT,MKD,OTH,,,,050,2004-02-09T00:00:00.000,2013-09-12T09:00:35.000,3,revise,inactive
03700251,slgaptw,,,Dover Road,,,,Dover Road,,Bath Road,,,,E-bound,,SE,N0072216,Slough Trading Estate,Slough,,Slough,,Slough Trading Estate,,0,UKOS,494971,180959,-0.632606,51.519575,BCT,MKD,TIP,,,,050,2004-02-09T00:00:00.000,2010-04-05T17:19:00.000,2,revise,active
03700252,slgapwa,,,Westgate Retail Park,,,,Westgate Retail Park,,Bath Road,,,,opp,,SE,N0072216,Slough Trading Estate,Slough,,Slough,,Slough Trading Estate,,0,UKOS,495324,180709,-0.627587,51.517268,BCT,MKD,OTH,,,,050,2004-02-09T00:00:00.000,2008-05-29T07:31:00.000,2,revise,active
03700253,slgapwd,,,Leigh Road,,,,Leigh Road,,Bath Road,,,,nr,,SE,N0072216,Slough Trading Estate,Slough,,Slough,,Slough Trading Estate,,0,UKOS,495618,180534,-0.623399,51.515646,BCT,MKD,OTH,,,,050,2005-09-12T00:00:00.000,2010-06-21T14:54:00.000,4,revise,active
03700254,slgapwg,,,Twinches Lane North,,,,Twinches Lane,,Bath Road,,,,opp,,SE,N0072216,Slough Trading Estate,Slough,,Slough,,Slough Trading Estate,,0,UKOS,495824,180433,-0.620458,51.514703,BCT,MKD,OTH,,,,050,2003-08-28T00:00:00.000,2008-11-23T09:31:00.000,1,revise,active
03700255,slgapwj,,,Salt Hill Three Tuns,,,,Salt Hill Avenue,,Bath Road,,,,E-bound,,E,N0072216,Slough Trading Estate,Slough,,Slough,,Slough Trading Estate,,0,UKOS,496305,180230,-0.613584,51.512796,BCT,MKD,TIP,,,,050,2003-08-28T00:00:00.000,2010-04-05T19:04:00.000,2,revise,active
03700256,slgapwm,,,Salt Hill Three Tuns,,,,Salt Hill Drive,,Farnham Road,,,,N-bound,,N,N0072216,Slough Trading Estate,Slough,,Slough,,Slough Trading Estate,,0,UKOS,496365,180306,-0.612699,51.513469,BCT,MKD,TIP,,,,050,2003-08-28T00:00:00.000,2010-04-05T19:04:00.000,1,revise,active
03700257,slgapwp,,,Bestobell Road,,,,Bestobell Road,,Buckingham Avenue,,,,opp,,W,N0072216,Slough Trading Estate,Slough,,Slough,,Slough Trading Estate,,0,UKOS,496003,181061,-0.617709,51.520318,BCT,MKD,TIP,,,,050,2004-05-19T00:00:00.000,2010-04-05T16:16:00.000,4,revise,active
03700258,slgapwt,,,Bestobell Road,,,,Bestobell Road,,Buckingham Avenue,,,,nr,,E,N0072216,Slough Trading Estate,Slough,,Slough,,Slough Trading Estate,,0,UKOS,495977,181079,-0.618078,51.520484,BCT,MKD,TIP,,,,050,2003-08-28T00:00:00.000,2010-04-05T16:17:00.000,3,revise,active
03700261,slgatad,,,Liverpool Road,,,,Bradford Road,,Buckingham Avenue,,,,W-bound,,NW,N0072216,Slough Trading Estate,Slough,,Slough,,Slough Trading Estate,,0,UKOS,495514,181191,-0.624719,51.521569,BCT,MKD,OTH,,,,050,2005-07-06T00:00:00.000,2010-04-05T16:34:00.000,2,revise,active
03700262,slgatag,,,Liverpool Road,,,,Bradford Road,,Buckingham Avenue,,,,E-bound,,SE,N0072216,Slough Trading Estate,Slough,,Slough,,Slough Trading Estate,,0,UKOS,495545,181193,-0.624272,51.521582,BCT,MKD,OTH,,,,050,2005-07-06T00:00:00.000,2010-04-05T16:33:00.000,2,revise,active
03700263,slgataj,,,Hamilton Road,,,,Hamilton Road,,Buckingham Avenue,,,,opp,,SE,N0072216,Slough Trading Estate,Slough,,Slough,,Slough Trading Estate,,0,UKOS,495274,181298,-0.628149,51.522571,BCT,MKD,OTH,,,,050,2004-02-09T00:00:00.000,2008-11-23T10:06:00.000,4,revise,active
03700264,slgatam,,,Hamilton Road,,,,Hamilton Road,,Buckingham Avenue,,,,nr,,NW,N0072216,Slough Trading Estate,Slough,,Slough,,Slough Trading Estate,,0,UKOS,495239,181294,-0.628654,51.522541,BCT,MKD,OTH,,,,050,2003-08-28T00:00:00.000,2008-11-23T10:07:00.000,3,revise,active
03700265,slgatap,,,Trumper Way,,,,Trumper Way,,Earls Lane,,,,nr,,NE,E0041739,Cippenham,Slough,,Slough,,Cippenham,,0,UKOS,494830,180374,-0.634795,51.51434,BCT,MKD,OTH,,,,050,2003-08-28T00:00:00.000,2010-04-05T21:39:00.000,2,revise,active
03700266,slgatat,,,Earls Lane Play Area,,,,cul de sac to nos 33-47,,Earls Lane,,,,o/s 49,,W,E0041739,Cippenham,Slough,,Slough,,Cippenham,,0,UKOS,494783,180229,-0.635511,51.513045,BCT,MKD,OTH,,,,050,2004-02-09T00:00:00.000,2008-03-24T12:59:00.000,1,revise,active
03700267,slgataw,,,Earls Lane Play Area,,,,cul de sac to nos 33-47,,Earls Lane,,,,o/s 22,,E,E0041739,Cippenham,Slough,,Slough,,Cippenham,,0,UKOS,494767,180238,-0.635739,51.513128,BCT,MKD,OTH,,,,050,2004-02-09T00:00:00.000,2008-03-24T12:59:00.000,1,revise,active
03700268,slgatda,,,Streamside,,,,shelter,,Streamside,,,,southbound,,S,E0041739,Cippenham,Slough,,,,,,0,UKOS,494543,180107,-0.639001,51.511988,BCT,MKD,TIP,,,,050,2003-08-28T00:00:00.000,2011-10-12T16:32:44.000,2,revise,active
03700269,slgatdg,,,Earls Lane Community Centre,,,,Waterman Court,,Earls Lane,,,,o/s,,E,E0041739,Cippenham,Slough,,,,,,0,UKOS,494491,180128,-0.639745,51.512185,BCT,MKD,TIP,,,,050,2003-08-28T00:00:00.000,2011-10-12T16:31:57.000,3,revise,active
03700270,slgatdj,,,Manor Court,,,,Manor Court,,Richards Way,,,,adj,,NE,E0041739,Cippenham,Slough,,Slough,,Cippenham,,0,UKOS,494668,180089,-0.6372052,51.5118053,BCT,MKD,OTH,,,,050,2003-08-28T00:00:00.000,2014-06-05T09:22:57.308,3,revise,inactive
03700271,slgatdm,,,Plaines Close,,,,Plaines Close,,Richards Way,,,,nr,,W,E0041739,Cippenham,Slough,,Slough,,Cippenham,,0,UKOS,494860,180036,-0.6344535,51.5112967,BCT,MKD,OTH,,,,050,2003-08-28T00:00:00.000,2023-02-13T07:13:54.977,5,revise,active
03700272,slgatdp,,,Plaines Close,,,,Plaines Close,,Richards Way,,,,opp,,E,E0041739,Cippenham,Slough,,Slough,,Cippenham,,0,UKOS,494973,180056,-0.6328202,51.5114575,BCT,MKD,OTH,,,,050,2003-08-28T00:00:00.000,2014-06-05T09:23:40.507,4,revise,inactive
03700273,slgatdt,,,Braemar Gardens,,,,Braemar Gardens,,Telford Drive,,,,adj,,S,E0041739,Cippenham,Slough,,Slough,,Cippenham,,0,UKOS,495270,179837,-0.628601,51.509439,BCT,MKD,OTH,,,,050,2004-05-19T00:00:00.000,2008-10-26T10:02:00.000,1,revise,active
03700274,slgatdw,,,Braemar Gardens,,,,Braemar Gardens,,Telford Drive,,,,opp,,N,E0041739,Cippenham,Slough,,Slough,,Cippenham,,0,UKOS,495260,179816,-0.62875,51.509252,BCT,MKD,OTH,,,,050,2003-08-28T00:00:00.000,2008-10-26T10:02:00.000,1,revise,active
03700275,slgatga,,,Telford Drive ASDA,,,,Telford Drive,,ASDA,,,,o/s,,NW,E0041739,Cippenham,Slough,,,,,,0,UKOS,495239,179617,-0.629107,51.507467,BCT,MKD,TIP,,,,050,2003-08-28T00:00:00.000,2010-08-03T00:00:00.000,3,revise,active
03700276,slgatgd,,,Raleigh Close,,,,Raleigh Close,,Telford Drive,,,,adj,,NE,E0041739,Cippenham,Slough,,Slough,,Cippenham,,0,UKOS,495309,180034,-0.627986,51.511203,BCT,MKD,OTH,,,,050,2003-08-28T00:00:00.000,2010-04-05T21:43:00.000,2,revise,active
03700277,slgatgj,,,Raleigh Close,,,,Raleigh Close,,Telford Drive,,,,opp,,SW,E0041739,Cippenham,Slough,,Slough,,Cippenham,,0,UKOS,495415,180087,-0.626444,51.511662,BCT,MKD,OTH,,,,050,2003-08-28T00:00:00.000,2010-04-05T21:42:00.000,2,revise,active
03700280,slgatgm,,,Bentley Road,,,,Bentley Drive,,Cippenham Lane,,,,opp,,SE,E0041739,Cippenham,Slough,,Slough,,Cippenham,,0,UKOS,495148,180404,-0.6302053,51.5145563,BCT,MKD,OTH,,,,050,2003-08-28T00:00:00.000,2014-06-05T09:24:00.668,2,revise,inactive
03700281,slgatgp,,,Bentley Road,,,,Bentley Drive,,Cippenham Lane,,,,nr,,NW,E0041739,Cippenham,Slough,,Slough,,Cippenham,,0,UKOS,495158,180379,-0.6300680,51.5143299,BCT,MKD,OTH,,,,050,2003-08-28T00:00:00.000,2014-06-05T09:24:18.102,3,revise,inactive
03700282,slgatgt,,,Westgate School,,,,Richards Way,,Cippenham Lane,,,,nr,,SE,E0041739,Cippenham,Slough,,Slough,,Cippenham,,0,UKOS,495295,180282,-0.6281204,51.5134349,BCT,MKD,OTH,,,,050,2004-05-19T00:00:00.000,2014-06-05T09:24:34.749,2,revise,inactive
03700283,slgatgw,,,Twinches Lane South,,,,Weekes Drive,,Cippenham Lane,,,,nr,,E,E0041738,Chalvey,Slough,,Slough,,Cippenham,,0,UKOS,495551,180202,-0.624454,51.512673,BCT,MKD,OTH,,,,050,2003-08-28T00:00:00.000,2008-11-23T09:34:00.000,5,revise,active
03700284,slgatja,,,Cress Road,,,,Cress Road,,Keel Drive,,,,opp,,S,E0041738,Chalvey,Slough,,Slough,,Chalvey,,0,UKOS,495927,179989,-0.619095,51.510694,BCT,MKD,OTH,,,,050,2003-08-28T00:00:00.000,2010-04-05T17:09:00.000,3,revise,active
03700285,slgatjd,,,Cress Road,,,,Cress Road,,Keel Drive,,,,adj,,N,E0041738,Chalvey,Slough,,Slough,,Chalvey,,0,UKOS,495912,179959,-0.619319,51.510427,BCT,MKD,OTH,,,,050,2003-08-28T00:00:00.000,2010-04-05T17:09:00.000,3,revise,active
03700286,slgatjg,,,Lodge Close,,,,Lodge Close,,Keel Drive,,,,opp,,W,E0041738,Chalvey,Slough,,Slough,,Chalvey,,0,UKOS,496075,179851,-0.617001,51.509429,BCT,MKD,OTH,,,,050,2003-08-28T00:00:00.000,2010-04-05T18:29:00.000,3,revise,active
03700287,slgatjm,,,Lodge Close,,,,Lodge Close,,Keel Drive,,,,nr,,E,E0041738,Chalvey,Slough,,Slough,,Chalvey,,0,UKOS,496112,179845,-0.616469,51.509368,BCT,MKD,OTH,,,,050,2003-08-28T00:00:00.000,2010-04-05T18:29:00.000,3,revise,active
03700288,slgatjp,,,Paxton Avenue,,,,Paxton Avenue,,Keel Drive,,,,adj,,NW,E0041738,Chalvey,Slough,,Slough,,Chalvey,,0,UKOS,496207,179553,-0.61518,51.506727,BCT,MKD,OTH,,,,050,2005-09-12T00:00:00.000,2008-12-14T17:41:00.000,5,revise,active
03700289,slgatjt,,,Paxton Avenue,,,,Paxton Avenue,,Keel Drive,,,,opp,,E,E0041738,Chalvey,Slough,,Slough,,Chalvey,,0,UKOS,496275,179539,-0.614205,51.50659,BCT,MKD,OTH,,,,050,2003-08-28T00:00:00.000,2008-02-05T23:41:00.000,3,revise,active
03700290,slgatjw,,,Grove Academy,,,,Ladbrooke Road,,High Street Chalvey,,,,W-bound,,W,E0041738,Chalvey,Slough,,Slough,,Chalvey,,0,UKOS,496515,179356,-0.610798,51.504904,BCT,MKD,OTH,,,,050,2003-08-28T00:00:00.000,2020-12-15T09:15:17.496,2,revise,active
03700291,slgatma,,,Grove Academy,,,,Spackmans Way,,High Street Chalvey,,,,E-bound,,E,E0041738,Chalvey,Slough,,Slough,,Chalvey,,0,UKOS,496593,179382,-0.609667,51.505125,BCT,MKD,OTH,,,,050,2003-08-28T00:00:00.000,2020-12-15T09:16:48.933,2,revise,active
03700292,slgatmd,,,Church Street,,,,Newberry Way,,Church Street,,,,opp 25,,SE,E0041738,Chalvey,Slough,,Slough,,Chalvey,,0,UKOS,496645,179632,-0.60885,51.507363,BCT,MKD,OTH,,,,050,2003-08-28T00:00:00.000,2019-09-25T08:20:40.933,2,revise,inactive
03700293,slgatmg,,,Church Street,,,,Turtle Way,,High Street Chalvey,,,,southbound,,SW,E0041738,Chalvey,Slough,,Slough,,Chalvey,,1,UKOS,496760,179502,-0.607229,51.506175,BCT,MKD,TIP,,,,050,2003-08-28T00:00:00.000,2016-08-17T09:48:45.564,3,revise,active
03700294,slgatmj,,,Church Street,,,,The Fields,,Chalvey Road West,,,,opp,,E,E0041738,Chalvey,Slough,,,,Chalvey,,1,UKOS,496842,179563,-0.60604,51.506715,BCT,MKD,TIP,,,,050,2003-08-28T00:00:00.000,2016-08-17T09:51:40.000,2,revise,active
03700295,slgatmp,,,Ledgers Road Methodist Church,,,,Chalvey Road West,,Ledgers Road,,,,o/s,,N,E0041738,Chalvey,Slough,,Slough,,Chalvey,,0,UKOS,496961,179609,-0.6043040,51.5071021,BCT,MKD,OTH,,,,050,2004-03-17T00:00:00.000,2014-05-19T08:30:38.716,2,revise,inactive
03700296,slgatmt,,,Town Hall,,,,Ellis Avenue,,Ledgers Road,,,,adj,,N,E0041738,Chalvey,Slough,,,,,,0,UKOS,497022,179961,-0.603329,51.510256,BCT,MKD,OTH,,,,050,2004-03-17T00:00:00.000,2011-11-03T12:56:13.000,3,revise,inactive
03700297,slgatmw,,,Town Hall,,,,Ellis Avenue,,Ledgers Road,,,,opp,,S,E0041738,Chalvey,Slough,,,,,,0,UKOS,497026,179928,-0.60328,51.509958,BCT,MKD,OTH,,,,050,2004-03-17T00:00:00.000,2011-11-03T12:57:04.000,4,revise,inactive
03700298,slgatpa,,,Twinches Lane South,,,,Twinches Lane,,Cippenham Lane,,,,opp,,NW,E0041738,Chalvey,Slough,,Slough,,Chalvey,,0,UKOS,495730,180142,-0.621892,51.512103,BCT,MKD,OTH,,,,050,2003-12-08T00:00:00.000,2008-11-23T09:34:00.000,3,revise,active
03700299,slgatpd,,,Riverside Park,,,,Mathisen Way,,Poyle Road,,,,S-bound,,S,E0057239,Colnbrook,,,Slough,,Colnbrook,,0,UKOS,503252,176562,-0.514578,51.478609,BCT,MKD,OTH,,,,050,2003-12-08T00:00:00.000,2010-04-05T19:02:00.000,1,revise,active
03700300,slgadap,,,Riverside Park,,,,Mathisen Way,,Poyle Road,,,,N-bound,,N,E0057239,Colnbrook,,,Slough,,Colnbrook,,0,UKOS,503241,176571,-0.514734,51.478692,BCT,CUS,OTH,,,,050,2003-12-08T00:00:00.000,2019-02-25T11:28:35.001,2,revise,inactive
03700301,slgadat,,,Colndale Road,,,,Colndale Road,,Poyle Road,,,,nr,,S,E0053687,Poyle,,,,,,,0,UKOS,503096,176231,-0.51692,51.475662,BCT,MKD,OTH,,,,050,2003-08-28T00:00:00.000,2013-02-11T07:48:20.000,2,revise,active
03700302,slgatpg,,,Colndale Road,,,,Colndale Road,,Poyle Road,,,,opp,,N,E0053687,Poyle,,,Slough,,Poyle,,0,UKOS,503087,176237,-0.517048,51.475718,BCT,MKD,OTH,,,,050,2003-08-28T00:00:00.000,2010-04-05T17:03:00.000,1,revise,active
03700303,slgatpj,,,Golden Cross Roundabout,,,,Poyle Road,,Horton Road,,,,on,,SW,E0053687,Poyle,,,Slough,,Poyle,,0,UKOS,503063,175659,-0.517562,51.470527,BCT,MKD,OTH,,,,050,2003-08-28T00:00:00.000,2010-04-05T17:52:00.000,1,revise,active
03700304,slgatpm,,,Moreland Avenue,,,,Moreland Avenue,,Horton Road,,,,nr,,SW,E0057239,Colnbrook,,,Slough,,Colnbrook,,0,UKOS,502034,177136,-0.531946,51.483981,BCT,MKD,OTH,,,,050,2003-08-28T00:00:00.000,2007-06-06T20:34:00.000,2,revise,active
03700305,slgadaw,,,The Myrke,,,,The Myrke,,Datchet Road,,,,opp,,S,E0041748,Upton,Slough,,Slough,,Upton,,0,UKOS,497979,178574,-0.589927,51.497623,BCT,CUS,OTH,,,,050,2003-08-28T00:00:00.000,2010-04-05T21:22:00.000,1,revise,active
03700306,slgadga,,,The Myrke,,,,The Myrke,,Datchet Road,,,,adj,,N,E0041748,Upton,Slough,,Slough,,Upton,,0,UKOS,497939,178642,-0.590485,51.498241,BCT,CUS,OTH,,,,050,2003-08-28T00:00:00.000,2010-04-05T21:22:00.000,1,revise,active
03700308,slgatpw,,,Slough Grammar School,,,,Lascelles Road,,Sussex Place,,,,o/s,,NW,E0041742,Langley,,,Slough,,Langley,,0,UKOS,498833,179517,-0.577365,51.505951,BCT,MKD,OTH,,,,050,2003-08-28T00:00:00.000,2010-04-05T21:00:00.000,1,revise,active
03700309,slgatwa,,,Uxbridge Road Sainsbury's,,Sainsbury's,,Dolphin Road,,Wellington Street,,,,adj,,SE,E0041742,Langley,,,,,,,0,UKOS,498728,179604,-0.578853,51.506752,BCT,MKD,OTH,,,,050,2003-08-28T00:00:00.000,2012-02-27T14:36:00.000,3,revise,active
03700310,slgatwd,,,Sorting Office,,Sorting Office,,Wexham Road,,Wellington Street,,,,Stop K,,W,N0072213,Slough Town Centre,Slough,,,,,,0,UKOS,498274,179851,-0.585325,51.509059,BCT,MKD,TIP,,,,050,2006-04-05T00:00:00.000,2012-05-01T11:36:00.000,2,revise,active
03700311,slgatwg,,,Sorting Office,,Sorting Office,,Wexham Road,,Wellington Street,,,,Stop J,,E,N0072213,Slough Town Centre,Slough,,,,,,0,UKOS,498239,179877,-0.585821,51.509291,BCT,MKD,TIP,,,,050,2006-04-05T00:00:00.000,2012-05-01T11:36:23.000,2,revise,active
03700314,slgatwj,,,Upton Hospital,,,,Church Street,,Albert Street,,,,o/s,,SE,N0072213,Slough Town Centre,Slough,,Slough,,Town Centre,,0,UKOS,497699,179389,-0.5937344,51.5049975,BCT,MKD,OTH,,,,050,2003-08-28T00:00:00.000,2023-05-03T15:07:12.569,4,revise,inactive
03700315,slgatwm,,,Upton Hospital,,,,Kenilworth Court,,Mere Road,,,,opp,,NW,N0072213,Slough Town Centre,Slough,,Slough,,Town Centre,,0,UKOS,497871,179266,-0.5912910,51.5038622,BCT,MKD,OTH,,,,050,2004-02-09T00:00:00.000,2023-05-03T15:07:36.901,4,revise,inactive
03700316,slgatwp,,,Albert Street,,,,Upton Hospital,,Windsor Road,,,,nr,,SW,E0041738,Chalvey,Slough,,Slough,,Chalvey,,0,UKOS,497380,179404,-0.598325,51.505187,BCT,MKD,OTH,,,,050,2004-02-09T00:00:00.000,2010-04-05T16:06:00.000,1,revise,active
03700317,slgatwt,,,Albert Street,,,,Upton Hospital,,Windsor Road,,,,opp,,NE,E0041738,Chalvey,Slough,,Slough,,Chalvey,,0,UKOS,497365,179404,-0.598541,51.50519,BCT,MKD,OTH,,,,050,2004-12-07T00:00:00.000,2010-04-05T16:05:00.000,1,revise,active
03700318,slgawad,,,Windsor Road McDonalds,,,,Ragstone Road,,Windsor Road,,,,opp,,SW,E0041738,Chalvey,Slough,,Slough,,Chalvey,,0,UKOS,497279,179141,-0.599852,51.502841,BCT,MKD,TIP,,,,050,2004-12-07T00:00:00.000,2008-03-24T13:09:00.000,1,revise,active
03700319,slgawag,,,Windsor Road McDonalds,,,,Ragstone Road,,Windsor Road,,,,o/s,,NE,E0041738,Chalvey,Slough,,Slough,,Chalvey,,0,UKOS,497260,179161,-0.60012,51.503024,BCT,MKD,TIP,,,,050,2003-08-28T00:00:00.000,2008-03-24T13:09:00.000,1,revise,active
03700320,,,,Slough Bus Station,,,,William Street,,Wellington Street,,,,west entrance,,,N0072213,Slough Town Centre,Slough,,,,,,0,UKOS,497696,180019,-0.593603,51.510661,BCE,,,,,,050,2005-01-11T00:00:00.000,2011-07-18T09:01:45.000,2,revise,inactive
03700321,,,,Slough Bus Station,,,,Bus Station Entrance,,Wellington Street,,,,entrance,,,N0072213,Slough Town Centre,Slough,,,,,,0,UKOS,497720,180014,-0.593259,51.510612,BCE,,,,,,050,2005-01-11T00:00:00.000,2011-07-18T09:06:23.000,2,revise,inactive
03700322,,,,Slough Bus Station,,,,Bus Station Entrance,,Wellington Street,,,,east entrance,,,N0072213,Slough Town Centre,Slough,,,,,,0,UKOS,497756,180007,-0.592742,51.510543,BCE,,,,,,050,2005-01-11T00:00:00.000,2011-07-18T09:06:46.000,2,revise,inactive
03700323,slgawaj,,,Wellington Street Stop A,,,,Brunel Way,,Wellington Street,,,,Stop A,,E,N0072213,Slough Town Centre,Slough,,,,,,0,UKOS,497721,180009,-0.593246,51.510567,BCT,MKD,TIP,,,,050,2004-10-06T00:00:00.000,2023-04-19T14:18:17.174,12,revise,active
03700324,slgawam,,,Wellington Street Stop B,,,,Brunel Way,,Wellington Street,,,,Stop B,,E,N0072213,Slough Town Centre,Slough,,,,,,0,UKOS,497684,180015,-0.59378,51.510631,BCT,MKD,TIP,,,,050,2004-10-06T00:00:00.000,2023-04-19T14:17:54.902,11,revise,active
03700325,slgawap,,,Wellington Street Stop C,,,,Brunel Way,,Wellington Street,,,,Stop C,,E,N0072213,Slough Town Centre,Slough,,,,,,0,UKOS,497631,180028,-0.59454,51.510757,BCT,MKD,TIP,,,,050,2003-08-28T00:00:00.000,2023-04-19T14:17:40.548,12,revise,active
03700326,,,,Slough Bus Station,,,,Wellington Street,,Brunel Way,,,,Stop B,,,N0072213,Slough Town Centre,Slough,,,,,,0,UKOS,497797,180051,-0.592139,51.510931,BCE,,,,,,050,2005-01-11T00:00:00.000,2016-08-19T10:31:10.001,4,revise,inactive
03700327,,,,Slough Bus Station,,,,Wellington Street,,Brunel Way,,,,o/s Tesco,,,N0072213,Slough Town Centre,Slough,,Slough,,Town Centre,,0,UKOS,497825,180056,-0.591735,51.510971,TXR,,,,,,050,2005-01-11T00:00:00.000,2016-09-20T13:29:57.000,2,revise,active
03700328,,,,Slough Station,,,,Station entrance,,Brunel Way,,,,o/s main entrance,,,N0072213,Slough Town Centre,Slough,,,,,,0,UKOS,497822,180139,-0.591755,51.511718,TXR,,,,,,050,2005-01-11T00:00:00.000,2005-01-11T00:00:00.000,0,new,active
03700329,,,,Queensmere Centre,,,,Queensmere Shopping Ctr,,High Street,,,,o/s shopping centre,,,N0072213,Slough Town Centre,Slough,,Slough,,Town Centre,,0,UKOS,497733,179835,-0.593121,51.509001,TXR,,,,,,050,2006-04-05T00:00:00.000,2020-01-10T13:59:14.380,4,revise,active
03700330,slgawat,,,Queensmere Centre,,,,Queensmere Shopping Ctr,,High Street,,,,Stop P,,E,N0072213,Slough Town Centre,Slough,,,,,,0,UKOS,497653,179852,-0.59427,51.50917,BCT,MKD,OTH,,,,050,2006-04-05T00:00:00.000,2010-07-30T00:00:00.000,2,revise,active
03700331,slgawaw,,,Queensmere Centre,,,,Queensmere Shopping Ctr,,High Street,,,,stop PQ,,E,N0072213,Slough Town Centre,Slough,,Slough,,Town Centre,,0,UKOS,497678,179853,-0.593908,51.509172,BCT,MKD,OTH,,,,050,2006-04-05T00:00:00.000,2022-11-04T07:19:25.884,3,revise,active
03700333,slgawdg,,,Queensmere Centre,,,,Queensmere Shopping Ctr,,High Street,,,,stop R,,E,N0072213,Slough Town Centre,Slough,,,,,,0,UKOS,497632,179863,-0.594568,51.50927,BCT,MKD,TIP,,,,050,2006-04-05T00:00:00.000,2012-05-01T11:15:47.000,2,revise,inactive
03700334,slgawdj,,,Landmark Place,,Landmark Place,,Herschel Street,,Windsor Road,,,,Stop V,,N,N0072213,Slough Town Centre,Slough,,,,,,0,UKOS,497497,179708,-0.596556,51.5079,BCT,MKD,OTH,,,,050,2003-08-28T00:00:00.000,2012-05-01T11:12:02.000,4,revise,active
03700335,slgawdm,,,Wellington Street stop E,,Library,,Windsor Road,,Wellington Street,,,,Stop E,,W,N0072213,Slough Town Centre,Slough,,,,,,0,UKOS,497530,179980,-0.596008,51.510343,BCT,MKD,OTH,,,,050,2006-04-05T00:00:00.000,2023-04-19T14:20:16.101,6,revise,active
03700336,slgawdp,,,Wellington Street Stop F,,Library,,Windsor Road,,Wellington Street,,,,Stop F,,W,N0072213,Slough Town Centre,Slough,,,,,,0,UKOS,497487,179985,-0.596626,51.510398,BCT,MKD,OTH,,,,050,2006-04-05T00:00:00.000,2023-04-19T14:20:45.735,4,revise,active
03700337,slgawdt,,,Wellington Street stop W,,Library,,Windsor Road,,Wellington Street,,,,Stop W,,E,N0072213,Slough Town Centre,Slough,,,,,,0,UKOS,497485,180014,-0.59664,51.51066,BCT,MKD,OTH,,,,050,2006-04-05T00:00:00.000,2023-04-19T14:16:23.273,3,revise,active
03700338,slgawdw,,,Wellington Street Stop G,,Queensmere,,Queensmere Shopping Ctr,,Wellington Street,,,,stop G,,W,N0072213,Slough Town Centre,Slough,,,,,,0,UKOS,497734,179965,-0.593071,51.510169,BCT,MKD,TIP,,,,050,2003-08-28T00:00:00.000,2023-04-19T14:19:46.834,4,revise,active
03700339,,,,Queensmere Taxi Rank,,,,Queensmere Shopping Ctr,,Wellington Street,,,,,,,N0072213,Slough Town Centre,Slough,,,,,,0,UKOS,497760,179962,-0.592697,51.510138,TXR,,,,,,050,2005-01-11T00:00:00.000,2012-05-24T16:37:52.000,3,revise,inactive
03700340,slgawga,,,Wellington Street Stop H,,Queensmere Car Park,,Queensmere Shopping Ctr,,Wellington Street,,,,Stop H,,W,N0072213,Slough Town Centre,Slough,,,,,,0,UKOS,497923,179928,-0.590358,51.509804,BCT,MKD,OTH,,,,050,2004-05-19T00:00:00.000,2023-04-19T14:19:03.482,4,revise,active
03700343,,,,Observatory,,,,Observatory Shopping Centre,,Queensmere Road,,,,rear of shopping centre,,,N0072213,Slough Town Centre,Slough,,,,,,0,UKOS,498037,179832,-0.588743,51.508921,TXR,,,,,,050,2005-01-11T00:00:00.000,2005-01-11T00:00:00.000,0,new,active
03700344,slgawgj,,,Observatory Centre,,Observatory Centre,,Observatory Shopping Centre,,High Street,,,,Stop M,,E,N0072213,Slough Town Centre,Slough,,,,,,1,UKOS,498068,179703,-0.588332,51.507756,BCT,MKD,TIP,,,,050,2006-04-05T00:00:00.000,2020-01-10T14:00:49.623,4,revise,active
03700345,slgawgm,,,Wexham Road,,Wexham Road,,Wexham Road,,High Street,,,,Stop L,,E,N0072213,Slough Town Centre,Slough,,,,,,0,UKOS,498198,179674,-0.586468,51.507473,BCT,MKD,TIP,,,,050,2006-04-05T00:00:00.000,2020-01-10T14:01:29.439,5,revise,active
03700346,,,,The Grove,,,,Bishops Road,,The Grove,,,,s of High Street jct,,,N0072213,Slough Town Centre,Slough,,,,,,0,UKOS,498120,179657,-0.587596,51.507334,TXR,,,,,,050,2005-01-11T00:00:00.000,2005-01-11T00:00:00.000,0,new,active
03700347,slgawgp,,,Herschel Street,,Herschel Street,,Park Street,,Herschel Street,,,,Stop N,,E,N0072213,Slough Town Centre,Slough,,,,,,0,UKOS,497872,179654,-0.591169,51.50735,BCT,MKD,OTH,,,,050,2003-08-28T00:00:00.000,2020-01-10T14:00:01.292,5,revise,active
03700348,slgawgt,,,Queens Road,,Queens Road,,Mill Street,,Stoke Road,,,,nr,,N,N0072214,Elliman,Slough,,,,,,0,UKOS,497791,180490,-0.592101,51.514881,BCT,MKD,OTH,,,,050,2003-08-28T00:00:00.000,2012-05-01T11:30:13.000,3,revise,active
03700349,slgawgw,,,Queens Road,,Queens Road,,Queens Road,,Stoke Road,,,,opp,,S,N0072214,Elliman,Slough,,,,,,0,UKOS,497822,180528,-0.591647,51.515215,BCT,MKD,OTH,,,,050,2004-02-09T00:00:00.000,2012-05-01T11:30:20.000,3,revise,active
03700350,slgawja,,,Montague Road,,,,Montague Road,,Stoke Road,,,,nr,,N,N0072214,Elliman,Slough,,Slough,,Upton Lea,,0,UKOS,497870,180663,-0.590918,51.51642,BCT,MKD,OTH,,,,050,2004-02-09T00:00:00.000,2010-06-24T07:46:00.000,4,revise,active
03700351,slgawjd,,,Shaggy Calf Lane,,,,Shaggy Calf Lane,,Stoke Road,,,,adj,,S,N0072214,Elliman,Slough,,,,,,0,UKOS,497939,180789,-0.589889,51.517541,BCT,MKD,OTH,,,,050,2004-02-09T00:00:00.000,2010-07-28T00:00:00.000,4,revise,active
03700352,slgawjg,,,Shaggy Calf Lane,,,,Shaggy Calf Lane,,Stoke Road,,,,nr,,N,N0072214,Elliman,Slough,,,,,,0,UKOS,497941,180896,-0.58983,51.518502,BCT,MKD,OTH,,,,050,2003-08-28T00:00:00.000,2010-07-28T00:00:00.000,4,revise,active
03700356,slgawjm,,,St Andrews Way,,,,St Andrews Way,,Bath Road,,,,opp,,E,E0041739,Cippenham,Slough,,Slough,,Cippenham,,0,UKOS,493822,181013,-0.649147,51.520252,BCT,MKD,TIP,,,,050,2003-08-28T00:00:00.000,2010-04-05T20:43:00.000,2,revise,active
03700357,slgawjp,,,Everitts Corner,,,,Station Road Burnham,,Bath Road,,,,E-bound,,E,E0041739,Cippenham,Slough,,Slough,,Cippenham,,0,UKOS,494163,180980,-0.644243,51.519899,BCT,MKD,OTH,,,,050,2003-08-28T00:00:00.000,2010-04-05T17:28:00.000,1,revise,active
03700358,slgawjt,,,Burnham Lane,,,,Brook Path,,Bath Road,,,,nr,,E,E0041739,Cippenham,Slough,,Slough,,Cippenham,,0,UKOS,494486,181066,-0.639565,51.520618,BCT,MKD,OTH,,,,050,2003-08-28T00:00:00.000,2008-05-24T16:39:00.000,1,revise,active
03700366,slgawjw,,,Berkshire Avenue,,,,Berkshire Avenue,,Bestobell Road,,,,opp,,S,N0072216,Slough Trading Estate,Slough,,Slough,,Slough Trading Estate,,0,UKOS,496067,181223,-0.616742,51.521763,BCT,MKD,OTH,,,,050,2004-08-03T00:00:00.000,2010-04-05T16:18:00.000,2,revise,active
03700367,slgawma,,,Berkshire Avenue,,,,Edinburgh Avenue,,Bestobell Road,,,,adj,,N,N0072216,Slough Trading Estate,Slough,,,,,,0,UKOS,496052,181272,-0.616945,51.522206,BCT,MKD,OTH,,,,050,2004-08-03T00:00:00.000,2010-07-15T00:00:00.000,3,revise,active
03700369,slgawmd,,,Buckingham Avenue Centre,,,,Buckingham Avenue,,Farnham Road,,,,opp,,N,N0072216,Slough Trading Estate,Slough,,Slough,,Slough Trading Estate,,0,UKOS,496166,181088,-0.615353,51.520533,BCT,MKD,OTH,,,,050,2004-08-03T00:00:00.000,2010-04-05T16:30:00.000,2,revise,active
03700370,slgawmg,,,Farnham Road PO,,,,Montrose Avenue,,Farnham Road,,,,opp,,N,N0072216,Slough Trading Estate,Slough,,,,Slough Trading Estate,,0,UKOS,496137,181551,-0.615639,51.524707,BCT,MKD,OTH,,,,050,2004-08-03T00:00:00.000,2024-01-24T06:53:20.482,4,revise,active
03700371,slgawmj,,,Lidl,,,,Hampshire Avenue,,Farnham Road,,,,N-bound,,N,E0053685,Britwell,Slough,,Slough,,Britwell,,0,UKOS,496095,181742,-0.616197,51.526424,BCT,MKD,TIP,,,,050,2004-08-03T00:00:00.000,2010-04-05T17:26:00.000,2,revise,active
03700372,slgawmp,,,Crofthill Road,,,,Crofthill Road,,Farnham Road,,,,adj,,N,E0053685,Britwell,Slough,,Slough,,Britwell,,0,UKOS,495984,182279,-0.617651,51.53127,BCT,MKD,OTH,,,,050,2004-02-09T00:00:00.000,2008-11-23T10:21:00.000,3,revise,active
03700373,slgawmt,,,Crofthill Road,,,,Crofthill Road,,Farnham Road,,,,opp,,S,E0053685,Britwell,Slough,,Slough,,Britwell,,0,UKOS,495993,182321,-0.61751,51.531646,BCT,MKD,OTH,,,,050,2004-02-09T00:00:00.000,2008-11-23T10:21:00.000,3,revise,active
03700374,slgawmw,,,St Anthonys RC Church,,,,St Anthonys Church,,Farnham Road,,,,nr,,S,E0053685,Britwell,Slough,,Slough,,Britwell,,0,UKOS,495978,182634,-0.617641,51.534462,BCT,MKD,OTH,,,,050,2003-08-28T00:00:00.000,2010-04-05T20:46:00.000,2,revise,active
03700375,slgawpa,,,St Anthonys RC Church,,,,St Anthonys Church,,Farnham Road,,,,opp,,N,E0053685,Britwell,Slough,,Slough,,Britwell,,0,UKOS,495953,182665,-0.617992,51.534745,BCT,MKD,OTH,,,,050,2003-08-28T00:00:00.000,2010-04-05T20:47:00.000,2,revise,active
03700376,slgawpd,,,Lidl,,,,Essex Avenue,,Farnham Road,,,,S-bound,,S,E0053685,Britwell,Slough,,Slough,,Britwell,,0,UKOS,496108,181804,-0.615993,51.526979,BCT,MKD,TIP,,,,050,2003-08-28T00:00:00.000,2010-04-05T17:27:00.000,2,revise,active
03700377,slgawpg,,,Farnham Road PO,,,,Gloucester Avenue,,Farnham Road,,,,o/s,,S,N0072216,Slough Trading Estate,Slough,,Slough,,Slough Trading Estate,,0,UKOS,496172,181407,-0.615179,51.523399,BCT,MKD,OTH,,,,050,2003-08-28T00:00:00.000,2008-11-23T09:38:00.000,4,revise,active
03700379,slgawpj,,,Buckingham Avenue Centre,,,,Buckingham Avenue,,Farnham Road,,,,o/s,,S,N0072216,Slough Trading Estate,Slough,,Slough,,Slough Trading Estate,,0,UKOS,496194,180980,-0.614979,51.519557,BCT,MKD,OTH,,,,050,2003-08-28T00:00:00.000,2010-04-05T16:31:00.000,2,revise,active
03700380,slgawpm,,,Salt Hill Three Tuns,,,,Salt Hill Drive,,Farnham Road,,,,S-bound,,S,N0072216,Slough Trading Estate,Slough,,Slough,,Slough Trading Estate,,0,UKOS,496389,180300,-0.612355,51.513411,BCT,MKD,TIP,,,,050,2003-08-28T00:00:00.000,2010-04-05T19:05:00.000,2,revise,active
03700381,slgawpt,,,Windmill Road,,,,Windmill Road,,Bath Road,,,,adj,,SE,N0072215,Baylis,Slough,,Slough,,,,0,UKOS,496626,180133,-0.608986,51.51187,BCT,MKD,OTH,,,,050,2003-08-28T00:00:00.000,2014-01-07T15:40:48.000,4,revise,active
03700382,slgawpw,,,Salt Hill Park,,,,Stoke Poges Lane,,BATH ROAD,,,,adj,,E,E0041738,Chalvey,Slough,,Slough,,Chalvey,,0,UKOS,496963,180116,-0.604133,51.511662,BCT,MKD,OTH,,,,050,2003-08-28T00:00:00.000,2015-03-19T13:10:02.067,2,revise,active
03700383,slgawta,,,Myrtle Crescent,,,,Myrtle Crescent,,Elliman Avenue,,,,opp,,W,N0072214,Elliman,Slough,,Slough,,Elliman,,0,UKOS,497851,180840,-0.591143,51.518014,BCT,MKD,OTH,,,,050,2003-08-28T00:00:00.000,2008-05-04T15:24:00.000,2,revise,active
03700384,slgawtd,,,Myrtle Crescent,,,,Myrtle Crescent,,Elliman Avenue,,,,nr,,E,N0072214,Elliman,Slough,,Slough,,Elliman,,0,UKOS,497792,180858,-0.591988,51.518186,BCT,MKD,OTH,,,,050,2003-08-28T00:00:00.000,2008-05-04T15:25:00.000,2,revise,active
03700385,slgawtg,,,Shackleton Road,,,,Shackleton Road,,Elliman Avenue,,,,E-bound,,E,N0072214,Elliman,Slough,,Slough,,Elliman,,0,UKOS,497632,180880,-0.594287,51.518412,BCT,MKD,OTH,,,,050,2003-08-28T00:00:00.000,2008-05-04T15:27:00.000,2,revise,active
03700386,slgawtj,,,Shackleton Road,,,,Shackleton Road,,Elliman Avenue,,,,W-bound,,W,N0072214,Elliman,Slough,,Slough,,Elliman,,0,UKOS,497591,180875,-0.594879,51.518374,BCT,MKD,OTH,,,,050,2003-08-28T00:00:00.000,2008-05-04T15:27:00.000,2,revise,active
03700387,slgawtm,,,Elliman Avenue,,Elliman Ave,,Ismay Court,,Elliman Avenue,,,,o/s 135,,SE,N0072214,Elliman,Slough,,,,,,0,UKOS,497343,180955,-0.59843,51.519136,BCT,MKD,OTH,,,,050,2003-08-28T00:00:00.000,2010-07-22T00:00:00.000,3,revise,active
03700388,slgawtp,,,Elliman Avenue,,Elliman Ave,,Ismay Court,,Elliman Avenue,,,,o/s 124,,NW,N0072214,Elliman,Slough,,,,,,0,UKOS,497373,180931,-0.598005,51.518915,BCT,MKD,OTH,,,,050,2003-08-28T00:00:00.000,2010-07-22T00:00:00.000,3,revise,active
03700389,slgawtw,,,Oatlands Drive,,,,Hughenden Road,,Oatlands Drive,,,,o/s 47,,NW,N0072215,Baylis,Slough,,,,Baylis,,0,UKOS,496947,181167,-0.604076,51.521113,BCT,MKD,OTH,,,,050,2003-08-28T00:00:00.000,2008-03-24T13:09:00.000,1,revise,active
03700390,slgdada,,,Oatlands Drive,,,,Lytcham Spur,,Oatlands Drive,,,,o/s 86,,SE,N0072215,Baylis,Slough,,Slough,,Baylis,,0,UKOS,496924,181186,-0.604404,51.521284,BCT,MKD,OTH,,,,050,2003-08-28T00:00:00.000,2008-03-24T13:09:00.000,1,revise,active
03700392,slgdadg,,,Godolphin Junior School,,,,cinder track Farnham - Town,,Oatlands Drive,,,,o/s,,E,N0072215,Baylis,Slough,,Slough,,Baylis,,0,UKOS,496586,181341,-0.609232,51.522735,BCT,MKD,OTH,,,,050,2003-08-28T00:00:00.000,2008-03-24T12:59:00.000,1,revise,active
03700393,slgdadj,,,Godolphin Junior School,,,,cinder track Farnham - Town,,Oatlands Drive,,,,opp,,W,N0072215,Baylis,Slough,,Slough,,Baylis,,0,UKOS,496556,181327,-0.609668,51.522615,BCT,MKD,OTH,,,,050,2003-08-28T00:00:00.000,2010-04-05T17:51:00.000,1,revise,active
03700394,slgdadm,,,Northampton Avenue,,,,Northampton Avenue,,Sheffield Road,,,,E-bound,,E,N0072215,Baylis,Slough,,Slough,,Baylis,,0,UKOS,496369,181321,-0.612364,51.522593,BCT,MKD,OTH,,,,050,2004-07-21T00:00:00.000,2010-04-05T18:43:00.000,2,revise,active
03700395,slgdadp,,,Northampton Avenue,,,,Melbourne Avenue,,Sheffield Road,,,,W-bound,,W,N0072215,Baylis,Slough,,Slough,,Baylis,,0,UKOS,496287,181300,-0.613551,51.522418,BCT,MKD,OTH,,,,050,2003-08-28T00:00:00.000,2010-04-05T18:43:00.000,2,revise,active
03700396,slgdadt,,,Salisbury Avenue,,,,,,Essex Avenue,,,,W-bound,,W,E0041745,Manor Park,Slough,,Slough,,Manor Park,,0,UKOS,496157,181884,-0.615265,51.527689,BCT,MKD,TIP,,,,050,2005-09-12T00:00:00.000,2008-05-24T16:46:00.000,1,revise,active
03700397,slgdadw,,,Salisbury Avenue,,,,Salisbury Avenue,,Essex Avenue,,,,E-bound,,E,E0041745,Manor Park,Slough,,Slough,,Manor Park,,0,UKOS,496160,181896,-0.615219,51.527797,BCT,MKD,TIP,,,,050,2005-09-12T00:00:00.000,2008-05-24T16:43:00.000,1,revise,active
03700398,slgdaga,,,Canterbury Avenue,,,,Canterbury Avenue,,Essex Avenue,,,,E-bound,,E,E0041745,Manor Park,Slough,,Slough,,Manor Park,,0,UKOS,496467,181946,-0.610781,51.528194,BCT,MKD,OTH,,,,050,2003-08-28T00:00:00.000,2010-04-05T16:39:00.000,1,revise,active
03700399,slgdagd,,,Canterbury Avenue,,,,Canterbury Avenue,,Villiers Road,,,,W-bound,,W,E0041745,Manor Park,Slough,,Slough,,Manor Park,,0,UKOS,496535,181948,-0.6098,51.5282,BCT,MKD,OTH,,,,050,2003-08-28T00:00:00.000,2010-04-05T16:41:00.000,1,revise,active
03700400,slgdagj,,,St Elmo Crescent,,,,St Elmos Crescent,,Villiers Road,,,,opp,,W,E0041745,Manor Park,Slough,,,,,,1,UKOS,496821,181999,-0.605668,51.528615,BCT,MKD,TIP,,,,050,2005-09-12T00:00:00.000,2011-11-03T09:24:15.000,2,revise,active
03700401,slgdagm,,,St Elmo Crescent,,,,St Elmos Crescent,,Villiers Road,,,,adj,,E,E0041745,Manor Park,Slough,,,,Manor Park,,1,UKOS,496866,182009,-0.605015,51.528698,BCT,MKD,TIP,,,,050,2005-09-12T00:00:00.000,2010-04-05T20:48:00.000,1,revise,active
03700402,slgdagp,,,Beechwood Road,,,,Beechwood Road,,Northern Road,,,,nr,,NW,E0041745,Manor Park,Slough,,Slough,,Manor Park,,0,UKOS,497019,181986,-0.602815,51.528459,BCT,MKD,OTH,,,,050,2004-05-19T00:00:00.000,2010-04-05T16:09:00.000,3,revise,active
03700403,slgdagt,,,Beechwood Road,,,,Beechwood Road,,Northern Road,,,,opp,,SE,E0041745,Manor Park,Slough,,Slough,,Manor Park,,0,UKOS,497049,181989,-0.602382,51.528481,BCT,MKD,OTH,,,,050,2003-08-28T00:00:00.000,2010-04-05T16:09:00.000,3,revise,active
03700404,slgdagw,,,Whiteford Road,,,,Whiteford Road,,Northern Road,,,,adj,,NW,E0041745,Manor Park,Slough,,Slough,,Manor Park,,0,UKOS,497323,181901,-0.598457,51.527643,BCT,MKD,OTH,,,,050,2003-08-28T00:00:00.000,2010-04-05T17:33:00.000,1,revise,active
03700405,slgdaja,,,Whiteford Road,,,,Whiteford Road,,Northern Road,,,,opp,,SE,E0041745,Manor Park,Slough,,Slough,,Manor Park,,0,UKOS,497344,181906,-0.598153,51.527684,BCT,MKD,OTH,,,,050,2004-03-17T00:00:00.000,2010-04-05T17:33:00.000,1,revise,active
03700406,slgdajd,,,Cherry Picker PH,,,,Granville Avenue,,Stoke Poges Lane,,,,nr,,N,E0041745,Manor Park,Slough,,Slough,,Manor Park,,0,UKOS,497388,181691,-0.597579,51.525744,BCT,MKD,OTH,,,,050,2004-03-17T00:00:00.000,2008-10-26T10:02:00.000,2,revise,active
03700407,slgdajg,,,Cherry Picker PH,,,,Hawthorne Crescent,,Stoke Poges Lane,,,,opp,,S,E0041745,Manor Park,Slough,,Slough,,Manor Park,,0,UKOS,497374,181599,-0.597806,51.524919,BCT,MKD,OTH,,,,050,2003-08-28T00:00:00.000,2010-04-05T16:56:00.000,3,revise,active
03700408,slgdajm,,,Stoke Poges Lane,,,,Stoke Poges Lane middle,,Stoke Poges Lane,,,,o/s 184,,N,N0072215,Baylis,Slough,,Slough,,Baylis,,0,UKOS,497319,181365,-0.598663,51.522825,BCT,MKD,OTH,,,,050,2003-08-28T00:00:00.000,2007-12-10T11:28:00.000,1,revise,active
03700409,slgdajp,,,Stoke Poges Lane,,,,Stoke Poges Lane middle,,Stoke Poges Lane,,,,o/s 137,,S,N0072215,Baylis,Slough,,Slough,,Baylis,,0,UKOS,497329,181348,-0.598523,51.522671,BCT,MKD,OTH,,,,050,2003-08-28T00:00:00.000,2007-12-10T11:28:00.000,1,revise,active
03700410,slgdajt,,,Lismore Park,,,,allotments,,Stoke Road,,,,opp,,S,N0072214,Elliman,Slough,,,,,,0,UKOS,497947,181129,-0.589679,51.520595,BCT,MKD,OTH,,,,050,2003-08-28T00:00:00.000,2011-11-03T09:27:59.000,2,revise,active
03700411,slgdajw,,,Lismore Park,,,,allotments,,Stoke Road,,,,adj,,N,N0072214,Elliman,Slough,,,,,,0,UKOS,497935,181209,-0.58983,51.521317,BCT,MKD,OTH,,,,050,2003-08-28T00:00:00.000,2011-11-03T09:30:12.000,3,revise,active
03700419,slgdama,,,Hampden Road,,,,Romsey Close,,Spencer Road,,,,opp,,SW,E0041742,Langley,,,Slough,,Langley,,0,UKOS,500886,179123,-0.547906,51.502047,BCT,MKD,OTH,,,,050,2003-08-28T00:00:00.000,2010-04-05T20:40:00.000,1,revise,active
03700420,slgdamd,,,Cockett Road,,,,Gosling Road,,Cockett Road,,,,o/s 31,,N,E0041742,Langley,,,Slough,,Langley,,0,UKOS,500201,179403,-0.557693,51.504686,BCT,MKD,OTH,,,,050,2003-08-28T00:00:00.000,2008-10-26T10:02:00.000,2,revise,active
03700422,slgadgd,,,Red Lion,,,,Langley Road,,St Mary's Road,,,,opp,,S,E0041742,Langley,,,Slough,,Langley,,0,UKOS,500459,179488,-0.553952,51.505404,BCT,CUS,OTH,,,,050,2003-08-28T00:00:00.000,2010-04-05T18:58:00.000,3,revise,active
03700423,slgadgj,,,Red Lion,,,,Langley Road,,St Mary's Road,,,,o/s,,N,E0041742,Langley,,,Slough,,Langley,,0,UKOS,500447,179508,-0.554119,51.505586,BCT,CUS,OTH,,,,050,2003-08-28T00:00:00.000,2010-04-05T18:58:00.000,4,revise,active
03700424,slgadgm,,,The Chestnuts,,,,Maryside,,St Mary's Road,,,,opp,,NW,E0041742,Langley,,,Slough,,Langley,,0,UKOS,500426,179693,-0.554369,51.507253,BCT,CUS,OTH,,,,050,2003-08-28T00:00:00.000,2008-12-14T17:37:00.000,3,revise,active
03700425,slgadgp,,,The Chestnuts,,,,Maryside,,St Mary's Road,,,,o/s,,SE,E0041742,Langley,,,Slough,,Langley,,0,UKOS,500441,179692,-0.554154,51.507241,BCT,CUS,OTH,,,,050,2003-08-28T00:00:00.000,2008-12-14T17:37:00.000,3,revise,active
03700427,slgdamg,,,Dawes Moor Close,,,,Dawes Moor Close,,Uxbridge Road,,,,opp,,SW,N0072211,Wexham Court,Slough,,Slough,,Wexham Court,,0,UKOS,499562,181065,-0.566428,51.519738,BCT,MKD,OTH,,,,050,2006-04-05T00:00:00.000,2010-04-05T17:11:00.000,1,revise,active
03700428,slgdamj,,,Dawes Moor Close,,,,Dawes Moor Close,,Uxbridge Road,,,,nr,,NE,N0072211,Wexham Court,Slough,,Slough,,Wexham Court,,0,UKOS,499559,181104,-0.56646,51.520089,BCT,MKD,OTH,,,,050,2006-04-05T00:00:00.000,2010-04-05T17:12:00.000,3,revise,active
03700429,slgdamp,,,Gala Bingo Hall,,,,Ledgers Road,,Bath Road,,,,o/s,,NW,N0072214,Elliman,Slough,,Slough,,Elliman,,0,UKOS,497161,180031,-0.601307,51.510861,BCT,MKD,OTH,,,,050,2003-08-28T00:00:00.000,2010-04-05T17:50:00.000,1,revise,active
03700430,slgdamt,,,Salt Hill Park,,,,Ledgers Road,,Bath Road,,,,opp,,W,E0041738,Chalvey,Slough,,Slough,,Baylis,,0,UKOS,496923,180073,-0.604724,51.51128,BCT,MKD,OTH,,,,050,2003-08-28T00:00:00.000,2015-03-19T13:12:03.900,3,revise,active
03700431,slgdamw,,,Windmill Road,,,,Windmill Road,,Bath Road,,,,opp,,W,N0072215,Baylis,Slough,,Slough,,Baylis,,0,UKOS,496585,180122,-0.60958,51.511778,BCT,MKD,OTH,,,,050,2003-08-28T00:00:00.000,2010-04-05T17:34:00.000,2,revise,active
03700432,slgdapa,,,Salt Hill Three Tuns,,,,Glenworth Place,,Bath Road,,,,W-bound,,NW,N0072216,Slough Trading Estate,Slough,,,,Slough Trading Estate,,0,UKOS,496262,180225,-0.614202,51.512761,BCT,MKD,TIP,,,,050,2005-09-12T00:00:00.000,2010-04-05T19:05:00.000,1,revise,active
03700433,slgdapd,,,Twinches Lane North,,,,Twinches Lane,,Bath Road,,,,nr,,NW,N0072216,Slough Trading Estate,Slough,,Slough,,Slough Trading Estate,,0,UKOS,495835,180410,-0.620306,51.514494,BCT,MKD,OTH,,,,050,2003-08-28T00:00:00.000,2010-06-21T14:54:00.000,2,revise,active
03700434,slgdapg,,,Leigh Road,,,,Leigh Road,,Bath Road,,,,opp,,NW,N0072216,Slough Trading Estate,Slough,,Slough,,Slough Trading Estate,,0,UKOS,495453,180610,-0.625755,51.516357,BCT,MKD,OTH,,,,050,2005-09-12T00:00:00.000,2010-04-05T18:21:00.000,2,revise,active
03700435,slgdapj,,,Westgate Retail Park,,,,Westgate Retail Park,,Bath Road,,,,adj,,NW,N0072216,Slough Trading Estate,Slough,,Slough,,Slough Trading Estate,,0,UKOS,495183,180791,-0.629597,51.518029,BCT,MKD,OTH,,,,050,2003-08-28T00:00:00.000,2008-02-03T09:47:00.000,1,revise,active
03700436,slgdapm,,,Dover Road,,,,Dover Road,,Bath Road,,,,W-bound,,NW,N0072216,Slough Trading Estate,Slough,,,,Slough Trading Estate,,0,UKOS,494832,181000,-0.634601,51.519967,BCT,MKD,TIP,,,,050,2003-08-28T00:00:00.000,2010-04-05T17:19:00.000,2,revise,active
03700437,slgdapt,,,Burnham Lane,,,,Brook Path,,Bath Road,,,,opp,,W,E0041739,Cippenham,Slough,,Slough,,Cippenham,,0,UKOS,494440,181038,-0.640236,51.520374,BCT,MKD,OTH,,,,050,2003-08-28T00:00:00.000,2008-05-24T16:39:00.000,1,revise,active
03700438,slgdapw,,,Everitts Corner,,,,Elmshott Lane,,Bath Road,,,,W-bound,,W,E0041739,Cippenham,Slough,,Slough,,Cippenham,,0,UKOS,494033,180998,-0.646111,51.520082,BCT,MKD,OTH,,,,050,2005-09-12T00:00:00.000,2010-04-05T17:28:00.000,2,revise,active
03700439,slgdata,,,Chalvey Grove,,,,Chalvey Grove,,Telford Drive,,,,W-bound,,NW,E0041738,Chalvey,Slough,,Slough,,Chalvey,,0,UKOS,495924,179513,-0.6192677,51.5064160,BCT,MKD,OTH,,,,050,2003-08-28T00:00:00.000,2014-06-05T09:26:11.139,5,revise,inactive
03700441,slgadgt,,,Scafell Road Bungalows,,,,Northmead Road,,Scafell Road,,,,opp,,S,E0053685,Britwell,Slough,,Slough,,Britwell,,0,UKOS,494666,182023,-0.636715,51.529191,BCT,CUS,OTH,,,,050,2003-08-28T00:00:00.000,2016-08-15T15:23:24.380,2,revise,active
03700442,slgdatd,,,Manor Court,,,,Marcia Court,,Richards Way,,,,opp,,W,E0041739,Cippenham,Slough,,Slough,,Cippenham,,0,UKOS,494612,180049,-0.6380227,51.5114551,BCT,MKD,OTH,,,,050,2003-08-28T00:00:00.000,2014-06-05T09:26:26.825,4,revise,inactive
03700443,slgdatg,,,Landmark Place,,Landmark Place,,High Street,,Windsor Road,,,,Stop S,,S,N0072213,Slough Town Centre,Slough,,,,,,0,UKOS,497559,179807,-0.595635,51.508779,BCT,MKD,OTH,,,,050,2003-08-28T00:00:00.000,2012-05-01T11:11:01.000,2,revise,active
03700444,slgadja,,,Brunel Bus Station,,,,William Street,,Wellington Street,,,,Bay 1,,,N0072213,Slough Town Centre,Slough,,,,,,0,UKOS,497749,180020,-0.592839,51.510661,BCS,,PPT,,,,050,2003-08-28T00:00:00.000,2011-05-23T08:37:40.000,3,revise,inactive
03700445,slgadjd,,,Brunel Bus Station,,,,William Street,,Wellington Street,,,,Bay 2,,,N0072213,Slough Town Centre,Slough,,,,,,0,UKOS,497732,180023,-0.593084,51.510691,BCS,,PPT,,,,050,2003-08-28T00:00:00.000,2011-05-23T08:39:52.000,3,revise,inactive
03700446,slgadjg,,,Brunel Bus Station,,,,William Street,,Wellington Street,,,,Bay 3,,,N0072213,Slough Town Centre,Slough,,,,,,0,UKOS,497715,180026,-0.593328,51.510721,BCS,,PPT,,,,050,2003-08-28T00:00:00.000,2011-05-23T08:40:22.000,3,revise,inactive
03700447,slgadjm,,,Brunel Bus Station,,,,William Street,,Wellington Street,,,,Bay 4,,,N0072213,Slough Town Centre,Slough,,,,,,0,UKOS,497698,180030,-0.593571,51.51076,BCS,,PPT,,,,050,2004-05-19T00:00:00.000,2011-05-23T08:40:46.000,3,revise,inactive
03700448,slgadjp,,,Brunel Bus Station,,,,William Street,,Wellington Street,,,,Bay 5,,,N0072213,Slough Town Centre,Slough,,,,,,0,UKOS,497752,180034,-0.592792,51.510786,BCS,,PPT,,,,050,2003-12-08T00:00:00.000,2011-05-23T08:41:44.000,4,revise,inactive
03700449,slgadjt,,,Brunel Bus Station,,,,William Street,,Wellington Street,,,,Bay 6,,,N0072213,Slough Town Centre,Slough,,,,,,0,UKOS,497737,180037,-0.593008,51.510816,BCS,,PPT,,,,050,2003-08-28T00:00:00.000,2011-05-23T08:36:07.000,4,revise,inactive
03700450,slgadjw,,,Brunel Bus Station,,,,William Street,,Wellington Street,,,,Bay 7,,,N0072213,Slough Town Centre,Slough,,,,,,0,UKOS,497724,180041,-0.593194,51.510854,BCS,,PPT,,,,050,2003-08-28T00:00:00.000,2011-05-23T08:42:09.000,4,revise,inactive
03700451,slgadma,,,Brunel Bus Station,,,,William Street,,Wellington Street,,,,Bay 8,,,N0072213,Slough Town Centre,Slough,,,,,,0,UKOS,497710,180044,-0.593395,51.510883,BCS,,PPT,,,,050,2003-08-28T00:00:00.000,2011-05-23T08:42:44.000,4,revise,inactive
03700452,slgadmd,,,Brunel Bus Station,,,,William Street,,Wellington Street,,,,Bay 9,,,N0072213,Slough Town Centre,Slough,,,,,,0,UKOS,497755,180048,-0.592745,51.510912,BCS,,PPT,,,,050,2003-08-28T00:00:00.000,2011-05-23T08:43:10.000,4,revise,inactive
03700453,slgadmg,,,Brunel Bus Station,,,,William Street,,Wellington Street,,,,Bay 10,,,N0072213,Slough Town Centre,Slough,,,,,,0,UKOS,497742,180051,-0.592932,51.510941,BCS,,PPT,,,,050,2003-08-28T00:00:00.000,2011-05-23T08:38:05.000,4,revise,inactive
03700454,slgadmj,,,Brunel Bus Station,,,,William Street,,Wellington Street,,,,Bay 11,,,N0072213,Slough Town Centre,Slough,,,,,,0,UKOS,497733,180056,-0.59306,51.510987,BCS,,PPT,,,,050,2003-08-28T00:00:00.000,2011-05-23T08:38:58.000,4,revise,inactive
03700455,slgadmp,,,Brunel Bus Station,,,,William Street,,Wellington Street,,,,Bay 12,,,N0072213,Slough Town Centre,Slough,,,,,,0,UKOS,497722,180058,-0.593218,51.511007,BCS,,PPT,,,,050,2003-08-28T00:00:00.000,2011-05-23T08:39:20.000,4,revise,inactive
03700456,slgdatj,,,Diamond Road Mosque,,,,Dolphin Road,,Uxbridge Road,,,,opp,,SW,N0072213,Slough Town Centre,Slough,,Slough,,,,0,UKOS,498700,179868,-0.579182,51.509129,BCT,MKD,OTH,,,,050,2003-08-28T00:00:00.000,2014-01-07T15:37:39.000,2,revise,active
03700457,slgdatm,,,Diamond Road Mosque,,,,Dolphin Road,,Uxbridge Road,,,,o/s,,NE,N0072213,Slough Town Centre,Slough,,Slough,,Town Centre,,0,UKOS,498728,179922,-0.578764,51.50961,BCT,MKD,OTH,,,,050,2003-08-28T00:00:00.000,2010-04-05T17:14:00.000,1,revise,active
03700459,slgdatp,,,Landmark Place,,Landmark Place,,Herschel Street,,Windsor Road,,,,opp,,N,N0072213,Slough Town Centre,Slough,,,,,,0,UKOS,497488,179687,-0.596691,51.507713,BCT,MKD,OTH,,,,050,2003-12-08T00:00:00.000,2012-05-01T11:13:18.000,3,revise,active
03700460,slgdatw,,,Emerald Court,,,,Emerald Court,,Chalvey Road East,,,,opp,,W,E0041738,Chalvey,Slough,,Slough,,Chalvey,,0,UKOS,497297,179495,-0.5994955,51.5060197,BCT,MKD,OTH,,,,050,2003-12-08T00:00:00.000,2014-06-05T09:26:48.073,2,revise,inactive
03700461,slgdawa,,,Emerald Court,,,,Emerald Court,,Chalvey Road East,,,,adj,,E,E0041738,Chalvey,Slough,,Slough,,Chalvey,,0,UKOS,497292,179507,-0.5995642,51.5061284,BCT,MKD,OTH,,,,050,2004-07-21T00:00:00.000,2014-06-05T09:27:06.824,2,revise,inactive
03700462,slgdawd,,,Harrison Way,,,,Harrison Way,,St Andrews Way,,,,adj,,N,E0041739,Cippenham,Slough,,Slough,,Cippenham,,0,UKOS,493798,180411,-0.649653,51.514845,BCT,MKD,OTH,,,,050,2004-07-21T00:00:00.000,2010-04-05T17:55:00.000,2,revise,active
03700463,slgdawg,,,Hunters Way,,,,Eltham Avenue,,Hunters Way,,,,opp 2,,W,E0041739,Cippenham,Slough,,Slough,,Cippenham,,0,UKOS,494302,179901,-0.6425281,51.5101765,BCT,MKD,OTH,,,,050,2004-02-09T00:00:00.000,2014-06-05T09:27:25.266,2,revise,inactive
03700464,slgdawj,,,Hunters Way,,,,Eltham Avenue,,Hunters Way,,,,o/s 2,,E,E0041739,Cippenham,Slough,,Slough,,Cippenham,,0,UKOS,494300,179917,-0.642553,51.510321,BCT,MKD,OTH,,,,050,2004-07-21T00:00:00.000,2008-03-24T12:59:00.000,1,revise,active
03700465,slgdawm,,,Moor Furlong,,,,Lilley Way,,Moor Furlong,,,,W-bound,,W,E0041739,Cippenham,Slough,,Slough,,Cippenham,,0,UKOS,494207,180097,-0.643844,51.511954,BCT,MKD,OTH,,,,050,2004-02-09T00:00:00.000,2023-05-03T15:03:28.253,3,revise,inactive
03700466,slgdawp,,,Knolton Way,,,,Knolton Way,,The Frithe,,,,adj,,E,N0072211,Wexham Court,Slough,,Slough,,Wexham Court,,0,UKOS,499209,180970,-0.57154,51.518946,BCT,MKD,OTH,,,,050,2004-02-09T00:00:00.000,2010-04-05T18:07:00.000,3,revise,active
03700467,slgdawt,,,Rochfords Gardens,,,,Rochfords Gardens,,Uxbridge Road,,,,nr,,SW,E0041749,Upton Lea,Slough,,Slough,,Upton Lea,,0,UKOS,499240,180540,-0.571215,51.515076,BCT,MKD,OTH,,,,050,2003-12-08T00:00:00.000,2010-04-05T19:03:00.000,1,revise,active
03700468,slgdgad,,,Beresford Avenue,,,,Beresford Avenue,,Broadmark Road,,,,nr,,E,E0041749,Upton Lea,Slough,,Slough,,Upton Lea,,0,UKOS,499009,180485,-0.574558,51.514622,BCT,MKD,OTH,,,,050,2003-12-08T00:00:00.000,2008-02-03T12:31:00.000,9,revise,active
03700469,slgdgag,,,High Street,,,,Simmons Close,,Common Road,,,,S-bound,,SE,E0041742,Langley,,,Slough,,Langley,,0,UKOS,501230,178635,-0.543092,51.497599,BCT,MKD,OTH,,,,050,2006-04-05T00:00:00.000,2020-08-06T22:10:50.747,6,revise,active
03700470,slgdgaj,,,High Street,,,,Simmons Close,,Common Road,,,,N-bound,,NW,E0041742,Langley,,,Slough,,Langley,,0,UKOS,501223,178626,-0.543195,51.497528,BCT,MKD,OTH,,,,050,2006-04-05T00:00:00.000,2020-08-06T22:11:16.779,6,revise,active
03700471,slgdgam,,,Parlaunt Road,,,,Parlaunt Road,,High Street Langley,,,,nr,,S,E0041742,Langley,,,Slough,,Langley,,0,UKOS,501216,178865,-0.543227,51.499669,BCT,MKD,OTH,,,,050,2005-09-12T00:00:00.000,2010-04-05T18:49:00.000,2,revise,active
03700472,slgdgap,,,Parlaunt Road,,,,Parlaunt Road,,High Street Langley,,,,opp,,N,E0041742,Langley,,,Slough,,Langley,,0,UKOS,501200,178832,-0.543467,51.499384,BCT,MKD,OTH,,,,050,2005-09-12T00:00:00.000,2010-04-05T18:50:00.000,2,revise,active
03700474,slgdgat,,,Sutton Lane North Park,,,,Sutton Lane,,Parlaunt Road,,,,E-bound,,NE,E0041742,Langley,,,Slough,,Langley,,0,UKOS,502164,179079,-0.529512,51.501431,BCT,MKD,OTH,,,,050,2004-12-21T00:00:00.000,2010-04-05T21:14:00.000,2,revise,active
03700475,slgdgaw,,,Langley Leisure Centre,,,,Tamar Way,,Parlaunt Road,,,,opp,,E,E0041742,Langley,,,Slough,,Langley,,0,UKOS,501659,178874,-0.536845,51.499671,BCT,MKD,OTH,,,,050,2003-12-08T00:00:00.000,2010-04-05T18:13:00.000,1,revise,active
03700476,slgdgda,,,Sutton Court Farm,,,,Little Sutton Lane,,Sutton Lane,,,,o/s,,S,E0041742,Langley,,,Slough,,Langley,,0,UKOS,502184,178516,-0.529387,51.496358,BCT,MKD,OTH,,,,050,2004-05-17T00:00:00.000,2010-04-05T18:24:00.000,2,revise,active
03700477,slgdgdg,,," Sutton Court Farm",,,,Little Sutton Lane,,Sutton Lane,,,,opp,,N,E0041742,Langley,,,Slough,,Langley,,0,UKOS,502185,178543,-0.529365,51.496609,BCT,MKD,OTH,,,,050,2004-05-17T00:00:00.000,2010-04-05T18:23:00.000,1,revise,active
03700478,slgdgdj,,,Trelawney Ave,,,,Trelawney Avenue,,Spencer Road,,,,N-bound,,N,E0041742,Langley,,,Slough,,Langley,,0,UKOS,500855,179044,-0.548375,51.501343,BCT,MKD,OTH,,,,050,2004-02-09T00:00:00.000,2010-04-05T21:34:00.000,2,revise,active
03700479,slgdgdm,,,Trelawney Ave,,,,Trelawney Avenue,,Spencer Road,,,,S-bound,,S,E0041742,Langley,,,Slough,,Langley,,0,UKOS,500854,178999,-0.548403,51.500938,BCT,MKD,OTH,,,,050,2003-12-08T00:00:00.000,2010-04-05T21:34:00.000,2,revise,active
03700480,slgdgdp,,,Lakeside Road,,,,Lakeside Road,,Colnbrook By Pass,,,,nr,,E,E0057239,Colnbrook,,,Slough,,Colnbrook,,0,UKOS,503387,177300,-0.512419,51.485218,BCT,MKD,OTH,,,,050,2004-02-11T00:00:00.000,2010-04-05T17:02:00.000,1,revise,active
03700481,slgdgdt,,,Burnham Railway Station,,,,Sandringham Court,,Burnham Lane,,,,nr,,NW,N0072218,Burnham,Slough,,Slough,,Burnham,,0,UKOS,494065,181439,-0.645532,51.524041,BCT,MKD,OTH,,,,050,2005-10-06T00:00:00.000,2020-09-25T19:25:11.657,4,revise,inactive
03700482,slgdgdw,,,Burnham Railway Station,,,,Parkview Chase,,Burnham Lane,,,,opp,,SE,N0072218,Burnham,Slough,,Slough,,Burnham,,0,UKOS,494081,181434,-0.645303,51.523994,BCT,MKD,TIP,,,,050,2005-10-06T00:00:00.000,2017-11-24T07:42:53.682,4,revise,active
03700483,slgdgja,,,Yeovil Road,,,,Yeovil Road,,Buckingham Avenue,,,,opp,,SW,N0072216,Slough Trading Estate,Slough,,Slough,,Slough Trading Estate,,0,UKOS,494470,181418,-0.639702,51.523785,BCT,MKD,OTH,,,,050,2003-12-08T00:00:00.000,2010-04-05T17:39:00.000,3,revise,active
03700484,slgdgjd,,,Yeovil Road,,,,Yeovil Road,,Buckingham Avenue,,,,nr,,NE,N0072216,Slough Trading Estate,Slough,,Slough,,Slough Trading Estate,,0,UKOS,494482,181444,-0.639522,51.524017,BCT,MKD,OTH,,,,050,2004-05-20T00:00:00.000,2010-04-05T17:39:00.000,3,revise,active
03700486,slgdgjg,,,Dundee Road,,,,Dundee Road,,Buckingham Avenue,,,,E-bound,,E,N0072216,Slough Trading Estate,Slough,,Slough,,Slough Trading Estate,,0,UKOS,494872,181417,-0.633909,51.523709,BCT,MKD,OTH,,,,050,2004-05-17T00:00:00.000,2008-11-23T10:14:00.000,3,revise,active
03700487,slgdgjm,,,Dundee Road,,,,Dover Road,,Buckingham Avenue,,,,W-bound,,W,N0072216,Slough Trading Estate,Slough,,Slough,,Slough Trading Estate,,0,UKOS,494815,181414,-0.634731,51.523691,BCT,MKD,OTH,,,,050,2004-05-17T00:00:00.000,2008-11-23T10:15:00.000,3,revise,active
03700488,slgdgjp,,,Slough Railway Station,,,,Sovereign Square,,Brunel Way,,,,opp,,W,N0072213,Slough Town Centre,Slough,,Slough,,Town Centre,,0,UKOS,497787,180132,-0.592261,51.511661,BCT,MKD,TIP,,,,050,2005-10-06T00:00:00.000,2009-07-13T17:52:00.000,1,revise,active
03700489,slgdgjt,,,Copthorne Hotel,,,,access to Copthorne Hotel,,Cippenham Lane,,,,nr,,NW,E0041738,Chalvey,Slough,,Slough,,Chalvey,,0,UKOS,496279,179872,-0.614056,51.509583,BCT,MKD,OTH,,,,050,2004-02-09T00:00:00.000,2010-04-05T17:08:00.000,2,revise,active
03700490,slgdgjw,,,The Toby,,,,Shelley Close,,Langley High Street,,,,N-bound,,N,E0041742,Langley,,,Slough,,Langley,,0,UKOS,500927,178288,-0.547554,51.494534,BCT,MKD,OTH,,,,050,2004-02-09T00:00:00.000,2010-04-05T21:30:00.000,4,revise,active
03700491,slgadgw,,,Marriott Hotel,,,,Near Main Entrance,,Ditton Road,,,,at,,N,E0041742,Langley,,,Slough,,Castle View,,0,UKOS,500948,178051,-0.54732,51.4924,BCT,CUS,TIP,,,,050,2004-02-09T00:00:00.000,2020-09-15T13:59:58.187,3,revise,active
03700492,slgdgma,,,Langley Road,,,,Ives Road,,Spencer Road,,,,S-bound,,S,E0041742,Langley,,,Slough,,Langley,,0,UKOS,500927,179263,-0.547276,51.503298,BCT,MKD,OTH,,,,050,2004-02-09T00:00:00.000,2008-05-04T15:31:00.000,2,revise,active
03700493,slgdgmd,,,Langley Road,,,,Ives Road,,Spencer Road,,,,N-bound,,N,E0041742,Langley,,,Slough,,Langley,,0,UKOS,500919,179294,-0.547382,51.503587,BCT,MKD,OTH,,,,050,2004-05-17T00:00:00.000,2008-05-04T15:30:00.000,1,revise,active
03700494,slgdgmg,,,Carlton Road,,,,Carlton Road,,Broadmark Road,,,,opp,,W,E0041749,Upton Lea,Slough,,Slough,,Upton Lea,,0,UKOS,498804,180557,-0.577491,51.515305,BCT,MKD,OTH,,,,050,2004-12-23T00:00:00.000,2008-02-03T10:11:00.000,1,revise,active
03700495,slgdgmj,,,St Laurence Way,,,,Priors Close,,St Laurence Way,,,,S-bound,,S,N0072213,Slough Town Centre,Slough,,Slough,,Town Centre,,0,UKOS,498059,179416,-0.588542,51.505178,BCT,MKD,OTH,,,,050,2004-05-17T00:00:00.000,2010-04-05T20:52:00.000,1,revise,active
03700496,slgdgmp,,,Red Cow Roundabout,,,,Mere Road,,Datchet Road,,,,N-bound,,N,E0041748,Upton,Slough,,,,,,0,UKOS,497966,179106,-0.589967,51.502416,BCT,MKD,OTH,,,,050,2004-02-09T00:00:00.000,2010-07-15T00:00:00.000,3,revise,active
03700498,slgdgmw,,,High Street East,,High St East,,High Street,,Yew Tree Road,,,,Stop T,,NE,N0072213,Slough Town Centre,Slough,,,,,,0,UKOS,498356,179597,-0.584213,51.506753,BCT,MKD,OTH,,,,050,2004-05-20T00:00:00.000,2012-05-01T11:31:37.000,3,revise,active
03700505,slgdgpt,,,Poyle Travelodge,,,,Travelodge,,Calder Way,,,,o/s,,E,E0053687,Poyle,,,,,,,0,UKOS,503566,175643,-0.510327,51.470291,BCT,CUS,OTH,,,,050,2008-02-02T19:29:00.000,2013-09-02T12:44:02.000,5,revise,active
03700506,slgdgwj,,,Extra Care Centre,,,,Extra Care Centre,,Wexham Road,,,,opp,,N,N0072211,Wexham Court,Slough,,,,,,0,UKOS,498592,181848,-0.580185,51.526946,BCT,MKD,OTH,,,,050,2009-04-15T14:13:00.000,2009-09-02T21:07:00.000,3,revise,active
03700507,slgdgta,,,Haig Drive,,,,Haig Drive,,Telford Drive,,,,nr,,E,E0041739,Cippenham,Slough,,,,,,0,UKOS,495714,179574,-0.6222760,51.5069999,BCT,MKD,OTH,,,,050,2009-08-28T21:44:00.000,2014-06-05T09:27:59.749,2,revise,inactive
03700508,slgdgtd,,,Haig Drive,,,,Haig Drive,,Telford Drive,,,,opp,,W,E0041739,Cippenham,Slough,,,,,,0,UKOS,495704,179559,-0.6224242,51.5068667,BCT,MKD,OTH,,,,050,2009-08-28T21:46:00.000,2014-06-05T09:28:15.605,2,revise,inactive
03700509,slgdgtg,,,Mitchell Close,,,,Mitchell Close,,Telford Way,,,,opp,,E,E0041739,Cippenham,Slough,,,,,,0,UKOS,495486,179629,-0.6255454,51.5075328,BCT,MKD,OTH,,,,050,2009-08-28T21:47:00.000,2014-06-05T09:28:35.523,2,revise,inactive
03700510,slgdgtj,,,Mitchell Close,,,,Mitchell Close,,Telford Drive,,,,nr,,W,E0041739,Cippenham,Slough,,,,,,0,UKOS,495476,179616,-0.6256930,51.5074176,BCT,MKD,OTH,,,,050,2009-08-28T21:49:00.000,2014-06-05T09:28:55.093,2,revise,inactive
03700511,slgdgtm,,,Grimsby Road,,,,Grimsby Road,,Eltham Avenue,,,,W-bound,,SW,E0041739,Cippenham,Slough,,,,,,0,UKOS,494911,179823,-0.63378,51.509379,BCT,MKD,OTH,,,,050,2009-08-28T21:50:00.000,2023-05-03T15:02:43.843,3,revise,inactive
03700512,slgdgtp,,,Grimsby Road,,,,Grimsby Road,,Eltham Avenue,,,,E-bound,,NE,E0041739,Cippenham,Slough,,,,,,0,UKOS,494899,179826,-0.633952,51.509407,BCT,MKD,OTH,,,,050,2009-08-28T21:52:00.000,2010-06-14T16:19:00.000,2,revise,active
03700513,slgdgtw,,,Phillbye Mews,,,,Changing Rooms,,Eltham Avenue,,,,W-bound,,W,E0041739,Cippenham,Slough,,,,,,0,UKOS,494532,179817,-0.639237,51.509383,BCT,MKD,OTH,,,,050,2009-08-28T21:53:00.000,2023-05-03T15:03:05.488,3,revise,inactive
03700514,slgdgwa,,,Phillbye Mews,,,,Changing Rooms,,Eltham Avenue,,,,E-bound,,E,E0041739,Cippenham,Slough,,,,,,0,UKOS,494537,179827,-0.639163,51.509473,BCT,MKD,OTH,,,,050,2009-08-28T21:55:00.000,2010-06-14T16:22:00.000,2,revise,active
03700515,slgdgwd,,,Medical Centre,,,,Medical Centre,,Moor Furlong,,,,opp,,NW,E0041739,Cippenham,Slough,,,,,,0,UKOS,493979,180150,-0.6471149,51.5124686,BCT,MKD,OTH,,,,050,2009-08-28T21:57:00.000,2014-06-05T09:29:13.090,3,revise,inactive
03700516,slgdgwg,,,Chalvey Grove,,,,Chalvey Grove,,Telford Drive,,,,E-bound,,SE,E0041738,Chalvey,Slough,,,,,,0,UKOS,495921,179528,-0.619307,51.506551,BCT,MKD,OTH,,,,050,2009-08-28T22:01:00.000,2010-06-21T14:46:00.000,2,revise,active
03700517,slgdgwm,,,The Jolly Londoner,,Jolly Londoner,,Jolly Londoner PH,,Wentworth Avenue,,,,o/s,,S,E0053685,Britwell,Slough,,,,,,0,UKOS,495094,182790,-0.63034,51.536013,BCT,MKD,TIP,,,,050,2010-07-09T11:44:06.000,2010-07-09T00:00:00.000,0,new,inactive
03700518,slgdgwp,,,Uxbridge Road Sainsbury's,,Sainsbury's,,roundabout,,Wellington Street,,,,opp,,NW,E0041742,Langley,,,,,,,0,UKOS,498653,179665,-0.579923,51.507318,BCT,MKD,OTH,,,,050,2010-10-26T09:15:45.000,2012-02-27T14:47:44.000,3,revise,active
03700519,slgdgwt,,,Bath Road,,Bath Road,,MB Slough,,Cippenham Lane,,,,northbound,,N,E0041739,Cippenham,Slough,,,,,,0,UKOS,494875,180915,-0.634001,51.519196,BCT,MKD,OTH,,,,050,2011-03-10T12:37:14.000,2014-06-05T09:29:40.800,1,revise,inactive
03700520,slgdjad,,,Bath Road,,Bath Road,,MB Slough,,Cippenham Lane,,,,southbound,,S,E0041739,Cippenham,Slough,,,,,,0,UKOS,494896,180900,-0.633711,51.51906,BCT,MKD,OTH,,,,050,2011-03-10T12:41:52.000,2023-05-03T15:56:34.923,3,revise,active
03700521,slgdjag,,,Slough Bus Station,,Bus Station,,Heart Of Slough,,Slough Bus Station,,,,Bay 1,,,N0072213,Slough Town Centre,Slough,,,,,,0,UKOS,497739,180078,-0.592967,51.511184,BCS,,PTP,,,,050,2011-04-06T12:21:06.000,2022-11-04T11:46:13.838,3,revise,inactive
03700522,slgdjaj,,,Slough Bus Station,,Bus Station,,Heart Of Slough,,Slough Bus Station,,,,Bay 2,,,N0072213,Slough Town Centre,Slough,,,,,,0,UKOS,497742,180081,-0.592923,51.511211,BCS,,PTP,,,,050,2011-04-06T12:25:39.000,2022-11-04T11:46:32.956,3,revise,inactive
03700523,slgdjam,,,Slough Bus Station,,Bus Station,,Heart Of Slough,,Slough Bus Station,,,,Bay 3,,,N0072213,Slough Town Centre,Slough,,,,,,0,UKOS,497743,180088,-0.592907,51.511273,BCS,,PTP,,,,050,2011-04-06T12:28:15.000,2022-11-04T11:46:55.331,3,revise,inactive
03700524,slgdjap,,,Slough Bus Station,,Bus Station,,Heart Of Slough,,Slough Bus Station,,,,Bay 4,,,N0072213,Slough Town Centre,Slough,,,,,,0,UKOS,497745,180092,-0.592877,51.511309,BCS,,PTP,,,,050,2011-04-06T12:30:11.000,2022-11-04T11:47:15.851,3,revise,inactive
03700525,slgdjat,,,Slough Bus Station,,Bus Station,,Heart Of Slough,,Slough Bus Station,,,,Bay 5,,,N0072213,Slough Town Centre,Slough,,,,,,0,UKOS,497745,180096,-0.592876,51.511345,BCS,,PTP,,,,050,2011-04-06T12:32:12.000,2022-11-04T11:47:31.128,3,revise,inactive
03700526,slgdjaw,,,Slough Bus Station,,Bus Station,,Heart Of Slough,,Slough Bus Station,,,,Bay 6,,,N0072213,Slough Town Centre,Slough,,,,,,0,UKOS,497746,180102,-0.59286,51.511399,BCS,,PTP,,,,050,2011-04-06T12:33:57.000,2022-11-04T11:47:51.661,3,revise,inactive
03700527,slgdjda,,,Slough Bus Station,,Bus Station,,Heart Of Slough,,Slough Bus Station,,,,Bay 7,,,N0072213,Slough Town Centre,Slough,,,,,,0,UKOS,497747,180106,-0.592844,51.511434,BCS,,PTP,,,,050,2011-04-06T12:36:06.000,2022-11-04T11:48:15.983,3,revise,inactive
03700528,slgdjdg,,,Slough Bus Station,,Bus Station,,Heart Of Slough,,Slough Bus Station,,,,Bay 8,,,N0072213,Slough Town Centre,Slough,,,,,,0,UKOS,497747,180111,-0.592843,51.511479,BCS,,PTP,,,,050,2011-04-06T12:39:57.000,2022-11-04T11:48:41.618,3,revise,inactive
03700529,slgdjdj,,,Slough Bus Station,,Bus Station,,Heart Of Slough,,Slough Bus Station,,,,Bay 9,,,N0072213,Slough Town Centre,Slough,,,,,,0,UKOS,497748,180116,-0.592827,51.511524,BCS,,PTP,,,,050,2011-04-06T12:41:29.000,2022-11-04T11:49:07.875,3,revise,inactive
03700530,slgdjdm,,,Slough Bus Station,,Bus Station,,Heart Of Slough,,Slough Bus Station,,,,Bay 10,,,N0072213,Slough Town Centre,Slough,,,,,,0,UKOS,497748,180121,-0.592826,51.511569,BCS,,PTP,,,,050,2011-04-06T12:43:32.000,2022-11-04T11:49:37.407,3,revise,inactive
03700531,slgdjdp,,,Brunel Way,,Bus Station,,Heart Of Slough,,Brunel Way,,,,Bay 11,,,N0072213,Slough Town Centre,Slough,,,,,,0,UKOS,497767,180136,-0.592548,51.511701,BCS,,PTP,,,,050,2011-04-06T12:45:26.000,2011-11-03T09:33:57.000,3,revise,active
03700532,slgdjdt,,,Brunel Way,,Bus Station,,Heart Of Slough,,Brunel Way,,,,Bay 12,,,N0072213,Slough Town Centre,Slough,,,,,,0,UKOS,497755,180139,-0.59272,51.51173,BCS,,PTP,,,,050,2011-04-06T12:46:58.000,2011-05-23T08:02:03.000,2,revise,active
03700533,slgdjdw,,,Brunel Way,,Bus Station,,Heart Of Slough,,Brunel Way,,,,Bay 13,,,N0072213,Slough Town Centre,Slough,,,,,,0,UKOS,497743,180142,-0.592892,51.511759,BCS,,PTP,,,,050,2011-04-06T12:48:29.000,2011-11-03T09:33:12.000,3,revise,active
03700534,slgdjgd,,,Slough Bus Station,,Bus Station Set-Down,,Heart Of Slough,,Slough Bus Station,,,,Arrivals,,,N0072213,Slough Town Centre,Slough,,,,,,0,UKOS,497728,180132,-0.593111,51.511671,BCS,,PTP,,,,050,2011-04-18T13:17:10.000,2022-11-04T11:50:03.665,7,revise,inactive
03700535,slgdjgj,,,Hilton Hotel,,,,Colndale Road,,Private Road,,,,o/s,,E,E0053687,Poyle,,,,,,,0,UKOS,503051,176423,-0.517516,51.477391,BCT,MKD,TIP,,,,050,2011-07-25T15:05:04.000,2024-02-19T15:47:09.651,1,revise,active
03700536,slgdjgm,,,Cranbourne Close,,Cranbourne Cl,,Lodge Close,,Cippenham Lane,,,,opp,,W,E0041738,Chalvey,Slough,,,,,,0,UKOS,496049,179995,-0.617336,51.510727,BCT,MKD,OTH,,,,050,2011-11-03T09:07:42.000,2014-06-05T09:30:21.934,1,revise,inactive
03700537,slgdjgp,,,Cranbourne Close,,Cranbourne Cl,,Lodge Close,,Cippenham Lane,,,,adj,,E,E0041738,Chalvey,Slough,,,,,,0,UKOS,496072,180000,-0.617003,51.510769,BCT,MKD,OTH,,,,050,2011-11-03T09:19:16.000,2014-06-05T09:30:39.980,1,revise,inactive
03700538,slgdjgt,,,High Street East,,High Street East,,Sussex Place,,Uxbridge Road,,,,Stop R,,SW,N0072213,Slough Town Centre,Slough,,,,,,0,UKOS,498420,179635,-0.583281,51.507084,BCT,MKD,OTH,,,,050,2011-11-21T15:21:42.000,2012-05-01T11:31:10.000,3,revise,active
03700539,slgdjgw,,,Mountbatten Close,,Mountbatten Cl,,Mountbatten Close,,Yew Tree Road,,,,opp,,SW,E0057240,Slough,,,,,,,0,UKOS,498159,179259,-0.587145,51.503749,BCT,MKD,OTH,,,,050,2011-11-21T15:33:54.000,2011-11-21T15:33:54.000,0,new,active
03700540,slgdjma,,,Mountbatten Close,,Mountbatten Cl,,Mountbatten Close,,Yew Tree Road,,,,adj,,NE,E0057240,Slough,,,,,,,0,UKOS,498191,179298,-0.586673,51.504094,BCT,MKD,OTH,,,,050,2011-11-21T15:38:37.000,2011-11-21T15:38:37.000,0,new,active
0370BNHAM0,,,,Burnham (Berks) Rail Station,,,,Station entrance,,Station Road,,,,Entrance,,,N0072218,Burnham,Slough,,Slough,,Burnham,,0,UKOS,494001,181366,-0.646474,51.523396,RSE,,,,,,050,2005-01-11T00:00:00.000,2010-04-05T16:35:00.000,2,revise,active
0370LANGLEY0,,,,Langley (Berks) Rail Station,,,,Station entrance,,Station Approach Road,,,,main entrance,,,E0041742,Langley,,,Slough,,Langley,,0,UKOS,501294,179797,-0.541837,51.508033,RSE,,,,,,050,2005-01-11T00:00:00.000,2008-03-22T10:48:00.000,1,revise,active
0370LANGLEY1,,,,Langley (Berks) Rail Station,,,,Station entrance,,Station Road,,,,South entrance,,,E0041742,Langley,,,Slough,,Langley,,0,UKOS,501225,179705,-0.542857,51.507218,RSE,,,,,,050,2005-01-11T00:00:00.000,2010-04-05T18:11:00.000,2,revise,active
0370SLOUGH0,,,,Slough Rail Station,,,,Station entrance,,Brunel Way,,,,main entrance,,,E0057240,Slough,,,Slough,,Town Centre,,0,UKOS,497841,180152,-0.591478,51.511832,RSE,,,,,,050,2005-01-11T00:00:00.000,2008-05-04T14:03:00.000,3,revise,active
0370SLOUGH1,,,,Slough Rail Station,,,,Station entrance,,Railway Terrace,,,,rear entrance,,,E0057240,Slough,,,Slough,,Town Centre,,0,UKOS,497832,180215,-0.59159,51.512399,RSE,,,,,,050,2005-01-11T00:00:00.000,2009-03-04T08:31:00.000,2,revise,active
03700542,slgdjmg,,,Rokesby Road,,Rokesby Road,,Ravensworth Road,,Wentworth Avenue,,,,adj,,N,E0053685,Britwell,Slough,,,,,,0,UKOS,495058,182713,-0.630883,51.535332,BCT,MKD,PPT,,,,050,2012-06-28T15:45:17.000,2024-06-25T14:19:42.389,1,revise,active
03700541,slgdjmd,,,Wellington Street Stop Y,,Library,,TVU,,Wellington Street,,,,Stop Y,,E,N0072213,Slough Town Centre,Slough,,,,,,0,UKOS,497461,180008,-0.596996,51.510603,BCT,MKD,OTH,,,,050,2012-05-01T11:48:25.000,2024-01-29T16:05:52.425,2,revise,active
03700543,slgdjmj,,,The Britwell Centre,,Britwell Centre,,Goodwin Road,,Wentworth Avenue,,,,opp,,S,E0053685,Britwell,Slough,,,,,,0,UKOS,495066,182600,-0.630795,51.53431,BCT,MKD,OTH,,,,050,2013-03-12T08:38:00.000,2013-03-12T08:38:00.000,0,new,active
03700544,slgdjmp,,,Wexham Road Car Park,,Car Park,,driving range,,Wexham Road,,,,adj,,N,N0072211,Wexham Court,Slough,,,,,,0,UKOS,498500,181500,-0.581608,51.523834,BCT,MKD,PPT,,,,050,2013-06-26T12:03:56.000,2013-06-26T12:03:56.000,0,new,active
03700545,,,,Long Close School,,,,,,UPTON COURT ROAD,,,,O/S,,NW,E0041748,Upton,Slough,,,,,,,UKOS,498317,179030,-0.584935,51.501668,BCT,MKD,OTH,,,,050,2014-06-05T10:37:16.001,2014-06-05T10:40:18.000,1,revise,active
03700550,slgdjmt,,,Kennedy Park Shops,,,,,,Kestral Drive,,,,o/s,,N,E0053685,Britwell,Slough,,,,,,,UKOS,495055,182335,-0.631026,51.531933,BCT,MKD,OTH,,,,050,2014-10-13T11:59:02.000,2016-01-20T09:41:18.001,5,revise,active
037000000551,,,,Kennedy Park Shops,,,,,,Long Furlong Drive,,,,Stop A,,E,E0053685,Britwell,Slough,,,,,,,UKOS,494999,182386,-0.63182,51.532401,BCT,MKD,OTH,,,,050,2014-10-15T19:14:04.001,2014-10-17T14:42:09.000,1,revise,inactive
03700551,slgdjmw,,,Kennedy Park Shops,,,,,,LONG FURLONG DRIVE,,,,opp,,E,E0053685,Britwell,Slough,,,,,,,UKOS,494994,182381,-0.631893,51.532357,BCT,MKD,OTH,,,,050,2014-10-15T19:16:25.001,2019-09-25T08:21:48.309,5,revise,inactive
03700552,slgdjpa,,,The Toby,,,,,,Ditton Road,,,,,,S,E0041742,Langley,,,,,,,,UKOS,500913,178149,-0.547799,51.493291,BCT,MKD,OTH,,,,050,2014-11-24T11:51:06.000,2024-02-19T14:57:34.625,1,revise,active
03700546,slgdjpd,,,Aura Park Hilton Hotel,,,,,,Bath Road,,,,,,E,E0057239,Colnbrook,,,,,,,,UKOS,503357,176696,-0.513032,51.47979,BCT,MKD,OTH,,,,050,2015-06-12T10:25:37.000,2024-02-19T15:27:58.751,3,revise,active
03700553,slgdjpg,,,Burnham Station,,,,,,Station Road,,,,Adj,,N,N0072218,Burnham,Slough,,,,,,,UKOS,494056,181425,-0.645664,51.523922,BCT,MKD,OTH,,,,050,2015-11-13T13:39:45.001,2015-11-13T13:39:45.001,0,new,active
03700554,slgdjpj,,,Farnham Lane,,,,,,Farnham Lane,,,,o/s 83,,W,E0053685,Britwell,Slough,,,,,,,UKOS,495682,183005,-0.62181,51.537852,BCT,MKD,OTH,,,,050,2016-01-19T09:28:10.000,2016-01-20T12:53:42.000,1,revise,active
03700555,slgdjpm,,,Wellington Street,,,,,,Wellington Street (A4),,,,Stop D,,W,N0072213,Slough Town Centre,Slough,,,,,,,UKOS,497762,179969,-0.592669,51.510204,BCT,MKD,OTH,,,,050,2016-08-18T15:33:37.001,2016-08-19T15:43:53.000,2,revise,inactive
03700556,slgdjpt,,,Wellington Street Stop D,,,,,,Wellington Street (A4),,,,Stop D,,W,N0072213,Slough Town Centre,Slough,,,,,,,UKOS,497766,179972,-0.592605,51.510226,BCT,MKD,PTP,,,,050,2016-08-19T15:43:03.000,2023-04-19T14:19:23.223,2,revise,active
03700557,slgdjtp,,,Aldridge Road,,,,,,Long Furlong Drive,,,,Adj,,W,E0053685,Britwell,Slough,,,,,,,UKOS,495292,182350,-0.627611,51.532028,BCT,MKD,OTH,,,,050,2016-09-12T09:03:57.000,2016-09-12T09:03:57.000,0,new,active
03700558,slgdjpw,,,Stanley Cottages,,,,,,Stoke Road,,,,Opp,,S,E0057240,Slough,,,,,,,,UKOS,497719,180378,-0.593176,51.513889,BCT,MKD,OTH,,,,050,2016-09-12T09:13:23.001,2016-09-12T09:47:58.000,1,revise,active
03700559,slgdjta,,,Crosthwaite Way,,,,,,Haymill Road,,,,near,,N,N0072218,Burnham,Slough,,,,,,,UKOS,493873,181800,-0.64821,51.527322,BCT,MKD,OTH,,,,050,2016-09-12T09:26:26.001,2016-09-20T15:59:05.000,1,revise,active
03700560,slgdjtd,,,Shaggy Calf Lane,,,,,,Shaggy Calf Lane,,,,,,E,E0057240,Slough,,,,,,,,UKOS,498042,180857,-0.58839,51.518138,BCT,MKD,OTH,,,,050,2016-09-12T09:29:42.000,2019-11-26T16:14:28.191,1,revise,inactive
03700561,slgdjtg,,,Ellis Avenue,,,,,,Ledger's Road,,,,,,N,E0057240,Slough,,,,,,,,UKOS,497011,179943,-0.603497,51.510101,BCT,MKD,OTH,,,,050,2016-09-12T09:32:05.000,2016-09-12T09:32:05.000,0,new,active
03700562,slgdjtj,,,Lower Britwell Road,,,,,,Haymill Road,,,,Northbound,,N,N0072218,Burnham,Slough,,,,,,,UKOS,493800,182226,-0.649142,51.531167,BCT,MKD,OTH,,,,050,2016-09-12T09:34:30.000,2016-10-17T11:34:15.001,2,revise,active
03700563,slgdjtm,,,Lower Britwell Road,,,,,,Haymill Road,,,,Southbound,,S,N0072218,Burnham,Slough,,,,,,,UKOS,493829,182236,-0.648718,51.53125,BCT,MKD,OTH,,,,050,2016-09-12T09:36:14.001,2016-10-17T11:34:27.001,2,revise,active
03700564,slgdjtw,,,Golden Cross,,,,,,Poyle Road,,,,Adj,,N,E0053687,Poyle,,,,,,,,UKOS,503046,175764,-0.517778,51.471472,BCT,MKD,OTH,,,,050,2017-02-22T07:09:28.001,2017-02-22T07:09:28.001,0,new,active
03700565,slgdjwa,,,Golden Cross,,,,,,Poyle Road,,,,Opp,,S,E0053687,Poyle,,,,,,,,UKOS,503055,175805,-0.517639,51.471833,BCT,MKD,OTH,,,,050,2017-02-22T07:12:33.001,2017-02-22T07:12:33.001,0,new,active
03700566,slgdjwd,,,Telefonica,,,,,,Bath Road,,,,outside,,SE,N0072216,Slough Trading Estate,Slough,,,,,,,UKOS,495143,180868,-0.630151,51.518736,BCT,CUS,OTH,,,,050,2018-11-14T08:52:38.001,2019-01-04T12:46:08.000,1,revise,active
03700567,slgdjwg,,,Bath Road,,,,,,Bath Road,,,,outside 208,,SE,N0072216,Slough Trading Estate,Slough,,,,,,,UKOS,495685,180525,-0.622433,51.515556,BCT,MKD,OTH,,,,050,2018-11-14T08:55:18.001,2018-11-14T08:55:18.001,0,new,active
03700220,,,,Long Furlong Drive Monksfield Way,,,,Monksfield Way,,Long Furlong Drive,,,,opp no 108,,W,E0053685,Britwell,Slough,,Slough,,Britwell,,0,UKOS,495105,182358,-0.630298,51.532128,BCT,MKD,OTH,,,,050,2004-05-17T00:00:00.000,2007-11-09T16:16:00.000,1,delete,inactive
03700221,,,,Long Furlong Drive Monksfield Way,,,,Monksfield Way,,Long Furlong Drive,,,,approx 30 yds East of Monksfield Way,,E,E0053685,Britwell,Slough,,Slough,,Britwell,,0,UKOS,495190,182365,-0.629071,51.532177,BCT,MKD,OTH,,,,050,2004-03-17T00:00:00.000,2007-11-09T16:16:00.000,1,delete,inactive
03700222,,,,Long Furlong Drive Aldridge Road,,,,Aldridge Road,,Long Furlong Drive,,,,o/s no 41,,W,E0053685,Britwell,Slough,,Slough,,Britwell,,0,UKOS,495372,182335,-0.626456,51.531877,BCT,MKD,OTH,,,,050,2004-03-17T00:00:00.000,2007-11-09T16:16:00.000,1,delete,inactive
03700223,,,,Long Furlong Drive Aldridge Road,,,,Aldridge Road,,Long Furlong Drive,,,,o/s Britwell Baptist Church,,E,E0053685,Britwell,Slough,,Slough,,Britwell,,0,UKOS,495410,182337,-0.625908,51.531888,BCT,MKD,OTH,,,,050,2004-02-11T00:00:00.000,2007-11-09T16:16:00.000,1,delete,inactive
03700224,,,,Beechwood School,,,,Lower Lees Road,,Long Readings Lane,,,,o/s 157 Long Readings Lane,,N,E0053685,Britwell,Slough,,Slough,,Britwell,,0,UKOS,495586,182580,-0.623305,51.534043,BCT,MKD,OTH,,,,050,2004-02-11T00:00:00.000,2007-11-09T16:17:00.000,1,delete,inactive
03700225,,,,Beechwood School,,,,Aylesworth Avenue,,Long Readings Lane,,,,opp jct Aylesworth Ave,,S,E0053685,Britwell,Slough,,Slough,,Britwell,,0,UKOS,495595,182712,-0.62314,51.535228,BCT,MKD,OTH,,,,050,2004-02-11T00:00:00.000,2007-11-09T16:17:00.000,1,delete,inactive
03700244,slgaptj,,,Willoners,,,,Willoners,,Northborough Road,,,,opp,,E,E0053685,Britwell,Slough,,Slough,,Britwell,,0,UKOS,495445,182056,-0.625479,51.529356,BCT,MKD,OTH,,,,050,2003-08-28T00:00:00.000,2009-04-23T23:14:00.000,3,delete,inactive
03700245,slgaptm,,,Willoners,,,,Willoners,,Northborough Road,,,,opp,,W,E0053685,Britwell,Slough,,Slough,,Britwell,,0,UKOS,495481,182045,-0.624964,51.529251,BCT,MKD,OTH,,,,050,2003-08-28T00:00:00.000,2009-04-23T23:14:00.000,5,delete,inactive
03700246,,,,Buckingham Avenue Eastbourne Road,,,,Eastbourne Road,,Buckingham Avenue,,,,approx 15 yds West of Eastbourne Rd,,NW,N0072216,Slough Trading Estate,Slough,,Slough,,Slough Trading Estate,,0,UKOS,495007,181359,-0.631979,51.523165,BCT,MKD,OTH,,,,050,2003-08-28T00:00:00.000,2007-11-09T16:17:00.000,1,delete,inactive
03700247,,,,Buckingham Avenue Eastbourne Road,,,,Eastbourne Road,,Buckingham Avenue,,,,approx 25 yds East of Dundee Road,,SE,N0072216,Slough Trading Estate,Slough,,Slough,,Slough Trading Estate,,0,UKOS,494989,181383,-0.632232,51.523383,BCT,MKD,OTH,,,,050,2003-08-28T00:00:00.000,2007-11-09T16:17:00.000,1,delete,inactive
03700307,slgatpt,,,Park and Ride,,,,Upton Court Park,,Upton Court Road,,,,o/s,,NW,E0041748,Upton,Slough,,Slough,,Upton,,0,UKOS,498345,179029,-0.58453,51.50165,BCT,MKD,TIP,,,,050,2006-04-05T00:00:00.000,2009-04-23T23:18:00.000,2,delete,inactive
03700332,slgawda,,,Queensmere Centre,,,,Queensmere Shopping Ctr,,High Street,,,,opp Tavern in Town pub,,E,N0072213,Slough Town Centre,Slough,,Slough,,Town Centre,,0,UKOS,497649,179858,-0.594325,51.509222,BCT,MKD,OTH,,,,050,2006-04-05T00:00:00.000,2009-04-15T13:43:00.000,2,delete,inactive
03700499,slgdgpa,,,Yew Tree Road,,,,High Street,,Uxbridge Road,,,,S-bound,,SW,N0072213,Slough Town Centre,Slough,,Slough,,Town Centre,,0,UKOS,498427,179643,-0.583178,51.507155,BCT,MKD,TIP,,,,050,2004-07-21T00:00:00.000,2009-04-15T13:44:00.000,3,delete,inactive
03700500,slgdgpd,,,Chatfield,,,,Thorndike,,Chatfield,,,,o/s 6,,N,E0053685,Britwell,Slough,,Slough,,Britwell,,0,UKOS,495315,181994,-0.62737,51.528821,BCT,MKD,OTH,,,,050,2004-09-21T00:00:00.000,2009-04-15T13:45:00.000,3,delete,inactive
03700501,slgdgpg,,,Chatfield,,,,Thorndike,,Chatfield,,,,o/s 23,,S,E0053685,Britwell,Slough,,Slough,,Britwell,,0,UKOS,495326,181952,-0.627222,51.528441,BCT,MKD,OTH,,,,050,2004-09-21T00:00:00.000,2009-04-15T13:45:00.000,3,delete,inactive
03709999,,,,bus station,,,,,,London Road,,,,north east entrance,,N,N0072213,Slough Town Centre,Slough,,,,,,0,UKOS,497710,180058,-0.593391,51.511009,BCT,MKD,OTH,,,,050,2010-05-07T15:36:00.000,2010-06-07T15:43:00.000,6,delete,inactive
03700570,slgdjwj,,,Langley Station Car Park,,,,,,Station Approach,,,,,,W,E0041742,Langley,,,,,,,,UKOS,501288,179801,-0.5419185,51.5080708,BCT,CUS,OTH,,,,050,2021-07-29T10:59:48.589,2021-07-29T10:59:48.589,0,new,active
03700568,slgdjwm,,,Streamside,,,,,,Streamside,,,,,,N,E0041739,Cippenham,Slough,,,,,,,UKOS,494535,180106,-0.6391203,51.5119860,BCT,MKD,OTH,,,,050,2022-09-02T10:23:56.308,2022-09-02T10:23:56.308,0,new,active
03700569,slgdjwp,,,Bath Road,,,,,,Huntercombe Lane North,,,,,,N,N0072218,Burnham,Slough,,,,,,,UKOS,493094,181113,-0.6596147,51.5212711,BCT,MKD,OTH,,,,050,2023-05-03T15:45:56.834,2024-07-24T09:04:50.563,1,revise,active
03700571,slgdjwt,,,Brunel Way,,,,,,Brunel Way,,,,Stop Z,,N,N0072213,Slough Town Centre,Slough,,,,,,,UKOS,497821,180107,-0.591779,51.511431,BCT,MKD,OTH,,,,050,2023-08-29T08:39:34.474,2023-08-29T08:39:34.474,0,new,active
0370sc40,slgdmaj,,,St Bernards School,,,,,,Langley Road,,,,,,N,E0041742,Langley,,,,,,,,UKOS,499051,179488,-0.57424,51.50566,BCT,CUS,OTH,,,,050,2023-10-20T06:52:57.777,2023-10-20T06:52:57.777,0,new,active
037000000462,slgdmam,,,Islamic Centre,,,,,,Stoke Poges Lane,,,,,,N,N0072215,Baylis,Slough,,Slough,,Baylis,,,UKOS,497264,180887,-0.5995925,51.5185447,BCT,MKD,OTH,,,,050,2025-11-07T11:17:28.960,2025-11-07T11:40:14.912,1,revise,active
037000000463,slgdmap,,,Islamic Centre,,,,,,Stoke Poges Lane,,,,,,N,N0072215,Baylis,Slough,,Slough,,Baylis,,,UKOS,497246,180908,-0.5998464,51.5187365,BCT,MKD,OTH,,,,050,2025-11-07T11:31:30.014,2025-11-07T11:39:40.391,1,revise,active
037000000464,slgdmat,,,Bradley Road,,,,,,Stoke Poges Lane,,,,,,N,N0072215,Baylis,Slough,,Slough,,,,,UKOS,497265,180656,-0.5996405,51.5164615,BCT,MKD,OTH,,,,050,2025-11-07T12:13:55.732,2025-11-07T12:13:55.732,0,new,active
037000000465,slgdmaw,,,Bradley Road,,,,,,Stoke Poges Lane,,,,,,N,N0072215,Baylis,Slough,,Slough,,,,,UKOS,497236,180582,-0.6000746,51.5158032,BCT,MKD,OTH,,,,050,2025-11-07T12:19:33.497,2025-11-07T12:19:33.497,0,new,active
