ATCOCode,NaptanCode,PlateCode,CleardownCode,CommonName,CommonNameLang,ShortCommonName,ShortCommonNameLang,Landmark,LandmarkLang,Street,StreetLang,Crossing,CrossingLang,Indicator,IndicatorLang,Bearing,NptgLocalityCode,LocalityName,ParentLocalityName,GrandParentLocalityName,Town,TownLang,Suburb,SuburbLang,LocalityCentre,GridType,Easting,Northing,Longitude,Latitude,StopType,BusStopType,TimingStatus,DefaultWaitTime,Notes,NotesLang,AdministrativeAreaCode,CreationDateTime,ModificationDateTime,RevisionNumber,Modification,Status
0380F763H572,bknapwm,,,Alice Gough,,,,,,Crowthorne Road,,,,adj,,NE,N0060051,Wildridings,Bracknell,,Bracknell,EN,Wildridings,EN,false,UKOS,486665,168480,-0.75534,51.40873,BCT,MKD,OTH,,,,006,2004-11-01T00:00:00,2024-02-21T12:12:42,20,new,active
0380F759H553,bknapwj,,,Alice Gough,,,,Downside - Downshire Way - Beechcroft Court,,Crowthorne Road,,,,opp,,SW,N0060051,Wildridings,Bracknell,,Bracknell,EN,Wildridings,EN,false,UKOS,486668,168465,-0.75531,51.4086,BCT,MKD,OTH,,,,006,2004-11-01T00:00:00,2019-01-17T12:48:00,4,new,active
0380I005H964,bkndamp,,,Allsmoor Lane,,,,Lily Hill Park - Drovers Way - Balldocks,,London Road,,,,opp,,E,N0060044,Martins Heron,Bracknell,,Bracknell,EN,Bullbrook,EN,false,UKOS,489005,168964,-0.72159,51.41272,BCT,MKD,OTH,,,,006,2004-11-01T00:00:00,2011-06-09T18:20:00,1,new,active
0380H988H955,bkndamj,,,Allsmoor Lane,,,,Lily Hill Park - Drovers Way - Balldocks,,London Road,,,,adj,,W,N0060044,Martins Heron,Bracknell,,Bracknell,EN,Bullbrook,EN,false,UKOS,488988,168955,-0.72184,51.41264,BCT,MKD,OTH,,,,006,2004-11-01T00:00:00,2011-06-09T18:20:00,1,new,active
0380E895I572,bknamtd,,,Ambassador,,,,Appledore - Abbotsbury,,Ringmead,,,,opp,,N,N0060050,Great Hollands,Bracknell,,Bracknell,EN,Great Hollands,EN,false,UKOS,485895,167572,-0.76663,51.40069,BCT,MKD,OTH,,,,006,2004-11-01T00:00:00,2012-01-31T15:14:00,1,new,active
0380E905I582,bknamtg,,,Ambassador,,,,Appledore - Abbotsbury,,Ringmead,,,,adj,,S,N0060050,Great Hollands,Bracknell,,Bracknell,EN,Great Hollands,EN,false,UKOS,485905,167582,-0.76649,51.40077,BCT,MKD,OTH,,,,006,2004-11-01T00:00:00,2012-01-31T15:15:00,1,new,active
0380K070G896,bkndawm,,,Ascot Heath,,,,Kaynes Park - Library,,Fernbank Road,,,,NE-bound,,NE,N0060780,North Ascot,,,North Ascot,EN,North Ascot,EN,false,UKOS,491070,169896,-0.69167,51.42077,BCT,MKD,OTH,,,,006,2004-11-01T00:00:00,2012-01-31T15:23:00,3,new,active
0380K022G834,bkndawg,,,Ascot Heath,,,,Kaynes Park - Ascot Heath - Library,,Fernbank Road,,,,SW-bound,,SW,N0060780,North Ascot,,,North Ascot,EN,North Ascot,EN,false,UKOS,491022,169834,-0.69237,51.42022,BCT,MKD,OTH,,,,006,2004-11-01T00:00:00,2012-01-31T15:22:00,2,new,active
0380F049I427,bknamwt,,,Avebury,,,,Aysgarth - Ashbourne - Great Hollands Road,,Ringmead,,,,opp,,N,N0060050,Great Hollands,Bracknell,,Bracknell,EN,Great Hollands,EN,false,UKOS,486049,167427,-0.76445,51.39936,BCT,MKD,OTH,,,,006,2004-11-01T00:00:00,2011-06-09T18:21:00,1,new,active
0380F089I312,bknapam,,,Avebury,,,,Aysgarth - Ashbourne - Great Hollands Road,,Ringmead,,,,adj,,S,N0060050,Great Hollands,Bracknell,,Bracknell,EN,Great Hollands,EN,false,UKOS,486106,167303,-0.76367,51.39824,BCT,MKD,OTH,,,,006,2004-11-01T00:00:00,2011-06-09T18:21:00,2,new,active
0380H051G388,bknawgw,,,New Road,,,,Bullbrook Shops - Deepfield Road,,Bay Road,,,,opp,,S,E0035405,Bullbrook,Bracknell,,Bracknell,EN,Bullbrook,EN,false,UKOS,488060,169387,-0.73507,51.41667,BCT,MKD,OTH,,,,006,2004-11-01T00:00:00,2009-08-03T16:44:00,2,new,active
0380F855J541,bknatdm,,,Birch Hill Shopping Centre,,,,Birch Hill - Leppington - Waitrose,,Birch Hill Road,,,,N-bound,,N,N0060048,Hanworth,Bracknell,,Bracknell,EN,Hanworth,EN,false,UKOS,486855,166541,-0.75309,51.39127,BCT,MKD,OTH,,,,006,2004-11-01T00:00:00,2012-01-23T17:08:00,1,new,active
0380F869J536,bknatdp,,,Birch Hill Shopping Centre,,,,Birch Hill - Leppington - Waitrose,,Birch Hill Road,,,,S-bound,,S,N0060048,Hanworth,Bracknell,,Bracknell,EN,Hanworth,EN,false,UKOS,486869,166536,-0.75289,51.39123,BCT,MKD,OTH,,,,006,2004-11-01T00:00:00,2012-01-23T17:07:00,2,new,active
0380E410H448,bknamad,,,Ellesfield Avenue,,,,Lovelace Road roundabout,,Ellesfield Avenue,,,,E-bound,,E,N0060783,Southern Industrial Area,Bracknell,,Bracknell,EN,Bracknell,EN,false,UKOS,485418,168465,-0.77327,51.40879,BCT,MKD,OTH,,,,006,2004-11-01T00:00:00,2015-01-20T16:52:00,4,new,active
0380E430H466,bknamat,,,Ellesfield Avenue,,,,Lovelace Road roundabout,,Ellesfield Avenue,,,,W-bound,,W,N0060783,Southern Industrial Area,Bracknell,,Bracknell,EN,Bracknell,EN,false,UKOS,485530,168441,-0.77167,51.40855,BCT,MKD,OTH,,,,006,2004-11-01T00:00:00,2015-01-20T16:49:00,5,new,active
0380F844D657,bknataw,,,Bowyers Lane,,,,Bowyers Lane - Buckle Lane,,Maidenhead Road,,,,opp,,N,E0035419,Moss End,,,Bracknell,EN,Moss End,EN,false,UKOS,486844,172657,-0.75175,51.44625,BCT,MKD,OTH,,,,006,2004-11-01T00:00:00,2011-06-09T18:22:00,1,new,active
0380F854D650,bknatdj,,,Bowyers Lane,,,,Bowyers Lane - Buckle Lane,,Maidenhead Road,,,,adj,,S,E0035419,Moss End,,,Bracknell,EN,Moss End,EN,false,UKOS,486854,172650,-0.75161,51.44619,BCT,MKD,OTH,,,,006,2004-11-01T00:00:00,2011-06-09T18:22:00,1,new,active
0380H011H014,bknawgt,,,Bradfields,,,,The Mount. Thornhill - Ripplesmere,,Harmanswater Road,,,,opp,,E,N0060045,Harmans Water,Bracknell,,Bracknell,EN,Harmanswater,EN,false,UKOS,488011,168014,-0.73611,51.40434,BCT,MKD,OTH,,,,006,2004-11-01T00:00:00,2012-07-19T11:09:00,3,new,active
0380H048H014,bkndmag,,,Bradfields,,,,,,Harmans Water Road,,,,adj,,W,N0060045,Harmans Water,Bracknell,,,,,,false,UKOS,487996,167994,-0.73633,51.40416,BCT,MKD,OTH,,,,006,2017-07-11T00:00:00,2017-07-21T12:18:00,1,new,active
0380F987H402,bknatgm,,,Brakenhale School,,,,Coningsby - Bill Hill,,Rectory Lane,,,,opp,,E,E0035411,Easthampstead,Bracknell,,Bracknell,EN,Easthampstead,EN,false,UKOS,486987,168402,-0.75074,51.40798,BCT,MKD,OTH,,,,006,2004-11-01T00:00:00,2012-01-31T15:30:00,2,new,active
0380F982H382,bknatgj,,,Brakenhale School,,,,Easthampstead Surgery - Saffron Road,,Rectory Lane,,,,W-bound,,W,E0035411,Easthampstead,Bracknell,,Bracknell,EN,Easthampstead,EN,false,UKOS,486982,168382,-0.75081,51.4078,BCT,MKD,OTH,,,,006,2004-11-01T00:00:00,2012-01-25T12:23:00,1,new,active
0380E458N088,bknamaw,,,Branksome Hill Road,,,,Glenn Innes - College Road,,Yeovil Road,,,,opp,,E,E0035408,College Town,Sandhurst,,Sandhurst,EN,College Town,EN,false,UKOS,485458,162088,-0.77423,51.35145,BCT,MKD,OTH,,,,006,2004-11-01T00:00:00,2012-07-19T11:10:00,3,new,active
0380E477N071,bknamdj,,,Branksome Hill Road,,,,Glenn Innes - College Road,,Yeovil Road,,,,adj,,W,E0035408,College Town,Sandhurst,,Sandhurst,EN,College Town,EN,false,UKOS,485477,162071,-0.77396,51.3513,BCT,MKD,OTH,,,,006,2004-11-01T00:00:00,2012-07-19T11:11:00,4,new,active
0380F840F158,bknatap,,,Braybrooke Recreation Ground,,,,Makepiece Road east end,,Braybrooke Road,,,,adj,,E,E0057151,Bracknell,,,Bracknell,EN,Bracknell,EN,false,UKOS,486840,170158,-0.75242,51.42379,BCT,MKD,OTH,,,,006,2004-11-01T00:00:00,2010-03-19T15:46:00,4,new,active
0380F802F160,bknatag,,,Braybrooke Recreation Ground,,,,Makepiece Road east end,,Braybrooke Road,,,,opp,,W,E0057151,Bracknell,,,Bracknell,EN,Bracknell,EN,false,UKOS,486802,170160,-0.75296,51.42381,BCT,MKD,OTH,,,,006,2004-11-01T00:00:00,2010-08-19T16:15:00,7,new,active
0380H001F216,bknawgm,,,Broadrick Heath,,,,Whitegrove - Warfield Primary School,,Harvest Ride,,,,adj,,NW,N0060774,Whitegrove,Bracknell,,Bracknell,EN,Whitegrove,EN,false,UKOS,488001,170216,-0.73571,51.42413,BCT,MKD,OTH,,,,006,2004-11-01T00:00:00,2010-04-23T11:43:00,2,new,active
0380H060F183,bknawjd,,,Broadrick Heath,,,,Whitegrove - Warfield Primary School,,Harvest Ride,,,,opp,,SE,N0060774,Whitegrove,Bracknell,,Bracknell,EN,Whitegrove,EN,false,UKOS,488060,170183,-0.73487,51.42383,BCT,MKD,OTH,,,,006,2004-11-01T00:00:00,2010-04-23T11:43:00,3,new,active
0380D322L709,bknagtw,,,Brookers Row,,,,Ellis Road - Celandine Close,,Old Wokingham Road,,,,opp,,N,E0052955,Crowthorne,,,Crowthorne,EN,Crowthorne,EN,false,UKOS,484322,164709,-0.78992,51.37518,BCT,MKD,OTH,,,,006,2004-11-01T00:00:00,2012-02-03T15:05:00,1,new,active
0380D341L665,bknagwa,,,Brookers Row,,,,Ellis Road - Celandine Close,,Old Wokingham Road,,,,adj,,S,E0052955,Crowthorne,,,Crowthorne,EN,Crowthorne,EN,false,UKOS,484341,164665,-0.78966,51.37479,BCT,MKD,OTH,,,,006,2004-11-01T00:00:00,2012-07-19T11:19:00,2,new,active
0380F213J975,bknapdt,,,Brunswick,,,,Hanworth - Bucklebury,,Hanworth Road,,,,adj,,N,N0060048,Hanworth,Bracknell,,Bracknell,EN,Hanworth,EN,false,UKOS,486213,166975,-0.76221,51.39527,BCT,MKD,OTH,,,,006,2004-11-01T00:00:00,2012-01-19T13:50:00,2,new,active
0380F212J959,bknapdp,,,Brunswick,,,,Hanworth - Bucklebury,,Hanworth Road,,,,opp,,S,N0060048,Hanworth,Bracknell,,Bracknell,EN,Hanworth,EN,false,UKOS,486212,166959,-0.76223,51.39513,BCT,MKD,OTH,,,,006,2004-11-01T00:00:00,2012-01-19T13:50:00,2,new,active
0380G430I628,bknatmp,,,Harmanswater Road,,,,Nightingale Crescent - Primrose Walk,,Opladen Way,,,,N-bound,,N,N0060772,Crown Wood,Bracknell,,Bracknell,EN,Crown Wood,EN,false,UKOS,487430,167628,-0.74456,51.40096,BCT,MKD,OTH,,,,006,2004-11-01T00:00:00,2016-09-27T14:58:00,5,new,active
0380G433I677,bknatmt,,,Harmanswater Road,,,,Nightingale Crescent - Primrose Walk,,Opladen Way,,,,S-bound,,S,N0060772,Crown Wood,Bracknell,,Bracknell,EN,Crown Wood,EN,false,UKOS,487433,167677,-0.7445,51.4014,BCT,MKD,OTH,,,,006,2004-11-01T00:00:00,2016-09-27T14:58:00,5,new,active
0380H207H778,bknawpd,,,Calfridus Way,,,,Vincent Rise - Broad Lane,,Ralphs Ride,,,,opp,,N,E0057151,Bracknell,,,Bracknell,EN,Bracknell,EN,false,UKOS,488207,168778,-0.73311,51.41117,BCT,MKD,OTH,,,,006,2004-11-01T00:00:00,2012-01-19T13:38:00,1,new,active
0380H232H740,bknawpt,,,Calfridus Way,,,,Brants Bridge - Rowley Close - Vincent Rise,,Ralphs Ride,,,,adj,,S,E0057151,Bracknell,,,Bracknell,EN,Bracknell,EN,false,UKOS,488232,168740,-0.73276,51.41083,BCT,MKD,OTH,,,,006,2004-11-01T00:00:00,2012-01-19T13:38:00,1,new,active
0380F025J705,bknamwj,,,Cannie Man,,,,Prescott - The Pines - Hanworth Shops,,Hanworth Road,,,,adj,,N,N0060048,Hanworth,Bracknell,,Bracknell,EN,Hanworth,EN,false,UKOS,486025,166705,-0.76497,51.39287,BCT,MKD,OTH,,,,006,2004-11-01T00:00:00,2015-11-02T12:10:00,2,new,active
0380F035J635,bknamwm,,,Cannie Man,,,,Prescott - The Pines - Hanworth Shops,,Hanworth Road,,,,opp,,S,N0060048,Hanworth,Bracknell,,Bracknell,EN,Hanworth,EN,false,UKOS,486035,166635,-0.76485,51.39224,BCT,MKD,OTH,,,,006,2004-11-01T00:00:00,2015-11-02T12:10:00,2,new,active
0380J113F369,bkndata,,,Locks Ride,,,,Chavey Down,,Locks Ride,,,,adj 59,,N,E0035407,Chavey Down,,,Winkfield,EN,Winkfield,EN,false,UKOS,490113,170369,-0.7053,51.42518,BCT,MKD,OTH,,,,006,2004-11-01T00:00:00,2012-01-19T13:41:00,4,new,active
0380J130F381,bkndatd,,,Locks Ride,,,,Chavey Down,,Locks Ride,,,,opp 59,,S,E0035407,Chavey Down,,,Winkfield,EN,Winkfield,EN,false,UKOS,490130,170381,-0.70506,51.42528,BCT,MKD,OTH,,,,006,2004-11-01T00:00:00,2012-01-19T13:41:00,3,new,active
0380L053D422,bkndgdj,,,Chilston Manor,,,,The Splash - Crouch Lane,,North Street,,,,Adj,,NE,E0035409,Cranbourne,,,Winkfield,EN,Winkfield,EN,false,UKOS,492053,172422,-0.67688,51.44332,BCT,MKD,OTH,,,,006,2004-11-01T00:00:00,2007-09-13T11:28:00,2,new,active
0380L059D416,bkndgdm,,,Chilston Manor,,,,The Splash - Crouch Lane,,North Street,,,,Opp,,SW,E0035409,Cranbourne,,,Winkfield,EN,Winkfield,EN,false,UKOS,492059,172416,-0.67679,51.44326,BCT,MKD,OTH,,,,006,2004-11-01T00:00:00,2007-09-13T11:29:00,2,new,active
0380F314I625,bknapgj,,,St Michael's Church,,,,Easthampstead Church - Wildridings Road,,Crowthorne Road,,,,adj,,E,E0035411,Easthampstead,Bracknell,,Bracknell,EN,Wildridings,EN,false,UKOS,486314,167625,-0.7606,51.4011,BCT,MKD,OTH,,,,006,2004-11-01T00:00:00,2015-03-09T11:17:00,5,new,active
0380F367I608,bknapja,,,St Michael's Church,,,,Easthampstead Church - Wildridings Road,,Crowthorne Road,,,,opp,,W,E0035411,Easthampstead,Bracknell,,Bracknell,EN,Wildridings,EN,false,UKOS,486367,167608,-0.75984,51.40094,BCT,MKD,OTH,,,,006,2004-11-01T00:00:00,2015-03-09T11:16:00,3,new,active
0380E404O670,bknajwt,,,College Crescent,,,,The Close - Range View,,College Road,,,,Opp,,N,E0035408,College Town,Sandhurst,,Sandhurst,EN,College Town,EN,false,UKOS,485404,161670,-0.77511,51.3477,BCT,MKD,OTH,,,,006,2004-11-01T00:00:00,2006-12-06T15:15:00,1,new,active
0380E411O664,bknamag,,,College Crescent,,,,The Close - Range View,,College Road,,,,Adj,,S,E0035408,College Town,Sandhurst,,Sandhurst,EN,College Town,EN,false,UKOS,485411,161664,-0.77501,51.34765,BCT,MKD,OTH,,,,006,2004-11-01T00:00:00,2006-12-06T15:15:00,1,new,active
0380B974M966,bknagdp,,,Coppice Gardens,,,,Wellington College West entrance,,Dukes Ride,,,,adj,,E,E0052955,Crowthorne,,,Crowthorne,EN,Crowthorne,EN,false,UKOS,482974,163966,-0.80945,51.3687,BCT,MKD,OTH,,,,006,2004-11-01T00:00:00,2011-06-15T17:41:00,2,new,active
0380B897M937,bknagdm,,,Coppice Gardens,,,,Wellington College West entrance,,Dukes Ride,,,,opp,,W,E0052955,Crowthorne,,,Crowthorne,EN,Crowthorne,EN,false,UKOS,482897,163937,-0.81057,51.36845,BCT,MKD,OTH,,,,006,2004-11-01T00:00:00,2011-06-15T17:41:00,2,new,active
0380C927G115,bknagmt,,,Coppid Beech Hill,,,,Waterworks - Radio Mast,,London Road,,,,E-bound,,E,E0035403,Amen Corner,Bracknell,,Bracknell,EN,Amen Corner,EN,false,UKOS,483927,169115,-0.79455,51.41485,BCT,MKD,OTH,,,,006,2004-11-01T00:00:00,2012-01-25T12:37:00,1,new,active
0380C930G095,bknagmw,,,Coppid Beech Hill,,,,Waterworks - Radio mast,,London Road,,,,W-bound,,W,E0035403,Amen Corner,Bracknell,,Bracknell,EN,Amen Corner,EN,false,UKOS,483930,169095,-0.79451,51.41467,BCT,MKD,OTH,,,,006,2004-11-01T00:00:00,2012-01-25T12:36:00,1,new,active
0380D292G371,bknagtp,,,Merydene Court,,,,Garage,,London Road,,,,opp,,NE,E0035425,Popeswood,Bracknell,,Bracknell,EN,Popeswood,EN,false,UKOS,484315,169398,-0.78891,51.41734,BCT,MKD,OTH,,,,006,2004-11-01T00:00:00,2014-04-30T15:16:00,4,new,active
0380D289G345,bknagtm,,,Merydene Court,,,,Garage,,London Road,,,,adj,,SW,E0035425,Popeswood,Bracknell,,Bracknell,EN,Popeswood,EN,false,UKOS,484286,169340,-0.78934,51.41682,BCT,MKD,OTH,,,,006,2004-11-01T00:00:00,2014-04-30T15:18:00,4,new,active
0380L018E661,bkndgdg,,,Primary School,,,,Plaistow Green,,Lovel Road,,,,adj,,E,E0035409,Cranbourne,,,Cranbourne,EN,Cranbourne,EN,false,UKOS,492018,171661,-0.67758,51.43648,BCT,MKD,OTH,,,,006,2004-11-01T00:00:00,2009-11-17T13:35:00,3,new,active
0380K970E680,bkndgaw,,,Primary School,,,,Plaistow Green,,Lovel Road,,,,opp,,W,E0035409,Cranbourne,,,Cranbourne,EN,Cranbourne,EN,false,UKOS,491970,171680,-0.67826,51.43666,BCT,MKD,OTH,,,,006,2004-11-01T00:00:00,2009-11-17T13:35:00,4,new,active
0380E042K951,bknajgt,,,Crematorium,,,,Strawberry Cottages South Road - Crematorium,,Nine Mile Ride,,,,E-bound,,E,E0035412,Easthampstead Park,Bracknell,,Bracknell,EN,Easthampstead Park,EN,false,UKOS,485042,165951,-0.77928,51.38624,BCT,MKD,OTH,,,,006,2004-11-01T00:00:00,2012-01-25T12:43:00,3,new,active
0380E128K959,bknajpa,,,Crematorium,,,,Strawberry Cottages South Road - Crematorium,,Nine Mile Ride,,,,W-bound,,W,E0035412,Easthampstead Park,Bracknell,,Bracknell,EN,Easthampstead Park,EN,false,UKOS,485128,165959,-0.77804,51.3863,BCT,MKD,OTH,,,,006,2004-11-01T00:00:00,2012-01-25T12:44:00,3,new,active
0380L422D723,bkndgjg,,,Crouch Lane,,,,The Splash Chilton Manor,,North Street,,,,adj,,NE,E0035409,Cranbourne,,,Cranbourne,EN,Cranbourne,EN,false,UKOS,492422,172723,-0.67149,51.44596,BCT,MKD,OTH,,,,006,2004-11-01T00:00:00,2012-07-19T11:07:00,4,new,active
0380L402D689,bkndgjd,,,Crouch Lane,,,,The Splash Chilton Manor,,North Street,,,,opp,,SW,E0035409,Cranbourne,,,Cranbourne,EN,Cranbourne,EN,false,UKOS,492402,172689,-0.67179,51.44566,BCT,MKD,OTH,,,,006,2004-11-01T00:00:00,2012-07-19T11:07:00,6,new,active
0380H089I166,bknawjm,,,Crownwood Shops,,,,Crownwood School - The Crown Wood,,Opladen Way,,,,N-bound,,N,N0060772,Crown Wood,Bracknell,,Bracknell,EN,Crownwood,EN,false,UKOS,488089,167166,-0.7352,51.3967,BCT,MKD,OTH,,,,006,2004-11-01T00:00:00,2012-02-03T15:21:00,4,new,active
0380H096I159,bknawjp,,,Crownwood Shops,,,,Crownwood School - The Crown Wood,,Opladen Way,,,,S-bound,,S,N0060772,Crown Wood,Bracknell,,Bracknell,EN,Crownwood,EN,false,UKOS,488096,167159,-0.7351,51.39664,BCT,MKD,OTH,,,,006,2004-11-01T00:00:00,2012-02-03T15:21:00,2,new,active
0380F480J917,bknapjt,,,Deansgate,,,,North of Deansgate Junction,,Birch Hill Road,,,,opp,,N,N0060048,Hanworth,Bracknell,,Bracknell,EN,Hanworth,EN,false,UKOS,486480,166917,-0.75838,51.39471,BCT,MKD,OTH,,,,006,2004-11-01T00:00:00,2012-01-19T13:52:00,1,new,active
0380F496J914,bknapma,,,Deansgate,,,,adjacent to Earlswood,,Birch Hill Road,,,,adj,,S,N0060048,Hanworth,Bracknell,,Bracknell,EN,Hanworth,EN,false,UKOS,486496,166914,-0.75816,51.39468,BCT,MKD,OTH,,,,006,2004-11-01T00:00:00,2012-01-19T13:52:00,1,new,active
0380G605G404,bknatwg,,,Deepfield Road West,,,,Met Office - Bullbrook,,Deepfield Road,,,,E-bound,,E,E0035405,Bullbrook,Bracknell,,Bracknell,EN,Bullbrook,EN,false,UKOS,487605,169404,-0.74161,51.41689,BCT,MKD,OTH,,,,006,2004-11-01T00:00:00,2012-02-03T15:26:00,1,new,active
0380G645G396,bknatwj,,,Deepfield Road West,,,,Met Office - Bullbrook,,Deepfield Road,,,,W-bound,,W,E0035405,Bullbrook,Bracknell,,Bracknell,EN,Bullbrook,EN,false,UKOS,487645,169396,-0.74103,51.41682,BCT,MKD,OTH,,,,006,2004-11-01T00:00:00,2012-02-03T15:27:00,1,new,active
0380E738G355,bknampd,,,Milbanke Way,,,,Western Road - Western Centre,,Western Road,,,,E-bound,,E,N0060784,Western Industrial Area,Bracknell,,Bracknell,EN,Bracknell,EN,false,UKOS,485738,169355,-0.76846,51.41674,BCT,MKD,OTH,,,,006,2004-11-01T00:00:00,2012-02-07T15:02:00,2,new,active
0380E733G343,bknampa,,,Milbanke Way,,,,Corrugated Products - Western Road - Racals,,Western Road,,,,opp,,W,N0060784,Western Industrial Area,Bracknell,,Bracknell,EN,Bracknell,EN,false,UKOS,485733,169343,-0.76853,51.41663,BCT,MKD,OTH,,,,006,2004-11-01T00:00:00,2012-01-19T12:43:00,3,new,active
0380E346H571,bknajtp,,,Doncastle Road,,,,Ellesfield Avenue roundabout,,Doncastle Road,,,,N-bound,,N,N0060783,Southern Industrial Area,Bracknell,,Bracknell,EN,Bracknell,EN,false,UKOS,485346,168571,-0.77428,51.40975,BCT,MKD,OTH,,,,006,2004-11-01T00:00:00,2012-01-19T13:53:00,1,new,active
0380E356H600,bknajwa,,,Doncastle Road,,,,Ellesfield Avenue roundabout,,Doncastle Road,,,,S-bound,,S,N0060783,Southern Industrial Area,Bracknell,,Bracknell,EN,Bracknell,EN,false,UKOS,485356,168600,-0.77413,51.41001,BCT,MKD,OTH,,,,006,2004-11-01T00:00:00,2012-01-19T13:53:00,1,new,active
0380H620H967,bkndagw,,,Drovers Way,,,,Rangers Lodge - Lily Hill Park,,London Road,,,,adj,,W,N0060044,Martins Heron,Bracknell,,Bracknell,EN,Bullbrook,EN,false,UKOS,488620,168967,-0.72712,51.41281,BCT,MKD,OTH,,,,006,2004-11-01T00:00:00,2011-06-15T17:42:00,1,new,active
0380H635H978,bkndaja,,,Drovers Way,,,,Rangers Lodge - Lily Hill Park,,London Road,,,,opp,,E,N0060044,Martins Heron,Bracknell,,Bracknell,EN,Bullbrook,EN,false,UKOS,488635,168978,-0.7269,51.4129,BCT,MKD,OTH,,,,006,2004-11-01T00:00:00,2011-06-15T17:41:00,1,new,active
0380C761N595,bknagjt,,,Eagle House,,,,Eagle School - Westridge Road,,Crowthorne Road,,,,opp,,S,E0052956,Sandhurst,,,Sandhurst,EN,Sandhurst,EN,false,UKOS,483761,162595,-0.79847,51.35626,BCT,MKD,OTH,,,,006,2004-11-01T00:00:00,2012-02-03T15:35:00,1,new,active
0380E851I064,bknampj,,,East Lodge,,,,Holbeck - Holland Pines,,Great Hollands Road,,,,Opp,,NW,N0060050,Great Hollands,Bracknell,,Bracknell,EN,Great Hollands,EN,false,UKOS,485851,167064,-0.76739,51.39613,BCT,MKD,OTH,,,,006,2004-11-01T00:00:00,2007-09-13T10:38:00,3,new,active
0380E858I073,bknampt,,,East Lodge,,,,Holbeck - Holland Pines,,Great Hollands Road,,,,Adj,,SE,N0060050,Great Hollands,Bracknell,,Bracknell,EN,Great Hollands,EN,false,UKOS,485858,167073,-0.76728,51.39621,BCT,MKD,OTH,,,,006,2004-11-01T00:00:00,2007-09-13T10:38:00,2,new,active
0380C853M444,bknagmg,,,Edgbarrow School,,,,Byron Drive - Wellington Road East,,Sandhurst Road,,,,Opp,,N,E0052955,Crowthorne,,,Crowthorne,EN,Crowthorne,EN,false,UKOS,483853,163444,-0.79695,51.36388,BCT,MKD,OTH,,,,006,2004-11-01T00:00:00,2007-09-13T10:19:00,2,new,active
0380C793M279,bknagjw,,,Edgbarrow School,,,,Byron Drive - Wellington Road East,,Sandhurst Road,,,,Adj,,S,E0052955,Crowthorne,,,Crowthorne,EN,Crowthorne,EN,false,UKOS,483793,163279,-0.79785,51.36241,BCT,MKD,OTH,,,,006,2004-11-01T00:00:00,2007-09-13T10:18:00,2,new,active
0380D722O604,bknajga,,,Evenlode Way,,,,Evenlode Way Roundabout,,Rackstraw Road,,,,adj,,N,E0052956,Sandhurst,,,Sandhurst,EN,Sandhurst,EN,false,UKOS,484722,161604,-0.78491,51.34721,BCT,MKD,OTH,,,,006,2004-11-01T00:00:00,2012-07-19T11:18:00,3,new,active
0380D741O570,bknajgd,,,Evenlode Way,,,,Evenlode Way Roundabout,,Rackstraw Road,,,,opp,,S,E0052956,Sandhurst,,,Sandhurst,EN,Sandhurst,EN,false,UKOS,484741,161570,-0.78465,51.3469,BCT,MKD,OTH,,,,006,2004-11-01T00:00:00,2012-07-19T11:18:00,3,new,active
0380E470G473,bknamda,,,Farley Moor Lake,,,,Longshot Lane,,Western Road,,,,opp,,E,E0035425,Popeswood,Bracknell,,Bracknell,EN,Bracknell,EN,false,UKOS,485470,169473,-0.77228,51.41784,BCT,MKD,OTH,,,,006,2004-11-01T00:00:00,2012-01-19T13:43:00,1,new,active
0380E512G431,bknamdw,,,Farley Moor Lake,,,,Longshot Lane,,Western Road,,,,adj,,W,E0035425,Popeswood,Bracknell,,Bracknell,EN,Bracknell,EN,false,UKOS,485512,169431,-0.77169,51.41746,BCT,MKD,OTH,,,,006,2004-11-01T00:00:00,2012-01-19T13:43:00,3,new,active
0380J492H875,bkndatm,,,Fernbank Corner,,,,Fernbank Road,,London Road,,,,E-bound,,E,N0060780,North Ascot,,,North Ascot,EN,North Ascot,EN,false,UKOS,490492,168875,-0.70024,51.41169,BCT,MKD,OTH,,,,006,2004-11-01T00:00:00,2012-02-06T16:20:00,1,new,active
0380J430H933,bkndatj,,,Fernbank Corner,,,,Hire Shop - London Road,,Fernbank Road,,,,N-bound,,N,N0060780,North Ascot,,,North Ascot,EN,North Ascot,EN,false,UKOS,490430,168933,-0.70111,51.41222,BCT,MKD,OTH,,,,006,2004-11-01T00:00:00,2012-02-06T16:28:00,1,new,active
0380J328H871,bkndatg,,,Fernbank Corner,,,,Fernbank Road,,London Road,,,,W-bound,,W,N0060780,North Ascot,,,North Ascot,EN,North Ascot,EN,false,UKOS,490328,168871,-0.70259,51.41168,BCT,MKD,OTH,,,,006,2004-11-01T00:00:00,2012-02-06T16:19:00,2,new,active
0380E655F040,bknamjd,,,Fernhill Close,,,,Meadow Vale School - Temple Park,,Mooredale Avenue,,,,adj,,E,E0035426,Priestwood,Bracknell,,Bracknell,EN,Priestwood,EN,false,UKOS,485655,170040,-0.76949,51.42291,BCT,MKD,OTH,,,,006,2004-11-01T00:00:00,2012-07-19T11:12:00,2,new,active
0380H257E040,bknawtg,,,Five Ways Corner,,,,Warfield Street - Forest Road,,Jiggs Lane North,,,,N-bound,,N,N0060774,Whitegrove,Bracknell,,Binfield,EN,Binfield,EN,false,UKOS,488257,171040,-0.73182,51.4315,BCT,MKD,OTH,,,,006,2004-11-01T00:00:00,2012-02-06T16:32:00,1,new,active
0380H302E050,bknawtp,,,Five Ways Corner,,,,Warfield Street - Jigs Lane North,,Forest Road,,,,W-bound,,W,N0060774,Whitegrove,Bracknell,,Binfield,EN,Binfield,EN,false,UKOS,488302,171050,-0.73118,51.43158,BCT,MKD,OTH,,,,006,2004-11-01T00:00:00,2012-02-06T16:31:00,2,new,active
0380E417J035,bknamam,,,Forresters Way - Vintage Inn,,,,Vintage Inn - Pinewood Kennels,,Nine Mile Ride,,,,opp,,E,E0035412,Easthampstead Park,Bracknell,,Bracknell,EN,Easthampstead Park,EN,false,UKOS,485417,166035,-0.77387,51.38694,BCT,MKD,OTH,,,,006,2004-11-01T00:00:00,2011-06-09T18:01:00,2,new,active
0380E356J004,bknajwd,,,Forresters Way - Vintage Inn,,,,Vintage Inn - Pinewood Kennels,,Nine Mile Ride,,,,adj,,W,E0035412,Easthampstead Park,Bracknell,,Bracknell,EN,Easthampstead Park,EN,false,UKOS,485356,166004,-0.77476,51.38667,BCT,MKD,OTH,,,,006,2004-11-01T00:00:00,2011-06-09T18:01:00,2,new,active
0380F559G696,bknaptd,,,Fowlers Lane,,,,Priestwood Post Office - Cottage Bakery,,Binfield Road,,,,NW-bound,,NW,E0057151,Bracknell,,,Bracknell,EN,Bracknell,EN,false,UKOS,486559,169696,-0.75657,51.41968,BCT,MKD,OTH,,,,006,2004-11-01T00:00:00,2023-11-06T16:29:20,36,delete,inactive
0380F593G678,bknaptm,,,Fowlers Lane,,,,Dive Centre - Priestwood Post Office,,Binfield Road,,,,SE-bound,,SE,E0057151,Bracknell,,,Bracknell,EN,Bracknell,EN,false,UKOS,486593,169678,-0.75609,51.41951,BCT,MKD,OTH,,,,006,2004-11-01T00:00:00,2023-11-06T16:30:14,35,delete,inactive
0380G445I436,bknatmw,,,Garswood,,,,Cadence - Frencham,,Opladen Way,,,,opp,,N,N0060772,Crown Wood,Bracknell,,Bracknell,EN,Crown Wood,EN,false,UKOS,487445,167436,-0.74439,51.39923,BCT,MKD,OTH,,,,006,2004-11-01T00:00:00,2011-06-09T18:01:00,1,new,active
0380G474I391,bknatpd,,,Garswood,,,,Cadence - Frencham,,Opladen Way,,,,adj,,S,N0060772,Crown Wood,Bracknell,,Bracknell,EN,Crown Wood,EN,false,UKOS,487474,167391,-0.74398,51.39882,BCT,MKD,OTH,,,,006,2004-11-01T00:00:00,2011-06-09T18:01:00,2,new,active
0380G225I961,bknatjm,,,Glebewood,,,,Harvester - Broad Lane,,Bagshot Road,,,,adj,,N,E0035411,Easthampstead,Bracknell,,Bracknell,EN,Easthampstead,EN,false,UKOS,487225,167961,-0.74742,51.40398,BCT,MKD,OTH,,,,006,2004-11-01T00:00:00,2016-09-27T14:59:00,4,new,active
0380G251I961,bknatjt,,,Glebewood,,,,Bagshot Road - Sports Centre,,Bagshot Road,,,,opp,,S,E0035411,Easthampstead,Bracknell,,Bracknell,EN,Easthampstead,EN,false,UKOS,487251,167961,-0.74705,51.40398,BCT,MKD,OTH,,,,006,2004-11-01T00:00:00,2016-09-27T14:59:00,2,new,active
0380J597G229,bkndatp,,,Goaters Road,,,,Wentworth Avenue,,Fernbank Road,,,,adj,,N,N0060780,North Ascot,,,North Ascot,EN,North Ascot,EN,false,UKOS,490652,169324,-0.69782,51.4157,BCT,MKD,OTH,,,,006,2004-11-01T00:00:00,2009-11-17T12:01:00,1,new,active
0380J610G231,bkndatw,,,Goaters Road,,,,Wentworth Avenue,,Fernbank Road,,,,opp,,S,N0060780,North Ascot,,,North Ascot,EN,North Ascot,EN,false,UKOS,490610,169231,-0.69845,51.41487,BCT,MKD,OTH,,,,006,2004-11-01T00:00:00,2009-11-17T12:01:00,2,new,active
0380F840I262,bknatat,,,Haversham Drive,,,,Haversham Drive - South Hill Park,,South Hill Road,,,,N-bound,,N,E0035411,Easthampstead,Bracknell,,Bracknell,EN,Easthampstead,EN,false,UKOS,486840,167262,-0.75313,51.39776,BCT,MKD,OTH,,,,006,2004-11-01T00:00:00,2012-02-07T11:09:00,2,new,active
0380F848I243,bknatdg,,,Haversham Drive,,,,Sports Centre - Manston Drive,,South Hill Road,,,,S-bound,,S,E0035411,Easthampstead,Bracknell,,Bracknell,EN,Easthampstead,EN,false,UKOS,486848,167243,-0.75302,51.39758,BCT,MKD,OTH,,,,006,2004-11-01T00:00:00,2012-02-07T11:09:00,2,new,active
0380G063I518,bknatgp,,,Harcourt Road,,,,Bagshot Road - Sports Centre,,South Hill Road,,,,adj,,NE,E0035411,Easthampstead,Bracknell,,Bracknell,EN,Easthampstead,EN,false,UKOS,487063,167518,-0.74986,51.40002,BCT,MKD,OTH,,,,006,2004-11-01T00:00:00,2016-09-27T15:00:00,4,new,active
0380G113I531,bknatgt,,,Harcourt Road,,,,Sports Centre - Manston Drive,,South Hill Road,,,,opp,,SW,E0035411,Easthampstead,Bracknell,,Bracknell,EN,Easthampstead,EN,false,UKOS,487113,167531,-0.74914,51.40013,BCT,MKD,OTH,,,,006,2004-11-01T00:00:00,2016-09-27T15:00:00,4,new,active
0380H223H211,bknawpj,,,Harmanswater Shops,,,,Ralphs Ride - Newtown Pippin,,Ralphs Ride,,,,opp,,N,N0060045,Harmans Water,Bracknell,,Bracknell,EN,Harmanswate,EN,false,UKOS,488223,168211,-0.73302,51.40607,BCT,MKD,OTH,,,,006,2004-11-01T00:00:00,2019-01-15T17:04:00,3,new,active
0380H239H185,bknawta,,,Harmanswater Shops,,,,Ralphs Ride - Newtown Pippin,,Ralphs Ride,,,,adj,,S,N0060045,Harmans Water,Bracknell,,Bracknell,EN,Harmanswate,EN,false,UKOS,488239,168185,-0.73279,51.40584,BCT,MKD,OTH,,,,006,2004-11-01T00:00:00,2019-01-15T17:04:00,3,new,active
0380H252H211,,,,Harmanswater Shops,,,,Adjacent The Square,,Ralphs Ride,,,,taxi rank,,,N0060045,Harmans Water,Bracknell,,Bracknell,EN,Harmanswater,EN,false,UKOS,488252,168211,-0.7326,51.40607,TXR,,,,,,006,2004-11-01T00:00:00,2013-09-06T18:09:00,1,new,active
0380C510O806,bknagja,,,Harts Leap Close,,,,The Walls - Wellington Road,,Crowthorne Road,,,,adj,,N,E0052956,Sandhurst,,,Sandhurst,EN,Sandhurst,EN,false,UKOS,483510,161806,-0.80226,51.34921,BCT,MKD,OTH,,,,006,2004-11-01T00:00:00,2012-07-19T11:20:00,3,new,active
0380C604O896,bknagjd,,,Harts Leap Close,,,,The Walls - Wellington Road,,Crowthorne Road,,,,opp,,S,E0052956,Sandhurst,,,Sandhurst,EN,Sandhurst,EN,false,UKOS,483604,161896,-0.80089,51.35,BCT,MKD,OTH,,,,006,2004-11-01T00:00:00,2012-07-19T11:19:00,3,new,active
0380H136I514,bknawmd,,,Helmsdale,,,,Nuthurst,,Opladen Way,,,,adj,,E,N0060772,Crown Wood,Bracknell,,Bracknell,EN,Crown Wood,EN,false,UKOS,488136,167514,-0.73444,51.39982,BCT,MKD,OTH,,,,006,2004-11-01T00:00:00,2012-07-19T11:03:00,2,new,active
0380H120I508,bknawjw,,,Helmsdale,,,,Nuthurst,,Opladen Way,,,,opp,,W,N0060772,Crown Wood,Bracknell,,Bracknell,EN,Crown Wood,EN,false,UKOS,488120,167508,-0.73467,51.39977,BCT,MKD,OTH,,,,006,2004-11-01T00:00:00,2012-02-07T11:20:00,1,new,active
0380G496J519,bknatpj,,,Hillberry,,,,Hornby Avenue - Birch Hill,,Ringmead,,,,N-bound,,N,N0060047,Birch Hill,Bracknell,,Bracknell,EN,Birch Hill,EN,false,UKOS,487496,166519,-0.74388,51.39098,BCT,MKD,OTH,,,,006,2004-11-01T00:00:00,2012-02-07T11:23:00,2,new,active
0380G511J492,bknatpt,,,Hillberry,,,,Hornby Avenue - Birch Hill,,Ringmead,,,,S-bound,,S,N0060047,Birch Hill,Bracknell,,Bracknell,EN,Birch Hill,EN,false,UKOS,487511,166492,-0.74367,51.39073,BCT,MKD,OTH,,,,006,2004-11-01T00:00:00,2012-02-07T11:22:00,2,new,active
0380I744F979,bkndapd,,,Hollies Corner,,,,Chavey Down - Winkfield St Marys,,Chavey Down Road,,,,N-bound,,N,E0035433,Winkfield Row,,,Winkfield,EN,Winkfield,EN,false,UKOS,489744,170979,-0.71046,51.43072,BCT,MKD,OTH,,,,006,2004-11-01T00:00:00,2012-02-07T11:24:00,3,new,active
0380I723E085,bkndjdm,,,Hollies Corner,,,,Recreation Ground,,Chavey Down Road,,,,nr,,S,E0035433,Winkfield Row,,,,,,,false,UKOS,489712,171127,-0.71088,51.43205,BCT,CUS,OTH,,,,006,2009-08-05T00:00:00,2019-01-09T16:26:00,2,new,active
0380I749F994,bkndapg,,,Hollies Corner,,,,Chavey Down - Winkfield St Marys,,Chavey Down Road,,,,S-bound,,S,E0035433,Winkfield Row,,,Winkfield,EN,Winkfield,EN,false,UKOS,489749,170994,-0.71038,51.43085,BCT,MKD,OTH,,,,006,2004-11-01T00:00:00,2014-04-30T15:02:00,5,new,active
0380G155H391,bknatjd,,,Horse and Groom,,,,Rectory Lane - Brakenhale School,,Bagshot Road,,,,opp,,N,E0035411,Easthampstead,Bracknell,,Bracknell,EN,Easthampstead,EN,false,UKOS,487155,168391,-0.74832,51.40786,BCT,MKD,OTH,,,,006,2004-11-01T00:00:00,2012-02-07T12:48:00,1,new,active
0380G192H356,bknatjg,,,Horse and Groom,,,,Harvester - Horse & Groom,,Bagshot Road,,,,Adj,,S,E0035411,Easthampstead,Bracknell,,Bracknell,EN,Easthampstead,EN,false,UKOS,487192,168356,-0.7478,51.40754,BCT,MKD,OTH,,,,006,2004-11-01T00:00:00,2006-12-06T15:40:00,1,new,active
0380E331H360,bknajtj,,,Southern Industrial Area,,,,Near Peacock lane,,Lovelace Road,,,,N-bound,,N,N0060783,Southern Industrial Area,Bracknell,,Bracknell,EN,Bracknell,EN,false,UKOS,485331,168360,-0.77455,51.40786,BCT,MKD,OTH,,,,006,2004-11-01T00:00:00,2012-10-23T16:00:00,3,new,active
0380E338H293,bknajtm,,,Southern Industrial Area,,,,Near Peacock lane,,Lovelace Road,,,,S-bound,,S,N0060783,Southern Industrial Area,Bracknell,,Bracknell,EN,Bracknell,EN,false,UKOS,485338,168293,-0.77446,51.40725,BCT,MKD,OTH,,,,006,2004-11-01T00:00:00,2012-10-23T16:01:00,2,new,active
0380F423H675,bknapjm,,,Ingleton,,,,Hubberholme - Keldholme - Downside,,Wildridings Road,,,,adj,,NW,N0060051,Wildridings,Bracknell,,Bracknell,EN,Wildridings,EN,false,UKOS,486423,168675,-0.75878,51.41052,BCT,MKD,OTH,,,,006,2004-11-01T00:00:00,2011-06-09T18:04:00,2,new,active
0380F436H689,bknapjp,,,Ingleton,,,,Hubberholme - Keldholme - Downside,,Wildridings Road,,,,opp,,SE,N0060051,Wildridings,Bracknell,,Bracknell,EN,Wildridings,EN,false,UKOS,486436,168689,-0.75859,51.41065,BCT,MKD,OTH,,,,006,2004-11-01T00:00:00,2011-06-09T18:03:00,2,new,active
0380H103G958,bknawjt,,,Innings Lane,,,,Edmunds Green - Whitegrove - Innings Lane,,Jigs Lane South,,,,adj,,N,N0060774,Whitegrove,Bracknell,,Bracknell,EN,Whitegrove,EN,false,UKOS,488103,169958,-0.73431,51.4218,BCT,MKD,OTH,,,,006,2004-11-01T00:00:00,2011-06-09T18:04:00,2,new,active
0380H121G972,bknawma,,,Innings Lane,,,,Edmunds Green - Whitegrove - Innings Lane,,Jigs Lane South,,,,opp,,S,N0060774,Whitegrove,Bracknell,,Bracknell,EN,Whitegrove,EN,false,UKOS,488121,169972,-0.73405,51.42192,BCT,MKD,OTH,,,,006,2004-11-01T00:00:00,2011-06-09T18:04:00,2,new,active
0380C971M703,bknagpa,,,Iron Duke,,,,Iron Duke - Library - Lower Broadmoor Road,,Sandhurst Road,,,,N-bound,,N,E0052955,Crowthorne,,,Crowthorne,EN,Crowthorne,EN,false,UKOS,483971,163703,-0.7952,51.36619,BCT,MKD,OTH,,,,006,2004-11-01T00:00:00,2019-01-15T16:58:00,2,new,active
0380C975M681,bknagpd,,,Iron Duke,,,,Iron Duke - Library - Lower Broadmoor Road,,Sandhurst Road,,,,S-bound,,S,E0052955,Crowthorne,,,Crowthorne,EN,Crowthorne,EN,false,UKOS,483975,163681,-0.79514,51.36599,BCT,MKD,OTH,,,,006,2004-11-01T00:00:00,2019-01-15T16:57:00,2,new,active
0380G469I736,bknatpa,,,Iveagh Court,,,,Nightingale Crescent - Primrose Walk,,Harmans Water Road,,,,adj,,E,N0060045,Harmans Water,Bracknell,,Bracknell,EN,Harmanswater,EN,false,UKOS,487469,167736,-0.74397,51.40192,BCT,MKD,OTH,,,,006,2004-11-01T00:00:00,2010-05-06T10:17:00,3,new,active
0380G466I722,bkndjmt,,,Iveagh Court,,,,Primrose Walk,,Harmans Water Road,,,,opp,,W,N0060045,Harmans Water,Bracknell,,,,,,false,UKOS,487537,167720,-0.743,51.40177,BCT,MKD,OTH,,,,006,2010-05-06T00:00:00,2017-07-11T12:33:00,2,new,active
0380F834C328,bknatam,,,Jeallotts Hill,,,,Research Station - Goughs Barn Lane,,Maidenhead Road,,,,N-bound,,N,E0035416,Jealotts Hill,,,Bracknell,EN,Moss End,EN,false,UKOS,486834,173328,-0.75173,51.45229,BCT,MKD,OTH,,,,006,2004-11-01T00:00:00,2012-02-07T14:31:00,3,new,active
0380F845C325,bknatda,,,Jeallotts Hill,,,,Research Station - Goughs Barn Lane,,Maidenhead Road,,,,S-bound,,S,E0035416,Jealotts Hill,,,Bracknell,EN,Moss End,EN,false,UKOS,486845,173325,-0.75157,51.45226,BCT,MKD,OTH,,,,006,2004-11-01T00:00:00,2012-02-07T14:32:00,2,new,active
0380E098G835,bknajmj,,,Jocks Lane,,,,Bryony House & Flats - Farley Copse,,Wokingham Road,,,,adj,,E,E0035425,Popeswood,Bracknell,,Bracknell,EN,Popeswood,EN,false,UKOS,485106,169848,-0.77743,51.42127,BCT,MKD,OTH,,,,006,2004-11-01T00:00:00,2012-11-15T16:20:00,4,new,active
0380E107G848,bknajmt,,,Jocks Lane,,,,Bryony House & Flats - Farley Copse,,Wokingham Road,,,,opp,,W,E0035425,Popeswood,Bracknell,,Bracknell,EN,Popeswood,EN,false,UKOS,485098,169834,-0.77754,51.42114,BCT,MKD,OTH,,,,006,2004-11-01T00:00:00,2012-11-15T16:20:00,3,new,active
0380F106F205,bknapap,,,Moordale Avenue,,,,Manor Close - Moordale Avenue,,Binfield Road,,,,adj,,NW,E0035426,Priestwood,Bracknell,,Bracknell,EN,Priestwood,EN,false,UKOS,486106,170205,-0.76296,51.42432,BCT,MKD,OTH,,,,006,2004-11-01T00:00:00,2013-05-21T12:45:00,4,new,active
0380F087F240,bknapaj,,,Moordale Avenue,,,,Manor Close - Moordale Avenue,,Binfield Road,,,,opp,,SE,E0035426,Priestwood,Bracknell,,Bracknell,EN,Priestwood,EN,false,UKOS,486087,170240,-0.76323,51.42464,BCT,MKD,OTH,,,,006,2004-11-01T00:00:00,2013-05-21T12:44:00,4,new,active
0380H011F634,bknawgp,,,Joseph Court,,,,Whitegrove - All Saints Rise,,County Lane,,,,Opp,,E,N0060774,Whitegrove,Bracknell,,Bracknell,EN,Whitegrove,EN,false,UKOS,488011,170634,-0.73546,51.42789,BCT,MKD,OTH,,,,006,2004-11-01T00:00:00,2007-09-13T11:06:00,2,new,active
0380G996F625,bknawgj,,,Joseph Court,,,,Whitegrove - All Saints Rise,,County lane,,,,Adj,,W,N0060774,Whitegrove,Bracknell,,Bracknell,EN,Whitegrove,EN,false,UKOS,487996,170625,-0.73568,51.42781,BCT,MKD,OTH,,,,006,2004-11-01T00:00:00,2007-09-13T11:05:00,2,new,active
0380G226J378,bknatjp,,,Juniper,,,,Birch Hill - Jevington - Kimberley,,Ringmead,,,,opp,,E,N0060047,Birch Hill,Bracknell,,Bracknell,EN,Birch Hill,EN,false,UKOS,487226,166378,-0.7478,51.38975,BCT,MKD,OTH,,,,006,2004-11-01T00:00:00,2012-02-07T14:35:00,2,new,active
0380G280J373,bknatma,,,Juniper,,,,Birch Hill - Jevington - Kimberley,,Ringmead,,,,adj,,W,N0060047,Birch Hill,Bracknell,,Bracknell,EN,Birch Hill,EN,false,UKOS,487280,166373,-0.74702,51.3897,BCT,MKD,OTH,,,,006,2004-11-01T00:00:00,2012-07-19T11:14:00,2,new,active
0380F506F259,bknapmj,,,Kennel Lane,,,,Clacy Green - Winchgrove Road,,Kennel Lane,,,,N-bound,,N,E0057151,Bracknell,,,Bracknell,EN,Bracknell,EN,false,UKOS,486506,170259,-0.7572,51.42475,BCT,MKD,OTH,,,,006,2004-11-01T00:00:00,2012-02-07T14:38:00,1,new,active
0380F513F298,bknapmt,,,Kennel Lane,,,,Clacy Green - Winchgrove Road,,Kennel Lane,,,,S-bound,,S,E0057151,Bracknell,,,Bracknell,EN,Bracknell,EN,false,UKOS,486513,170298,-0.75709,51.4251,BCT,MKD,OTH,,,,006,2004-11-01T00:00:00,2012-02-07T14:39:00,1,new,active
0380E539G983,bknamgj,,,Wilwood Road,,,,Moordale Avenue,,Moordale Avenue,,,,adj,,NE,E0035426,Priestwood,Bracknell,,Bracknell,EN,Priestwood,EN,false,UKOS,485539,169983,-0.77117,51.42241,BCT,MKD,OTH,,,,006,2004-11-01T00:00:00,2009-11-17T11:49:00,3,new,active
0380E527G966,bknamgd,,,Wilwood Road,,,,Kingsmere Road,,Mooredale Avenue,,,,opp,,W,E0035426,Priestwood,Bracknell,,Bracknell,EN,Priestwood,EN,false,UKOS,485527,169966,-0.77134,51.42226,BCT,MKD,OTH,,,,006,2004-11-01T00:00:00,2012-01-19T12:44:00,3,new,active
0380F938J301,bknatgd,,,Knightswood,,,,Ladybank - Birch Hill Primary,,Ringmead,,,,opp,,E,N0060048,Hanworth,Bracknell,,Bracknell,EN,Hanworth,EN,false,UKOS,486938,166301,-0.75195,51.3891,BCT,MKD,OTH,,,,006,2004-11-01T00:00:00,2011-06-09T18:08:00,1,new,active
0380F900J270,bknatga,,,Knightswood,,,,Ladybank - Birch Hill Primary,,Ringmead,,,,adj,,W,N0060048,Hanworth,Bracknell,,Bracknell,EN,Hanworth,EN,false,UKOS,486900,166270,-0.75251,51.38883,BCT,MKD,OTH,,,,006,2004-11-01T00:00:00,2011-06-09T18:07:00,2,new,active
0380G812J980,bknawag,,,Fencote,,,,Fencote - Redditch,,Opladen Way,,,,adj,,E,N0060772,Crown Wood,Bracknell,,Bracknell,EN,Crownwood,EN,false,UKOS,487812,166980,-0.73923,51.39507,BCT,MKD,OTH,,,,006,2004-11-01T00:00:00,2012-07-19T11:01:00,3,new,active
0380G873J966,bknawaw,,,Fencote,,,,Fencote - Redditch,,Opladen Way,,,,opp,,W,N0060772,Crown Wood,Bracknell,,Bracknell,EN,Crownwood,EN,false,UKOS,487873,166966,-0.73836,51.39494,BCT,MKD,OTH,,,,006,2004-11-01T00:00:00,2012-02-06T16:16:00,2,new,active
0380G690I373,bknatwm,,,Lightwood,,,,Keepers Coombe - Oakdale,,Opladen Way,,,,adj,,E,N0060772,Crown Wood,Bracknell,,Bracknell,EN,Crown Wood,EN,false,UKOS,487690,167373,-0.74088,51.39862,BCT,MKD,OTH,,,,006,2004-11-01T00:00:00,2011-06-09T18:08:00,2,new,active
0380G711I378,bknatwp,,,Lightwood,,,,Keepers Coombe - Oakdale,,Opladen Way,,,,opp,,W,N0060772,Crown Wood,Bracknell,,Bracknell,EN,Crown Wood,EN,false,UKOS,487711,167378,-0.74058,51.39866,BCT,MKD,OTH,,,,006,2004-11-01T00:00:00,2011-06-09T18:09:00,1,new,active
0380H860G440,bkndamd,,,Lily Hill Road,,,,Bullbrook - Lily Hill Park - Badgers Way,,Bullbrook Drive,,,,S-bound,,S,E0035405,Bullbrook,Bracknell,,Bracknell,EN,Bullbrook,EN,false,UKOS,488860,169440,-0.72355,51.41702,BCT,MKD,OTH,,,,006,2004-11-01T00:00:00,2012-10-23T15:46:00,3,new,active
0380C731N296,bknagjg,,,Longdown Road,,,,Longdown Road - Mickle Hill,,Crowthorne Road,,,,adj,,N,E0052956,Sandhurst,,,Sandhurst,EN,Sandhurst,EN,false,UKOS,483731,162296,-0.79897,51.35358,BCT,MKD,OTH,,,,006,2004-11-01T00:00:00,2011-06-09T18:11:00,1,new,active
0380C741N307,bknagjm,,,Longdown Road,,,,Longdown Road - Mickle Hill,,Crowthorne Road,,,,opp,,S,E0052956,Sandhurst,,,Sandhurst,EN,Sandhurst,EN,false,UKOS,483741,162307,-0.79883,51.35368,BCT,MKD,OTH,,,,006,2004-11-01T00:00:00,2011-06-09T18:10:00,1,new,active
0380B711O772,bknagdg,,,Lower Church Road,,,,St Michaels CE Primary,,High Street,,,,adj,,N,E0052956,Sandhurst,,,Sandhurst,EN,Sandhurst,EN,false,UKOS,482711,161772,-0.81374,51.34902,BCT,MKD,OTH,,,,006,2004-11-01T00:00:00,2011-06-09T18:12:00,2,new,active
0380B720O775,bknagdj,,,Lower Church Road,,,,St Michaels CE Primary,,High Street,,,,opp,,S,E0052956,Sandhurst,,,Sandhurst,EN,Sandhurst,EN,false,UKOS,482720,161775,-0.81361,51.34904,BCT,CUS,OTH,,,,006,2004-11-01T00:00:00,2014-04-30T14:03:00,3,new,active
0380F522J589,bknapta,,,Lydney,,,,Donnybrook - Birch Hill,,Birch Hill Road,,,,opp,,E,N0060048,Hanworth,Bracknell,,Bracknell,EN,Hanworth,EN,false,UKOS,486522,166589,-0.75786,51.39175,BCT,MKD,OTH,,,,006,2004-11-01T00:00:00,2011-06-09T18:12:00,1,new,active
0380F509J578,bknapmp,,,Lydney,,,,Donnybrook - Birch Hill,,Birch Hill Road,,,,adj,,W,N0060048,Hanworth,Bracknell,,Bracknell,EN,Hanworth,EN,false,UKOS,486509,166578,-0.75805,51.39166,BCT,MKD,OTH,,,,006,2004-11-01T00:00:00,2011-06-09T18:12:00,1,new,active
0380F662F319,bknaptp,,,Agar Crescent,,,,Makepiece Road west end,,Braybrooke Road,,,,adj,,NW,E0057151,Bracknell,,,Bracknell,EN,Bracknell,EN,false,UKOS,486646,170261,-0.75518,51.42474,BCT,MKD,OTH,,,,006,2004-11-01T00:00:00,2019-01-09T12:35:00,7,new,active
0380F666F298,bknaptw,,,Agar Crescent,,,,Makepiece Road west end,,Braybrooke Road,,,,opp,,SE,E0057151,Bracknell,,,Bracknell,EN,Bracknell,EN,false,UKOS,486676,170262,-0.75475,51.42475,BCT,MKD,OTH,,,,006,2004-11-01T00:00:00,2020-09-10T12:25:20,17,new,active
0380F816J251,bknataj,,,Melrose,,,,East of Melrose Junction,,Ringmead,,,,adj,,E,N0060047,Birch Hill,Bracknell,,Bracknell,EN,Birch Hill,EN,false,UKOS,486816,166251,-0.75372,51.38867,BCT,MKD,OTH,,,,006,2004-11-01T00:00:00,2012-01-19T13:34:00,1,new,active
0380F757J230,bknapwg,,,Melrose,,,,Opposite Melrose Junction,,Ringmead,,,,opp,,W,N0060047,Birch Hill,Bracknell,,Bracknell,EN,Birch Hill,EN,false,UKOS,486757,166230,-0.75457,51.38849,BCT,MKD,OTH,,,,006,2004-11-01T00:00:00,2012-01-19T13:34:00,1,new,active
0380F358F056,bknapgw,,,Merryhill Road,,,,Binfield Road - Garth - Kennel Lane,,Shepherds Lane,,,,opp,,E,E0057151,Bracknell,,,Bracknell,EN,Bracknell,EN,false,UKOS,486358,170056,-0.75937,51.42295,BCT,MKD,OTH,,,,006,2004-11-01T00:00:00,2012-01-19T13:35:00,1,new,active
0380F350F038,bknapgp,,,Merryhill Road,,,,Binfield Road - Garth - Kennel Lane,,Shepherds Lane,,,,adj,,W,E0057151,Bracknell,,,Bracknell,EN,Bracknell,EN,false,UKOS,486350,170038,-0.75949,51.42279,BCT,MKD,OTH,,,,006,2004-11-01T00:00:00,2012-01-19T13:35:00,1,new,active
0380G900G298,bknawdj,,,Bay Road,,,,Canon - Johnson,,London Road,,,,E-bound,,E,E0057151,Bracknell,,,Bracknell,EN,Bracknell,EN,false,UKOS,487900,169298,-0.73739,51.4159,BCT,MKD,OTH,,,,006,2004-11-01T00:00:00,2013-10-10T12:25:00,3,new,active
0380G863G278,bknawam,,,Bay Road,,,,Canon - Johnson,,London Road,,,,W-bound,,W,E0057151,Bracknell,,,Bracknell,EN,Bracknell,EN,false,UKOS,487863,169278,-0.73793,51.41572,BCT,MKD,OTH,,,,006,2004-11-01T00:00:00,2013-10-10T12:24:00,3,new,active
0380I895F449,bkndapm,,,Mushroom Castle Lane,,,,Osmans Close,,Chavey Down Road,,,,adj,,N,E0035433,Winkfield Row,,,Winkfield,EN,Winkfield,EN,false,UKOS,489895,170449,-0.70842,51.42593,BCT,MKD,OTH,,,,006,2004-11-01T00:00:00,2010-04-23T11:54:00,1,new,active
0380I875F555,bkndapj,,,Mushroom Castle Lane,,,,Osmans Close,,Chavey Down Road,,,,opp,,S,E0035433,Winkfield Row,,,Winkfield,EN,Winkfield,EN,false,UKOS,489875,170555,-0.70868,51.42689,BCT,MKD,OTH,,,,006,2004-11-01T00:00:00,2010-04-23T11:54:00,1,new,active
0380G929G511,bknawdp,,,North Green,,,,Bullbrook - The Surgery,,Deepfield Road,,,,adj,,E,E0035405,Bullbrook,Bracknell,,Bracknell,EN,Bullbrook,EN,false,UKOS,487929,169511,-0.73692,51.41781,BCT,MKD,OTH,,,,006,2004-11-01T00:00:00,2011-06-09T18:13:00,1,new,active
0380G824G455,bknawaj,,,North Green,,,,Bullbrook - The Surgery,,Deepfield Road,,,,opp,,W,E0035405,Bullbrook,Bracknell,,Bracknell,EN,Bullbrook,EN,false,UKOS,487824,169455,-0.73844,51.41732,BCT,MKD,OTH,,,,006,2004-11-01T00:00:00,2011-06-09T18:13:00,1,new,active
0380F497J257,bknapmd,,,Northcott,,,,Madingley - Birch Hill - Melrose,,Ringmead,,,,opp,,E,N0060047,Birch Hill,Bracknell,,Bracknell,EN,Birch Hill,EN,false,UKOS,486497,166257,-0.7583,51.38877,BCT,MKD,OTH,,,,006,2004-11-01T00:00:00,2012-01-19T13:55:00,1,new,active
0380F517J244,bknapmw,,,Northcott,,,,Madingley - Birch Hill - Melrose,,Ringmead,,,,adj,,W,N0060047,Birch Hill,Bracknell,,Bracknell,EN,Birch Hill,EN,false,UKOS,486517,166244,-0.75802,51.38865,BCT,MKD,OTH,,,,006,2004-11-01T00:00:00,2012-01-19T13:55:00,1,new,active
0380G895I500,bknawdg,,,Oldstead,,,,Coombe Pine - Nettlecoombe,,Opladen Way,,,,adj,,E,N0060772,Crown Wood,Bracknell,,Bracknell,EN,Crown Wood,EN,false,UKOS,487895,167500,-0.73791,51.39973,BCT,MKD,OTH,,,,006,2004-11-01T00:00:00,2012-01-19T13:56:00,2,new,active
0380G941I502,bknawdt,,,Oldstead,,,,Coombe Pine - Nettlecoombe,,Opladen Way,,,,opp,,W,N0060772,Crown Wood,Bracknell,,Bracknell,EN,Crown Wood,EN,false,UKOS,487941,167502,-0.73725,51.39974,BCT,MKD,OTH,,,,006,2004-11-01T00:00:00,2012-01-19T13:56:00,1,new,active
0380F134J343,bknapda,,,Ollerton,,,,Birch Hill - Oakengates - Hanworth Road,,Ringmead,,,,adj,,E,N0060048,Hanworth,Bracknell,,Bracknell,EN,Hanworth,EN,false,UKOS,486134,166343,-0.7635,51.3896,BCT,MKD,OTH,,,,006,2004-11-01T00:00:00,2012-01-19T13:57:00,1,new,active
0380F129J336,bknapaw,,,Ollerton,,,,Birch Hill - Oakengates - Hanworth Road,,Ringmead,,,,opp,,W,N0060048,Hanworth,Bracknell,,Bracknell,EN,Hanworth,EN,false,UKOS,486129,166336,-0.76357,51.38954,BCT,MKD,OTH,,,,006,2004-11-01T00:00:00,2012-01-19T13:57:00,2,new,active
0380D869O880,bknajgj,,,Sandhurst School,,,,Whitmore Close - Whitmore Drive,,Owlsmoor Road,,,,opp,,N,E0035408,College Town,Sandhurst,,Sandhurst,EN,College Town,EN,false,UKOS,484869,161880,-0.78274,51.34967,BCT,MKD,OTH,,,,006,2004-11-01T00:00:00,2012-02-13T16:29:00,1,new,active
0380D894O995,bknajgm,,,Sandhurst School,,,,Whitmore Close - Whitmore Drive,,Owlsmoor Road,,,,adj,,S,E0035408,College Town,Sandhurst,,Sandhurst,EN,College Town,EN,false,UKOS,484894,161995,-0.78235,51.3507,BCT,MKD,OTH,,,,006,2004-11-01T00:00:00,2012-02-13T16:30:00,1,new,active
0380G978G815,bknawga,,,Park Road,,,,Field Park - Spring Meadow,,Holly Spring Road,,,,opp,,E,E0035405,Bullbrook,Bracknell,,Bracknell,EN,Bullbrook,EN,false,UKOS,487978,169815,-0.73614,51.42053,BCT,MKD,OTH,,,,006,2004-11-01T00:00:00,2010-03-19T15:49:00,4,new,active
0380G960G809,bknawdw,,,Park Road,,,,Field Park - Spring Meadow,,Holly Spring Road,,,,adj,,W,E0035405,Bullbrook,Bracknell,,Bracknell,EN,Bullbrook,EN,false,UKOS,487960,169809,-0.7364,51.42048,BCT,MKD,OTH,,,,006,2004-11-01T00:00:00,2010-03-19T15:50:00,3,new,active
0380D140K770,bknagpm,,,Pinewood Crossroads,,,,Old Wokingham Road - Pinewood Roundabout,,Nine Mile Ride,,,,E-bound,,E,E0052955,Crowthorne,,,Crowthorne,EN,Crowthorne,EN,false,UKOS,484140,165770,-0.79228,51.38475,BCT,MKD,OTH,,,,006,2004-11-01T00:00:00,2012-02-08T10:54:00,1,new,active
0380D104K712,bknagpj,,,Pinewood Crossroads,,,,Nine Mile Ride - Pinewood Roundabout,,Old Wokingham Road,,,,S-bound,,S,E0052955,Crowthorne,,,Crowthorne,EN,Crowthorne,EN,false,UKOS,484104,165712,-0.79281,51.38423,BCT,MKD,OTH,,,,006,2004-11-01T00:00:00,2012-02-08T10:54:00,2,new,active
0380D466G867,bknagwp,,,Sampson Park,,,,Sampson Park Newbold College,,St Marks Road,,,,opp,,N,E0052953,Binfield,,,Binfield,EN,Binfield,EN,false,UKOS,484476,170010,-0.78645,51.42282,BCT,MKD,OTH,,,,006,2004-11-01T00:00:00,2012-01-19T12:43:00,4,new,active
0380D482G918,bknagwt,,,Sampson Park,,,,Sampson Park - Newbold College,,St Marks Road,,,,adj,,S,E0052953,Binfield,,,Binfield,EN,Binfield,EN,false,UKOS,484482,169918,-0.78638,51.42199,BCT,MKD,OTH,,,,006,2004-11-01T00:00:00,2012-01-19T12:44:00,4,new,active
0380E955J432,bknamtm,,,Qualitas,,,,St Mary Clithroe School - Quintilus - Octavia,,Ringmead,,,,opp,,E,N0060048,Hanworth,Bracknell,,Bracknell,EN,Hanworth,EN,false,UKOS,485955,166432,-0.76605,51.39043,BCT,MKD,OTH,,,,006,2004-11-01T00:00:00,2012-02-08T10:57:00,1,new,active
0380E966J412,bknamtp,,,Qualitas,,,,St Mary Clithroe School - Quintilus - Octavia,,Ringmead,,,,adj,,W,N0060048,Hanworth,Bracknell,,Bracknell,EN,Hanworth,EN,false,UKOS,485966,166412,-0.76589,51.39025,BCT,MKD,OTH,,,,006,2004-11-01T00:00:00,2012-02-08T10:58:00,1,new,active
0380E850F052,bknampg,,,Weycrofts,,,,Eastbury Court,,Moordale Avenue,,,,adj,,E,E0035426,Priestwood,Bracknell,,Bracknell,EN,Priestwood,EN,false,UKOS,485850,170052,-0.76668,51.42299,BCT,MKD,OTH,,,,006,2004-11-01T00:00:00,2009-11-17T11:49:00,2,new,active
0380D698O431,bknajdw,,,Rackstraws,,,,Bull & Butcher,,Rackstraw Road,,,,opp,,N,E0052956,Sandhurst,,,Sandhurst,EN,Sandhurst,EN,false,UKOS,484698,161431,-0.7853,51.34566,BCT,MKD,OTH,,,,006,2004-11-01T00:00:00,2009-11-17T10:47:00,2,new,active
0380D559O437,bknajdj,,,Rackstraws,,,,Wellington Arms,,Yorktown Road,,,,nr,,NW,E0052956,Sandhurst,,,Sandhurst,EN,Sandhurst,EN,false,UKOS,484611,161398,-0.78655,51.34538,BCT,MKD,OTH,,,,006,2004-11-01T00:00:00,2009-11-17T10:50:00,3,new,active
0380E328O451,bknajtg,,,Richmond Road,,,,Richmond Road - The Close,,College Road,,,,adj,,N,E0035408,College Town,Sandhurst,,Sandhurst,EN,College Town,EN,false,UKOS,485328,161451,-0.77625,51.34575,BCT,MKD,OTH,,,,006,2004-11-01T00:00:00,2011-06-09T18:15:00,2,new,active
0380E327O423,bknajtd,,,Richmond Road,,,,Richmond Road - The Breech,,College Road,,,,opp,,S,E0035408,College Town,Sandhurst,,Sandhurst,EN,College Town,EN,false,UKOS,485327,161423,-0.77627,51.34549,BCT,MKD,OTH,,,,006,2004-11-01T00:00:00,2011-06-09T18:15:00,2,new,active
0380E671J605,bknamjm,,,Ringwood,,,,Roman Wood - Wooden Hill,,Ringmead,,,,adj,,E,N0060050,Great Hollands,Bracknell,,Bracknell,EN,Great Hollands,EN,false,UKOS,485671,166605,-0.77008,51.39203,BCT,MKD,OTH,,,,006,2004-11-01T00:00:00,2012-02-08T11:13:00,1,new,active
0380E667J595,bknamjg,,,Ringwood,,,,Roman Wood - Wooden Hill,,Ringmead,,,,opp,,W,N0060050,Great Hollands,Bracknell,,Bracknell,EN,Great Hollands,EN,false,UKOS,485667,166595,-0.77014,51.39194,BCT,MKD,OTH,,,,006,2004-11-01T00:00:00,2012-02-08T11:13:00,1,new,active
0380D400F384,bknagwg,,,Roebuck Estate,,,,Popeswood Road - Newbold College,,Terrace Road South,,,,N-bound,,N,E0052953,Binfield,,,Binfield,EN,Binfield,EN,false,UKOS,484400,170384,-0.78745,51.42619,BCT,MKD,OTH,,,,006,2004-11-01T00:00:00,2019-01-09T17:40:00,3,new,active
0380D417F344,bknagwj,,,Roebuck Estate,,,,Foxley Lane - The Roebuck,,St Marks Road,,,,S-bound,,S,E0052953,Binfield,,,Binfield,EN,Binfield,EN,false,UKOS,484417,170344,-0.78721,51.42583,BCT,MKD,OTH,,,,006,2004-11-01T00:00:00,2012-02-08T11:14:00,2,new,active
0380H185H961,bknawmt,,,Brants Bridge,,,,adj,,Broad Lane,,,,adj,,NE,N0060785,Eastern Industrial Area,Bracknell,,Bracknell,EN,Bracknell,EN,false,UKOS,488185,168961,-0.73338,51.41282,BCT,MKD,OTH,,,,006,2004-11-01T00:00:00,2013-05-29T12:08:00,7,new,active
0380H160H902,bkndjtd,,,Brants Bridge,,,,outside 3,,Ralphs Ride,,,,S-bound,,S,N0060785,Eastern Industrial Area,Bracknell,,Bracknell,EN,Bracknell,EN,false,UKOS,488160,168902,-0.73375,51.4123,BCT,MKD,OTH,,,,006,2011-10-27T00:00:00,2013-05-29T12:07:00,5,new,active
0380K453F061,bkndawt,,,Royal Hunt Public House,,,,Fernbank Road,,New Road,,,,NW-bound,,NW,N0060780,North Ascot,,,North Ascot,EN,North Ascot,EN,false,UKOS,491453,170061,-0.68612,51.42219,BCT,MKD,OTH,,,,006,2004-11-01T00:00:00,2012-02-08T16:44:00,2,new,active
0380K466F066,bkndgad,,,Royal Hunt Public House,,,,Fernbank Road,,New Road,,,,SE-bound,,SE,N0060780,North Ascot,,,North Ascot,EN,North Ascot,EN,false,UKOS,491466,170066,-0.68593,51.42224,BCT,MKD,OTH,,,,006,2004-11-01T00:00:00,2012-02-08T16:44:00,2,new,active
0380D229F985,bknagtj,,,Binfield Crossroads,,,,Binfield Club - Terrace Road South,,Forest Road,,,,E-bound,,E,E0052953,Binfield,,,Binfield,EN,Binfield,EN,false,UKOS,484229,170985,-0.78977,51.43162,BCT,MKD,OTH,,,,006,2004-11-01T00:00:00,2017-08-24T12:32:00,2,new,active
0380D182F002,bkndgma,,,Binfield Crossroads,,,,opposite shelter,,Terrace Road South,,,,N-bound,,N,E0052953,Binfield,,,Binfield,EN,Binfield,EN,false,UKOS,484207,170933,-0.79009,51.43115,BCT,MKD,OTH,,,,006,2005-05-20T00:00:00,2017-08-24T12:30:00,4,new,active
0380D214F939,bknagta,,,Binfield Crossroads,,,,Binfield Club - Terrace Road South,,Terrace Road South,,,,S-bound,,S,E0052953,Binfield,,,Binfield,EN,Binfield,EN,false,UKOS,484214,170939,-0.78999,51.43121,BCT,MKD,OTH,,,,006,2004-11-01T00:00:00,2017-08-24T12:30:00,2,new,active
0380F795H200,bknatad,,,Saffron Road,,,,Easthampstead Surgery - Point Royal,,Rectory Lane,,,,adj,,NE,E0035411,Easthampstead,Bracknell,,Bracknell,EN,Wildridings,EN,false,UKOS,486795,168200,-0.75354,51.40619,BCT,MKD,OTH,,,,006,2004-11-01T00:00:00,2011-06-09T18:16:00,4,new,active
0380F774H164,bknapwt,,,Saffron Road,,,,Easthampstead Surgery - Point Royal,,Rectory Lane,,,,Opp,,SW,E0035411,Easthampstead,Bracknell,,Bracknell,EN,Wildridings,EN,false,UKOS,486774,168164,-0.75386,51.40587,BCT,MKD,OTH,,,,006,2004-11-01T00:00:00,2009-08-03T17:02:00,2,new,active
0380G492J745,bknatpg,,,Sainsburys,,,,Hornby Avenue - Coral Reef - Hillberry,,Ringmead,,,,opp,,NE,N0060047,Birch Hill,Bracknell,,Bracknell,EN,Birch Hill,EN,false,UKOS,487494,166743,-0.74386,51.39299,BCT,MKD,OTH,,,,006,2004-11-01T00:00:00,2019-01-15T17:00:00,3,new,active
0380G503J731,bknatpm,,,Sainsburys,,,,Hornby Avenue - Birch Hill - Coral Reef,,Ringmead,,,,adj,,SW,N0060047,Birch Hill,Bracknell,,Bracknell,EN,Birch Hill,EN,false,UKOS,487503,166731,-0.74373,51.39288,BCT,MKD,OTH,,,,006,2004-11-01T00:00:00,2011-06-09T18:17:00,2,new,active
0380E350G640,bknajtw,,,Cain Road,,,,Bracknell Gate - Western Road,,Cain Road East,,,,N-bound,,N,E0057151,Bracknell,,,Bracknell,EN,Bracknell,EN,false,UKOS,485350,169640,-0.77397,51.41936,BCT,MKD,OTH,,,,006,2004-11-01T00:00:00,2012-02-03T15:10:00,3,new,active
0380E357G600,bknajwg,,,Cain Road,,,,Bracknell Gate - Western Road,,Cain Road East,,,,S-bound,,S,E0057151,Bracknell,,,Bracknell,EN,Bracknell,EN,false,UKOS,485357,169600,-0.77388,51.419,BCT,MKD,OTH,,,,006,2004-11-01T00:00:00,2012-02-03T15:11:00,4,new,active
0380D507G184,bknajam,,,Ski Centre,,,,London Road - Ski Centre,,John Nike Way,,,,Opp,,E,N0060225,John Nike Leisure Centre,Bracknell,,Bracknell,EN,Amen Corner,EN,false,UKOS,484507,169184,-0.7862,51.41539,BCT,MKD,OTH,,,,006,2004-11-01T00:00:00,2007-09-13T10:26:00,2,new,active
0380D485G162,bknajad,,,Ski Centre,,,,Cody Garage - Ice Rink - Coppid Beech Hotel,,John Nike Way,,,,Adj,,W,N0060225,John Nike Leisure Centre,Bracknell,,Bracknell,EN,Amen Corner,EN,false,UKOS,484485,169162,-0.78652,51.41519,BCT,MKD,OTH,,,,006,2004-11-01T00:00:00,2006-12-06T15:12:00,1,new,active
0380H752F362,bkndajm,,,Somerset Grove,,,,Whitegrove - Whitegrove Primary school,,Westmorland Drive,,,,opp,,NW,N0060774,Whitegrove,Bracknell,,Bracknell,EN,Whitegrove,EN,false,UKOS,488752,170362,-0.72488,51.42533,BCT,MKD,OTH,,,,006,2004-11-01T00:00:00,2012-02-13T16:42:00,4,new,active
0380H800F296,bkndajp,,,Somerset Grove,,,,Whitegrove - Whitegrove Primary school,,Westmorland Drive,,,,adj,,S,N0060774,Whitegrove,Bracknell,,Bracknell,EN,Whitegrove,EN,false,UKOS,488800,170296,-0.7242,51.42473,BCT,MKD,OTH,,,,006,2004-11-01T00:00:00,2012-02-13T16:42:00,3,new,active
0380F373G899,bknapjd,,,St Anthony's Close,,,,Huttons - New Estate opposite Petropous,,Binfield Road,,,,opp,,NW,E0057151,Bracknell,,,Bracknell,EN,Bracknell,EN,false,UKOS,486373,169899,-0.7592,51.42153,BCT,MKD,OTH,,,,006,2004-11-01T00:00:00,2011-06-09T17:56:00,3,new,active
0380F357G936,bknapgt,,,St Anthony's Close,,,,Huttons - New Estate opposite Petropous,,Binfield Road,,,,adj,,SE,E0057151,Bracknell,,,Bracknell,EN,Bracknell,EN,false,UKOS,486357,169936,-0.75942,51.42187,BCT,MKD,OTH,,,,006,2004-11-01T00:00:00,2011-06-09T17:56:00,3,new,active
0380E106E177,bknajmp,,,Stag & Hounds,,,,Wyevale - Arthurstone Birches,,Forest Road,,,,adj,,E,E0052953,Binfield,,,Binfield,EN,Binfield,EN,false,UKOS,485106,171177,-0.77711,51.43321,BCT,MKD,OTH,,,,006,2004-11-01T00:00:00,2012-02-13T16:48:00,2,new,active
0380E062E148,bknajma,,,Stag & Hounds,,,,Wyevale - Arthurstone Birches,,Forest Road,,,,opp,,W,E0052953,Binfield,,,Binfield,EN,Binfield,EN,false,UKOS,485062,171148,-0.77775,51.43296,BCT,MKD,OTH,,,,006,2004-11-01T00:00:00,2012-02-13T16:48:00,2,new,active
0380F590I888,bknaptj,,,Swancote Green,,,,Pondmoor - Crowthorne Road,,Rectory Lane,,,,opp,,N,E0035411,Easthampstead,Bracknell,,Bracknell,EN,Easthampstead,EN,false,UKOS,486590,167888,-0.75657,51.40342,BCT,MKD,OTH,,,,006,2004-11-01T00:00:00,2011-06-15T17:43:00,1,new,active
0380F585I869,bknaptg,,,Swancote Green,,,,Pondmoor - Crowthorne Road,,Rectory Lane,,,,adj,,S,E0035411,Easthampstead,Bracknell,,Bracknell,EN,Easthampstead,EN,false,UKOS,486585,167869,-0.75664,51.40325,BCT,MKD,OTH,,,,006,2004-11-01T00:00:00,2011-06-15T17:43:00,1,new,active
0380E971G350,bknamwd,,,Easthampstead Road,,,,Downmill Road,,Western Road,,,,opp,,E,N0060784,Western Industrial Area,Bracknell,,Bracknell,EN,Priestwood,EN,false,UKOS,485971,169350,-0.76511,51.41666,BCT,MKD,OTH,,,,006,2004-11-01T00:00:00,2009-11-17T11:55:00,5,new,active
0380F047G368,bknamwp,,,Easthampstead Road,,,,Downmill Road,,Western Road,,,,adj,,W,N0060784,Western Industrial Area,Bracknell,,Bracknell,EN,Priestwood,EN,false,UKOS,486047,169368,-0.76401,51.41681,BCT,MKD,OTH,,,,006,2004-11-01T00:00:00,2009-11-17T11:56:00,6,new,active
0380F326G462,bknapgm,,,The Arena,,,,Western Road - The Arena,,Western Road,,,,opp,,E,N0060784,Western Industrial Area,Bracknell,,Bracknell,EN,Priestwood,EN,false,UKOS,486326,169462,-0.75998,51.41761,BCT,MKD,OTH,,,,006,2004-11-01T00:00:00,2009-11-17T11:58:00,2,new,active
0380F308G451,bknapgd,,,The Arena,,,,Western Road - The Arena,,Western Road,,,,adj,,W,N0060784,Western Industrial Area,Bracknell,,Bracknell,EN,Priestwood,EN,false,UKOS,486308,169451,-0.76024,51.41751,BCT,MKD,OTH,,,,006,2004-11-01T00:00:00,2009-11-17T11:59:00,2,new,active
0380I421H947,bkndamw,,,The Brackens,,,,Priory Road - Swinley Road - Heathfield School,,London Road,,,,Opp,,E,N0060780,North Ascot,,,North Ascot,EN,North Ascot,EN,false,UKOS,489421,168947,-0.71561,51.4125,BCT,MKD,OTH,,,,006,2004-11-01T00:00:00,2006-12-06T15:45:00,1,new,active
0380I377H934,bkndamt,,,The Brackens,,,,Priory Road - Swinley Road - Heathfield School,,London Road,,,,Adj,,W,N0060780,North Ascot,,,North Ascot,EN,North Ascot,EN,false,UKOS,489377,168934,-0.71625,51.41239,BCT,MKD,OTH,,,,006,2004-11-01T00:00:00,2006-12-06T15:45:00,1,new,active
0380J826G610,bkndawd,,,The Gold Cup,,,,The Gold Cup,,Fernbank Road,,,,opp,,NE,N0060780,North Ascot,,,North Ascot,EN,North Ascot,EN,false,UKOS,490826,169610,-0.69525,51.41824,BCT,MKD,OTH,,,,006,2004-11-01T00:00:00,2009-11-17T12:09:00,3,new,active
0380J748G476,bkndawa,,,The Gold Cup,,,,The Gold Cup,,Fernbank Road,,,,adj,,SW,N0060780,North Ascot,,,North Ascot,EN,North Ascot,EN,false,UKOS,490748,169476,-0.6964,51.41705,BCT,MKD,OTH,,,,006,2004-11-01T00:00:00,2009-11-17T12:07:00,2,new,active
0380E582E032,bknamgm,,,The Grange,,,,Binfield Manor,,Binfield Road,,,,opp,,N,E0052953,Binfield,,,Binfield,EN,Binfield,EN,false,UKOS,485582,171032,-0.7703,51.43184,BCT,MKD,OTH,,,,006,2004-11-01T00:00:00,2012-03-01T11:38:00,3,new,active
0380E591E028,bknamgw,,,The Grange,,,,Binfield Manor,,Binfield Road,,,,Adj,,S,E0052953,Binfield,,,Binfield,EN,Binfield,EN,false,UKOS,485591,171028,-0.77017,51.4318,BCT,MKD,OTH,,,,006,2004-11-01T00:00:00,2012-03-01T11:39:00,2,new,active
0380E232P946,bknajpd,,,The Jolly Farmer,,,,Sandhurst RMA - College Town,,Yorktown Road,,,,Adj,,E,E0035408,College Town,Sandhurst,,Sandhurst,EN,College Town,EN,false,UKOS,485232,160946,-0.77775,51.34122,BCT,MKD,OTH,,,,006,2004-11-01T00:00:00,2006-12-06T15:14:00,1,new,active
0380E245P918,bknajpg,,,The Jolly Farmer,,,,Sandhurst RMA - College Town,,Yorktown Road,,,,Opp,,W,E0035408,College Town,Sandhurst,,Sandhurst,EN,College Town,EN,false,UKOS,485245,160918,-0.77757,51.34097,BCT,MKD,OTH,,,,006,2004-11-01T00:00:00,2006-12-06T15:15:00,1,new,active
0380C475O495,bknagdt,,,Sandhurst Station,,,,Sandhurst Station,,Yorktown Road,,,,opp,,E,E0052956,Sandhurst,,,Sandhurst,EN,Sandhurst,EN,false,UKOS,483475,161495,-0.80284,51.34642,BCT,MKD,OTH,,,,006,2004-11-01T00:00:00,2024-07-29T17:26:27,44,new,active
0380C491O462,bknagdw,,,Sandhurst Station,,,,Sandhurst Station,,Yorktown Road,,,,adj,,W,E0052956,Sandhurst,,,Sandhurst,EN,Sandhurst,EN,false,UKOS,483491,161462,-0.80262,51.34612,BCT,MKD,OTH,,,,006,2004-11-01T00:00:00,2024-07-29T17:26:50,45,new,active
0380L286E368,bkndgdw,,,The Old Hatchet,,,,Lovel Road - Hodge Lane,,Hatchet Lane,,,,adj,,N,E0035409,Cranbourne,,,Cranbourne,EN,Cranbourne,EN,false,UKOS,492286,171368,-0.6738,51.43381,BCT,MKD,OTH,,,,006,2004-11-01T00:00:00,2009-11-17T13:36:00,4,new,active
0380L255E293,bkndgdp,,,The Old Hatchet,,,,Lovel Road - Hodge Lane,,Hatchet Lane,,,,opp,,S,E0035409,Cranbourne,,,Cranbourne,EN,Cranbourne,EN,false,UKOS,492255,171293,-0.67426,51.43314,BCT,MKD,OTH,,,,006,2004-11-01T00:00:00,2009-11-17T13:36:00,4,new,active
0380K680F216,bkndgag,,,Beechwood Close,,,,The Rough,,New Road,,,,adj,,NE,N0060780,North Ascot,,,North Ascot,EN,North Ascot,EN,false,UKOS,491680,170216,-0.68281,51.42355,BCT,MKD,OTH,,,,006,2004-11-01T00:00:00,2009-11-17T12:11:00,2,new,active
0380K651F158,bkndjga,,,Beechwood Close,,,,The Rough,,New Road,,,,opp,,SW,N0060780,North Ascot,,,North Ascot,EN,North Ascot,EN,false,UKOS,491648,170158,-0.68329,51.42303,BCT,MKD,OTH,,,,006,2009-11-17T00:00:00,2013-05-29T12:19:00,2,new,active
0380J063H906,bkndapw,,,The Royal Foresters Hotel,,,,Fernbank Road - Priory Road - Swinley Road,,London Road,,,,Adj,,E,N0060780,North Ascot,,,North Ascot,EN,North Ascot,EN,false,UKOS,490063,168906,-0.70639,51.41203,BCT,MKD,OTH,,,,006,2004-11-01T00:00:00,2006-12-06T15:46:00,1,new,active
0380I906H920,bkndapt,,,The Royal Foresters Hotel,,,,Fernbank Road - Priory Road - Swinley Road,,London Road,,,,Opp,,W,N0060780,North Ascot,,,North Ascot,EN,North Ascot,EN,false,UKOS,489903,168907,-0.70869,51.41207,BCT,MKD,OTH,,,,006,2004-11-01T00:00:00,2007-09-13T11:20:00,2,new,active
0380L793D998,bkndgjp,,,Squirrels,,,,Mounts Hill - Drift Road,,North Street,,,,adj,,NE,E0035409,Cranbourne,,,Cranbourne,EN,Cranbourne,EN,false,UKOS,492793,172998,-0.66608,51.44838,BCT,MKD,OTH,,,,006,2004-11-01T00:00:00,2009-11-17T13:33:00,2,new,active
0380L786D978,bkndgjm,,,Squirrels,,,,Mounts Hill - Drift Road,,North Street,,,,opp,,SW,E0035409,Cranbourne,,,Cranbourne,EN,Cranbourne,EN,false,UKOS,492786,172978,-0.66619,51.4482,BCT,MKD,OTH,,,,006,2004-11-01T00:00:00,2009-11-17T13:32:00,2,new,active
0380C892O404,bknagmp,,,Sandhurst Library,,,,The Library - The Broadway,,Yorktown Road,,,,adj,,E,E0052956,Sandhurst,,,Sandhurst,EN,Sandhurst,EN,false,UKOS,483892,161404,-0.79687,51.34554,BCT,MKD,OTH,,,,006,2004-11-01T00:00:00,2012-02-13T16:29:00,1,new,active
0380C817O408,bknagmd,,,Sandhurst Library,,,,The Library - The Broadway,,Yorktown Road,,,,opp,,W,E0052956,Sandhurst,,,Sandhurst,EN,Sandhurst,EN,false,UKOS,483817,161408,-0.79795,51.34558,BCT,MKD,OTH,,,,006,2004-11-01T00:00:00,2012-02-13T16:28:00,1,new,active
0380F140I807,bknapdg,,,Threshfield,,,,Mill Pond - Macdonalds,,Crowthorne Road,,,,opp,,N,N0060051,Wildridings,Bracknell,,Bracknell,EN,Wildridings,EN,false,UKOS,486140,167807,-0.76305,51.40276,BCT,MKD,OTH,,,,006,2004-11-01T00:00:00,2019-01-15T17:05:00,3,new,active
0380F152I862,bknapdj,,,Threshfield,,,,Mill Pond - Macdonalds,,Crowthorne Road,,,,adj,,S,N0060051,Wildridings,Bracknell,,Bracknell,EN,Wildridings,EN,false,UKOS,486152,167862,-0.76287,51.40325,BCT,MKD,OTH,,,,006,2004-11-01T00:00:00,2019-01-15T17:06:00,4,new,active
0380E491J781,bknamdp,,,Trevelyan,,,,Roman Hill - Woodenhill - Ringwood - Tawfield,,Ringmead,,,,adj,,N,N0060050,Great Hollands,Bracknell,,Bracknell,EN,Great Hollands,EN,false,UKOS,485491,166781,-0.77263,51.39364,BCT,MKD,OTH,,,,006,2004-11-01T00:00:00,2012-07-19T11:15:00,3,new,active
0380E488J816,bknamdm,,,Trevelyan,,,,Roman Hill - Woodenhill - Ringwood - Tawfield,,Ringmead,,,,opp,,S,N0060050,Great Hollands,Bracknell,,Bracknell,EN,Great Hollands,EN,false,UKOS,485488,166816,-0.77266,51.39395,BCT,MKD,OTH,,,,006,2004-11-01T00:00:00,2012-07-19T11:15:00,3,new,active
0380E914G566,bknamtj,,,Trinity Court,,,,The Bridge,,Wokingham Road,,,,Opp,,E,E0057151,Bracknell,,,Bracknell,EN,Bracknell,EN,false,UKOS,485914,169566,-0.76588,51.41861,BCT,MKD,OTH,,,,006,2004-11-01T00:00:00,2006-12-06T15:21:00,1,new,active
0380E968G545,bknamtw,,,Trinity Court,,,,Adjacent Trinity Court,,Wokingham Road,,,,W-bound,,W,E0057151,Bracknell,,,Bracknell,EN,Bracknell,EN,false,UKOS,485968,169545,-0.76511,51.41841,BCT,MKD,OTH,,,,006,2004-11-01T00:00:00,2012-03-01T11:51:00,1,new,active
0380D209K203,bknagpw,,,TRL Western Entrance,,,,Hatch Ride,,Old Wokingham Road,,,,opp,,N,N0060054,Transport Research Laboratory,Crowthorne,,Crowthorne,EN,Crowthorne,EN,false,UKOS,484209,165203,-0.79142,51.37964,BCT,MKD,OTH,,,,006,2004-11-01T00:00:00,2014-04-30T14:13:00,2,new,active
0380D219K208,bknagtg,,,TRL Western Entrance,,,,Hatch Ride,,Old Wokingham Road,,,,adj,,S,N0060054,Transport Research Laboratory,Crowthorne,,Crowthorne,EN,Crowthorne,EN,false,UKOS,484219,165208,-0.79128,51.37969,BCT,MKD,OTH,,,,006,2004-11-01T00:00:00,2014-04-30T14:14:00,2,new,active
0380D521K846,bknajap,,,TRL Northern Entrance,,,,TRL North Gate,,Nine Mile Ride,,,,opp,,E,N0060054,Transport Research Laboratory,Crowthorne,,Crowthorne,EN,Crowthorne,EN,false,UKOS,484663,165873,-0.78474,51.3856,BCT,MKD,OTH,,,,006,2004-11-01T00:00:00,2014-04-30T14:19:00,2,new,active
0380D594K852,bknajdm,,,TRL Northern Entrance,,,,TRL North Gate,,Nine Mile Ride,,,,adj,,W,N0060054,Transport Research Laboratory,Crowthorne,,Crowthorne,EN,Crowthorne,EN,false,UKOS,484695,165867,-0.78428,51.38554,BCT,MKD,OTH,,,,006,2004-11-01T00:00:00,2014-04-30T14:18:00,4,new,active
0380E413J975,bknamaj,,,Ullswater,,,,Home Farm - Tawfield - Trevelyan - Turnberry,,Ringmead,,,,N-bound,,N,N0060050,Great Hollands,Bracknell,,Bracknell,EN,Great Hollands,EN,false,UKOS,485413,166975,-0.7737,51.39539,BCT,MKD,OTH,,,,006,2004-11-01T00:00:00,2012-03-01T11:52:00,1,new,active
0380E422J979,bknamap,,,Ullswater,,,,Home Farm - Tawfield - Trevelyan - Turnberry,,Ringmead,,,,S-bound,,S,N0060050,Great Hollands,Bracknell,,Bracknell,EN,Great Hollands,EN,false,UKOS,485422,166979,-0.77357,51.39543,BCT,MKD,OTH,,,,006,2004-11-01T00:00:00,2012-03-01T11:52:00,1,new,active
0380E283I250,bknajpm,,,Vandyke,,,,Easthampstead Park School - Vandyke,,Ringmead,,,,N-bound,,N,N0060050,Great Hollands,Bracknell,,Bracknell,EN,Great Hollands,EN,false,UKOS,485283,167250,-0.77551,51.39788,BCT,MKD,OTH,,,,006,2004-11-01T00:00:00,2012-03-01T11:54:00,2,new,active
0380E293I261,bknajpt,,,Vandyke,,,,Easthampstead Park School - Vandyke,,Ringmead,,,,S-bound,,S,N0060050,Great Hollands,Bracknell,,Bracknell,EN,Great Hollands,EN,false,UKOS,485293,167261,-0.77536,51.39798,BCT,MKD,OTH,,,,006,2004-11-01T00:00:00,2012-03-01T11:55:00,2,new,active
0380E076I616,bknajmd,,,Viking,,,,Winscombe - Wheatley - Waverley,,Ringmead,,,,opp,,N,N0060050,Great Hollands,Bracknell,,Bracknell,EN,Great Hollands,EN,false,UKOS,485076,167616,-0.77839,51.40121,BCT,MKD,OTH,,,,006,2004-11-01T00:00:00,2012-07-19T11:17:00,3,new,active
0380E080I630,bknajmg,,,Viking,,,,Winscombe - Wheatley - Waverley,,Ringmead,,,,adj,,S,N0060050,Great Hollands,Bracknell,,Bracknell,EN,Great Hollands,EN,false,UKOS,485080,167630,-0.77833,51.40133,BCT,MKD,OTH,,,,006,2004-11-01T00:00:00,2012-07-19T11:17:00,3,new,active
0380H347F089,bknawtw,,,Walsh Avenue,,,,Shakespeare Way - Harvest Road - Whitegrove,,Harvest Ride,,,,adj,,E,N0060774,Whitegrove,Bracknell,,Bracknell,EN,Whitegrove,EN,false,UKOS,488347,170089,-0.73077,51.42294,BCT,MKD,OTH,,,,006,2004-11-01T00:00:00,2012-03-01T11:57:00,2,new,active
0380H386F070,bkndadg,,,Walsh Avenue,,,,Shakespeare Way - Harvest Road - Whitegrove,,Harvest Ride,,,,opp,,W,N0060774,Whitegrove,Bracknell,,Bracknell,EN,Whitegrove,EN,false,UKOS,488386,170070,-0.73021,51.42276,BCT,MKD,OTH,,,,006,2004-11-01T00:00:00,2012-03-01T11:58:00,2,new,active
0380G344F380,bknatmg,,,Warfield Road,,,,Priory Lane - Sherring Close,,Folders Lane,,,,E-bound,,E,E0052953,Binfield,,,Bracknell,EN,Bracknell,EN,false,UKOS,487344,170380,-0.74512,51.42571,BCT,MKD,OTH,,,,006,2004-11-01T00:00:00,2012-07-19T11:08:00,3,new,active
0380G325F366,bknatmd,,,Warfield Road,,,,Lakeside - Lutterworth Close,,Folders Lane,,,,W-bound,,W,E0052953,Binfield,,,Bracknell,EN,Bracknell,EN,false,UKOS,487325,170366,-0.74539,51.42558,BCT,MKD,OTH,,,,006,2004-11-01T00:00:00,2012-07-19T11:09:00,3,new,active
0380F303G533,bknapga,,,Arlington Square,,,,Boyd Court - Arlington Square,,B3408,,,,opp,,E,E0057151,Bracknell,,,Bracknell,EN,Bracknell,EN,false,UKOS,486509,169521,-0.75733,51.41811,BCT,MKD,OTH,,,,006,2004-11-01T00:00:00,2019-01-15T17:09:00,4,new,active
0380F494G502,bknapjw,,,Arlington Square,,,,Boyd Court - Arlington Square,,B3408,,,,adj,,W,E0057151,Bracknell,,,Bracknell,EN,Bracknell,EN,false,UKOS,486494,169502,-0.75755,51.41795,BCT,MKD,OTH,,,,006,2004-11-01T00:00:00,2019-01-15T17:09:00,3,new,active
0380D536O469,bknajda,,,Wellington Arms,,,,Wellington Arms,,Yorktown Road,,,,adj,,E,E0052956,Sandhurst,,,Sandhurst,EN,Sandhurst,EN,false,UKOS,484536,161469,-0.78761,51.34603,BCT,MKD,OTH,,,,006,2004-11-01T00:00:00,2009-11-17T10:46:00,1,new,active
0380D369O434,bknagwd,,,Wellington Arms,,,,Bull & Butcher,,Yorktown Road,,,,opp,,SW,E0052956,Sandhurst,,,Sandhurst,EN,Sandhurst,EN,false,UKOS,484369,161434,-0.79002,51.34574,BCT,MKD,OTH,,,,006,2004-11-01T00:00:00,2009-11-17T10:50:00,5,new,active
0380G868F519,bknawap,,,Westcotts Green,,,,All Saints Rise - Whitegrove,,Harvest ride,,,,adj,,N,N0060774,Whitegrove,Bracknell,,Bracknell,EN,Whitegrove,EN,false,UKOS,487868,170519,-0.73755,51.42688,BCT,MKD,OTH,,,,006,2004-11-01T00:00:00,2012-01-19T12:38:00,1,new,active
0380G883F501,bknawda,,,Westcotts Green,,,,All Saints Rise - Whitegrove,,Harvest ride,,,,opp,,S,N0060774,Whitegrove,Bracknell,,Bracknell,EN,Whitegrove,EN,false,UKOS,487883,170501,-0.73734,51.42671,BCT,MKD,OTH,,,,006,2004-11-01T00:00:00,2012-01-19T12:38:00,1,new,active
0380E309I865,bknajpw,,,Wheatley,,,,Link to Lovelace Road - Winscombe - Wordsworth,,Ringmead,,,,E-bound,,E,N0060050,Great Hollands,Bracknell,,Bracknell,EN,Great Hollands,EN,false,UKOS,485309,167865,-0.77498,51.40341,BCT,MKD,OTH,,,,006,2004-11-01T00:00:00,2012-03-01T12:04:00,2,new,active
0380E314I854,bknajta,,,Wheatley,,,,Link to Lovelace Road - Winscombe - Wordsworth,,Ringmead,,,,W-bound,,W,N0060050,Great Hollands,Bracknell,,Bracknell,EN,Great Hollands,EN,false,UKOS,485314,167854,-0.77491,51.40331,BCT,MKD,OTH,,,,006,2004-11-01T00:00:00,2012-03-01T12:04:00,2,new,active
0380H183H498,bknawmp,,,Whistley Close,,,,Martins Lane - Uffington Drive,,Ralphs Ride,,,,adj,,N,E0057151,Bracknell,,,Bracknell,EN,Bracknell,EN,false,UKOS,488183,168498,-0.73352,51.40866,BCT,MKD,OTH,,,,006,2004-11-01T00:00:00,2012-01-19T13:49:00,1,new,active
0380H193H499,bknawmw,,,Whistley Close,,,,Martins Lane - Uffington Drive,,Ralphs Ride,,,,opp,,S,E0057151,Bracknell,,,Bracknell,EN,Bracknell,EN,false,UKOS,488193,168499,-0.73338,51.40867,BCT,MKD,OTH,,,,006,2004-11-01T00:00:00,2012-01-19T13:48:00,1,new,active
0380C868L224,bknagmj,,,Wiltshire Avenue,,,,Albert Road - Crowthorne Primary,,Dukes Ride,,,,adj,,E,E0052955,Crowthorne,,,Crowthorne,EN,Crowthorne,EN,false,UKOS,483868,164224,-0.79655,51.37089,BCT,MKD,OTH,,,,006,2004-11-01T00:00:00,2011-06-15T17:44:00,3,new,active
0380C801L201,bknagma,,,Wiltshire Avenue,,,,Crowthorne Primary,,Dukes Ride,,,,opp,,W,E0052955,Crowthorne,,,Crowthorne,EN,Crowthorne,EN,false,UKOS,483801,164201,-0.79752,51.37069,BCT,MKD,OTH,,,,006,2004-11-01T00:00:00,2011-06-15T17:44:00,2,new,active
0380K083F799,bkndawp,,,Winkfield Manor,,,,Winkfield Manor,,Forest Road,,,,Opp,,E,E0052958,Winkfield,,,Winkfield,EN,Winkfield,EN,false,UKOS,491083,170799,-0.69125,51.42889,BCT,MKD,OTH,,,,006,2004-11-01T00:00:00,2012-03-01T12:06:00,1,new,active
0380K070F791,bkndawj,,,Winkfield Manor,,,,Winkfield Manor,,Forest Road,,,,Adj,,W,E0052958,Winkfield,,,Winkfield,EN,Winkfield,EN,false,UKOS,491070,170791,-0.69144,51.42882,BCT,MKD,OTH,,,,006,2004-11-01T00:00:00,2012-03-01T12:05:00,1,new,active
0380E496I965,bknamdt,,,Wordsworth,,,,Wylam - Great Hollands Jun & Inf,,Ringmead,,,,N-bound,,N,N0060050,Great Hollands,Bracknell,,Bracknell,EN,Great Hollands,EN,false,UKOS,485496,167965,-0.77227,51.40428,BCT,MKD,OTH,,,,006,2004-11-01T00:00:00,2012-03-01T12:07:00,2,new,active
0380E513I945,bknamga,,,Wordsworth,,,,Wylam - Great Hollands Jun & Inf,,Ringmead,,,,S-bound,,S,N0060050,Great Hollands,Bracknell,,Bracknell,EN,Great Hollands,EN,false,UKOS,485513,167945,-0.77203,51.4041,BCT,MKD,OTH,,,,006,2004-11-01T00:00:00,2012-03-01T12:07:00,2,new,active
0380E717I844,bknamjt,,,Wylam,,,,Easthampstead Church,,Ringmead,,,,opp,,NW,N0060050,Great Hollands,Bracknell,,Bracknell,EN,Great Hollands,EN,false,UKOS,485717,167844,-0.76913,51.40316,BCT,MKD,OTH,,,,006,2004-11-01T00:00:00,2012-03-01T12:08:00,2,new,active
0380E728I852,bknamjw,,,Wylam,,,,Easthampstead Church,,Ringmead,,,,adj,,SE,N0060050,Great Hollands,Bracknell,,Bracknell,EN,Great Hollands,EN,false,UKOS,485728,167852,-0.76897,51.40323,BCT,MKD,OTH,,,,006,2004-11-01T00:00:00,2012-03-01T12:08:00,2,new,active
0380E116N181,bknajmw,,,Yeovil Road Shops,,,,Cambridge Road - Victoria Road - Post Office,,Yeovil Road,,,,E-bound,,E,E0035408,College Town,Sandhurst,,Sandhurst,EN,College Town,EN,false,UKOS,485116,162181,-0.77912,51.35234,BCT,MKD,OTH,,,,006,2004-11-01T00:00:00,2012-03-01T12:09:00,1,new,active
0380E053N178,bknajgw,,,Yeovil Road Shops,,,,Cambridge Road - Victoria Road - Post Office,,Yeovil Road,,,,W-bound,,W,E0035408,College Town,Sandhurst,,Sandhurst,EN,College Town,EN,false,UKOS,485053,162178,-0.78002,51.35232,BCT,MKD,OTH,,,,006,2004-11-01T00:00:00,2012-03-01T12:09:00,1,new,active
0380D620E053,bknajdt,,,York Road,,,,Binfield - Pitch Place,,Forest Road,,,,E-bound,,E,E0052953,Binfield,,,Binfield,EN,Binfield,EN,false,UKOS,484620,171053,-0.78413,51.43217,BCT,MKD,OTH,,,,006,2004-11-01T00:00:00,2012-03-01T12:10:00,2,new,active
0380D608E040,bknajdp,,,York Road,,,,Binfield - Pitch Place,,Forest Road,,,,Opp,,W,E0052953,Binfield,,,Binfield,EN,Binfield,EN,false,UKOS,484608,171040,-0.7843,51.43206,BCT,MKD,OTH,,,,006,2004-11-01T00:00:00,2009-11-12T15:08:00,1,new,active
0380H585F596,bkndagp,,,Yorkshire Place,,,,Whitegrove - Lancashire Hill - Wiltshire Green,,County Lane,,,,opp,,E,N0060774,Whitegrove,Bracknell,,Bracknell,EN,Whitegrove,EN,false,UKOS,488585,170596,-0.72722,51.42746,BCT,MKD,OTH,,,,006,2004-11-01T00:00:00,2012-01-19T12:37:00,1,new,active
0380H648F552,bkndajd,,,Yorkshire Place,,,,Whitegrove - Harvest Ride - Westcotts Green,,County Lane,,,,adj,,W,N0060774,Whitegrove,Bracknell,,Bracknell,EN,Whitegrove,EN,false,UKOS,488648,170552,-0.72632,51.42705,BCT,MKD,OTH,,,,006,2004-11-01T00:00:00,2012-01-19T12:36:00,1,new,active
0380G328E268,bknadtd,,,Plough & Harrow,,,,Adjacent Osborne Lane,,Forest Road,,,,E-bound,,,E0035421,Newell Green,,,Winkfield,EN,Newell Green,EN,false,UKOS,487275,171298,-0.74588,51.43397,BCT,HAR,OTH,,,,006,2004-11-01T00:00:00,2020-10-05T15:08:57,16,new,active
0380G322E258,bknadta,,,Plough & Harrow,,,,,,Warfield Street,,,,,,,E0035421,Newell Green,,,Winkfield,EN,Newell Green,EN,false,UKOS,487363,171229,-0.74464,51.43334,BCT,HAR,OTH,,,,006,2004-11-01T00:00:00,2021-01-28T12:07:57,52,new,active
0380I875E051,bknadtm,,,Forest Road - St Mary's School,,,,Forest Road Adjacent St Mary's School,,Forest Road,,,,adj,,,E0052958,Winkfield,,,Winkfield,EN,Winkfield Row,EN,false,UKOS,489875,171051,-0.70855,51.43134,BCT,HAR,OTH,,,,006,2004-11-01T00:00:00,2015-01-28T12:27:00,7,new,active
0380I876E046,bknadtp,,,Forest Road - St Mary's School,,,,Forest Road opposite St Mary's School,,Forest Road,,,,opp,,,E0052958,Winkfield,,,Winkfield,EN,Winkfield Row,EN,false,UKOS,489876,171046,-0.70854,51.4313,BCT,HAR,OTH,,,,006,2004-11-01T00:00:00,2013-06-10T14:41:00,5,new,active
0380J604E445,bknadtw,,,Braziers Lane,,,,Braziers Lane near Cooper's Bridge,,Braziers Lane,,,,N-bound,,,E0052958,Winkfield,,,Winkfield,EN,Winkfield,EN,false,UKOS,490604,171445,-0.69797,51.43477,BCT,HAR,OTH,,,,006,2004-11-01T00:00:00,2012-01-31T15:35:00,3,new,active
0380J608E444,bknadwa,,,Braziers Lane,,,,Braziers Lane near Cooper's Bridge,,Braziers Lane,,,,S-bound,,,E0052958,Winkfield,,,Winkfield,EN,Winkfield,EN,false,UKOS,490608,171444,-0.69791,51.43476,BCT,HAR,OTH,,,,006,2004-11-01T00:00:00,2012-01-31T15:36:00,4,new,active
0380J693D217,bknadwd,,,Church Road,,,,Church Road - Adjacent St Mary's Lane corner,,Church Road,,,,NW-bound,,,E0052958,Winkfield,,,Winkfield,EN,Winkfield,EN,false,UKOS,490693,172217,-0.69649,51.4417,BCT,HAR,OTH,,,,006,2004-11-01T00:00:00,2015-01-13T15:08:00,4,new,active
0380J696D222,bknadwg,,,Church Road,,,,Church Road - opposite St Mary's Lane,,Church Road,,,,SE-bound,,,E0052958,Winkfield,,,Winkfield,EN,Winkfield,EN,false,UKOS,490696,172222,-0.69645,51.44174,BCT,HAR,OTH,,,,006,2004-11-01T00:00:00,2012-03-01T15:12:00,3,new,active
0380G123C883,bknadpt,,,Hawthorn Hill,,,,Maidenhead Road opposite Hawthorndale Cottages,,Maidenhead Road,,,,N-bound,,,E0035416,Jealotts Hill,,,Hawthorn Hill,EN,Winkfield,EN,false,UKOS,487123,173883,-0.74743,51.45723,BCT,HAR,OTH,,,,006,2004-11-01T00:00:00,2023-02-21T16:11:10,15,delete,inactive
0380G128C881,bknadpw,,,Hawthorn Hill,,,,Maidenhead Road Adjacent Hawthorndale Cottages,,Maidenhead Road,,,,S-bound,,,E0035416,Jealotts Hill,,,Hawthorn Hill,EN,Winkfield,EN,false,UKOS,487128,173881,-0.74736,51.45721,BCT,HAR,OTH,,,,006,2004-11-01T00:00:00,2023-02-21T16:11:35,15,delete,inactive
0380D448C184,bknadmt,,,Twyford Road Binfield Lodge,,,,Adjacent Binfield Lodge,,Twyford Road,,,,adj,,,E0052953,Binfield,,,Binfield,EN,Binfield,EN,false,UKOS,484451,173184,-0.78605,51.45135,BCT,HAR,OTH,,,,006,2004-11-01T00:00:00,2020-09-18T11:09:16,18,new,active
0380D459C187,bknadpa,,,Twyford Road Binfield Lodge,,,,Opposite Binfield Lodge,,Twyford Road,,,,opp,,,E0052953,Binfield,,,Binfield,EN,Binfield,EN,false,UKOS,484459,173187,-0.78593,51.45138,BCT,HAR,OTH,,,,006,2004-11-01T00:00:00,2018-10-11T13:02:00,4,new,active
0380D485D600,bknadpd,,,Church Hill,,,,opposite Hill Farm,,Church Lane,,,,N-bound,,,E0052953,Binfield,,,Binfield,EN,Binfield,EN,false,UKOS,484485,172600,-0.7857,51.4461,BCT,HAR,OTH,,,,006,2004-11-01T00:00:00,2021-01-28T12:04:41,35,new,active
0380D498D598,bknadpg,,,Church Hill,,,,Adjacent Hill Farm,,Church Lane,,,,S-bound,,,E0052953,Binfield,,,Binfield,EN,Binfield,EN,false,UKOS,484498,172598,-0.78551,51.44608,BCT,HAR,OTH,,,,006,2004-11-01T00:00:00,2019-04-02T12:35:00,5,new,active
0380F945G058,bkndmda,,,Bracknell Bus Station,,,,,,Station Road,,,,N-bound,,N,E0057151,Bracknell,,,Bracknell,EN,,,false,UKOS,486945,169058,-0.75118,51.41388,BCT,MKD,OTH,,,,006,2017-08-24T00:00:00,2017-08-24T12:28:00,0,new,active
0380F968G059,bknadwp,,,Bracknell Bus Station,,,,Station Entrance -Town Centre,,Market Street,,,,Bay 1,,,E0057151,Bracknell,,,Bracknell,EN,Bracknell,EN,false,UKOS,486968,169030,-0.75085,51.41363,BCS,,,,,,006,2004-11-01T00:00:00,2008-05-27T09:44:00,1,new,active
0380F968G045,bknadwm,,,Bracknell Bus Station,,,,Station Entrance -Town Centre,,Market Street,,,,Bay 2,,,E0057151,Bracknell,,,Bracknell,EN,Bracknell,EN,false,UKOS,486968,169045,-0.75085,51.41376,BCS,,,,,,006,2004-11-01T00:00:00,2004-11-01T00:00:00,0,new,active
0380F968G030,bknadwj,,,Bracknell Bus Station,,,,Station Entrance -Town Centre,,Market Street,,,,Bay 3,,,E0057151,Bracknell,,,Bracknell,EN,Bracknell,EN,false,UKOS,486968,169059,-0.75085,51.41389,BCS,,,,,,006,2004-11-01T00:00:00,2008-05-27T09:44:00,1,new,active
0380F981G030,bknagad,,,Bracknell Bus Station,,,,Station Entrance -Town Centre,,Market Street,,,,Bay 4,,,E0057151,Bracknell,,,Bracknell,EN,Bracknell,EN,false,UKOS,486981,169030,-0.75067,51.41363,BCS,,,,,,006,2004-11-01T00:00:00,2004-11-01T00:00:00,0,new,active
0380F981G045,bknagag,,,Bracknell Bus Station,,,,Station Entrance -Town Centre,,Market Street,,,,Bay 5,,,E0057151,Bracknell,,,Bracknell,EN,Bracknell,EN,false,UKOS,486981,169045,-0.75066,51.41376,BCS,,,,,,006,2004-11-01T00:00:00,2004-11-01T00:00:00,0,new,active
0380F981G060,bknagaj,,,Bracknell Bus Station,,,,Station Entrance -Town Centre,,Market Street,,,,Bay 6,,,E0057151,Bracknell,,,Bracknell,EN,Bracknell,EN,false,UKOS,486981,169060,-0.75066,51.4139,BCS,,,,,,006,2004-11-01T00:00:00,2004-11-01T00:00:00,0,new,active
0380F992G059,bknagat,,,Bracknell Bus Station,,,,Station Entrance -Town Centre,,Market Street,,,,Bay 7,,,E0057151,Bracknell,,,Bracknell,EN,Bracknell,EN,false,UKOS,486992,169030,-0.75051,51.41363,BCS,,,,,,006,2004-11-01T00:00:00,2008-05-27T09:43:00,1,new,active
0380F992G045,bknagap,,,Bracknell Bus Station,,,,Station Entrance -Town Centre,,Market Street,,,,Bay 8,,,E0057151,Bracknell,,,Bracknell,EN,Bracknell,EN,false,UKOS,486992,169045,-0.75051,51.41376,BCS,,,,,,006,2004-11-01T00:00:00,2004-11-01T00:00:00,0,new,active
0380F992G030,bknagam,,,Bracknell Bus Station,,,,Station Entrance -Town Centre,,Market Street,,,,Bay 9,,,E0057151,Bracknell,,,Bracknell,EN,Bracknell,EN,false,UKOS,486992,169059,-0.7505,51.41389,BCS,,,,,,006,2004-11-01T00:00:00,2008-05-27T09:43:00,1,new,active
0380E881G750,bknampw,,,Brook Green,,,,Brook Green,,Priestwood Avenue,,,,opp,,E,E0035426,Priestwood,Bracknell,,Bracknell,EN,Priestwood,EN,false,UKOS,485881,169750,-0.76631,51.42027,BCT,MKD,OTH,,,,006,2004-11-01T00:00:00,2012-02-03T15:02:00,1,new,active
0380E856G747,bknampm,,,Brook Green,,,,Brook Green,,Priestwood Avenue,,,,adj,,W,E0035426,Priestwood,Bracknell,,Bracknell,EN,Priestwood,EN,false,UKOS,485856,169747,-0.76667,51.42024,BCT,MKD,OTH,,,,006,2004-11-01T00:00:00,2012-02-03T15:01:00,1,new,active
0380K931F789,bkndgap,,,Old Post Office,,,,Bishops Court,,New Road,,,,adj,,N,N0060781,Brookside,,,North Ascot,EN,North Ascot,EN,false,UKOS,491931,170789,-0.67905,51.42866,BCT,MKD,OTH,,,,006,2004-11-01T00:00:00,2009-11-17T12:15:00,1,new,active
0380K937F733,bkndgat,,,Old Post Office,,,,Bishops Court,,New Road,,,,opp,,S,N0060781,Brookside,,,North Ascot,EN,North Ascot,EN,false,UKOS,491937,170733,-0.67898,51.42816,BCT,MKD,OTH,,,,006,2004-11-01T00:00:00,2009-11-17T12:16:00,1,new,active
0380H173G161,bknawmg,,,Ethyl Labs,,,,Running Horse - Royal Oak - Ethyl,,London Road,,,,Adj,,NW,E0035405,Bullbrook,Bracknell,,Bracknell,EN,Bracknell,EN,false,UKOS,488173,169161,-0.7335,51.41462,BCT,MKD,OTH,,,,006,2004-11-01T00:00:00,2011-10-27T16:16:00,5,new,active
0380H221G146,bknawpg,,,Ethyl Labs,,,,Running Horse - Royal Oak - Ethyl,,London Road,,,,Opp,,SE,E0035405,Bullbrook,Bracknell,,Bracknell,EN,Bracknell,EN,false,UKOS,488221,169146,-0.73281,51.41448,BCT,MKD,OTH,,,,006,2004-11-01T00:00:00,2011-10-27T16:16:00,5,new,active
0380H851E077,bkndama,,,Goose Corner,,,,Cricketers Lane - Hayley Green,,Forest Road,,,,adj,,E,N0060773,Hayley Green,,,Warfield,EN,Warfield,EN,false,UKOS,488851,171077,-0.72327,51.43174,BCT,MKD,OTH,,,,006,2004-11-01T00:00:00,2010-04-23T11:49:00,4,new,active
0380H913E074,bkndamg,,,Goose Corner,,,,The Limes,,Forest Road,,,,opp,,W,N0060773,Hayley Green,,,Warfield,EN,Warfield,EN,false,UKOS,488692,171071,-0.72556,51.43171,BCT,MKD,OTH,,,,006,2004-11-01T00:00:00,2010-04-23T11:49:00,3,new,active
0380D218L183,bknagtd,,,High Street,,,,Ye Old Prince - Prince Alfred - Police Station,,Bracknell Road,,,,opp,,E,E0052955,Crowthorne,,,Crowthorne,EN,Crowthorne,EN,false,UKOS,484218,164183,-0.79154,51.37047,BCT,MKD,OTH,,,,006,2004-11-01T00:00:00,2019-01-15T16:59:00,4,new,active
0380D173L125,bknagpt,,,High Street,,,,Iron Duke - Library - Lower Broadmoor Road,,High Street,,,,in,,S,E0052955,Crowthorne,,,Crowthorne,EN,Crowthorne,EN,false,UKOS,484173,164125,-0.7922,51.36996,BCT,MKD,OTH,,,,006,2004-11-01T00:00:00,2010-08-19T16:28:00,2,new,active
0380D067L188,bknagpg,,,High Street,,,,Ye Old Prince - Prince Alfred,,Dukes Ride,,,,nr,,W,E0052955,Crowthorne,,,Crowthorne,EN,Crowthorne,EN,false,UKOS,484067,164188,-0.7937,51.37054,BCT,MKD,OTH,,,,006,2004-11-01T00:00:00,2010-08-19T16:27:00,1,new,active
0380D109L034,,,,High Street,,,,opposite Crowthorne Inn,,High Street,,,,taxi rank,,,E0052955,Crowthorne,,,Crowthorne,EN,Crowthorne,EN,false,UKOS,484109,164034,-0.79314,51.36915,TXR,,,,,,006,2004-11-01T00:00:00,2013-09-06T17:57:00,3,new,active
0380I566G548,bknadap,,,Church Road,,,,Adjacent Birch Lane,,Long Hill Road,,,,opp,,NE,E0035407,Chavey Down,,,Winkfield,EN,Winkfield,EN,false,UKOS,489566,169548,-0.71338,51.41788,BCT,CUS,OTH,,,,006,2004-11-01T00:00:00,2012-01-19T13:39:00,2,new,active
0380I588G564,bkndapa,,,Church Road,,,,Adjacent Church Road,,Long Hill Road,,,,adj,,SW,E0035407,Chavey Down,,,Winkfield,EN,Winkfield,EN,false,UKOS,489588,169564,-0.71306,51.41802,BCT,MKD,OTH,,,,006,2004-11-01T00:00:00,2012-01-19T13:39:00,2,new,active
0380I561E452,bknadtg,,,Winkfield Row,,,,opposite Grove Road,,Winkfileld Row,,,,N-bound,,,E0035433,Winkfield Row,,,Winkfield,EN,Winkfield,EN,false,UKOS,489561,171452,-0.71297,51.435,BCT,HAR,OTH,,,,006,2005-03-22T00:00:00,2021-01-28T12:09:46,24,new,active
0380I567E567,bknadtj,,,Winkfield Row,,,,Adjacent Grove Road,,Winkfield Row,,,,S-bound,,,E0035433,Winkfield Row,,,Winkfield,EN,Winkfield,EN,false,UKOS,489567,171458,-0.71288,51.43505,BCT,HAR,OTH,,,,006,2005-03-22T00:00:00,2012-01-19T13:47:00,4,new,active
0380D269E463,bknadjw,,,Terrace Road North H & R 1,,,,Binfield House,,Terrace Road North,,,,N-bound,,,E0052953,Binfield,,,Binfield,EN,Binfield,EN,false,UKOS,484178,171230,-0.79044,51.43383,BCT,HAR,OTH,,,,006,2004-11-01T00:00:00,2012-03-01T11:25:00,1,new,active
0380D185E229,bknadjt,,,Terrace Road North H & R 1,,,,Binfield House,,Terrace Road North,,,,S-bound,,,E0052953,Binfield,,,Binfield,EN,Binfield,EN,false,UKOS,484185,171229,-0.79034,51.43382,BCT,HAR,OTH,,,,006,2004-11-01T00:00:00,2012-03-01T11:25:00,1,new,active
0380D307E561,bknadma,,,Terrace Road North H & R 2,,,,Pear Tree Cottage,,Terrace Road North,,,,N-bound,,,E0052953,Binfield,,,Binfield,EN,Binfield,EN,false,UKOS,484307,171561,-0.78851,51.43678,BCT,HAR,OTH,,,,006,2004-11-01T00:00:00,2012-03-01T11:27:00,1,new,active
0380D312E560,bknadmd,,,Terrace Road North H & R 2,,,,Pear Tree Cottage,,Terrace Road North,,,,S-bound,,,E0052953,Binfield,,,Binfield,EN,Binfield,EN,false,UKOS,484312,171560,-0.78844,51.43677,BCT,HAR,OTH,,,,006,2004-11-01T00:00:00,2012-03-01T11:28:00,1,new,active
0380D449E756,bknadmw,,,Terrace Road North H & R 3,,,,Binfield Park Hospital,,Terrace Road North,,,,NE-bound,,,E0052953,Binfield,,,Binfield,EN,Binfield,EN,false,UKOS,484430,171757,-0.78669,51.43853,BCT,HAR,OTH,,,,006,2004-11-01T00:00:00,2018-11-28T15:15:00,2,new,active
0380D441E748,bknadmp,,,Terrace Road North H & R 3,,,,Binfield Park Hospital,,Terrace Road North,,,,SW-bound,,,E0052953,Binfield,,,Binfield,EN,Binfield,EN,false,UKOS,484441,171748,-0.78654,51.43844,BCT,HAR,OTH,,,,006,2004-11-01T00:00:00,2018-11-28T15:14:00,2,new,active
0380D588E961,bknadpj,,,Terrace Road North H & R 4,,,,Binfield Court,,Terrace Road North,,,,N-bound,,,E0052953,Binfield,,,Binfield,EN,Binfield,EN,false,UKOS,484588,171961,-0.78437,51.44034,BCT,HAR,OTH,,,,006,2004-11-01T00:00:00,2012-03-01T11:33:00,1,new,active
0380D594E960,bknadpm,,,Terrace Road North H & R 4,,,,Binfield Court,,Terrace Road North,,,,S-bound,,,E0052953,Binfield,,,Binfield,EN,Binfield,EN,false,UKOS,484594,171960,-0.78428,51.44033,BCT,HAR,OTH,,,,006,2004-11-01T00:00:00,2012-03-01T11:33:00,1,new,active
0380F897G250,bknatdw,,,The Ring - High Street,,,,Past High Street Car Park Entrance,,The Ring,,,,Stop B,,N,E0057151,Bracknell,,,Bracknell,EN,Bracknell,EN,false,UKOS,486897,169250,-0.75182,51.41562,BCT,MKD,OTH,,,,006,2004-11-01T00:00:00,2008-05-28T10:54:00,1,new,active
0380F896G259,bknatdt,,,The Ring - High Street,,,,Stop closest to High Street junction,,The Ring,,,,Stop C,,N,E0057151,Bracknell,,,Bracknell,EN,Bracknell,EN,false,UKOS,486896,169259,-0.75183,51.4157,BCT,MKD,OTH,,,,006,2004-11-01T00:00:00,2008-05-28T10:54:00,1,new,active
0380E970G913,bknamwa,,,Priestwood Shops,,,,Opposite Priestwood Square,,Windlesham Road,,,,opp,,N,E0035426,Priestwood,Bracknell,,Bracknell,EN,Bracknell,EN,false,UKOS,485970,169913,-0.76499,51.42172,BCT,MKD,OTH,,,,006,2004-11-01T00:00:00,2013-05-21T12:37:00,2,new,active
0380E974G888,bknamwg,,,Priestwood Shops,,,,Adjacent to Priestwood Square,,Windlesham Road,,,,adj,,S,E0035426,Priestwood,Bracknell,,Bracknell,EN,Bracknell,EN,false,UKOS,485974,169888,-0.76494,51.42149,BCT,MKD,OTH,,,,006,2004-11-01T00:00:00,2013-05-21T12:38:00,2,new,active
0380E472G697,bknamdg,,,Rounds Hill,,,,Pollardrow Avenue - Anders Corner,,Wokingham Road,,,,E-bound,,E,E0035426,Priestwood,Bracknell,,Bracknell,EN,Priestwood,EN,false,UKOS,485472,169697,-0.7722,51.41985,BCT,MKD,OTH,,,,006,2004-11-01T00:00:00,2016-09-27T15:01:00,2,new,active
0380E587G630,bknamgt,,,Rounds Hill,,,,Pollardrow Avenue - Anders Corner,,Wokingham Road,,,,W-bound,,W,E0035426,Priestwood,Bracknell,,Bracknell,EN,Priestwood,EN,false,UKOS,485587,169630,-0.77056,51.41923,BCT,MKD,OTH,,,,006,2004-11-01T00:00:00,2016-09-27T15:00:00,2,new,active
0380H508I475,bknadag,,,Micheldever Way,,,,Chisbury Close,,Savernake Way,,,,opp,,N,N0060771,Forest Park,Bracknell,,Bracknell,EN,Forest Park,EN,false,UKOS,488516,167516,-0.72898,51.39978,BCT,CUS,OTH,,,,006,2004-11-01T00:00:00,2012-07-19T11:03:00,2,new,active
0380H517I474,bkndagj,,,Micheldever Way,,,,Crofton Close,,Savernake Way,,,,adj,,S,N0060771,Forest Park,Bracknell,,Bracknell,EN,Forest Park,EN,false,UKOS,488517,167474,-0.72898,51.3994,BCT,MKD,OTH,,,,006,2004-11-01T00:00:00,2012-07-19T11:04:00,2,new,active
0380H563I646,bknadaj,,,Savernake Pond,,,,Mendip Road,,Savernake Way,,,,adj,,N,N0060771,Forest Park,Bracknell,,Bracknell,EN,Forest Park,EN,false,UKOS,488576,167673,-0.72808,51.40118,BCT,CUS,OTH,,,,006,2004-11-01T00:00:00,2019-01-15T17:03:00,2,new,active
0380H573I643,bkndagm,,,Savernake Pond,,,,Hythe Close - Pewsey Vale - Draycott,,Savernake Way,,,,opp,,S,N0060771,Forest Park,Bracknell,,Bracknell,EN,Forest Park,EN,false,UKOS,488573,167643,-0.72813,51.40091,BCT,MKD,OTH,,,,006,2004-11-01T00:00:00,2011-06-15T17:42:00,1,new,active
0380H330I348,bknadad,,,Farningham House,,,,Opposite Farningham House,,Farningham,,,,opp,,E,N0060771,Forest Park,Bracknell,,Bracknell,EN,Forest Park,EN,false,UKOS,488435,167367,-0.73018,51.39845,BCT,CUS,OTH,,,,006,2004-11-01T00:00:00,2012-02-06T16:15:00,1,new,active
0380H390I352,bkndadm,,,Farningham House,,,,Bere Road - Worlds End Hill,,Farningham,,,,Adj,,W,N0060771,Forest Park,Bracknell,,Bracknell,EN,Forest Park,EN,false,UKOS,488390,167352,-0.73083,51.39833,BCT,MKD,OTH,,,,006,2004-11-01T00:00:00,2006-12-06T15:44:00,1,new,active
0380M685E289,bknadgt,,,Sunninghill Road,,,,Opposite South Forest,,Sunninghill Road,,,,N-bound,,N,E0035435,Woodend,,,Ascot,EN,Windsor Great Park,EN,false,UKOS,493685,171289,-0.6537,51.43287,BCT,CUS,OTH,,,,006,2004-11-01T00:00:00,2012-12-05T12:29:00,2,new,active
0380M691E289,bknadgw,,,Sunninghill Road,,,,Adjacent South Forest,,Sunninghill Road,,,,S-bound,,S,E0035435,Woodend,,,Ascot,EN,Windsor Great Park,EN,false,UKOS,493691,171289,-0.65361,51.43287,BCT,CUS,OTH,,,,006,2004-11-01T00:00:00,2012-12-05T12:29:00,2,new,active
0380N097F691,bknadjg,,,Sunninghill Park,,,,Adjacent Sunninghill Park,,Sunninghill Road,,,,adj,,NW,E0035435,Woodend,,,Ascot,EN,Windsor Great Park,EN,false,UKOS,494097,170691,-0.64793,51.42742,BCT,CUS,OTH,,,,006,2004-11-01T00:00:00,2012-12-05T12:27:00,4,new,active
0380N092F704,bknadjd,,,Sunninghill Park,,,,Opposite Sunninghill Park,,Sunninghill Road,,,,opp,,SE,E0035435,Woodend,,,Ascot,EN,Windsor Great Park,EN,false,UKOS,494092,170704,-0.648,51.42754,BCT,CUS,OTH,,,,006,2004-11-01T00:00:00,2012-12-05T12:27:00,4,new,active
0380M398E314,bknadga,,,The Crispin,,,,Adjacent The Crispin,,Windsor Road,,,,adj,,N,E0035435,Woodend,,,Ascot,EN,Woodside,EN,false,UKOS,493398,171314,-0.65782,51.43314,BCT,CUS,OTH,,,,006,2004-11-01T00:00:00,2012-12-05T12:30:00,4,new,active
0380M406E310,bknadgd,,,The Crispin,,,,Opposite The Crispin,,Windsor Road,,,,opp,,S,E0035435,Woodend,,,Ascot,EN,Woodside,EN,false,UKOS,493406,171310,-0.65771,51.4331,BCT,CUS,OTH,,,,006,2004-11-01T00:00:00,2012-12-05T12:30:00,3,new,active
0380N568F013,bknadjm,,,Ascot Gate,,,,Opposite Ascot Gate,,Sunninghill Road,,,,adj,,N,E0035435,Woodend,,,Ascot,EN,Cheapside,EN,false,UKOS,494568,170013,-0.64134,51.42125,BCT,CUS,OTH,,,,006,2004-11-01T00:00:00,2012-01-19T12:42:00,4,new,active
0380N578F014,bknadjp,,,Ascot Gate,,,,Adjacent Ascot Gate,,Sunninghill Road,,,,opp,,S,E0035435,Woodend,,,Ascot,EN,Cheapside,EN,false,UKOS,494578,170014,-0.6412,51.42126,BCT,CUS,OTH,,,,006,2004-11-01T00:00:00,2012-01-19T12:42:00,4,new,active
0380F683I034,bknapwd,,,South Hill Link,,,,Haversham Drive - Ringmead - Golden Farmer,,South Hill Road,,,,S-bound,,SW,N0060046,South Hill Park,Bracknell,,Bracknell,EN,Easthampstead,EN,false,UKOS,486683,167034,-0.75544,51.39573,BCT,MKD,OTH,,,,006,2005-03-22T00:00:00,2013-01-31T12:21:00,5,new,active
0380G517G896,bkndjma,,,Goughs Lane,,,,Goughs Lane,,Holly Spring Lane,,,,adj,,E,E0057151,Bracknell,,,Bracknell,EN,Bracknell,EN,false,UKOS,487517,169896,-0.74275,51.42133,BCT,CUS,OTH,,,,006,2010-04-23T00:00:00,2010-08-19T16:31:00,1,new,active
0380G517G881,bknatpw,,,Goughs Lane,,,,Garth School - Rye Close - Kenilworth Avenue,,Holly Spring Lane,,,,opp,,W,E0057151,Bracknell,,,Bracknell,EN,Bracknell,EN,false,UKOS,487517,169881,-0.74275,51.4212,BCT,MKD,OTH,,,,006,2005-03-22T00:00:00,2010-04-23T12:04:00,1,new,active
0380B363M793,bknagaw,,,Crowthorne Station,,,,Ravenswood Avenue,,Dukes Ride,,,,opp,,E,E0052955,Crowthorne,,,Crowthorne,EN,Crowthorne,EN,false,UKOS,482363,163793,-0.81827,51.36724,BCT,CUS,OTH,,,,006,2004-11-01T00:00:00,2014-04-30T14:34:00,4,new,active
0380B367M784,bknagda,,,Crowthorne Station,,,,Ravenswood Avenue,,Dukes Ride,,,,adj,,W,E0052955,Crowthorne,,,Crowthorne,EN,Crowthorne,EN,false,UKOS,482367,163784,-0.81821,51.36716,BCT,CUS,OTH,,,,006,2004-11-01T00:00:00,2014-04-30T14:34:00,4,new,active
0380D529G527,bknajat,,,Springfield Road,,,,opposite Springfield Road,,Beehive Road,,,,Opp,,S,E0035425,Popeswood,Bracknell,,Bracknell,EN,Popeswood,EN,false,UKOS,484529,169527,-0.7858,51.41847,BCT,MKD,OTH,,,,006,2004-11-01T00:00:00,2009-11-12T15:08:00,2,new,active
0380F964F017,bkndgmj,,,Bull Lane,,,,Sandy Lane,,Shepherds Lane,,,,opp 122,,E,N0060776,Lawrence Hill,Bracknell,,Bracknell,EN,,,false,UKOS,486964,170017,-0.75067,51.4225,BCT,MKD,OTH,,,,006,2007-11-21T00:00:00,2013-05-29T12:09:00,2,new,active
0380F948F013,bkndgmp,,,Bull Lane,,,,Sandy Lane,,Shepherds Lane,,,,adj 122,,W,N0060776,Lawrence Hill,Bracknell,,Bracknell,EN,,,false,UKOS,486948,170013,-0.7509,51.42247,BCT,MKD,OTH,,,,006,2007-11-21T00:00:00,2013-05-29T12:09:00,2,new,active
0380D042K911,bkndjpw,,,Easthampstead Mobile Home Park,,,,Nine Mile Ride,,Old Wokingham Road,,,,opp,,N,N0071724,Pinewood,,,,,,,false,UKOS,484044,165911,-0.79363,51.38603,BCT,CUS,OTH,,,,006,2011-06-28T00:00:00,2013-05-29T12:22:00,2,new,active
0380D069K862,bkndjta,,,Easthampstead Mobile Home Park,,,,Nine Mile Ride,,Old Wokingham Road,,,,adj,,S,N0071724,Pinewood,,,,,,,false,UKOS,484069,165862,-0.79328,51.38559,BCT,CUS,OTH,,,,006,2011-06-28T00:00:00,2011-06-28T12:00:00,1,new,active
0380D315K083,bkndmgp,,,Goodwood Crescent,,,,,,Buckler Ride,,,,Adjacent,,S,E0052955,Crowthorne,,,,,,,false,UKOS,484314,165083,-0.78994,51.37855,BCT,MKD,OTH,,,,006,2024-10-18T00:00:00,2024-10-18T14:10:26,59,new,active
0380D342K131,bkndmgt,,,Goodwood Crescent,,,,,,Buckler Ride,,,,Opposite,,N,E0052955,Crowthorne,,,,,,,false,UKOS,484342,165131,-0.78953,51.37898,BCT,MKD,OTH,,,,006,2024-10-18T00:00:00,2024-10-18T14:11:32,55,new,active
0380D375F984,,,,Rose Hill,,,,,,,,,,opp,,W,E0052953,Binfield,,,,,,,false,UKOS,484373,170985,-0.7877,51.4316,BCT,MKD,OTH,,,,006,2022-06-17T00:00:00,2022-06-17T11:48:55,50,new,active
0380D494G678,bknajag,,,Travelodge,,,,St Marks Road,,St Marks Road,,,,opp,,N,E0035425,Popeswood,Bracknell,,Bracknell,EN,Popeswood,EN,false,UKOS,484494,169678,-0.78627,51.41983,BCT,MKD,OTH,,,,006,2004-11-01T00:00:00,2012-11-15T16:11:00,6,new,active
0380D455G564,bknagwm,,,Travelodge,,,,Adjacent Beehive Road,,London Road,,,,nr,,SW,E0035425,Popeswood,Bracknell,,Bracknell,EN,Popeswood,EN,false,UKOS,484455,169564,-0.78685,51.41881,BCT,MKD,OTH,,,,006,2004-11-01T00:00:00,2012-11-15T16:11:00,5,new,active
0380D489K537,bkndmgw,,,Ireland Road,,,,,,,,,,Adjacent,,S,N0060054,Transport Research Laboratory,Crowthorne,,,,,,false,UKOS,484489,165537,-0.78732,51.3826,BCT,MKD,OTH,,,,006,2024-10-18T00:00:00,2024-10-20T10:40:55,50,new,active
0380D486K558,bkndmja,,,Donald Campbell Way,,,,,,,,,,Adjacent,,N,N0060054,Transport Research Laboratory,Crowthorne,,,,,,false,UKOS,484486,165558,-0.78736,51.38279,BCT,MKD,OTH,,,,006,2024-10-20T00:00:00,2024-10-20T10:41:16,51,new,active
0380D685H215,bkndjpm,,,Woodpecker Place,,,,Woodpecker Place,,Sparrowhawk Way,,,,opp,,N,N0078236,Jennetts Park,Bracknell,,,,,,false,UKOS,484685,168215,-0.78387,51.40665,BCT,MKD,OTH,,,,006,2011-06-28T00:00:00,2011-06-28T12:00:00,1,new,active
0380D718H197,bkndjpt,,,Woodpecker Place,,,,Woodpecker Place,,Sparrowhawk Way,,,,adj,,S,N0078236,Jennetts Park,Bracknell,,,,,,false,UKOS,484718,168197,-0.7834,51.40648,BCT,MKD,OTH,,,,006,2011-06-28T00:00:00,2011-06-28T12:00:00,1,new,active
0380D689G204,bkndgmt,,,Beehive Road,,,,Hewlett Packard,,Cain Road,,,,E-bound,,E,N0060225,John Nike Leisure Centre,Bracknell,,Bracknell,EN,,,false,UKOS,484689,169204,-0.78358,51.41554,BCT,MKD,OTH,,,,006,2007-12-03T00:00:00,2014-03-06T10:13:00,4,new,active
0380D721G172,bkndgmw,,,Beehive Road,,,,Hewlett Packard,,Cain Road,,,,W-bound,,W,N0060225,John Nike Leisure Centre,Bracknell,,Bracknell,EN,,,false,UKOS,484721,169172,-0.78312,51.41525,BCT,MKD,OTH,,,,006,2007-12-03T00:00:00,2014-03-06T10:14:00,4,new,active
0380D735H011,bkndjpg,,,Primary School,,,,Primary School,,Sparrowhawk Way,,,,adj,,N,N0078236,Jennetts Park,Bracknell,,,,,,false,UKOS,484735,168011,-0.7832,51.40481,BCT,MKD,OTH,,,,006,2011-06-28T00:00:00,2023-02-21T16:20:27,36,delete,inactive
0380D749I999,bkndjpj,,,Primary School,,,,Primary School,,Sparrowhawk Way,,,,opp,,S,N0078236,Jennetts Park,Bracknell,,,,,,false,UKOS,484749,167999,-0.783,51.4047,BCT,MKD,OTH,,,,006,2011-06-28T00:00:00,2023-02-21T16:20:47,36,delete,inactive
0380D785H400,bkndgpj,,,Fieldfare Drive,,,,,,Osprey Avenue,,,,opp,,NW,N0078236,Jennetts Park,Bracknell,,Bracknell,EN,,,false,UKOS,484785,168400,-0.78239,51.4083,BCT,MKD,OTH,,,,006,2007-12-03T00:00:00,2010-08-26T10:43:00,3,new,active
0380D799H397,bkndgpg,,,Fieldfare Drive,,,,,,Osprey Avenue,,,,adj,,S,N0078236,Jennetts Park,Bracknell,,Bracknell,EN,,,false,UKOS,484799,168397,-0.78219,51.40827,BCT,MKD,OTH,,,,006,2007-12-03T00:00:00,2013-01-31T12:14:00,4,new,active
0380D737H554,bkndgmd,,,Peacock Farm,,,,Peacock Farm,,Peacock Lane,,,,adj,,E,N0078236,Jennetts Park,Bracknell,,Bracknell,EN,,,false,UKOS,484855,168583,-0.78134,51.40993,BCT,MKD,OTH,,,,006,2007-10-02T00:00:00,2010-08-26T10:38:00,1,new,active
0380D816H562,bkndjtm,,,Peacock Farm,,,,,,Peacock Lane,,,,opp,,W,N0078236,Jennetts Park,Bracknell,,,,,,false,UKOS,484816,168562,-0.7819,51.40975,BCT,MKD,OTH,,,,006,2014-05-01T00:00:00,2014-05-01T12:16:00,0,new,active
0380D903G099,bkndgpd,,,Cain Road - Dell,,,,Fujitsu Siemens,,Cain Road,,,,W-bound,,W,N0060225,John Nike Leisure Centre,Bracknell,,Bracknell,EN,,,false,UKOS,484903,169099,-0.78052,51.41456,BCT,MKD,OTH,,,,006,2007-12-03T00:00:00,2012-11-15T16:16:00,3,new,active
0380E045G124,bkndgpa,,,Cain Road - Fujitsu,,,,Fujitsu Siemens,,Cain Road,,,,E-bound,,E,N0060225,John Nike Leisure Centre,Bracknell,,Bracknell,EN,,,false,UKOS,485045,169124,-0.77848,51.41477,BCT,MKD,OTH,,,,006,2007-12-03T00:00:00,2012-11-15T16:15:00,4,new,active
0380E070F048,bkndgwt,,,Lammas Mead,,,,Lammas Mead,,Temple Way,,,,opp,,N,N0060777,Temple Park,Binfield,,Bracknell,EN,,,false,UKOS,485070,170048,-0.7779,51.42307,BCT,MKD,OTH,,,,006,2009-08-03T00:00:00,2009-08-03T15:46:00,0,new,active
0380E077F044,bkndjad,,,Lammas Mead,,,,Lammas Mead,,Temple Way,,,,adj,,S,N0060777,Temple Park,Binfield,,Bracknell,EN,,,false,UKOS,485077,170044,-0.7778,51.42303,BCT,MKD,OTH,,,,006,2009-08-03T00:00:00,2009-08-03T15:48:00,0,new,active
0380E246F343,,,,Blue Mountain,,,,adjacent St Georges Park,,,,,,adj,,N,N0060777,Temple Park,Binfield,,,,,,false,UKOS,485246,170343,-0.77529,51.42569,BCT,MKD,OTH,,,,006,2022-01-04T00:00:00,2022-11-18T16:12:51,88,new,active
0380E266F354,,,,Blue Mountain,,,,opposite St Georges Park,,,,,,opp,,S,N0060777,Temple Park,Binfield,,,,,,false,UKOS,485266,170354,-0.775,51.42579,BCT,MKD,OTH,,,,006,2022-01-04T00:00:00,2022-11-18T16:13:11,76,new,active
0380E453F598,bkndjag,,,Boltons Lane,,,,Boltons Lane,,Temple Way,,,,opp,,NE,N0060777,Temple Park,Binfield,,Bracknell,EN,,,false,UKOS,485453,170598,-0.77226,51.42796,BCT,MKD,OTH,,,,006,2009-08-03T00:00:00,2018-11-28T15:16:00,1,new,active
0380E473F605,bkndjaj,,,Boltons Lane,,,,Boltons Lane,,Temple Way,,,,adj,,SW,N0060777,Temple Park,Binfield,,Bracknell,EN,,,false,UKOS,485473,170605,-0.77197,51.42802,BCT,MKD,OTH,,,,006,2009-08-03T00:00:00,2018-11-28T15:17:00,1,new,active
0380E626I300,,,,Halewood,,,,,,,,,,adj,,SW,N0060050,Great Hollands,Bracknell,,,,,,false,UKOS,485625,167300,-0.77058,51.39828,BCT,CUS,OTH,,,,006,2023-09-13T00:00:00,2023-09-15T16:27:34,43,new,active
0380E627I308,,,,Halewood,,,,,,,,,,opp,,NE,N0060050,Great Hollands,Bracknell,,,,,,false,UKOS,485627,167309,-0.77055,51.39836,BCT,CUS,OTH,,,,006,2023-09-13T00:00:00,2023-09-15T16:28:16,50,new,active
0380E657F011,bkndjwt,,,Moordale Avenue,,,,,,Priestwood Avenue,,,,N-bound,,N,E0035426,Priestwood,Bracknell,,,,,,false,UKOS,485657,170011,-0.76946,51.42265,BCT,MKD,OTH,,,,006,2016-05-13T00:00:00,2016-05-13T17:12:00,0,new,active
0380F058G639,bknapad,,,Stoney Road,,,,Stoney Road,,Priestwood Avenue,,,,o/s 6,,SE,E0035426,Priestwood,Bracknell,,Bracknell,EN,Priestwood,EN,false,UKOS,486058,169639,-0.76379,51.41924,BCT,MKD,OTH,,,,006,2004-11-01T00:00:00,2011-01-28T13:57:00,4,new,active
0380F036G643,bkndjdt,,,Stoney Road,,,,Stoney Road,,Priestwood Avenue,,,,o/s 9,,NW,E0035426,Priestwood,Bracknell,,Bracknell,EN,Priestwood,EN,false,UKOS,486036,169643,-0.7641,51.41928,BCT,MKD,OTH,,,,006,2009-11-17T00:00:00,2011-01-28T13:57:00,1,new,active
0380F332F672,bkndmaj,,,Woodhurst,,,,,,Harvest Ride,,,,adj,,E,E0052953,Binfield,,,,,,,false,UKOS,486332,170672,-0.7596,51.42849,BCT,MKD,OTH,,,,006,2017-07-11T00:00:00,2017-07-11T15:00:00,0,new,active
0380F407F712,bkndmam,,,Woodhurst,,,,,,Harvest Ride,,,,opp,,W,E0052953,Binfield,,,,,,,false,UKOS,486407,170712,-0.75851,51.42884,BCT,MKD,OTH,,,,006,2017-07-11T00:00:00,2017-07-11T15:05:00,0,new,active
0380F447H044,bkndmdg,,,Mays Croft,,,,,,Crowthorne Road,,,,adj,,N,N0060051,Wildridings,Bracknell,,,,,,false,UKOS,486447,168044,-0.75858,51.40485,BCT,MKD,OTH,,,,006,2019-01-17T00:00:00,2019-01-18T12:29:00,1,new,active
0380F437H103,bkndmdj,,,Mays Croft,,,,,,Crowthorne Road,,,,opp,,S,N0060051,Wildridings,Bracknell,,,,,,false,UKOS,486437,168103,-0.75871,51.40538,BCT,MKD,OTH,,,,006,2019-01-17T00:00:00,2019-01-18T12:29:00,1,new,active
0380F674I033,bknapwa,,,Ring Mead Link,,,,South Hill Road - Evedon - South Hill Bus,,Ring Mead,,,,N-bound,,N,N0060046,South Hill Park,Bracknell,,Bracknell,EN,Great Hollands,EN,false,UKOS,486674,167033,-0.75557,51.39572,BCT,MKD,OTH,,,,006,2005-03-22T00:00:00,2012-11-15T15:59:00,4,new,active
0380F847G384,bkndjwd,,,High Street,,,,,,High Street,,,,W-bound,,W,E0057151,Bracknell,,,,,,,false,UKOS,486847,169384,-0.75251,51.41683,BCT,MKD,OTH,,,,006,2014-09-18T00:00:00,2015-01-13T14:55:00,1,new,active
0380G219C400,bkndgjt,,,Syngenta Layby,,,,Jealotts Hill Research Station,,Syngenta Site Prive Road,,,,E-bound,,E,E0035416,Jealotts Hill,,,,,,,false,UKOS,487219,173400,-0.74617,51.45287,BCT,CUS,OTH,,,,006,2006-10-16T00:00:00,2012-02-13T16:53:00,2,new,active
0380G217C394,bkndgjw,,,Syngenta Layby,,,,Jealotts Hill Research Station,,Syngenta Site Prive Road,,,,W-bound,,W,E0035416,Jealotts Hill,,,,,,,false,UKOS,487217,173394,-0.7462,51.45282,BCT,CUS,OTH,,,,006,2006-10-16T00:00:00,2012-02-13T16:52:00,2,new,active
0380G235G473,bkndjwg,,,Police Station,,,,,,The Ring,,,,Stop H,,N,E0057151,Bracknell,,,Bracknell,EN,Bracknell,EN,false,UKOS,487235,169473,-0.74691,51.41757,BCT,MKD,OTH,,,,006,2014-10-14T00:00:00,2014-10-14T17:15:00,0,new,active
0380G423H468,bkndgwg,,,Hastings View,,,,Hastings View,,Austin Way,,,,opp,,NE,N0060049,The Parks,Bracknell,,Bracknell,EN,The Parks,EN,false,UKOS,487423,168468,-0.74445,51.40851,BCT,MKD,OTH,,,,006,2009-03-31T00:00:00,2009-03-31T11:14:00,1,new,active
0380G415G826,bknatmj,,,Sandy Lane,,,,Garth School - Shepherds Hill - Lakeside,,Warfield Road,,,,adj,,N,E0057151,Bracknell,,,Bracknell,EN,Bracknell,EN,false,UKOS,487415,169826,-0.74423,51.42072,BCT,MKD,OTH,,,,006,2005-03-22T00:00:00,2011-06-09T18:17:00,2,new,active
0380G442G763,bkndjtp,,,Sandy Lane,,,,Wick Hill House,,Warfield Road,,,,opp,,S,E0057151,Bracknell,,,,,,,false,UKOS,487442,169763,-0.74386,51.42015,BCT,MKD,OTH,,,,006,2014-05-15T00:00:00,2014-05-15T10:51:00,0,new,active
0380G520H667,bkndgwm,,,Larges Bridge Drive,,,,Thatched Cottage,,Broad Lane,,,,opp,,W,N0060049,The Parks,Bracknell,,Bracknell,EN,The Parks,EN,false,UKOS,487520,168667,-0.74301,51.41028,BCT,MKD,OTH,,,,006,2009-03-31T00:00:00,2009-03-31T11:15:00,1,new,active
0380G613H528,bkndgwj,,,Ramslade House,,,,Ramslade House,,Austin Way,,,,opp,,E,N0060049,The Parks,Bracknell,,Bracknell,EN,The Parks,EN,false,UKOS,487613,168528,-0.74171,51.40902,BCT,MKD,OTH,,,,006,2009-03-31T00:00:00,2009-03-31T11:14:00,1,new,active
0380G695G860,bkndjmd,,,Spring Meadow,,,,Flintgrove,,Holly Spring Lane,,,,opp,,E,E0035405,Bullbrook,Bracknell,,Bracknell,EN,Bullbrook,EN,false,UKOS,487695,169860,-0.7402,51.42098,BCT,MKD,OTH,,,,006,2010-04-23T00:00:00,2010-04-23T12:53:00,0,new,active
0380G728G844,bknatwt,,,Spring Meadow,,,,Flintgrove,,Holly Spring Lane,,,,adj,,W,E0035405,Bullbrook,Bracknell,,Bracknell,EN,Bullbrook,EN,false,UKOS,487728,169844,-0.73973,51.42083,BCT,MKD,OTH,,,,006,2004-11-01T00:00:00,2010-04-23T12:55:00,2,new,active
0380G795I909,bknawad,,,Woolhampton Way,,,,Nightingale Crescent - Woolhampton Way,,Harmans Water Road,,,,opp,,E,N0060045,Harmans Water,Bracknell,,Bracknell,EN,Harmanswater,EN,false,UKOS,487795,167909,-0.73924,51.40343,BCT,MKD,OTH,,,,006,2004-11-01T00:00:00,2011-06-15T17:44:00,5,new,active
0380G828E127,bkndmdt,,,Newhurst Gardens,,,,,,Warfield Street,,,,adj,,E,N0060774,Whitegrove,Bracknell,,,,,,false,UKOS,487828,171127,-0.73797,51.43235,BCT,MKD,OTH,,,,006,2020-01-30T00:00:00,2020-03-05T16:32:00,1,new,active
0380G917E079,bkndmdp,,,Newhurst Gardens,,,,,,Warfield Street,,,,opp,,W,N0060774,Whitegrove,Bracknell,,,,,,false,UKOS,487917,171079,-0.7367,51.4319,BCT,MKD,OTH,,,,006,2020-01-30T00:00:00,2020-03-05T16:25:00,2,new,active
0380G929H812,bkndjwp,,,Sycamore Rise,,,,,,Broad Lane,,,,NE-bound,,NE,E0057151,Bracknell,,,Bracknell,EN,,,false,UKOS,487929,168812,-0.73709,51.41152,BCT,MKD,OTH,,,,006,2015-06-22T00:00:00,2015-06-22T15:44:00,0,new,active
0380H036G618,bkndjda,,,Cumberland Drive,,,,Bullbrook Drive,,Bay Road,,,,adj,,N,E0035405,Bullbrook,Bracknell,,,,,,false,UKOS,488041,169609,-0.73529,51.41867,BCT,MKD,OTH,,,,006,2009-08-03T00:00:00,2009-11-17T11:24:00,1,new,active
0380H056G574,bkndjdp,,,Cumberland Drive,,,,Bullbrook Drive,,Bay Road,,,,opp,,S,E0035405,Bullbrook,Bracknell,,,,,,false,UKOS,488056,169574,-0.73508,51.41835,BCT,MKD,OTH,,,,006,2009-11-17T00:00:00,2009-11-17T13:44:00,0,new,active
0380H057G485,bknawja,,,Deepfield Road,,,,Bullbrook Shops - Deepfield Road,,Bay Road,,,,adj,,N,E0035405,Bullbrook,Bracknell,,Bracknell,EN,Bullbrook,EN,false,UKOS,488057,169485,-0.73509,51.41755,BCT,MKD,OTH,,,,006,2004-11-01T00:00:00,2012-10-23T15:27:00,2,new,active
0380H817G427,bkndajt,,,Lily Hill House,,,,Bullbrook - Lily Hill Park,,Lily Hill Road,,,,adj,,W,E0035405,Bullbrook,Bracknell,,Bracknell,EN,Bullbrook,EN,false,UKOS,488817,169427,-0.72418,51.41691,BCT,MKD,OTH,,,,006,2004-11-01T00:00:00,2010-06-17T11:11:00,4,new,active
0380H837H480,bkndajw,,,Martins Heron Station,,,,Tesco store,,Station Approach,,,,Entrance,,N,N0060044,Martins Heron,Bracknell,,Bracknell,EN,Martins Heron,EN,false,UKOS,488837,168480,-0.72412,51.4084,BCT,CUS,OTH,,,,006,2004-11-01T00:00:00,2014-05-15T10:37:00,3,new,active
0380I022G738,,,,Saxon Drive,,,,,,,,,,adj,,SE,N0071725,Warfield Park,,,,,,,false,UKOS,489022,169739,-0.72115,51.41968,BCT,CUS,OTH,,,,006,2023-09-12T00:00:00,2023-09-15T16:27:59,61,new,active
0380I022G745,,,,Saxon Drive,,,,,,,,,,opp,,SE,N0071725,Warfield Park,,,,,,,false,UKOS,489022,169745,-0.72115,51.41974,BCT,CUS,OTH,,,,006,2023-09-12T00:00:00,2023-09-12T17:25:16,42,new,active
0380I149G142,,,,Sherwood Close,,,,,,,,,,adj,,SE,N0060044,Martins Heron,Bracknell,,,,,,false,UKOS,489148,169143,-0.71949,51.41431,BCT,CUS,OTH,,,,006,2023-09-12T00:00:00,2023-09-12T16:23:19,45,new,active
0380I489E049,bkndjwm,,,Carnation Drive,,,,,,Forest Road,,,,opp,,E,E0035433,Winkfield Row,,,,,,,false,UKOS,489489,171049,-0.71411,51.43139,BCT,MKD,OTH,,,,006,2014-11-24T00:00:00,2014-11-24T09:52:00,0,new,active
0380I490E039,bkndjwj,,,Carnation Drive,,,,,,Forest Road,,,,adj,,W,E0035433,Winkfield Row,,,,,,,false,UKOS,489490,171039,-0.71409,51.4313,BCT,MKD,OTH,,,,006,2014-11-24T00:00:00,2014-11-24T09:51:00,0,new,active
0380I586F015,,,,Warfield Park,,,,Whitegates,,Warfield Park,,,,in,,W,E0035407,Chavey Down,,,,,,,false,UKOS,489579,170019,-0.71307,51.42211,BCT,MKD,OTH,,,,006,2022-01-14T00:00:00,2022-01-14T16:32:58,64,new,active
0380K779E937,bkndgaj,,,Plaistow Green,,,,Pigeonhouse Lane,,North Street,,,,nr,,N,E0035409,Cranbourne,,,Cranbourne,EN,Cranbourne,EN,false,UKOS,491779,171937,-0.68094,51.439,BCT,MKD,OTH,,,,006,2004-11-01T00:00:00,2009-11-17T13:34:00,2,new,active
0380K790E947,bkndjgp,,,Plaistow Green,,,,Pigeonhouse Lane,,North Street,,,,adj,,S,E0035409,Cranbourne,,,Cranbourne,EN,Cranbourne,EN,false,UKOS,491790,171947,-0.68078,51.43909,BCT,MKD,OTH,,,,006,2009-11-17T00:00:00,2009-11-17T14:25:00,1,new,active
0380K804F379,bkndgam,,,The Rough,,,,The Rough,,New Road,,,,o/s 53,,SW,N0060780,North Ascot,,,North Ascot,EN,North Ascot,EN,false,UKOS,491804,170379,-0.68099,51.42499,BCT,MKD,OTH,,,,006,2004-11-01T00:00:00,2011-01-28T13:57:00,8,new,active
0380K844F497,bkndjgd,,,The Rough,,,,The Rough,,New Road,,,,o/s 86,,N,N0060780,North Ascot,,,North Ascot,EN,North Ascot,EN,false,UKOS,491846,170497,-0.68035,51.42605,BCT,MKD,OTH,,,,006,2009-11-17T00:00:00,2019-01-09T16:28:00,3,new,active
0380K979F960,bkndjgj,,,Cranbourne Corner,,,,Winkfield Road,,Forest Road,,,,adj,,NE,N0060781,Brookside,,,North Ascot,EN,North Ascot,EN,false,UKOS,491979,170960,-0.67832,51.43019,BCT,MKD,OTH,,,,006,2009-11-17T00:00:00,2009-11-17T14:16:00,0,new,active
0380K996F958,bkndgda,,,Cranbourne Corner,,,,Hatchet Lane,,Forest Road,,,,opp,,SW,N0060781,Brookside,,,North Ascot,EN,North Ascot,EN,false,UKOS,491996,170958,-0.67808,51.43017,BCT,MKD,OTH,,,,006,2004-11-01T00:00:00,2009-11-17T13:15:00,3,new,active
0380BRACKNL0,,,,Bracknell Rail Station,,,,,,,,,,Entrance,,,E0057151,Bracknell,,,,,,,false,UKOS,486877,168965,-0.75218,51.41306,RSE,,,,,,006,2021-10-21T00:00:00,2021-10-21T11:38:45,0,new,active
0380BRACKNL1,,,,Bracknell Rail Station,,,,,,,,,,Entrance,,,E0057151,Bracknell,,,,,,,false,UKOS,486900,168972,-0.75185,51.41312,RSE,,,,,,006,1970-01-01T00:00:00,2020-07-28T10:31:02,0,new,active
0380CRWTHRN0,,,,Crowthorne Rail Station,,,,,,,,,,Entrance,,,E0052955,Crowthorne,,,,,,,false,UKOS,482298,163737,-0.81922,51.36674,RSE,,,,,,006,2021-10-21T00:00:00,2021-10-21T11:38:45,0,new,active
0380CRWTHRN1,,,,Crowthorne Rail Station,,,,,,,,,,Entrance,,,E0052955,Crowthorne,,,,,,,false,UKOS,482297,163722,-0.81923,51.36661,RSE,,,,,,006,1970-01-01T00:00:00,2020-07-28T10:31:02,0,new,active
0380MHERON0,,,,Martins Heron Rail Station,,,,,,,,,,Entrance,,,N0060044,Martins Heron,Bracknell,,,,,,false,UKOS,488812,168366,-0.72451,51.40738,RSE,,,,,,006,2021-10-21T00:00:00,2021-10-21T11:38:45,0,new,active
0380MHERON1,,,,Martins Heron Rail Station,,,,,,,,,,Entrance,,,N0060044,Martins Heron,Bracknell,,,,,,false,UKOS,488826,168376,-0.72431,51.40746,RSE,,,,,,006,1970-01-01T00:00:00,2020-07-28T10:31:02,0,new,active
0380SNDHRST0,,,,Sandhurst Rail Station,,,,,,,,,,Entrance,,,E0052956,Sandhurst,,,,,,,false,UKOS,483400,161519,-0.80391,51.34664,RSE,,,,,,006,2021-10-21T00:00:00,2021-10-21T11:38:45,0,new,active
0380SNDHRST1,,,,Sandhurst Rail Station,,,,,,,,,,Entrance,,,E0052956,Sandhurst,,,,,,,false,UKOS,483408,161501,-0.8038,51.34648,RSE,,,,,,006,1970-01-01T00:00:00,2020-07-28T10:31:02,0,new,active
0380F673F101,bkndjmj,,,Prince of Wales,,,,Horsniele Lane,,Shepherds Lane,,,,o/s,,W,E0057151,Bracknell,,,,,,,false,UKOS,486673,170101,-0.75483,51.4233,BCT,CUS,OTH,,,,006,2010-05-06T00:00:00,2010-05-06T10:00:00,0,new,active
0380F650H008,,,,Rectory Row,,,,Adjacent Rectory Row,,Rectory Lane,,,,taxi rank,,,E0035411,Easthampstead,Bracknell,,Bracknell,EN,Easthampstead,EN,false,UKOS,486650,168008,-0.75568,51.40449,TXR,,,,,,006,2004-11-01T00:00:00,2013-09-06T18:01:00,2,new,active
0380F765G378,,,,Skimpedhill Lane,,,,Adjacent Health Centre,,Skimpedhill Lane,,,,taxi rank,,,E0057151,Bracknell,,,Bracknell,EN,Bracknell,EN,false,UKOS,486776,169388,-0.75353,51.41688,TXR,,,,,,006,2004-11-01T00:00:00,2013-10-10T12:31:00,2,new,active
0380F765G380,bknapwp,,,Skimped Hill Lane - Health Centre,,,,Fitzwilliam House - Health Centre,,Skimped Hill Lane,,,,NE-bound,,NE,E0057151,Bracknell,,,Bracknell,EN,Bracknell,EN,false,UKOS,486765,169380,-0.75369,51.41681,BCT,MKD,OTH,,,,006,2004-11-01T00:00:00,2018-10-11T12:59:00,5,new,active
0380E108N191,,,,Community Centre,,,,Adjacent Community Centre,,Yeovil Road,,,,taxi rank,,,E0035424,Owlsmoor,Sandhurst,,Camberley,EN,Owlsmoor,EN,false,UKOS,485108,162191,-0.77923,51.35243,TXR,,,,,,006,2004-11-01T00:00:00,2013-09-06T17:58:00,1,new,active
0380F903H983,,,,Bracknell Rail Station,,,,Station forecourt opposite Fruit and Firkin,,Market Street,,,,taxi rank,,,E0057151,Bracknell,,,Bracknell,EN,Bracknell,EN,false,UKOS,486903,168983,-0.7518,51.41322,TXR,,,,,,006,2004-11-01T00:00:00,2013-09-06T18:04:00,3,new,active
0380F389I123,bkndjdj,,,Babbage Way,,,,Babbage Way,,South Hill Road,,,,opp,,NW,E0035411,Easthampstead,Bracknell,,Bracknell,EN,,,false,UKOS,486389,167123,-0.75964,51.39658,BCT,MKD,OTH,,,,006,2009-08-03T00:00:00,2009-08-03T17:12:00,0,new,active
0380F458I115,bkndjdg,,,Babbage Way,,,,Babbage Way,,South Hill Road,,,,adj,,SE,E0035411,Easthampstead,Bracknell,,Bracknell,EN,,,false,UKOS,486458,167115,-0.75865,51.39649,BCT,MKD,OTH,,,,006,2009-08-03T00:00:00,2009-08-03T17:12:00,1,new,active
0380F915J589,,,,Shopping Centre,,,,Adjacent Post Office,,Birch Hill Road,,,,taxi rank,,,N0060047,Birch Hill,Bracknell,,Bracknell,EN,Birch Hill,EN,false,UKOS,486915,166589,-0.75221,51.39169,TXR,,,,,,006,2004-11-01T00:00:00,2013-09-06T18:05:00,2,new,active
0380F958G043,,,,Bus Station,,,,Adjacent Bus Station opposite Fruit and Firkin,,Market Street,,,,taxi rank,,,E0057151,Bracknell,,,Bracknell,EN,Bracknell,EN,false,UKOS,486958,169043,-0.751,51.41375,TXR,,,,,,006,2004-11-01T00:00:00,2013-10-10T11:59:00,4,new,active
0380F405G680,bknapjg,,,Boyd Court,,,,Fairfax turn,,Downshire Way,,,,opp,,N,E0035426,Priestwood,Bracknell,,Bracknell,EN,Priestwood,EN,false,UKOS,486405,169680,-0.75879,51.41956,BCT,MKD,OTH,,,,006,2004-11-01T00:00:00,2011-06-09T18:23:00,2,new,active
0380F856G395,,,,High Street,,,,Adjacent Red Lion opposite Ringside,,High Street,,,,taxi rank,,,E0057151,Bracknell,,,Bracknell,EN,Bracknell,EN,false,UKOS,486856,169395,-0.75238,51.41693,TXR,,,,,,006,2004-11-01T00:00:00,2013-09-06T18:03:00,2,new,active
0380E402G842,bknajwp,,,Longmoors,,,,Longmoors,,Moordale Avenue,,,,adj,,NE,E0035426,Priestwood,Bracknell,,Bracknell,EN,Priestwood,EN,false,UKOS,485402,169842,-0.77317,51.42117,BCT,MKD,OTH,,,,006,2004-11-01T00:00:00,2009-11-17T11:49:00,3,new,active
0380E393P306,bknajwm,,,The Meadows,,,,Shopping Centre,,Marshall Road,,,,Entrance,,SE,E0052956,Sandhurst,,,Sandhurst,EN,Sandhurst,EN,false,UKOS,485393,160306,-0.77559,51.33544,BCT,MKD,OTH,,,,006,2004-11-01T00:00:00,2011-06-09T17:57:00,2,new,active
0380E391P305,,,,The Meadows,,,,Adjacent The Meadows,,Marshall Road,,,,taxi rank,,,E0052956,Sandhurst,,,Sandhurst,EN,Sandhurst,EN,false,UKOS,485381,160319,-0.77576,51.33556,TXR,,,,,,006,2004-11-01T00:00:00,2013-10-10T12:35:00,2,new,active
0380H081G677,bknawjg,,,Hill Copse View,,,,Bullbrook - Parkland Drive - Clayton Green,,Bullbrook Drive,,,,adj,,E,E0035405,Bullbrook,Bracknell,,Bracknell,EN,Bullbrook,EN,false,UKOS,488081,169677,-0.73469,51.41927,BCT,MKD,OTH,,,,006,2004-11-01T00:00:00,2012-02-07T11:21:00,1,new,active
0380E469G318,bkndmad,,,Vodafone Waterside,,,,Adjacent to Waterside House,,Longshot Lane,,,,adj,,E,E0057151,Bracknell,,,,,,,false,UKOS,485469,169318,-0.77233,51.41645,BCT,MKD,OTH,,,,006,2016-06-06T00:00:00,2018-10-11T13:00:00,1,new,active
0380H030I078,,,,Shopping Parade Taxi Rank,,,,Adjacent Tut 'N' Shive,,Opladen Way,,,,adj,,,N0060772,Crown Wood,Bracknell,,Bracknell,EN,Crown Wood,EN,false,UKOS,488030,167078,-0.73607,51.39592,TXR,,,,,,006,2004-11-01T00:00:00,2013-01-31T11:49:00,2,new,active
0380G350I487,bkndgpw,,,Bracknell Sports Centre Roundabout,,,,Leisure Centre,,A322,,,,S-bound,,S,E0035411,Easthampstead,Bracknell,,Bracknell,EN,,,false,UKOS,487350,167487,-0.74574,51.3997,BCT,MKD,OTH,,,,006,2008-05-27T00:00:00,2019-01-15T17:02:00,2,new,active
0380G606F750,bkndjgw,,,Priory Lane,,,,Priory Lane,,Harvest Ride,,,,opp,,E,N0060774,Whitegrove,Bracknell,,,,,,false,UKOS,487606,170750,-0.74126,51.42899,BCT,MKD,OTH,,,,006,2010-04-23T00:00:00,2010-04-23T12:03:00,1,new,active
0380G492F749,bkndjgt,,,Priory Lane,,,,Priory Lane,,Harvest Ride,,,,adj,,W,N0060774,Whitegrove,Bracknell,,,,,,false,UKOS,487492,170749,-0.7429,51.429,BCT,MKD,OTH,,,,006,2010-04-23T00:00:00,2010-04-23T12:00:00,0,new,active
0380G683J741,bkndjmg,,,Sainsburys Car Park,,,,Sainsburys Store,,Sainsburys Car Park,,,,o/s,,SW,N0060047,Birch Hill,Bracknell,,,,,,false,UKOS,487683,166741,-0.74114,51.39294,BCT,CUS,OTH,,,,006,2010-04-23T00:00:00,2010-04-23T12:58:00,0,new,active
0380G493J835,,,,Hilton Hotel,,,,opposite Hilton Hotel,,Ringmead,,,,taxi rank,,,N0060046,South Hill Park,Bracknell,,Bracknell,EN,South Hill Park,EN,false,UKOS,487493,166835,-0.74385,51.39382,TXR,,,,,,006,2004-11-01T00:00:00,2013-09-06T18:08:00,1,new,active
0380F110H331,bkndmdm,,,Deepdale - inbound,,,,Wildridings Shops,,Deepdale,,,,on,,N,N0060051,Wildridings,Bracknell,,,,,,false,UKOS,486110,168331,-0.76336,51.40748,BCT,MKD,OTH,,,,006,2019-11-07T00:00:00,2020-10-02T13:03:47,24,new,active
0380E958F388,bkndmaw,,,Framptons Bridge,,,,,,Binfield Road,,,,SE-bound,,SE,E0035426,Priestwood,Bracknell,,,,,,false,UKOS,485958,170388,-0.76505,51.42599,BCT,MKD,OTH,,,,006,2017-07-11T00:00:00,2017-07-11T15:32:00,0,new,active
0380F827H974,bkndmdw,,,Bracknell Rail Station,,,,,,,,,,adj,,W,E0057151,Bracknell,,,Bracknell,EN,,,false,UKOS,486828,168978,-0.75288,51.41318,BCT,MKD,OTH,,,,006,2020-09-09T00:00:00,2020-09-14T12:29:51,54,new,active
0380F890F798,bkndmap,,,Newport Drive,,,,,,Harvest Ride,,,,opp,,E,E0052953,Binfield,,,,,,,false,UKOS,486890,170798,-0.75154,51.42953,BCT,MKD,OTH,,,,006,2017-07-11T00:00:00,2017-07-11T15:14:00,0,new,active
0380G102F779,bkndmat,,,Newport Drive,,,,,,Harvest Ride,,,,adj,,W,E0052953,Binfield,,,,,,,false,UKOS,487102,170779,-0.7485,51.42933,BCT,MKD,OTH,,,,006,2017-07-11T00:00:00,2017-07-11T15:24:00,0,new,active
0380E596G896,bknamja,,,Ploughlands,,,,opposite Ploughlands,,Kingsmere Road,,,,Opp,,W,E0035426,Priestwood,Bracknell,,Bracknell,EN,Priestwood,EN,false,UKOS,485596,169896,-0.77037,51.42162,BCT,MKD,OTH,,,,006,2004-11-01T00:00:00,2006-12-06T15:20:00,1,new,active
0380E583I345,bknamgp,,,Great Hollands Square,,,,Halewood - Highfield - Health Centre,,Great Hollands Road,,,,Opp,,SW,N0060050,Great Hollands,Bracknell,,Bracknell,EN,Great Hollands,EN,false,UKOS,485587,167327,-0.77112,51.39853,BCT,MKD,OTH,,,,006,2004-11-01T00:00:00,2013-01-31T12:16:00,4,new,active
0380E596I367,,,,Great Hollands Square,,,,Adjacent Health Centre,,Great Hollands Road,,,,taxi rank,,,N0060050,Great Hollands,Bracknell,,Bracknell,EN,Great Hollands,EN,false,UKOS,485596,167367,-0.77098,51.39889,TXR,,,,,,006,2004-11-01T00:00:00,2013-09-06T17:59:00,1,new,active
0380F899G256,,,,The Ring,,,,Multi-storey car park,,The Ring,,,,taxi rank,,,E0057151,Bracknell,,,Bracknell,EN,Bracknell,EN,false,UKOS,486899,169256,-0.75179,51.41567,TXR,,,,,,006,2004-11-01T00:00:00,2013-09-06T18:03:00,3,new,active
0380D805G921,bkndgmg,,,Lawrence Grove,,,,Lawrence Grove,,Popeswood Road,,,,opp,,SE,E0035425,Popeswood,Bracknell,,Bracknell,EN,Popeswood Road,EN,false,UKOS,484805,169921,-0.78174,51.42197,BCT,MKD,OTH,,,,006,2007-10-02T00:00:00,2011-06-09T18:08:00,2,new,active
0380D789O239,bkndjtw,,,Devon Close,,,,Footpath to Moray Avenue,,Yorktown Road,,,,opp,,SE,E0052956,Sandhurst,,,,,,,false,UKOS,484789,161239,-0.78404,51.34392,BCT,MKD,OTH,,,,006,2014-08-06T00:00:00,2014-08-06T16:39:00,2,new,active
0380D762H299,bkndjpa,,,Burnthouse Ride,,,,Playground,,Osprey Avenue,,,,adj,,SW,N0078236,Jennetts Park,Bracknell,,Bracknell,EN,Jennetts Park,EN,false,UKOS,484762,168299,-0.78274,51.40739,BCT,MKD,OTH,,,,006,2010-08-19T00:00:00,2020-09-10T12:28:26,12,new,active
0380D809E938,bkndjap,,,Church Lane North,,,,The Old School,,Church Lane,,,,N-bound,,,E0052953,Binfield,,,,,,,false,UKOS,484808,171942,-0.78121,51.44013,BCT,HAR,OTH,,,,006,2009-08-03T00:00:00,2019-01-09T16:22:00,2,new,active
0380D816E949,bkndjam,,,Church Lane North,,,,The Old School,,Church Lane,,,,S-bound,,,E0052953,Binfield,,,,,,,false,UKOS,484816,171949,-0.78109,51.4402,BCT,HAR,OTH,,,,006,2009-08-03T00:00:00,2012-07-19T10:59:00,1,new,active
0380E042H445,bkndjmw,,,Quail Corner,,,,Quail Corner,,Harrier Way,,,,adj,,W,N0078236,Jennetts Park,Bracknell,,Bracknell,EN,Jennetts Park,EN,false,UKOS,485042,168445,-0.77868,51.40866,BCT,MKD,OTH,,,,006,2010-08-19T00:00:00,2010-08-19T16:05:00,0,new,active
0380D901G811,bknajgp,,,Farley Hall,,,,Farley Copse - Wokingham Road,,London Road,,,,adj,,W,E0035425,Popeswood,Bracknell,,Bracknell,EN,Popeswood,EN,false,UKOS,484901,169811,-0.78038,51.42096,BCT,MKD,OTH,,,,006,2004-11-01T00:00:00,2012-02-06T16:14:00,2,new,active
0380C637O444,,,,York Way,,,,Adjacent York Road,,Yorktown Road,,,,adj,,,E0052956,Sandhurst,,,Sandhurst,EN,Sandhurst,EN,false,UKOS,483637,161444,-0.80052,51.34593,TXR,,,,,,006,2004-11-01T00:00:00,2012-01-19T12:35:00,1,new,active
0380E071E549,bkndjaw,,,Church Lane South,,,,Park Cottage,,Church Lane,,,,N-bound,,,E0052953,Binfield,,,,,,,false,UKOS,485071,171549,-0.77752,51.43656,BCT,HAR,OTH,,,,006,2009-08-03T00:00:00,2012-07-19T10:59:00,1,new,active
0380E084E549,bkndjat,,,Church Lane South,,,,Park Cottage,,Church Lane,,,,S-bound,,,E0052953,Binfield,,,,,,,false,UKOS,485084,171549,-0.77733,51.43656,BCT,HAR,OTH,,,,006,2009-08-03T00:00:00,2012-07-19T11:00:00,1,new,active
0380C517N344,bkndgtg,,,Larks Wood Close,,,,,,Longdown Road,,,,adj,,,E0035417,Little Sandhurst,Sandhurst,,,,,,false,UKOS,483517,162344,-0.80204,51.35404,BCT,HAR,OTH,,,,006,2008-10-22T00:00:00,2012-07-19T10:58:00,1,new,active
0380C520N353,bkndgtd,,,Larks Wood Close,,,,,,Longdown Road,,,,opp,,,E0035417,Little Sandhurst,Sandhurst,,,,,,false,UKOS,483520,162353,-0.80199,51.35412,BCT,HAR,OTH,,,,006,2008-10-22T00:00:00,2012-07-19T10:58:00,1,new,active
0380D527H109,bkndjwa,,,Bullfinch Rise,,,,Wren Gardens,,Merlin Way,,,,adj,,N,N0078236,Jennetts Park,Bracknell,,Bracknell,EN,Jennett's Park,EN,false,UKOS,484527,168109,-0.78617,51.40572,BCT,MKD,OTH,,,,006,2014-08-07T00:00:00,2014-08-07T13:59:00,0,new,active
0380C919M486,bkndjtj,,,Alcot Close Footpath,,,,,,Church Street,,,,opp,,SE,E0052955,Crowthorne,,,,,,,false,UKOS,483919,163846,-0.79591,51.36749,BCT,MKD,OTH,,,,006,2014-04-30T00:00:00,2014-04-30T14:00:00,0,new,active
0380B807N301,bkndgwa,,,Ambarrow Crescent,,,,,,Church Road,,,,adj,,,E0035417,Little Sandhurst,Sandhurst,,,,,,false,UKOS,482807,162301,-0.81224,51.35376,BCT,HAR,OTH,,,,006,2008-10-22T00:00:00,2019-01-15T16:53:00,2,new,active
0380B817N293,bkndgwd,,,Ambarrow Crescent,,,,,,Church Road,,,,opp,,,E0035417,Little Sandhurst,Sandhurst,,,,,,false,UKOS,482817,162293,-0.8121,51.35369,BCT,HAR,OTH,,,,006,2008-10-22T00:00:00,2019-01-15T16:53:00,2,new,active
0380D565I994,bkndjpd,,,Pipit Green,,,,footpath,,Merlin Way,,,,S-bound,,S,N0078236,Jennetts Park,Bracknell,,,,,,false,UKOS,484565,167994,-0.78565,51.40468,BCT,MKD,OTH,,,,006,2011-06-28T00:00:00,2012-02-08T10:57:00,2,new,active
0380D653O395,,,,Rackstraws Farm,,,,Adjacent Rackstraws Farm,,Yorktown Road,,,,taxi rank,,,E0052956,Sandhurst,,,Sandhurst,EN,Sandhurst,EN,false,UKOS,484653,161395,-0.78595,51.34534,TXR,,,,,,006,2004-11-01T00:00:00,2013-09-06T17:57:00,1,new,active
0380C483L174,bkndjtg,,,Dukes Ride Crossroads,,,,New Wokingham Road near opposite no. 20,,New Wokingham Road,,,,opp 20,,N,E0052955,Crowthorne,,,,,,,false,UKOS,483406,164174,-0.8032,51.37051,BCT,MKD,OTH,,,,006,2014-04-30T00:00:00,2014-04-30T13:52:00,0,new,active
0380C283N534,bkndgtm,,,Edgbarrow Rise,,,,,,Edgbarrow Rise,,,,N-bound,,,E0035417,Little Sandhurst,Sandhurst,,,,,,false,UKOS,483283,162534,-0.80535,51.35579,BCT,HAR,OTH,,,,006,2008-10-22T00:00:00,2012-07-19T10:54:00,1,new,active
0380C294N537,bkndgtj,,,Edgbarrow Rise,,,,,,Edgbarrow Rise,,,,S-bound,,,E0035417,Little Sandhurst,Sandhurst,,,,,,false,UKOS,483294,162537,-0.80519,51.35581,BCT,HAR,OTH,,,,006,2008-10-22T00:00:00,2012-07-19T10:54:00,1,new,active
0380C087N499,bkndgtp,,,Hancome Road,,,,,,Sandy Lane,,,,adj,,,E0035417,Little Sandhurst,Sandhurst,,,,,,false,UKOS,483087,162499,-0.80817,51.3555,BCT,HAR,OTH,,,,006,2008-10-22T00:00:00,2012-07-19T10:53:00,1,new,active
0380C092N491,bkndgtw,,,Hancome Road,,,,,,Sandy Lane,,,,opp,,,E0035417,Little Sandhurst,Sandhurst,,,,,,false,UKOS,483092,162491,-0.8081,51.35543,BCT,HAR,OTH,,,,006,2008-10-22T00:00:00,2012-07-19T10:53:00,1,new,active
0380H596G683,bkndagt,,,Drummond Close,,,,Bullbrook - Parkland Drive,,Bullbrook Drive,,,,adj,,E,E0035405,Bullbrook,Bracknell,,Bracknell,EN,Bullbrook,EN,false,UKOS,488596,169683,-0.72729,51.41925,BCT,MKD,OTH,,,,006,2004-11-01T00:00:00,2012-07-19T11:05:00,2,new,active
0380H744G613,bkndajg,,,Whittenham Road,,,,Illingworth Green - Bullbrook,,Bullbrook Drive,,,,adj,,E,E0035405,Bullbrook,Bracknell,,Bracknell,EN,Bullbrook,EN,false,UKOS,488744,169613,-0.72518,51.4186,BCT,MKD,OTH,,,,006,2004-11-01T00:00:00,2011-06-15T17:44:00,1,new,active
0380I696D336,bkndgta,,,High Pines,,,,Mobile Home Site,,Parkers Lane,,,,nr,,NW,E0035418,Maidens Green,,,,,,,false,UKOS,489815,172274,-0.70911,51.44235,BCT,CUS,OTH,,,,006,2008-06-25T00:00:00,2009-08-03T14:06:00,2,new,active
0380I538F034,bknadam,,,Mobile Home Site,,,,Mobile Home Site,,,,,,in,,NW,N0071725,Warfield Park,,,Winkfield,EN,Winkfield,EN,false,UKOS,489538,170034,-0.71366,51.42226,BCT,CUS,OTH,,,,006,2004-11-01T00:00:00,2020-09-10T12:31:12,13,new,active
0380H229F455,bknawpm,,,Tesco North Bracknell,,,,Tesco Superstore,,Jigs Lane,,,,o/s,,S,N0060774,Whitegrove,Bracknell,,Binfield,EN,Binfield,EN,false,UKOS,488229,170455,-0.73237,51.42624,BCT,MKD,OTH,,,,006,2004-11-01T00:00:00,2012-07-05T09:58:00,4,new,active
0380H239G647,bknawpw,,,Bluebell Hill,,,,Bullbrook - Parkland Drive,,Bullbrook Drive,,,,adj,,E,E0035405,Bullbrook,Bracknell,,Bracknell,EN,Bullbrook,EN,false,UKOS,488239,169647,-0.73243,51.41898,BCT,MKD,OTH,,,,006,2004-11-01T00:00:00,2011-06-09T18:22:00,1,new,active
0380H433G366,bkndadw,,,Oakwood Road,,,,Lily Hill Drive - Perry Oaks,,Lily Hill Road,,,,adj,,W,E0035405,Bullbrook,Bracknell,,Bracknell,EN,Bullbrook,EN,false,UKOS,488433,169366,-0.72971,51.41642,BCT,MKD,OTH,,,,006,2004-11-01T00:00:00,2011-06-09T18:14:00,1,new,active
0380H445G671,bkndaga,,,Brownrigg Crescent,,,,Bullbrook - Shelley Avenue - Parkland Drive,,Bullbrook Drive,,,,E-bound,,E,E0035405,Bullbrook,Bracknell,,Bracknell,EN,Bullbrook,EN,false,UKOS,488445,169671,-0.72946,51.41916,BCT,MKD,OTH,,,,006,2004-11-01T00:00:00,2012-02-03T15:07:00,2,new,active
0380H447I753,bkndagd,,,Mendip Road,,,,Axbridge - Draycott - Charterhouse Close,,Mendip Road,,,,on,,E,N0060771,Forest Park,Bracknell,,Bracknell,EN,Forest Park,EN,false,UKOS,488447,167753,-0.72991,51.40192,BCT,MKD,OTH,,,,006,2004-11-01T00:00:00,2012-02-07T14:59:00,2,new,active
0380H241G346,bknawtd,,,Mainprize Road,,,,Opposite Mainprize Road,,Lily Hill Road,,,,opp,,W,E0035405,Bullbrook,Bracknell,,Bracknell,EN,Bullbrook,EN,false,UKOS,488241,169346,-0.73248,51.41627,BCT,MKD,OTH,,,,006,2004-11-01T00:00:00,2009-08-03T16:43:00,1,new,active
0380H272I951,bknawtj,,,Oareborough,,,,Townsend Close - Harmans Water School,,Oareborough,,,,on,,S,N0060771,Forest Park,Bracknell,,Bracknell,EN,Forest Park,EN,false,UKOS,488272,167951,-0.73238,51.40373,BCT,MKD,OTH,,,,006,2004-11-01T00:00:00,2012-02-08T10:50:00,1,new,active
0380F109H333,bknapat,,,Deepdale - outbound,,,,Wildridings Shops,,Deepdale,,,,on,,N,N0060051,Wildridings,Bracknell,,Bracknell,EN,Wildridings,EN,false,UKOS,486109,168333,-0.76337,51.40749,BCT,MKD,OTH,,,,006,2004-11-01T00:00:00,2020-10-02T13:04:44,28,new,active
0380L326E568,bkndjgm,,,Fleur De Lis,,,,Hatchet Lane,,Lovel Road,,,,opp,,E,E0035409,Cranbourne,,,Cranbourne,EN,Cranbourne,EN,false,UKOS,492326,171568,-0.67317,51.4356,BCT,MKD,OTH,,,,006,2009-11-17T00:00:00,2009-11-17T14:21:00,0,new,active
0380L277E579,bkndgdt,,,Fleur De Lis,,,,Adjacent recreation ground,,Lovel Road,,,,adj,,W,E0035409,Cranbourne,,,Cranbourne,EN,Cranbourne,EN,false,UKOS,492272,171572,-0.67395,51.43564,BCT,MKD,OTH,,,,006,2004-11-01T00:00:00,2009-11-17T14:21:00,3,new,active
0380F252G908,bknapdw,,,Limerick Close,,,,Binfield Road,,Stoney Road,,,,adj,,S,E0035426,Priestwood,Bracknell,,Bracknell,EN,Priestwood,EN,false,UKOS,486252,169908,-0.76093,51.42163,BCT,CUS,OTH,,,,006,2004-11-01T00:00:00,2010-05-06T09:53:00,3,new,active
0380G051G136,,,,Royal British Legion,,,,Opposite St Joseph's Catholic Church,,The Ring,,,,taxi rank,,,E0057151,Bracknell,,,Bracknell,EN,Bracknell,EN,false,UKOS,487051,169136,-0.74964,51.41457,TXR,,,,,,006,2004-11-01T00:00:00,2013-09-06T18:06:00,1,new,active
0380F192H332,,,,Wildridings Square,,,,Adjacent Wildridings Shops,,Deepdale,,,,taxi rank,,,N0060051,Wildridings,Bracknell,,Bracknell,EN,Wildridings,EN,false,UKOS,486192,168332,-0.76218,51.40747,TXR,,,,,,006,2004-11-01T00:00:00,2013-09-06T18:01:00,2,new,active
0380F186G794,bknapdm,,,Hawthorn Close,,,,Windmill Road,,Stoney Road,,,,adj,,S,E0035426,Priestwood,Bracknell,,Bracknell,EN,Priestwood,EN,false,UKOS,486186,169794,-0.76191,51.42062,BCT,CUS,OTH,,,,006,2004-11-01T00:00:00,2010-05-06T09:53:00,3,new,active
0380F960F676,bkndgwp,,,Piggy Wood,,,,Hebbecastle Down,,Newport Drive,,,,adj,,S,N0060775,Quelm Park,Bracknell,,Bracknell,EN,,,false,UKOS,486960,170676,-0.75057,51.42843,BCT,CUS,OTH,,,,006,2009-08-03T00:00:00,2009-08-03T15:35:00,0,new,active
0380E970J736,,,,Shopping Parade,,,,opposite The Cannie Man,,Bywood,,,,taxi rank,,,N0060048,Hanworth,Bracknell,,Bracknell,EN,Hanworth,EN,false,UKOS,485970,166736,-0.76576,51.39316,TXR,,,,,,006,2004-11-01T00:00:00,2013-09-06T18:00:00,2,new,active
0380F973G411,,,,The Bull,,,,Behind The Bull,,The Ring,,,,behind,,,E0057151,Bracknell,,,Bracknell,EN,Bracknell,EN,false,UKOS,486973,169411,-0.75069,51.41705,TXR,,,,,,006,2004-11-01T00:00:00,2012-01-19T12:39:00,1,new,active
0380G261G356,bknatjw,,,The Ring - Parish Church,,,,Opposite Charles Square,,The Ring,,,,Stop,,S,E0057151,Bracknell,,,Bracknell,EN,Bracknell,EN,false,UKOS,487261,169356,-0.74656,51.41652,BCT,MKD,OTH,,,,006,2004-11-01T00:00:00,2020-09-10T12:24:20,8,new,active
0380F030F110,bkndjdw,,,Meadow Way,,,,Meadow Way,,Moordale Avenue,,,,opp,,NE,E0035426,Priestwood,Bracknell,,,,,,false,UKOS,486030,170110,-0.76408,51.42348,BCT,MKD,OTH,,,,006,2009-11-17T00:00:00,2009-11-17T13:59:00,0,new,active
0380G118G200,,,,St Joseph Catholic Church,,,,Adjacent Church,,The Ring,,,,taxi rank,,,E0057151,Bracknell,,,Bracknell,EN,Bracknell,EN,false,UKOS,487118,169200,-0.74866,51.41513,TXR,,,,,,006,2004-11-01T00:00:00,2013-09-06T18:07:00,1,new,active
0380F500F138,bknapmg,,,Hart Close,,,,Shepherds Lane - Garth,,Shepherds Lane,,,,W-bound,,W,E0057151,Bracknell,,,Bracknell,EN,Bracknell,EN,false,UKOS,486500,170138,-0.75731,51.42366,BCT,MKD,OTH,,,,006,2004-11-01T00:00:00,2012-02-07T11:06:00,2,new,active
