ATCOCode,NaptanCode,PlateCode,CleardownCode,CommonName,CommonNameLang,ShortCommonName,ShortCommonNameLang,Landmark,LandmarkLang,Street,StreetLang,Crossing,CrossingLang,Indicator,IndicatorLang,Bearing,NptgLocalityCode,LocalityName,ParentLocalityName,GrandParentLocalityName,Town,TownLang,Suburb,SuburbLang,LocalityCentre,GridType,Easting,Northing,Longitude,Latitude,StopType,BusStopType,TimingStatus,DefaultWaitTime,Notes,NotesLang,AdministrativeAreaCode,CreationDateTime,ModificationDateTime,RevisionNumber,Modification,Status
039025000002,rdgadjd,,,Admirals Court,,,,Admirals Court,,Rose Kiln Lane,,,,Adj,,N,E0041483,Coley,Reading,,,,,,false,UKOS,471257,172399,-0.97605,51.44611,BCT,MKD,OTH,,,,046,2006-02-01T00:00:00,2013-05-31T15:37:00,3,new,active
039025000001,rdgadja,,,Admirals Court,,,,Laud Close,,Rose Kiln Lane,,,,Opp,,S,E0041483,Coley,Reading,,,,,,false,UKOS,471267,172405,-0.9759,51.44616,BCT,MKD,OTH,,,,046,2006-02-01T00:00:00,2013-05-31T15:36:00,3,new,active
039025010003,rdgadjp,,,Alexandra Road,,,,Alexandra Road,,Addington Road,,,,opp,,E,N0071701,Erleigh Road,Reading,,,,,,false,UKOS,472970,172636,-0.95135,51.44802,BCT,MKD,OTH,,,,046,2006-02-01T00:00:00,2011-06-02T12:29:00,2,new,active
039025010002,rdgadjm,,,Alexandra Road,,,,Addington Road,,Alexandra Road,,,,in,,S,N0071701,Erleigh Road,Reading,,,,,,false,UKOS,472963,172589,-0.95146,51.4476,BCT,MKD,OTH,,,,046,2006-02-01T00:00:00,2011-06-02T12:28:00,2,new,active
039025010001,rdgadjg,,,Alexandra Road,,,,Reading School,,Addington Road,,,,adj,,W,N0071701,Erleigh Road,Reading,,,,,,false,UKOS,472918,172610,-0.95211,51.44779,BCT,MKD,OTH,,,,046,2006-02-01T00:00:00,2011-06-02T12:28:00,2,new,active
039025020002,rdgadjw,,,Alford Close,,,,Alford Close,,Corwen Road,,,,adj,,N,E0041494,Tilehurst,Reading,,,,,,false,UKOS,467002,173524,-1.03705,51.45674,BCT,MKD,OTH,,,,046,2006-02-01T00:00:00,2014-04-22T14:55:00,2,new,active
039025020001,rdgadjt,,,Alford Close,,,,Gratwicke Road,,Corwen Road,,,,Opp,,S,E0041494,Tilehurst,Reading,,,,,,false,UKOS,466992,173630,-1.03718,51.45769,BCT,MKD,OTH,,,,046,2006-02-01T00:00:00,2006-12-06T15:56:00,1,new,active
039025030001,rdgadma,,,All Hallows Road,,,,All Hallows Road,,Henley Road,,,,adj 202,,NE,E0041479,Caversham,Reading,,,,,,false,UKOS,472917,175243,-0.95158,51.47146,BCT,MKD,OTH,,,,046,2006-02-01T00:00:00,2011-05-25T18:24:00,1,new,active
039025030002,rdgadmd,,,All Hallows Road,,,,All Hallows Road,,Henley Road,,,,opp 206,,SW,E0041479,Caversham,Reading,,,,,,false,UKOS,472955,175246,-0.95103,51.47149,BCT,MKD,OTH,,,,046,2006-02-01T00:00:00,2011-05-25T18:23:00,1,new,active
039025040002,rdgadmj,,,Allcroft Road,,,,Allcroft Road,,Redlands Road,,,,adj,,N,E0041484,Whiteknights,Reading,,,,,,false,UKOS,472554,172409,-0.95739,51.44603,BCT,MKD,OTH,,,,046,2006-02-01T00:00:00,2009-11-18T15:27:00,1,new,active
039025040001,rdgadmg,,,Allcroft Road,,,,Addington Road,,Redlands Road,,,,Opp,,S,E0041484,Whiteknights,Reading,,,,,,false,UKOS,472577,172387,-0.95706,51.44583,BCT,MKD,OTH,,,,046,2006-02-01T00:00:00,2006-12-06T15:57:00,1,new,active
039025050002,rdgadmt,,,Amersham Road,,,,Dickens Road,,Amersham Road,,,,On,,E,N0060318,Lower Caversham,Caversham,,,,,,false,UKOS,472565,174660,-0.95677,51.46627,BCT,MKD,OTH,,,,046,2006-02-01T00:00:00,2012-11-08T12:18:00,1,new,active
039025050001,rdgadmp,,,Amersham Road,,,,Star Road,,Amersham Road,,,,W-bound,,W,N0060318,Lower Caversham,Caversham,,,,,,false,UKOS,472592,174654,-0.95638,51.46621,BCT,MKD,OTH,,,,046,2006-02-01T00:00:00,2013-04-23T15:37:00,3,new,active
039025060001,rdgadmw,,,Ariel View,,,,Northbrook Road,,Lowfield Road,,,,adj 138,,SE,E0041481,Caversham Park Village,Caversham,,,,,,false,UKOS,472563,176500,-0.95642,51.48281,BCT,MKD,OTH,,,,046,2006-02-01T00:00:00,2011-05-25T18:24:00,1,new,active
039025060002,rdgadpa,,,Ariel View,,,,Northbrook Road,,Lowfield Road,,,,opp 148,,NW,E0041481,Caversham Park Village,Caversham,,,,,,false,UKOS,472526,176510,-0.95695,51.4829,BCT,MKD,OTH,,,,046,2006-02-01T00:00:00,2011-05-25T18:24:00,1,new,active
039025070002,rdgadpg,,,Armour Hill,,,,,,Kentwood Hill,,,,adj,,NE,N0060314,Kentwood,Tilehurst,,,,,,false,UKOS,467327,174490,-1.03219,51.46539,BCT,MKD,OTH,,,,046,2006-02-01T00:00:00,2018-06-13T15:50:00,3,new,active
039025070001,rdgadpd,,,Armour Hill,,,,,,Kentwood Hill,,,,adj 154,,S,N0060314,Kentwood,Tilehurst,,,,,,false,UKOS,467339,174485,-1.03202,51.46534,BCT,MKD,OTH,,,,046,2006-02-01T00:00:00,2018-06-13T15:50:00,3,new,active
039025080001,rdgadpj,,,Ash Road,,,,Ash Road,,Corwen Road,,,,adj,,N,E0041494,Tilehurst,Reading,,,,,,false,UKOS,467353,173142,-1.03207,51.45326,BCT,MKD,OTH,,,,046,2006-02-01T00:00:00,2009-11-18T15:27:00,1,new,active
039025090001,rdgadpm,,,Ashampstead Road,,,,Ashampstead Road,,Southcote Lane,,,,opp 307,,E,E0041491,Southcote,Reading,,,,,,false,UKOS,468352,171984,-1.01792,51.44273,BCT,MKD,OTH,,,,046,2006-02-01T00:00:00,2011-05-25T18:25:00,1,new,active
039025090002,rdgadpt,,,Ashampstead Road,,,,Ashampstead Road,,Southcote Lane,,,,adj 311,,W,E0041491,Southcote,Reading,,,,,,false,UKOS,468339,171972,-1.01811,51.44263,BCT,MKD,OTH,,,,046,2006-02-01T00:00:00,2011-05-25T18:25:00,1,new,active
039025100001,rdgadpw,,,Ashton Close,,,,,,Lower Elmstone Drive,,,,adj 57,,S,E0041494,Tilehurst,Reading,,,,,,false,UKOS,466346,173899,-1.04642,51.46019,BCT,MKD,OTH,,,,046,2006-02-01T00:00:00,2018-11-26T17:39:00,3,new,active
039025100002,rdgadta,,,Ashton Close,,,,,,Lower Elmstone Drive,,,,adj 60,,N,E0041494,Tilehurst,Reading,,,,,,false,UKOS,466343,173857,-1.04647,51.45981,BCT,MKD,OTH,,,,046,2006-02-01T00:00:00,2019-01-28T16:42:00,3,new,active
039025110001,rdgadtd,,,Balmore Drive,,,,Balmore Drive,,Peppard Road,,,,adj,,N,E0041479,Caversham,Reading,,,,,,false,UKOS,471747,175404,-0.96839,51.47306,BCT,MKD,OTH,,,,046,2006-02-01T00:00:00,2019-01-28T13:34:00,2,new,active
039025110002,rdgadtg,,,Balmore Drive,,,,Grovenor Road,,Peppard Road,,,,opp 57,,S,E0041479,Caversham,Reading,,,,,,false,UKOS,471777,175448,-0.96795,51.47345,BCT,MKD,OTH,,,,046,2006-02-01T00:00:00,2011-06-02T12:12:00,1,new,active
039025120001,rdgadtj,,,Barnard Close,,,,Aldenham Close,,Lowfield Road,,,,adj,,NE,E0041481,Caversham Park Village,Caversham,,,,,,false,UKOS,472342,176517,-0.9596,51.48299,BCT,MKD,OTH,,,,046,2006-02-01T00:00:00,2009-11-18T15:28:00,1,new,active
039025120002,rdgadtm,,,Barnard Close,,,,Barnard Close,,Lowfield Road,,,,Opp,,SW,E0041481,Caversham Park Village,Caversham,,,,,,false,UKOS,472335,176492,-0.9597,51.48277,BCT,MKD,OTH,,,,046,2006-02-01T00:00:00,2006-12-06T15:58:00,1,new,active
039025130002,rdgadtw,,,Barnsdale Road,,,,Barnsdale Road,,Cressingham Road,,,,adj,,NE,E0041496,Whitley,Reading,,,,,,false,UKOS,472987,170975,-0.95145,51.43308,BCT,MKD,OTH,,,,046,2006-02-01T00:00:00,2011-06-15T17:58:00,2,new,active
039025130001,rdgadtp,,,Barnsdale Road,,,,Monksbarn,,Cressingham Road,,,,opp,,SW,E0041496,Whitley,Reading,,,,,,false,UKOS,472930,170933,-0.95228,51.43271,BCT,MKD,OTH,,,,046,2006-02-01T00:00:00,2009-11-18T15:28:00,1,new,active
039025140002,rdgadwd,,,Burghfield Road,,,,Esso Garage,,Bath Road,,,,E-bound,,E,E0041482,Horncastle,Reading,,,,,,false,UKOS,468318,172169,-1.01838,51.4444,BCT,MKD,OTH,,,,046,2006-02-01T00:00:00,2014-06-09T11:16:00,3,new,active
039025140001,rdgadwa,,,Burghfield Road,,,,Opposite Old Kennels Court,,Burghfield Road,,,,S-bound,,S,E0041482,Horncastle,Reading,,,,,,false,UKOS,468268,172074,-1.01911,51.44355,BCT,MKD,OTH,,,,046,2006-02-01T00:00:00,2014-06-09T11:15:00,3,new,active
039025140003,rdgadwg,,,Burghfield Road,,,,Burghfield Road,,Bath Road,,,,W-bound,,W,E0041482,Horncastle,Reading,,,,,,false,UKOS,468172,172135,-1.02048,51.44411,BCT,MKD,OTH,,,,046,2006-02-01T00:00:00,2014-06-09T11:16:00,3,new,active
039025150001,rdgadwj,,,West Village - Tesco,,,,Tesco Superstore,,Oxford Road,,,,opp,,NW,E0057227,Reading West,Reading,,,,,,false,UKOS,469694,173610,-0.9983,51.45719,BCT,MKD,OTH,,,,046,2006-02-01T00:00:00,2013-12-04T17:09:00,3,new,active
039025150002,rdgadwm,,,West Village - Tesco,,,,Tesco Superstore,,Oxford Road,,,,adj,,SE,E0057227,Reading West,Reading,,,,,,false,UKOS,469770,173604,-0.9972,51.45712,BCT,MKD,OTH,,,,046,2006-02-01T00:00:00,2013-12-04T17:08:00,2,new,active
039025160001,rdgadwp,,,Water Tower,,,,nr Firs Road,,Park Lane,,,,adj,,N,E0041494,Tilehurst,Reading,,,,,,false,UKOS,466330,172866,-1.04685,51.4509,BCT,MKD,OTH,,,,046,2006-02-01T00:00:00,2013-12-04T17:02:00,2,new,active
039025160002,rdgadwt,,,Water Tower,,,,Halls Road,,Park Lane,,,,opp,,S,E0041494,Tilehurst,Reading,,,,,,false,UKOS,466340,172852,-1.0467,51.45078,BCT,MKD,OTH,,,,046,2006-02-01T00:00:00,2013-12-04T17:02:00,2,new,active
039025170001,rdgagad,,,Beech Road,,,,Beech Road,,Shinfield Road,,,,adj,,N,E0041496,Whitley,Reading,,,,,,false,UKOS,473333,170749,-0.94652,51.43101,BCT,MKD,OTH,,,,046,2006-02-01T00:00:00,2011-06-02T12:13:00,1,new,active
039025170002,rdgagag,,,Beech Road,,,,Opposite Beech Road,,Shinfield Road,,,,opp,,S,E0041496,Whitley,Reading,,,,,,false,UKOS,473347,170731,-0.94632,51.43084,BCT,MKD,OTH,,,,046,2006-02-01T00:00:00,2011-06-02T12:30:00,2,new,active
039025180001,rdgagaj,,,Bennet Road,,,,Bennet Road,,Basingstoke Road,,,,adj,,N,N0060300,Whitley Wood,Reading,,,,,,false,UKOS,471677,170239,-0.97044,51.42664,BCT,MKD,OTH,,,,046,2006-02-01T00:00:00,2009-11-18T15:29:00,1,new,active
039025180002,rdgagam,,,Bennet Road,,,,Hartland Road,,Basingstoke Road,,,,opp,,S,N0060300,Whitley Wood,Reading,,,,,,false,UKOS,471709,170303,-0.96997,51.42721,BCT,MKD,OTH,,,,046,2006-02-01T00:00:00,2023-11-28T17:00:45,1,new,active
039025190001,rdgagap,,,Beresford Road,,,,Adjacent Albany Road,,Oxford Road,,,,opp,,NW,E0057227,Reading West,Reading,,,,,,false,UKOS,469934,173529,-0.99486,51.45643,BCT,MKD,OTH,,,,046,2006-02-01T00:00:00,2012-07-20T12:03:00,2,new,active
039025190002,rdgagat,,,Beresford Road,,,,Beresford Road,,Oxford Road,,,,adj,,SE,E0057227,Reading West,Reading,,,,,,false,UKOS,470027,173517,-0.99352,51.45631,BCT,MKD,OTH,,,,046,2006-02-01T00:00:00,2012-07-20T12:02:00,2,new,active
039025200001,rdgagaw,,,Berkeley Avenue,,,,Berkeley Avenue,,A4 Bath Road,,,,opp,,NE,E0041491,Southcote,Reading,,,,,,false,UKOS,470151,172707,-0.9919,51.44901,BCT,MKD,OTH,,,,046,2006-02-01T00:00:00,2009-11-18T15:29:00,1,new,active
039025200002,rdgagda,,,Berkeley Avenue,,,,Berkeley Avenue,,A4 Bath Road,,,,adj,,SW,E0041491,Southcote,Reading,,,,,,false,UKOS,470149,172690,-0.99193,51.44886,BCT,MKD,OTH,,,,046,2006-02-01T00:00:00,2019-04-02T12:42:00,3,new,active
039025210002,rdgagdj,,,Birdhill Avenue,,,,Barnsdale Road,,Cressingham Road,,,,opp,,E,E0041496,Whitley,Reading,,,,,,false,UKOS,472737,170937,-0.95505,51.43278,BCT,MKD,OTH,,,,046,2006-02-01T00:00:00,2009-11-18T15:30:00,1,new,active
039025210001,rdgagdg,,,Birdhill Avenue,,,,Kiln View Road,,Cressingham Road,,,,adj,,W,E0041496,Whitley,Reading,,,,,,false,UKOS,472641,170948,-0.95643,51.43289,BCT,MKD,OTH,,,,046,2006-02-01T00:00:00,2009-11-18T15:30:00,1,new,active
039025220001,rdgagdm,,,Black Horse,,,,Kidmore End Road,,Grove Road,,,,E-bound,,E,E0041485,Emmer Green,Caversham,,,,,,false,UKOS,471989,176554,-0.96467,51.48337,BCT,MKD,OTH,,,,046,2006-02-01T00:00:00,2012-12-05T15:10:00,2,new,active
039025220002,rdgagdp,,,Black Horse,,,,School Lane,,Grove Road,,,,W-bound,,W,E0041485,Emmer Green,Caversham,,,,,,false,UKOS,471988,176544,-0.96469,51.48328,BCT,MKD,OTH,,,,046,2006-02-01T00:00:00,2013-06-07T11:19:00,3,new,active
039025230002,rdgagdw,,,Blagrave Lane,,,,Blagrave Lane,,Upper Woodcote Road,,,,adj 161,,N,E0041480,Caversham Heights,Caversham,,,,,,false,UKOS,469719,176121,-0.99744,51.47976,BCT,MKD,OTH,,,,046,2006-02-01T00:00:00,2011-05-25T18:26:00,1,new,active
039025230001,rdgagdt,,,Blagrave Lane,,,,Shepherds Lane,,Upper Woodcote Road,,,,adj 176,,S,E0041480,Caversham Heights,Caversham,,,,,,false,UKOS,469733,176097,-0.99725,51.47954,BCT,MKD,OTH,,,,046,2006-02-01T00:00:00,2011-05-25T18:26:00,1,new,active
039025260001,rdgagjg,,,Blundells Road,,,,Opposite Old Water Tower,,Norcot Road,,,,adj,,NW,E0041494,Tilehurst,Reading,,,,,,false,UKOS,467272,173865,-1.0331,51.45977,BCT,MKD,OTH,,,,046,2006-02-01T00:00:00,2020-10-22T12:45:47,10,new,active
039025260002,rdgagjm,,,Blundells Road,,,,Blundells Road,,Norcot Road,,,,adj 87,,E,E0041494,Tilehurst,Reading,,,,,,false,UKOS,467397,173849,-1.03131,51.45961,BCT,MKD,OTH,,,,046,2006-02-01T00:00:00,2023-06-05T16:12:18,1,new,active
039025270001,rdgagjp,,,Boston Avenue,,,,Boston Avenue,,St Saviours Road,,,,adj,,N,E0041483,Coley,Reading,,,,,,false,UKOS,471095,172562,-0.97835,51.44759,BCT,MKD,OTH,,,,046,2006-02-01T00:00:00,2018-11-27T15:52:00,2,new,active
039025270002,rdgagjt,,,Boston Avenue,,,,Opposite Holybrook Road,,St Saviours Road,,,,opp,,S,E0041483,Coley,Reading,,,,,,false,UKOS,471110,172530,-0.97814,51.4473,BCT,MKD,OTH,,,,046,2006-02-01T00:00:00,2018-11-27T15:52:00,2,new,active
039025280001,rdgagjw,,,Brayford Road,,,,Brayford Road,,Northumberland Avenue,,,,Adj,,N,N0060300,Whitley Wood,Reading,,,,,,false,UKOS,472423,169952,-0.95977,51.42396,BCT,MKD,OTH,,,,046,2006-02-01T00:00:00,2006-12-06T15:59:00,1,new,active
039025280002,rdgagma,,,Brayford Road,,,,Hartland Road,,Northumberland Avenue,,,,opp,,S,N0060300,Whitley Wood,Reading,,,,,,false,UKOS,472436,169923,-0.95959,51.4237,BCT,MKD,OTH,,,,046,2006-02-01T00:00:00,2009-11-18T15:30:00,1,new,active
039025290002,rdgagmg,,,Bridge Street Caversham,,,,Promenade Road,,Bridge Street,,,,n-bound,,N,E0041479,Caversham,Reading,,,,,,false,UKOS,471162,174665,-0.97696,51.46649,BCT,MKD,OTH,,,,046,2006-02-01T00:00:00,2011-06-02T12:31:00,2,new,active
039025290001,rdgagmd,,,Bridge Street Caversham,,,,Adjacent Humphries Tyre Garage,,Bridge Street,,,,s-bound,,S,E0041479,Caversham,Reading,,,,,,false,UKOS,471178,174707,-0.97672,51.46687,BCT,MKD,OTH,,,,046,2006-02-01T00:00:00,2011-06-02T12:31:00,1,new,active
039025310002,rdgagmt,,,Bridges Hall,,,,Adjacent Bridges Hall,,Whiteknights Road,,,,Adj,,NW,E0041484,Whiteknights,Reading,,,,,,false,UKOS,474026,172171,-0.93626,51.4437,BCT,MKD,OTH,,,,046,2006-02-01T00:00:00,2013-06-10T14:57:00,2,new,active
039025310001,rdgagmp,,,Bridges Hall,,,,Melrose Avenue,,Whiteknights Road,,,,opp,,SE,E0041484,Whiteknights,Reading,,,,,,false,UKOS,474053,172160,-0.93587,51.4436,BCT,MKD,OTH,,,,046,2006-02-01T00:00:00,2009-11-18T15:31:00,1,new,active
039025320001,rdgagmw,,,Brisbane Road,,,,Brisbane Road,,Grovelands Road,,,,adj 78,,NE,E0041494,Tilehurst,Reading,,,,,,false,UKOS,468775,173615,-1.01152,51.45735,BCT,MKD,OTH,,,,046,2006-02-01T00:00:00,2011-05-25T18:27:00,2,new,active
039025320002,rdgagpa,,,Brisbane Road,,,,Waverley Road,,Grovelands Road,,,,opp 82,,SW,E0041494,Tilehurst,Reading,,,,,,false,UKOS,468790,173606,-1.01131,51.45726,BCT,MKD,OTH,,,,046,2006-02-01T00:00:00,2011-05-25T18:27:00,2,new,active
039025330001,rdgagpd,,,Brock Gardens,,,,Brock Gardens,,Oxford Road,,,,Adj,,NW,E0057227,Reading West,Reading,,,,,,false,UKOS,469254,173789,-1.00459,51.45885,BCT,MKD,OTH,,,,046,2006-02-01T00:00:00,2006-12-06T16:00:00,1,new,active
039025330002,rdgagpg,,,Brock Gardens,,,,Gordon Place,,Oxford Road,,,,opp,,SE,E0057227,Reading West,Reading,,,,,,false,UKOS,469356,173759,-1.00313,51.45857,BCT,MKD,OTH,,,,046,2006-02-01T00:00:00,2013-11-01T11:52:00,2,new,active
039025350001,rdgagpm,,,Gillette Way,,,,,,Gillette Way,,,,N-bound,,N,E0041496,Whitley,Reading,,,,,,false,UKOS,471645,170873,-0.97077,51.43234,BCT,MKD,OTH,,,,046,2006-02-01T00:00:00,2018-06-25T12:56:00,4,new,active
039025350002,rdgagpt,,,Gillette Way,,,,,,Gillette Way,,,,S-bound,,S,E0041496,Whitley,Reading,,,,,,false,UKOS,471642,170913,-0.97081,51.4327,BCT,MKD,OTH,,,,046,2006-02-01T00:00:00,2018-06-25T12:56:00,3,new,active
039025360001,rdgdwag,,,Reading West Station - Tilehurst Road,,,,opposite post office,,Tilehurst Road,,,,adj,,E,N0071699,Tilehurst Road,Reading,,,,,,false,UKOS,470220,173068,-0.99083,51.45225,BCT,MKD,OTH,,,,046,2006-02-01T00:00:00,2013-01-31T12:36:00,4,new,active
039025360002,rdgagpw,,,Reading West Station - Tilehurst Road,,,,Brunswick Hill,,Tilehurst Road,,,,opp,,W,N0071699,Tilehurst Road,Reading,,,,,,false,UKOS,470159,173046,-0.99172,51.45206,BCT,MKD,OTH,,,,046,2006-02-01T00:00:00,2013-01-31T12:37:00,4,new,active
039025370002,rdgagtg,,,Buckingham Drive,,,,Evesham Road,,Buckingham Drive,,,,N-bound,,N,E0041485,Emmer Green,Caversham,,,,,,false,UKOS,471952,176086,-0.9653,51.47917,BCT,MKD,OTH,,,,046,2006-02-01T00:00:00,2012-11-08T14:47:00,1,new,active
039025370001,rdgagtd,,,Buckingham Drive,,,,Evesham Road,,Buckingham Drive,,,,On,,S,E0041485,Emmer Green,Caversham,,,,,,false,UKOS,471965,176100,-0.96511,51.47929,BCT,MKD,OTH,,,,046,2006-02-01T00:00:00,2012-11-08T14:47:00,1,new,active
039025380003,rdgagtp,,,Buckland Road Circle,,,,Yelverton Road,,Buckland Road,,,,E-bound,,E,E0041496,Whitley,Reading,,,,,,false,UKOS,472109,171034,-0.96407,51.43373,BCT,MKD,OTH,,,,046,2006-02-01T00:00:00,2012-12-05T15:11:00,2,new,active
039025380004,rdgagtw,,,Buckland Road Circle,,,,Dawlish Road,,Buckland Road,,,,W-bound,,W,E0041496,Whitley,Reading,,,,,,false,UKOS,472057,171024,-0.96482,51.43364,BCT,MKD,OTH,,,,046,2006-02-01T00:00:00,2012-12-05T15:11:00,2,new,active
039025380002,rdgagtm,,,Buckland Road Circle,,,,Cressingham Road,,Northumberland Avenue,,,,adj 193,,S,E0041496,Whitley,Reading,,,,,,false,UKOS,472205,171118,-0.96267,51.43447,BCT,MKD,OTH,,,,046,2006-02-01T00:00:00,2011-05-25T18:28:00,1,new,active
039025380001,rdgagtj,,,Buckland Road Circle,,,,Buckland Road,,Northumberland Avenue,,,,adj 194,,N,E0041496,Whitley,Reading,,,,,,false,UKOS,472198,171149,-0.96276,51.43475,BCT,MKD,OTH,,,,046,2006-02-01T00:00:00,2011-05-25T18:28:00,1,new,active
039025390001,rdgagwa,,,Buckland Road Junction,,,,Tavistock Road,,Buckland Road,,,,E-bound,,E,E0041496,Whitley,Reading,,,,,,false,UKOS,471869,171025,-0.96752,51.43368,BCT,MKD,OTH,,,,046,2006-02-01T00:00:00,2015-03-04T11:15:00,2,new,active
039025390002,rdgagwd,,,Buckland Road Junction,,,,Rose Kiln Lane,,Basingstoke Road,,,,N-bound,,N,E0041496,Whitley,Reading,,,,,,false,UKOS,471790,171087,-0.96864,51.43424,BCT,MKD,OTH,,,,046,2006-02-01T00:00:00,2015-03-04T11:14:00,2,new,active
039025390003,rdgagwg,,,Buckland Road Junction,,,,Buckland Road,,Basingstoke Road,,,,S-bound,,S,E0041496,Whitley,Reading,,,,,,false,UKOS,471818,170961,-0.96827,51.43311,BCT,MKD,OTH,,,,046,2006-02-01T00:00:00,2015-03-04T11:15:00,2,new,active
039025400002,rdgagwm,,,Callington Road,,,,Blagdon Road,,Northumberland Avenue,,,,S-bound,,S,E0041496,Whitley,Reading,,,,,,false,UKOS,472280,170630,-0.96169,51.43007,BCT,MKD,OTH,,,,046,2006-02-01T00:00:00,2013-04-23T15:47:00,3,new,active
039025400001,rdgagwj,,,Callington Road,,,,Callington Road,,Northumberland Avenue,,,,adj 280,,N,E0041496,Whitley,Reading,,,,,,false,UKOS,472263,170652,-0.96193,51.43027,BCT,MKD,OTH,,,,046,2006-02-01T00:00:00,2011-05-25T18:29:00,1,new,active
039025410002,rdgagwt,,,Callington Road,,,,Adjacent Gillette,,Basingstoke Road,,,,opp,,N,E0041496,Whitley,Reading,,,,,,false,UKOS,471741,170459,-0.96948,51.4286,BCT,MKD,OTH,,,,046,2006-02-01T00:00:00,2009-11-18T15:32:00,2,new,active
039025410001,rdgagwp,,,Callington Road,,,,Callington Road,,Basingstoke Road,,,,adj,,S,E0041496,Whitley,Reading,,,,,,false,UKOS,471770,170530,-0.96905,51.42924,BCT,MKD,OTH,,,,046,2006-02-01T00:00:00,2009-11-18T15:31:00,1,new,active
039025420002,rdgajag,,,Canterbury Road,,,,Hexham Road,,Northumberland Avenue,,,,opp,,S,E0041496,Whitley,Reading,,,,,,false,UKOS,472208,171371,-0.96257,51.43674,BCT,MKD,OTH,,,,046,2006-02-01T00:00:00,2009-11-18T15:32:00,1,new,active
039025420001,rdgajad,,,Canterbury Road,,,,Canterbury Road,,Northumberland Avenue,,,,adj,,N,E0041496,Whitley,Reading,,,,,,false,UKOS,472201,171397,-0.96267,51.43698,BCT,MKD,OTH,,,,046,2006-02-01T00:00:00,2009-11-18T15:32:00,1,new,active
039025430001,rdgajaj,,,Castle Street,,,,Adjacent Cusden Walk,,Castle Street,,,,stop CP,,NE,E0055119,Reading Town Centre,Reading,,Reading,EN,,,false,UKOS,471263,173166,-0.97581,51.453,BCT,MKD,OTH,,,,046,2006-02-01T00:00:00,2011-02-05T11:55:00,1,new,active
039025430002,rdgajam,,,Castle Street,,,,opposite Police Station,,Castle Street,,,,stop CQ,,SW,E0055119,Reading Town Centre,Reading,,Reading,EN,,,false,UKOS,471199,173109,-0.97674,51.4525,BCT,MKD,OTH,,,,046,2006-02-01T00:00:00,2011-02-05T11:56:00,1,new,active
039025440002,rdgajat,,,Cavendish Road,,,,Emmer Green Shops,,Peppard Road,,,,opp,,NE,E0041485,Emmer Green,Caversham,,,,,,false,UKOS,472095,176536,-0.96315,51.48319,BCT,MKD,OTH,,,,046,2006-02-01T00:00:00,2011-06-02T12:32:00,1,new,active
039025440001,rdgajap,,,Cavendish Road,,,,Opposite Fisher Court,,Peppard Road,,,,adj,,SW,E0041485,Emmer Green,Caversham,,,,,,false,UKOS,472124,176586,-0.96272,51.48364,BCT,MKD,OTH,,,,046,2006-02-01T00:00:00,2011-06-02T12:32:00,1,new,active
039025460002,rdgajdg,,,Caversham Library,,,,Caversham Library,,Hemdean Road,,,,adj,,S,E0041479,Caversham,Reading,,,,,,false,UKOS,471343,174826,-0.97432,51.46791,BCT,MKD,OTH,,,,046,2006-02-01T00:00:00,2019-01-28T16:12:00,2,new,active
039025460001,rdgajda,,,Caversham Library,,,,Rectory Road,,Hemdean Road,,,,opp 19,,N,E0041479,Caversham,Reading,,,,,,false,UKOS,471343,174883,-0.97431,51.46843,BCT,MKD,OTH,,,,046,2006-02-01T00:00:00,2011-05-25T18:29:00,1,new,active
039025470002,rdgajdm,,,Caversham Road Fire Station,,,,Northfield Road,,Caversham Road,,,,adj,,NE,N0071726,Reading,,,,,,,false,UKOS,471246,174005,-0.97588,51.46055,BCT,MKD,OTH,,,,046,2006-02-01T00:00:00,2022-04-04T16:26:46,6,new,active
039025470001,rdgajdj,,,Caversham Road Fire Station,,,,Tudor Road,,Caversham Road,,,,opp,,SW,N0071726,Reading,,,,,,,false,UKOS,471247,173970,-0.97588,51.46023,BCT,MKD,OTH,,,,046,2006-02-01T00:00:00,2022-04-04T16:27:01,6,new,active
039025480001,rdgajdp,,,Cemetery Junction,,,,Adjacent Sardar Palace Restaurant,,Kings Road,,,,W-bound,,W,N0071726,Reading,,,,,,,false,UKOS,472971,173197,-0.95122,51.45306,BCT,MKD,OTH,,,,046,2006-02-01T00:00:00,2016-09-27T15:07:00,3,new,active
039025480002,rdgajdt,,,Cemetery Junction,,,,Rupert Street,,Kings Road,,,,Stop E1,,E,N0071726,Reading,,,,,,,false,UKOS,473032,173207,-0.95034,51.45314,BCT,MKD,OTH,,,,046,2006-02-01T00:00:00,2016-09-27T15:06:00,5,new,active
039025480003,rdgajdw,,,Cemetery Junction,,,,Rupert Street,,Kings Road,,,,Stop E2,,E,N0071726,Reading,,,,,,,false,UKOS,473065,173202,-0.94987,51.4531,BCT,MKD,OTH,,,,046,2006-02-01T00:00:00,2016-09-27T15:06:00,5,new,active
039025490001,rdgajga,,,Chalgrove Way,,,,Chalgrove Way,,Kidmore End Road,,,,opp,,NW,E0041485,Emmer Green,Caversham,,,,,,false,UKOS,471938,176806,-0.96535,51.48564,BCT,MKD,OTH,,,,046,2006-02-01T00:00:00,2009-11-18T15:33:00,2,new,active
039025490002,rdgajgd,,,Chalgrove Way,,,,Lyefield Court,,Kidmore End Road,,,,adj,,SE,E0041485,Emmer Green,Caversham,,,,,,false,UKOS,471979,176707,-0.96478,51.48474,BCT,MKD,OTH,,,,046,2006-02-01T00:00:00,2009-11-18T15:33:00,2,new,active
039025500001,rdgajgj,,,Chancellors Way,,,,Opposite Chancellors Way,,Shinfield Road,,,,opp,,NW,N0060303,University of Reading,Reading,,,,,,false,UKOS,472893,171824,-0.95263,51.44073,BCT,MKD,OTH,,,,046,2006-02-01T00:00:00,2013-01-29T14:39:00,3,new,active
039025500002,rdgajgm,,,Chancellors Way,,,,Chancellors Way,,Shinfield Road,,,,adj,,SE,N0060303,University of Reading,Reading,,,,,,false,UKOS,472951,171767,-0.95181,51.44021,BCT,MKD,OTH,,,,046,2006-02-01T00:00:00,2009-11-18T15:34:00,1,new,active
039025510001,rdgajgp,,,Chapel Hill,,,,Chapel Hill,,Park Lane,,,,adj,,NE,E0041494,Tilehurst,Reading,,,,,,false,UKOS,466535,173537,-1.04377,51.45691,BCT,MKD,OTH,,,,046,2006-02-01T00:00:00,2009-11-18T15:34:00,2,new,active
039025510002,rdgajgt,,,Chapel Hill,,,,Chapel Hill,,Park Lane,,,,opp,,SW,E0041494,Tilehurst,Reading,,,,,,false,UKOS,466543,173528,-1.04366,51.45683,BCT,MKD,OTH,,,,046,2006-02-01T00:00:00,2019-01-28T16:40:00,2,new,active
039025510004,rdgdwjd,,,Chapel Hill,,,,first lamp post on Chapel Hill,,Chapel Hill,,,,N-bound,,NW,E0041494,Tilehurst,Reading,,Reading,EN,Tilehurst,EN,false,UKOS,466499,173562,-1.04428,51.45714,BCT,MKD,OTH,,,,046,2008-01-22T00:00:00,2019-01-28T16:41:00,3,new,active
039025510003,rdgajgw,,,Chapel Hill,,,,School Road,,Chapel Hill,,,,S-bound,,SE,E0041494,Tilehurst,Reading,,,,,,false,UKOS,466506,173570,-1.04418,51.45721,BCT,MKD,OTH,,,,046,2006-02-01T00:00:00,2013-05-21T16:25:00,3,new,active
039025520001,rdgajma,,,Chapel Hill Lower Elmstone Drive,,,,,,Chapel Hill,,,,adj 32,,SE,E0041494,Tilehurst,Reading,,,,,,false,UKOS,466392,173690,-1.0458,51.4583,BCT,MKD,OTH,,,,046,2006-02-01T00:00:00,2018-06-11T16:15:00,2,new,active
039025520002,rdgajmd,,,Chapel Hill Lower Elmstone Drive,,,,,,Chapel Hill,,,,adj 53,,NW,E0041494,Tilehurst,Reading,,,,,,false,UKOS,466376,173687,-1.04603,51.45828,BCT,MKD,OTH,,,,046,2006-02-01T00:00:00,2018-06-11T16:15:00,2,new,active
0390TEMP0001,rdgjawj,,,Cheapside,,,,Temporary Stop,,Cheapside,,,,Stop,,N,E0055119,Reading Town Centre,Reading,,Reading,EN,,,false,UKOS,471163,173458,-0.97719,51.45564,BCT,CUS,OTH,,,,046,2013-02-12T00:00:00,2020-12-03T15:11:04,17,delete,inactive
0390TEMP0002,rdgjawm,,,Cheapside,,,,Temporary Stop,,Cheapside,,,,Stop,,N,E0055119,Reading Town Centre,Reading,,Reading,EN,,,false,UKOS,471162,173476,-0.9772,51.4558,BCT,CUS,OTH,,,,046,2013-02-12T00:00:00,2020-12-03T15:11:26,17,delete,inactive
039025530002,rdgajmj,,,Cheapside,,,,opposite Broad Street Mall,,Oxford Road,,,,Stop CV,,E,E0055119,Reading Town Centre,Reading,,Reading,EN,,,false,UKOS,471251,173436,-0.97593,51.45543,BCT,MKD,OTH,,,,046,2006-02-01T00:00:00,2013-11-01T11:54:00,2,new,active
039025530003,rdgajmp,,,Cheapside,,,,Adjacent Broad Street Mall,,Oxford Road,,,,Stop CW,,W,E0055119,Reading Town Centre,Reading,,Reading,EN,,,false,UKOS,471212,173417,-0.97649,51.45526,BCT,MKD,OTH,,,,046,2006-02-01T00:00:00,2013-11-01T11:58:00,2,new,active
039025530004,rdgajmt,,,Cheapside,,,,Adjacent Broad Street Mall,,Oxford Road,,,,Stop CX,,W,E0055119,Reading Town Centre,Reading,,Reading,EN,,,false,UKOS,471233,173421,-0.97619,51.4553,BCT,MKD,OTH,,,,046,2006-02-01T00:00:00,2013-11-01T12:02:00,2,new,active
039025530006,rdgdwtg,,,Cheapside,,,,opposite Broad Street Mall,,Oxford Road,,,,Stop CY,,E,E0055119,Reading Town Centre,Reading,,Reading,EN,,,false,UKOS,471236,173434,-0.97614,51.45541,BCT,MKD,OTH,,,,046,2011-02-08T00:00:00,2013-11-01T11:54:00,2,new,active
039025530001,rdgajmg,,,Cheapside,,,,Adjacent Tesco,,Cheapside,,,,stop CZ,,S,E0055119,Reading Town Centre,Reading,,Reading,EN,,,false,UKOS,471173,173440,-0.97705,51.45548,BCT,MKD,OTH,,,,046,2006-02-01T00:00:00,2011-02-08T09:26:00,2,new,active
039026880001,,,,Cheapside,,,,o/sTesco,,Oxford Road,,,,taxi rank,,,E0055119,Reading Town Centre,Reading,,,,,,false,UKOS,471200,173430,-0.97666,51.45538,TXR,,,,,,046,2006-02-01T00:00:00,2013-11-01T12:10:00,5,new,active
039025540002,rdgajpa,,,Chiltern Road,,,,Chiltern Road,,Henley Road,,,,Opp,,W,N0071700,Henley Road,Caversham,,,,,,false,UKOS,472464,175140,-0.95812,51.4706,BCT,MKD,OTH,,,,046,2006-02-01T00:00:00,2008-03-13T13:25:00,1,new,active
039025540001,rdgajmw,,,Chiltern Road,,,,Chiltern Road,,Henley Road,,,,Adj 130,,E,N0071700,Henley Road,Caversham,,,,,,false,UKOS,472481,175150,-0.95788,51.47068,BCT,MKD,OTH,,,,046,2006-02-01T00:00:00,2006-02-01T00:00:00,0,new,active
039025550001,rdgajpd,,,Cholmeley Road,,,,Cholmeley Road,,London Road,,,,adj,,NE,N0060301,New Town,Reading,,,,,,false,UKOS,473294,173272,-0.94656,51.4537,BCT,MKD,OTH,,,,046,2006-02-01T00:00:00,2013-04-29T14:16:00,2,new,active
039025550002,rdgajpg,,,Cholmeley Road,,,,Opposite Cholmeley Road,,London Road,,,,opp,,SW,N0060301,New Town,Reading,,,,,,false,UKOS,473391,173303,-0.94516,51.45396,BCT,MKD,OTH,,,,046,2006-02-01T00:00:00,2009-11-18T15:35:00,1,new,active
039025560002,rdgajpm,,,Christchurch Gardens,,,,Swainstone Road,,Basingstoke Road,,,,Opp,,N,E0041496,Whitley,Reading,,,,,,false,UKOS,472013,172065,-0.96524,51.44301,BCT,MKD,OTH,,,,046,2006-02-01T00:00:00,2006-12-06T16:03:00,1,new,active
039025560001,rdgajpj,,,Christchurch Gardens,,,,Christchurch Gardens,,Basingstoke Road,,,,Adj,,S,E0041496,Whitley,Reading,,,,,,false,UKOS,472022,172141,-0.96509,51.44369,BCT,MKD,OTH,,,,046,2006-02-01T00:00:00,2006-12-06T16:02:00,1,new,active
039025560004,rdgajpw,,,Christchurch Court,,,,Glebe Road,,Christchurch Gardens,,,,Opp,,E,E0041496,Whitley,Reading,,,,,,false,UKOS,472176,172090,-0.96289,51.44321,BCT,MKD,OTH,,,,046,2006-02-01T00:00:00,2010-06-17T14:02:00,3,new,active
039025560003,rdgajpt,,,Christchurch Court,,,,Northumberland Avenue,,Christchurch Gardens,,,,Adj,,W,E0041496,Whitley,Reading,,,,,,false,UKOS,472110,172080,-0.96384,51.44313,BCT,MKD,OTH,,,,046,2006-02-01T00:00:00,2010-06-17T14:02:00,3,new,active
039025570004,rdgajtj,,,Christchurch Green,,,,Redlands Road,,Elmhurst Road,,,,NE-bound,,NE,N0060303,University of Reading,Reading,,,,,,false,UKOS,472790,172071,-0.95406,51.44296,BCT,MKD,OTH,,,,046,2006-02-01T00:00:00,2012-10-23T16:24:00,2,new,active
039025570002,rdgajtd,,,Christchurch Green,,,,Opposite Marlborough Avenue,,Redlands Road,,,,adj,,NW,N0060303,University of Reading,Reading,,,,,,false,UKOS,472740,172084,-0.95478,51.44309,BCT,MKD,OTH,,,,046,2006-02-01T00:00:00,2012-10-23T16:22:00,3,new,active
039025570003,rdgajtg,,,Christchurch Green,,,,Elmhurst Road,,Shinfield Road,,,,SE-bound,,SE,N0060303,University of Reading,Reading,,,,,,false,UKOS,472794,172009,-0.95402,51.44241,BCT,MKD,OTH,,,,046,2006-02-01T00:00:00,2012-10-23T16:23:00,2,new,active
039025570001,rdgajta,,,Christchurch Green,,,,Whitley Park Lane,,Christchurch Road,,,,W-bound,,NW,N0060303,University of Reading,Reading,,,,,,false,UKOS,472645,172076,-0.95614,51.44303,BCT,MKD,OTH,,,,046,2006-02-01T00:00:00,2012-10-23T16:24:00,2,new,active
039025580002,rdgajtp,,,Church End Lane,,,,Church End Lane,,Norcot Road,,,,E-bound,,E,N0060313,Norcot,Tilehurst,,,,,,false,UKOS,467715,173798,-1.02674,51.45912,BCT,MKD,OTH,,,,046,2006-02-01T00:00:00,2013-06-10T15:20:00,2,new,active
039025580001,rdgajtm,,,Church End Lane,,,,Church End Lane,,Norcot Road,,,,W-bound,,W,N0060313,Norcot,Tilehurst,,,,,,false,UKOS,467658,173773,-1.02756,51.4589,BCT,MKD,OTH,,,,046,2006-02-01T00:00:00,2013-06-10T15:20:00,2,new,active
039025590001,rdgajtw,,,Church End Lane,,,,Opposite Meadway School,,Meadway,,,,adj,,E,N0071703,Meadway,Reading,,,,,,false,UKOS,467586,173159,-1.02872,51.45339,BCT,MKD,OTH,,,,046,2006-02-01T00:00:00,2011-06-02T12:40:00,1,new,active
039025590002,rdgajwa,,,Church End Lane,,,,opposite church,,Meadway,,,,opp,,W,N0071703,Meadway,Reading,,,,,,false,UKOS,467484,173130,-1.03019,51.45314,BCT,MKD,OTH,,,,046,2006-02-01T00:00:00,2011-06-02T12:40:00,1,new,active
039025600001,rdgajwd,,,Church Street,,,,Esso Garage,,Church Street,,,,E-bound,,E,E0041479,Caversham,Reading,,,,,,false,UKOS,471262,174808,-0.97549,51.46776,BCT,MKD,OTH,,,,046,2006-02-01T00:00:00,2012-12-05T15:13:00,1,new,active
039025600002,rdgajwg,,,Church Street,,,,Prospect Street,,Church Street,,,,W-bound,,W,E0041479,Caversham,Reading,,,,,,false,UKOS,471399,174778,-0.97353,51.46748,BCT,MKD,OTH,,,,046,2006-02-01T00:00:00,2012-12-05T15:13:00,1,new,active
039025620001,rdgajwp,,,Circuit Lane,,,,Circuit Lane,,A4 Bath Road,,,,E-bound,,NE,E0041491,Southcote,Reading,,,,,,false,UKOS,469082,172346,-1.00735,51.4459,BCT,MKD,OTH,,,,046,2006-02-01T00:00:00,2012-12-14T14:42:00,1,new,active
039025610002,rdgajwm,,,Circuit Lane,,,,Circuit Lane,,Southcote Lane,,,,Adj,,NE,E0041491,Southcote,Reading,,,,,,false,UKOS,469142,171993,-1.00656,51.44272,BCT,MKD,OTH,,,,046,2006-02-01T00:00:00,2013-04-23T15:41:00,2,new,active
039025610001,rdgajwj,,,Circuit Lane,,,,Circuit Lane,,Southcote Lane,,,,Opp,,SW,E0041491,Southcote,Reading,,,,,,false,UKOS,469046,171945,-1.00795,51.4423,BCT,MKD,OTH,,,,046,2006-02-01T00:00:00,2013-04-23T15:41:00,2,new,active
039025620002,rdgajwt,,,Circuit Lane,,,,Circuit Lane,,A4 Bath Road,,,,W-bound,,SW,E0041491,Southcote,Reading,,,,,,false,UKOS,469019,172327,-1.00826,51.44574,BCT,MKD,OTH,,,,046,2006-02-01T00:00:00,2012-12-14T14:42:00,1,new,active
039025610003,rdgdwpa,,,Circuit Lane,,,,Southcote Lane Surgery,,Circuit Lane,,,,adj 40,,N,E0041491,Southcote,Reading,,Reading,EN,Southcote,EN,false,UKOS,469086,172063,-1.00735,51.44335,BCT,MKD,OTH,,,,046,2010-08-18T00:00:00,2010-08-18T11:41:00,1,new,active
039025630003,rdgamaj,,,City Road,,,,Park Lane,,City Road,,,,adj 1,,W,E0041494,Tilehurst,Reading,,,,,,false,UKOS,466324,173181,-1.04687,51.45374,BCT,MKD,OTH,,,,046,2006-02-01T00:00:00,2011-05-25T18:30:00,1,new,active
039025630001,rdgamad,,,City Road,,,,,,Park Lane,,,,adj 105,,S,E0041494,Tilehurst,Reading,,,,,,false,UKOS,466386,173134,-1.04599,51.45331,BCT,MKD,OTH,,,,046,2006-02-01T00:00:00,2018-06-18T12:18:00,2,new,active
039025630002,rdgamag,,,City Road,,,,,,Park Lane,,,,adj 94,,N,E0041494,Tilehurst,Reading,,,,,,false,UKOS,466378,173221,-1.04609,51.45409,BCT,MKD,OTH,,,,046,2006-02-01T00:00:00,2018-06-18T12:19:00,2,new,active
039025640002,rdgamap,,,Cockney Hill,,,,Adjacent Broomsgrove House,,New Lane Hill,,,,opp,,N,E0041482,Horncastle,Reading,,,,,,false,UKOS,467486,172640,-1.03026,51.44873,BCT,MKD,OTH,,,,046,2006-02-01T00:00:00,2011-06-02T12:42:00,1,new,active
039025640001,rdgamam,,,Cockney Hill,,,,Cockney Hill,,New Lane Hill,,,,adj,,S,E0041482,Horncastle,Reading,,,,,,false,UKOS,467488,172727,-1.03021,51.44952,BCT,MKD,OTH,,,,046,2006-02-01T00:00:00,2011-06-02T12:42:00,1,new,active
039025650002,rdgamaw,,,Cold Store,,,,Scours Lane,,A329 Oxford Road,,,,Adj,,SE,N0060313,Norcot,Tilehurst,,,,,,false,UKOS,468477,174321,-1.01567,51.46373,BCT,MKD,OTH,,,,046,2006-02-01T00:00:00,2006-12-06T16:03:00,1,new,active
039025650001,rdgamat,,,Cold Store,,,,Norcot Road,,A329 Oxford Road,,,,adj 781,,NW,N0060313,Norcot,Tilehurst,,,,,,false,UKOS,468441,174336,-1.01619,51.46387,BCT,MKD,OTH,,,,046,2006-02-01T00:00:00,2011-06-02T12:43:00,1,new,active
039025660001,rdgamda,,,Coley Avenue,,,,Coley Avenue,,Berkeley Avenue,,,,adj,,E,E0041483,Coley,Reading,,,,,,false,UKOS,470719,172548,-0.98376,51.44751,BCT,MKD,OTH,,,,046,2006-02-01T00:00:00,2009-11-18T15:35:00,1,new,active
039025660002,rdgamdg,,,Coley Avenue,,,,Coley Avenue,,Berkeley Avenue,,,,opp,,W,E0041483,Coley,Reading,,,,,,false,UKOS,470720,172537,-0.98375,51.44741,BCT,MKD,OTH,,,,046,2006-02-01T00:00:00,2009-11-18T15:36:00,1,new,active
039025670002,rdgamdm,,,Coley Park House,,,,Community Centre,,Wensley Road,,,,adj,,NE,N0060299,Coley Park,Reading,,,,,,false,UKOS,470371,172132,-0.98885,51.44382,BCT,MKD,OTH,,,,046,2006-02-01T00:00:00,2022-02-10T10:22:23,10,new,active
039025670001,rdgamdj,,,Coley Park House,,,,Opposite 6 Lesford Road,,Lesford Road,,,,nr,,SE,N0060299,Coley Park,Reading,,,,,,false,UKOS,470376,172093,-0.98878,51.44347,BCT,MKD,OTH,,,,046,2006-02-01T00:00:00,2012-09-10T11:43:00,1,new,active
039025670003,rdgjatp,,,Coley Park House,,,,Community Centre,,Wensley Road,,,,opp,,W,N0060299,Coley Park,Reading,,Reading,EN,Coley Park,EN,false,UKOS,470327,172105,-0.98949,51.44358,BCT,MKD,OTH,,,,046,2012-09-10T00:00:00,2012-09-10T11:41:00,0,new,active
039025680001,rdgamdp,,,Coley Park Terminus,,,,,,Lesford Road,,,,E-bound,,E,N0060299,Coley Park,Reading,,,,,,false,UKOS,470170,171987,-0.99177,51.44254,BCT,MKD,OTH,,,,046,2006-02-01T00:00:00,2022-02-10T10:24:06,15,new,active
039025680002,rdgjgat,,,Coley Park Terminus,,,,,,,,,,,,W,N0060299,Coley Park,Reading,,,,,,false,UKOS,470131,171979,-0.99233,51.44247,BCT,MKD,OTH,,,,046,2024-06-26T00:00:00,2024-12-12T14:26:41,66,new,active
039025690001,rdgamdt,,,College Road,,,,College Road,,Wokingham Road,,,,adj,,NW,N0060306,Palmer Park,Reading,,,,,,false,UKOS,473504,173064,-0.94358,51.4518,BCT,MKD,OTH,,,,046,2006-02-01T00:00:00,2009-11-18T15:36:00,1,new,active
039025690002,rdgamdw,,,College Road,,,,St Bartholemews Road,,Wokingham Road,,,,opp,,SE,N0060306,Palmer Park,Reading,,,,,,false,UKOS,473607,173031,-0.94211,51.45149,BCT,MKD,OTH,,,,046,2006-02-01T00:00:00,2009-11-18T15:36:00,1,new,active
039025700001,rdgamga,,,Community Centre,,,,Adjacent South Reading Community Centre,,Northumberland Avenue,,,,adj,,N,E0041496,Whitley,Reading,,,,,,false,UKOS,472238,170822,-0.96226,51.43181,BCT,MKD,OTH,,,,046,2006-02-01T00:00:00,2011-06-02T12:43:00,1,new,active
039025700002,rdgamgd,,,Community Centre,,,,Opposite Whitley Health and Social Services Cent,,Northumberland Avenue,,,,opp,,S,E0041496,Whitley,Reading,,,,,,false,UKOS,472254,170769,-0.96204,51.43133,BCT,MKD,OTH,,,,046,2006-02-01T00:00:00,2011-06-02T12:44:00,1,new,active
039025710002,rdgamgm,,,Corbridge Road,,,,Newcastle Road,,Corbridge Road,,,,N-bound,,N,E0041496,Whitley,Reading,,,,,,false,UKOS,472402,171548,-0.95975,51.43831,BCT,MKD,OTH,,,,046,2006-02-01T00:00:00,2013-05-21T16:26:00,2,new,active
039025710001,rdgamgj,,,Corbridge Road,,,,Newcastle Road,,Corbridge Road,,,,S-bound,,S,E0041496,Whitley,Reading,,,,,,false,UKOS,472414,171545,-0.95958,51.43828,BCT,MKD,OTH,,,,046,2006-02-01T00:00:00,2013-05-21T16:26:00,2,new,active
039025720002,rdgamgt,,,Coronation Square,,,,Coronation Square,,Southcote Lane,,,,Adj,,E,E0041491,Southcote,Reading,,,,,,false,UKOS,468885,171860,-1.01028,51.44155,BCT,MKD,OTH,,,,046,2006-02-01T00:00:00,2012-12-05T15:15:00,1,new,active
039025720001,rdgamgp,,,Coronation Square,,,,Coronation Square,,Southcote Lane,,,,Opp,,W,E0041491,Southcote,Reading,,,,,,false,UKOS,468840,171843,-1.01093,51.44141,BCT,MKD,OTH,,,,046,2006-02-01T00:00:00,2012-12-05T15:15:00,1,new,active
039025730001,rdgamgw,,,Corwen Road,,,,Corwen Road,,Meadway,,,,adj,,E,E0041494,Tilehurst,Reading,,,,,,false,UKOS,467399,173118,-1.03142,51.45304,BCT,MKD,OTH,,,,046,2006-02-01T00:00:00,2012-10-23T16:46:00,1,new,active
039025730002,rdgamja,,,Corwen Road,,,,Corwen Road,,Meadway,,,,adj 299,,W,E0041494,Tilehurst,Reading,,,,,,false,UKOS,467351,173098,-1.03211,51.45287,BCT,MKD,OTH,,,,046,2006-02-01T00:00:00,2011-05-25T18:31:00,1,new,active
039025740002,rdgamjg,,,Courtenay Drive Top,,,,Peppard Road,,Courtenay Drive,,,,in,,E,E0041485,Emmer Green,Caversham,,,,,,false,UKOS,472146,177085,-0.9623,51.48812,BCT,MKD,OTH,,,,046,2006-02-01T00:00:00,2011-06-02T12:16:00,2,new,active
039025740001,rdgamjd,,,Courtenay Drive Top,,,,Red Phone Box,,Courtenay Drive,,,,adj 1,,W,E0041485,Emmer Green,Caversham,,,,,,false,UKOS,472127,177077,-0.96258,51.48805,BCT,MKD,OTH,,,,046,2006-02-01T00:00:00,2011-06-02T12:16:00,1,new,active
039025750002,rdgamjp,,,Cranbury Road,,,,,,Tilehurst Road,,,,opp,,W,N0071699,Tilehurst Road,Reading,,,,,,false,UKOS,469714,173012,-0.99813,51.45181,BCT,MKD,OTH,,,,046,2006-02-01T00:00:00,2018-06-19T11:31:00,2,new,active
039025750001,rdgamjm,,,Cranbury Road,,,,,,Tilehurst Road,,,,opp 65,,E,N0071699,Tilehurst Road,Reading,,,,,,false,UKOS,469758,173030,-0.99749,51.45197,BCT,MKD,OTH,,,,046,2006-02-01T00:00:00,2018-06-19T11:31:00,2,new,active
039025760004,rdgampd,,,Craven Road,,,,Reading School Entrance,,Erleigh Road,,,,opp 1A,,NW,N0060310,Royal Berkshire Hospital,Reading,,,,,,false,UKOS,472577,172937,-0.95695,51.45078,BCT,MKD,OTH,,,,046,2006-02-01T00:00:00,2014-04-22T15:31:00,3,new,active
039025760003,rdgampa,,,RBH Main Entrance,,,,Adjacent Royal Berks Hospital Main Entrance,,Craven Road,,,,adj,,N,N0060310,Royal Berkshire Hospital,Reading,,,,,,false,UKOS,472565,172821,-0.95714,51.44973,BCT,MKD,OTH,,,,046,2006-02-01T00:00:00,2010-06-17T14:08:00,2,new,active
039025760002,rdgamjw,,,RBH Main Entrance,,,,Erleigh Road,,Craven Road,,,,opp,,S,N0060310,Royal Berkshire Hospital,Reading,,,,,,false,UKOS,472551,172897,-0.95733,51.45042,BCT,MKD,OTH,,,,046,2006-02-01T00:00:00,2010-06-17T14:08:00,2,new,active
039025770002,rdgampj,,,Crawshay Drive,,,,Sub Station,,Courtenay Drive,,,,adj,,E,E0041485,Emmer Green,Caversham,,,,,,false,UKOS,471874,177070,-0.96622,51.48802,BCT,MKD,OTH,,,,046,2006-02-01T00:00:00,2011-06-02T12:46:00,1,new,active
039025770001,rdgampg,,,Crawshay Drive,,,,Opposite Sub Station D06,,Courtenay Drive,,,,opp,,W,E0041485,Emmer Green,Caversham,,,,,,false,UKOS,471856,177056,-0.96648,51.4879,BCT,MKD,OTH,,,,046,2006-02-01T00:00:00,2011-06-02T12:46:00,1,new,active
039025780001,rdgampm,,,Crescent Road,,,,Beverley Road,,Westwood Road,,,,adj 69,,S,E0041494,Tilehurst,Reading,,,,,,false,UKOS,466618,174040,-1.04248,51.46142,BCT,MKD,OTH,,,,046,2006-02-01T00:00:00,2018-11-26T17:37:00,2,new,active
039025780002,rdgampt,,,Crescent Road,,,,Crescent Road,,Westwood Road,,,,adj 89,,NW,E0041494,Tilehurst,Reading,,,,,,false,UKOS,466582,174147,-1.04298,51.46239,BCT,MKD,OTH,,,,046,2006-02-01T00:00:00,2019-01-28T16:44:00,2,new,active
039025790003,rdgamtd,,,Cressingham Road Church,,,,Northcourt Avenue,,Cressingham Road,,,,adj,,E,E0041496,Whitley,Reading,,,,,,false,UKOS,473140,171037,-0.94924,51.43362,BCT,MKD,OTH,,,,046,2006-02-01T00:00:00,2012-01-26T15:39:00,1,new,active
039025790001,rdgampw,,,Cressingham Road Church,,,,Cressingham Road,,Shinfield Road,,,,N-bound,,NW,E0041496,Whitley,Reading,,,,,,false,UKOS,473180,171100,-0.94865,51.43418,BCT,MKD,OTH,,,,046,2006-02-01T00:00:00,2013-04-23T15:46:00,2,new,active
039025790002,rdgamta,,,Cressingham Road Church,,,,Tyndale Baptist Church 70m Opposite,,Shinfield Road,,,,opp,,SE,E0041496,Whitley,Reading,,,,,,false,UKOS,473189,171106,-0.94852,51.43424,BCT,MKD,OTH,,,,046,2006-02-01T00:00:00,2012-01-26T15:38:00,1,new,active
039025790004,rdgamtg,,,Cressingham Road Church,,,,Sycamore Road,,Cressingham Road,,,,Opp,,W,E0041496,Whitley,Reading,,,,,,false,UKOS,473164,171037,-0.94889,51.43362,BCT,MKD,OTH,,,,046,2006-02-01T00:00:00,2012-10-23T16:46:00,1,new,active
039025800002,rdgamtm,,,Cromer Close,,,,Cromer Close,,Westwood Glen,,,,Opp,,SW,E0041494,Tilehurst,Reading,,,,,,false,UKOS,466095,174006,-1.05001,51.46118,BCT,MKD,OTH,,,,046,2006-02-01T00:00:00,2006-12-06T16:06:00,1,new,active
039025800001,rdgamtj,,,Cromer Close,,,,Cromer Close,,Westwood Glen,,,,Adj,,NE,E0041494,Tilehurst,Reading,,,,,,false,UKOS,466084,174008,-1.05017,51.4612,BCT,MKD,OTH,,,,046,2006-02-01T00:00:00,2006-12-06T16:05:00,2,new,active
039025810001,rdgamtp,,,Pell Street,,,,Sherman Road,,Pell Street,,,,On,,SW,N0071708,Katesgrove,Reading,,,,,,false,UKOS,471650,172798,-0.97031,51.44964,BCT,MKD,OTH,,,,046,2006-02-01T00:00:00,2012-11-16T11:10:00,4,new,active
039025810002,rdgamtw,,,Crown Street,,,,Pell Street,,Southampton Street,,,,N-bound,,N,N0071708,Katesgrove,Reading,,,,,,false,UKOS,471645,172875,-0.97037,51.45034,BCT,MKD,OTH,,,,046,2006-02-01T00:00:00,2012-12-14T14:53:00,2,new,active
039025810003,rdgamwa,,,Crown Street,,,,Crown Street,,London Street,,,,adj,,N,N0071708,Katesgrove,Reading,,,,,,false,UKOS,471848,172944,-0.96743,51.45093,BCT,MKD,OTH,,,,046,2006-02-01T00:00:00,2012-11-16T11:10:00,2,new,active
039025810004,rdgamwd,,,Crown Street,,,,Crown Street,,London Street,,,,S-bound,,S,N0071708,Katesgrove,Reading,,,,,,false,UKOS,471855,172953,-0.96733,51.45101,BCT,MKD,OTH,,,,046,2006-02-01T00:00:00,2013-04-23T15:34:00,3,new,active
039025830003,rdgamwp,,,Dee Road Fire Station,,,,Eldart Close,,Spey Road,,,,Adj,,NW,N0071704,Dee Road Estate,Reading,,,,,,false,UKOS,468535,173396,-1.01502,51.45541,BCT,MKD,OTH,,,,046,2006-02-01T00:00:00,2024-11-04T18:55:32,1,new,active
039025830004,rdgamwt,,,Dee Road Fire Station,,,,Lyon Square,,Spey Road,,,,Opp,,SE,N0071704,Dee Road Estate,Reading,,,,,,false,UKOS,468530,173408,-1.01509,51.45551,BCT,MKD,OTH,,,,046,2006-02-01T00:00:00,2012-12-14T14:54:00,1,new,active
039025830001,rdgamwj,,,Dee Road Fire Station,,,,Upton Road,,Dee Road,,,,opp 122,,NE,N0071704,Dee Road Estate,Reading,,,,,,false,UKOS,468488,173243,-1.01572,51.45404,BCT,MKD,OTH,,,,046,2006-02-01T00:00:00,2024-11-04T19:25:00,32,delete,inactive
039025830002,rdgamwm,,,Dee Road Fire Station,,,,Amblecote Road,,Dee Road,,,,adj 130,,SW,N0071704,Dee Road Estate,Reading,,,,,,false,UKOS,468527,173265,-1.01516,51.45423,BCT,MKD,OTH,,,,046,2006-02-01T00:00:00,2011-05-25T18:32:00,1,new,active
039025840002,rdgapag,,,Usk Road,,,,Usk Road,,Meadway,,,,adj,,NW,N0071703,Meadway,Reading,,,,,,false,UKOS,467983,172910,-1.02305,51.4511,BCT,MKD,OTH,,,,046,2006-02-01T00:00:00,2009-03-20T10:32:00,3,new,active
039025840001,rdgapad,,,Usk Road,,,,Dee Road,,Meadway,,,,opp,,SE,N0071703,Meadway,Reading,,,,,,false,UKOS,467968,172939,-1.02326,51.45136,BCT,MKD,OTH,,,,046,2006-02-01T00:00:00,2009-03-20T10:32:00,3,new,active
039025840003,rdgapaj,,,Dee Road Top,,,,Elan Close,,Dee Road,,,,adj 15,,NE,N0071703,Meadway,Reading,,,,,,false,UKOS,467969,173012,-1.02323,51.45202,BCT,MKD,OTH,,,,046,2006-02-01T00:00:00,2011-05-25T18:33:00,3,new,active
039025840004,rdgapam,,,Dee Road Top,,,,Adjacent Meadway Parade,,Meadway,,,,adj 175,,NW,N0071703,Meadway,Reading,,,,,,false,UKOS,467871,173010,-1.02465,51.45201,BCT,MKD,OTH,,,,046,2006-02-01T00:00:00,2011-05-25T18:33:00,3,new,active
039025850001,rdgapap,,,Denmark Road,,,,Alexandra Road,,Erleigh Road,,,,adj,,E,N0071701,Erleigh Road,Reading,,,,,,false,UKOS,472843,172854,-0.95314,51.45,BCT,MKD,OTH,,,,046,2006-02-01T00:00:00,2009-11-18T15:36:00,2,new,active
039025850002,rdgapat,,,Denmark Road,,,,Adjacent 14 Erleigh Road,,Erleigh Road,,,,opp,,W,N0071701,Erleigh Road,Reading,,,,,,false,UKOS,472824,172848,-0.95341,51.44994,BCT,MKD,OTH,,,,046,2006-02-01T00:00:00,2009-11-18T15:37:00,2,new,active
039025860002,rdgapda,,,Derwent Avenue,,,,Derwent Avenue,,Kentwood Hill,,,,opp 165,,SW,N0060314,Kentwood,Tilehurst,,,,,,false,UKOS,467378,174646,-1.03143,51.46678,BCT,MKD,OTH,,,,046,2006-02-01T00:00:00,2011-05-25T18:34:00,1,new,active
039025860001,rdgapaw,,,Derwent Avenue,,,,Derwent Avenue,,Kentwood Hill,,,,adj 177,,NE,N0060314,Kentwood,Tilehurst,,,,,,false,UKOS,467388,174707,-1.03127,51.46733,BCT,MKD,OTH,,,,046,2006-02-01T00:00:00,2011-05-25T18:33:00,1,new,active
039025890001,rdgapdm,,,Downshire Square,,,,Adjacent Florida Court,,Bath Road,,,,adj,,NE,N0071705,Castle Hill - Bath Road,Reading,,,,,,false,UKOS,470408,172783,-0.98819,51.44966,BCT,MKD,OTH,,,,046,2006-02-01T00:00:00,2012-01-26T15:42:00,1,new,active
039025890002,rdgapdp,,,Downshire Square,,,,Adjacent Caroline Court,,Bath Road,,,,opp,,SW,N0071705,Castle Hill - Bath Road,Reading,,,,,,false,UKOS,470428,172775,-0.9879,51.44959,BCT,MKD,OTH,,,,046,2006-02-01T00:00:00,2012-01-26T15:41:00,1,new,active
039025910001,rdgapdw,,,Dryland House,,,,Coombe Road,,Meadway,,,,opp 195,,SE,N0071703,Meadway,Reading,,,,,,false,UKOS,467805,173077,-1.02558,51.45263,BCT,MKD,OTH,,,,046,2006-02-01T00:00:00,2011-05-25T18:35:00,1,new,active
039025910002,rdgapga,,,Dryland House,,,,Dee Road,,Meadway,,,,adj 199,,NW,N0071703,Meadway,Reading,,,,,,false,UKOS,467790,173077,-1.0258,51.45263,BCT,MKD,OTH,,,,046,2006-02-01T00:00:00,2011-05-25T18:35:00,1,new,active
039025920002,rdgapgj,,,Kings Road,,,,High Street,,Kings Road,,,,Stop ME,,E,E0055119,Reading Town Centre,Reading,,Reading,EN,,,false,UKOS,471780,173395,-0.96832,51.45499,BCT,MKD,OTH,,,,046,2006-02-01T00:00:00,2024-07-29T17:15:01,2,new,active
039025920003,rdgapgm,,,Kings Road,,,,Abbey Square,,Kings Road,,,,Stop MF,,E,E0055119,Reading Town Centre,Reading,,Reading,EN,,,false,UKOS,471809,173390,-0.96791,51.45495,BCT,MKD,OTH,,,,046,2006-02-01T00:00:00,2024-07-29T17:16:29,2,new,active
039025920004,rdgapgp,,,Kings Road,,,,Highbridge Wharf,,Kings Road,,,,Stop MG,,W,E0055119,Reading Town Centre,Reading,,Reading,EN,,,false,UKOS,471802,173381,-0.96801,51.45487,BCT,MKD,OTH,,,,046,2006-02-01T00:00:00,2014-06-09T11:23:00,2,new,active
039025920001,rdgapgd,,,Kings Road,,,,Thorn Lane,,Duke Street,,,,Stop MH,,NW,E0055119,Reading Town Centre,Reading,,Reading,EN,,,false,UKOS,471748,173329,-0.9688,51.45441,BCT,MKD,OTH,,,,046,2006-02-01T00:00:00,2014-06-09T11:22:00,2,new,active
039025920005,rdgapgt,,,King Street,,,,Adjacent Mothercare,,King Street,,,,Stop MK,,W,E0055119,Reading Town Centre,Reading,,Reading,EN,,,false,UKOS,471673,173393,-0.96986,51.45499,BCT,MKD,OTH,,,,046,2006-02-01T00:00:00,2014-06-10T15:00:00,3,new,active
039025940001,rdgapja,,,Dwyer Road,,,,Adjacent Dwyer Road,,Burghfield Road,,,,Adj,,N,E0041491,Southcote,Reading,,,,,,false,UKOS,468291,171828,-1.01883,51.44134,BCT,MKD,OTH,,,,046,2006-02-01T00:00:00,2006-12-06T16:06:00,2,new,active
039025940002,rdgapjd,,,Dwyer Road,,,,50m Ainsdle Cresent,,Burghfield Road,,,,Opp,,S,E0041491,Southcote,Reading,,,,,,false,UKOS,468303,171825,-1.01866,51.44131,BCT,MKD,OTH,,,,046,2006-02-01T00:00:00,2006-12-06T16:06:00,2,new,active
039025950001,rdgapjg,,,Dwyer Road Boundary,,,,Opposite No 30 Dwyer Road,,Dwyer Road,,,,opp 30,,NW,E0041491,Southcote,Reading,,,,,,false,UKOS,468097,171883,-1.02161,51.44186,BCT,MKD,OTH,,,,046,2006-02-01T00:00:00,2011-05-25T18:35:00,2,new,active
039025950002,rdgapjm,,,Dwyer Road Boundary,,,,Appleford Road,,Dwyer Road,,,,Adj 42,,SE,E0041491,Southcote,Reading,,,,,,false,UKOS,468061,171906,-1.02212,51.44207,BCT,MKD,OTH,,,,046,2006-02-01T00:00:00,2012-12-14T14:56:00,2,new,active
039025960002,rdgapjt,,,Earlsfield Close,,,,opposite Dacre Avenue,,Lowfield Road,,,,opp,,NW,E0041481,Caversham Park Village,Caversham,,,,,,false,UKOS,473291,175828,-0.94608,51.47667,BCT,MKD,OTH,,,,046,2006-02-01T00:00:00,2012-07-20T12:10:00,1,new,active
039025960001,rdgapjp,,,Earlsfield Close,,,,Earlsfield Close,,Lowfield Road,,,,opp 6b,,SE,E0041481,Caversham Park Village,Caversham,,,,,,false,UKOS,473292,175855,-0.94606,51.47692,BCT,MKD,OTH,,,,046,2006-02-01T00:00:00,2011-05-25T18:36:00,1,new,active
039025970002,rdgapma,,,Eastern Avenue,,,,Eastern Avenue,,Upper Redlands Road,,,,adj,,NE,E0041484,Whiteknights,Reading,,,,,,false,UKOS,473419,172459,-0.94493,51.44637,BCT,MKD,OTH,,,,046,2006-02-01T00:00:00,2012-01-26T15:43:00,1,new,active
039025970001,rdgapjw,,,Eastern Avenue,,,,Eastern Avenue,,Upper Redlands Road,,,,nr,,SW,E0041484,Whiteknights,Reading,,,,,,false,UKOS,473403,172442,-0.94516,51.44622,BCT,MKD,OTH,,,,046,2006-02-01T00:00:00,2012-01-26T15:43:00,1,new,active
039025980002,rdgapmg,,,Eldon Road,,,,Kings Court,,Kings Road,,,,opp,,E,N0071726,Reading,,,,,,,false,UKOS,472551,173279,-0.95725,51.45385,BCT,MKD,OTH,,,,046,2006-02-01T00:00:00,2012-07-19T15:00:00,3,new,active
039025980001,rdgapmd,,,Eldon Road,,,,St Johns Hill,,Queens Road,,,,W-bound,,W,N0071726,Reading,,,,,,,false,UKOS,472359,173278,-0.96001,51.45387,BCT,MKD,OTH,,,,046,2006-02-01T00:00:00,2013-04-23T15:38:00,6,new,active
039028010001,rdgdwga,,,Eldon Road,,,,Eldon Road Junction,,Kings Road,,,,adj,,W,N0071726,Reading,,,Reading,EN,,,false,UKOS,472500,173266,-0.95799,51.45374,BCT,MKD,OTH,,,,046,2007-02-01T00:00:00,2012-07-19T14:58:00,3,new,active
039025980003,rdgapmj,,,Eldon Road,,,,Eldon Terrace,,Eldon Road,,,,adj 11,,S,N0071726,Reading,,,,,,,false,UKOS,472454,173211,-0.95866,51.45325,BCT,MKD,OTH,,,,046,2006-02-01T00:00:00,2023-07-31T15:20:17,3,new,active
039025990001,rdgapmp,,,Elgar Road,,,,Adjacent Rowley Road,,Basingstoke Road,,,,adj,,NE,E0041496,Whitley,Reading,,,,,,false,UKOS,471869,171713,-0.96738,51.43986,BCT,MKD,OTH,,,,046,2006-02-01T00:00:00,2013-05-29T16:31:00,4,new,active
039025990002,rdgapmt,,,Elgar Road,,,,Surrey Road,,Basingstoke Road,,,,opp,,SW,E0041496,Whitley,Reading,,,,,,false,UKOS,471910,171744,-0.96679,51.44014,BCT,MKD,OTH,,,,046,2006-02-01T00:00:00,2013-05-29T16:31:00,4,new,active
039026010001,rdgapta,,,Engineers Court,,,,Whitley Wood Lane,,Whitley Wood Road,,,,opp,,NE,N0060300,Whitley Wood,Reading,,,,,,false,UKOS,472187,169197,-0.96332,51.4172,BCT,MKD,OTH,,,,046,2006-02-01T00:00:00,2014-06-04T13:56:00,2,new,active
039026010002,rdgaptd,,,Engineers Court,,,,Forest Dean,,Whitley Wood Lane,,,,adj,,SE,N0060300,Whitley Wood,Reading,,,,,,false,UKOS,472191,169108,-0.96328,51.4164,BCT,MKD,OTH,,,,046,2006-02-01T00:00:00,2014-06-04T13:57:00,2,new,active
039026010003,rdgaptg,,,Engineers Court,,,,Swallowfield Drive,,Whitley Wood Road,,,,SW-bound,,SW,N0060300,Whitley Wood,Reading,,,,,,false,UKOS,472074,169106,-0.96496,51.4164,BCT,MKD,OTH,,,,046,2006-02-01T00:00:00,2014-06-04T13:55:00,2,new,active
039026010004,rdgaptj,,,Engineers Court,,,,Whitley Wood Road,,Whitley Wood Lane,,,,adj 134,,NW,N0060300,Whitley Wood,Reading,,,,,,false,UKOS,472116,169181,-0.96434,51.41707,BCT,MKD,OTH,,,,046,2006-02-01T00:00:00,2014-06-04T13:58:00,2,new,active
039026030002,rdgapwa,,,Fawley Road,,,,Fawley Road,,Southcote Lane,,,,opp 109,,NE,E0041491,Southcote,Reading,,,,,,false,UKOS,469301,172074,-1.00425,51.44343,BCT,MKD,OTH,,,,046,2006-02-01T00:00:00,2011-05-25T18:36:00,1,new,active
039026030001,rdgaptw,,,Fawley Road,,,,Fawley Road,,Southcote Lane,,,,opp,,SW,E0041491,Southcote,Reading,,,,,,false,UKOS,469257,172039,-1.00489,51.44312,BCT,MKD,OTH,,,,046,2006-02-01T00:00:00,2020-10-05T15:28:08,8,new,active
039026060002,rdgapwm,,,Forge Close,,,,Star Road,,Gosbrook Road,,,,opp,,E,N0060318,Lower Caversham,Caversham,,,,,,false,UKOS,472427,174551,-0.95877,51.4653,BCT,MKD,OTH,,,,046,2006-02-01T00:00:00,2012-02-01T16:25:00,2,new,active
039026060001,rdgapwj,,,Forge Close,,,,Corner Star Road,,Gosbrook Road,,,,adj,,W,N0060318,Lower Caversham,Caversham,,,,,,false,UKOS,472441,174541,-0.95858,51.46521,BCT,MKD,OTH,,,,046,2006-02-01T00:00:00,2012-02-01T16:25:00,1,new,active
039026070002,rdgapwt,,,Long Barn Lane,,,,Adjacent 228 Basingstoke Road,,Basingstoke Road,,,,opp,,N,E0041496,Whitley,Reading,,,,,,false,UKOS,471825,171392,-0.96808,51.43698,BCT,MKD,OTH,,,,046,2006-02-01T00:00:00,2015-05-06T15:10:00,4,new,active
039026070001,rdgapwp,,,Long Barn Lane,,,,Long Barn Lane,,Basingstoke Road,,,,adj,,S,E0041496,Whitley,Reading,,,,,,false,UKOS,471835,171348,-0.96794,51.43659,BCT,MKD,OTH,,,,046,2006-02-01T00:00:00,2015-05-06T15:10:00,6,new,active
039026080002,rdgatag,,,Foxhill Road,,,,Hatherley Road,,Addington Road,,,,Opp,,NE,N0071701,Erleigh Road,Reading,,,,,,false,UKOS,473166,172698,-0.94852,51.44855,BCT,MKD,OTH,,,,046,2006-02-01T00:00:00,2006-12-06T16:08:00,1,new,active
039026080001,rdgatad,,,Foxhill Road,,,,Foxhill Road,,Addington Road,,,,adj,,SW,N0071701,Erleigh Road,Reading,,,,,,false,UKOS,473186,172695,-0.94823,51.44852,BCT,MKD,OTH,,,,046,2006-02-01T00:00:00,2008-03-13T13:38:00,1,new,active
039026090002,rdgatam,,,Fraser Avenue,,,,Tennis club,,Caversham Park Road,,,,opp,,E,E0041481,Caversham Park Village,Caversham,,,,,,false,UKOS,472481,176794,-0.95754,51.48546,BCT,MKD,OTH,,,,046,2006-02-01T00:00:00,2012-02-01T16:24:00,2,new,active
039026090001,rdgataj,,,Fraser Avenue,,,,opposite Clays Copse,,Caversham Park Road,,,,adj,,W,E0041481,Caversham Park Village,Caversham,,,,,,false,UKOS,472505,176766,-0.9572,51.48521,BCT,MKD,OTH,,,,046,2006-02-01T00:00:00,2012-02-01T16:25:00,1,new,active
039028170001,rdgjajt,,,Friar Street,,,,Adjacent Cross Street,,Friar Street,,,,stop FC,,W,E0055119,Reading Town Centre,Reading,,Reading,EN,,,false,UKOS,471592,173576,-0.97099,51.45665,BCT,MKD,OTH,,,,046,2011-02-08T00:00:00,2011-03-04T14:50:00,1,new,active
039028170002,rdgjajw,,,Friar Street,,,,opposite Harris Arcade,,Friar Street,,,,stop FD,,W,E0055119,Reading Town Centre,Reading,,Reading,EN,,,false,UKOS,471549,173581,-0.97161,51.4567,BCT,MKD,OTH,,,,046,2011-02-08T00:00:00,2011-03-04T14:50:00,1,new,active
039028170003,rdgjama,,,Friar Street,,,,opposite Pitcher and Piano,,Friar Street,,,,stop FE,,W,E0055119,Reading Town Centre,Reading,,Reading,EN,,,false,UKOS,471530,173583,-0.97188,51.45672,BCT,MKD,OTH,,,,046,2011-02-08T00:00:00,2011-03-04T14:50:00,1,new,active
039026100013,rdgdwtj,,,Friar Street,,,,opposite Hope Tap,,Friar Street,,,,stop FF,,E,E0055119,Reading Town Centre,Reading,,Reading,EN,,,false,UKOS,471281,173572,-0.97547,51.45665,BCT,MKD,OTH,,,,046,2011-02-08T00:00:00,2011-03-04T14:50:00,1,new,active
039026100002,rdgataw,,,Friar Street,,,,Adjacent Sainsbury's,,Friar Street,,,,stop FH,,E,E0055119,Reading Town Centre,Reading,,Reading,EN,,,false,UKOS,471299,173574,-0.97521,51.45666,BCT,MKD,OTH,,,,046,2006-02-01T00:00:00,2011-02-05T12:02:00,4,new,active
039026100003,rdgatda,,,Friar Street,,,,Adjacent Sainsbury's,,Friar Street,,,,stop FJ,,E,E0055119,Reading Town Centre,Reading,,Reading,EN,,,false,UKOS,471320,173577,-0.9749,51.45669,BCT,MKD,OTH,,,,046,2006-02-01T00:00:00,2011-02-08T09:20:00,4,new,active
039026100004,rdgatdg,,,Friar Street,,,,nr Sainsbury's,,Friar Street,,,,stop FL,,E,E0055119,Reading Town Centre,Reading,,Reading,EN,,,false,UKOS,471344,173580,-0.97456,51.45671,BCT,MKD,OTH,,,,046,2006-02-01T00:00:00,2011-02-08T09:21:00,5,new,active
039026100005,rdgdwpt,,,Friar Street,,,,nr Merchants Place,,Friar Street,,,,stop FM,,E,E0055119,Reading Town Centre,Reading,,Reading,EN,,,false,UKOS,471407,173588,-0.97365,51.45678,BCT,MKD,OTH,,,,046,2006-02-01T00:00:00,2011-03-04T14:50:00,6,new,active
039026100006,rdgatdj,,,Friar Street,,,,Merchants Place,,Friar Street,,,,stop FN,,E,E0055119,Reading Town Centre,Reading,,,,,,false,UKOS,471478,173592,-0.97263,51.4568,BCT,MKD,OTH,,,,046,2006-02-01T00:00:00,2011-08-01T12:44:00,5,new,active
039028170004,rdgjamd,,,Friar Street,,,,opposite Novotel Hotel,,Friar Street,,,,stop FP,,W,E0055119,Reading Town Centre,Reading,,Reading,EN,,,false,UKOS,471455,173582,-0.97296,51.45672,BCT,MKD,OTH,,,,046,2011-02-08T00:00:00,2011-03-04T14:50:00,1,new,active
039026110001,rdgatga,,,Frilsham Road,,,,,,Southcote Lane,,,,adj 255,,NW,E0041491,Southcote,Reading,,,,,,false,UKOS,468606,171918,-1.01428,51.44211,BCT,MKD,OTH,,,,046,2006-02-01T00:00:00,2018-06-18T15:13:00,2,new,active
039026110002,rdgatgd,,,Frilsham Road,,,,,,Southcote Lane,,,,adj 260,,SE,E0041491,Southcote,Reading,,,,,,false,UKOS,468639,171890,-1.01381,51.44185,BCT,MKD,OTH,,,,046,2006-02-01T00:00:00,2018-06-18T15:13:00,2,new,active
039026120002,rdgatgm,,,Galsworthy Drive,,,,Galsworthy Drive,,Lowfield Road,,,,opp,,NW,E0041481,Caversham Park Village,Caversham,,,,,,false,UKOS,472946,176071,-0.95099,51.4789,BCT,MKD,OTH,,,,046,2006-02-01T00:00:00,2011-07-18T13:20:00,1,new,active
039026120001,rdgatgj,,,Galsworthy Drive,,,,Galsworthy Drive,,Lowfield Road,,,,adj,,SE,E0041481,Caversham Park Village,Caversham,,,,,,false,UKOS,472978,176049,-0.95054,51.4787,BCT,MKD,OTH,,,,046,2006-02-01T00:00:00,2011-07-18T13:20:00,1,new,active
039026130002,rdgatgt,,,George Street,,,,George Street,,Oxford Road,,,,adj,,E,E0057227,Reading West,Reading,,,,,,false,UKOS,470571,173428,-0.98571,51.45544,BCT,MKD,OTH,,,,046,2006-02-01T00:00:00,2012-02-01T16:23:00,2,new,active
039026130001,rdgatgp,,,George Street,,,,opposite Oxford Road Primary School,,Oxford Road,,,,opp,,W,E0057227,Reading West,Reading,,,,,,false,UKOS,470487,173428,-0.98692,51.45545,BCT,MKD,OTH,,,,046,2006-02-01T00:00:00,2012-02-01T16:24:00,1,new,active
039026140001,rdgatgw,,,Gratton Road,,,,Adjacent Durham Close,,Northumberland Avenue,,,,opp,,N,N0060300,Whitley Wood,Reading,,,,,,false,UKOS,472440,169789,-0.95956,51.42249,BCT,MKD,OTH,,,,046,2006-02-01T00:00:00,2011-07-18T13:21:00,1,new,active
039026140002,rdgatja,,,Gratton Road,,,,Gratton Road,,Northumberland Avenue,,,,adj,,S,N0060300,Whitley Wood,Reading,,,,,,false,UKOS,472463,169688,-0.95925,51.42158,BCT,MKD,OTH,,,,046,2006-02-01T00:00:00,2011-07-18T13:21:00,3,new,active
039026150001,rdgatjd,,,100 Brook Drive,,,,Adjacent 100 Brook Drive,,Brook Drive,,,,Adj,,N,N0071710,GreenPark,Reading,,,,,,false,UKOS,470709,170099,-0.98439,51.4255,BCT,MKD,OTH,,,,046,2006-02-01T00:00:00,2009-01-28T14:30:00,2,new,active
039026150002,rdgatjg,,,100 Brook Drive,,,,Opposite 100 Brook Drive,,Brook Drive,,,,opp,,SW,N0071710,GreenPark,Reading,,,,,,false,UKOS,470686,170064,-0.98473,51.42519,BCT,MKD,OTH,,,,046,2006-02-01T00:00:00,2018-11-27T15:49:00,4,new,active
039026160002,rdgatjp,,,100 Longwater Avenue,,,,Opposite 100 Longwater Avenue,,Longwater Avenue,,,,Opp,,E,N0071710,GreenPark,Reading,,,,,,false,UKOS,470444,170298,-0.98816,51.42732,BCT,MKD,OTH,,,,046,2006-02-01T00:00:00,2009-01-28T14:30:00,2,new,active
039026160001,rdgatjm,,,100 Longwater Avenue,,,,Adjacent 100 Longwater Avenue,,Longwater Avenue,,,,Adj,,W,N0071710,GreenPark,Reading,,,,,,false,UKOS,470416,170278,-0.98857,51.42714,BCT,MKD,OTH,,,,046,2006-02-01T00:00:00,2009-01-28T14:30:00,1,new,active
039026170002,rdgatjw,,,300 Longwater Avenue,,,,Opposite 300 Longwater Avenue,,Longwater Avenue,,,,opp,,NE,N0071710,GreenPark,Reading,,,,,,false,UKOS,470036,170119,-0.99406,51.42576,BCT,MKD,OTH,,,,046,2006-02-01T00:00:00,2023-11-06T15:46:58,34,new,active
039026170001,rdgatjt,,,300 Longwater Avenue,,,,Adjacent 300 Longwater Avenue,,Longwater Avenue,,,,Adj,,SW,N0071710,GreenPark,Reading,,,,,,false,UKOS,470019,170088,-0.99431,51.42548,BCT,MKD,OTH,,,,046,2006-02-01T00:00:00,2009-01-28T14:30:00,2,new,active
039026180002,rdgatmd,,,250 Brook Drive,,,,Adjacent 250 Brook Drive,,Brook Drive,,,,adj,,N,N0071710,GreenPark,Reading,,,,,,false,UKOS,470460,169900,-0.98801,51.42374,BCT,MKD,OTH,,,,046,2006-02-01T00:00:00,2019-08-08T11:11:00,2,new,active
039026180001,rdgatma,,,250 Brook Drive,,,,Opposite 250 Brook Drive,,Brook Drive,,,,opp,,S,N0071710,GreenPark,Reading,,,,,,false,UKOS,470446,169867,-0.98822,51.42344,BCT,MKD,OTH,,,,046,2006-02-01T00:00:00,2019-08-08T11:10:00,2,new,active
039026190001,rdgatmg,,,350 Brook Drive,,,,Adjacent 350 Brook Drive,,Brook Drive,,,,adj,,N,N0071710,GreenPark,Reading,,,,,,false,UKOS,470302,169732,-0.99032,51.42225,BCT,MKD,OTH,,,,046,2006-02-01T00:00:00,2019-08-08T11:12:00,3,new,active
039026190002,rdgatmj,,,350 Brook Drive,,,,Opposite 350 Brook Drive,,Brook Drive,,,,opp,,S,N0071710,GreenPark,Reading,,,,,,false,UKOS,470283,169688,-0.9906,51.42186,BCT,MKD,OTH,,,,046,2006-02-01T00:00:00,2019-08-08T11:13:00,2,new,active
039026200001,rdgatmp,,,Grove Hill,,,,Hemdean Road - vets surgery,,Oakley Road,,,,opp,,SW,E0041479,Caversham,Reading,,,,,,false,UKOS,471211,175707,-0.97604,51.47585,BCT,MKD,OTH,,,,046,2006-02-01T00:00:00,2019-01-28T13:28:00,3,new,active
039026200002,rdgatmt,,,Grove Hill,,,,Rotherfield Way,,Hemdean Road,,,,opp 298,,SE,E0041479,Caversham,Reading,,,,,,false,UKOS,471288,175701,-0.97494,51.47579,BCT,MKD,OTH,,,,046,2006-02-01T00:00:00,2011-05-25T18:38:00,1,new,active
039026200003,rdgatmw,,,Grove Hill,,,,Hemdean Road,,Grove Hill,,,,adj 5,,NE,E0041479,Caversham,Reading,,,,,,false,UKOS,471279,175751,-0.97506,51.47624,BCT,MKD,OTH,,,,046,2006-02-01T00:00:00,2011-05-25T18:37:00,1,new,active
039026220002,rdgatpj,,,Gurney Close,,,,Adjacent Mapledurham Playing Fields,,Upper Woodcote Road,,,,opp,,NW,E0041480,Caversham Heights,Caversham,,,,,,false,UKOS,469883,175919,-0.99512,51.47792,BCT,MKD,OTH,,,,046,2006-02-01T00:00:00,2011-07-18T13:23:00,1,new,active
039026220001,rdgatpg,,,Gurney Close,,,,Opposite Mapledurham Playing Fields,,Upper Woodcote Road,,,,adj,,SE,E0041480,Caversham Heights,Caversham,,,,,,false,UKOS,469878,175934,-0.99519,51.47806,BCT,MKD,OTH,,,,046,2006-02-01T00:00:00,2011-07-18T13:23:00,1,new,active
039026230001,rdgatpm,,,Halls Road,,,,,,Mayfair,,,,adj 89,,SE,E0041494,Tilehurst,Reading,,,,,,false,UKOS,466772,173178,-1.04043,51.45366,BCT,MKD,OTH,,,,046,2006-02-01T00:00:00,2018-06-18T11:52:00,2,new,active
039026230002,rdgatpt,,,Halls Road,,,,,,Mayfair,,,,adj 94,,NW,E0041494,Tilehurst,Reading,,,,,,false,UKOS,466778,173151,-1.04035,51.45341,BCT,MKD,OTH,,,,046,2006-02-01T00:00:00,2018-06-18T11:52:00,2,new,active
039026240001,rdgatpw,,,Hamilton Road,,,,,,Wokingham Road,,,,adj,,NW,N0060306,Palmer Park,Reading,,,,,,false,UKOS,473258,173140,-0.94711,51.45251,BCT,MKD,OTH,,,,046,2006-02-01T00:00:00,2018-06-19T11:35:00,3,new,active
039026240002,rdgatwa,,,Hamilton Road,,,,,,Wokingham Road,,,,opp,,SE,N0060306,Palmer Park,Reading,,,,,,false,UKOS,473353,173124,-0.94574,51.45236,BCT,MKD,OTH,,,,046,2006-02-01T00:00:00,2018-06-19T11:35:00,3,new,active
039026250001,rdgatwd,,,Harrogate Road,,,,Ilkley Road,,Woodcote Road,,,,adj 78,,S,E0041480,Caversham Heights,Caversham,,,,,,false,UKOS,470315,175580,-0.98897,51.47482,BCT,MKD,OTH,,,,046,2006-02-01T00:00:00,2011-05-25T18:38:00,1,new,active
039026250002,rdgatwg,,,Harrogate Road,,,,Harrogate Road,,Woodcote Road,,,,opp 82,,N,E0041480,Caversham Heights,Caversham,,,,,,false,UKOS,470295,175600,-0.98925,51.475,BCT,MKD,OTH,,,,046,2006-02-01T00:00:00,2011-05-25T18:38:00,1,new,active
039026260001,rdgatwj,,,Hartland Road,,,,Opposite Northumberland Avenue Flats,,Northumberland Avenue,,,,opp,,N,N0060300,Whitley Wood,Reading,,,,,,false,UKOS,472407,170132,-0.95997,51.42558,BCT,MKD,OTH,,,,046,2006-02-01T00:00:00,2012-01-26T15:47:00,1,new,active
039026260002,rdgatwm,,,Hartland Road,,,,Adjacent Northumberland Avenue Flats,,Northumberland Avenue,,,,adj,,S,N0060300,Whitley Wood,Reading,,,,,,false,UKOS,472417,170141,-0.95982,51.42566,BCT,MKD,OTH,,,,046,2006-02-01T00:00:00,2012-01-26T15:47:00,1,new,active
039026270001,rdgatwp,,,Hatherley Road,,,,Blenheim Road,,Erleigh Road,,,,opp,,E,N0071701,Erleigh Road,Reading,,,,,,false,UKOS,473064,172822,-0.94996,51.44968,BCT,MKD,OTH,,,,046,2006-02-01T00:00:00,2008-03-13T13:38:00,1,new,active
039026270002,rdgatwt,,,Hatherley Road,,,,Hatherley Road,,Erleigh Road,,,,adj,,W,N0071701,Erleigh Road,Reading,,,,,,false,UKOS,473004,172812,-0.95083,51.4496,BCT,MKD,OTH,,,,046,2006-02-01T00:00:00,2008-03-13T13:39:00,1,new,active
039026280001,rdgawad,,,Haywood Way,,,,,,Hogarth Avenue,,,,adj 27,,NW,E0041482,Horncastle,Reading,,,,,,false,UKOS,467858,172283,-1.02497,51.44548,BCT,MKD,OTH,,,,046,2006-02-01T00:00:00,2018-06-11T16:30:00,2,new,active
039026280002,rdgawag,,,Haywood Way,,,,,,Hogarth Avenue,,,,adj 32,,SE,E0041482,Horncastle,Reading,,,,,,false,UKOS,467926,172263,-1.024,51.44529,BCT,MKD,OTH,,,,046,2006-02-01T00:00:00,2018-06-11T16:30:00,2,new,active
039026290002,rdgawam,,,Hemdean Hill,,,,Hemdean Hill,,Hemdean Road,,,,opp 46,,S,E0041479,Caversham,Reading,,,,,,false,UKOS,471391,175050,-0.97359,51.46992,BCT,MKD,OTH,,,,046,2006-02-01T00:00:00,2011-05-25T18:39:00,1,new,active
039026290001,rdgawaj,,,Hemdean Hill,,,,Hemdean Hill,,Hemdean Road,,,,adj 70,,N,E0041479,Caversham,Reading,,,,,,false,UKOS,471377,175122,-0.97377,51.47057,BCT,MKD,OTH,,,,046,2006-02-01T00:00:00,2011-05-25T18:40:00,1,new,active
039026300001,rdgawap,,,Henley Road County Boundary,,,,Henley Road Stub Road,,Henley Road Stub Road,,,,nr,,NE,N0071700,Henley Road,Caversham,,,,,,false,UKOS,473543,175649,-0.94248,51.47503,BCT,MKD,OTH,,,,046,2006-02-01T00:00:00,2013-01-31T12:41:00,3,new,active
039026300002,rdgawat,,,Henley Road County Boundary,,,,Adjacent Caversham Park Road,,Henley Road,,,,nr,,NE,N0071700,Henley Road,Caversham,,,,,,false,UKOS,473545,175630,-0.94246,51.47486,BCT,MKD,OTH,,,,046,2006-02-01T00:00:00,2012-01-26T15:48:00,2,new,active
039026300003,rdgawaw,,,Henley Road County Boundary,,,,Layby To West of Traffic Lights,,Henley Road,,,,adj,,SW,N0071700,Henley Road,Caversham,,,,,,false,UKOS,473535,175608,-0.94261,51.47466,BCT,MKD,OTH,,,,046,2006-02-01T00:00:00,2012-01-26T15:48:00,1,new,active
039026320003,rdgawdm,,,Highmoor Road,,,,Highmoor Road,,Albert Road,,,,S-bound,,S,E0041480,Caversham Heights,Caversham,,,,,,false,UKOS,470797,175437,-0.98206,51.47348,BCT,MKD,OTH,,,,046,2006-02-01T00:00:00,2014-06-09T11:19:00,3,new,active
039026320001,rdgawdg,,,Highmoor Road,,,,Highmoor Road,,Albert Road,,,,opp 48A,,N,E0041480,Caversham Heights,Caversham,,,,,,false,UKOS,470750,175502,-0.98272,51.47407,BCT,MKD,OTH,,,,046,2006-02-01T00:00:00,2014-06-09T11:19:00,1,new,active
039026330002,rdgawdt,,,Highmoor Road Church,,,,Ilkley Road,,Highmoor Road,,,,Adj,,NE,E0041480,Caversham Heights,Caversham,,,,,,false,UKOS,470431,175360,-0.98734,51.47283,BCT,MKD,OTH,,,,046,2006-02-01T00:00:00,2006-12-06T16:13:00,1,new,active
039026330001,rdgawdp,,,Highmoor Road Church,,,,Church,,Highmoor Road,,,,Opp,,SW,E0041480,Caversham Heights,Caversham,,,,,,false,UKOS,470429,175346,-0.98737,51.4727,BCT,MKD,OTH,,,,046,2006-02-01T00:00:00,2006-12-06T16:12:00,1,new,active
039026340001,rdgawdw,,,Hills Meadow,,,,Opposite Hills Meadow Car Park,,George Street,,,,opp,,N,N0060318,Lower Caversham,Caversham,,,,,,false,UKOS,471827,174150,-0.96749,51.46178,BCT,MKD,OTH,,,,046,2006-02-01T00:00:00,2011-07-18T19:24:00,1,new,active
039026340002,rdgawga,,,Hills Meadow,,,,Adjacent Hills Meadow Car Park,,George Street,,,,adj,,S,N0060318,Lower Caversham,Caversham,,,,,,false,UKOS,471905,174279,-0.96634,51.46293,BCT,MKD,OTH,,,,046,2006-02-01T00:00:00,2011-07-18T19:25:00,1,new,active
039026360001,rdgawgj,,,Holberton Road,,,,Holberton Road,,Whitley Wood Road,,,,adj,,N,N0060300,Whitley Wood,Reading,,,,,,false,UKOS,472808,169865,-0.95425,51.42313,BCT,MKD,OTH,,,,046,2006-02-01T00:00:00,2011-07-18T19:26:00,2,new,active
039026360002,rdgawgm,,,Holberton Road,,,,Adjacent Winton Road,,Whitley Wood Road,,,,opp,,S,N0060300,Whitley Wood,Reading,,,,,,false,UKOS,472821,169813,-0.95408,51.42266,BCT,MKD,OTH,,,,046,2006-02-01T00:00:00,2011-07-18T19:26:00,1,new,active
039026370002,rdgawgt,,,Holybrook Crescent,,,,Opposite Holybrook Crescent,,Dwyer Road,,,,Opp,,E,E0041491,Southcote,Reading,,,,,,false,UKOS,468219,171845,-1.01986,51.4415,BCT,MKD,OTH,,,,046,2006-02-01T00:00:00,2006-12-06T16:14:00,1,new,active
039026370001,rdgawgp,,,Holybrook Crescent,,,,Holybrook Crescent,,Dwyer Road,,,,Adj,,W,E0041491,Southcote,Reading,,,,,,false,UKOS,468207,171839,-1.02004,51.44145,BCT,MKD,OTH,,,,046,2006-02-01T00:00:00,2006-12-06T16:13:00,1,new,active
039026380001,rdgawgw,,,Honey End Lane,,,,Honey End Lane,,A4 Bath Road,,,,Adj,,NE,N0060315,Prospect Park,Reading,,,,,,false,UKOS,468601,172258,-1.01429,51.44517,BCT,MKD,OTH,,,,046,2006-02-01T00:00:00,2006-12-06T16:14:00,2,new,active
039026380002,rdgawja,,,Honey End Lane,,,,Honey End Lane,,A4 Bath Road,,,,opp 94,,SW,N0060315,Prospect Park,Reading,,,,,,false,UKOS,468522,172214,-1.01543,51.44478,BCT,MKD,OTH,,,,046,2006-02-01T00:00:00,2011-05-25T18:40:00,1,new,active
039026400001,rdgawjg,,,Hungerford Drive,,,,Hungerford Drive,,Berkeley Avenue,,,,opp 16,,W,E0041483,Coley,Reading,,,,,,false,UKOS,470323,172522,-0.98946,51.44733,BCT,MKD,OTH,,,,046,2006-02-01T00:00:00,2011-05-25T18:41:00,1,new,active
039026400002,rdgawjm,,,Hungerford Drive,,,,Hungerford Drive,,Berkeley Avenue,,,,adj 92,,E,E0041483,Coley,Reading,,,,,,false,UKOS,470262,172539,-0.99033,51.44749,BCT,MKD,OTH,,,,046,2006-02-01T00:00:00,2011-05-25T18:41:00,1,new,active
039026050006,rdgapwg,,,Huntley and Palmers,,,,Kings Road,,Forbury Road,,,,N-bound,,N,E0055119,Reading Town Centre,Reading,,,,,,false,UKOS,472153,173437,-0.96295,51.45532,BCT,MKD,OTH,,,,046,2006-02-01T00:00:00,2016-09-27T15:06:00,5,new,active
039026410001,rdgawjp,,,Huntley and Palmers,,,,Bembridge Place,,Kings Road,,,,Stop 1,,W,E0055119,Reading Town Centre,Reading,,,,,,false,UKOS,472096,173382,-0.96378,51.45484,BCT,MKD,OTH,,,,046,2006-02-01T00:00:00,2016-09-27T15:04:00,6,new,active
039026410003,rdgawjw,,,Huntley and Palmers,,,,Duncan Place,,Kings Road,,,,Stop 3,,E,E0055119,Reading Town Centre,Reading,,,,,,false,UKOS,472118,173395,-0.96346,51.45495,BCT,MKD,OTH,,,,046,2006-02-01T00:00:00,2016-09-27T15:04:00,6,new,active
039026410004,rdgawma,,,Huntley and Palmers,,,,Forbury Road,,Kings Road,,,,Stop 4,,E,E0055119,Reading Town Centre,Reading,,,,,,false,UKOS,472239,173410,-0.96171,51.45507,BCT,MKD,OTH,,,,046,2006-02-01T00:00:00,2016-09-27T15:03:00,5,new,active
039026410005,rdgawmd,,,Huntley and Palmers,,,,Gasworks Road,,Kings Road,,,,Stop 5,,E,E0055119,Reading Town Centre,Reading,,,,,,false,UKOS,472258,173409,-0.96144,51.45506,BCT,MKD,OTH,,,,046,2006-02-01T00:00:00,2016-09-27T15:03:00,6,new,active
039026420002,rdgdwam,,,Ian Mikardo Way,,,,Adjacent Disused Southern Electric Site,,Amersham Road,,,,adj,,E,N0060318,Lower Caversham,Caversham,,,,,,false,UKOS,472865,174685,-0.95244,51.46645,BCT,MKD,OTH,,,,046,2006-06-19T00:00:00,2014-02-21T10:59:00,3,new,active
039026420001,rdgawmg,,,Ian Mikardo Way,,,,Adjacent Disused Southern Electric Site,,Amersham Road,,,,opp,,W,N0060318,Lower Caversham,Caversham,,,,,,false,UKOS,472845,174670,-0.95273,51.46632,BCT,MKD,OTH,,,,046,2006-02-01T00:00:00,2011-07-18T19:27:00,2,new,active
039026430002,rdgawmp,,,Katesgrove Lane,,,,Katesgrove Lane,,Pell Street,,,,adj,,E,N0071708,Katesgrove,Reading,,,,,,false,UKOS,471497,172672,-0.97254,51.44853,BCT,MKD,OTH,,,,046,2006-02-01T00:00:00,2020-10-22T12:55:09,8,new,active
039026430001,rdgawmj,,,Katesgrove Lane,,,,Elgar Road,,Berkeley Avenue,,,,Opp,,W,N0071708,Katesgrove,Reading,,,,,,false,UKOS,471373,172617,-0.97433,51.44805,BCT,MKD,OTH,,,,046,2006-02-01T00:00:00,2006-12-06T16:15:00,1,new,active
039026440001,rdgawmt,,,Kentwood Circle,,,,Adjacent Banters Restaurant,,A329 Oxford Road,,,,N-bound,,NW,N0060314,Kentwood,Tilehurst,,,,,,false,UKOS,467675,174971,-1.02709,51.46967,BCT,MKD,OTH,,,,046,2006-02-01T00:00:00,2012-02-01T16:22:00,1,new,active
039026440002,rdgawmw,,,Kentwood Circle,,,,opposite Banters Restaurant,,A329 Oxford Road,,,,S-bound,,SE,N0060314,Kentwood,Tilehurst,,,,,,false,UKOS,467675,174985,-1.02709,51.46979,BCT,MKD,OTH,,,,046,2006-02-01T00:00:00,2012-02-01T16:22:00,1,new,active
039026450002,rdgawpd,,,Kentwood Close,,,,Adjacent allotments,,Kentwood Hill,,,,N-bound,,NE,N0060314,Kentwood,Tilehurst,,,,,,false,UKOS,467207,174178,-1.03398,51.46259,BCT,MKD,OTH,,,,046,2006-02-01T00:00:00,2012-02-01T16:21:00,1,new,active
039026450001,rdgawpa,,,Kentwood Close,,,,Kentwood Close,,Kentwood Hill,,,,adj 50,,SW,N0060314,Kentwood,Tilehurst,,,,,,false,UKOS,467207,174165,-1.03398,51.46248,BCT,MKD,OTH,,,,046,2006-02-01T00:00:00,2011-05-25T18:41:00,1,new,active
039026460001,rdgawpg,,,Keswick Close,,,,,,St Michael's Road,,,,adj 107a,,SE,E0041494,Tilehurst,Reading,,,,,,false,UKOS,466969,173312,-1.03757,51.45484,BCT,MKD,OTH,,,,046,2006-02-01T00:00:00,2018-11-29T14:46:00,5,new,active
039026460002,rdgawpj,,,Keswick Close,,,,,,St Michael's Road,,,,adj 78,,NW,E0041494,Tilehurst,Reading,,,,,,false,UKOS,466954,173345,-1.03778,51.45514,BCT,MKD,OTH,,,,046,2006-02-01T00:00:00,2018-10-11T14:30:00,3,new,active
039026470001,rdgawpm,,,Kidmore Road,,,,Sandcroft Road,,Kidmore Road,,,,adj 161,,NW,E0041480,Caversham Heights,Caversham,,,,,,false,UKOS,470381,176438,-0.98785,51.48253,BCT,MKD,OTH,,,,046,2006-02-01T00:00:00,2011-05-25T18:42:00,1,new,active
039026470002,rdgjdpt,,,Kidmore Road,,,,,,Kidmore Road,,,,adj 266,,SE,E0041480,Caversham Heights,Caversham,,,,,,false,UKOS,470388,176444,-0.98775,51.48258,BCT,CUS,OTH,,,,046,2017-05-15T00:00:00,2019-02-28T12:40:00,2,new,active
039026480001,rdgawpt,,,Venetia Close,,,,opposite Clayfield Copse,,Kiln Road,,,,adj,,NE,E0041485,Emmer Green,Caversham,,,,,,false,UKOS,472363,177067,-0.95918,51.48793,BCT,MKD,OTH,,,,046,2006-02-01T00:00:00,2012-12-05T15:05:00,4,new,active
039026480002,rdgawpw,,,Kiln Road,,,,Kiln Road,,Peppard Road,,,,nr,,N,E0041485,Emmer Green,Caversham,,,,,,false,UKOS,472220,176965,-0.96126,51.48703,BCT,MKD,OTH,,,,046,2006-02-01T00:00:00,2012-12-05T15:05:00,2,new,active
039026480003,rdgawta,,,Kiln Road,,,,Wetherby Close,,Peppard Road,,,,adj,,S,E0041485,Emmer Green,Caversham,,,,,,false,UKOS,472261,176824,-0.9607,51.48576,BCT,MKD,OTH,,,,046,2006-02-01T00:00:00,2012-12-05T15:05:00,3,new,active
039026490001,rdgawtd,,,Kings Meadow Road,,,,Enviroment Agency Building,,Kings Meadow Road,,,,E-bound,,E,E0041489,Kings Meadow,Reading,,,,,,false,UKOS,471849,173903,-0.96723,51.45955,BCT,MKD,OTH,,,,046,2006-02-01T00:00:00,2012-10-23T16:43:00,1,new,active
039026490002,rdgawtg,,,Kings Meadow Road,,,,Cooper Bmw,,Kings Meadow Road,,,,W-bound,,W,E0041489,Kings Meadow,Reading,,,,,,false,UKOS,471867,173891,-0.96697,51.45944,BCT,MKD,OTH,,,,046,2006-02-01T00:00:00,2012-10-23T16:43:00,1,new,active
039026510001,rdgawtm,,,Lansdowne Road,,,,,,Mayfair,,,,adj 2,,NW,E0041494,Tilehurst,Reading,,,,,,false,UKOS,466516,173391,-1.04407,51.4556,BCT,MKD,OTH,,,,046,2006-02-01T00:00:00,2018-06-18T11:53:00,2,new,active
039026510002,rdgawtp,,,Lansdowne Road,,,,,,Mayfair,,,,adj 33,,SE,E0041494,Tilehurst,Reading,,,,,,false,UKOS,466628,173331,-1.04247,51.45505,BCT,MKD,OTH,,,,046,2006-02-01T00:00:00,2018-06-18T11:53:00,2,new,active
039026520002,rdgdada,,,Lawrence Road,,,,Opposite Phone Box,,Norcot Road,,,,opp,,E,N0060313,Norcot,Tilehurst,,,,,,false,UKOS,468080,173874,-1.02147,51.45976,BCT,MKD,OTH,,,,046,2006-02-01T00:00:00,2011-07-18T19:28:00,1,new,active
039026520001,rdgawtw,,,Lawrence Road,,,,Birch Avenue,,Norcot Road,,,,opp 255,,W,N0060313,Norcot,Tilehurst,,,,,,false,UKOS,468034,173859,-1.02214,51.45963,BCT,MKD,OTH,,,,046,2006-02-01T00:00:00,2011-05-25T18:45:00,1,new,active
039026530001,rdgdadg,,,Leighton Park Copse,,,,Adjacent 86 Shinfield Road,,Shinfield Road,,,,adj 86,,N,N0071706,Shinfield Road,Reading,,,,,,false,UKOS,473094,171385,-0.94983,51.43676,BCT,MKD,OTH,,,,046,2006-02-01T00:00:00,2011-06-02T12:51:00,1,new,active
039026530002,rdgdadj,,,Leighton Park Copse,,,,Opposite 88 Shinfield Road,,Shinfield Road,,,,opp 88,,S,N0071706,Shinfield Road,Reading,,,,,,false,UKOS,473113,171354,-0.94956,51.43648,BCT,MKD,OTH,,,,046,2006-02-01T00:00:00,2011-06-02T12:51:00,1,new,active
039026540001,rdgdadm,,,Liebenrood Road,,,,Opposite Presentation College,,A4 Bath Road,,,,adj,,NE,N0060315,Prospect Park,Reading,,,,,,false,UKOS,469518,172480,-1.00105,51.44705,BCT,MKD,OTH,,,,046,2006-02-01T00:00:00,2011-07-18T19:29:00,1,new,active
039026540002,rdgdadp,,,Liebenrood Road,,,,Opposite Parkhurst Drive Adjacent Presentation C,,A4 Bath Road,,,,opp,,SW,N0060315,Prospect Park,Reading,,,,,,false,UKOS,469489,172454,-1.00147,51.44682,BCT,MKD,OTH,,,,046,2006-02-01T00:00:00,2011-07-18T19:29:00,1,new,active
039026560001,rdgdadw,,,Lingholm Close,,,,Mandeville Close,,New Lane Hill,,,,adj 38,,SE,E0041482,Horncastle,Reading,,,,,,false,UKOS,467628,172402,-1.02826,51.44658,BCT,MKD,OTH,,,,046,2006-02-01T00:00:00,2012-12-05T14:49:00,3,new,active
039026570001,rdgdaga,,,Liverpool Road,,,,Liverpool Road,,London Road,,,,adj,,NE,N0060301,New Town,Reading,,,,,,false,UKOS,473699,173422,-0.9407,51.45499,BCT,MKD,OTH,,,,046,2006-02-01T00:00:00,2009-11-18T15:37:00,1,new,active
039026570002,rdgdagd,,,Liverpool Road,,,,St Bartholemews Road,,London Road,,,,opp,,SW,N0060301,New Town,Reading,,,,,,false,UKOS,473611,173385,-0.94198,51.45467,BCT,MKD,OTH,,,,046,2006-02-01T00:00:00,2009-11-18T15:38:00,1,new,active
039026580001,rdgdagj,,,London Street Foot,,,,Mill Lane North,,London Street,,,,N-bound,,N,E0055119,Reading Town Centre,Reading,,,,,,false,UKOS,471779,173140,-0.96839,51.4527,BCT,MKD,OTH,,,,046,2006-02-01T00:00:00,2012-12-05T15:31:00,1,new,active
039026580002,rdgdagm,,,London Street Foot,,,,South Street,,London Street,,,,S-bound,,S,E0055119,Reading Town Centre,Reading,,,,,,false,UKOS,471790,173153,-0.96823,51.45282,BCT,MKD,OTH,,,,046,2006-02-01T00:00:00,2012-12-05T15:31:00,3,new,active
039026590011,rdgjdtw,,,South Oak Way,,,,,,South Oak Way,,,,,,SW,N0060308,Reading Stadium,Reading,,,,,,false,UKOS,471042,169680,-0.97969,51.42169,BCT,CUS,OTH,,,,046,2019-08-30T00:00:00,2019-09-03T14:03:00,2,new,active
039026590001,rdgdagp,,,Reading Stadium,,,,Reading Stadium,,Madejski Stadium Car Park Access Road,,,,Stop,,SE,N0060308,Reading Stadium,Reading,,,,,,false,UKOS,470691,169895,-0.98469,51.42367,BCT,MKD,OTH,,,,046,2006-02-01T00:00:00,2021-07-30T16:58:25,19,new,active
039026590002,rdgdagt,,,Reading Stadium,,,,Reading Stadium,,Madejski Stadium Car Park Access Road,,,,Stop,,NW,N0060308,Reading Stadium,Reading,,,,,,false,UKOS,470675,169890,-0.98492,51.42362,BCT,MKD,OTH,,,,046,2006-02-01T00:00:00,2021-07-30T16:59:02,16,new,active
039026590004,rdgdaja,,,Reading Stadium,,,,Adjacent Reading Stadium Gate 5,,Shooters Way,,,,Stop,,NW,N0060308,Reading Stadium,Reading,,,,,,false,UKOS,470803,169880,-0.98308,51.42352,BCT,MKD,OTH,,,,046,2006-02-01T00:00:00,2021-07-30T16:59:39,12,new,active
039026590005,rdgdajd,,,Reading Stadium,,,,Adjacent Reading Stadium,,Shooters Way,,,,Stop,,NW,N0060308,Reading Stadium,Reading,,,,,,false,UKOS,470902,169828,-0.98167,51.42304,BCT,MKD,OTH,,,,046,2006-02-01T00:00:00,2021-07-30T17:00:14,12,new,active
039026590006,rdgdajg,,,Reading Stadium,,,,Adjacent Reading Stadium Gate 7,,Shooters Way,,,,Stop,,N,N0060308,Reading Stadium,Reading,,,,,,false,UKOS,470918,169767,-0.98145,51.42249,BCT,MKD,OTH,,,,046,2006-02-01T00:00:00,2021-07-30T17:00:43,12,new,active
039026590007,rdgdajm,,,Reading Stadium,,,,Reading Stadium,,Hurst Way,,,,Stop,,E,N0060308,Reading Stadium,Reading,,,,,,false,UKOS,470890,169626,-0.98188,51.42122,BCT,MKD,OTH,,,,046,2006-02-01T00:00:00,2021-07-30T17:02:38,12,new,active
039026590008,rdgdajp,,,Reading Stadium,,,,Reading Stadium,,South Oak Way,,,,Stop,,NE,N0060308,Reading Stadium,Reading,,,,,,false,UKOS,471038,169703,-0.97974,51.4219,BCT,MKD,OTH,,,,046,2006-02-01T00:00:00,2021-07-30T17:03:04,19,new,active
039026590012,,,,Reading Stadium Bus Park,,,,,,,,,,North Entrance,,NE,N0060308,Reading Stadium,Reading,,,,,,false,UKOS,470663,169937,-0.98508,51.42405,BCT,CUS,OTH,,,,046,2024-06-27T00:00:00,2024-06-27T16:21:32,45,new,active
039026590010,rdgjdma,,,Reading Stadium,,,,,,A33,,,,Stop,,N,N0060308,Reading Stadium,Reading,,Reading,EN,,,false,UKOS,470940,170348,-0.98102,51.42771,BCT,MKD,OTH,,,,046,2015-07-10T00:00:00,2021-07-30T17:05:04,9,new,active
039026590003,rdgdagw,,,Northern Way,,,,Opposite B & Q Warehouse,,Northern Way,,,,N-bound,,NE,N0060308,Reading Stadium,Reading,,,,,,false,UKOS,470796,170077,-0.98314,51.42529,BCT,MKD,OTH,,,,046,2006-02-01T00:00:00,2012-07-19T15:02:00,3,new,active
039026590009,rdgdwap,,,Northern Way,,,,Adjacent B & Q Warehouse,,Northern Way,,,,S-bound,,SW,N0060308,Reading Stadium,Reading,,Reading,EN,,,false,UKOS,470780,170044,-0.98338,51.42499,BCT,MKD,OTH,,,,046,2006-05-24T00:00:00,2012-07-19T15:02:00,5,new,active
039026600001,rdgdajt,,,Maitland Road,,,,Tetbury Court,,Tilehurst Road,,,,opp,,E,N0071699,Tilehurst Road,Reading,,,,,,false,UKOS,470451,173108,-0.9875,51.45258,BCT,MKD,OTH,,,,046,2006-02-01T00:00:00,2011-07-18T19:30:00,1,new,active
039026600002,rdgdajw,,,Maitland Road,,,,Maitland Road,,Tilehurst Road,,,,adj 15,,W,N0071699,Tilehurst Road,Reading,,,,,,false,UKOS,470370,173087,-0.98867,51.4524,BCT,MKD,OTH,,,,046,2006-02-01T00:00:00,2011-05-25T18:46:00,1,new,active
039026610002,rdgdamd,,,Kendrick Student Village,,,,opposite Halls of Residence,,Kendrick Road,,,,opp,,N,E0041492,The Mount,Reading,,,,,,false,UKOS,472047,172854,-0.96459,51.4501,BCT,MKD,OTH,,,,046,2006-02-01T00:00:00,2011-07-18T09:57:00,2,new,active
039026610001,rdgdama,,,Kendrick Student Village,,,,Adjacent Halls of Residence,,Kendrick Road,,,,adj,,S,E0041492,The Mount,Reading,,,,,,false,UKOS,472051,172872,-0.96453,51.45026,BCT,MKD,OTH,,,,046,2006-02-01T00:00:00,2011-07-18T09:57:00,2,new,active
039026620002,rdgdamj,,,Marchwood Avenue,,,,Tower Close,,Marchwood Avenue,,,,N-bound,,NW,E0041485,Emmer Green,Caversham,,,,,,false,UKOS,472441,177465,-0.95798,51.4915,BCT,MKD,OTH,,,,046,2006-02-01T00:00:00,2012-02-01T16:20:00,1,new,active
039026620001,rdgdamg,,,Marchwood Avenue,,,,Autumn Close,,Marchwood Avenue,,,,S-bound,,SE,E0041485,Emmer Green,Caversham,,,,,,false,UKOS,472457,177458,-0.95775,51.49144,BCT,MKD,OTH,,,,046,2006-02-01T00:00:00,2012-02-01T16:20:00,1,new,active
039026630001,rdgdamp,,,Market Place,,,,Adjacent Nat West,,Market Place,,,,stop MA,,S,E0055119,Reading Town Centre,Reading,,Reading,EN,,,false,UKOS,471704,173506,-0.96939,51.456,BCT,MKD,OTH,,,,046,2006-02-01T00:00:00,2011-02-08T09:37:00,1,new,active
039026630002,rdgdamt,,,Market Place,,,,Adjacent Sloane Point,,Market Place,,,,stop MB,,S,E0055119,Reading Town Centre,Reading,,Reading,EN,,,false,UKOS,471709,173466,-0.96933,51.45564,BCT,MKD,OTH,,,,046,2006-02-01T00:00:00,2011-02-08T09:38:00,1,new,active
039026630003,rdgdamw,,,Market Place,,,,Adjacent Tesco,,Market Place,,,,stop MC,,S,E0055119,Reading Town Centre,Reading,,Reading,EN,,,false,UKOS,471713,173448,-0.96927,51.45548,BCT,MKD,OTH,,,,046,2006-02-01T00:00:00,2011-02-08T09:40:00,1,new,active
039026650002,rdgdapg,,,Meadway Precinct,,,,Shopping Precinct,,Honey End Lane,,,,Adj,,N,N0071703,Meadway,Reading,,,,,,false,UKOS,468428,172804,-1.01667,51.4501,BCT,MKD,OTH,,,,046,2006-02-01T00:00:00,2006-12-06T16:17:00,1,new,active
039026650003,rdgdapj,,,Meadway Precinct,,,,Opposite Meadway Precinct,,Honey End Lane,,,,Opp,,S,N0071703,Meadway,Reading,,,,,,false,UKOS,468446,172786,-1.01641,51.44993,BCT,MKD,OTH,,,,046,2006-02-01T00:00:00,2006-12-06T16:17:00,1,new,active
039026650004,rdgdapm,,,Meadway Precinct,,,,Honey End Lane,,Meadway,,,,W-bound,,W,N0071703,Meadway,Reading,,,,,,false,UKOS,468316,172885,-1.01827,51.45084,BCT,MKD,OTH,,,,046,2006-02-01T00:00:00,2013-01-22T15:14:00,1,new,active
039026650001,rdgdapd,,,Meadway Precinct,,,,Honey End Lane,,Meadway,,,,adj 2,,E,N0071703,Meadway,Reading,,,,,,false,UKOS,468480,172886,-1.01591,51.45083,BCT,MKD,OTH,,,,046,2006-02-01T00:00:00,2011-05-25T18:46:00,2,new,active
039026660001,rdgdapt,,,Melrose Avenue,,,,Talfourd Avenue,,Wokingham Road,,,,Adj,,NW,E0041484,Whiteknights,Reading,,,,,,false,UKOS,474178,172384,-0.93403,51.4456,BCT,MKD,OTH,,,,046,2006-02-01T00:00:00,2006-12-06T16:17:00,1,new,active
039026660002,rdgdapw,,,Melrose Avenue,,,,Opposite Melrose Avenue,,Wokingham Road,,,,Opp,,SE,E0041484,Whiteknights,Reading,,,,,,false,UKOS,474224,172348,-0.93337,51.44527,BCT,MKD,OTH,,,,046,2006-02-01T00:00:00,2006-12-06T16:17:00,1,new,active
039026670002,rdgdatd,,,Micklands Road,,,,Micklands Road,,Henley Road,,,,opp 258,,SW,N0071700,Henley Road,Caversham,,,,,,false,UKOS,473247,175440,-0.94679,51.47319,BCT,MKD,OTH,,,,046,2006-02-01T00:00:00,2011-05-25T18:47:00,1,new,active
039026670001,rdgdata,,,Micklands Road,,,,Micklands Road,,Henley Road,,,,adj 262,,NE,N0071700,Henley Road,Caversham,,,,,,false,UKOS,473249,175456,-0.94676,51.47334,BCT,MKD,OTH,,,,046,2006-02-01T00:00:00,2011-05-25T18:47:00,1,new,active
039026690001,rdgdatj,,,Minster Street,,,,Yield Hall Lane,,Minster Street,,,,stop ML,,SW,E0055119,Reading Town Centre,Reading,,Reading,EN,,,false,UKOS,471594,173363,-0.971,51.45473,BCT,MKD,OTH,,,,046,2006-02-01T00:00:00,2011-02-08T09:42:00,3,new,active
039026690002,rdgdatm,,,Minster Street,,,,Yield Hall Lane,,Minster Street,,,,stop MM,,SW,E0055119,Reading Town Centre,Reading,,Reading,EN,,,false,UKOS,471576,173358,-0.97126,51.45469,BCT,MKD,OTH,,,,046,2006-02-01T00:00:00,2011-02-08T09:43:00,3,new,active
039026690003,rdgdatp,,,Minster Street,,,,Earley Place,,Minster Street,,,,Stop MP,,SW,E0055119,Reading Town Centre,Reading,,Reading,EN,,,false,UKOS,471543,173346,-0.97174,51.45458,BCT,MKD,OTH,,,,046,2006-02-01T00:00:00,2018-11-27T16:12:00,4,new,active
039026690004,rdgdatw,,,Minster Street,,,,Earley Place,,Minster Street,,,,Stop MQ,,SW,E0055119,Reading Town Centre,Reading,,Reading,EN,,,false,UKOS,471535,173345,-0.97186,51.45458,BCT,MKD,OTH,,,,046,2006-02-01T00:00:00,2018-11-27T16:10:00,5,new,active
039026700002,rdgdawd,,,Mockbeggar,,,,Opposite Hamilton Road,,Whiteknights Road,,,,NW-bound,,NW,E0041484,Whiteknights,Reading,,,,,,false,UKOS,473695,172391,-0.94097,51.44572,BCT,MKD,OTH,,,,046,2006-02-01T00:00:00,2013-06-10T14:59:00,2,new,active
039026700001,rdgdawa,,,Mockbeggar,,,,Hamilton Road,,Whiteknights Road,,,,Adj,,SE,E0041484,Whiteknights,Reading,,,,,,false,UKOS,473766,172364,-0.93996,51.44547,BCT,MKD,OTH,,,,046,2006-02-01T00:00:00,2013-01-22T15:16:00,1,new,active
039026710001,rdgdawg,,,Monks Way,,,,Opposite Presentation College,,Southcote Lane,,,,adj,,SW,E0041491,Southcote,Reading,,,,,,false,UKOS,469646,172265,-0.99925,51.4451,BCT,MKD,OTH,,,,046,2006-02-01T00:00:00,2011-07-18T19:31:00,1,new,active
039026710002,rdgdawj,,,Monks Way,,,,Pendragon Court,,Southcote Lane,,,,opp 39,,NE,E0041491,Southcote,Reading,,,,,,false,UKOS,469764,172384,-0.99753,51.44616,BCT,MKD,OTH,,,,046,2006-02-01T00:00:00,2011-05-25T18:47:00,1,new,active
039026720002,rdgdawp,,,Montague Street,,,,Montague Street,,Briants Avenue,,,,adj 11a,,S,N0060318,Lower Caversham,Caversham,,,,,,false,UKOS,472388,174652,-0.95932,51.46622,BCT,MKD,OTH,,,,046,2006-02-01T00:00:00,2018-11-29T14:48:00,3,new,active
039026720001,rdgdawm,,,Montague Street,,,,Montague Street,,Briants Avenue,,,,opp 87,,N,N0060318,Lower Caversham,Caversham,,,,,,false,UKOS,472384,174616,-0.95938,51.46589,BCT,MKD,OTH,,,,046,2006-02-01T00:00:00,2018-11-29T14:48:00,3,new,active
039026730001,rdgdawt,,,Montpelier Drive,,,,Montpelier Drive,,Lowfield Road,,,,adj 86,,SE,E0041481,Caversham Park Village,Caversham,,,,,,false,UKOS,472820,176219,-0.95278,51.48025,BCT,MKD,OTH,,,,046,2006-02-01T00:00:00,2011-05-25T18:48:00,1,new,active
039026730002,rdgdgad,,,Montpelier Drive,,,,Montpelier Drive,,Lowfield Road,,,,opp 96,,NW,E0041481,Caversham Park Village,Caversham,,,,,,false,UKOS,472786,176245,-0.95326,51.48049,BCT,MKD,OTH,,,,046,2006-02-01T00:00:00,2011-07-18T19:32:00,1,new,active
039026750001,rdgdgaj,,,Morgan Road,,,,Opposite Morgan Road,,Kendrick Road,,,,opp,,N,E0041492,The Mount,Reading,,,,,,false,UKOS,472113,172547,-0.9637,51.44733,BCT,MKD,OTH,,,,046,2006-02-01T00:00:00,2011-07-18T19:33:00,1,new,active
039026750002,rdgdgam,,,Morgan Road,,,,Morgan Road,,Kendrick Road,,,,adj,,S,E0041492,The Mount,Reading,,,,,,false,UKOS,472128,172517,-0.96349,51.44706,BCT,MKD,OTH,,,,046,2006-02-01T00:00:00,2011-07-18T19:33:00,1,new,active
039026760002,rdgdgat,,,Newcastle Road,,,,Northumberland Avenue,,Newcastle Road,,,,E-bound,,E,E0041496,Whitley,Reading,,,,,,false,UKOS,472242,171667,-0.96203,51.4394,BCT,MKD,OTH,,,,046,2006-02-01T00:00:00,2012-12-05T15:29:00,1,new,active
039026760001,rdgdgap,,,Newcastle Road,,,,Northumberland Avenue,,Newcastle Road,,,,W-bound,,W,E0041496,Whitley,Reading,,,,,,false,UKOS,472222,171656,-0.96232,51.4393,BCT,MKD,OTH,,,,046,2006-02-01T00:00:00,2012-12-05T15:29:00,1,new,active
039026770001,rdgdgaw,,,Newlands Avenue,,,,Newlands Avenue,,Peppard Road,,,,Adj,,N,E0041479,Caversham,Reading,,,,,,false,UKOS,471695,175226,-0.96917,51.47147,BCT,MKD,OTH,,,,046,2006-02-01T00:00:00,2006-12-06T16:18:00,1,new,active
039026770002,rdgdgda,,,Newlands Avenue,,,,Opposite Newlands Avenue,,Peppard Road,,,,Opp,,S,E0041479,Caversham,Reading,,,,,,false,UKOS,471701,175204,-0.96909,51.47127,BCT,MKD,OTH,,,,046,2006-02-01T00:00:00,2006-12-06T16:18:00,1,new,active
039026790002,rdgdgdm,,,Norcot Junction,,,,Norcot Road,,A329 Oxford Road,,,,NW-bound,,NW,N0060313,Norcot,Tilehurst,,,,,,false,UKOS,468695,174104,-1.01258,51.46175,BCT,MKD,OTH,,,,046,2006-02-01T00:00:00,2012-12-14T15:02:00,2,new,active
039026790001,rdgdgdj,,,Norcot Junction,,,,Norcot Road,,A329 Oxford Road,,,,SW-bound,,SE,N0060313,Norcot,Tilehurst,,,,,,false,UKOS,468689,174129,-1.01266,51.46198,BCT,MKD,OTH,,,,046,2006-02-01T00:00:00,2012-12-14T15:02:00,2,new,active
039026800002,rdgdgdt,,,Normanstead Road,,,,Normanstead Road,,Chapel Hill,,,,Adj,,NW,E0041494,Tilehurst,Reading,,,,,,false,UKOS,466218,173813,-1.04828,51.45943,BCT,MKD,OTH,,,,046,2006-02-01T00:00:00,2006-12-06T16:19:00,1,new,active
039026800001,rdgdgdp,,,Normanstead Road,,,,Normanstead Road,,Chapel Hill,,,,Opp,,SE,E0041494,Tilehurst,Reading,,,,,,false,UKOS,466216,173826,-1.04831,51.45955,BCT,MKD,OTH,,,,046,2006-02-01T00:00:00,2006-12-06T16:18:00,1,new,active
039026810001,rdgdgdw,,,Northbrook Road,,,,Holyrood Close,,Northbrook Road,,,,N-bound,,N,E0041481,Caversham Park Village,Caversham,,,,,,false,UKOS,472693,176529,-0.95454,51.48305,BCT,MKD,OTH,,,,046,2006-02-01T00:00:00,2012-12-05T15:28:00,1,new,active
039026810002,rdgdgja,,,Northbrook Road,,,,Queensway,,Northbrook Road,,,,S-bound,,S,E0041481,Caversham Park Village,Caversham,,,,,,false,UKOS,472700,176570,-0.95443,51.48342,BCT,MKD,OTH,,,,046,2006-02-01T00:00:00,2012-12-05T15:28:00,1,new,active
039026820001,rdgdgjd,,,Northumberland Avenue Terminus,,,,Cooper Close,,Northumberland Avenue,,,,N-bound,,N,N0060300,Whitley Wood,Reading,,,,,,false,UKOS,472476,169471,-0.95911,51.41963,BCT,MKD,OTH,,,,046,2006-02-01T00:00:00,2013-01-22T15:17:00,1,new,active
039026820002,rdgdgjg,,,Northumberland Avenue Terminus,,,,Whitley Wood Road,,Northumberland Avenue,,,,,,S,N0060300,Whitley Wood,Reading,,,,,,false,UKOS,472501,169470,-0.95875,51.41962,BCT,MKD,OTH,,,,046,2006-02-01T00:00:00,2013-01-31T12:32:00,1,new,active
039026830002,rdgdgjp,,,Oak Tree Copse,,,,Oak Tree Copse,,Overdown Road,,,,adj,,W,N0060314,Kentwood,Tilehurst,,,,,,false,UKOS,467190,175028,-1.03406,51.47024,BCT,MKD,OTH,,,,046,2006-02-01T00:00:00,2011-07-18T19:34:00,1,new,active
039026830001,rdgdgjm,,,Oak Tree Copse,,,,Oak Tree Copse,,Overdown Road,,,,opp 103,,E,N0060314,Kentwood,Tilehurst,,,,,,false,UKOS,467227,175027,-1.03353,51.47022,BCT,MKD,OTH,,,,046,2006-02-01T00:00:00,2011-05-25T18:48:00,1,new,active
039026840001,rdgdgjt,,,Oak Tree Road,,,,,,Kentwood Hill,,,,adj 221,,NE,N0060314,Kentwood,Tilehurst,,,,,,false,UKOS,467511,174931,-1.02946,51.46933,BCT,MKD,OTH,,,,046,2006-02-01T00:00:00,2018-11-26T17:31:00,3,new,active
039026840002,rdgdgjw,,,Oak Tree Road,,,,,,Kentwood Hill,,,,adj 252,,S,N0060314,Kentwood,Tilehurst,,,,,,false,UKOS,467478,174877,-1.02994,51.46885,BCT,MKD,OTH,,,,046,2006-02-01T00:00:00,2018-06-13T15:51:00,2,new,active
039026850002,rdgdgmd,,,Ogmore Close,,,,Adjacent 91 Corwen Road,,Corwen Road,,,,opp,,N,E0041494,Tilehurst,Reading,,,,,,false,UKOS,467038,173371,-1.03656,51.45536,BCT,MKD,OTH,,,,046,2006-02-01T00:00:00,2011-07-18T19:34:00,1,new,active
039026850001,rdgdgma,,,Ogmore Close,,,,Opposite 87 To 89 Corwen Road,,Corwen Road,,,,adj,,SE,E0041494,Tilehurst,Reading,,,,,,false,UKOS,467059,173365,-1.03626,51.4553,BCT,MKD,OTH,,,,046,2006-02-01T00:00:00,2018-11-26T17:44:00,2,new,active
039026870001,rdgdgmj,,,Overlanders End,,,,Overlanders End,,Overdown Road,,,,adj,,E,N0060314,Kentwood,Tilehurst,,,,,,false,UKOS,467406,174991,-1.03096,51.46988,BCT,MKD,OTH,,,,046,2006-02-01T00:00:00,2011-07-18T19:36:00,1,new,active
039026870002,rdgdgmp,,,Overlanders End,,,,Overlanders End,,Overdown Road,,,,opp,,W,N0060314,Kentwood,Tilehurst,,,,,,false,UKOS,467376,174981,-1.03139,51.46979,BCT,MKD,OTH,,,,046,2006-02-01T00:00:00,2011-07-18T19:36:00,1,new,active
039026890001,rdgdgmt,,,Palmer Park Avenue,,,,Culver Road,,Wokingham Road,,,,Opp,,NW,N0071726,Reading,,,,,,,false,UKOS,473841,172824,-0.93878,51.4496,BCT,MKD,OTH,,,,046,2006-02-01T00:00:00,2007-09-19T14:12:00,3,new,active
039026890002,rdgdgmw,,,Palmer Park Avenue,,,,Adjacent Grange Avenue,,Wokingham Road,,,,adj,,SE,N0071726,Reading,,,,,,,false,UKOS,473894,172796,-0.93803,51.44934,BCT,MKD,OTH,,,,046,2006-02-01T00:00:00,2011-07-18T19:36:00,2,new,active
039026900001,rdgdgpa,,,Park Grove,,,,Park Grove,,Tilehurst Road,,,,adj 374,,E,N0060315,Prospect Park,Reading,,,,,,false,UKOS,468658,172932,-1.01334,51.45122,BCT,MKD,OTH,,,,046,2006-02-01T00:00:00,2011-05-25T18:50:00,1,new,active
039026900002,rdgdgpd,,,Park Grove,,,,Honey End Lane,,Tilehurst Road,,,,opp 386,,W,N0060315,Prospect Park,Reading,,,,,,false,UKOS,468636,172905,-1.01366,51.45098,BCT,MKD,OTH,,,,046,2006-02-01T00:00:00,2011-05-25T18:50:00,1,new,active
039026910001,rdgdgpg,,,Parkside Road,,,,Opposite Parkside Road,,Tilehurst Road,,,,E-bound,,E,N0071699,Tilehurst Road,Reading,,,,,,false,UKOS,469506,173046,-1.00111,51.45214,BCT,MKD,OTH,,,,046,2006-02-01T00:00:00,2013-06-10T15:22:00,3,new,active
039026910002,rdgdgpj,,,Parkside Road,,,,opposite Elm Park,,Tilehurst Road,,,,W-bound,,W,N0071699,Tilehurst Road,Reading,,,,,,false,UKOS,469437,173047,-1.0021,51.45216,BCT,MKD,OTH,,,,046,2006-02-01T00:00:00,2018-11-27T16:07:00,3,new,active
039026920001,rdgdgpm,,,Parkside Road,,,,Opposite Nhs Offices,,A4 Bath Road,,,,adj,,NE,N0060315,Prospect Park,Reading,,,,,,false,UKOS,469724,172546,-0.99807,51.44762,BCT,MKD,OTH,,,,046,2006-02-01T00:00:00,2011-07-18T19:37:00,1,new,active
039026920002,rdgdgpt,,,Parkside Road,,,,Adjacent Reading Primary Care,,A4 Bath Road,,,,opp,,SW,N0060315,Prospect Park,Reading,,,,,,false,UKOS,469700,172523,-0.99842,51.44741,BCT,MKD,OTH,,,,046,2006-02-01T00:00:00,2011-07-18T19:37:00,1,new,active
039026930001,rdgdgpw,,,Pepper Lane University,,,,15m East of Leighton Park School Rear Entrance,,Pepper Lane,,,,Opp,,NW,N0060303,University of Reading,Reading,,,,,,false,UKOS,473444,171379,-0.94479,51.43666,BCT,MKD,OTH,,,,046,2006-02-01T00:00:00,2013-01-22T15:18:00,2,new,active
039026930002,rdgdgta,,,Pepper Lane University,,,,University Entrance,,Pepper Lane,,,,Adj,,SE,N0060303,University of Reading,Reading,,,,,,false,UKOS,473402,171428,-0.94539,51.4371,BCT,MKD,OTH,,,,046,2006-02-01T00:00:00,2013-01-22T15:18:00,2,new,active
039026940002,rdgdgtg,,,Pierces Hill Foot,,,,Lower Elmstone Drive,,Pierces Hill,,,,E-bound,,E,E0041494,Tilehurst,Reading,,,,,,false,UKOS,466277,174325,-1.04734,51.46403,BCT,MKD,OTH,,,,046,2006-02-01T00:00:00,2012-12-14T15:06:00,1,new,active
039026940001,rdgdgtd,,,Pierces Hill Foot,,,,Fern Glen,,Pierces Hill,,,,W-bound,,W,E0041494,Tilehurst,Reading,,,,,,false,UKOS,466282,174304,-1.04727,51.46384,BCT,MKD,OTH,,,,046,2006-02-01T00:00:00,2012-12-14T15:06:00,2,new,active
039026940004,rdgdgtm,,,Lower Elmstone Drive,,,,Pierces Hill,,Lower Elmstone Drive,,,,N-bound,,N,E0041494,Tilehurst,Reading,,,,,,false,UKOS,466234,174297,-1.04796,51.46378,BCT,MKD,OTH,,,,046,2006-02-01T00:00:00,2012-10-23T16:48:00,4,new,active
039026940003,rdgdgtj,,,Lower Elmstone Drive,,,,Pierces Hill,,Lower Elmstone Drive,,,,S-bound,,S,E0041494,Tilehurst,Reading,,,,Tilehurst,EN,false,UKOS,466241,174137,-1.04789,51.46234,BCT,MKD,OTH,,,,046,2006-02-01T00:00:00,2018-11-26T17:35:00,9,new,active
039026950002,rdgdgtw,,,Pierces Hill Top,,,,,,Pierces Hill,,,,adj 1,,E,E0041494,Tilehurst,Reading,,,,,,false,UKOS,466499,174266,-1.04415,51.46347,BCT,MKD,OTH,,,,046,2006-02-01T00:00:00,2018-06-18T15:05:00,2,new,active
039026950001,rdgdgtp,,,Pierces Hill Top,,,,,,Pierces Hill,,,,adj 18,,W,E0041494,Tilehurst,Reading,,,,,,false,UKOS,466491,174259,-1.04427,51.46341,BCT,MKD,OTH,,,,046,2006-02-01T00:00:00,2018-06-18T15:05:00,2,new,active
039026960002,rdgdgwd,,,Pond House,,,,Grovelands Road,,Oxford Road,,,,Opp,,NW,E0057227,Reading West,Reading,,,,,,false,UKOS,468906,173955,-1.00957,51.46039,BCT,MKD,OTH,,,,046,2006-02-01T00:00:00,2012-12-14T15:08:00,1,new,active
039026960001,rdgdgwa,,,Pond House,,,,200m Adjacent St Georges Terrace,,Grovelands Road,,,,S-bound,,SW,E0057227,Reading West,Reading,,,,,,false,UKOS,468955,173874,-1.00888,51.45965,BCT,MKD,OTH,,,,046,2006-02-01T00:00:00,2013-01-22T15:19:00,2,new,active
039026960003,rdgdgwg,,,Pond House,,,,Pangbourne Street,,Oxford Road,,,,Adj,,SE,E0057227,Reading West,Reading,,,,,,false,UKOS,469044,173892,-1.00759,51.4598,BCT,MKD,OTH,,,,046,2006-02-01T00:00:00,2012-12-14T15:08:00,1,new,active
039026970001,rdgdgwj,,,Holiday Inn,,,,Imperial Way,,Basingstoke Road,,,,N-bound,,N,N0060300,Whitley Wood,Reading,,,,,,false,UKOS,471774,169670,-0.96916,51.42151,BCT,MKD,OTH,,,,046,2006-02-01T00:00:00,2015-05-06T15:11:00,4,new,active
039026970002,rdgdgwm,,,Holiday Inn,,,,Whitley Wood Lane,,Basingstoke Road,,,,S-bound,,S,N0060300,Whitley Wood,Reading,,,,,,false,UKOS,471778,169626,-0.96911,51.42111,BCT,MKD,OTH,,,,046,2006-02-01T00:00:00,2015-05-06T15:11:00,2,new,active
039026990002,rdgdjad,,,Prospect College,,,,Prospect College,,Honey End Lane,,,,Adj,,N,N0060315,Prospect Park,Reading,,,,,,false,UKOS,468472,172438,-1.01611,51.4468,BCT,MKD,OTH,,,,046,2006-02-01T00:00:00,2006-12-06T16:20:00,1,new,active
039026990001,rdgdgwt,,,Prospect College,,,,Prospect College,,Honey End Lane,,,,Opp,,S,N0060315,Prospect Park,Reading,,,,,,false,UKOS,468479,172456,-1.016,51.44696,BCT,MKD,OTH,,,,046,2006-02-01T00:00:00,2006-12-06T16:20:00,1,new,active
039027000002,rdgdjaj,,,Prospect Street,,,,,,Prospect Street,,,,adj 19,,SW,E0041479,Caversham,Reading,,,,,,false,UKOS,471507,174877,-0.97195,51.46835,BCT,MKD,OTH,,,,046,2006-02-01T00:00:00,2018-06-18T15:07:00,2,new,active
039027000001,rdgdjag,,,Prospect Street,,,,,,Prospect Street,,,,adj 44,,NE,E0041479,Caversham,Reading,,,,,,false,UKOS,471521,174904,-0.97174,51.46859,BCT,MKD,OTH,,,,046,2006-02-01T00:00:00,2018-06-18T15:07:00,2,new,active
039027010002,rdgdjap,,,Queen Street,,,,Queen Street,,Hemdean Road,,,,Opp 142,,S,E0041479,Caversham,Reading,,,,,,false,UKOS,471312,175304,-0.97467,51.47222,BCT,MKD,OTH,,,,046,2006-02-01T00:00:00,2006-02-01T00:00:00,0,new,active
039027010001,rdgdjam,,,Queen Street,,,,Queen Street,,Hemdean Road,,,,Adj 158,,N,E0041479,Caversham,Reading,,,,,,false,UKOS,471296,175352,-0.97489,51.47265,BCT,MKD,OTH,,,,046,2006-02-01T00:00:00,2006-02-01T00:00:00,0,new,active
039027030001,rdgdjaw,,,Ranikhet,,,,Hermitage House,,Spey Road,,,,Adj,,NE,N0071704,Dee Road Estate,Reading,,,,,,false,UKOS,468325,173459,-1.01803,51.456,BCT,MKD,OTH,,,,046,2006-02-01T00:00:00,2013-01-22T15:20:00,2,new,active
039027030002,rdgdjda,,,Ranikhet,,,,Tay Road,,Spey Road,,,,SW-bound,,SW,N0071704,Dee Road Estate,Reading,,,,,,false,UKOS,468317,173430,-1.01815,51.45574,BCT,MKD,OTH,,,,046,2006-02-01T00:00:00,2013-01-22T15:21:00,2,new,active
039027040002,rdgdjdj,,,RBH South Wing,,,,Adjacent Cooling to wer,,Craven Road,,,,adj,,N,N0060310,Royal Berkshire Hospital,Reading,,,,,,false,UKOS,472640,172589,-0.95611,51.44764,BCT,MKD,OTH,,,,046,2006-02-01T00:00:00,2011-06-15T18:01:00,2,new,active
039027040001,rdgdjdg,,,RBH South Wing,,,,Opposite Cooling to wer,,Craven Road,,,,opp,,S,N0060310,Royal Berkshire Hospital,Reading,,,,,,false,UKOS,472629,172647,-0.95626,51.44816,BCT,MKD,OTH,,,,046,2006-02-01T00:00:00,2011-06-15T18:01:00,2,new,active
039027040003,rdgdjdm,,,Redlane Court,,,,Craven Road,,Addington Road,,,,opp,,E,N0060310,Royal Berkshire Hospital,Reading,,,,,,false,UKOS,472626,172528,-0.95633,51.44709,BCT,MKD,OTH,,,,046,2006-02-01T00:00:00,2010-06-17T14:20:00,4,new,active
039027040004,rdgdjdp,,,Redlane Court,,,,Redlane Court,,Addington Road,,,,adj,,W,N0060310,Royal Berkshire Hospital,Reading,,,,,,false,UKOS,472641,172524,-0.95611,51.44705,BCT,MKD,OTH,,,,046,2006-02-01T00:00:00,2010-06-17T14:20:00,3,new,active
039027060027,rdgdjgt,,,Reading RailAir,,,,Adjacent Reading Station RailAir,,Forbury Road,,,,,,E,E0055119,Reading Town Centre,Reading,,,,,,false,UKOS,471567,173739,-0.97132,51.45811,BCT,MKD,OTH,,,,046,2006-02-01T00:00:00,2011-08-01T12:49:00,9,new,active
039027070004,rdgdjma,,,Reading West Rail Station - Oxford Road,,,,Gower Street,,Oxford Road,,,,opp,,E,E0057227,Reading West,Reading,,,,,,false,UKOS,470284,173469,-0.98983,51.45585,BCT,MKD,OTH,,,,046,2006-02-01T00:00:00,2011-06-02T13:18:00,8,new,active
039027070002,rdgdjtd,,,Reading West Rail Station - Oxford Road,,,,Adjacent Mcdonalds,,Oxford Road,,,,adj,,W,E0057227,Reading West,Reading,,,,,,false,UKOS,470241,173459,-0.99045,51.45576,BCT,MKD,OTH,,,,046,2006-02-01T00:00:00,2011-06-02T13:18:00,5,new,active
039027100003,rdgjdjg,,,Richmond Road,,,,,,Richmond Road,,,,NE-bound,,NE,E0041480,Caversham Heights,Caversham,,Reading,EN,,,false,UKOS,470363,175869,-0.98822,51.47741,BCT,MKD,OTH,,,,046,2015-07-01T00:00:00,2019-01-28T13:31:00,1,new,active
039027100004,rdgjdjm,,,Richmond Road,,,,,,Richmond Road,,,,SW-bound,,SW,E0041480,Caversham Heights,Caversham,,,,,,false,UKOS,470366,175854,-0.98818,51.47728,BCT,MKD,OTH,,,,046,2015-07-01T00:00:00,2019-01-28T13:32:00,1,new,active
039027100002,rdgdjtp,,,Richmond Road,,,,,,Conisboro Avenue,,,,adj 4,,S,E0041480,Caversham Heights,Caversham,,,,,,false,UKOS,470442,175965,-0.98706,51.47827,BCT,MKD,OTH,,,,046,2006-02-01T00:00:00,2018-06-11T16:17:00,2,new,active
039027100001,rdgdjtm,,,Richmond Road,,,,,,Conisboro Avenue,,,,adj 9,,N,E0041480,Caversham Heights,Caversham,,,,,,false,UKOS,470413,175993,-0.98748,51.47852,BCT,MKD,OTH,,,,046,2006-02-01T00:00:00,2018-06-11T16:17:00,2,new,active
039027110001,rdgadad,,,Reading Festival Bus Park,,,,Rivermead Sports Centre,,Richfield Avenue,,,,Stop A,,S,N0060317,Rivermead,Reading,,Reading,EN,,,false,UKOS,470690,174490,-0.98379,51.46498,BCT,CUS,OTH,,,,046,2006-02-01T00:00:00,2014-06-18T14:27:00,6,new,active
039027110004,rdgjdaw,,,Reading Festival Bus Park,,,,Rivermead Sports Centre,,Richfield Avenue,,,,Stop B,,S,N0060317,Rivermead,Reading,,Reading,EN,,,false,UKOS,470790,174520,-0.98234,51.46523,BCT,CUS,OTH,,,,046,2014-06-18T00:00:00,2014-06-18T14:29:00,0,new,active
039027110003,rdgjatm,,,Rivermead Leisure Centre,,,,Rivermead Sports Centre,,Richfield Avenue,,,,adj,,E,N0060317,Rivermead,Reading,,Reading,EN,,,false,UKOS,470739,174425,-0.9831,51.46439,BCT,MKD,OTH,,,,046,2012-07-03T00:00:00,2012-11-16T12:08:00,2,new,active
039027110002,rdgjatj,,,Rivermead Leisure Centre,,,,Rivermead Sports Centre,,Richfield Avenue,,,,opp,,W,N0060317,Rivermead,Reading,,Reading,EN,,,false,UKOS,470730,174413,-0.98323,51.46428,BCT,MKD,OTH,,,,046,2012-07-03T00:00:00,2012-11-16T12:08:00,2,new,active
039027120002,rdgdjwa,,,Roebuck Hotel,,,,Elsley Road,,A329 Oxford Road,,,,opp,,NW,N0060314,Kentwood,Tilehurst,,,,,,false,UKOS,467132,175401,-1.03483,51.4736,BCT,MKD,OTH,,,,046,2006-02-01T00:00:00,2011-06-02T13:18:00,2,new,active
039027120001,rdgdjtw,,,Roebuck Hotel,,,,Elsley Road,,A329 Oxford Road,,,,adj,,SE,N0060314,Kentwood,Tilehurst,,,,,,false,UKOS,467158,175385,-1.03445,51.47345,BCT,MKD,OTH,,,,046,2006-02-01T00:00:00,2011-06-02T13:18:00,1,new,active
039027130001,rdgdjwd,,,Romany Lane,,,,Links Drive,,Norcot Road,,,,opp 311,,SW,N0060313,Norcot,Tilehurst,,,,,,false,UKOS,468285,173997,-1.0185,51.46084,BCT,MKD,OTH,,,,046,2006-02-01T00:00:00,2011-05-25T18:53:00,1,new,active
039027130002,rdgdjwg,,,Romany Lane,,,,Romany Lane,,Norcot Road,,,,opp 327,,NE,N0060313,Norcot,Tilehurst,,,,,,false,UKOS,468337,174087,-1.01773,51.46164,BCT,MKD,OTH,,,,046,2006-02-01T00:00:00,2011-05-25T18:53:00,2,new,active
039027150002,rdgdjwp,,,Rose Hill,,,,Tower Close,,Peppard Road,,,,N-bound,,N,E0041485,Emmer Green,Caversham,,,,,,false,UKOS,472134,177411,-0.96241,51.49105,BCT,MKD,OTH,,,,046,2006-02-01T00:00:00,2012-10-23T16:37:00,1,new,active
039027150001,rdgdjwm,,,Rose Hill,,,,Tower Close,,Peppard Road,,,,adj 372,,S,E0041485,Emmer Green,Caversham,,,,,,false,UKOS,472149,177362,-0.9622,51.49061,BCT,MKD,OTH,,,,046,2006-02-01T00:00:00,2011-05-25T18:54:00,1,new,active
039027160002,rdgdmad,,,Rotherfield Way,,,,Surley Row,,Rotherfield Way,,,,adj 50,,SW,E0041485,Emmer Green,Caversham,,,,,,false,UKOS,471516,175908,-0.97161,51.47762,BCT,MKD,OTH,,,,046,2006-02-01T00:00:00,2011-05-25T18:54:00,1,new,active
039027160001,rdgdjwt,,,Rotherfield Way,,,,Surley Row,,Rotherfield Way,,,,opp 68,,NE,E0041485,Emmer Green,Caversham,,,,,,false,UKOS,471567,175989,-0.97086,51.47834,BCT,MKD,OTH,,,,046,2006-02-01T00:00:00,2019-01-28T13:27:00,3,new,active
039027170001,rdgdmag,,,Roundhead,,,,Carsdale Close,,Wensley Road,,,,Adj,,NE,N0060299,Coley Park,Reading,,,,,,false,UKOS,470650,172338,-0.98479,51.44563,BCT,MKD,OTH,,,,046,2006-02-01T00:00:00,2006-12-06T16:22:00,1,new,active
039027170002,rdgdmaj,,,Roundhead,,,,Opposite Coley Park General Store,,Wensley Road,,,,opp,,SW,N0060299,Coley Park,Reading,,,,,,false,UKOS,470566,172266,-0.98602,51.445,BCT,MKD,OTH,,,,046,2006-02-01T00:00:00,2014-03-26T10:04:00,2,new,active
039027180002,rdgdmap,,,Russell Street,,,,Russell Street,,Castle Hill,,,,E-bound,,NE,N0071705,Castle Hill - Bath Road,Reading,,,,,,false,UKOS,470855,172981,-0.98171,51.45139,BCT,MKD,OTH,,,,046,2006-02-01T00:00:00,2013-01-04T12:32:00,1,new,active
039027180005,rdgdmda,,,Russell Street,,,,Epping Close 60m Opposite,,Russell Street,,,,on,,N,N0071705,Castle Hill - Bath Road,Reading,,,,,,false,UKOS,470745,173071,-0.98328,51.45221,BCT,MKD,OTH,,,,046,2006-02-01T00:00:00,2013-01-04T12:34:00,5,new,active
039027180003,rdgdmat,,,Russell Street,,,,Bp Petrol Station,,Tilehurst Road,,,,Opp,,NW,N0071705,Castle Hill - Bath Road,Reading,,,,,,false,UKOS,470732,172995,-0.98348,51.45153,BCT,MKD,OTH,,,,046,2006-02-01T00:00:00,2010-07-28T16:05:00,5,new,active
039027180004,rdgdmaw,,,Russell Street,,,,Adjacent Epping Close,,Russell Street,,,,S-bound,,S,N0071705,Castle Hill - Bath Road,Reading,,,,,,false,UKOS,470753,173052,-0.98317,51.45204,BCT,MKD,OTH,,,,046,2006-02-01T00:00:00,2013-04-23T15:33:00,6,new,active
039027180001,rdgdmam,,,Russell Street,,,,Lima Court,,Bath Road,,,,opp 6,,SW,N0071705,Castle Hill - Bath Road,Reading,,,,,,false,UKOS,470743,172911,-0.98334,51.45077,BCT,MKD,OTH,,,,046,2006-02-01T00:00:00,2011-05-25T18:55:00,1,new,active
039027190002,rdgdmdj,,,Shaw Road,,,,Shaw Road,,Holybrook Road,,,,adj,,NE,N0060299,Coley Park,Reading,,,,,,false,UKOS,470897,172434,-0.98122,51.44647,BCT,MKD,OTH,,,,046,2006-02-01T00:00:00,2011-06-02T13:19:00,1,new,active
039027190001,rdgdmdg,,,Shaw Road,,,,Opposite Shaw Road,,Wensley Road,,,,opp,,SW,N0060299,Coley Park,Reading,,,,,,false,UKOS,470825,172398,-0.98226,51.44615,BCT,MKD,OTH,,,,046,2006-02-01T00:00:00,2011-06-02T13:19:00,2,new,active
039027220002,rdgdmgd,,,Southcote Farm Lane,,,,Southcote Farm Lane,,Southcote Lane,,,,NE-bound,,NE,E0041491,Southcote,Reading,,,,,,false,UKOS,469569,172213,-1.00037,51.44464,BCT,MKD,OTH,,,,046,2006-02-01T00:00:00,2013-01-04T12:31:00,1,new,active
039027220001,rdgdmga,,,Southcote Farm Lane,,,,Southcote Farm Lane,,Southcote Lane,,,,adj 77,,SW,E0041491,Southcote,Reading,,,,,,false,UKOS,469502,172147,-1.00135,51.44406,BCT,MKD,OTH,,,,046,2006-02-01T00:00:00,2011-05-25T18:56:00,1,new,active
039027230003,rdgdmgp,,,Southcote Road,,,,Southcote Road,,Bath Road,,,,E-bound,,NE,E0041491,Southcote,Reading,,,,,,false,UKOS,469993,172652,-0.99418,51.44854,BCT,MKD,OTH,,,,046,2006-02-01T00:00:00,2013-01-22T15:25:00,2,new,active
039027230001,rdgdmgj,,,Southcote Road,,,,Southcote,,Southcote Lane,,,,SW-bound,,SW,E0041491,Southcote,Reading,,,,,,false,UKOS,469911,172551,-0.99538,51.44764,BCT,MKD,OTH,,,,046,2006-02-01T00:00:00,2013-01-31T12:44:00,3,new,active
039027230002,rdgdmgm,,,Southcote Road,,,,Southcote Lane,,A4 Bath Road,,,,W-bound,,SW,E0041491,Southcote,Reading,,,,,,false,UKOS,469859,172582,-0.99612,51.44793,BCT,MKD,OTH,,,,046,2006-02-01T00:00:00,2013-01-22T15:25:00,2,new,active
039027240001,rdgdmgt,,,Southcote Road,,,,Western Elms Avenue,,Tilehurst Road,,,,opp,,E,N0071699,Tilehurst Road,Reading,,,,,,false,UKOS,470042,173038,-0.9934,51.452,BCT,MKD,OTH,,,,046,2006-02-01T00:00:00,2012-10-23T16:33:00,1,new,active
039027240002,rdgdmgw,,,Southcote Road,,,,Connaught Road,,Tilehurst Road,,,,adj,,W,N0071699,Tilehurst Road,Reading,,,,,,false,UKOS,469944,173028,-0.99481,51.45192,BCT,MKD,OTH,,,,046,2006-02-01T00:00:00,2012-10-23T16:33:00,1,new,active
039027250001,rdgdmja,,,Southdown Road,,,,Southdown Road,,Southdown Road,,,,On,,NE,E0041485,Emmer Green,Caversham,,,,,,false,UKOS,471785,176198,-0.96768,51.48019,BCT,MKD,OTH,,,,046,2006-02-01T00:00:00,2012-12-14T15:00:00,1,new,active
039027250002,rdgdmjd,,,Southdown Road,,,,Southdown Road,,Rotherfield Way,,,,SW-bound,,SW,E0041485,Emmer Green,Caversham,,,,,,false,UKOS,471733,176133,-0.96844,51.47962,BCT,MKD,OTH,,,,046,2006-02-01T00:00:00,2018-11-26T17:27:00,3,new,active
039027260002,rdgdmjm,,,Spencer Road,,,,Adjacent 62 Whitley Wood Lane,,Whitley Wood Lane,,,,adj,,N,N0060300,Whitley Wood,Reading,,,,,,false,UKOS,471921,169334,-0.96712,51.41847,BCT,MKD,OTH,,,,046,2006-02-01T00:00:00,2012-07-20T12:16:00,1,new,active
039027260001,rdgdmjg,,,Spencer Road,,,,opposite Woodside Units,,Whitley Wood Lane,,,,opp,,S,N0060300,Whitley Wood,Reading,,,,,,false,UKOS,471900,169386,-0.96741,51.41894,BCT,MKD,OTH,,,,046,2006-02-01T00:00:00,2012-07-20T12:17:00,1,new,active
039027270002,rdgdmjt,,,St Andrews Church,,,,Harrogate Road,,Albert Road,,,,Adj,,N,E0041480,Caversham Heights,Caversham,,,,,,false,UKOS,470584,175751,-0.98506,51.47633,BCT,MKD,OTH,,,,046,2006-02-01T00:00:00,2012-12-05T15:27:00,1,new,active
039027270001,rdgdmjp,,,St Andrews Church,,,,Harrogate Road,,Albert Road,,,,Opp,,S,E0041480,Caversham Heights,Caversham,,,,,,false,UKOS,470634,175688,-0.98435,51.47575,BCT,MKD,OTH,,,,046,2006-02-01T00:00:00,2012-12-05T15:26:00,1,new,active
039027290002,rdgdmpd,,,St Barnabas Church,,,,Grove Road,,Evesham Road,,,,adj,,NW,E0041485,Emmer Green,Caversham,,,,,,false,UKOS,471630,176391,-0.96987,51.48195,BCT,MKD,OTH,,,,046,2006-02-01T00:00:00,2009-11-18T15:38:00,1,new,active
039027290001,rdgdmpa,,,St Barnabas Church,,,,Evesham Road,,Grove Road,,,,opp,,SW,E0041485,Emmer Green,Caversham,,,,,,false,UKOS,471650,176447,-0.96957,51.48245,BCT,MKD,OTH,,,,046,2006-02-01T00:00:00,2009-11-18T15:38:00,1,new,active
039027300002,rdgdmpj,,,St Johns Road,,,,St Johns Church,,Gosbrook Road,,,,adj,,E,N0060318,Lower Caversham,Caversham,,,,,,false,UKOS,472213,174562,-0.96185,51.46543,BCT,MKD,OTH,,,,046,2006-02-01T00:00:00,2011-07-18T19:40:00,1,new,active
039027300001,rdgdmpg,,,St Johns Road,,,,St Johns Road,,Gosbrook Road,,,,adj 341,,W,N0060318,Lower Caversham,Caversham,,,,,,false,UKOS,472149,174569,-0.96277,51.4655,BCT,MKD,OTH,,,,046,2006-02-01T00:00:00,2011-05-25T18:56:00,1,new,active
039027310001,rdgdmpm,,,St Josephs Convent,,,,Alexandra Road,,Upper Redlands Road,,,,E-bound,,E,E0041484,Whiteknights,Reading,,,,,,false,UKOS,473031,172376,-0.95053,51.44567,BCT,MKD,OTH,,,,046,2006-02-01T00:00:00,2013-04-23T15:43:00,2,new,active
039027310003,rdgdmpw,,,St Josephs Convent,,,,Upper Redlands Road,,Alexandra Road,,,,opp,,N,E0041484,Whiteknights,Reading,,,,,,false,UKOS,472991,172402,-0.9511,51.44591,BCT,MKD,OTH,,,,046,2006-02-01T00:00:00,2012-02-01T16:16:00,1,new,active
039027310002,rdgdmpt,,,St Josephs Convent,,,,Upper Redlands Road,,Alexandra Road,,,,adj,,S,E0041484,Whiteknights,Reading,,,,,,false,UKOS,473001,172413,-0.95095,51.44601,BCT,MKD,OTH,,,,046,2006-02-01T00:00:00,2012-02-01T16:16:00,1,new,active
039027320007,rdgdwta,,,St Marys Butts,,,,Adjacent St Marys Church,,St Marys Butts,,,,stop CA,,S,E0055119,Reading Town Centre,Reading,,Reading,EN,,,false,UKOS,471399,173280,-0.97383,51.45401,BCT,MKD,OTH,,,,046,2011-02-08T00:00:00,2011-03-04T14:59:00,1,new,active
039027320008,rdgdwtd,,,St Marys Butts,,,,Adjacent St Marys Church,,St Marys Butts,,,,stop CB,,S,E0055119,Reading Town Centre,Reading,,Reading,EN,,,false,UKOS,471387,173296,-0.974,51.45415,BCT,MKD,OTH,,,,046,2011-02-08T00:00:00,2011-03-04T14:59:00,1,new,active
039027320006,rdgdwaw,,,St Marys Butts,,,,St Marys Butts,,St Marys Butts,,,,stop CL,,NW,E0055119,Reading Town Centre,Reading,,Reading,EN,Reading Town Centre,EN,false,UKOS,471317,173365,-0.97499,51.45478,BCT,MKD,OTH,,,,046,2006-04-21T00:00:00,2011-03-29T16:46:00,8,new,active
039027320002,rdgdmtd,,,St Marys Butts,,,,Adjacent Reading Market,,St Marys Butts,,,,stop CN,,NW,E0055119,Reading Town Centre,Reading,,Reading,EN,,,false,UKOS,471357,173305,-0.97443,51.45424,BCT,MKD,OTH,,,,046,2006-02-01T00:00:00,2011-02-05T11:57:00,1,new,active
039027320003,rdgdmtg,,,St Marys Butts,,,,Adjacent Broad Street Mall,,St Marys Butts,,,,stop CR,,NW,E0055119,Reading Town Centre,Reading,,Reading,EN,,,false,UKOS,471327,173362,-0.97485,51.45476,BCT,MKD,OTH,,,,046,2006-02-01T00:00:00,2011-02-05T11:59:00,1,new,active
039027320004,rdgdmtj,,,St Marys Butts,,,,Adjacent Savers,,St Marys Butts,,,,Stop CS,,NW,E0055119,Reading Town Centre,Reading,,Reading,EN,,,false,UKOS,471316,173379,-0.975,51.45491,BCT,MKD,OTH,,,,046,2006-02-01T00:00:00,2018-03-05T11:32:00,3,new,active
039027320005,rdgdmtm,,,St Marys Butts,,,,opposite Cafe Nero,,St Marys Butts,,,,Stop CT,,NW,E0055119,Reading Town Centre,Reading,,Reading,EN,,,false,UKOS,471308,173394,-0.97511,51.45505,BCT,MKD,OTH,,,,046,2006-02-01T00:00:00,2018-03-05T11:32:00,6,new,active
039027340002,rdgdmwa,,,St Peters Avenue,,,,St Peters Avenue,,Woodcote Road,,,,opp,,NW,E0041480,Caversham Heights,Caversham,,,,,,false,UKOS,470081,175850,-0.99228,51.47728,BCT,MKD,OTH,,,,046,2006-02-01T00:00:00,2008-12-18T15:46:00,1,new,active
039027340001,rdgdmtw,,,St Peters Avenue,,,,St Peters Avenue,,Woodcote Road,,,,nr,,SE,E0041480,Caversham Heights,Caversham,,,,,,false,UKOS,470158,175838,-0.99118,51.47716,BCT,MKD,OTH,,,,046,2006-02-01T00:00:00,2008-12-18T15:46:00,1,new,active
039027350001,rdgdmwd,,,St Peters Road,,,,Adjacent Alfred Sutton School,,Wokingham Road,,,,opp,,NW,N0071726,Reading,,,,,,,false,UKOS,473988,172667,-0.9367,51.44817,BCT,MKD,OTH,,,,046,2006-02-01T00:00:00,2011-06-02T13:20:00,2,new,active
039027350002,rdgdmwg,,,St Peters Road,,,,Adjacent Pitcroft Avenue,,Wokingham Road,,,,adj,,SE,N0071726,Reading,,,,,,,false,UKOS,474064,172575,-0.93563,51.44733,BCT,MKD,OTH,,,,046,2006-02-01T00:00:00,2014-03-26T10:11:00,3,new,active
039027360002,rdgdmwm,,,Star Inn,,,,Donkin Hill Foot,,Donkin Hill,,,,opp,,N,N0060318,Lower Caversham,Caversham,,,,,,false,UKOS,472381,174957,-0.95935,51.46896,BCT,MKD,OTH,,,,046,2006-02-01T00:00:00,2012-02-01T16:13:00,1,new,active
039027360001,rdgdmwj,,,Star Inn,,,,Southview Avenue,,Briants Avenue,,,,adj,,S,N0060318,Lower Caversham,Caversham,,,,,,false,UKOS,472371,174846,-0.95952,51.46796,BCT,MKD,OTH,,,,046,2006-02-01T00:00:00,2009-11-18T15:39:00,1,new,active
039027380002,rdgdpag,,,Staverton Road,,,,Staverton Road,,Cressingham Road,,,,adj,,E,E0041496,Whitley,Reading,,,,,,false,UKOS,472498,170984,-0.95848,51.43323,BCT,MKD,OTH,,,,046,2006-02-01T00:00:00,2009-11-18T15:39:00,1,new,active
039027380001,rdgdpad,,,Staverton Road,,,,Adjacent 107 Cressingham Road,,Cressingham Road,,,,opp,,W,E0041496,Whitley,Reading,,,,,,false,UKOS,472446,170984,-0.95923,51.43324,BCT,MKD,OTH,,,,046,2006-02-01T00:00:00,2012-02-01T16:12:00,1,new,active
039027390002,rdgdpam,,,Stockton Road,,,,,,Northumberland Avenue,,,,adj,,N,E0041496,Whitley,Reading,,,,,,false,UKOS,472339,170371,-0.96089,51.42774,BCT,MKD,OTH,,,,046,2006-02-01T00:00:00,2018-06-18T12:17:00,2,new,active
039027390001,rdgdpaj,,,Stockton Road,,,,,,Northumberland Avenue,,,,opp,,S,E0041496,Whitley,Reading,,,,,,false,UKOS,472343,170400,-0.96083,51.428,BCT,MKD,OTH,,,,046,2006-02-01T00:00:00,2018-06-18T12:17:00,2,new,active
039027400001,rdgdpap,,,Surley Row,,,,Surley Row,,Peppard Road,,,,adj,,N,E0041485,Emmer Green,Caversham,,,,,,false,UKOS,471865,175842,-0.9666,51.47698,BCT,MKD,OTH,,,,046,2006-02-01T00:00:00,2012-01-26T16:07:00,1,new,active
039027400002,rdgdpat,,,Surley Row,,,,opposite 93,,Peppard Road,,,,opp,,S,E0041485,Emmer Green,Caversham,,,,,,false,UKOS,471863,175801,-0.96664,51.47661,BCT,MKD,OTH,,,,046,2006-02-01T00:00:00,2012-01-26T16:07:00,2,new,active
039027410001,rdgdpaw,,,Swansea Road,,,,Brigham Road,,Caversham Road,,,,opp,,SE,N0071726,Reading,,,,,,,false,UKOS,471283,174240,-0.9753,51.46265,BCT,MKD,OTH,,,,046,2006-02-01T00:00:00,2022-04-04T16:14:46,6,new,active
039027410002,rdgdpda,,,Swansea Road,,,,Swansea Road,,Caversham Road,,,,adj,,NW,N0071726,Reading,,,,,,,false,UKOS,471269,174239,-0.9755,51.46265,BCT,MKD,OTH,,,,046,2006-02-01T00:00:00,2022-04-04T16:15:24,6,new,active
039027430001,rdgdpdj,,,Tamarisk Avenue,,,,Tamarisk Avenue,,Whitley Wood Road,,,,adj,,E,N0060300,Whitley Wood,Reading,,,,,,false,UKOS,473178,170223,-0.94886,51.4263,BCT,MKD,OTH,,,,046,2006-02-01T00:00:00,2011-07-18T19:49:00,2,new,active
039027430002,rdgdpdm,,,Tamarisk Avenue,,,,Adjacent 7 Whitley Wood Road,,Whitley Wood Road,,,,opp,,W,N0060300,Whitley Wood,Reading,,,,,,false,UKOS,473238,170237,-0.94799,51.42642,BCT,MKD,OTH,,,,046,2006-02-01T00:00:00,2011-07-18T19:49:00,1,new,active
039027440001,rdgdpdp,,,Tay Road,,,,,,Tay Road,,,,adj 21,,NW,N0071704,Dee Road Estate,Reading,,,,,,false,UKOS,468364,173279,-1.0175,51.45437,BCT,MKD,OTH,,,,046,2006-02-01T00:00:00,2023-12-23T10:27:11,2,new,active
039027440002,rdgdpdt,,,Tay Road,,,,,,Tay Road,,,,opp 21,,SE,N0071704,Dee Road Estate,Reading,,,,,,false,UKOS,468372,173294,-1.01738,51.45451,BCT,MKD,OTH,,,,046,2006-02-01T00:00:00,2018-06-19T11:30:00,2,new,active
039027450002,rdgdpga,,,Reading College,,,,Kingsgate Street,,Kings Road,,,,adj,,E,N0071726,Reading,,,,,,,false,UKOS,472815,173238,-0.95346,51.45345,BCT,MKD,OTH,,,,046,2006-02-01T00:00:00,2010-08-19T16:37:00,4,new,active
039027450001,rdgdpdw,,,Reading College,,,,Montague Street,,Kings Road,,,,opp,,W,N0071726,Reading,,,,,,,false,UKOS,472648,173246,-0.95586,51.45354,BCT,MKD,OTH,,,,046,2006-02-01T00:00:00,2013-11-01T11:51:00,5,new,active
039027460002,rdgdpgj,,,Tern Close,,,,English Martyrs School Entrance,,Dee Road,,,,opp,,E,N0071704,Dee Road Estate,Reading,,,,,,false,UKOS,468163,173125,-1.02042,51.45301,BCT,MKD,OTH,,,,046,2006-02-01T00:00:00,2018-11-26T17:46:00,2,new,active
039027460001,rdgdpgd,,,Tern Close,,,,Elvaston Way,,Dee Road,,,,adj 22,,SW,N0071704,Dee Road Estate,Reading,,,,,,false,UKOS,468080,173084,-1.02162,51.45266,BCT,MKD,OTH,,,,046,2006-02-01T00:00:00,2011-05-25T18:58:00,1,new,active
039027480001,rdgdpgp,,,The Maidens,,,,Cedar Road,,Shinfield Road,,,,N-bound,,N,N0071706,Shinfield Road,Reading,,,,,,false,UKOS,473361,170538,-0.94616,51.42911,BCT,MKD,OTH,,,,046,2006-02-01T00:00:00,2012-12-05T15:26:00,2,new,active
039027480003,rdgdpgw,,,The Maidens,,,,Adjacent The Sportsman,,Elm Road,,,,adj,,NE,N0071706,Shinfield Road,Reading,,,,,,false,UKOS,473417,170524,-0.94536,51.42897,BCT,MKD,OTH,,,,046,2006-02-01T00:00:00,2012-01-26T15:55:00,1,new,active
039027480002,rdgdpgt,,,The Maidens,,,,Elm Road,,Shinfield Road,,,,Opp,,S,N0071706,Shinfield Road,Reading,,,,,,false,UKOS,473377,170463,-0.94595,51.42843,BCT,MKD,OTH,,,,046,2006-02-01T00:00:00,2013-06-07T11:14:00,3,new,active
039027500002,rdgdpjg,,,The Moderation,,,,,,Caversham Road,,,,adj,,NW,N0071726,Reading,,,,,,,false,UKOS,471124,174451,-0.97755,51.46457,BCT,MKD,OTH,,,,046,2006-02-01T00:00:00,2022-04-04T16:19:02,7,new,active
039027500001,rdgdpjd,,,The Moderation,,,,,,Caversham Road,,,,opp,,SE,N0071726,Reading,,,,,,,false,UKOS,471170,174404,-0.9769,51.46414,BCT,MKD,OTH,,,,046,2006-02-01T00:00:00,2022-04-04T16:19:18,7,new,active
039027510001,rdgdpjm,,,The Mount,,,,The Mount,,Albert Road,,,,adj 3,,N,E0041480,Caversham Heights,Caversham,,,,,,false,UKOS,470894,175164,-0.98072,51.47101,BCT,MKD,OTH,,,,046,2006-02-01T00:00:00,2011-05-25T18:59:00,1,new,active
039027510002,rdgdpjp,,,The Mount,,,,Kidmore Road,,Albert Road,,,,adj,,S,E0041480,Caversham Heights,Caversham,,,,,,false,UKOS,470903,175163,-0.98059,51.471,BCT,MKD,OTH,,,,046,2006-02-01T00:00:00,2021-05-20T15:59:13,16,new,active
039027520001,rdgdpjt,,,The Pond,,,,Lowfield Road,,Buckingham Drive,,,,Adj,,N,E0041485,Emmer Green,Caversham,,,,,,false,UKOS,472042,176430,-0.96393,51.48225,BCT,MKD,OTH,,,,046,2006-02-01T00:00:00,2006-12-06T16:24:00,1,new,active
039027520002,rdgdpjw,,,The Pond,,,,Lowfield Road,,Buckingham Drive,,,,opp,,S,E0041485,Emmer Green,Caversham,,,,,,false,UKOS,472047,176406,-0.96387,51.48203,BCT,MKD,OTH,,,,046,2006-02-01T00:00:00,2009-11-18T15:40:00,1,new,active
039027540001,rdgdpmd,,,Three Tuns,,,,Holmes Road,,Wokingham Road,,,,opp,,NW,E0041484,Whiteknights,Reading,,,,,,false,UKOS,474292,172107,-0.93244,51.44309,BCT,MKD,OTH,,,,046,2006-02-01T00:00:00,2009-11-18T15:40:00,3,new,active
039027540003,rdgdpmj,,,Three Tuns,,,,Church Road,,Wokingham Road,,,,adj,,SE,E0041484,Whiteknights,Reading,,,,,,false,UKOS,474377,172039,-0.93124,51.44247,BCT,MKD,OTH,,,,046,2006-02-01T00:00:00,2009-11-18T15:40:00,5,new,active
039027540002,rdgdpmg,,,Three Tuns,,,,Tuns Hill Cottages,,Wokingham Road,,,,Adj,,SE,E0041484,Whiteknights,Reading,,,,,,false,UKOS,474338,172065,-0.93179,51.44271,BCT,MKD,OTH,,,,046,2006-02-01T00:00:00,2007-09-19T14:16:00,3,new,active
039027550002,rdgdpmt,,,Tilehurst Library,,,,,,School Road,,,,adj,,SW,E0041494,Tilehurst,Reading,,,,,,false,UKOS,466876,173793,-1.03881,51.45917,BCT,MKD,OTH,,,,046,2006-02-01T00:00:00,2018-06-18T15:08:00,2,new,active
039027550001,rdgdpmp,,,Tilehurst Library,,,,,,School Road,,,,opp,,NE,E0041494,Tilehurst,Reading,,,,,,false,UKOS,466890,173825,-1.03861,51.45946,BCT,MKD,OTH,,,,046,2006-02-01T00:00:00,2020-12-07T11:55:32,11,new,active
039027560004,rdgdwmp,,,Tilehurst Station,,,,Station Forecourt,,Station Forecourt,,,,o/s,,NE,N0060314,Kentwood,Tilehurst,,,,,,false,UKOS,467476,175166,-1.02992,51.47144,BCT,MKD,OTH,,,,046,2009-09-01T00:00:00,2009-09-01T14:49:00,1,new,active
039027560001,rdgdpmw,,,Tilehurst Station,,,,Carlisle Road,,A329 Oxford Road,,,,Opp,,NW,N0060314,Kentwood,Tilehurst,,,,,,false,UKOS,467491,175125,-1.02971,51.47107,BCT,MKD,OTH,,,,046,2006-02-01T00:00:00,2006-12-06T16:25:00,1,new,active
039027560003,rdgdpta,,,Tilehurst Station,,,,Overdown Road,,A329 Oxford Road,,,,adj,,SE,N0060314,Kentwood,Tilehurst,,,,,,false,UKOS,467540,175105,-1.02901,51.47089,BCT,MKD,OTH,,,,046,2006-02-01T00:00:00,2009-09-01T14:44:00,1,new,active
039027570001,rdgdptd,,,Tilehurst Triangle,,,,Opposite No 18,,Westwood Road,,,,Stop T,,N,E0041494,Tilehurst,Reading,,,,,,false,UKOS,466673,173754,-1.04174,51.45885,BCT,MKD,OTH,,,,046,2006-02-01T00:00:00,2013-11-11T16:38:00,3,new,active
039027570002,rdgdptg,,,Tilehurst Triangle,,,,Adjacent No 2,,Westwood Road,,,,Stop U,,S,E0041494,Tilehurst,Reading,,,,,,false,UKOS,466697,173701,-1.04141,51.45837,BCT,MKD,OTH,,,,046,2006-02-01T00:00:00,2013-11-11T16:40:00,6,new,active
039027570003,rdgdptj,,,Tilehurst Triangle,,,,Adjacent The Plough,,School Road,,,,Stop V,,NE,E0041494,Tilehurst,Reading,,,,,,false,UKOS,466733,173689,-1.04089,51.45825,BCT,MKD,OTH,,,,046,2006-02-01T00:00:00,2013-09-06T18:22:00,3,new,active
039027570004,rdgdptm,,,Tilehurst Triangle,,,,Adjacent Barclays Bank,,School Road,,,,Stop W,,SW,E0041494,Tilehurst,Reading,,,,,,false,UKOS,466764,173688,-1.04045,51.45824,BCT,MKD,OTH,,,,046,2006-02-01T00:00:00,2013-11-11T17:16:00,7,new,active
039027570005,rdgdptp,,,Tilehurst Triangle,,,,Opposite Car Park,,Walnut Way,,,,Stop X,,W,E0041494,Tilehurst,Reading,,,,,,false,UKOS,466773,173586,-1.04034,51.45732,BCT,MKD,OTH,,,,046,2006-02-01T00:00:00,2013-09-06T18:22:00,3,new,active
039027570006,rdgdptw,,,Tilehurst Triangle,,,,Adjacent No 36,,St Michaels Road,,,,Stop Y,,NW,E0041494,Tilehurst,Reading,,,,,,false,UKOS,466764,173514,-1.04048,51.45668,BCT,MKD,OTH,,,,046,2006-02-01T00:00:00,2013-09-06T18:23:00,3,new,active
039027570007,rdgdpwa,,,Tilehurst Triangle,,,,Adjacent No 33,,St Michaels Road,,,,Stop Z,,SE,E0041494,Tilehurst,Reading,,,,,,false,UKOS,466770,173521,-1.04039,51.45674,BCT,MKD,OTH,,,,046,2006-02-01T00:00:00,2013-09-06T18:23:00,3,new,active
039027590001,rdgdpwg,,,Travellers Rest,,,,Lower Henley Road,,Henley Road,,,,adj,,E,N0071700,Henley Road,Caversham,,,,,,false,UKOS,472734,175149,-0.95423,51.47064,BCT,MKD,OTH,,,,046,2006-02-01T00:00:00,2013-01-29T14:39:00,2,new,active
039027590002,rdgdpwj,,,Travellers Rest,,,,Lower Henley Road,,Henley Road,,,,opp,,W,N0071700,Henley Road,Caversham,,,,,,false,UKOS,472750,175142,-0.954,51.47058,BCT,MKD,OTH,,,,046,2006-02-01T00:00:00,2012-02-01T16:11:00,2,new,active
039027600002,rdgdpwp,,,Uplands Road,,,,opposite Shop,,Uplands Road,,,,in,,NE,E0041480,Caversham Heights,Caversham,,,,,,false,UKOS,470310,176266,-0.9889,51.48099,BCT,MKD,OTH,,,,046,2006-02-01T00:00:00,2012-02-01T16:10:00,1,new,active
039027600001,rdgdpwm,,,Uplands Road,,,,Pinewood Drive,,Conisboro Avenue,,,,adj 36,,S,E0041480,Caversham Heights,Caversham,,,,,,false,UKOS,470304,176206,-0.989,51.48045,BCT,MKD,OTH,,,,046,2006-02-01T00:00:00,2011-05-25T18:59:00,1,new,active
039027640002,rdgdtat,,,Vicarage Road,,,,Cintra Avenue 40m Opposite,,Christchurch Road,,,,opp,,E,E0041492,The Mount,Reading,,,,,,false,UKOS,472361,172172,-0.96021,51.44393,BCT,MKD,OTH,,,,046,2006-02-01T00:00:00,2011-07-18T19:47:00,1,new,active
039027640001,rdgdtap,,,Vicarage Road,,,,Vicarage Road,,Christchurch Road,,,,adj,,W,E0041492,The Mount,Reading,,,,,,false,UKOS,472296,172180,-0.96114,51.44401,BCT,MKD,OTH,,,,046,2006-02-01T00:00:00,2011-07-18T19:47:00,1,new,active
039027650002,rdgdtda,,,Victoria Road,,,,Victoria Road,,Hemdean Road,,,,opp,,S,E0041479,Caversham,Reading,,,,,,false,UKOS,471334,175473,-0.97432,51.47373,BCT,MKD,OTH,,,,046,2006-02-01T00:00:00,2015-01-28T12:09:00,2,new,active
039027650001,rdgdtaw,,,Victoria Road,,,,Victoria Road,,Hemdean Road,,,,adj 256,,N,E0041479,Caversham,Reading,,,,,,false,UKOS,471337,175558,-0.97426,51.4745,BCT,MKD,OTH,,,,046,2006-02-01T00:00:00,2011-05-25T19:00:00,1,new,active
039027660001,rdgdtdg,,,Wantage Road,,,,Adjacent Grovelands Christian Centre,,Oxford Road,,,,adj,,NW,E0057227,Reading West,Reading,,,,,,false,UKOS,469444,173711,-1.00187,51.45813,BCT,MKD,OTH,,,,046,2006-02-01T00:00:00,2011-07-18T19:46:00,1,new,active
039027660002,rdgdtdj,,,Wantage Road,,,,Opposite Church of God of Prophesy,,Oxford Road,,,,opp,,SE,E0057227,Reading West,Reading,,,,,,false,UKOS,469583,173669,-0.99988,51.45773,BCT,MKD,OTH,,,,046,2006-02-01T00:00:00,2011-07-18T19:46:00,1,new,active
039027670001,rdgdtdm,,,Warwick Road,,,,Adjacent 18 Northumberland Avenue,,Northumberland Avenue,,,,opp,,N,E0041496,Whitley,Reading,,,,,,false,UKOS,472203,171906,-0.96254,51.44155,BCT,MKD,OTH,,,,046,2006-02-01T00:00:00,2011-07-18T19:45:00,1,new,active
039027670002,rdgdtdp,,,Warwick Road,,,,Adjacent 11A Northumberland Avenue,,Northumberland Avenue,,,,adj,,S,E0041496,Whitley,Reading,,,,,,false,UKOS,472213,171885,-0.9624,51.44136,BCT,MKD,OTH,,,,046,2006-02-01T00:00:00,2011-07-18T19:45:00,1,new,active
039027690003,rdgdtgd,,,Water Road,,,,Adjacent Prospect Park,,Tilehurst Road,,,,opp,,W,N0060315,Prospect Park,Reading,,,,,,false,UKOS,468814,173025,-1.01107,51.45204,BCT,MKD,OTH,,,,046,2006-02-01T00:00:00,2011-07-18T19:44:00,1,new,active
039027690002,rdgdtga,,,Water Road,,,,Water Road,,Tilehurst Road,,,,adj 286,,E,N0060315,Prospect Park,Reading,,,,,,false,UKOS,468912,173059,-1.00966,51.45233,BCT,MKD,OTH,,,,046,2006-02-01T00:00:00,2011-05-25T19:00:00,1,new,active
039027690001,rdgdtdw,,,Water Road,,,,Adjacent No 98 Water Road,,Water Road,,,,adj 98,,NW,N0060315,Prospect Park,Reading,,,,,,false,UKOS,468847,173131,-1.01058,51.45299,BCT,MKD,OTH,,,,046,2006-02-01T00:00:00,2011-05-25T19:00:00,1,new,active
039027700002,rdgdtgm,,,Waverley Road,,,,Liebenrood Road,,Tilehurst Road,,,,W-bound,,W,N0060315,Prospect Park,Reading,,,,,,false,UKOS,469217,173006,-1.00528,51.45182,BCT,MKD,OTH,,,,046,2006-02-01T00:00:00,2014-04-22T15:33:00,3,new,active
039027700001,rdgdtgj,,,Waverley Road,,,,Waverley Road,,Tilehurst Road,,,,adj 206,,E,N0060315,Prospect Park,Reading,,,,,,false,UKOS,469279,173077,-1.00437,51.45245,BCT,MKD,OTH,,,,046,2006-02-01T00:00:00,2014-04-22T15:33:00,3,new,active
039027710001,rdgdtgp,,,Waylen Street,,,,Eaton Place,,Oxford Road,,,,Opp,,E,E0057227,Reading West,Reading,,,,,,false,UKOS,470871,173390,-0.9814,51.45506,BCT,MKD,OTH,,,,046,2006-02-01T00:00:00,2006-12-06T16:27:00,1,new,active
039027710002,rdgdtgt,,,Waylen Street,,,,Waylen Street,,Oxford Road,,,,Adj,,W,E0057227,Reading West,Reading,,,,,,false,UKOS,470878,173374,-0.98131,51.45492,BCT,MKD,OTH,,,,046,2006-02-01T00:00:00,2006-12-06T16:27:00,1,new,active
039027720001,rdgdtgw,,,Weald Rise,,,,Adjacent Shops,,A329 Oxford Road,,,,adj,,NW,N0060314,Kentwood,Tilehurst,,,,,,false,UKOS,468018,174686,-1.02221,51.46706,BCT,MKD,OTH,,,,046,2006-02-01T00:00:00,2011-07-18T19:43:00,1,new,active
039027720002,rdgdtja,,,Weald Rise,,,,Adjacent Railway Lines,,A329 Oxford Road,,,,opp,,SE,N0060314,Kentwood,Tilehurst,,,,,,false,UKOS,467980,174754,-1.02274,51.46768,BCT,MKD,OTH,,,,046,2006-02-01T00:00:00,2011-07-18T19:43:00,1,new,active
039027730003,rdgdtjm,,,Wellington Avenue,,,,Reading University Buildings to Rear,,Pepper Lane,,,,nr,,E,N0071706,Shinfield Road,Reading,,,,,,false,UKOS,473143,171666,-0.94907,51.43928,BCT,MKD,OTH,,,,046,2006-02-01T00:00:00,2012-01-26T15:53:00,1,new,active
039027730001,rdgdtjd,,,Wellington Avenue,,,,Wellington Avenue,,Shinfield Road,,,,adj,,NW,N0071706,Shinfield Road,Reading,,,,,,false,UKOS,472993,171693,-0.95122,51.43954,BCT,MKD,OTH,,,,046,2006-02-01T00:00:00,2011-07-18T19:42:00,1,new,active
039027730002,rdgdtjg,,,Wellington Avenue,,,,Pepper Lane,,Shinfield Road,,,,opp,,SE,N0071706,Shinfield Road,Reading,,,,,,false,UKOS,473038,171598,-0.95059,51.43868,BCT,MKD,OTH,,,,046,2006-02-01T00:00:00,2011-07-18T19:43:00,1,new,active
039027740001,rdgdtjp,,,Wentworth Avenue,,,,Wentworth Avenue,,Whitley Wood Road,,,,Adj,,NE,N0060300,Whitley Wood,Reading,,,,,,false,UKOS,472714,169584,-0.95566,51.42061,BCT,MKD,OTH,,,,046,2006-02-01T00:00:00,2012-12-05T14:53:00,3,new,active
039027760001,rdgdtjw,,,West Street,,,,Oxford Road,,West Street,,,,stop CU,,N,E0055119,Reading Town Centre,Reading,,,,,,false,UKOS,471245,173516,-0.976,51.45615,BCT,MKD,OTH,,,,046,2006-02-01T00:00:00,2011-03-29T16:55:00,5,new,active
039027770002,rdgdtmd,,,Westfield Road,,,,Westfield Playing Fields,,Gosbrook Road,,,,adj,,E,E0041479,Caversham,Reading,,,,,,false,UKOS,471711,174670,-0.96906,51.46647,BCT,MKD,OTH,,,,046,2006-02-01T00:00:00,2011-07-18T19:42:00,1,new,active
039027770001,rdgdtma,,,Westfield Road,,,,Westfield Road,,Gosbrook Road,,,,opp 64,,W,E0041479,Caversham,Reading,,,,,,false,UKOS,471600,174705,-0.97065,51.46679,BCT,MKD,OTH,,,,046,2006-02-01T00:00:00,2011-06-02T12:20:00,1,new,active
039027780001,rdgdtmg,,,The Victoria,,,,Armour Road,,Kentwood Hill,,,,NW-bound,,NE,E0041494,Tilehurst,Reading,,,,,,false,UKOS,467093,174048,-1.03564,51.46144,BCT,MKD,OTH,,,,046,2006-02-01T00:00:00,2013-12-04T17:04:00,2,new,active
039027780003,rdgdtmp,,,The Victoria,,,,School Road,,Norcot Road,,,,adj,,SE,E0041494,Tilehurst,Reading,,,,,,false,UKOS,467078,173988,-1.03587,51.4609,BCT,MKD,OTH,,,,046,2006-02-01T00:00:00,2013-12-04T17:05:00,2,new,active
039027780002,rdgdtmj,,,The Victoria,,,,Opposite Post Office,,School Road,,,,opp,,SW,E0041494,Tilehurst,Reading,,,,,,false,UKOS,467017,173954,-1.03675,51.4606,BCT,MKD,OTH,,,,046,2006-02-01T00:00:00,2013-12-04T17:05:00,2,new,active
039027790002,rdgdtmw,,,Whitley Park School,,,,Manor Farm Road,,Basingstoke Road,,,,Opp,,N,N0060300,Whitley Wood,Reading,,,,,,false,UKOS,471794,170708,-0.96866,51.43084,BCT,MKD,OTH,,,,046,2006-02-01T00:00:00,2006-12-06T16:28:00,1,new,active
039027790001,rdgdtmt,,,Whitley Park School,,,,Whitley Park Junior School,,Basingstoke Road,,,,Adj,,S,N0060300,Whitley Wood,Reading,,,,,,false,UKOS,471803,170690,-0.96854,51.43067,BCT,MKD,OTH,,,,046,2006-02-01T00:00:00,2006-12-06T16:28:00,1,new,active
039027800001,rdgdtpa,,,Whitley Street,,,,Mount Street,,Whitley Street,,,,N-bound,,N,N0071707,Whitley Street,Reading,,,,,,false,UKOS,471974,172343,-0.96574,51.44551,BCT,MKD,OTH,,,,046,2006-02-01T00:00:00,2012-11-08T14:52:00,1,new,active
039027800002,rdgdtpd,,,Whitley Street,,,,Highgrove Street,,Whitley Street,,,,S-bound,,S,N0071707,Whitley Street,Reading,,,,,,false,UKOS,471986,172358,-0.96557,51.44565,BCT,MKD,OTH,,,,046,2006-02-01T00:00:00,2012-11-08T14:53:00,1,new,active
039027820001,rdgdtpj,,,Woodside Way,,,,Adjacent Southglade,,Whitley Wood Road,,,,opp,,NE,N0060300,Whitley Wood,Reading,,,,,,false,UKOS,472580,169484,-0.95761,51.41973,BCT,MKD,OTH,,,,046,2006-02-01T00:00:00,2013-09-05T15:08:00,2,new,active
039027820002,rdgdtpm,,,Woodside Way,,,,Opposite Post Office,,Whitley Wood Road,,,,adj,,SW,N0060300,Whitley Wood,Reading,,,,,,false,UKOS,472444,169394,-0.95958,51.41894,BCT,MKD,OTH,,,,046,2006-02-01T00:00:00,2011-06-02T13:24:00,1,new,active
039027830001,rdgdtpt,,,Worton Grange,,,,Worton Drive,,Imperial Way,,,,adj,,NE,N0060307,Worton Grange,Reading,,,,,,false,UKOS,471566,169516,-0.97218,51.42015,BCT,MKD,OTH,,,,046,2006-02-01T00:00:00,2012-10-23T16:29:00,1,new,active
039027830002,rdgdtpw,,,Worton Grange,,,,Opposite Rhm Foodservices,,Imperial Way,,,,opp,,SW,N0060307,Worton Grange,Reading,,,,,,false,UKOS,471582,169513,-0.97195,51.42012,BCT,MKD,OTH,,,,046,2006-02-01T00:00:00,2012-10-23T16:29:00,1,new,active
039027840003,rdgdwgt,,,Hartland Road,,,,opposite Hartland Court,,Hartland Road,,,,on,,E,N0060300,Whitley Wood,Reading,,Reading,EN,Whitley,EN,false,UKOS,471766,170023,-0.96921,51.42468,BCT,MKD,OTH,,,,046,2007-10-17T00:00:00,2019-01-28T16:38:00,3,new,active
039027840001,rdgdtwa,,,Hartland Road,,,,Acre Road,,Basingstoke Road,,,,N-bound,,N,N0060300,Whitley Wood,Reading,,,,,,false,UKOS,471685,170098,-0.97035,51.42537,BCT,MKD,OTH,,,,046,2006-02-01T00:00:00,2019-01-28T16:39:00,2,new,active
039027840002,rdgdtwd,,,Hartland Road,,,,Hartland Road,,Basingstoke Road,,,,S-bound,,S,N0060300,Whitley Wood,Reading,,,,,,false,UKOS,471714,169976,-0.96996,51.42427,BCT,MKD,OTH,,,,046,2006-02-01T00:00:00,2012-12-05T15:22:00,1,new,active
039027850001,rdgdtwg,,,Stoneham Close Footpath,,,,Honey End Lane,,Meadway,,,,Opp,,E,N0071703,Meadway,Reading,,,,,,false,UKOS,468177,172880,-1.02027,51.45081,BCT,MKD,OTH,,,,046,2006-02-01T00:00:00,2006-12-06T16:29:00,1,new,active
039027850002,rdgdtwj,,,Stoneham Close Footpath,,,,Honey End Lane,,Meadway,,,,Adj,,W,N0071703,Meadway,Reading,,,,,,false,UKOS,468156,172864,-1.02057,51.45067,BCT,MKD,OTH,,,,046,2006-02-01T00:00:00,2006-12-06T16:29:00,1,new,active
039028260001,rdgjapt,,,Dellwood Hospital,,,,Duchess of Kent House,,Liebenrood Road,,,,opp,,N,N0060315,Prospect Park,Reading,,Reading,EN,,,false,UKOS,469356,172718,-1.00333,51.44921,BCT,MKD,OTH,,,,046,2011-11-22T00:00:00,2011-11-22T16:15:00,0,new,active
039027890001,rdgdwad,,,Dellwood Hospital,,,,Jenkins Close,,Liebenrood Road,,,,adj,,SE,N0060315,Prospect Park,Reading,,,,,,false,UKOS,469373,172701,-1.00309,51.44906,BCT,MKD,OTH,,,,046,2006-02-01T00:00:00,2012-01-26T15:39:00,1,new,active
039027200004,rdgdmdt,,,Shepherds Lane,,,,Shepherds Lane,,Upper Woodcote Road,,,,opp,,N,E0041480,Caversham Heights,Caversham,,,,,,false,UKOS,469697,176553,-0.99767,51.48365,BCT,MKD,OTH,,,,046,2006-02-01T00:00:00,2012-01-26T15:56:00,2,new,active
039027200003,rdgdmdp,,,Shepherds Lane,,,,Shepherds Lane,,Upper Woodcote Road,,,,adj,,S,E0041480,Caversham Heights,Caversham,,,,,,false,UKOS,469740,176493,-0.99707,51.4831,BCT,MKD,OTH,,,,046,2006-02-01T00:00:00,2012-01-26T15:57:00,1,new,active
039027200001,rdgjdpw,,,Shepherds Lane,,,,,,Shepherds Lane,,,,adj 34,,E,E0041480,Caversham Heights,Caversham,,,,,,false,UKOS,469916,176627,-0.99451,51.48428,BCT,CUS,OTH,,,,046,2006-02-01T00:00:00,2019-02-28T12:46:00,2,new,active
039027200002,rdgdmdm,,,Shepherds Lane,,,,Woodcote Way,,Shepherds Lane,,,,adj 39,,W,E0041480,Caversham Heights,Caversham,,,,,,false,UKOS,469918,176616,-0.99448,51.48418,BCT,MKD,OTH,,,,046,2006-02-01T00:00:00,2011-05-25T18:55:00,1,new,active
039027900002,rdgdwdg,,,Reading University,,,,Adjacent Whiteknights House,,The Queens Drive,,,,Inside,,S,N0060303,University of Reading,Reading,,,,,,false,UKOS,473222,171842,-0.94789,51.44085,BCT,MKD,OTH,,,,046,2006-02-01T00:00:00,2013-01-29T14:38:00,3,new,active
039027900001,rdgagta,,,Reading University,,,,The Queens Drive,,Chancellors Way,,,,in,,W,N0060303,University of Reading,Reading,,,,,,false,UKOS,473177,171776,-0.94855,51.44026,BCT,MKD,OTH,,,,046,2006-02-01T00:00:00,2014-03-26T10:15:00,3,new,active
039027990002,rdgdwdm,,,Kings Reach,,,,Adjacent Kings Reach,,Napier Road,,,,adj,,E,E0041489,Kings Meadow,Reading,,,,,,false,UKOS,472390,173856,-0.95945,51.45906,BCT,MKD,OTH,,,,046,2006-02-01T00:00:00,2013-06-07T11:24:00,2,new,active
039027990001,rdgdwdj,,,Kings Reach,,,,opposite Kings Reach,,Napier Road,,,,opp,,W,E0041489,Kings Meadow,Reading,,,,,,false,UKOS,472404,173843,-0.95925,51.45894,BCT,MKD,OTH,,,,046,2006-02-01T00:00:00,2013-06-07T11:25:00,2,new,active
039028020001,rdgdwdt,,,Blossom Road,,,,,,St Peters Hill,,,,opp,,N,E0041480,Caversham Heights,Caversham,,Reading,EN,,,false,UKOS,470701,175130,-0.9835,51.47073,BCT,CUS,OTH,,,,046,2007-02-01T00:00:00,2018-06-19T11:28:00,2,new,active
039028020002,rdgdwdw,,,Blossom Road,,,,,,St Peters Hill,,,,adj,,S,E0041480,Caversham Heights,Caversham,,Reading,EN,,,false,UKOS,470722,175116,-0.9832,51.4706,BCT,CUS,OTH,,,,046,2007-02-01T00:00:00,2018-06-19T11:29:00,2,new,active
039028030001,rdgdwgd,,,Greenfields Road,,,,Lamp Post,,Blandford Road,,,,adj,,N,N0060300,Whitley Wood,Reading,,Reading,EN,Whitley,EN,false,UKOS,472155,169623,-0.96369,51.42104,BCT,MKD,OTH,,,,046,2007-10-17T00:00:00,2019-01-28T16:24:00,4,new,active
039028030002,rdgdwgj,,,Greenfields Road,,,,Lamp Post,,Blandford Road,,,,opp,,S,N0060300,Whitley Wood,Reading,,Reading,EN,Whitley,EN,false,UKOS,472167,169649,-0.96351,51.42127,BCT,MKD,OTH,,,,046,2007-10-17T00:00:00,2009-01-28T14:30:00,2,new,active
039028040001,rdgdwgm,,,Ambrook Road,,,,Lamp Post,,Blandford Road,,,,adj,,N,N0060300,Whitley Wood,Reading,,Reading,EN,Whitley,EN,false,UKOS,472139,169935,-0.96386,51.42384,BCT,MKD,OTH,,,,046,2007-10-17T00:00:00,2019-01-28T16:25:00,4,new,active
039028040002,rdgdwgp,,,Ambrook Road,,,,Lamp Post,,Blandford Road,,,,opp,,S,N0060300,Whitley Wood,Reading,,Reading,EN,Whitley,EN,false,UKOS,472153,169956,-0.96365,51.42403,BCT,MKD,OTH,,,,046,2007-10-17T00:00:00,2009-11-18T15:41:00,2,new,active
039028050001,rdgdwgw,,,Chapel Hill Westwood Glen,,,,Lamp Post,,Chapel Hill,,,,opp 127,,E,E0041494,Tilehurst,Reading,,Reading,EN,Tilehurst,EN,false,UKOS,466065,173912,-1.05046,51.46034,BCT,MKD,OTH,,,,046,2007-10-17T00:00:00,2011-05-25T18:30:00,3,new,active
039028050002,rdgdwmw,,,Chapel Hill Westwood Glen,,,,Westwood Glen,,Chapel Hill,,,,adj 135,,NW,E0041494,Tilehurst,Reading,,Reading,EN,Tilehurst,EN,false,UKOS,466062,173900,-1.05051,51.46023,BCT,CUS,OTH,,,,046,2010-08-18T00:00:00,2010-08-18T11:31:00,1,new,active
039028060002,rdgdwjg,,,Hilton Hotel,,,,Hilton Hotel,,Lindisfarne Way,,,,opp,,E,N0078420,Kennet Island,Reading,,Reading,EN,Kennet Island,EN,false,UKOS,471212,170734,-0.97703,51.43114,BCT,MKD,OTH,,,,046,2008-04-04T00:00:00,2018-10-11T14:27:00,4,new,active
039028060005,rdgdwmt,,,Hilton Hotel,,,,Hilton Hotel,,Lindisfarne Way,,,,adj,,W,N0078420,Kennet Island,Reading,,Reading,EN,Kennet Island,EN,false,UKOS,471197,170729,-0.97725,51.4311,BCT,MKD,OTH,,,,046,2009-09-01T00:00:00,2020-10-22T16:41:17,9,new,active
039028060003,rdgdwjw,,,Central Piazza,,,,Kennet Island,,Lindisfarne Way,,,,adj,,E,N0078420,Kennet Island,Reading,,Reading,EN,Kennet Island,EN,false,UKOS,471324,170698,-0.97543,51.43081,BCT,MKD,OTH,,,,046,2009-06-03T00:00:00,2009-06-03T14:12:00,1,new,active
039028060004,rdgdwmj,,,Central Piazza,,,,Kennet Island,,Lindisfarne Way,,,,opp,,W,N0078420,Kennet Island,Reading,,Reading,EN,Kennet Island,EN,false,UKOS,471346,170680,-0.97511,51.43064,BCT,MKD,OTH,,,,046,2009-06-03T00:00:00,2009-06-03T14:12:00,1,new,active
039028070002,rdgdwjt,,,Windsor Hall,,,,Adjacent Car Park entrance,,Upper Redlands Road,,,,opp,,E,E0041484,Whiteknights,Reading,,Reading,EN,,,false,UKOS,473271,172387,-0.94707,51.44574,BCT,MKD,OTH,,,,046,2008-11-13T00:00:00,2011-06-15T17:58:00,4,new,active
039028070001,rdgdwjp,,,Windsor Hall,,,,lamppost,,Upper Redlands Road,,,,adj,,W,E0041484,Whiteknights,Reading,,Reading,EN,,,false,UKOS,473191,172360,-0.94823,51.44551,BCT,MKD,OTH,,,,046,2008-11-13T00:00:00,2009-11-18T15:41:00,3,new,active
039028080001,rdgdwma,,,Rodwell Drive,,,,Rodwell Drive,,Hartland Road,,,,opp,,E,N0060300,Whitley Wood,Reading,,Reading,EN,Whitley Wood,EN,false,UKOS,472661,170110,-0.95632,51.42535,BCT,MKD,OTH,,,,046,2009-03-20T00:00:00,2009-03-20T10:43:00,0,new,active
039028080002,rdgdwmd,,,Rodwell Drive,,,,Rodwell Drive,,Hartland Road,,,,adj,,W,N0060300,Whitley Wood,Reading,,Reading,EN,Whitley Wood,EN,false,UKOS,472672,170097,-0.95616,51.42523,BCT,MKD,OTH,,,,046,2009-03-20T00:00:00,2009-03-20T10:45:00,0,new,active
039028090001,rdgdwmg,,,Alexandra Road Mosque,,,,Mosque,,Alexandra Road,,,,adj,,N,N0071701,Erleigh Road,Reading,,,,,,false,UKOS,472928,172652,-0.95196,51.44817,BCT,MKD,OTH,,,,046,2009-03-20T00:00:00,2009-03-20T10:59:00,2,new,active
039028100001,rdgdwpd,,,Manor Farm Road,,,,Kennet Island,,Manor Farm Road,,,,on,,E,N0078420,Kennet Island,Reading,,Reading,EN,Kennet Island,EN,false,UKOS,471580,170663,-0.97175,51.43046,BCT,MKD,OTH,,,,046,2010-10-18T00:00:00,2012-12-14T14:59:00,3,new,active
039028100002,rdgdwpg,,,Manor Farm Road,,,,Kennet Island,,Manor Farm Road,,,,W-bound,,W,N0078420,Kennet Island,Reading,,Reading,EN,Kennet Island,EN,false,UKOS,471506,170668,-0.97281,51.43051,BCT,MKD,OTH,,,,046,2010-10-18T00:00:00,2013-04-23T15:35:00,3,new,active
039028110001,rdgdwpj,,,Courtenay Drive,,,,,,Peppard Road,,,,adj,,N,E0041485,Emmer Green,Caversham,,,,,,false,UKOS,472163,177191,-0.96204,51.48907,BCT,MKD,OTH,,,,046,2010-11-11T00:00:00,2018-06-18T15:04:00,2,new,active
039028110002,rdgdwpw,,,Courtenay Drive,,,,,,Peppard Road,,,,opp,,S,E0041485,Emmer Green,Caversham,,,,,,false,UKOS,472177,177193,-0.96183,51.48909,BCT,MKD,OTH,,,,046,2010-11-11T00:00:00,2018-06-18T15:04:00,2,new,active
039028140001,rdgjadt,,,Station Road,,,,Adjacent Thames Tower,,Station Road,,,,Stop SA,,NE,E0055119,Reading Town Centre,Reading,,Reading,EN,,,false,UKOS,471499,173740,-0.9723,51.45813,BCT,MKD,OTH,,,,046,2011-02-08T00:00:00,2018-10-11T14:29:00,4,new,active
039028140003,rdgjaga,,,Station Road,,,,opposite Malmaison Hotel,,Station Road,,,,Stop SB,,N,E0055119,Reading Town Centre,Reading,,Reading,EN,,,false,UKOS,471503,173697,-0.97225,51.45774,BCT,MKD,OTH,,,,046,2011-02-08T00:00:00,2014-07-01T11:26:00,2,new,active
039028140004,rdgjagd,,,Station Road,,,,opposite Revolution,,Station Road,,,,Stop SC,,N,E0055119,Reading Town Centre,Reading,,Reading,EN,,,false,UKOS,471505,173676,-0.97222,51.45756,BCT,MKD,OTH,,,,046,2011-02-08T00:00:00,2014-07-01T11:27:00,2,new,active
039028140006,rdgjagm,,,Station Road,,,,Adjacent Nationwide,,Station Road,,,,Stop SD,,N,E0055119,Reading Town Centre,Reading,,Reading,EN,,,false,UKOS,471509,173628,-0.97217,51.45712,BCT,MKD,OTH,,,,046,2011-02-08T00:00:00,2014-07-01T11:27:00,2,new,active
039028150005,rdgjajd,,,Blagrave Street,,,,opposite Oakford Social Club,,Blagrave Street,,,,stop EJ,,E,E0055119,Reading Town Centre,Reading,,Reading,EN,,,false,UKOS,471551,173726,-0.97155,51.458,BCT,MKD,OTH,,,,046,2011-02-08T00:00:00,2011-03-04T14:52:00,1,new,active
039028150004,rdgjaja,,,Blagrave Street,,,,opposite Aquis House,,Blagrave Street,,,,stop EK,,E,E0055119,Reading Town Centre,Reading,,Reading,EN,,,false,UKOS,471571,173725,-0.97126,51.45799,BCT,MKD,OTH,,,,046,2011-02-08T00:00:00,2011-03-04T14:52:00,1,new,active
039028150003,rdgjagw,,,Blagrave Street,,,,Adjacent Malmaison Hotel,,Blagrave Street,,,,stop EM,,W,E0055119,Reading Town Centre,Reading,,Reading,EN,,,false,UKOS,471518,173715,-0.97203,51.4579,BCT,MKD,OTH,,,,046,2011-02-08T00:00:00,2011-03-04T14:52:00,1,new,active
039028150002,rdgjagt,,,Blagrave Street,,,,opposite The Blagrave Arms,,Blagrave Street,,,,Stop EO,,S,E0055119,Reading Town Centre,Reading,,Reading,EN,,,false,UKOS,471633,173686,-0.97038,51.45763,BCT,MKD,OTH,,,,046,2011-02-08T00:00:00,2018-11-27T16:26:00,2,new,active
039028150001,rdgjagp,,,Blagrave Street,,,,Valpy Street,,Blagrave Street,,,,Stop EP,,S,E0055119,Reading Town Centre,Reading,,Reading,EN,,,false,UKOS,471641,173666,-0.97027,51.45745,BCT,MKD,OTH,,,,046,2011-02-08T00:00:00,2018-11-27T16:27:00,3,new,active
039028160001,rdgjajm,,,Forbury Road,,,,Adjacent Apex Plaza,,Forbury Road,,,,stop EL,,E,E0055119,Reading Town Centre,Reading,,Reading,EN,,,false,UKOS,471669,173725,-0.96985,51.45798,BCT,MKD,OTH,,,,046,2011-02-08T00:00:00,2013-06-27T12:27:00,2,new,active
039028160002,rdgjajp,,,Forbury Road,,,,opposite Apex Plaza,,Forbury Road,,,,stop EN,,W,E0055119,Reading Town Centre,Reading,,Reading,EN,,,false,UKOS,471652,173716,-0.9701,51.4579,BCT,MKD,OTH,,,,046,2011-02-08T00:00:00,2011-03-04T14:53:00,1,new,active
039028180001,rdgjamg,,,Valpy Street,,,,opposite Reading Museum,,Valpy Street,,,,Stand EQ,,E,E0055119,Reading Town Centre,Reading,,Reading,EN,,,false,UKOS,471671,173654,-0.96984,51.45734,BCT,MKD,OTH,,,,046,2013-06-27T00:00:00,2013-06-27T12:24:00,0,new,active
039028200001,rdgjamt,,,Eastern Avenue Foot,,,,,,Eastern Avenue,,,,N-bound,,N,E0041484,Whiteknights,Reading,,,,,,false,UKOS,473430,172510,-0.94476,51.44683,BCT,MKD,OTH,,,,046,2011-05-13T00:00:00,2018-06-11T16:21:00,5,new,active
039028200002,rdgjapa,,,Eastern Avenue Foot,,,,,,Eastern Avenue,,,,S-bound,,S,E0041484,Whiteknights,Reading,,,,,,false,UKOS,473449,172504,-0.94449,51.44677,BCT,MKD,OTH,,,,046,2011-05-13T00:00:00,2018-06-11T16:21:00,4,new,active
039028210001,rdgdwtm,,,UoR London Road,,,,Kendrick Student Village,,London Road,,,,o/s,,W,E0041492,The Mount,Reading,,Reading,EN,,,false,UKOS,472094,172935,-0.9639,51.45082,BCT,MKD,OTH,,,,046,2011-07-18T00:00:00,2011-07-18T09:59:00,1,new,active
039028220002,rdgdwtw,,,Crown Place Passage,,,,The Abbey School,,Kendrick Road,,,,opp,,N,E0041492,The Mount,Reading,,Reading,EN,,,false,UKOS,472074,172723,-0.96423,51.44892,BCT,MKD,OTH,,,,046,2011-07-18T00:00:00,2012-05-09T11:23:00,3,new,active
039028220001,rdgdwtp,,,Crown Place Passage,,,,The Abbey School,,Kendrick Road,,,,adj,,S,E0041492,The Mount,Reading,,Reading,EN,,,false,UKOS,472084,172719,-0.96408,51.44888,BCT,MKD,OTH,,,,046,2011-07-18T00:00:00,2012-05-09T11:23:00,4,new,active
039026100001,rdgatap,,,Greyfriars Road,,,,Sackville Street,,Greyfriars Road,,,,stop FG,,N,E0055119,Reading Town Centre,Reading,,Reading,EN,,,false,UKOS,471254,173601,-0.97585,51.45691,BCT,MKD,OTH,,,,046,2006-02-01T00:00:00,2011-02-08T09:37:00,1,new,active
039028270001,rdgjapw,,,Greyfriars Road,,,,Xianta House,,Greyfriars Road,,,,stop WF,,S,E0055119,Reading Town Centre,Reading,,Reading,EN,,,false,UKOS,471277,173761,-0.97549,51.45835,BCT,MKD,OTH,,,,046,2011-11-22T00:00:00,2012-03-29T15:57:00,3,new,active
039028290001,rdgjatw,,,Imperial Way,,,,Worton Drive,,Imperial Way,,,,NE-bound,,NE,N0060307,Worton Grange,Reading,,Reading,EN,,,false,UKOS,471455,169434,-0.9738,51.41943,BCT,MKD,OTH,,,,046,2012-09-10T00:00:00,2023-05-16T15:44:02,34,delete,inactive
039028290002,rdgjawa,,,Imperial Way,,,,Worton Drive,,Imperial Way,,,,SW-bound,,SW,N0060307,Worton Grange,Reading,,Reading,EN,,,false,UKOS,471465,169424,-0.97365,51.41933,BCT,MKD,OTH,,,,046,2012-09-10T00:00:00,2023-05-16T15:44:34,34,delete,inactive
039028320001,rdgjdad,,,Station North Interchange,,,,Reading Station North Entrance,,Trooper Potts Way,,,,Stop NA,,NE,N0071726,Reading,,,,,,,false,UKOS,471564,173998,-0.97131,51.46044,BCT,MKD,OTH,,,,046,2013-05-31T00:00:00,2018-11-27T16:34:00,2,new,active
039028320002,rdgjdag,,,Station North Interchange,,,,Reading Station North Entrance,,Trooper Potts Way,,,,Stop NB,,NE,N0071726,Reading,,,,,,,false,UKOS,471554,173979,-0.97146,51.46027,BCT,MKD,OTH,,,,046,2013-05-31T00:00:00,2018-11-27T16:33:00,3,new,active
039028320003,rdgjdaj,,,Station North Interchange,,,,Reading Station North Entrance,,Trooper Potts Way,,,,Stop NC,,S,N0071726,Reading,,,,,,,false,UKOS,471570,173982,-0.97122,51.4603,BCT,MKD,OTH,,,,046,2013-05-31T00:00:00,2018-02-05T15:40:00,1,new,active
039028320004,rdgjdam,,,Station North Interchange,,,,Reading Station North Entrance,,Unnamed Road,,,,stop ND,,S,N0071726,Reading,,,,,,,false,UKOS,471558,173959,-0.9714,51.46009,BCT,MKD,OTH,,,,046,2013-05-31T00:00:00,2013-05-31T14:48:00,0,new,active
039028320005,rdgjdgj,,,Station North Interchange,,,,Reading Station North Entrance,,Bagnall Way,,,,Stop NE,,S,N0071726,Reading,,,,,,,false,UKOS,471554,173936,-0.97146,51.45989,BCT,MKD,OTH,,,,046,2014-12-04T00:00:00,2018-02-05T15:38:00,1,new,active
039028370001,rdgjdgm,,,RBH Redlands Road,,,,Acacia Road,,Redlands Road,,,,adj,,N,N0060310,Royal Berkshire Hospital,Reading,,,,,,false,UKOS,472390,172794,-0.95967,51.44951,BCT,MKD,OTH,,,,046,2014-12-12T00:00:00,2024-02-27T14:18:52,40,new,active
039028380001,rdgjdgp,,,Queens Drive,,,,Sports Pitches,,The Queens Drive,,,,nr,,E,N0060303,University of Reading,Reading,,,,,,false,UKOS,473087,171978,-0.94981,51.44209,BCT,CUS,OTH,,,,046,2014-12-12T00:00:00,2015-01-09T17:28:00,2,new,active
039028380002,rdgjgap,,,UoR Carpark 1a,,,,,,,,,,in,,W,N0060303,University of Reading,Reading,,,,,,false,UKOS,473021,171984,-0.95075,51.44215,BCT,CUS,OTH,,,,046,2024-07-04T00:00:00,2024-12-12T14:22:28,71,new,active
039028390001,rdgjdgt,,,The Slopes,,,,,,Lower Henley Road,,,,opp,,E,E0041479,Caversham,Reading,,Reading,EN,,,false,UKOS,472575,175023,-0.95655,51.46953,BCT,MKD,OTH,,,,046,2015-07-01T00:00:00,2015-07-01T15:05:00,0,new,active
039028390002,rdgjdgw,,,The Slopes,,,,,,Lower Henley Road,,,,adj,,W,E0041479,Caversham,Reading,,Reading,EN,,,false,UKOS,472586,174999,-0.95639,51.46931,BCT,MKD,OTH,,,,046,2015-07-01T00:00:00,2015-07-01T15:08:00,0,new,active
039028400002,rdgjdjd,,,Rufus Isaacs Road,,,,,,Henley Road,,,,opp,,E,E0041479,Caversham,Reading,,Reading,EN,,,false,UKOS,471880,175084,-0.96654,51.47017,BCT,MKD,OTH,,,,046,2015-07-01T00:00:00,2019-01-28T13:35:00,1,new,active
039028400001,rdgjdja,,,Rufus Isaacs Road,,,,,,Henley Road,,,,adj,,W,E0041479,Caversham,Reading,,Reading,EN,,,false,UKOS,471886,175070,-0.96646,51.47004,BCT,MKD,OTH,,,,046,2015-07-01T00:00:00,2019-04-02T12:39:00,2,new,active
039028410001,rdgjdjp,,,Chelford Way,,,,,,Albert Road,,,,S-bound,,S,E0041480,Caversham Heights,Caversham,,Reading,EN,,,false,UKOS,470544,175831,-0.98562,51.47705,BCT,MKD,OTH,,,,046,2015-07-01T00:00:00,2015-07-01T15:40:00,0,new,active
039028420002,rdgjdjw,,,Oakley Road,,,,,,Oakley Road,,,,E-bound,,E,E0041480,Caversham Heights,Caversham,,,,,,false,UKOS,470900,175629,-0.98054,51.47519,BCT,MKD,OTH,,,,046,2015-07-01T00:00:00,2019-01-28T13:30:00,1,new,active
039028420001,rdgjdjt,,,Oakley Road,,,,,,Oakley Road,,,,W-bound,,W,E0041480,Caversham Heights,Caversham,,Reading,EN,,,false,UKOS,470907,175617,-0.98044,51.47508,BCT,MKD,OTH,,,,046,2015-07-01T00:00:00,2019-01-28T13:29:00,2,new,active
039028430001,rdgjdmd,,,500 Brook Drive,,,,,,Brook Drive,,,,adj,,N,N0071710,GreenPark,Reading,,,,,,false,UKOS,470207,169585,-0.99171,51.42094,BCT,MKD,OTH,,,,046,2015-11-13T00:00:00,2015-11-13T12:13:00,0,new,active
039028440001,rdgjdmg,,,Kenavon Drive,,,,,,Kenavon Drive,,,,on,,SW,E0055119,Reading Town Centre,Reading,,Reading,EN,,,false,UKOS,472572,173569,-0.95689,51.45646,BCT,MKD,OTH,,,,046,2016-05-13T00:00:00,2016-05-13T17:36:00,0,new,active
039028450001,rdgjdmj,,,The Meridian,,,,,,Kenavon Drive,,,,adj,,NW,E0055119,Reading Town Centre,Reading,,Reading,EN,,,false,UKOS,472449,173549,-0.95866,51.45629,BCT,MKD,OTH,,,,046,2016-05-13T00:00:00,2016-05-13T17:41:00,0,new,active
039028450002,rdgjdmp,,,The Meridian,,,,,,Kenavon Drive,,,,opp,,SE,E0055119,Reading Town Centre,Reading,,Reading,EN,,,false,UKOS,472408,173599,-0.95924,51.45675,BCT,MKD,OTH,,,,046,2016-05-13T00:00:00,2016-05-13T17:44:00,0,new,active
039028460002,rdgjdmw,,,Forbury Retail Park,,,,,,Kenavon Drive,,,,E-bound,,E,E0055119,Reading Town Centre,Reading,,Reading,EN,,,false,UKOS,472301,173661,-0.96077,51.45732,BCT,MKD,OTH,,,,046,2016-05-13T00:00:00,2016-05-13T17:53:00,0,new,active
039028460001,rdgjdmt,,,Forbury Retail Park,,,,,,Kenavon Drive,,,,W-bound,,W,E0055119,Reading Town Centre,Reading,,Reading,EN,,,false,UKOS,472295,173643,-0.96086,51.45716,BCT,MKD,OTH,,,,046,2016-05-13T00:00:00,2016-05-13T17:52:00,0,new,active
039028570001,rdgjdwd,,,Kennet Island turn,,,,,,A33 Reading Relief Road,,,,after,,N,N0078420,Kennet Island,Reading,,,,,,false,UKOS,471106,170819,-0.97854,51.43192,BCT,MKD,OTH,,,,046,2020-01-30T00:00:00,2020-01-30T15:53:00,0,new,active
039028470001,rdgjdpa,,,Kennet Island turn,,,,Adjacent Kennet Island,,A33,,,,S-bound,,S,N0078420,Kennet Island,Reading,,,,,,false,UKOS,471102,170692,-0.97862,51.43078,BCT,MKD,OTH,,,,046,2016-07-01T00:00:00,2017-11-22T11:21:00,1,new,active
039028510001,rdgjdpj,,,Perkins Way,,,,,,Perkins Way,,,,NW-bound,,NW,N0060307,Worton Grange,Reading,,,,,,false,UKOS,471495,169296,-0.97325,51.41818,BCT,MKD,OTH,,,,046,2018-10-19T00:00:00,2018-10-19T15:01:00,0,new,active
039028510002,rdgjdpm,,,Perkins Way,,,,,,Perkins Way,,,,SE-bound,,SE,N0060307,Worton Grange,Reading,,,,,,false,UKOS,471499,169300,-0.97319,51.41822,BCT,MKD,OTH,,,,046,2018-10-19T00:00:00,2019-04-02T12:54:00,1,new,active
039028520001,rdgjdta,,,Oak Tree House,,,,,,Spey Road,,,,adj,,NW,N0071704,Dee Road Estate,Reading,,,,,,false,UKOS,468402,173502,-1.01691,51.45637,BCT,MKD,OTH,,,,046,2019-04-11T00:00:00,2019-04-11T12:14:00,0,new,active
039028530001,rdgjdtd,,,Chatham Street Layby,,,,,,Chatham Street,,,,W-bound,,W,E0055119,Reading Town Centre,Reading,,,,,,false,UKOS,470973,173534,-0.97991,51.45635,BCT,MKD,OTH,,,,046,2019-06-06T00:00:00,2019-06-06T17:33:00,0,new,active
039028540002,rdgjdtj,,,400 Longwater Avenue,,,,,,Longwater Avenue,,,,opp,,N,N0071710,GreenPark,Reading,,,,,,false,UKOS,469891,169832,-0.99621,51.4232,BCT,MKD,OTH,,,,046,2019-07-01T00:00:00,2019-07-01T12:07:00,1,new,active
039028540001,rdgjdtg,,,400 Longwater Avenue,,,,,,Longwater Avenue,,,,adj,,S,N0071710,GreenPark,Reading,,,,,,false,UKOS,469899,169793,-0.9961,51.42285,BCT,MKD,OTH,,,,046,2019-07-01T00:00:00,2019-07-01T11:42:00,0,new,active
039028550002,rdgjdtp,,,500 Longwater Avenue,,,,,,Longwater Avenue,,,,opp,,N,N0071710,GreenPark,Reading,,,,,,false,UKOS,469929,169542,-0.99572,51.42059,BCT,MKD,OTH,,,,046,2019-07-01T00:00:00,2019-07-01T11:56:00,0,new,active
039028550001,rdgjdtm,,,500 Longwater Avenue,,,,,,Longwater Avenue,,,,adj,,S,N0071710,GreenPark,Reading,,,,,,false,UKOS,469953,169515,-0.99538,51.42034,BCT,MKD,OTH,,,,046,2019-07-01T00:00:00,2019-07-01T11:52:00,0,new,active
039028560001,rdgjdwa,,,Little Lea,,,,,,A33,,,,adj,,SE,N0060307,Worton Grange,Reading,,,,,,false,UKOS,471455,169168,-0.97385,51.41703,BCT,MKD,OTH,,,,046,2020-01-30T00:00:00,2020-01-30T15:44:00,0,new,active
039028600001,rdgjdwm,,,Brunel Retail Park,,,,,,Gillette Way,,,,adj,,S,E0041496,Whitley,Reading,,Reading,EN,Whitley,EN,false,UKOS,471579,171139,-0.97167,51.43474,BCT,MKD,OTH,,,,046,2020-10-26T00:00:00,2020-10-26T14:12:07,59,new,active
039028610001,rdgjdwp,,,Reading Gate Retail Park,,,,,,A33,,,,opp,,SE,N0060308,Reading Stadium,Reading,,Reading,EN,,,false,UKOS,471045,169983,-0.97958,51.42441,BCT,MKD,OTH,,,,046,2020-10-26T00:00:00,2020-10-26T14:46:26,53,new,active
039028620001,rdgjdwt,,,Cemetery Junction London Road,,,,W-bound,,London Road,,,,W-bound,,W,N0071726,Reading,,,,,,,false,UKOS,472951,173134,-0.95152,51.4525,BCT,MKD,OTH,,,,046,2021-08-20T00:00:00,2022-02-09T14:47:03,90,new,active
039028630001,rdgjgad,,,Erleigh Road - Blenheim Road,,,,,,Erleigh Road,,,,,,E,N0071701,Erleigh Road,Reading,,,,,,false,UKOS,473121,172818,-0.94914,51.44964,BCT,MKD,OTH,,,,046,2021-08-20T00:00:00,2021-08-20T12:12:57,52,new,active
039028640001,rdgjgag,,,RUSU The Square,,,,,,,,,,adj,,E,N0060303,University of Reading,Reading,,,,,,false,UKOS,473520,171686,-0.94364,51.43941,BCT,CUS,OTH,,,,046,2021-08-25T00:00:00,2021-10-28T12:31:30,66,new,active
039028650001,,,,Thames Promenade car park,,,,,,,,,,in,,W,N0060317,Rivermead,Reading,,,,,,false,UKOS,470992,174582,-0.97942,51.46577,BCT,CUS,OTH,,,,046,2022-04-29T00:00:00,2022-04-29T12:14:41,46,new,active
039028660001,,,,Imperial Way,,,,,,,,,,adj,,N,N0060307,Worton Grange,Reading,,,,,,false,UKOS,471248,169369,-0.97679,51.41887,BCT,MKD,OTH,,,,046,2023-05-15T00:00:00,2023-05-16T15:41:06,55,new,active
039028670001,,,,Reading Green Park Station,,,,,,,,,,o/s,,N,N0071710,GreenPark,Reading,,,,,,false,UKOS,469549,170210,-1.00105,51.42664,BCT,MKD,OTH,,,,046,2023-11-06T00:00:00,2023-11-06T15:52:57,45,new,active
039028680001,,,,Rivermead Leisure Centre,,,,,,,,,,opp,,W,N0060317,Rivermead,Reading,,,,,,false,UKOS,470597,174388,-0.98515,51.46407,BCT,MKD,OTH,,,,046,2024-02-04T00:00:00,2024-02-07T12:39:54,55,new,active
039028690001,rdgjgjd,,,River Academy,,,,,,Richfield Avenue,,,,adj,,NE,N0060317,Rivermead,Reading,,,,,,false,UKOS,470383,174285,-0.98825,51.46317,BCT,MKD,OTH,,,,046,2024-02-04T00:00:00,2024-12-12T16:14:28,78,new,active
039028700001,rdgjgda,,,Ashmere Terrace,,,,,,Portman Road,,,,opp,,NW,N0060312,Portman Road Industrial Estate,Reading,,,,,,false,UKOS,469970,173950,-0.99426,51.46021,BCT,MKD,OTH,,,,046,2024-02-05T00:00:00,2024-12-12T14:45:51,67,new,active
039028700002,rdgjgdg,,,Ashmere Terrace,,,,,,Portman Road,,,,adj,,SE,N0060312,Portman Road Industrial Estate,Reading,,,,,,false,UKOS,470065,173904,-0.9929,51.45979,BCT,MKD,OTH,,,,046,2024-02-05T00:00:00,2024-12-12T14:46:21,67,new,active
039028710001,rdgjgdj,,,Portman Road Tesco,,,,,,Portman Road,,,,adj,,W,N0060312,Portman Road Industrial Estate,Reading,,,,,,false,UKOS,469692,173999,-0.99825,51.46069,BCT,MKD,OTH,,,,046,2024-02-05T00:00:00,2024-12-12T14:49:48,65,new,active
039028710002,rdgjgdm,,,Portman Road Tesco,,,,,,Portman Road,,,,opp,,E,N0060312,Portman Road Industrial Estate,Reading,,,,,,false,UKOS,469847,173997,-0.99602,51.46065,BCT,MKD,OTH,,,,046,2024-02-05T00:00:00,2024-12-12T14:50:12,65,new,active
039028720001,rdgjgdp,,,Bridgewater Close,,,,,,Portman Road,,,,adj,,NW,N0060312,Portman Road Industrial Estate,Reading,,,,,,false,UKOS,469121,174113,-1.00644,51.46178,BCT,MKD,OTH,,,,046,2024-02-05T00:00:00,2024-12-12T15:01:33,64,new,active
039028720002,rdgjgdt,,,Bridgewater Close,,,,,,Portman Road,,,,opp,,SE,N0060312,Portman Road Industrial Estate,Reading,,,,,,false,UKOS,469219,174094,-1.00504,51.4616,BCT,MKD,OTH,,,,046,2024-02-05T00:00:00,2024-12-12T15:01:46,65,new,active
039028730001,rdgjgdw,,,Stone Street,,,,,,Wigmore Lane,,,,adj,,SW,N0060313,Norcot,Tilehurst,,,,,,false,UKOS,468686,174229,-1.01268,51.46288,BCT,MKD,OTH,,,,046,2024-02-05T00:00:00,2024-12-12T16:05:31,65,new,active
039028730002,rdgjgja,,,Stone Street,,,,,,Wigmore Lane,,,,opp,,NE,N0060313,Norcot,Tilehurst,,,,,,false,UKOS,468770,174259,-1.01147,51.46314,BCT,MKD,OTH,,,,046,2024-02-05T00:00:00,2024-12-12T16:05:55,65,new,active
039028740001,rdgjgam,,,Rose Kiln Lane North,,,,,,,,,,,,NE,N0071726,Reading,,,,,,,false,UKOS,471289,172230,-0.97562,51.44458,BCT,MKD,OTH,,,,046,2024-02-21T00:00:00,2024-12-12T14:41:52,82,new,active
039028740002,rdgjgaw,,,Rose Kiln Lane North,,,,,,,,,,,,S,N0071726,Reading,,,,,,,false,UKOS,471223,171992,-0.97662,51.44245,BCT,MKD,OTH,,,,046,2024-02-21T00:00:00,2024-12-12T14:42:19,68,new,active
0390RDNG4AB0,,,,Reading Rail Station,,,,,,Station Approach,,,,Entrance,,,N0071726,Reading,,,,,,,false,UKOS,471516,173783,-0.97204,51.45852,RSE,,,,,,046,2021-10-21T00:00:00,2021-10-21T11:38:45,0,new,active
0390RDNG4AB1,,,,Reading Rail Station,,,,,,Forbury Road,,,,Entrance,,,N0071726,Reading,,,,,,,false,UKOS,471567,173740,-0.97132,51.45812,RSE,,,,,,046,1970-01-01T00:00:00,2020-07-28T10:31:02,0,new,active
0390RDNG4AB2,,,,Reading Rail Station,,,,,,Entrance from Long Stay Car Park,,,,Entrance,,,N0071726,Reading,,,,,,,false,UKOS,471514,173932,-0.97204,51.45986,RSE,,,,,,046,1970-01-01T00:00:00,2024-09-14T20:27:35,0,new,active
0390RDNGSTN0,,,,Reading Rail Station,,,,,,Station Approach,,,,Entrance,,,N0071726,Reading,,,,,,,false,UKOS,471516,173782,-0.97204,51.45851,RSE,,,,,,046,1970-01-01T00:00:00,2024-09-14T20:27:35,0,new,active
0390RDNGSTN1,,,,Reading Rail Station,,,,,,Forbury Road,,,,Entrance,,,N0071726,Reading,,,,,,,false,UKOS,471567,173739,-0.97132,51.45811,RSE,,,,,,046,1970-01-01T00:00:00,2020-07-28T10:31:02,0,new,active
0390RDNGSTN2,,,,Reading Rail Station,,,,,,Entrance From Long Stay Car Park,,,,Entrance,,,N0071726,Reading,,,,,,,false,UKOS,471514,173931,-0.97204,51.45985,RSE,,,,,,046,1970-01-01T00:00:00,2024-09-14T20:27:35,0,new,active
0390RDNG4AB3,,,,Reading Rail Station,,,,,,,,,,Entrance,,,N0071726,Reading,,,,,,,false,UKOS,471464,173805,-0.97279,51.45872,RSE,,,,,,046,1970-01-01T00:00:00,2013-05-31T15:23:00,0,new,active
0390RDNGSTN3,,,,Reading Rail Station,,,,,,,,,,Entrance,,,N0071726,Reading,,,,,,,false,UKOS,471465,173805,-0.97277,51.45872,RSE,,,,,,046,1970-01-01T00:00:00,2013-05-31T15:22:00,0,new,active
0390REDGWST0,,,,Reading West Rail Station,,,,,,Oxford Road,,,,Entrance,,,N0071726,Reading,,,,,,,false,UKOS,470256,173452,-0.99024,51.4557,RSE,,,,,,046,2021-10-21T00:00:00,2021-10-21T11:38:45,0,new,active
0390REDGWST1,,,,Reading West Rail Station,,,,,,Tilehurst Road,,,,Entrance,,,N0071726,Reading,,,,,,,false,UKOS,470165,173058,-0.99163,51.45217,RSE,,,,,,046,1970-01-01T00:00:00,2020-07-28T10:31:02,0,new,active
0390TILHRST0,,,,Tilehurst Rail Station,,,,,,Station Forecourt,,,,Entrance,,,E0041494,Tilehurst,Reading,,,,,,false,UKOS,467488,175163,-1.02975,51.47142,RSE,,,,,,046,2021-10-21T00:00:00,2021-10-21T11:38:45,0,new,active
039027810001,rdgdtpg,,,Whitley Wood Community Centre,,,,Copenhagen Close,,Swallowfield Drive,,,,Adj,,SE,N0060300,Whitley Wood,Reading,,,,,,false,UKOS,472053,169031,-0.96528,51.41573,BCT,MKD,OTH,,,,046,2006-02-01T00:00:00,2006-12-06T16:28:00,1,new,active
039027090001,rdgdjtj,,,Redlands Road South Wing,,,,Addington Road,,Redlands Road,,,,Adj,,S,N0060310,Royal Berkshire Hospital,Reading,,,,,,false,UKOS,472502,172572,-0.9581,51.4475,BCT,MKD,OTH,,,,046,2006-02-01T00:00:00,2013-01-22T15:22:00,3,new,active
039027490001,rdgdpja,,,The Maying,,,,The Maying,,Swallowfield Drive,,,,adj,,NW,N0060300,Whitley Wood,Reading,,,,,,false,UKOS,471873,168951,-0.96788,51.41503,BCT,MKD,OTH,,,,046,2006-02-01T00:00:00,2013-01-31T12:58:00,2,new,active
039025870001,rdgapdg,,,Devon Drive,,,,Bramber Mews,,Caversham Park Road,,,,adj,,NW,E0041481,Caversham Park Village,Caversham,,,,,,false,UKOS,473400,175954,-0.94448,51.47779,BCT,MKD,OTH,,,,046,2006-02-01T00:00:00,2012-07-19T14:57:00,1,new,active
039027530001,rdgdpma,,,The Restoration,,,,Selbourne Gardens,,A329 Oxford Road,,,,Adj,,SE,N0060313,Norcot,Tilehurst,,,,,,false,UKOS,468304,174445,-1.01814,51.46486,BCT,MKD,OTH,,,,046,2006-02-01T00:00:00,2006-12-06T16:24:00,1,new,active
039027080001,rdgdjtg,,,Redlands Road Foot,,,,Adjacent Royal Berks Hospital Radiotherapy Dept,,Redlands Road,,,,at,,S,N0060310,Royal Berkshire Hospital,Reading,,,,,,false,UKOS,472355,172920,-0.96014,51.45065,BCT,MKD,OTH,,,,046,2006-02-01T00:00:00,2014-06-06T12:38:00,4,new,active
039027470001,rdgdpgm,,,Tesco,,,,Tesco,,Napier Road,,,,adj,,E,E0041489,Kings Meadow,Reading,,,,,,false,UKOS,472609,173935,-0.95628,51.45974,BCT,MKD,OTH,,,,046,2006-02-01T00:00:00,2016-10-11T15:43:00,2,new,active
039027580002,rdgdwda,,,Tower Close,,,,Water Tower,,Peppard Road,,,,adj,,S,E0041485,Emmer Green,Caversham,,Reading,EN,,,false,UKOS,472171,177622,-0.96183,51.49295,BCT,MKD,OTH,,,,046,2006-05-03T00:00:00,2019-01-28T13:24:00,4,new,active
039027580001,rdgdpwd,,,Tower Close,,,,Water to wer,,Tower Close,,,,in,,W,E0041485,Emmer Green,Caversham,,,,,,false,UKOS,472189,177505,-0.9616,51.49189,BCT,MKD,OTH,,,,046,2006-02-01T00:00:00,2012-01-26T16:04:00,1,new,active
039027880001,rdgdtwt,,,Penroath Avenue,,,,Penroath Avenue,,Liebenrood Road,,,,adj,,SE,N0060315,Prospect Park,Reading,,,,,,false,UKOS,469313,172906,-1.00392,51.45091,BCT,MKD,OTH,,,,046,2006-02-01T00:00:00,2011-07-18T19:38:00,1,new,active
039028310001,rdgjawg,,,Wensley Road West,,,,Garages,,Wensley Road,,,,opp 252,,S,N0060299,Coley Park,Reading,,Reading,EN,Coley Park,EN,false,UKOS,469916,171933,-0.99543,51.44208,BCT,MKD,OTH,,,,046,2012-09-10T00:00:00,2012-09-10T12:24:00,0,new,active
039026390001,rdgawjd,,,Horncastle,,,,New Lane Hill,,Bath Road,,,,Adj,,E,E0041482,Horncastle,Reading,,,,,,false,UKOS,467894,172158,-1.02448,51.44435,BCT,MKD,OTH,,,,046,2006-02-01T00:00:00,2008-03-13T13:43:00,1,new,active
039028300001,rdgjawd,,,Wensley Road Flats,,,,,,Wensley Road,,,,adj,,W,N0060299,Coley Park,Reading,,Reading,EN,Coley Park,EN,false,UKOS,470094,172032,-0.99285,51.44295,BCT,MKD,OTH,,,,046,2012-09-10T00:00:00,2012-09-10T12:19:00,0,new,active
039028330001,rdgjawp,,,Tesco Distribution Centre,,,,,,A33,,,,Inside,,W,N0060307,Worton Grange,Reading,,,,,,false,UKOS,471197,169225,-0.97755,51.41758,BCT,MKD,OTH,,,,046,2013-05-03T00:00:00,2013-05-03T12:03:00,0,new,active
039028230001,rdgjapd,,,Marshland Square,,,,opp,,Evesham Road,,,,opp,,SE,E0041485,Emmer Green,Caversham,,,,,,false,UKOS,471886,176219,-0.96622,51.48037,BCT,MKD,OTH,,,,046,2011-09-08T00:00:00,2011-09-08T16:46:00,0,new,active
039028340001,rdgjawt,,,Nags Head,,,,Nags Head,,Russell Street,,,,opp,,N,N0071726,Reading,,,Reading,EN,,,false,UKOS,470792,173337,-0.98255,51.4546,BCT,CUS,OTH,,,,046,2013-06-07T00:00:00,2013-06-07T10:49:00,0,new,active
039027210001,rdgdmdw,,,Silver Street,,,,Mount Pleasant,,Silver Street,,,,adj 9,,S,N0071707,Whitley Street,Reading,,,,,,false,UKOS,471931,172671,-0.9663,51.44847,BCT,MKD,OTH,,,,046,2006-02-01T00:00:00,2011-05-25T18:56:00,2,new,active
039026020001,rdgaptp,,,Farmers Close,,,,100m adjFarmers Close,,Swallowfield Drive,,,,adj,,W,N0060300,Whitley Wood,Reading,,,,,,false,UKOS,472147,168852,-0.96396,51.41411,BCT,MKD,OTH,,,,046,2006-02-01T00:00:00,2023-06-05T16:21:38,1,new,active
039026000001,rdgapmw,,,Elizabeth House,,,,Elizabeth House,,Gosbrook Road,,,,W-bound,,W,E0041479,Caversham,Reading,,,,,,false,UKOS,471828,174634,-0.96738,51.46613,BCT,MKD,OTH,,,,046,2006-02-01T00:00:00,2012-12-14T14:57:00,1,new,active
039027140001,rdgdjwj,,,Romsey Road,,,,Opposite Waitrose,,A329 Oxford Road,,,,adj,,NW,N0060314,Kentwood,Tilehurst,,,,,,false,UKOS,468187,174510,-1.01981,51.46546,BCT,MKD,OTH,,,,046,2006-02-01T00:00:00,2011-06-15T18:03:00,1,new,active
039026040001,rdgapwd,,,Fernbrook Road,,,,Adjacent 32 Woodcote Way,,Woodcote Way,,,,adj 32,,S,E0041480,Caversham Heights,Caversham,,,,,,false,UKOS,469964,176108,-0.99392,51.47961,BCT,MKD,OTH,,,,046,2006-02-01T00:00:00,2011-06-02T12:50:00,1,new,active
039028360001,rdgjdga,,,South West Interchange,,,,Phoenix House,,Station Hill,,,,Stop WN,,E,E0055119,Reading Town Centre,Reading,,Reading,EN,,,false,UKOS,471345,173822,-0.97449,51.45889,BCT,MKD,OTH,,,,046,2014-06-20T00:00:00,2014-11-03T12:43:00,1,new,active
039028360002,rdgjdgd,,,South West Interchange,,,,Phoenix House,,Station Hill,,,,Stop WS,,W,E0055119,Reading Town Centre,Reading,,Reading,EN,,,false,UKOS,471306,173799,-0.97506,51.45869,BCT,MKD,OTH,,,,046,2014-06-20T00:00:00,2014-11-03T12:43:00,1,new,active
039028500001,rdgjdpd,,,Reading Buses Depot,,,,,,Great Knollys Street,,,,inside,,E,E0055119,Reading Town Centre,Reading,,,,,,false,UKOS,470917,173763,-0.98067,51.45841,BCT,CUS,OTH,,,,046,2017-05-05T00:00:00,2018-10-11T14:28:00,1,new,active
039028350001,rdgjdat,,,The Rose and Thistle,,,,The Rose and Thistle,,Argyle Road,,,,adj,,W,N0071726,Reading,,,,,Reading,EN,false,UKOS,470355,173221,-0.98886,51.45361,BCT,CUS,OTH,,,,046,2013-06-07T00:00:00,2013-06-07T10:55:00,0,new,active
039028480001,rdgjdpg,,,Caversham Rose,,,,,,Kidmore Road,,,,opp,,SE,E0041480,Caversham Heights,Caversham,,,,,,false,UKOS,470608,176173,-0.98463,51.48012,BCT,CUS,OTH,,,,046,2017-05-15T00:00:00,2017-05-15T14:47:00,0,new,active
039028580001,rdgjdwg,,,Queens Road car park,,,,,,,,,,adj,,E,E0055119,Reading Town Centre,Reading,,Reading,EN,,,false,UKOS,471834,173256,-0.96757,51.45374,BCT,MKD,OTH,,,,046,2020-09-08T00:00:00,2020-09-08T14:47:56,53,new,active
039028590000,,,,Falkland Road,,,,,,,,,,adj,,S,E0041479,Caversham,Reading,,,,,,false,UKOS,471639,174782,-0.97007,51.46748,BCT,MKD,OTH,,,,046,2020-09-08T00:00:00,2020-09-15T11:42:19,84,delete,inactive
039028590001,rdgjdwj,,,Falkland Road,,,,,,,,,,adj,,S,E0041479,Caversham,Reading,,Reading,EN,Caversham,EN,false,UKOS,471642,174788,-0.97003,51.46754,BCT,MKD,OTH,,,,046,2020-09-08T00:00:00,2020-09-08T15:39:49,52,new,active
039027050001,rdgdjdt,,,Campus Reading International,,,,Verizon,,Reading International Business Park,,,,adj,,NW,N0071711,Campus Reading International,Reading,,,,,,false,UKOS,471354,168979,-0.97534,51.41535,BCT,MKD,OTH,,,,046,2006-02-01T00:00:00,2023-07-31T15:29:15,17,new,active
039026550001,rdgdadt,,,Lima Court,,,,Lima Court,,A4 Bath Road,,,,Adj,,NE,N0071705,Castle Hill - Bath Road,Reading,,,,,,false,UKOS,470643,172882,-0.98478,51.45053,BCT,MKD,OTH,,,,046,2006-02-01T00:00:00,2008-01-22T09:55:00,2,new,active
039026350001,rdgawgd,,,Hilltop Road,,,,Adjacent 80 Woodcote Way,,Woodcote Way,,,,adj,,S,E0041480,Caversham Heights,Caversham,,,,,,false,UKOS,469901,176373,-0.99477,51.482,BCT,MKD,OTH,,,,046,2006-02-01T00:00:00,2011-07-18T19:25:00,1,new,active
039026310001,rdgawda,,,Heron Way,,,,Adjacent 35 Lesford Road,,Lesford Road,,,,adj,,SW,N0060299,Coley Park,Reading,,,,,,false,UKOS,470271,172009,-0.99031,51.44272,BCT,MKD,OTH,,,,046,2006-02-01T00:00:00,2022-01-07T16:40:27,4,new,active
039026310002,,,,Heron Way,,,,Adjacent 24 Lesford Road,,Lesford Road,,,,opp,,NE,N0060299,Coley Park,Reading,,,,,,false,UKOS,470301,172029,-0.98987,51.4429,BCT,MKD,OTH,,,,046,2022-01-07T00:00:00,2022-02-11T15:35:43,103,delete,inactive
039025300001,rdgagmj,,,Bridge Street,,,,Fobney Street,,Bridge Street,,,,stop MI,,NW,E0055119,Reading Town Centre,Reading,,Reading,EN,,,false,UKOS,471452,173181,-0.97308,51.45311,BCT,MKD,OTH,,,,046,2006-02-01T00:00:00,2011-02-08T09:35:00,1,new,active
039025300002,,,,Bridge Street Taxi Rank,,,,House of Fraser,,Bridge Street,,,,taxi rank,,,E0055119,Reading Town Centre,Reading,,Reading,EN,,,false,UKOS,471506,173120,-0.97232,51.45256,TXR,,,,,,046,2006-02-01T00:00:00,2013-11-01T12:09:00,2,new,active
039027280001,rdgdmjw,,,St Annes Well,,,,St Annes Well,,Priest Hill,,,,adj,,SE,E0041479,Caversham,Reading,,,,,,false,UKOS,471194,175037,-0.97642,51.46983,BCT,MKD,OTH,,,,046,2006-02-01T00:00:00,2012-02-01T16:17:00,1,new,active
039027020001,rdgdjat,,,Queensway,,,,Opposite Corn Field,,Caversham Park Road,,,,adj,,W,E0041481,Caversham Park Village,Caversham,,,,,,false,UKOS,472774,176747,-0.95333,51.485,BCT,MKD,OTH,,,,046,2006-02-01T00:00:00,2011-07-18T19:39:00,1,new,active
039025250001,rdgagjd,,,Blenheim Road,,,,Blenheim Road,,Priest Hill,,,,opp 69,,S,E0041479,Caversham,Reading,,,,,,false,UKOS,471085,175166,-0.97797,51.471,BCT,MKD,OTH,,,,046,2006-02-01T00:00:00,2011-05-25T18:26:00,1,new,active
039026740001,rdgdgag,,,Morecambe Avenue,,,,Opposite Queensborough,,Conisboro Avenue,,,,adj,,S,E0041480,Caversham Heights,Caversham,,,,,,false,UKOS,470231,176367,-0.99002,51.48191,BCT,MKD,OTH,,,,046,2006-02-01T00:00:00,2011-07-18T19:32:00,1,new,active
039025340001,rdgagpj,,,Brooksby Road,,,,Brooksby Road,,Overdown Road,,,,adj 160,,E,N0060314,Kentwood,Tilehurst,,,,,,false,UKOS,466794,175089,-1.03975,51.47083,BCT,MKD,OTH,,,,046,2006-02-01T00:00:00,2018-11-26T17:29:00,5,new,active
039026780001,rdgdgdg,,,Nire Road,,,,opposite General Stores,,Nire Road,,,,adj,,SW,N0060318,Lower Caversham,Caversham,,,,,,false,UKOS,473078,174775,-0.94936,51.46724,BCT,MKD,OTH,,,,046,2006-02-01T00:00:00,2020-10-22T13:14:03,3,new,active
039026640001,rdgdapa,,,Mayfair,,,,Mayfair,,Park Lane,,,,adj 21,,SW,E0041494,Tilehurst,Reading,,,,,,false,UKOS,466436,173422,-1.04522,51.45589,BCT,MKD,OTH,,,,046,2006-02-01T00:00:00,2011-05-25T18:46:00,1,new,active
039026680001,rdgdatg,,,Milestone Centre,,,,Galsworthy Drive,,Lowfield Road,,,,Adj,,SE,E0041481,Caversham Park Village,Caversham,,,,,,false,UKOS,472750,176403,-0.95375,51.48191,BCT,MKD,OTH,,,,046,2006-02-01T00:00:00,2012-12-14T15:09:00,2,new,active
039026980001,rdgdgwp,,,Priest Hill,,,,St Annes Road,,Priest Hill,,,,adj 55,,N,E0041479,Caversham,Reading,,,,,,false,UKOS,471109,175082,-0.97764,51.47025,BCT,MKD,OTH,,,,046,2006-02-01T00:00:00,2011-05-25T18:52:00,1,new,active
039026500001,rdgawtj,,,Kings Road Caversham,,,,Gosbrook Road,,George Street,,,,opp 32,,S,N0060318,Lower Caversham,Caversham,,,,,,false,UKOS,471925,174559,-0.966,51.46544,BCT,MKD,OTH,,,,046,2006-02-01T00:00:00,2011-05-25T18:45:00,1,new,active
039026860001,rdgdgmg,,,Osterley Drive,,,,Osterley Drive,,Caversham Park Road,,,,adj,,N,E0041481,Caversham Park Village,Caversham,,,,,,false,UKOS,473238,176638,-0.94667,51.48396,BCT,MKD,OTH,,,,046,2006-02-01T00:00:00,2011-07-18T19:35:00,1,new,active
039025450001,rdgajaw,,,Caversham Laundry,,,,Caversham Laundry,,George Street,,,,adj,,N,N0060318,Lower Caversham,Caversham,,,,,,false,UKOS,471920,174409,-0.9661,51.46409,BCT,MKD,OTH,,,,046,2006-02-01T00:00:00,2012-10-23T16:17:00,1,new,active
039028000001,rdgdwdp,,,Littlestead Close,,,,Littlestead Close,,Caversham Park Road,,,,Opp,,N,E0041481,Caversham Park Village,Caversham,,Reading,EN,Caversham,EN,false,UKOS,473305,176400,-0.94576,51.48181,BCT,MKD,OTH,,,,046,2006-05-03T00:00:00,2012-12-05T15:23:00,2,new,active
039025900001,rdgapdt,,,Drewett Close,,,,50m Opposite Burlingham Close,,Whitley Wood Lane,,,,opp,,N,N0060300,Whitley Wood,Reading,,,,,,false,UKOS,472262,168852,-0.96231,51.41409,BCT,MKD,OTH,,,,046,2006-02-01T00:00:00,2012-07-20T12:07:00,1,new,active
039027420001,rdgdpdg,,,Sycamore Road,,,,Sycamore Road,,Cressingham Road,,,,adj,,W,E0041496,Whitley,Reading,,,,,,false,UKOS,473037,170995,-0.95073,51.43326,BCT,MKD,OTH,,,,046,2006-02-01T00:00:00,2020-09-10T11:27:36,7,delete,inactive
039025930001,rdgapgw,,,Dumbarton Way,,,,Dumbarton Way,,Caversham Park Road,,,,adj 4,,N,E0041481,Caversham Park Village,Caversham,,,,,,false,UKOS,473296,176231,-0.94592,51.4803,BCT,MKD,OTH,,,,046,2006-02-01T00:00:00,2011-05-25T18:35:00,1,new,active
039027910001,rdgadag,,,Highdown School,,,,Grove Road,,Surley Row,,,,Opp,,SE,E0041485,Emmer Green,Caversham,,,,,,false,UKOS,471415,176308,-0.97299,51.48123,BCT,CUS,OTH,,,,046,2006-02-01T00:00:00,2010-04-30T12:46:00,2,new,active
039027920001,rdgdwaj,,,Windrush Way,,,,Adjacent War Memorial,,Water Road,,,,adj,,SE,N0060315,Prospect Park,Reading,,,,,,false,UKOS,468793,173230,-1.01134,51.45388,BCT,MKD,OTH,,,,046,2006-02-01T00:00:00,2011-07-18T19:41:00,1,new,active
039027750001,rdgdtjt,,,West Hill,,,,Adjacent 138 Southampton Street,,Southampton Street,,,,adj,,N,N0071708,Katesgrove,Reading,,,,,,false,UKOS,471760,172698,-0.96875,51.44873,BCT,MKD,OTH,,,,046,2006-02-01T00:00:00,2012-02-01T16:08:00,1,new,active
039027680001,rdgdtdt,,,Washington Road,,,,Adjacent Methodist Church,,Gosbrook Road,,,,adj,,E,N0060318,Lower Caversham,Caversham,,,,,,false,UKOS,472005,174607,-0.96484,51.46586,BCT,MKD,OTH,,,,046,2006-02-01T00:00:00,2013-01-31T12:58:00,2,new,active
039025880001,rdgapdj,,,Downham Court,,,,Whitley Wood Road,,Shinfield Road,,,,opp,,NE,N0071706,Shinfield Road,Reading,,,,,,false,UKOS,473320,170297,-0.9468,51.42695,BCT,MKD,OTH,,,,046,2006-02-01T00:00:00,2017-01-31T12:12:00,2,new,active
039027870001,rdgdtwp,,,Glebe Road,,,,Kendrick Road,,Christchurch Road,,,,opp,,E,N0071707,Whitley Street,Reading,,,,,,false,UKOS,472133,172220,-0.96348,51.44439,BCT,MKD,OTH,,,,046,2006-02-01T00:00:00,2014-04-22T15:27:00,3,new,active
039025820001,rdgamwg,,,Darell Road,,,,Darell Road,,Highmoor Road,,,,Opp,,E,E0041480,Caversham Heights,Caversham,,,,,,false,UKOS,470623,175432,-0.98456,51.47345,BCT,MKD,OTH,,,,046,2006-02-01T00:00:00,2006-12-06T16:06:00,1,new,active
039027860001,rdgdtwm,,,Oracle Riverside,,,,Qr,,Queens Road,,,,nr,,E,E0055119,Reading Town Centre,Reading,,,,,,false,UKOS,471819,173255,-0.96779,51.45373,BCT,MKD,OTH,,,,046,2006-02-01T00:00:00,2019-04-02T12:52:00,4,new,active
039027330001,rdgdmtp,,,St Michaels,,,,Adjacent Hollicombe Close,,Meadway,,,,adj,,E,E0041494,Tilehurst,Reading,,,,,,false,UKOS,467200,173085,-1.03429,51.45277,BCT,MKD,OTH,,,,046,2006-02-01T00:00:00,2012-02-01T16:14:00,1,new,active
