ATCOCode,NaptanCode,PlateCode,CleardownCode,CommonName,CommonNameLang,ShortCommonName,ShortCommonNameLang,Landmark,LandmarkLang,Street,StreetLang,Crossing,CrossingLang,Indicator,IndicatorLang,Bearing,NptgLocalityCode,LocalityName,ParentLocalityName,GrandParentLocalityName,Town,TownLang,Suburb,SuburbLang,LocalityCentre,GridType,Easting,Northing,Longitude,Latitude,StopType,BusStopType,TimingStatus,DefaultWaitTime,Notes,NotesLang,AdministrativeAreaCode,CreationDateTime,ModificationDateTime,RevisionNumber,Modification,Status
068000000140,halmajtd,,,Co-op,,Hale Road,,Liverpool Road,,Hale Road,,,,adj,,NE,E0037819,Ditton,Widnes,,Widnes,EN,Ditton,EN,false,UKOS,349784,386199,-2.75618,53.37025,BCT,MKD,OTH,,,,021,1969-12-31T00:00:00,2020-11-10T15:21:25,10,new,active
068000000233,haladmpj,,,Sundowner,,Sundowner,,Sundowner,,Arley Drive,,,,,,W,E0037826,Hough Green,Widnes,,Widnes,EN,Hough Green,EN,false,UKOS,348643,386750,-2.77342,53.3751,BCT,MKD,OTH,,,,021,1969-12-31T00:00:00,2020-11-10T16:11:10,8,new,active
068000000702,halagdmg,,,Halton Lea South,,Halton Lea South,,Halton Lea South,,Busway,,,,,,W,N0065331,Palace Fields,Runcorn,,Runcorn,EN,Palace Fields,EN,false,UKOS,353562,381311,-2.69868,53.32667,BCT,MKD,OTH,,,,021,1969-12-31T00:00:00,2024-09-25T13:53:02,0,new,active
068000000188,,,,Queensbury Way,,,,,,,,,,,,N,E0037851,Upton Rocks,Widnes,,,,,,false,UKOS,350240,388095,-2.74963,53.38734,BCT,MKD,OTH,,,,021,2024-11-07T00:00:00,2024-11-07T10:59:35,41,new,active
068000000189,,,,Queensbury Way,,,,,,,,,,,,S,E0037851,Upton Rocks,Widnes,,,,,,false,UKOS,350241,388177,-2.74962,53.38808,BCT,MKD,OTH,,,,021,2024-11-07T00:00:00,2024-11-07T10:59:49,39,new,active
0680TX000005,,,,CRONTON ROAD,,CRONTON ROAD,,CRONTON ROAD,,Cronton Road,,,,,,,E0037851,Upton Rocks,Widnes,,Widnes,EN,Upton Rocks,EN,false,UKOS,350666,388383,-2.74327,53.38997,TXR,,,,,,021,1969-12-31T00:00:00,1969-12-31T23:00:00,0,new,active
0680TX000014,,,,CRONTON ROAD,,CRONTON ROAD,,CRONTON ROAD,,Cronton Road,,,,,,,E0037851,Upton Rocks,Widnes,,Widnes,EN,Upton Rocks,EN,false,UKOS,350666,388383,-2.74327,53.38997,TXR,,,,,,021,1969-12-31T00:00:00,1969-12-31T23:00:00,0,new,active
0680TX000001,,,,HIGH STREET,,HIGH STREET,,HIGH STREET,,High Street,,,,,,,E0037841,Runcorn,,,Runcorn,EN,Runcorn,EN,false,UKOS,351273,382983,-2.73331,53.34149,TXR,,,,,,021,1969-12-31T00:00:00,1969-12-31T23:00:00,0,new,active
0680TX000010,,,,HIGH STREET,,HIGH STREET,,HIGH STREET,,High Street,,,,,,,E0037841,Runcorn,,,Runcorn,EN,Runcorn,EN,false,UKOS,351273,382983,-2.73331,53.34149,TXR,,,,,,021,1969-12-31T00:00:00,1969-12-31T23:00:00,0,new,active
0680TX000002,,,,HALTON LEA,,HALTON LEA,,HALTON LEA,,Halton Lea,,,,,,,N0065331,Palace Fields,Runcorn,,Runcorn,EN,Palace Fields,EN,false,UKOS,353668,381539,-2.69713,53.32873,TXR,,,,,,021,1969-12-31T00:00:00,1969-12-31T23:00:00,0,new,active
0680TX000011,,,,HALTON LEA,,HALTON LEA,,HALTON LEA,,Halton Lea,,,,,,,N0065331,Palace Fields,Runcorn,,Runcorn,EN,Palace Fields,EN,false,UKOS,353668,381539,-2.69713,53.32873,TXR,,,,,,021,1969-12-31T00:00:00,1969-12-31T23:00:00,0,new,active
0680TX000003,,,,APPLETON VILLAGE,,APPLETON VILLAGE,,APPLETON VILLAGE,,Appleton Village,,,,,,,E0037805,Appleton,Widnes,,Widnes,EN,Appleton,EN,false,UKOS,351522,386262,-2.73007,53.37098,TXR,,,,,,021,1969-12-31T00:00:00,1969-12-31T23:00:00,0,new,active
0680TX000012,,,,APPLETON VILLAGE,,APPLETON VILLAGE,,APPLETON VILLAGE,,Appleton Village,,,,,,,E0037805,Appleton,Widnes,,Widnes,EN,Appleton,EN,false,UKOS,351522,386262,-2.73007,53.37098,TXR,,,,,,021,1969-12-31T00:00:00,1969-12-31T23:00:00,0,new,active
0680TX000004,,,,HOUGH GREEN ROAD,,HOUGH GREEN ROAD,,HOUGH GREEN ROAD,,Hough Green Road,,,,,,,E0037850,Upton,Widnes,,Widnes,EN,Upton,EN,false,UKOS,348723,387203,-2.77229,53.37918,TXR,,,,,,021,1969-12-31T00:00:00,1969-12-31T23:00:00,0,new,active
0680TX000013,,,,HOUGH GREEN ROAD,,HOUGH GREEN ROAD,,HOUGH GREEN ROAD,,Hough Green Road,,,,,,,E0037850,Upton,Widnes,,Widnes,EN,Upton,EN,false,UKOS,348723,387203,-2.77229,53.37918,TXR,,,,,,021,1969-12-31T00:00:00,1969-12-31T23:00:00,0,new,active
068000000891,,,,Lambsickle Lane,,Lambsickle Ln (h&r),,Weaver Lane,,Lambsickle Lane,,,,W-bound,,,E0037857,Weston,Runcorn,,Runcorn,EN,Weston,EN,false,UKOS,350998,380646,-2.73707,53.32046,BCT,HAR,OTH,,,,021,1969-12-31T00:00:00,1969-12-31T23:00:00,0,new,active
068000000890,,,,Montpelier Avenue,,Montpelier Av (h&r),,Fieldsway,,Montpelier Avenue,,,,Se-bound,,,E0037857,Weston,Runcorn,,Runcorn,EN,Weston,EN,false,UKOS,351044,380728,-2.7364,53.3212,BCT,HAR,OTH,,,,021,1969-12-31T00:00:00,1969-12-31T23:00:00,0,new,active
068000000418,haladwjg,,,Widnes Shopping Park,,Gerrard St,,Widnes Shopping Park,,Gerrard Street,,,,Opp,,W,E0037844,Simms Cross,Widnes,,Widnes,EN,Simms Cross,EN,false,UKOS,351790,385628,-2.72595,53.36531,BCT,MKD,OTH,,,,021,1969-12-31T00:00:00,1969-12-31T23:00:00,0,new,active
068000000082,haladgmd,,,Clifton Road,,,,,,Busway,,,,,,NW,E0037842,Runcorn Heath,Runcorn,,,,,,false,UKOS,352255,380596,-2.7182,53.32012,BCT,MKD,OTH,,,,021,1969-12-31T00:00:00,1969-12-31T23:00:00,0,delete,inactive
068000000081,haladgma,,,Clifton Road,,,,,,Busway,,,,,,SE,E0037842,Runcorn Heath,Runcorn,,,,,,false,UKOS,352272,380590,-2.71794,53.32007,BCT,MKD,OTH,,,,021,1969-12-31T00:00:00,1969-12-31T23:00:00,0,delete,inactive
068000000420,haladwjp,,,John Briggs,,,,,,Gerrard Street,,,,,,NE,E0037844,Simms Cross,Widnes,,,,,,false,UKOS,351651,385683,-2.72804,53.36579,BCT,MKD,OTH,,,,021,1969-12-31T00:00:00,1969-12-31T23:00:00,0,delete,inactive
068000000463,halagmtw,,,QUEENS HALL,,,,,,Victoria Road,,,,,,S,E0037860,Widnes,,,,,,,false,UKOS,351183,385100,-2.73499,53.36051,BCT,MKD,OTH,,,,021,1969-12-31T00:00:00,1969-12-31T23:00:00,0,delete,inactive
068000000026,haladajd,,,Haddocks Wood,,,,,,Busway (Castlefields),,,,,,N,E0037806,Astmoor,Runcorn,,,,,,false,UKOS,354357,383280,-2.68703,53.34443,BCT,MKD,OTH,,,,021,1969-12-31T00:00:00,1969-12-31T23:00:00,0,delete,inactive
068000000027,haladajg,,,Haddocks Wood,,,,,,Busway (Castlefields),,,,,,S,E0037806,Astmoor,Runcorn,,,,,,false,UKOS,354373,383286,-2.68679,53.34449,BCT,MKD,OTH,,,,021,1969-12-31T00:00:00,1969-12-31T23:00:00,0,delete,inactive
068000000773,halagjgt,,,Murdishaw Island,,,,,,Murdishaw Avenue,,,,,,SE,N0065333,Murdishaw,Runcorn,,,,,,false,UKOS,355393,379881,-2.67099,53.31397,BCT,MKD,OTH,,,,021,1969-12-31T00:00:00,1969-12-31T23:00:00,0,delete,inactive
068000000117,haladgtw,,,Poppleton,,,,,,Hale Road,,,,,,SE,E0053152,Hale,Widnes,,,,,,false,UKOS,346016,382467,-2.81217,53.33634,BCT,MKD,OTH,,,,021,1969-12-31T00:00:00,1969-12-31T23:00:00,0,delete,inactive
068000000083,haladgmg,,,Rocksavage,,,,,,Busway,,,,,,SE,E0037842,Runcorn Heath,Runcorn,,,,,,false,UKOS,351246,380424,-2.73332,53.31849,BCT,MKD,OTH,,,,021,1969-12-31T00:00:00,1969-12-31T23:00:00,0,delete,inactive
068000000084,haladgmj,,,Rocksavage,,,,,,Busway,,,,,,W,E0037842,Runcorn Heath,Runcorn,,,,,,false,UKOS,351241,380432,-2.73339,53.31856,BCT,MKD,OTH,,,,021,1969-12-31T00:00:00,1969-12-31T23:00:00,0,delete,inactive
068000000456,halpmdad,,,The Hive,,The Hive,,Earle Road,,The Hive,,,,O/s,,NW,E0037828,Lugsdale,Widnes,,Widnes,EN,Lugsdale,EN,false,UKOS,351960,385225,-2.72333,53.3617,BCT,MKD,OTH,,,,021,1969-12-31T00:00:00,1969-12-31T23:00:00,0,new,active
068000000585,halagaga,,,Shaw Street,,Shaw St,,Shaw St,,Shaw Street,,,,,,SE,E0037841,Runcorn,,,Runcorn,EN,Runcorn,EN,false,UKOS,351064,382605,-2.73639,53.33807,BCT,MKD,OTH,,,,021,1969-12-31T00:00:00,2020-01-28T13:32:01,4,new,active
068000000560,haladwmw,,,Handforth Lane,,Handforth Lane,,Handforth Lane,,Grangeway,,,,,,NE,N0065329,Hallwood Park,Runcorn,,Runcorn,EN,Hallwood Park,EN,false,UKOS,352641,380905,-2.71245,53.32294,BCT,MKD,OTH,,,,021,1969-12-31T00:00:00,1969-12-31T23:00:00,0,new,active
068000000561,haladwpa,,,Handforth Lane,,Handforth Lane,,Handforth Lane,,Grangeway,,,,,,SW,N0065329,Hallwood Park,Runcorn,,Runcorn,EN,Hallwood Park,EN,false,UKOS,352634,380889,-2.71255,53.32279,BCT,MKD,OTH,,,,021,1969-12-31T00:00:00,1969-12-31T23:00:00,0,new,active
068000000562,haladwpd,,,Windsor Grove,,Windsor Grove,,Windsor Grove,,Windsor Grove,,,,,,SE,N0065328,Grange,Runcorn,,Runcorn,EN,Grange,EN,false,UKOS,351874,381690,-2.72408,53.32992,BCT,MKD,OTH,,,,021,1969-12-31T00:00:00,1969-12-31T23:00:00,0,new,active
068000000563,haladwpg,,,Windsor Grove,,Windsor Grove,,Windsor Grove,,Windsor Grove,,,,,,NE,N0065328,Grange,Runcorn,,Runcorn,EN,Grange,EN,false,UKOS,351866,381694,-2.7242,53.32996,BCT,MKD,OTH,,,,021,1969-12-31T00:00:00,1969-12-31T23:00:00,0,new,active
06800000565A,halagtda,,,Linkway,,,,,,Laburnum Grove,,,,nr.,,E,N0065328,Grange,Runcorn,,,,,,false,UKOS,351970,381557,-2.72262,53.32874,BCT,MKD,OTH,,,,021,2025-03-19T14:25:31.8262295Z,2024-01-11T12:29:34,0,new,active
068000000564,haladwpj,,,Linkway,,Linkway,,Linkway,,Laburnum Grove,,,,,,NW,N0065328,Grange,Runcorn,,Runcorn,EN,Grange,EN,false,UKOS,351961,381549,-2.72276,53.32866,BCT,MKD,OTH,,,,021,1969-12-31T00:00:00,1969-12-31T23:00:00,0,new,active
068000000556,haladwmg,,,Laburnam Grove,,Laburnam Grove,,Laburnam Grove,,Grangeway,,,,,,S,N0065328,Grange,Runcorn,,Runcorn,EN,Grange,EN,false,UKOS,352206,381303,-2.71904,53.32647,BCT,MKD,OTH,,,,021,1969-12-31T00:00:00,1969-12-31T23:00:00,0,new,active
068000000557,haladwmj,,,Laburnam Grove,,Laburnam Grove,,Laburnam Grove,,Grangeway,,,,,,N,N0065328,Grange,Runcorn,,Runcorn,EN,Grange,EN,false,UKOS,352195,381259,-2.7192,53.32608,BCT,MKD,OTH,,,,021,1969-12-31T00:00:00,1969-12-31T23:00:00,0,new,active
068000000558,haladwmp,,,Cypress Grove,,Cypress Grove,,Cypress Grove,,Grangeway,,,,,,SE,N0065328,Grange,Runcorn,,Runcorn,EN,Grange,EN,false,UKOS,352311,381098,-2.71743,53.32464,BCT,MKD,OTH,,,,021,1969-12-31T00:00:00,1969-12-31T23:00:00,0,new,active
068000000559,haladwmt,,,Cypress Grove,,Cypress Grove,,Cypress Grove,,Grangeway,,,,,,NW,N0065328,Grange,Runcorn,,Runcorn,EN,Grange,EN,false,UKOS,352288,381133,-2.71778,53.32495,BCT,MKD,OTH,,,,021,1969-12-31T00:00:00,1969-12-31T23:00:00,0,new,active
068000000565,haladwpm,,,Cherry Tree Avenue,,Cherry Tree Ave,,Cherry Tree Ave,,Linkway,,,,,,NE,N0065328,Grange,Runcorn,,Runcorn,EN,Grange,EN,false,UKOS,352110,381582,-2.72052,53.32897,BCT,MKD,OTH,,,,021,1969-12-31T00:00:00,1969-12-31T23:00:00,0,new,active
068000000566,haladwpt,,,Cherry Tree Avenue,,Cherry Tree Ave,,Cherry Tree Ave,,Linkway,,,,,,SW,N0065328,Grange,Runcorn,,Runcorn,EN,Grange,EN,false,UKOS,352101,381562,-2.72066,53.32879,BCT,MKD,OTH,,,,021,1969-12-31T00:00:00,1969-12-31T23:00:00,0,new,active
068000000570,haladwtg,,,Thorn Road,,Thorn Rd,,Thorn Rd,,Grangeway,,,,,,SE,N0065328,Grange,Runcorn,,Runcorn,EN,Grange,EN,false,UKOS,352673,381543,-2.71207,53.32867,BCT,MKD,OTH,,,,021,1969-12-31T00:00:00,1969-12-31T23:00:00,0,new,active
068000000571,haladwtj,,,Thorn Road,,Thorn Rd,,Thorn Rd,,Grangeway,,,,,,NW,N0065328,Grange,Runcorn,,Runcorn,EN,Grange,EN,false,UKOS,352662,381494,-2.71222,53.32823,BCT,MKD,OTH,,,,021,1969-12-31T00:00:00,1969-12-31T23:00:00,0,new,active
068000000567,haladwpw,,,Opp. Cherry Tree,,Opp. Cherry Tree,,Opp. Cherry Tree,,Linkway,,,,,,W,N0065328,Grange,Runcorn,,Runcorn,EN,Grange,EN,false,UKOS,352221,381550,-2.71885,53.3287,BCT,MKD,OTH,,,,021,1969-12-31T00:00:00,1969-12-31T23:00:00,0,new,active
068000000568,haladwta,,,Beech Road,,Beech Rd,,Beech Rd,,Grangeway,,,,,,NE,N0065328,Grange,Runcorn,,Runcorn,EN,Grange,EN,false,UKOS,352462,381594,-2.71524,53.32911,BCT,MKD,OTH,,,,021,1969-12-31T00:00:00,1969-12-31T23:00:00,0,new,active
068000000569,haladwtd,,,Beech Road,,Beech Rd,,Beech Rd,,Grangeway,,,,,,SW,N0065328,Grange,Runcorn,,Runcorn,EN,Grange,EN,false,UKOS,352455,381584,-2.71534,53.32902,BCT,MKD,OTH,,,,021,1969-12-31T00:00:00,1969-12-31T23:00:00,0,new,active
068000000632,halagawj,,,South Parade,,South Parade,,South Parade,,South Parade,,,,,,SE,E0037858,Weston Point,Runcorn,,Runcorn,EN,Weston Point,EN,false,UKOS,349792,381365,-2.75529,53.32681,BCT,MKD,OTH,,,,021,1969-12-31T00:00:00,2020-11-10T16:31:36,8,new,active
068000000633,halagawm,,,South Parade,,South Parade,,South Parade,,South Parade,,,,,,NW,E0037858,Weston Point,Runcorn,,Runcorn,EN,Weston Point,EN,false,UKOS,349795,381354,-2.75524,53.32671,BCT,MKD,OTH,,,,021,1969-12-31T00:00:00,2020-11-10T16:32:57,8,new,active
068000000634,halagawp,,,Mather Avenue,,Mather Ave,,Mather Ave,,Lydiate Lane,,,,,,SE,E0037858,Weston Point,Runcorn,,Runcorn,EN,Weston Point,EN,false,UKOS,350044,381016,-2.75145,53.3237,BCT,MKD,OTH,,,,021,1969-12-31T00:00:00,2019-08-12T13:53:37,4,new,active
068000000635,halagawt,,,Bankes Lane,,Bankes Lane,,Bankes Lane,,Bankes Lane,,,,,,SE,E0037858,Weston Point,Runcorn,,Runcorn,EN,Weston Point,EN,false,UKOS,350222,380867,-2.74876,53.32237,BCT,MKD,OTH,,,,021,1969-12-31T00:00:00,1969-12-31T23:00:00,0,new,active
068000000636,halagdad,,,Bankes Lane,,Bankes Lane,,Bankes Lane,,Bankes Lane,,,,,,NW,E0037858,Weston Point,Runcorn,,Runcorn,EN,Weston Point,EN,false,UKOS,350242,380817,-2.74845,53.32193,BCT,MKD,OTH,,,,021,1969-12-31T00:00:00,1969-12-31T23:00:00,0,new,active
068000000630,halagawd,,,Weaver Hotel,,Weaver Hotel,,Weaver Hotel,,Sandy Lane,,,,,,SW,E0037858,Weston Point,Runcorn,,Runcorn,EN,Weston Point,EN,false,UKOS,349753,381329,-2.75587,53.32648,BCT,MKD,OTH,,,,021,1969-12-31T00:00:00,1969-12-31T23:00:00,0,new,active
068000000631,halagawg,,,Weaver Hotel,,Weaver Hotel,,Weaver Hotel,,South Parade,,,,,,NW,E0037858,Weston Point,Runcorn,,Runcorn,EN,Weston Point,EN,false,UKOS,349719,381296,-2.75638,53.32618,BCT,MKD,OTH,,,,021,1969-12-31T00:00:00,1969-12-31T23:00:00,0,new,active
068000000626,halagatm,,,Pavilions,,Pavilions,,Pavilions,,Sandy Lane,,,,,,SE,E0037858,Weston Point,Runcorn,,Runcorn,EN,Weston Point,EN,false,UKOS,350194,381418,-2.74926,53.32732,BCT,MKD,OTH,,,,021,1969-12-31T00:00:00,2020-08-16T10:15:13,2,new,active
068000000627,halagatp,,,Pavilions,,Pavilions,,Pavilions,,Sandy Lane,,,,,,NE,E0037858,Weston Point,Runcorn,,Runcorn,EN,Weston Point,EN,false,UKOS,350159,381432,-2.74979,53.32745,BCT,MKD,OTH,,,,021,1969-12-31T00:00:00,2020-08-19T15:23:41,6,new,active
068000000628,halagatw,,,Sandy Lane,,Sandy Lane,,Sandy Lane,,Sandy Lane,,,,,,SW,E0037858,Weston Point,Runcorn,,Runcorn,EN,Weston Point,EN,false,UKOS,350023,381406,-2.75183,53.3272,BCT,MKD,OTH,,,,021,1969-12-31T00:00:00,1969-12-31T23:00:00,0,new,active
068000000629,halagawa,,,Sandy Lane,,Sandy Lane,,Sandy Lane,,Sandy Lane,,,,,,NE,E0037858,Weston Point,Runcorn,,Runcorn,EN,Weston Point,EN,false,UKOS,349980,381411,-2.75248,53.32724,BCT,MKD,OTH,,,,021,1969-12-31T00:00:00,1969-12-31T23:00:00,0,new,active
068000000641,halagdat,,,Minster Court,,Minster Ct,,Minster Ct,,Weston Road,,,,,,S,E0037858,Weston Point,Runcorn,,Runcorn,EN,Weston Point,EN,false,UKOS,350449,381515,-2.74545,53.32822,BCT,MKD,OTH,,,,021,1969-12-31T00:00:00,1969-12-31T23:00:00,0,new,active
068000000642,halagdaw,,,Minster Court,,Minster Ct,,Minster Ct,,Western Road,,,,,,NW,E0037858,Weston Point,Runcorn,,Runcorn,EN,Weston Point,EN,false,UKOS,350431,381567,-2.74573,53.32868,BCT,MKD,OTH,,,,021,1969-12-31T00:00:00,1969-12-31T23:00:00,0,new,active
068000000643,halagdga,,,Hale View,,Hale View,,Hale View,,Western Road,,,,,,SE,E0037858,Weston Point,Runcorn,,Runcorn,EN,Weston Point,EN,false,UKOS,350477,381276,-2.74499,53.32607,BCT,MKD,OTH,,,,021,1969-12-31T00:00:00,1969-12-31T23:00:00,0,new,active
068000000644,halagdgd,,,Hale View,,Hale View,,Hale View,,Weston Road,,,,,,NW,E0037858,Weston Point,Runcorn,,Runcorn,EN,Weston Point,EN,false,UKOS,350470,381292,-2.7451,53.32622,BCT,MKD,OTH,,,,021,1969-12-31T00:00:00,1969-12-31T23:00:00,0,new,active
068000000645,halagdgj,,,The Prospect,,The Prospect,,The Prospect,,Weston Road,,,,,,SE,E0037858,Weston Point,Runcorn,,Runcorn,EN,Weston Point,EN,false,UKOS,350499,381060,-2.74463,53.32413,BCT,MKD,OTH,,,,021,1969-12-31T00:00:00,1969-12-31T23:00:00,0,new,active
068000000646,halagdgm,,,The Prospect,,The Prospect,,The Prospect,,Weston Road,,,,,,NW,E0037858,Weston Point,Runcorn,,Runcorn,EN,Weston Point,EN,false,UKOS,350490,381079,-2.74477,53.3243,BCT,MKD,OTH,,,,021,1969-12-31T00:00:00,1969-12-31T23:00:00,0,new,active
068000000637,halagdag,,,Weston East Way,,Weston E.Way,,Weston E.Way,,Western Point Expressway,,,,,,SE,E0037858,Weston Point,Runcorn,,Runcorn,EN,Weston Point,EN,false,UKOS,350649,380478,-2.74229,53.31892,BCT,MKD,OTH,,,,021,1969-12-31T00:00:00,1969-12-31T23:00:00,0,new,active
068000000638,halagdaj,,,R Savage East Way,,R Savage E.Way,,R Savage E.Way,,Western Point Expressway,,,,,,SW,E0037858,Weston Point,Runcorn,,Runcorn,EN,Weston Point,EN,false,UKOS,351071,380263,-2.73592,53.31702,BCT,MKD,OTH,,,,021,1969-12-31T00:00:00,1969-12-31T23:00:00,0,new,active
068000000639,halagdam,,,Weston Road,,Weston Rd,,Weston Rd,,Western Road,,,,,,S,E0037841,Runcorn,,,Runcorn,EN,Runcorn,EN,false,UKOS,350518,381904,-2.74448,53.33172,BCT,MKD,OTH,,,,021,1969-12-31T00:00:00,1969-12-31T23:00:00,0,new,active
068000000640,halagdap,,,Weston Road,,Weston Rd,,Weston Rd,,Weston Road,,,,,,N,E0037841,Runcorn,,,Runcorn,EN,Runcorn,EN,false,UKOS,350529,381971,-2.74432,53.33232,BCT,MKD,OTH,,,,021,1969-12-31T00:00:00,1969-12-31T23:00:00,0,new,active
068000000611,halagamp,,,Penn Lane,,Penn Lane,,Penn Lane,,Picow Farm Road,,,,,,SE,E0037841,Runcorn,,,Runcorn,EN,Runcorn,EN,false,UKOS,350640,382598,-2.74275,53.33797,BCT,MKD,OTH,,,,021,1969-12-31T00:00:00,1969-12-31T23:00:00,0,new,active
068000000612,halagamt,,,Penn Lane,,Penn Lane,,Penn Lane,,Picow Farm Road,,,,,,NE,E0037841,Runcorn,,,Runcorn,EN,Runcorn,EN,false,UKOS,350673,382623,-2.74226,53.3382,BCT,MKD,OTH,,,,021,1969-12-31T00:00:00,1969-12-31T23:00:00,0,new,active
068000000614,,,,CHANDLERS COURT,,Chandlers Court,,CHANDLERS COURT,,Chandlers Court,,,,,,SW,E0037841,Runcorn,,,Runcorn,EN,Runcorn,EN,false,UKOS,350376,382447,-2.74669,53.33659,BCT,MKD,OTH,,,,021,1969-12-31T00:00:00,1969-12-31T23:00:00,0,new,active
068000000613,halagamw,,,Chandlers Court,,,,,,Picow Farm Road,,,,,,SW,E0037841,Runcorn,,,,,,,false,UKOS,350355,382415,-2.747,53.3363,BCT,MKD,OTH,,,,021,1969-12-31T00:00:00,1969-12-31T23:00:00,0,delete,inactive
068000000615,halagapa,,,Roland Avenue,,Roland Ave,,Roland Ave,,Penn Lane,,,,,,SE,E0037841,Runcorn,,,Runcorn,EN,Runcorn,EN,false,UKOS,350672,382425,-2.74225,53.33642,BCT,MKD,OTH,,,,021,1969-12-31T00:00:00,1969-12-31T23:00:00,0,new,active
068000000616,halagapd,,,Roland Avenue,,Roland Ave,,Roland Ave,,Penn Lane,,,,,,NW,E0037841,Runcorn,,,Runcorn,EN,Runcorn,EN,false,UKOS,350695,382357,-2.74189,53.33581,BCT,MKD,OTH,,,,021,1969-12-31T00:00:00,1969-12-31T23:00:00,0,new,active
068000000609,halagamg,,,Holloway,,Holloway,,Holloway,,Penn Lane,,,,,,SE,E0037841,Runcorn,,,Runcorn,EN,Runcorn,EN,false,UKOS,350754,382292,-2.74099,53.33523,BCT,MKD,OTH,,,,021,1969-12-31T00:00:00,1969-12-31T23:00:00,0,new,active
068000000610,halagamj,,,Holloway,,Holloway,,Holloway,,Penn Lane,,,,,,NW,E0037841,Runcorn,,,Runcorn,EN,Runcorn,EN,false,UKOS,350754,382277,-2.74099,53.3351,BCT,MKD,OTH,,,,021,1969-12-31T00:00:00,1969-12-31T23:00:00,0,new,active
068000000601,halagpwm,,,Heath High School,,Heath High School,,Off Clifton Road,,,,,,,,N,E0037842,Runcorn Heath,Runcorn,,Runcorn,EN,Runcorn Heath,EN,false,UKOS,351677,381207,-2.72697,53.32556,BCT,MKD,OTH,,,,021,1969-12-31T00:00:00,1969-12-31T23:00:00,0,new,active
068000000622,halagata,,,Russell Road,,Russell Rd,,Russell Rd,,Russell Road,,,,,,SE,E0037841,Runcorn,,,Runcorn,EN,Runcorn,EN,false,UKOS,350242,381936,-2.74863,53.33198,BCT,MKD,OTH,,,,021,1969-12-31T00:00:00,1969-12-31T23:00:00,0,new,active
068000000623,halagatd,,,Russell Road,,Russell Rd,,Russell Rd,,Russell Road,,,,,,NW,E0037841,Runcorn,,,Runcorn,EN,Runcorn,EN,false,UKOS,350226,382034,-2.74888,53.33286,BCT,MKD,OTH,,,,021,1969-12-31T00:00:00,1969-12-31T23:00:00,0,new,active
068000000624,halagatg,,,Hazel Avenue,,Hazel Ave,,Hazel Ave,,Russell Road,,,,,,SE,E0037841,Runcorn,,,Runcorn,EN,Runcorn,EN,false,UKOS,350268,381661,-2.74819,53.32951,BCT,MKD,OTH,,,,021,1969-12-31T00:00:00,1969-12-31T23:00:00,0,new,active
068000000625,halagatj,,,Hazel Avenue,,Hazel Ave,,Hazel Ave,,Russell Road,,,,,,NW,E0037841,Runcorn,,,Runcorn,EN,Runcorn,EN,false,UKOS,350254,381747,-2.74842,53.33029,BCT,MKD,OTH,,,,021,1969-12-31T00:00:00,1969-12-31T23:00:00,0,new,active
068000000621,halagapw,,,Cunningham Drive,,Cunningham Dr,,Cunningham Dr,,Westfield Road,,,,,,SW,E0037841,Runcorn,,,Runcorn,EN,Runcorn,EN,false,UKOS,350269,382123,-2.74825,53.33367,BCT,MKD,OTH,,,,021,1969-12-31T00:00:00,1969-12-31T23:00:00,0,new,active
068000000617,halagapg,,,Westfield Top,,Westfield Top,,Westfield Top,,Westfield Road,,,,,,W,E0037841,Runcorn,,,Runcorn,EN,Runcorn,EN,false,UKOS,350682,382222,-2.74206,53.33459,BCT,MKD,OTH,,,,021,1969-12-31T00:00:00,2021-06-08T16:22:52,10,new,active
068000000618,halagapj,,,Westfield Top,,Westfield Top,,Westfield Top,,Westfield Road,,,,,,NE,E0037841,Runcorn,,,Runcorn,EN,Runcorn,EN,false,UKOS,350682,382231,-2.74206,53.33468,BCT,MKD,OTH,,,,021,1969-12-31T00:00:00,1969-12-31T23:00:00,0,new,active
068000000619,halagapm,,,Westfield Crescent,,Westfield Cres,,Westfield Cres,,Westfield Road,,,,,,SW,E0037841,Runcorn,,,Runcorn,EN,Runcorn,EN,false,UKOS,350552,382222,-2.74402,53.33458,BCT,MKD,OTH,,,,021,1969-12-31T00:00:00,1969-12-31T23:00:00,0,new,active
068000000620,halagapt,,,Westfield Crescent,,Westfield Cres,,Westfield Cres,,Westfield Road,,,,,,NE,E0037841,Runcorn,,,Runcorn,EN,Runcorn,EN,false,UKOS,350485,382220,-2.74502,53.33456,BCT,MKD,OTH,,,,021,1969-12-31T00:00:00,1969-12-31T23:00:00,0,new,active
068000000469,halagmwp,,,CATALYST MUSEUM,,Catalyst Museum,,Catalyst Museam,,Mersey Road,,,,,,N,E0037834,Newtown,Widnes,,Widnes,EN,Newtown (Widnes),EN,false,UKOS,351227,384162,-2.73418,53.35208,BCT,MKD,OTH,,,,021,1969-12-31T00:00:00,1969-12-31T23:00:00,0,new,active
068000000470,halagmwt,,,IRWELL STREET,,Irwell Street,,Mersey Road,,Irwell Street,,,,,,W,E0037856,West Bank,Widnes,,Widnes,EN,West Bank,EN,false,UKOS,351204,383898,-2.73448,53.34971,BCT,MKD,OTH,,,,021,1969-12-31T00:00:00,1969-12-31T23:00:00,0,new,active
068000000471,halagpad,,,IRWELL STREET,,Irwell Street,,Irwell Street,,Mersey Road,,,,,,N,E0037856,West Bank,Widnes,,Widnes,EN,West Bank,EN,false,UKOS,351198,383956,-2.73458,53.35023,BCT,MKD,OTH,,,,021,1969-12-31T00:00:00,1969-12-31T23:00:00,0,new,active
068000000472,,,,ST MARYS CHURCH,,St Marys Church,,St. Mary's Church,,St.Mary's Road,,,,,,SW,E0037856,West Bank,Widnes,,Widnes,EN,West Bank,EN,false,UKOS,351307,383747,-2.73291,53.34836,BCT,MKD,OTH,,,,021,1969-12-31T00:00:00,1969-12-31T23:00:00,0,new,active
068000000468,halagmwm,,,CATALYST MUSEUM,,Catalyst Museum,,Catalyst Museam,,Mersey Road,,,,,,S,E0037856,West Bank,Widnes,,Widnes,EN,West Bank,EN,false,UKOS,351248,384148,-2.73386,53.35196,BCT,MKD,OTH,,,,021,1969-12-31T00:00:00,1969-12-31T23:00:00,0,new,active
068000000473,halagpaj,,,WEST BANK,,West Bank,,St Mary's Church,,St Mary's Road,,,,,,W,E0037856,West Bank,Widnes,,Widnes,EN,West Bank,EN,false,UKOS,351126,383707,-2.73563,53.34798,BCT,MKD,OTH,,,,021,1969-12-31T00:00:00,1969-12-31T23:00:00,0,new,active
068000000509,halagpda,,,LANGDALE ROAD/HEATH ROAD,,Langdale Rd/Heath R,,Heath Road,,Langdale Road,,,,,,NW,E0037841,Runcorn,,,Runcorn,EN,Runcorn,EN,false,UKOS,351652,381892,-2.72745,53.33172,BCT,MKD,OTH,,,,021,1969-12-31T00:00:00,1969-12-31T23:00:00,0,new,active
068000000510,halagpdg,,,LANGDALE ROAD/HEATH ROAD,,Langdale Rd/Heath R,,Heath Road,,Langdale Road,,,,,,SE,E0037841,Runcorn,,,Runcorn,EN,Runcorn,EN,false,UKOS,351677,381897,-2.72707,53.33177,BCT,MKD,OTH,,,,021,1969-12-31T00:00:00,1969-12-31T23:00:00,0,new,active
068000000513,halagpdj,,,PICTON AVENUE,,Picton Avenue,,Picton Avenue,,Halton Road,,,,,,E,E0037841,Runcorn,,,Runcorn,EN,Runcorn,EN,false,UKOS,351951,382918,-2.72311,53.34097,BCT,MKD,OTH,,,,021,1969-12-31T00:00:00,1969-12-31T23:00:00,0,new,active
068000000416,haladwja,,,Cricketers Arms,,Cricketers Arms,,Cricketers Arms,,Milton Road,,,,,,NE,E0037860,Widnes,,,Widnes,EN,Widnes,EN,false,UKOS,350924,385513,-2.73894,53.3642,BCT,MKD,OTH,,,,021,1969-12-31T00:00:00,1969-12-31T23:00:00,0,new,active
068000000417,haladwjd,,,Cricketers Arms,,Cricketers Arms,,Cricketers Arms,,Milton Road,,,,,,SW,E0037860,Widnes,,,Widnes,EN,Widnes,EN,false,UKOS,350923,385503,-2.73895,53.36411,BCT,MKD,OTH,,,,021,1969-12-31T00:00:00,1969-12-31T23:00:00,0,new,active
068000000421,halagmpt,,,SIMMS CROSS,,Simms Cross,,Simms Cross,,,,,,,,S,E0037860,Widnes,,,Widnes,EN,Widnes,EN,false,UKOS,351543,385592,-2.72965,53.36496,BCT,MKD,OTH,,,,021,1969-12-31T00:00:00,1969-12-31T23:00:00,0,new,active
068000000412,haladwgm,,,Elliot Street,,Elliot St,,Elliot Street,,Elliot Street,,,,,,N,E0037860,Widnes,,,Widnes,EN,Widnes,EN,false,UKOS,351621,385786,-2.72851,53.36671,BCT,MKD,OTH,,,,021,1969-12-31T00:00:00,1969-12-31T23:00:00,0,new,active
068000000410,halgwgdp,,,Milton Road,,Calldwell Road,,Caldwell Road,,Caldwell Road,,,,Adj,,S,E0037860,Widnes,,,Widnes,EN,Widnes,EN,false,UKOS,351099,385434,-2.7363,53.3635,BCT,MKD,OTH,,,,021,1969-12-31T00:00:00,1969-12-31T23:00:00,0,new,active
068000000414,haladwgt,,,Milton Road,,Milton Rd,,Milton Rd,,Milton Road,,,,,,NE,E0037860,Widnes,,,Widnes,EN,Widnes,EN,false,UKOS,351202,385578,-2.73477,53.36481,BCT,MKD,OTH,,,,021,1969-12-31T00:00:00,1969-12-31T23:00:00,0,new,active
068000000415,haladwgw,,,Halton College,,Halton College,,Halton College,,Milton Road,,,,,,SW,E0037860,Widnes,,,Widnes,EN,Widnes,EN,false,UKOS,351206,385568,-2.73471,53.36472,BCT,MKD,OTH,,,,021,1969-12-31T00:00:00,1969-12-31T23:00:00,0,new,active
068000000457,halagmtj,,,KINGSWAY,,Kingsway,,Halton College,,Kingsway,,,,,,N,E0037860,Widnes,,,Widnes,EN,Widnes,EN,false,UKOS,351276,385424,-2.73364,53.36343,BCT,MKD,OTH,,,,021,2023-12-07T00:00:00,2024-05-23T10:44:29,0,new,active
068000000453,halagtaw,,,Vicarage Road,,,,,,Kingsway,,,,adj,,S,E0037860,Widnes,,,,,Widnes,EN,false,UKOS,351286,385322,-2.73347,53.36251,BCT,MKD,OTH,,,,021,1970-01-01T00:00:00,2024-02-06T07:38:42,0,new,active
068000000430,halgmapt,,,B+q Store,,Dennis Rd/b+q,,Earle Road,,,,,,O/s,,E,E0037828,Lugsdale,Widnes,,Widnes,EN,Lugsdale,EN,false,UKOS,352246,385404,-2.71906,53.36334,BCT,MKD,OTH,,,,021,1969-12-31T00:00:00,1969-12-31T23:00:00,0,new,active
068000000431,halgpdgj,,,B+q Store,,Dennis Rd B+q Store,,Industrial Estate,,,,,,nr,,W,E0037828,Lugsdale,Widnes,,Widnes,EN,Lugsdale,EN,false,UKOS,352250,385388,-2.719,53.36319,BCT,MKD,OTH,,,,021,1969-12-31T00:00:00,1969-12-31T23:00:00,0,new,active
068000000450,halgjagd,,,Vicarage Road,,Vicarage Rd,,Vicarage Road,,Vicarage Road,,,,,,E,E0037860,Widnes,,,Widnes,EN,Widnes,EN,false,UKOS,351368,385383,-2.73225,53.36307,BCT,MKD,OTH,,,,021,1969-12-31T00:00:00,1969-12-31T23:00:00,0,new,active
068000000514,halagpdm,,,PICTON AVENUE,,Picton Avenue,,Picton Avenue,,Halton Road,,,,,,W,E0037823,Halton Brook,Runcorn,,Runcorn,EN,Halton Brook,EN,false,UKOS,351992,382896,-2.7225,53.34077,BCT,MKD,OTH,,,,021,1969-12-31T00:00:00,1969-12-31T23:00:00,0,new,active
068000000538,halagpmw,,,LANGDALE ROAD SHOPS,,Langdale Road Shops,,Langdale Road Shops,,Langdale Road,,,,,,S,E0037841,Runcorn,,,Runcorn,EN,Runcorn,EN,false,UKOS,351556,382140,-2.72893,53.33394,BCT,MKD,OTH,,,,021,1969-12-31T00:00:00,1969-12-31T23:00:00,0,new,active
068000000539,halagpta,,,LANGDALE ROAD SHOPS,,Langdale Road Shops,,Langdale Road Shops,,Langdale Road,,,,,,N,E0037841,Runcorn,,,Runcorn,EN,Runcorn,EN,false,UKOS,351546,382132,-2.72908,53.33387,BCT,MKD,OTH,,,,021,1969-12-31T00:00:00,1969-12-31T23:00:00,0,new,active
068000000534,halagpmg,,,FIRE STATION,,Fire Station,,Fire Station,,Heath Road,,,,,,SW,E0037842,Runcorn Heath,Runcorn,,Runcorn,EN,Runcorn Heath,EN,false,UKOS,351405,381567,-2.73111,53.32877,BCT,MKD,OTH,,,,021,1969-12-31T00:00:00,1969-12-31T23:00:00,0,new,active
068000000535,halagpmj,,,FIRE STATION,,Fire Station,,Fire Station,,Heath Road,,,,,,NE,E0037842,Runcorn Heath,Runcorn,,Runcorn,EN,Runcorn Heath,EN,false,UKOS,351413,381589,-2.73099,53.32897,BCT,MKD,OTH,,,,021,1969-12-31T00:00:00,1969-12-31T23:00:00,0,new,active
068000000536,halagpmp,,,IVY STREET,,Ivy Street,,Ivy Street,,Ivy Street,,,,,,SW,E0037841,Runcorn,,,Runcorn,EN,Runcorn,EN,false,UKOS,351600,382310,-2.72829,53.33547,BCT,MKD,OTH,,,,021,1969-12-31T00:00:00,1969-12-31T23:00:00,0,new,active
068000000537,halagpmt,,,IVY STREET,,Ivy Street,,Ivy Street,,Ivy Street,,,,,,NE,E0037841,Runcorn,,,Runcorn,EN,Runcorn,EN,false,UKOS,351643,382324,-2.72765,53.3356,BCT,MKD,OTH,,,,021,1969-12-31T00:00:00,1969-12-31T23:00:00,0,new,active
068000000552,haladwjt,,,Birch Road,,Birch Rd,,Birch Rd,,Festival Way,,,,,,NW,N0065328,Grange,Runcorn,,Runcorn,EN,Grange,EN,false,UKOS,352213,381937,-2.71903,53.33217,BCT,MKD,OTH,,,,021,1969-12-31T00:00:00,1969-12-31T23:00:00,0,new,active
068000000553,haladwjw,,,Jubilee House,,Jubilee House,,Jubilee House,,Festival Way,,,,,,SE,N0065328,Grange,Runcorn,,Runcorn,EN,Grange,EN,false,UKOS,352304,381702,-2.71763,53.33007,BCT,MKD,OTH,,,,021,1969-12-31T00:00:00,1969-12-31T23:00:00,0,new,active
068000000554,haladwma,,,Cherry Tree,,Cherry Tree,,Cherry Tree,,Grangeway,,,,,,S,N0065328,Grange,Runcorn,,Runcorn,EN,Grange,EN,false,UKOS,352252,381505,-2.71838,53.32829,BCT,MKD,OTH,,,,021,1969-12-31T00:00:00,1969-12-31T23:00:00,0,new,active
068000000555,haladwmd,,,Cherry Tree,,Cherry Tree,,Cherry Tree,,Grangeway,,,,,,NE,N0065328,Grange,Runcorn,,Runcorn,EN,Grange,EN,false,UKOS,352280,381574,-2.71797,53.32892,BCT,MKD,OTH,,,,021,1969-12-31T00:00:00,1969-12-31T23:00:00,0,new,active
068000000548,halagpwg,,,CASTLE RISE,,Castle Rise,,Castle Rise,,Boston Avenue,,,,,,NE,E0037812,Castle Rise,Runcorn,,Runcorn,EN,Castle Rise,EN,false,UKOS,352978,382413,-2.70762,53.33652,BCT,MKD,OTH,,,,021,1969-12-31T00:00:00,1969-12-31T23:00:00,0,new,active
068000000549,halagpwj,,,CASTLE RISE,,Castle Rise,,Castle Rise,,Boston Avenue,,,,,,SW,E0037812,Castle Rise,Runcorn,,Runcorn,EN,Castle Rise,EN,false,UKOS,352940,382391,-2.70818,53.33632,BCT,MKD,OTH,,,,021,1969-12-31T00:00:00,1969-12-31T23:00:00,0,new,active
068000000519,halagpgd,,,SEA LANE,,Sea Lane,,Sea Lane,,Halton Road,,,,,,E,E0037812,Castle Rise,Runcorn,,Runcorn,EN,Castle Rise,EN,false,UKOS,352987,382588,-2.70751,53.33809,BCT,MKD,OTH,,,,021,1969-12-31T00:00:00,1969-12-31T23:00:00,0,new,active
068000000520,halagpgj,,,SEA LANE,,Sea Lane,,Sea Lane,,Halton Road,,,,,,W,E0037812,Castle Rise,Runcorn,,Runcorn,EN,Castle Rise,EN,false,UKOS,352884,382618,-2.70906,53.33836,BCT,MKD,OTH,,,,021,1969-12-31T00:00:00,1969-12-31T23:00:00,0,new,active
068000000521,halagpgm,,,SAXON ROAD,,Saxon Road,,Saxon Road,,Picton Avenue,,,,,,S,E0037823,Halton Brook,Runcorn,,Runcorn,EN,Halton Brook,EN,false,UKOS,352006,382669,-2.72225,53.33873,BCT,MKD,OTH,,,,021,1969-12-31T00:00:00,1969-12-31T23:00:00,0,new,active
068000000522,halagpgp,,,SAXON ROAD,,Saxon Road,,Saxon Road,,,,,,,,N,E0037823,Halton Brook,Runcorn,,Runcorn,EN,Halton Brook,EN,false,UKOS,351994,382642,-2.72243,53.33849,BCT,MKD,OTH,,,,021,1969-12-31T00:00:00,1969-12-31T23:00:00,0,new,active
068000000523,halagpgt,,,DUNCAN AVENUE,,Duncan Avenue,,Duncan Avenue,,,,,,,,E,E0037823,Halton Brook,Runcorn,,Runcorn,EN,Halton Brook,EN,false,UKOS,352089,382298,-2.72095,53.33541,BCT,MKD,OTH,,,,021,1969-12-31T00:00:00,1969-12-31T23:00:00,0,new,active
068000000524,halagpgw,,,DUNCAN AVENUE,,Duncan Avenue,,Duncan Avenue,,Latham Avenue,,,,,,W,E0037823,Halton Brook,Runcorn,,Runcorn,EN,Halton Brook,EN,false,UKOS,352085,382288,-2.72101,53.33532,BCT,MKD,OTH,,,,021,1969-12-31T00:00:00,1969-12-31T23:00:00,0,new,active
068000000515,halagpdp,,,IRON BRIDGE,,Iron Bridge,,Iron Bridge,,Halton Road,,,,,,E,E0037823,Halton Brook,Runcorn,,Runcorn,EN,Halton Brook,EN,false,UKOS,352320,382819,-2.71756,53.34011,BCT,MKD,OTH,,,,021,1969-12-31T00:00:00,1969-12-31T23:00:00,0,new,active
068000000516,halagpdt,,,IRON BRIDGE,,Iron Bridge,,Iron Bridge,,Halton Road,,,,,,W,E0037812,Castle Rise,Runcorn,,Runcorn,EN,Castle Rise,EN,false,UKOS,352338,382802,-2.71729,53.33996,BCT,MKD,OTH,,,,021,1969-12-31T00:00:00,1969-12-31T23:00:00,0,new,active
068000000517,halagpdw,,,HALFWAY HOUSE,,Halfway House,,Halfway House,,Halton Road,,,,,,E,E0037812,Castle Rise,Runcorn,,Runcorn,EN,Castle Rise,EN,false,UKOS,352712,382710,-2.71165,53.33917,BCT,MKD,OTH,,,,021,1969-12-31T00:00:00,1969-12-31T23:00:00,0,new,active
068000000518,halagpga,,,HALFWAY HOUSE,,Halfway House,,Halfway House,,Halton Road,,,,,,W,E0037812,Castle Rise,Runcorn,,Runcorn,EN,Castle Rise,EN,false,UKOS,352607,382728,-2.71323,53.33932,BCT,MKD,OTH,,,,021,1969-12-31T00:00:00,1969-12-31T23:00:00,0,new,active
068000000532,halagpma,,,LANGDALE ROAD,,Langdale Road,,Langdale Road,,Heath Road,,,,,,S,E0037841,Runcorn,,,Runcorn,EN,Runcorn,EN,false,UKOS,351704,381878,-2.72667,53.3316,BCT,MKD,OTH,,,,021,1969-12-31T00:00:00,1969-12-31T23:00:00,0,new,active
068000000533,halagpmd,,,LANGDALE ROAD,,Langdale Road,,Langdale Road,,Heath Road,,,,,,N,E0037841,Runcorn,,,Runcorn,EN,Runcorn,EN,false,UKOS,351711,381922,-2.72657,53.33199,BCT,MKD,OTH,,,,021,1969-12-31T00:00:00,1969-12-31T23:00:00,0,new,active
068000000525,halagpja,,,GRANGE SCHOOL,,Grange School,,Grange Comprehensive,,Latham Avenue,,,,,,NW,E0037823,Halton Brook,Runcorn,,Runcorn,EN,Halton Brook,EN,false,UKOS,352393,382135,-2.71636,53.33397,BCT,MKD,OTH,,,,021,1969-12-31T00:00:00,1969-12-31T23:00:00,0,new,active
068000000815,halagmam,,,Manor Park Roundabout,,Manor Pk Roundabout,,Manor Park Roundabout,,Manor Park Avenue,,,,opp,,S,N0065325,Manor Park,Runcorn,,Runcorn,EN,Manor Park,EN,false,UKOS,355355,383962,-2.67214,53.35065,BCT,MKD,OTH,,,,021,1969-12-31T00:00:00,2024-10-29T11:27:03,55,new,active
068000000816,halmtpga,,,Manor Park,,Business Post,,Blackheath Lane,,Business Post,,,,In,,SW,E0037824,Halton Moss,Moore,,Runcorn,EN,Halton Moss,EN,false,UKOS,356492,383969,-2.65506,53.35081,BCT,MKD,OTH,,,,021,1969-12-31T00:00:00,1969-12-31T23:00:00,0,new,active
068000000817,halmwptp,,,Manor Park,,Hagemeyer,,Blackheath Lane,,Hagemeyer,,,,In,,NE,E0037824,Halton Moss,Moore,,Runcorn,EN,Halton Moss,EN,false,UKOS,356608,384237,-2.65336,53.35323,BCT,MKD,OTH,,,,021,1969-12-31T00:00:00,1969-12-31T23:00:00,0,new,active
068000000818,halpawgj,,,Manor Park,,Lidl,,Gate Road,,Lidl,,,,,,SW,E0037824,Halton Moss,Moore,,Runcorn,EN,Halton Moss,EN,false,UKOS,356178,384338,-2.65983,53.3541,BCT,MKD,OTH,,,,021,1969-12-31T00:00:00,1969-12-31T23:00:00,0,new,active
068000000813,halagmag,,,Calmington Lane,,Calmington Lane,,Calmington Lane,,Newmoor Lane,,,,,,NE,E0037827,Keckwick,Daresbury,,Runcorn,EN,Keckwick,EN,false,UKOS,356707,383638,-2.65179,53.34785,BCT,MKD,OTH,,,,021,1969-12-31T00:00:00,1969-12-31T23:00:00,0,new,active
068000000814,halagmaj,,,Calmington Lane,,Calmington Lane,,Calmington Lane,,Newmoor Lane,,,,,,SW,E0037827,Keckwick,Daresbury,,Runcorn,EN,Keckwick,EN,false,UKOS,356718,383633,-2.65162,53.34781,BCT,MKD,OTH,,,,021,1969-12-31T00:00:00,1969-12-31T23:00:00,0,new,active
068000000809,halagjwm,,,Wharford Lane,,Wharford Lane,,Wharford Lane,,Wharford Lane,,,,,,SE,E0037835,Norton,Runcorn,,Runcorn,EN,Norton,EN,false,UKOS,356372,383473,-2.6568,53.34634,BCT,MKD,OTH,,,,021,1969-12-31T00:00:00,1969-12-31T23:00:00,0,new,active
068000000810,halagjwp,,,Wharford Lane,,Wharford Lane,,Wharford Lane,,Wharford Lane,,,,,,W,E0037835,Norton,Runcorn,,Runcorn,EN,Norton,EN,false,UKOS,356366,383473,-2.65689,53.34634,BCT,MKD,OTH,,,,021,1969-12-31T00:00:00,1969-12-31T23:00:00,0,new,active
068000000811,halagjwt,,,Selby Close,,Selby Close,,Selby Close,,Newmoor Lane,,,,,,NE,E0037835,Norton,Runcorn,,Runcorn,EN,Norton,EN,false,UKOS,356563,383545,-2.65394,53.347,BCT,MKD,OTH,,,,021,1969-12-31T00:00:00,1969-12-31T23:00:00,0,new,active
068000000812,halagmad,,,Selby Close,,Selby Close,,Selby Close,,Newmoor Lane,,,,,,SW,E0037835,Norton,Runcorn,,Runcorn,EN,Norton,EN,false,UKOS,356565,383537,-2.65391,53.34693,BCT,MKD,OTH,,,,021,1969-12-31T00:00:00,1969-12-31T23:00:00,0,new,active
068000000819,halpdwpw,,,Manor Park,,Rokeby Court,,Warrington Road,,Rokeby Court,,,,In,,W,N0065325,Manor Park,Runcorn,,Runcorn,EN,Manor Park,EN,false,UKOS,355848,383928,-2.66473,53.35039,BCT,MKD,OTH,,,,021,1969-12-31T00:00:00,1969-12-31T23:00:00,0,new,active
068000000825,halagmdg,,,Six Acre Lane,,Six Acre Lane,,Six Acre Lane,,Runcorn Road,,,,,,NE,E0053153,Moore,Runcorn,,Runcorn,EN,Moore,EN,false,UKOS,357466,384293,-2.64048,53.3538,BCT,MKD,OTH,,,,021,1969-12-31T00:00:00,2019-05-17T13:58:12,4,new,active
068000000826,halagmdj,,,Red Lion,,Red Lion,,Red Lion,,Runcorn Road,,,,,,NE,E0053153,Moore,Runcorn,,Runcorn,EN,Moore,EN,false,UKOS,357726,384256,-2.63656,53.35349,BCT,MKD,OTH,,,,021,1969-12-31T00:00:00,1969-12-31T23:00:00,0,new,active
068000000827,halagmdm,,,Red Lion,,Red Lion,,Red Lion,,Runcorn Road,,,,,,SE,E0053153,Moore,Runcorn,,Runcorn,EN,Moore,EN,false,UKOS,357723,384248,-2.63661,53.35342,BCT,MKD,OTH,,,,021,1969-12-31T00:00:00,1969-12-31T23:00:00,0,new,active
068000000828,halagmdp,,,Canalside,,Canalside,,Canalside,,Runcorn Road,,,,,,N,E0053153,Moore,Runcorn,,Runcorn,EN,Moore,EN,false,UKOS,358064,384424,-2.63151,53.35502,BCT,MKD,OTH,,,,021,1969-12-31T00:00:00,1969-12-31T23:00:00,0,new,active
068000000829,halagmdt,,,Canalside,,Canalside,,Canalside,,Runcorn Road,,,,,,S,E0053153,Moore,Runcorn,,Runcorn,EN,Moore,EN,false,UKOS,358070,384421,-2.63142,53.355,BCT,MKD,OTH,,,,021,1969-12-31T00:00:00,1969-12-31T23:00:00,0,new,active
068000000823,halagmaw,,,Runcorn Road,,Runcorn Rd,,Runcorn Rd,,Runcorn Road,,,,,,NE,E0053153,Moore,Runcorn,,Runcorn,EN,Moore,EN,false,UKOS,357214,384104,-2.64424,53.35208,BCT,MKD,OTH,,,,021,1969-12-31T00:00:00,1969-12-31T23:00:00,0,new,active
068000000824,halagmda,,,Runcorn Road,,Runcorn Rd,,Runcorn Rd,,Runcorn Road,,,,,,SW,E0053153,Moore,Runcorn,,Runcorn,EN,Moore,EN,false,UKOS,357220,384098,-2.64414,53.35203,BCT,MKD,OTH,,,,021,1969-12-31T00:00:00,1969-12-31T23:00:00,0,new,active
068000000820,halpjajm,,,Manor Park,,Pembroke Court,,Warrington Road,,Pembroke Court,,,,In,,W,N0065325,Manor Park,Runcorn,,Runcorn,EN,Manor Park,EN,false,UKOS,355661,383993,-2.66755,53.35095,BCT,MKD,OTH,,,,021,1969-12-31T00:00:00,1969-12-31T23:00:00,0,new,active
068000000821,halagmap,,,Keckwick Lane,,Keckwick Lane,,Keckwick Lane,,Runcorn Road,,,,,,NE,E0037824,Halton Moss,Moore,,Runcorn,EN,Halton Moss,EN,false,UKOS,356929,383801,-2.64848,53.34933,BCT,MKD,OTH,,,,021,1969-12-31T00:00:00,1969-12-31T23:00:00,0,new,active
068000000822,halagmat,,,Keckwick Lane,,Keckwick Lane,,Keckwick Lane,,Runcorn Road,,,,,,SW,E0037824,Halton Moss,Moore,,Runcorn,EN,Halton Moss,EN,false,UKOS,356936,383797,-2.64837,53.3493,BCT,MKD,OTH,,,,021,1969-12-31T00:00:00,1969-12-31T23:00:00,0,new,active
068000000068,haladgdg,,,Gooseberry Lane,,Gooseberry Lane,,Gooseberry Lane,,,,,,,,N,N0065324,Windmill Hill,Norton,,Runcorn,EN,Windmill Hill,EN,false,UKOS,355584,382356,-2.66848,53.33623,BCT,MKD,OTH,,,,021,1969-12-31T00:00:00,2016-09-30T07:37:35,6,new,active
068000000794,halagjpj,,,Gooseberry Lane,,Gooseberry Lane,,Gooseberry Lane,,Windmill Avenue East,,,,,,N,N0065324,Windmill Hill,Norton,,Runcorn,EN,Windmill Hill,EN,false,UKOS,355709,382176,-2.66657,53.33463,BCT,MKD,OTH,,,,021,1969-12-31T00:00:00,1969-12-31T23:00:00,0,new,active
068000000795,halagjpm,,,Gooseberry Lane,,Gooseberry Lane,,Gooseberry Lane,,Windmill Hill Avenue East,,,,,,SW,N0065324,Windmill Hill,Norton,,Runcorn,EN,Windmill Hill,EN,false,UKOS,355714,382170,-2.6665,53.33457,BCT,MKD,OTH,,,,021,1969-12-31T00:00:00,1969-12-31T23:00:00,0,new,active
068000000796,halagjpt,,,Adlington,,Adlington,,Adlington,,Windmill Hill Avenue East,,,,,,NW,N0065324,Windmill Hill,Norton,,Runcorn,EN,Windmill Hill,EN,false,UKOS,355641,382660,-2.66766,53.33897,BCT,MKD,OTH,,,,021,1969-12-31T00:00:00,2017-07-20T14:16:56,15,new,active
068000000797,halagjpw,,,Adlington,,Adlington,,Adlington,,Windmill Hill Avenue East,,,,,,SE,N0065324,Windmill Hill,Norton,,Runcorn,EN,Windmill Hill,EN,false,UKOS,355650,382667,-2.66753,53.33904,BCT,MKD,OTH,,,,021,1969-12-31T00:00:00,2017-07-20T14:15:10,7,new,active
068000000798,halagjta,,,Windmill Hill East,,Windmill Hill East,,Windmill Hill East,,Windmill Hill Avenue,,,,,,NW,N0065324,Windmill Hill,Norton,,Runcorn,EN,Windmill Hill,EN,false,UKOS,355599,382783,-2.66831,53.34007,BCT,MKD,OTH,,,,021,1969-12-31T00:00:00,1969-12-31T23:00:00,0,new,active
068000000799,halagjtd,,,Windmill Hill East,,Windmill Hill East,,Windmill Hill East,,Windmill Hill East,,,,,,SE,N0065324,Windmill Hill,Norton,,Runcorn,EN,Windmill Hill,EN,false,UKOS,355602,382791,-2.66827,53.34015,BCT,MKD,OTH,,,,021,1969-12-31T00:00:00,1969-12-31T23:00:00,0,new,active
068000000790,halagjmw,,,Newburgh Close,,Newburgh Close,,Newburgh Close,,,,,,,,S,N0065324,Windmill Hill,Norton,,Runcorn,EN,Windmill Hill,EN,false,UKOS,355607,382427,-2.66814,53.33687,BCT,MKD,OTH,,,,021,1969-12-31T00:00:00,2024-11-25T12:12:11,37,new,active
068000000791,halagjpa,,,Norton Lane,,Norton Lane,,Norton Lane,,Norton Lane,,,,,,SE,E0037821,Eanley Wood,Norton,,Runcorn,EN,Eanley Wood,EN,false,UKOS,355541,381792,-2.66904,53.33116,BCT,MKD,OTH,,,,021,1969-12-31T00:00:00,2019-05-17T14:39:53,3,new,active
068000000792,halagjpd,,,Norton Lane,,Norton Lane,,Norton Lane,,Norton Lane,,,,,,NW,E0037821,Eanley Wood,Norton,,Runcorn,EN,Eanley Wood,EN,false,UKOS,355538,381778,-2.66908,53.33104,BCT,MKD,OTH,,,,021,1969-12-31T00:00:00,1969-12-31T23:00:00,0,new,active
068000000793,halagjpg,,,Morton Lane,,Morton Lane,,Morton Lane,,Windmill Hill Avenue East,,,,,,NE,E0037835,Norton,Runcorn,,Runcorn,EN,Norton,EN,false,UKOS,355644,381925,-2.66751,53.33237,BCT,MKD,OTH,,,,021,1969-12-31T00:00:00,1969-12-31T23:00:00,0,new,active
068000000805,halagjwa,,,Dorchester,,Dorchester,,Dorchester,,,,,,,,NE,E0037835,Norton,Runcorn,,Runcorn,EN,Norton,EN,false,UKOS,356113,383488,-2.66069,53.34645,BCT,MKD,OTH,,,,021,1969-12-31T00:00:00,2019-03-18T07:41:03,4,new,active
068000000806,halagjwd,,,Dorchester,,Dorchester,,Dorchester,,Pitts Heath Lane,,,,,,SW,E0037835,Norton,Runcorn,,Runcorn,EN,Norton,EN,false,UKOS,356135,383385,-2.66034,53.34553,BCT,MKD,OTH,,,,021,1969-12-31T00:00:00,1969-12-31T23:00:00,0,new,active
068000000807,halagjwg,,,Steventon,,Steventon,,Steventon,,,,,,,,E,E0037835,Norton,Runcorn,,Runcorn,EN,Norton,EN,false,UKOS,356228,383546,-2.65897,53.34698,BCT,MKD,OTH,,,,021,1969-12-31T00:00:00,2019-03-18T07:41:10,3,new,active
068000000808,halagjwj,,,Steventon,,Steventon,,Steventon,,Pitts Heath Lane,,,,,,SW,E0037835,Norton,Runcorn,,Runcorn,EN,Norton,EN,false,UKOS,356220,383537,-2.65909,53.3469,BCT,MKD,OTH,,,,021,1969-12-31T00:00:00,1969-12-31T23:00:00,0,new,active
068000000803,halagjtp,,,Pitts Heath,,Pitts Heath,,Pitts Heath,,,,,,,,NE,E0037835,Norton,Runcorn,,Runcorn,EN,Norton,EN,false,UKOS,356089,383167,-2.66101,53.34357,BCT,MKD,OTH,,,,021,1969-12-31T00:00:00,2019-03-18T07:40:34,4,new,active
068000000804,halagjtw,,,Pitts Heath,,Pitts Heath,,Pitts Heath,,Pitts Heath Lane,,,,,,SW,E0037835,Norton,Runcorn,,Runcorn,EN,Norton,EN,false,UKOS,356094,383155,-2.66093,53.34346,BCT,MKD,OTH,,,,021,1969-12-31T00:00:00,1969-12-31T23:00:00,0,new,active
068000000800,halagjtg,,,Manor Park,,Manor Park,,Manor Park,,Windmill Hill Avenue North,,,,,,S,N0065325,Manor Park,Runcorn,,Runcorn,EN,Manor Park,EN,false,UKOS,355467,383452,-2.67039,53.34608,BCT,MKD,OTH,,,,021,1969-12-31T00:00:00,2021-06-08T16:18:30,10,new,active
068000000801,halagjtj,,,Sandymoor Lane,,Sandymoor Lane,,Sandymoor Lane,,Pitts Heath Lane,,,,,,SE,E0037835,Norton,Runcorn,,Runcorn,EN,Norton,EN,false,UKOS,355832,383094,-2.66485,53.34289,BCT,MKD,OTH,,,,021,1969-12-31T00:00:00,2019-03-18T07:40:23,4,new,active
068000000802,halagjtm,,,Sandymoor Lane,,Sandymoor Lane,,Sandymoor Lane,,Pitts Heath Lane,,,,,,NW,E0037835,Norton,Runcorn,,Runcorn,EN,Norton,EN,false,UKOS,355814,383091,-2.66512,53.34286,BCT,MKD,OTH,,,,021,1969-12-31T00:00:00,1969-12-31T23:00:00,0,new,active
068000000856,,,,Keckwick Lane,,Keckwick Lane,,Keckwick Lane,,Keckwick Lane,,,,,,,E0053151,Daresbury,Runcorn,,Runcorn,EN,Daresbury,EN,false,UKOS,357625,383226,-2.63794,53.34422,BCT,HAR,OTH,,,,021,1969-12-31T00:00:00,2025-03-18T10:17:57,690,new,active
068000000857,,,,Keckwick Lane,,Keckwick Lane,,Keckwick Lane,,Keckwick Lane,,,,,,,E0053151,Daresbury,Runcorn,,Runcorn,EN,Daresbury,EN,false,UKOS,357614,383212,-2.63811,53.3441,BCT,HAR,OTH,,,,021,1969-12-31T00:00:00,2025-03-18T10:17:57,842,new,active
068000000858,,,,Aston Green,,Aston Green,,Aston Green,,Aston Green,,,,,,,E0037837,Preston Brook,Runcorn,,Runcorn,EN,Preston Brook,EN,false,UKOS,356459,380558,-2.65509,53.32015,BCT,HAR,OTH,,,,021,1969-12-31T00:00:00,1969-12-31T23:00:00,0,new,active
068000000859,,,,Aston Green,,Aston Green,,Aston Green,,Aston Green,,,,,,,E0037837,Preston Brook,Runcorn,,Runcorn,EN,Preston Brook,EN,false,UKOS,356468,380544,-2.65495,53.32002,BCT,HAR,OTH,,,,021,1969-12-31T00:00:00,1969-12-31T23:00:00,0,new,active
068000000854,halagmpa,,,Ring o Bells,,Ring o Bells,,Ring o Bells,,Chester Road,,,,,,N,E0053151,Daresbury,Runcorn,,Runcorn,EN,Daresbury,EN,false,UKOS,357956,382852,-2.63292,53.34089,BCT,MKD,OTH,,,,021,1969-12-31T00:00:00,1969-12-31T23:00:00,0,new,active
068000000855,halagmpd,,,Ring o Bells,,Ring o Bells,,Ring o Bells,,Chester Road,,,,,,S,E0053151,Daresbury,Runcorn,,Runcorn,EN,Daresbury,EN,false,UKOS,357967,382849,-2.63276,53.34086,BCT,MKD,OTH,,,,021,1969-12-31T00:00:00,1969-12-31T23:00:00,0,new,active
068000000851,halagmjp,,,D Park Hotel,,D Park Hotel,,D Park Hotel,,Chester Road,,,,,,S,E0037818,Daresbury Delph,Daresbury,,Runcorn,EN,Daresbury Delph,EN,false,UKOS,357598,382095,-2.6382,53.33405,BCT,MKD,OTH,,,,021,1969-12-31T00:00:00,1969-12-31T23:00:00,0,new,active
068000000852,halagmjt,,,D Park School,,D Park School,,D Park School,,Chester Road,,,,,,N,E0053151,Daresbury,Runcorn,,Runcorn,EN,Daresbury,EN,false,UKOS,357826,382521,-2.63483,53.3379,BCT,MKD,OTH,,,,021,1969-12-31T00:00:00,1969-12-31T23:00:00,0,new,active
068000000853,halagmjw,,,D Park School,,D Park School,,D Park School,,Chester Road,,,,,,S,E0053151,Daresbury,Runcorn,,Runcorn,EN,Daresbury,EN,false,UKOS,357820,382494,-2.63492,53.33766,BCT,MKD,OTH,,,,021,1969-12-31T00:00:00,1969-12-31T23:00:00,0,new,active
068000000860,halagmpg,,,Daresbury Park,,Daresbury Park,,Daresbury Park,,Windmill Lane,,,,,,N,E0037839,Red Brow,Daresbury,,Runcorn,EN,Red Brow,EN,false,UKOS,357167,381592,-2.6446,53.3295,BCT,MKD,OTH,,,,021,1969-12-31T00:00:00,1969-12-31T23:00:00,0,new,active
068000000870,halapdmp,,,Heath Business Park,,Heath Business Park,,Heath Road South,,Heath Business Park,,,,,,S,E0037842,Runcorn Heath,Runcorn,,Runcorn,EN,Runcorn Heath,EN,false,UKOS,351104,381173,-2.73556,53.32521,BCT,MKD,OTH,,,,021,1969-12-31T00:00:00,1969-12-31T23:00:00,0,new,active
068000000871,halatgag,,,Heath Business Park,,Heath Business Park,,Heath Road South,,Heath Business Park,,,,,,S,E0037842,Runcorn Heath,Runcorn,,Runcorn,EN,Runcorn Heath,EN,false,UKOS,351106,381040,-2.73551,53.32401,BCT,MKD,OTH,,,,021,1969-12-31T00:00:00,1969-12-31T23:00:00,0,new,active
068000000872,halawgmw,,,Heath Business Park,,Heath Business Park,,Heath Road South,,Heath Business Park,,,,,,N,E0037842,Runcorn Heath,Runcorn,,Runcorn,EN,Runcorn Heath,EN,false,UKOS,351235,381106,-2.73359,53.32462,BCT,MKD,OTH,,,,021,1969-12-31T00:00:00,1969-12-31T23:00:00,0,new,active
068000000900,halpmawj,,,Arriva Depot,,Arriva Depot,,Arriva Depot,,,,,,O/s,,NW,N0065330,Beechwood,Runcorn,,Runcorn,EN,Beechwood,EN,false,UKOS,352490,380764,-2.7147,53.32166,BCT,MKD,OTH,,,,021,1969-12-31T00:00:00,2021-05-24T13:36:33,7,new,active
06800000501A,halagtag,,,RUNCORN HIGH STREET- STAND A,,Runc High St - St A,,High Street,,Public Hall Street,,,,,,E,E0037841,Runcorn,,,Runcorn,EN,Runcorn,EN,false,UKOS,351328,383012,-2.73249,53.34176,BCT,MKD,OTH,,,,021,1969-12-31T00:00:00,2019-03-22T14:18:38,38,new,active
06800000501B,halagtaj,,,RUNCORN HIGH STREET- STAND A,,,,,,Public Hall Street,,,,,,E,E0037841,Runcorn,,,,,,,false,UKOS,351314,383010,-2.7327,53.34174,BCT,MKD,OTH,,,,021,1969-12-31T00:00:00,2017-10-17T09:34:57,22,delete,inactive
068000000861,halajamj,,,Chester Road,,Chester Road,,Abbots Park,,A56(t) Chester Road,,,,,,NE,E0037837,Preston Brook,Runcorn,,Runcorn,EN,Preston Brook,EN,false,UKOS,356331,380299,-2.65697,53.31781,BCT,MKD,OTH,,,,021,1969-12-31T00:00:00,2024-05-08T14:02:45,2,new,active
068000000862,halamdad,,,Chester Road,,Chester Road,,Abbots Park,,A56(t) Chester Road,,,,,,NE,E0037837,Preston Brook,Runcorn,,Runcorn,EN,Preston Brook,EN,false,UKOS,356313,380307,-2.65725,53.31788,BCT,MKD,OTH,,,,021,1969-12-31T00:00:00,1969-12-31T23:00:00,0,new,active
068000000867,halgtdpw,,,Science & Technology Park,,Daresbury,,Daresbury,,Daresbury,,,,O/s,,NE,E0053151,Daresbury,Runcorn,,Runcorn,EN,Daresbury,EN,false,UKOS,357791,383200,-2.63545,53.344,BCT,MKD,OTH,,,,021,1969-12-31T00:00:00,1969-12-31T23:00:00,0,new,active
068000000850,halagmjm,,,D Park Hotel,,D Park Hotel,,D Park Hotel,,Chester Road,,,,,,N,E0037818,Daresbury Delph,Daresbury,,Runcorn,EN,Daresbury Delph,EN,false,UKOS,357440,381827,-2.64053,53.33163,BCT,MKD,OTH,,,,021,1969-12-31T00:00:00,1969-12-31T23:00:00,0,new,active
068000000835,,,,Newtown Lane,,Newtown Lane,,Newtown Lane,,Newtown Lane,,,,,,,E0037833,Newton,Daresbury,,Runcorn,EN,Newton (Runcorn),EN,false,UKOS,358497,381700,-2.62465,53.33058,BCT,HAR,OTH,,,,021,1969-12-31T00:00:00,1969-12-31T23:00:00,0,new,active
068000000836,,,,SUMMER LANE,,SUMMER LANE,,Summer Lane Cottages,,Summer lane,,,,,,,E0037838,Preston on the Hill,Runcorn,,Runcorn,EN,Preston on the Hill,EN,false,UKOS,358381,381081,-2.62631,53.325,BCT,HAR,OTH,,,,021,1969-12-31T00:00:00,1969-12-31T23:00:00,0,new,active
068000000837,,,,SUMMER LANE,,SUMMER LANE,,Summer Lane Cottages,,Summer Lane,,,,,,,E0037838,Preston on the Hill,Runcorn,,Runcorn,EN,Preston on the Hill,EN,false,UKOS,358369,381100,-2.62649,53.32517,BCT,HAR,OTH,,,,021,1969-12-31T00:00:00,1969-12-31T23:00:00,0,new,active
068000000838,halpmawa,,,Tunnel Top,,Tunnel Top,,A533 Northwich Road,,A533 Northwich Road,,,,,,NW,E0037849,Tunnel Top,Preston Brook,,Runcorn,EN,Tunnel Top,EN,false,UKOS,357041,379433,-2.6462,53.31008,BCT,MKD,OTH,,,,021,1969-12-31T00:00:00,1969-12-31T23:00:00,0,new,active
068000000834,,,,SUMMER LANE,,Newton Lane (H&R),,Summer Lane Cottages,,Summer Lane,,,,,,,E0037833,Newton,Daresbury,,Runcorn,EN,Newton (Runcorn),EN,false,UKOS,358492,381710,-2.62472,53.33066,BCT,HAR,OTH,,,,021,1969-12-31T00:00:00,1969-12-31T23:00:00,0,new,active
068000000830,halagmdw,,,Moore Lane,,Moore Lane,,Moore Lane,,Runcorn Road,,,,,,N,E0053153,Moore,Runcorn,,Runcorn,EN,Moore,EN,false,UKOS,358232,384720,-2.62902,53.3577,BCT,MKD,OTH,,,,021,1969-12-31T00:00:00,1969-12-31T23:00:00,0,new,active
068000000831,halagmga,,,Moore Lane,,Moore Lane,,Moore Lane,,Runcorn Road,,,,,,S,E0053153,Moore,Runcorn,,Runcorn,EN,Moore,EN,false,UKOS,358294,384758,-2.6281,53.35804,BCT,MKD,OTH,,,,021,1969-12-31T00:00:00,1969-12-31T23:00:00,0,new,active
068000000832,,,,Moore Promenade,,Moore Promenade,,Moore Promenade,,Moss Lane,,,,,,,E0053153,Moore,Runcorn,,Runcorn,EN,Moore,EN,false,UKOS,357416,385061,-2.64133,53.3607,BCT,HAR,OTH,,,,021,1969-12-31T00:00:00,1969-12-31T23:00:00,0,new,active
068000000833,,,,Moore Loop,,Moore Loop,,Moore Loop,,Moore Lane,,,,,,,E0053153,Moore,Runcorn,,Runcorn,EN,Moore,EN,false,UKOS,357627,385231,-2.63818,53.36224,BCT,HAR,OTH,,,,021,1969-12-31T00:00:00,1969-12-31T23:00:00,0,new,active
068000000840,haldmpmd,,,Whitehouse Industrial Estate,,Whitehouse Ind Est,,Whitehouse Ind Estate,,Whitehouse Industrial Estate,,,,,,NW,E0037837,Preston Brook,Runcorn,,Runcorn,EN,Preston Brook,EN,false,UKOS,356318,380144,-2.65715,53.31641,BCT,MKD,OTH,,,,021,1969-12-31T00:00:00,1969-12-31T23:00:00,0,new,active
068000000846,halagmgw,,,Post Office,,Post Office,,Post Office,,Chester Road,,,,,,N,E0037837,Preston Brook,Runcorn,,Runcorn,EN,Preston Brook,EN,false,UKOS,356632,380584,-2.6525,53.32039,BCT,MKD,OTH,,,,021,1969-12-31T00:00:00,1969-12-31T23:00:00,0,new,active
068000000847,halagmja,,,Post Office,,Post Office,,Post Office,,Chester Road,,,,,,S,E0037837,Preston Brook,Runcorn,,Runcorn,EN,Preston Brook,EN,false,UKOS,356733,380632,-2.65099,53.32083,BCT,MKD,OTH,,,,021,1969-12-31T00:00:00,1969-12-31T23:00:00,0,new,active
068000000848,halagmjd,,,Chester Road,,Chester Rd,,Chester Rd,,Chester Road,,,,,,N,E0037838,Preston on the Hill,Runcorn,,Runcorn,EN,Preston on the Hill,EN,false,UKOS,357059,381066,-2.64615,53.32476,BCT,MKD,OTH,,,,021,1969-12-31T00:00:00,1969-12-31T23:00:00,0,new,active
068000000849,halagmjg,,,Chester Road,,Chester Rd,,Chester Rd,,Chester Road,,,,,,S,E0037838,Preston on the Hill,Runcorn,,Runcorn,EN,Preston on the Hill,EN,false,UKOS,357067,381060,-2.64603,53.32471,BCT,MKD,OTH,,,,021,1969-12-31T00:00:00,1969-12-31T23:00:00,0,new,active
068000000844,halagmgp,,,Travel Inn,,Travel Inn,,Travel Inn,,Chester Road,,,,,,NE,E0037837,Preston Brook,Runcorn,,Runcorn,EN,Preston Brook,EN,false,UKOS,355930,379944,-2.66294,53.31458,BCT,MKD,OTH,,,,021,1969-12-31T00:00:00,2021-06-08T16:25:20,10,new,active
068000000845,halagmgt,,,Travel Inn,,Travel Inn,,Travel Inn,,Chester Road,,,,,,S,E0037837,Preston Brook,Runcorn,,Runcorn,EN,Preston Brook,EN,false,UKOS,355911,379914,-2.66322,53.31431,BCT,MKD,OTH,,,,021,1969-12-31T00:00:00,1969-12-31T23:00:00,0,new,active
068000000841,halagmgd,,,Aston Lane,,Aston Lane,,Aston Lane,,Northwich Road,,,,,,E,E0037837,Preston Brook,Runcorn,,Runcorn,EN,Preston Brook,EN,false,UKOS,356341,379766,-2.65675,53.31302,BCT,MKD,OTH,,,,021,1969-12-31T00:00:00,1969-12-31T23:00:00,0,new,active
068000000842,halagmgj,,,Aston Lane,,Aston Lane,,Aston Lane,,Northwich Road,,,,,,W,E0037837,Preston Brook,Runcorn,,Runcorn,EN,Preston Brook,EN,false,UKOS,356171,379777,-2.6593,53.3131,BCT,MKD,OTH,,,,021,1969-12-31T00:00:00,1969-12-31T23:00:00,0,new,active
068000000843,halagmgm,,,Northwich Corner,,Northwich Corner,,Northwich Corner,,Towards Northwich,,,,,,E,E0037837,Preston Brook,Runcorn,,Runcorn,EN,Preston Brook,EN,false,UKOS,355893,379837,-2.66348,53.31362,BCT,MKD,OTH,,,,021,1969-12-31T00:00:00,1969-12-31T23:00:00,0,new,active
068000000715,halagdpd,,,Hillview School,,Hillview School,,Hillview School,,Beechwood Avenue,,,,,,SW,N0065330,Beechwood,Runcorn,,Runcorn,EN,Beechwood,EN,false,UKOS,353477,380071,-2.69978,53.31552,BCT,MKD,OTH,,,,021,1969-12-31T00:00:00,1969-12-31T23:00:00,0,new,active
068000000716,halagdpg,,,Hillview School,,Hillview School,,Hillview School,,Beechwood Avenue,,,,,,NE,N0065330,Beechwood,Runcorn,,Runcorn,EN,Beechwood,EN,false,UKOS,353478,380092,-2.69977,53.3157,BCT,MKD,OTH,,,,021,1969-12-31T00:00:00,1969-12-31T23:00:00,0,new,active
068000000717,halagdpj,,,Martindale,,Martindale,,Martindale,,Beechwood Avenue,,,,,,W,N0065330,Beechwood,Runcorn,,Runcorn,EN,Beechwood,EN,false,UKOS,353125,379860,-2.70503,53.31359,BCT,MKD,OTH,,,,021,1969-12-31T00:00:00,2024-05-08T14:11:35,37,new,active
068000000718,halagdpm,,,Martindale,,Martindale,,Martindale,,Beechwood Avenue,,,,,,E,N0065330,Beechwood,Runcorn,,Runcorn,EN,Beechwood,EN,false,UKOS,353126,379873,-2.70502,53.3137,BCT,MKD,OTH,,,,021,1969-12-31T00:00:00,1969-12-31T23:00:00,0,new,active
068000000713,halagdmw,,,Cherry Blossom,,Cherry Blossom,,Cherry Blossom,,Beechwood Avenue,,,,,,NW,N0065330,Beechwood,Runcorn,,Runcorn,EN,Beechwood,EN,false,UKOS,353762,380112,-2.69551,53.31591,BCT,MKD,OTH,,,,021,1969-12-31T00:00:00,1969-12-31T23:00:00,0,new,active
068000000714,halagdpa,,,Cherry Blossom,,Cherry Blossom,,Cherry Blossom,,Beechwood Avenue,,,,,,SE,N0065330,Beechwood,Runcorn,,Runcorn,EN,Beechwood,EN,false,UKOS,353773,380116,-2.69534,53.31595,BCT,MKD,OTH,,,,021,1969-12-31T00:00:00,1969-12-31T23:00:00,0,new,active
068000000709,,,,Palacefields Avenue,,Palacefields Ave,,Palacefields Avenue,,Palacefields Avenue,,,,,,,N0065331,Palace Fields,Runcorn,,Runcorn,EN,Palace Fields,EN,false,UKOS,354536,381291,-2.68406,53.32657,BCT,HAR,OTH,,,,021,1969-12-31T00:00:00,2024-11-29T11:38:42,149,new,active
068000000710,,,,Palacefields Avenue,,Palacefields Ave,,Palacefields Avenue,,Palacefields Avenue,,,,,,,N0065331,Palace Fields,Runcorn,,Runcorn,EN,Palace Fields,EN,false,UKOS,354528,381281,-2.68418,53.32648,BCT,HAR,OTH,,,,021,1969-12-31T00:00:00,2024-11-29T11:38:42,49,new,active
06800000011A,halagtat,,,THE GLEN,,The Glen,,Palacefields Avenue,,Palacefields Avenue,,,,,,SE,N0065331,Palace Fields,Runcorn,,Runcorn,EN,Palace Fields,EN,false,UKOS,354031,380624,-2.69154,53.32053,BCT,MKD,OTH,,,,021,1969-12-31T00:00:00,1969-12-31T23:00:00,0,new,active
068000000711,halagdmp,,,The Glen,,The Glen,,The Glen,,Palacefields Avenue,,,,,,S,N0065331,Palace Fields,Runcorn,,Runcorn,EN,Palace Fields,EN,false,UKOS,354112,380530,-2.69031,53.3197,BCT,MKD,OTH,,,,021,1969-12-31T00:00:00,1969-12-31T23:00:00,0,new,active
068000000712,halagdmt,,,The Glen,,The Glen,,The Glen,,Palacefields Avenue,,,,,,NW,N0065331,Palace Fields,Runcorn,,Runcorn,EN,Palace Fields,EN,false,UKOS,354054,380590,-2.69119,53.32023,BCT,MKD,OTH,,,,021,1969-12-31T00:00:00,1969-12-31T23:00:00,0,new,active
068000000719,halagdpt,,,Beechwood,,Beechwood PH,,Beechwood PH,,Beechwood Avenue,,,,,,W,N0065330,Beechwood,Runcorn,,Runcorn,EN,Beechwood,EN,false,UKOS,353031,380378,-2.70652,53.31824,BCT,MKD,OTH,,,,021,1969-12-31T00:00:00,1969-12-31T23:00:00,0,new,active
068000000720,halagdpw,,,Beechwood,,Beechwood PH,,Beechwood PH,,Beechwood Avenue,,,,,,E,N0065330,Beechwood,Runcorn,,Runcorn,EN,Beechwood,EN,false,UKOS,353095,380358,-2.70555,53.31806,BCT,MKD,OTH,,,,021,1969-12-31T00:00:00,1969-12-31T23:00:00,0,new,active
068000000725,halagdtm,,,Clifton Top,,Clifton Top,,Clifton Top,,Rocksavage Expressway,,,,,,SW,E0037814,Clifton,Runcorn,,Runcorn,EN,Clifton,EN,false,UKOS,352695,380229,-2.71154,53.31687,BCT,MKD,OTH,,,,021,1969-12-31T00:00:00,1969-12-31T23:00:00,0,new,active
068000000726,halagdtp,,,Clifton Top,,Clifton Top,,Clifton Top,,Rocksavage Expressway,,,,,,NW,E0037814,Clifton,Runcorn,,Runcorn,EN,Clifton,EN,false,UKOS,352678,380210,-2.71179,53.31669,BCT,MKD,OTH,,,,021,1969-12-31T00:00:00,1969-12-31T23:00:00,0,new,active
068000000727,halagdtw,,,Clifton Village,,Clifton Village,,Clifton Village,,Clifton Lane,,,,,,SW,E0037814,Clifton,Runcorn,,Runcorn,EN,Clifton,EN,false,UKOS,352633,379827,-2.71241,53.31325,BCT,MKD,OTH,,,,021,1969-12-31T00:00:00,1969-12-31T23:00:00,0,new,active
068000000728,halagdwa,,,Works Cottages,,Works Cottages,,Works Cottages,,Clifton Road,,,,,,S,E0037814,Clifton,Runcorn,,Runcorn,EN,Clifton,EN,false,UKOS,353439,379181,-2.70022,53.30751,BCT,MKD,OTH,,,,021,1969-12-31T00:00:00,1969-12-31T23:00:00,0,new,active
068000000729,halagdwd,,,Works Cottages,,Works Cottages,,Works Cottages,,Clifton Road,,,,,,N,E0037814,Clifton,Runcorn,,Runcorn,EN,Clifton,EN,false,UKOS,353416,379161,-2.70056,53.30733,BCT,MKD,OTH,,,,021,1969-12-31T00:00:00,1969-12-31T23:00:00,0,new,active
068000000723,halagdtg,,,Mormon Church,,Mormon Church,,Mormon Church,,Clifton Road,,,,,,W,E0037842,Runcorn Heath,Runcorn,,Runcorn,EN,Runcorn Heath,EN,false,UKOS,352351,380588,-2.71676,53.32006,BCT,MKD,OTH,,,,021,1969-12-31T00:00:00,1969-12-31T23:00:00,0,new,active
068000000724,halagdtj,,,Mormon Church,,Mormon Church,,Mormon Church,,Clifton Road,,,,,,E,E0037842,Runcorn Heath,Runcorn,,Runcorn,EN,Runcorn Heath,EN,false,UKOS,352336,380612,-2.71699,53.32028,BCT,MKD,OTH,,,,021,1969-12-31T00:00:00,1969-12-31T23:00:00,0,new,active
068000000721,halagdta,,,Coniston Close,,Coniston Close,,Coniston Close,,Beechwood Avenue,,,,,,NW,N0065330,Beechwood,Runcorn,,Runcorn,EN,Beechwood,EN,false,UKOS,352698,380492,-2.71153,53.31923,BCT,MKD,OTH,,,,021,1969-12-31T00:00:00,1969-12-31T23:00:00,0,new,active
068000000722,halagdtd,,,Coniston Close,,Coniston Close,,Coniston Close,,Beechwood Avenue,,,,,,SE,N0065330,Beechwood,Runcorn,,Runcorn,EN,Beechwood,EN,false,UKOS,352702,380524,-2.71148,53.31952,BCT,MKD,OTH,,,,021,1969-12-31T00:00:00,1969-12-31T23:00:00,0,new,active
068000000651,halagdjd,,,Cavendish Road,,Cavendish Rd,,Cavendish Rd,,Cavendish Farm Road,,,,,,SW,E0037857,Weston,Runcorn,,Runcorn,EN,Weston,EN,false,UKOS,351116,380395,-2.73526,53.31821,BCT,MKD,OTH,,,,021,1969-12-31T00:00:00,1969-12-31T23:00:00,0,new,active
068000000652,halagdjg,,,Royal Oak,,Royal Oak,,Royal Oak,,Heath Road South,,,,,,NW,E0037857,Weston,Runcorn,,Runcorn,EN,Weston,EN,false,UKOS,350839,380655,-2.73946,53.32053,BCT,MKD,OTH,,,,021,1969-12-31T00:00:00,2024-05-13T16:02:40,36,new,active
068000000653,halagdjm,,,Ashton Close,,Ashton Close,,Ashton Close,,Heath Road South,,,,,,SE,E0037857,Weston,Runcorn,,Runcorn,EN,Weston,EN,false,UKOS,350843,380717,-2.73941,53.32108,BCT,MKD,OTH,,,,021,1969-12-31T00:00:00,1969-12-31T23:00:00,0,new,active
068000000654,halagdjp,,,Water Tower,,Water Tower,,Water Tower,,Heath Road South,,,,,,NW,E0037857,Weston,Runcorn,,Runcorn,EN,Weston,EN,false,UKOS,350905,380931,-2.73851,53.32301,BCT,MKD,OTH,,,,021,1969-12-31T00:00:00,1969-12-31T23:00:00,0,new,active
068000000655,halagdjt,,,Water Tower,,Water Tower,,Water Tower,,Heath Road South,,,,,,SE,E0037857,Weston,Runcorn,,Runcorn,EN,Weston,EN,false,UKOS,350913,380965,-2.7384,53.32332,BCT,MKD,OTH,,,,021,1969-12-31T00:00:00,1969-12-31T23:00:00,0,new,active
068000000649,halagdgw,,,The Cross,,The Cross,,The Cross,,Heath Road South,,,,,,S,E0037857,Weston,Runcorn,,Runcorn,EN,Weston,EN,false,UKOS,350863,380466,-2.73907,53.31883,BCT,MKD,OTH,,,,021,1969-12-31T00:00:00,1969-12-31T23:00:00,0,new,active
068000000650,halagdja,,,The Cross,,The Cross,,The Cross,,Western Road,,,,,,NW,E0037857,Weston,Runcorn,,Runcorn,EN,Weston,EN,false,UKOS,350853,380465,-2.73922,53.31882,BCT,MKD,OTH,,,,021,1969-12-31T00:00:00,1969-12-31T23:00:00,0,new,active
068000000647,halagdgp,,,Nelson Drive,,Nelson Dr,,Nelson Dr,,Weston Road,,,,,,SE,E0037857,Weston,Runcorn,,Runcorn,EN,Weston,EN,false,UKOS,350656,380800,-2.74223,53.32181,BCT,MKD,OTH,,,,021,1969-12-31T00:00:00,1969-12-31T23:00:00,0,new,active
068000000648,halagdgt,,,Nelson Drive,,Nelson Dr,,Nelson Dr,,Weston Road,,,,,,NW,E0037857,Weston,Runcorn,,Runcorn,EN,Weston,EN,false,UKOS,350643,380790,-2.74243,53.32172,BCT,MKD,OTH,,,,021,1969-12-31T00:00:00,1969-12-31T23:00:00,0,new,active
068000000704,haldtpmg,,,Worthington Close,,Worthington Cl,,Worthington Close,,Worthington Close,,,,,,NW,N0065331,Palace Fields,Runcorn,,Runcorn,EN,Palace Fields,EN,false,UKOS,354227,381284,-2.6887,53.32648,BCT,MKD,OTH,,,,021,1969-12-31T00:00:00,1969-12-31T23:00:00,0,new,active
068000000705,halagdmj,,,ASDA- HALTON LEA,,ASDA - HALTON LEA,,ASDA- HALTON LEA,,Asda- Halton Lea,,,,,,NW,N0065331,Palace Fields,Runcorn,,Runcorn,EN,Palace Fields,EN,false,UKOS,353430,381561,-2.7007,53.3289,BCT,CUS,OTH,,,,021,1969-12-31T00:00:00,1969-12-31T23:00:00,0,new,active
068000000706,haldwtda,,,Martin Close,,Martin Cl,,Martin Close,,Palace Fields Avenue,,,,,,SW,N0065331,Palace Fields,Runcorn,,Runcorn,EN,Palace Fields,EN,false,UKOS,354549,381154,-2.68384,53.32534,BCT,MKD,OTH,,,,021,1969-12-31T00:00:00,2017-03-15T14:49:13,2,new,active
068000000707,halgawmp,,,Martin Close,,Martin Cl,,Martin Close,,Martin Close,,,,,,SE,N0065331,Palace Fields,Runcorn,,Runcorn,EN,Palace Fields,EN,false,UKOS,354532,381144,-2.6841,53.32525,BCT,MKD,OTH,,,,021,1969-12-31T00:00:00,2017-04-11T09:59:51,4,new,active
068000000703,haldptat,,,Palace Fields Avenue,,Palace Fields Ave,,Palace Fields Avenue,,Palace Fields Avenue,,,,,,NE,N0065331,Palace Fields,Runcorn,,Runcorn,EN,Palace Fields,EN,false,UKOS,354310,381320,-2.68746,53.32681,BCT,MKD,OTH,,,,021,1969-12-31T00:00:00,1969-12-31T23:00:00,0,new,active
068000000656,halagdjw,,,Heath Drive,,Heath Dr,,Heath Dr,,Heath Road South,,,,,,NE,E0037842,Runcorn Heath,Runcorn,,Runcorn,EN,Runcorn Heath,EN,false,UKOS,351180,381376,-2.73446,53.32704,BCT,MKD,OTH,,,,021,1969-12-31T00:00:00,1969-12-31T23:00:00,0,new,active
068000000657,halagdma,,,Heath Drive,,Heath Dr,,Heath Dr,,Heath Road South,,,,,,SW,E0037842,Runcorn Heath,Runcorn,,Runcorn,EN,Runcorn Heath,EN,false,UKOS,351197,381380,-2.7342,53.32707,BCT,MKD,OTH,,,,021,1969-12-31T00:00:00,1969-12-31T23:00:00,0,new,active
068000000771,halagjgm,,,Ridding Lane,,Ridding Lane,,Ridding Lane,,Southern Expressway,,,,,,NE,N0065332,Brookvale,Runcorn,,Runcorn,EN,Brookvale,EN,false,UKOS,354798,380005,-2.67994,53.31504,BCT,MKD,OTH,,,,021,1969-12-31T00:00:00,1969-12-31T23:00:00,0,new,active
068000000772,halagjgp,,,Ridding Lane,,Ridding Lane,,Ridding Lane,,Southern Expressway,,,,,,NW,N0065332,Brookvale,Runcorn,,Runcorn,EN,Brookvale,EN,false,UKOS,354701,379984,-2.68139,53.31484,BCT,MKD,OTH,,,,021,1969-12-31T00:00:00,1969-12-31T23:00:00,0,new,active
068000000774,halagjgw,,,Chester Road,,Chester Rd,,Chester Rd,,,,,,,,NW,N0065333,Murdishaw,Runcorn,,Runcorn,EN,Murdishaw,EN,false,UKOS,355429,379767,-2.67044,53.31295,BCT,MKD,OTH,,,,021,1969-12-31T00:00:00,1969-12-31T23:00:00,0,new,active
068000000775,halagjma,,,Halton Arms,,Halton Arms,,Halton Arms,,Murdishaw Avenue,,,,,,N,N0065333,Murdishaw,Runcorn,,Runcorn,EN,Murdishaw,EN,false,UKOS,355313,380181,-2.67224,53.31666,BCT,MKD,OTH,,,,021,1969-12-31T00:00:00,1969-12-31T23:00:00,0,new,active
068000000776,halagjmd,,,Halton Arms,,Halton Arms,,Halton Arms,,Murdishaw Avenue,,,,,,S,N0065333,Murdishaw,Runcorn,,Runcorn,EN,Murdishaw,EN,false,UKOS,355326,380156,-2.67204,53.31644,BCT,MKD,OTH,,,,021,1969-12-31T00:00:00,1969-12-31T23:00:00,0,new,active
068000000762,,,,Castlefields Avenue North,,Castlefields Ave N,,Castlefields Avenue North,,Castlefields Avenue North,,,,,,,N0070316,Castlefields,Runcorn,,Runcorn,EN,Castlefields,EN,false,UKOS,353788,382821,-2.69551,53.34026,BCT,HAR,OTH,,,,021,1969-12-31T00:00:00,2024-02-06T08:05:12,86,new,active
068000000757,halagjdw,,,Greenbridge,,Greenbridge,,Greenbridge,,,,,,,,S,N0070316,Castlefields,Runcorn,,Runcorn,EN,Castlefields,EN,false,UKOS,354460,382412,-2.68536,53.33664,BCT,MKD,OTH,,,,021,1969-12-31T00:00:00,1969-12-31T23:00:00,0,new,active
068000000758,halagjga,,,Greenbridge,,Greenbridge,,Greenbridge,,,,,,,,N,N0070316,Castlefields,Runcorn,,Runcorn,EN,Castlefields,EN,false,UKOS,354465,382411,-2.68529,53.33663,BCT,MKD,OTH,,,,021,1969-12-31T00:00:00,1969-12-31T23:00:00,0,new,active
068000000759,halagjgd,,,The Barge,,The Barge,,The Barge,,Castlefields Avenue East,,,,,,NW,N0070316,Castlefields,Runcorn,,Runcorn,EN,Castlefields,EN,false,UKOS,354317,382793,-2.68756,53.34005,BCT,MKD,OTH,,,,021,1969-12-31T00:00:00,1969-12-31T23:00:00,0,new,active
068000000760,halagjgj,,,The Barge,,The Barge,,The Barge,,Castlefields Avenue East,,,,,,SE,N0070316,Castlefields,Runcorn,,Runcorn,EN,Castlefields,EN,false,UKOS,354330,382793,-2.68737,53.34006,BCT,MKD,OTH,,,,021,1969-12-31T00:00:00,1969-12-31T23:00:00,0,new,active
068000000761,,,,Castlefields Avenue North (hail And Ride),,Castlflds Av N (hr),,Castlefields Avenue North,,Castlefields Avenue North,,,,,,,N0070316,Castlefields,Runcorn,,Runcorn,EN,Castlefields,EN,false,UKOS,353781,382840,-2.69562,53.34043,BCT,HAR,OTH,,,,021,1969-12-31T00:00:00,2020-12-17T11:56:32,39,new,active
068000000037,haladamt,,,Murdishaw Avenue,,Murdishaw Ave,,Murdishaw Ave,,Busway (Murdishaw),,,,,,N,N0065333,Murdishaw,Runcorn,,Runcorn,EN,Murdishaw,EN,false,UKOS,355906,380727,-2.66341,53.32162,BCT,MKD,OTH,,,,021,1969-12-31T00:00:00,1969-12-31T23:00:00,0,new,active
068000000038,haladamw,,,Murdishaw Avenue,,Murdishaw Ave,,Murdishaw Ave,,Busway (Muurishaw),,,,,,S,N0065333,Murdishaw,Runcorn,,Runcorn,EN,Murdishaw,EN,false,UKOS,355921,380700,-2.66318,53.32138,BCT,MKD,OTH,,,,021,1969-12-31T00:00:00,1969-12-31T23:00:00,0,new,active
068000000782,,,,Murdishaw Avenue,,Murdishaw Ave,,Murdishaw Avenue,,Murdishaw Avenue,,,,,,,N0065333,Murdishaw,Runcorn,,Runcorn,EN,Murdishaw,EN,false,UKOS,356040,380769,-2.66141,53.32201,BCT,HAR,OTH,,,,021,1969-12-31T00:00:00,1969-12-31T23:00:00,0,new,active
068000000785,,,,Littlebourne Park,,Littlebourne Park,,Littlebourne Park,,Littlebourne,,,,,,,N0065333,Murdishaw,Runcorn,,Runcorn,EN,Murdishaw,EN,false,UKOS,356256,381159,-2.65822,53.32553,BCT,HAR,OTH,,,,021,1969-12-31T00:00:00,1969-12-31T23:00:00,0,new,active
068000000786,,,,Marina Village,,Marina Village,,Marina Village,,Marina Lane,,,,,,,N0065333,Murdishaw,Runcorn,,Runcorn,EN,Murdishaw,EN,false,UKOS,356373,381094,-2.65645,53.32496,BCT,HAR,OTH,,,,021,1969-12-31T00:00:00,1969-12-31T23:00:00,0,new,active
068000000787,,,,Windmill Hill Estate,,Windmill Hill,,Greenbridge Road,,Greenbridge Road,,,,,,,N0065324,Windmill Hill,Norton,,Runcorn,EN,Windmill Hill,EN,false,UKOS,354923,382512,-2.67842,53.33758,BCT,HAR,OTH,,,,021,1969-12-31T00:00:00,1969-12-31T23:00:00,0,new,active
068000000781,halagjmt,,,Tower Lane,,Tower Lane,,Tower Lane,,Norton Station Road,,,,,,NW,E0037821,Eanley Wood,Norton,,Runcorn,EN,Eanley Wood,EN,false,UKOS,355651,381693,-2.66738,53.33028,BCT,MKD,OTH,,,,021,1969-12-31T00:00:00,1969-12-31T23:00:00,0,new,active
068000000777,halagjmg,,,The Hove,,The Hove,,The Hove,,Barnfield Avenue,,,,,,NE,N0065333,Murdishaw,Runcorn,,Runcorn,EN,Murdishaw,EN,false,UKOS,355556,380768,-2.66867,53.32196,BCT,MKD,OTH,,,,021,1969-12-31T00:00:00,1969-12-31T23:00:00,0,new,active
068000000778,halagjmj,,,Runcorn East,,Runcorn East,,Runcorn East,,Barnfield Avenue,,,,,,NE,N0065333,Murdishaw,Runcorn,,Runcorn,EN,Murdishaw,EN,false,UKOS,355816,381338,-2.66485,53.3271,BCT,MKD,OTH,,,,021,1969-12-31T00:00:00,1969-12-31T23:00:00,0,new,active
068000000779,halagjmp,,,Runcorn East,,Runcorn East,,Runcorn East,,Barnfield Avenue,,,,,,SW,N0065333,Murdishaw,Runcorn,,Runcorn,EN,Murdishaw,EN,false,UKOS,355821,381329,-2.66477,53.32702,BCT,MKD,OTH,,,,021,1969-12-31T00:00:00,1969-12-31T23:00:00,0,new,active
068000000780,,,,Norton Hill,,Norton Hill,,Norton Station Rd,,Norton Hill,,,,,,,N0065324,Windmill Hill,Norton,,Runcorn,EN,Windmill Hill,EN,false,UKOS,355472,382527,-2.67018,53.33776,BCT,HAR,OTH,,,,021,1969-12-31T00:00:00,1969-12-31T23:00:00,0,new,active
068000000743,halagjad,,,The Brow,,The Brow,,The Brow,,Halton Brow,,,,,,E,N0065327,Halton Village,Runcorn,,Runcorn,EN,Halton Village,EN,false,UKOS,353627,382328,-2.69786,53.33581,BCT,MKD,OTH,,,,021,1969-12-31T00:00:00,1969-12-31T23:00:00,0,new,active
068000000744,halagjag,,,The Brow,,The Brow,,The Brow,,Halton Brow,,,,,,W,N0065327,Halton Village,Runcorn,,Runcorn,EN,Halton Village,EN,false,UKOS,353605,382327,-2.69819,53.3358,BCT,MKD,OTH,,,,021,1969-12-31T00:00:00,1969-12-31T23:00:00,0,new,active
068000000745,halagjaj,,,Norton Arms,,Norton Arms,,Norton Arms,,Main Street,,,,,,NE,N0065327,Halton Village,Runcorn,,Runcorn,EN,Halton Village,EN,false,UKOS,353741,382152,-2.69612,53.33424,BCT,MKD,OTH,,,,021,1969-12-31T00:00:00,1969-12-31T23:00:00,0,new,active
068000000746,halagpwt,,,NORTON ARMS,,Norton Arms,,Norton Arms Pub,,Main Street,,,,,,NE,N0065327,Halton Village,Runcorn,,Runcorn,EN,Halton Village,EN,false,UKOS,353713,382139,-2.69654,53.33412,BCT,MKD,OTH,,,,021,1969-12-31T00:00:00,1969-12-31T23:00:00,0,new,active
068000000741,halagdwp,,,The Calvers,,The Calvers,,The Calvers,,Halton Brow,,,,,,E,E0037823,Halton Brook,Runcorn,,Runcorn,EN,Halton Brook,EN,false,UKOS,353415,382409,-2.70105,53.33652,BCT,MKD,OTH,,,,021,1969-12-31T00:00:00,1969-12-31T23:00:00,0,new,active
068000000742,halagdwt,,,The Calvers,,The Calvers,,The Calvers,,Halton Brow,,,,,,W,E0037823,Halton Brook,Runcorn,,Runcorn,EN,Halton Brook,EN,false,UKOS,353387,382413,-2.70147,53.33656,BCT,MKD,OTH,,,,021,1969-12-31T00:00:00,1969-12-31T23:00:00,0,new,active
068000000730,halagdwg,,,Wood Lane,,Wood Lane,,Wood Lane,,Wood Lane,,,,,,S,N0065330,Beechwood,Runcorn,,Runcorn,EN,Beechwood,EN,false,UKOS,353995,379812,-2.69197,53.31323,BCT,MKD,OTH,,,,021,1969-12-31T00:00:00,1969-12-31T23:00:00,0,new,active
068000000731,halagdwj,,,Wood Lane,,Wood Lane,,Wood Lane,,Wood Lane,,,,,,N,N0065330,Beechwood,Runcorn,,Runcorn,EN,Beechwood,EN,false,UKOS,353984,379808,-2.69213,53.3132,BCT,MKD,OTH,,,,021,1969-12-31T00:00:00,1969-12-31T23:00:00,0,new,active
068000000732,halagdwm,,,Station Road,,Station Rd,,Station Rd,,Clifton Road,,,,,,SE,E0037814,Clifton,Runcorn,,Runcorn,EN,Clifton,EN,false,UKOS,353476,379420,-2.6997,53.30966,BCT,MKD,OTH,,,,021,1969-12-31T00:00:00,1969-12-31T23:00:00,0,new,active
068000000747,halagjam,,,Hollybank Road,,Hollybank Rd,,Hollybank Rd,,Main Street,,,,,,N,N0065327,Halton Village,Runcorn,,Runcorn,EN,Halton Village,EN,false,UKOS,353673,381944,-2.69711,53.33237,BCT,MKD,OTH,,,,021,1969-12-31T00:00:00,1969-12-31T23:00:00,0,new,active
068000000753,halagjdj,,,Stockham Lane,,Stockham Lane,,Stockham Lane,,Norton Lane,,,,,,N,N0065327,Halton Village,Runcorn,,Runcorn,EN,Halton Village,EN,false,UKOS,354300,381721,-2.68766,53.33042,BCT,MKD,OTH,,,,021,1969-12-31T00:00:00,1969-12-31T23:00:00,0,new,active
068000000754,halagjdm,,,Stockham Lane,,Stockham Lane,,Stockham Lane,,Norton Lane,,,,,,S,N0065327,Halton Village,Runcorn,,Runcorn,EN,Halton Village,EN,false,UKOS,354308,381721,-2.68754,53.33042,BCT,MKD,OTH,,,,021,1969-12-31T00:00:00,1969-12-31T23:00:00,0,new,active
068000000755,halagjdp,,,Primrose Close,,Primrose Close,,Primrose Close,,Castlefields Avenue East,,,,,,N,N0065327,Halton Village,Runcorn,,Runcorn,EN,Halton Village,EN,false,UKOS,354095,382018,-2.69079,53.33307,BCT,MKD,OTH,,,,021,1969-12-31T00:00:00,1969-12-31T23:00:00,0,new,active
068000000756,halagjdt,,,Primrose Close,,Primrose Close,,Primrose Close,,Castlefields Avenue East,,,,,,S,N0065327,Halton Village,Runcorn,,Runcorn,EN,Halton Village,EN,false,UKOS,354103,382018,-2.69067,53.33307,BCT,MKD,OTH,,,,021,1969-12-31T00:00:00,1969-12-31T23:00:00,0,new,active
068000000751,halagjda,,,Pump Lane,,Pump Lane,,Pump Lane,,Main Street,,,,,,NW,N0065327,Halton Village,Runcorn,,Runcorn,EN,Halton Village,EN,false,UKOS,353952,381743,-2.69289,53.33058,BCT,MKD,OTH,,,,021,1969-12-31T00:00:00,1969-12-31T23:00:00,0,new,active
068000000752,halagjdg,,,Pump Lane,,Pump Lane,,Pump Lane,,Main Street,,,,,,NW,N0065327,Halton Village,Runcorn,,Runcorn,EN,Halton Village,EN,false,UKOS,353950,381731,-2.69292,53.33048,BCT,MKD,OTH,,,,021,1969-12-31T00:00:00,1969-12-31T23:00:00,0,new,active
068000000748,halagjap,,,Lodge Lane,,Lodge Lane,,Lodge Lane,,Main Street,,,,,,W,N0065327,Halton Village,Runcorn,,Runcorn,EN,Halton Village,EN,false,UKOS,353695,381860,-2.69677,53.33161,BCT,MKD,OTH,,,,021,1969-12-31T00:00:00,1969-12-31T23:00:00,0,new,active
068000000749,halagjat,,,British Legion,,British Legion,,British Legion,,,,,,,,N,N0065327,Halton Village,Runcorn,,Runcorn,EN,Halton Village,EN,false,UKOS,353841,381772,-2.69456,53.33084,BCT,MKD,OTH,,,,021,1969-12-31T00:00:00,1969-12-31T23:00:00,0,new,active
068000000750,halagjaw,,,British Legion,,British Legion,,British Legion,,Min Street,,,,,,NW,N0065327,Halton Village,Runcorn,,Runcorn,EN,Halton Village,EN,false,UKOS,353848,381754,-2.69446,53.33067,BCT,MKD,OTH,,,,021,1969-12-31T00:00:00,1969-12-31T23:00:00,0,new,active
068000000126,haladjag,,,Carr Lane,,Carr Lane,,Carr Lane,,Higher Lane,,,,,,SW,E0037819,Ditton,Widnes,,Widnes,EN,Ditton,EN,false,UKOS,346941,384437,-2.79861,53.35414,BCT,MKD,OTH,,,,021,1969-12-31T00:00:00,1969-12-31T23:00:00,0,new,active
068000000127,haladjaj,,,Carr Lane,,Carr Lane,,Carr Lane,,Higher Lane,,,,,,NE,E0037819,Ditton,Widnes,,Widnes,EN,Ditton,EN,false,UKOS,346953,384456,-2.79843,53.35431,BCT,MKD,OTH,,,,021,1969-12-31T00:00:00,1969-12-31T23:00:00,0,new,active
068000000128,haladjam,,,Ramsbrook Lane,,Ramsbrook Lane,,Ramsbrook Lane,,Higher Lane,,,,,,W,E0037819,Ditton,Widnes,,Widnes,EN,Ditton,EN,false,UKOS,346147,384308,-2.81051,53.3529,BCT,MKD,OTH,,,,021,1969-12-31T00:00:00,1969-12-31T23:00:00,0,new,active
068000000124,haladgwt,,,Cottages,,Cottages,,Cottages,,Hale Bank Road,,,,,,W,E0037819,Ditton,Widnes,,Widnes,EN,Ditton,EN,false,UKOS,347551,384419,-2.78944,53.35404,BCT,MKD,OTH,,,,021,1969-12-31T00:00:00,1969-12-31T23:00:00,0,new,active
068000000125,haladjad,,,Cottages,,Cottages,,Cottages,,Hale Bank Road,,,,,,SE,E0037819,Ditton,Widnes,,Widnes,EN,Ditton,EN,false,UKOS,347557,384436,-2.78935,53.35419,BCT,MKD,OTH,,,,021,1969-12-31T00:00:00,1969-12-31T23:00:00,0,new,active
068000000121,haladgwj,,,Cock & Trumpet,,Cock & Trumpet,,Cock & Trumpet,,Hale Bank Road,,,,,,NW,E0037819,Ditton,Widnes,,Widnes,EN,Ditton,EN,false,UKOS,348370,383891,-2.77705,53.34937,BCT,MKD,OTH,,,,021,1969-12-31T00:00:00,1969-12-31T23:00:00,0,new,active
068000000122,haladgwm,,,Bee Hive,,Bee Hive,,Bee Hive,,Hale Bank Road,,,,,,NW,E0037819,Ditton,Widnes,,Widnes,EN,Ditton,EN,false,UKOS,347759,384260,-2.78629,53.35263,BCT,MKD,OTH,,,,021,1969-12-31T00:00:00,1969-12-31T23:00:00,0,new,active
068000000123,haladgwp,,,Bee Hive,,Bee Hive,,Bee Hive,,Hale Bank Road,,,,,,SE,E0037819,Ditton,Widnes,,Widnes,EN,Ditton,EN,false,UKOS,347717,384304,-2.78693,53.35302,BCT,MKD,OTH,,,,021,1969-12-31T00:00:00,1969-12-31T23:00:00,0,new,active
068000000153,haladjmj,,,Crisp Factory,,Crisp Factory,,Crisp Factory,,Everite Road,,,,,,N,E0037819,Ditton,Widnes,,Widnes,EN,Ditton,EN,false,UKOS,348753,385306,-2.77153,53.36213,BCT,MKD,OTH,,,,021,1969-12-31T00:00:00,1969-12-31T23:00:00,0,new,active
068000000191,haladmaj,,,Egypt Street,,Egypt St,,Egypt St,,Lower House Lane,,,,,,NE,E0037860,Widnes,,,Widnes,EN,Widnes,EN,false,UKOS,350783,385373,-2.74104,53.36292,BCT,MKD,OTH,,,,021,1969-12-31T00:00:00,1969-12-31T23:00:00,0,new,active
068000000192,haladmam,,,Egypt Street,,Egypt St,,Egypt St,,Lower House Lane,,,,,,SW,E0037860,Widnes,,,Widnes,EN,Widnes,EN,false,UKOS,350797,385368,-2.74083,53.36288,BCT,MKD,OTH,,,,021,1969-12-31T00:00:00,2024-05-08T13:43:53,45,new,active
068000000193,haladmap,,,Wavertree Avenue,,Wavertree Ave,,Wavertree Ave,,Lowerhouse Lane,,,,,,N,E0037860,Widnes,,,Widnes,EN,Widnes,EN,false,UKOS,350870,385851,-2.73981,53.36723,BCT,MKD,OTH,,,,021,1969-12-31T00:00:00,1969-12-31T23:00:00,0,new,active
068000000194,haladmat,,,Sinclair Avenue,,Sinclair Ave,,Sinclair Ave,,Lowerhouse Lane,,,,,,S,E0037860,Widnes,,,Widnes,EN,Widnes,EN,false,UKOS,350874,385765,-2.73973,53.36646,BCT,MKD,OTH,,,,021,1969-12-31T00:00:00,1969-12-31T23:00:00,0,new,active
068000000185,haladjwt,,,Ditton Centre,,Ditton Centre,,Ditton Centre,,Dundalk Road,,,,,,SE,E0037819,Ditton,Widnes,,Widnes,EN,Ditton,EN,false,UKOS,350025,385836,-2.7525,53.36702,BCT,MKD,OTH,,,,021,1969-12-31T00:00:00,1969-12-31T23:00:00,0,new,active
068000000186,haladmad,,,Ditton Centre,,Ditton Centre,,Ditton Centre,,Dundalk Road,,,,,,SE,E0037819,Ditton,Widnes,,Widnes,EN,Ditton,EN,false,UKOS,349986,385883,-2.75309,53.36743,BCT,MKD,OTH,,,,021,1969-12-31T00:00:00,1969-12-31T23:00:00,0,new,active
068000000181,haladjwg,,,Lower House Lane,,Lower House Ln,,Lower House Ln,,Dundalk Road,,,,,,NW,E0037860,Widnes,,,Widnes,EN,Widnes,EN,false,UKOS,350714,385288,-2.74206,53.36215,BCT,MKD,OTH,,,,021,1969-12-31T00:00:00,1969-12-31T23:00:00,0,new,active
068000000182,haladjwj,,,Lower House Lane,,Lower House Ln,,Lower House Ln,,Dundalk Road,,,,,,SE,E0037860,Widnes,,,Widnes,EN,Widnes,EN,false,UKOS,350689,385323,-2.74244,53.36247,BCT,MKD,OTH,,,,021,1969-12-31T00:00:00,1969-12-31T23:00:00,0,new,active
068000000183,haladjwm,,,Ditton Rec.,,Ditton Rec.,,Ditton Rec.,,Dundalk Road,,,,,,NW,E0037819,Ditton,Widnes,,Widnes,EN,Ditton,EN,false,UKOS,350207,385698,-2.74974,53.36579,BCT,MKD,OTH,,,,021,1969-12-31T00:00:00,1969-12-31T23:00:00,0,new,active
068000000184,haladjwp,,,Ditton Rec.,,Ditton Rec.,,Ditton Rec.,,Ditton Rec.,,,,,,SE,E0037819,Ditton,Widnes,,Widnes,EN,Ditton,EN,false,UKOS,350238,385687,-2.74928,53.3657,BCT,MKD,OTH,,,,021,1969-12-31T00:00:00,2024-05-08T13:52:45,45,new,active
068000000197,haldamam,,,Queensbury Way,,Queensbury Way,,Queensbury Way,,Queensbury Way,,,,,,E,E0037851,Upton Rocks,Widnes,,Widnes,EN,Upton Rocks,EN,false,UKOS,349857,387034,-2.75522,53.37777,BCT,MKD,OTH,,,,021,1969-12-31T00:00:00,1969-12-31T23:00:00,0,new,active
068000000198,haldgmpa,,,Queensbury Way,,Queensbury Way,,Queensbury Way,,Queensbury Way,,,,,,SW,E0037851,Upton Rocks,Widnes,,Widnes,EN,Upton Rocks,EN,false,UKOS,350040,387101,-2.75248,53.37839,BCT,MKD,OTH,,,,021,1969-12-31T00:00:00,1969-12-31T23:00:00,0,new,active
068000000199,haldjpap,,,Queensbury Way,,Queensbury Way,,Queensbury Way,,,,,,,,N,E0037851,Upton Rocks,Widnes,,Widnes,EN,Upton Rocks,EN,false,UKOS,350288,387556,-2.74882,53.3825,BCT,MKD,OTH,,,,021,1969-12-31T00:00:00,1969-12-31T23:00:00,0,new,active
068000000158,haladjpd,,,Ash Lane,,Ash Lane,,Ash Lane,,Ditchfield Road,,,,,,NE,E0037819,Ditton,Widnes,,Widnes,EN,Ditton,EN,false,UKOS,348379,385911,-2.77725,53.36753,BCT,MKD,OTH,,,,021,1969-12-31T00:00:00,1969-12-31T23:00:00,0,new,active
068000000159,haladjpg,,,Ash Lane,,Ash Lane,,Ash Lane,,Ditchfield Road,,,,,,SW,E0037819,Ditton,Widnes,,Widnes,EN,Ditton,EN,false,UKOS,348376,385870,-2.77729,53.36716,BCT,MKD,OTH,,,,021,1969-12-31T00:00:00,1969-12-31T23:00:00,0,new,active
068000000160,haladjpj,,,Hall Avenue,,Hall Ave,,Hall Ave,,Ditchfield Road,,,,,,NE,E0037819,Ditton,Widnes,,Widnes,EN,Ditton,EN,false,UKOS,348482,386235,-2.77575,53.37045,BCT,MKD,OTH,,,,021,1969-12-31T00:00:00,1969-12-31T23:00:00,0,new,active
068000000161,haladjpm,,,Hall Avenue,,Hall Ave,,Hall Ave,,Ditchfield Road,,,,,,SW,E0037819,Ditton,Widnes,,Widnes,EN,Ditton,EN,false,UKOS,348472,386174,-2.77589,53.3699,BCT,MKD,OTH,,,,021,1969-12-31T00:00:00,1969-12-31T23:00:00,0,new,active
068000000162,haladjpt,,,Royal Avenue,,Royal Avenue,,Royal Ave,,Royal Avenue,,,,,,S,E0037819,Ditton,Widnes,,Widnes,EN,Ditton,EN,false,UKOS,349102,386206,-2.76643,53.37025,BCT,MKD,OTH,,,,021,1969-12-31T00:00:00,1969-12-31T23:00:00,0,new,active
068000000215,haladmja,,,Royal Avenue,,Royal Avenue,,Royal Ave,,Liverpool Road,,,,,,W,E0037819,Ditton,Widnes,,Widnes,EN,Ditton,EN,false,UKOS,349026,386261,-2.76758,53.37074,BCT,MKD,OTH,,,,021,1969-12-31T00:00:00,1969-12-31T23:00:00,0,new,active
068000000216,haladmjd,,,Royal Avenue,,Royal Avenue,,Royal Ave,,Liverpool Road,,,,,,SE,E0037819,Ditton,Widnes,,Widnes,EN,Ditton,EN,false,UKOS,349174,386266,-2.76536,53.3708,BCT,MKD,OTH,,,,021,1969-12-31T00:00:00,1969-12-31T23:00:00,0,new,active
068000000156,haladjmw,,,Oakfield Drive,,Oakfield Dr,,Oakfield Dr,,Ditchfield Road,,,,,,NW,E0037819,Ditton,Widnes,,Widnes,EN,Ditton,EN,false,UKOS,348422,385655,-2.77656,53.36523,BCT,MKD,OTH,,,,021,1969-12-31T00:00:00,1969-12-31T23:00:00,0,new,active
068000000157,haladjpa,,,Oakfield Drive,,Oakfield Dr,,Oakfield Dr,,Ditchfield Road,,,,,,SE,E0037819,Ditton,Widnes,,Widnes,EN,Ditton,EN,false,UKOS,348427,385667,-2.77649,53.36534,BCT,MKD,OTH,,,,021,1969-12-31T00:00:00,2024-05-13T15:47:15,39,new,active
068000000039,haladapa,,,Murdishaw Cen.,,Murdishaw,,Murdishaw Cen.,,,,,,,,NW,N0065333,Murdishaw,Runcorn,,Runcorn,EN,Murdishaw,EN,false,UKOS,355831,380925,-2.66457,53.32339,BCT,MKD,OTH,,,,021,1969-12-31T00:00:00,1969-12-31T23:00:00,0,new,active
068000000040,haladapd,,,Murdishaw Cen.,,Murdishaw,,Murdishaw Cen.,,,,,,,,SW,N0065333,Murdishaw,Runcorn,,Runcorn,EN,Murdishaw,EN,false,UKOS,355833,380936,-2.66454,53.32349,BCT,MKD,OTH,,,,021,1969-12-31T00:00:00,1969-12-31T23:00:00,0,new,active
068000000041,haladapg,,,Barnfield Avenue,,Barnfield Ave,,Barnfield Ave,,,,,,,,SW,N0065333,Murdishaw,Runcorn,,Runcorn,EN,Murdishaw,EN,false,UKOS,355665,380688,-2.66703,53.32125,BCT,MKD,OTH,,,,021,1969-12-31T00:00:00,1969-12-31T23:00:00,0,new,active
068000000042,haladapj,,,Barnfield Avenue,,Barnfield Ave,,Barnfield Ave,,,,,,,,NE,N0065333,Murdishaw,Runcorn,,Runcorn,EN,Murdishaw,EN,false,UKOS,355692,380763,-2.66663,53.32193,BCT,MKD,OTH,,,,021,1969-12-31T00:00:00,1969-12-31T23:00:00,0,new,active
068000000033,haladamd,,,Guinness,,Guinness,,Guinness,,Busway (Whitehouse),,,,,,NE,E0037837,Preston Brook,Runcorn,,Runcorn,EN,Preston Brook,EN,false,UKOS,356272,379865,-2.6578,53.3139,BCT,MKD,OTH,,,,021,1969-12-31T00:00:00,1969-12-31T23:00:00,0,new,active
068000000034,haladamg,,,Guinness,,Guinness,,Guinness,,,,,,,,SW,E0037837,Preston Brook,Runcorn,,Runcorn,EN,Preston Brook,EN,false,UKOS,356280,379859,-2.65768,53.31385,BCT,MKD,OTH,,,,021,1969-12-31T00:00:00,1969-12-31T23:00:00,0,new,active
068000000035,haladamj,,,Chester Road,,Chester Road,,Chester Rd,,Busway (Whitehouse),,,,,,NW,E0037837,Preston Brook,Runcorn,,Runcorn,EN,Preston Brook,EN,false,UKOS,356113,380138,-2.66022,53.31634,BCT,MKD,OTH,,,,021,1969-12-31T00:00:00,1969-12-31T23:00:00,0,new,active
068000000036,haladamp,,,Chester Road,,Chester Road,,Chester Rd,,,,,,,,SE,E0037837,Preston Brook,Runcorn,,Runcorn,EN,Preston Brook,EN,false,UKOS,356215,380044,-2.65868,53.31551,BCT,MKD,OTH,,,,021,1969-12-31T00:00:00,1969-12-31T23:00:00,0,new,active
068000000047,haladatd,,,Parkside,,Parkside,,Parkside,,,,,,,,NW,N0065332,Brookvale,Runcorn,,Runcorn,EN,Brookvale,EN,false,UKOS,354572,380598,-2.68342,53.32035,BCT,MKD,OTH,,,,021,1969-12-31T00:00:00,1969-12-31T23:00:00,0,new,active
068000000048,haladatg,,,Parkside,,Parkside,,Parkside,,,,,,,,SE,N0065332,Brookvale,Runcorn,,Runcorn,EN,Stockham Lane,EN,false,UKOS,354578,380616,-2.68333,53.32051,BCT,MKD,OTH,,,,021,1969-12-31T00:00:00,1969-12-31T23:00:00,0,new,active
068000000049,haladatj,,,Palacefields,,Palacefields,,Palacefields,,,,,,,,NW,N0065331,Palace Fields,Runcorn,,Runcorn,EN,Palace Fields,EN,false,UKOS,354173,380859,-2.68945,53.32266,BCT,MKD,OTH,,,,021,1969-12-31T00:00:00,1969-12-31T23:00:00,0,new,active
068000000050,haladatm,,,Palacefields,,Palacefields,,Palacefields,,,,,,,,SE,N0065331,Palace Fields,Runcorn,,Runcorn,EN,Palace Fields,EN,false,UKOS,354182,380865,-2.68931,53.32271,BCT,MKD,OTH,,,,021,1969-12-31T00:00:00,2019-05-20T08:32:11,4,new,active
068000000043,haladapm,,,Ormiston Bolingbroke Academy,,Ormiston Bolingbroke Academy,,Ormiston Bolingbroke Academy,,,,,,,,W,N0065332,Brookvale,Runcorn,,Runcorn,EN,Brookvale,EN,false,UKOS,355304,380428,-2.67241,53.31888,BCT,MKD,OTH,,,,021,1969-12-31T00:00:00,2024-05-10T11:10:08,49,new,active
068000000044,haladapt,,,Ormiston Bolingbroke Academy,,Ormiston Bolingbroke Academy,,Ormiston Bolingbroke Academy,,,,,,,,NE,N0065332,Brookvale,Runcorn,,Runcorn,EN,Brookvale,EN,false,UKOS,355358,380443,-2.6716,53.31902,BCT,MKD,OTH,,,,021,1969-12-31T00:00:00,2024-05-09T17:55:31,41,new,active
068000000045,haladapw,,,Brookvale,,Brookvale,,Brookvale,,,,,,,,NW,N0065332,Brookvale,Runcorn,,Runcorn,EN,Brookvale,EN,false,UKOS,354894,380424,-2.67856,53.31881,BCT,MKD,OTH,,,,021,1969-12-31T00:00:00,1969-12-31T23:00:00,0,new,active
068000000046,haladata,,,Brookvale,,Brookvale,,Brookvale,,,,,,,,E,N0065332,Brookvale,Runcorn,,Runcorn,EN,Brookvale,EN,false,UKOS,354905,380437,-2.6784,53.31893,BCT,MKD,OTH,,,,021,1969-12-31T00:00:00,1969-12-31T23:00:00,0,new,active
068000000031,haladajw,,,Cearns & Brown,,Cearns & Brown,,Cearns & Brown,,Busway (Whitehouse),,,,,,NE,E0037837,Preston Brook,Runcorn,,Runcorn,EN,Preston Brook,EN,false,UKOS,356164,379644,-2.65939,53.31191,BCT,MKD,OTH,,,,021,1969-12-31T00:00:00,1969-12-31T23:00:00,0,new,active
068000000032,haladama,,,Cearns & Brown,,Cearns & Brown,,Cearns & Brown,,Busway (Whitehouse),,,,,,SW,E0037837,Preston Brook,Runcorn,,Runcorn,EN,Preston Brook,EN,false,UKOS,356182,379675,-2.65912,53.31219,BCT,MKD,OTH,,,,021,1969-12-31T00:00:00,1969-12-31T23:00:00,0,new,active
068000000016,haladadt,,,Eddison Road,,Eddison Rd,,Eddison Rd,,,,,,,,W,E0037806,Astmoor,Runcorn,,Runcorn,EN,Astmoor,EN,false,UKOS,352524,383136,-2.71454,53.34298,BCT,MKD,OTH,,,,021,1969-12-31T00:00:00,1969-12-31T23:00:00,0,new,active
068000000017,haladadw,,,Eddison Road,,Eddison Rd,,Eddison Rd,,,,,,,,E,E0037806,Astmoor,Runcorn,,Runcorn,EN,Astmoor,EN,false,UKOS,352508,383146,-2.71478,53.34307,BCT,MKD,OTH,,,,021,1969-12-31T00:00:00,1969-12-31T23:00:00,0,new,active
068000000018,haladaga,,,Davy Road,,Davy Road,,Davy Rd,,,,,,,,W,E0037806,Astmoor,Runcorn,,Runcorn,EN,Astmoor,EN,false,UKOS,353026,383149,-2.707,53.34314,BCT,MKD,OTH,,,,021,1969-12-31T00:00:00,1969-12-31T23:00:00,0,new,active
068000000019,haladagd,,,Davy Road,,Davy Road,,Davy Rd,,,,,,,,E,E0037806,Astmoor,Runcorn,,Runcorn,EN,Astmoor,EN,false,UKOS,353030,383166,-2.70695,53.34329,BCT,MKD,OTH,,,,021,1969-12-31T00:00:00,1969-12-31T23:00:00,0,new,active
068000000015,haladadp,,,The Linnets,,The Linnets,,The Linnets,,,,,,,,W,E0037806,Astmoor,Runcorn,,Runcorn,EN,Astmoor,EN,false,UKOS,352260,383136,-2.71851,53.34295,BCT,MKD,OTH,,,,021,1969-12-31T00:00:00,1969-12-31T23:00:00,0,new,active
068000000013,haladadj,,,Mason Street,,Mason Street,,Mason St,,,,,,,,W,E0037841,Runcorn,,,Runcorn,EN,Runcorn,EN,false,UKOS,352129,383130,-2.72047,53.34289,BCT,MKD,OTH,,,,021,1969-12-31T00:00:00,2024-11-25T11:52:29,0,new,active
068000000014,haladadm,,,Mason Street,,Mason St,,Mason St,,,,,,,,E,E0037806,Astmoor,Runcorn,,Runcorn,EN,Astmoor,EN,false,UKOS,352176,383143,-2.71977,53.34301,BCT,MKD,OTH,,,,021,1969-12-31T00:00:00,1969-12-31T23:00:00,0,new,active
068000000020,haladagj,,,Chadwick Road,,Chadwick Rd,,Chadwick Rd,,,,,,,,W,E0037806,Astmoor,Runcorn,,Runcorn,EN,Astmoor,EN,false,UKOS,353339,383152,-2.7023,53.3432,BCT,MKD,OTH,,,,021,1969-12-31T00:00:00,2024-03-08T14:03:44,0,new,active
068000000021,haladagm,,,Chadwick Road,,Chadwick Rd,,Chadwick Rd,,Buusway (Astmoor),,,,,,E,E0037806,Astmoor,Runcorn,,Runcorn,EN,Astmoor,EN,false,UKOS,353332,383163,-2.70241,53.34329,BCT,MKD,OTH,,,,021,1969-12-31T00:00:00,1969-12-31T23:00:00,0,new,active
068000000028,haladajm,,,Whitehouse,,Whitehouse,,Whitehouse,,Busway (Whitehouse),,,,,,W,E0037837,Preston Brook,Runcorn,,Runcorn,EN,Preston Brook,EN,false,UKOS,356555,379574,-2.65351,53.31131,BCT,MKD,OTH,,,,021,1969-12-31T00:00:00,1969-12-31T23:00:00,0,new,active
068000000030,haladajt,,,YKK,,YKK,,YKK,,Busway (Whitehouse),,,,,,E,E0037837,Preston Brook,Runcorn,,Runcorn,EN,Preston Brook,EN,false,UKOS,356287,379556,-2.65753,53.31113,BCT,MKD,OTH,,,,021,1969-12-31T00:00:00,1969-12-31T23:00:00,0,new,active
068000000029,haladajp,,,YKK,,YKK,,YKK,,Busway (Whitehouse),,,,,,W,E0037837,Preston Brook,Runcorn,,Runcorn,EN,Preston Brook,EN,false,UKOS,356287,379547,-2.65753,53.31105,BCT,MKD,OTH,,,,021,1969-12-31T00:00:00,1969-12-31T23:00:00,0,new,active
068000000024,haladagw,,,Arkwright Road,,Arkwright Rd,,Arkwright Rd,,,,,,,,W,E0037806,Astmoor,Runcorn,,Runcorn,EN,Astmoor,EN,false,UKOS,353795,383285,-2.69548,53.34443,BCT,MKD,OTH,,,,021,1969-12-31T00:00:00,1969-12-31T23:00:00,0,new,active
068000000025,haladaja,,,Arkwright Road,,Arkwright Rd,,Arkwright Rd,,,,,,,,E,E0037806,Astmoor,Runcorn,,Runcorn,EN,Astmoor,EN,false,UKOS,353817,383303,-2.69515,53.34459,BCT,MKD,OTH,,,,021,1969-12-31T00:00:00,1969-12-31T23:00:00,0,new,active
068000000022,haladagp,,,Brindley Road,,Brindley Rd,,Brindley Rd,,,,,,,,W,E0037806,Astmoor,Runcorn,,Runcorn,EN,Astmoor,EN,false,UKOS,353593,383195,-2.6985,53.3436,BCT,MKD,OTH,,,,021,1969-12-31T00:00:00,1969-12-31T23:00:00,0,new,active
068000000023,haladagt,,,Brindley Road,,Brindley Rd,,Brindley Rd,,,,,,,,E,E0037806,Astmoor,Runcorn,,Runcorn,EN,Astmoor,EN,false,UKOS,353586,383213,-2.6986,53.34377,BCT,MKD,OTH,,,,021,1969-12-31T00:00:00,1969-12-31T23:00:00,0,new,active
068000000073,haladgdw,,,Parkgate Way,,Parkgate Way,,Parkgate Way,,,,,,,,S,N0065333,Murdishaw,Runcorn,,Runcorn,EN,Murdishaw,EN,false,UKOS,355481,381058,-2.66984,53.32456,BCT,MKD,OTH,,,,021,1969-12-31T00:00:00,1969-12-31T23:00:00,0,new,active
068000000074,haladgja,,,Parkgate Way,,Parkgate Way,,Parkgate Way,,,,,,,,NE,N0065333,Murdishaw,Runcorn,,Runcorn,EN,Murdishaw,EN,false,UKOS,355442,381147,-2.67044,53.32536,BCT,MKD,OTH,,,,021,1969-12-31T00:00:00,1969-12-31T23:00:00,0,new,active
068000000071,haladgdp,,,Runcorn East,,Runcorn East,,Runcorn East,,,,,,,,SW,E0037821,Eanley Wood,Norton,,Runcorn,EN,Eanley Wood,EN,false,UKOS,355688,381406,-2.66678,53.3277,BCT,MKD,OTH,,,,021,1969-12-31T00:00:00,2024-11-25T12:12:44,0,new,active
068000000072,haladgdt,,,Runcorn East,,Runcorn East,,Runcorn East,,,,,,,,NE,E0037821,Eanley Wood,Norton,,Runcorn,EN,Eanley Wood,EN,false,UKOS,355668,381424,-2.66708,53.32786,BCT,MKD,OTH,,,,021,1969-12-31T00:00:00,1969-12-31T23:00:00,0,new,active
068000000057,haladawm,,,Castlefields Ctr.,,Castlefields,,Castlefields Ctr.,,,,,,,,E,N0065327,Halton Village,Runcorn,,Runcorn,EN,Castlefields,EN,false,UKOS,354078,382632,-2.69113,53.33859,BCT,MKD,OTH,,,,021,1969-12-31T00:00:00,2024-05-13T16:35:04,21,new,active
068000000058,haladawp,,,Castlefields Ctr.,,Castlefields,,Castlefields Ctr.,,,,,,,,W,N0065327,Halton Village,Runcorn,,Runcorn,EN,Castlefields,EN,false,UKOS,354078,382629,-2.69113,53.33856,BCT,MKD,OTH,,,,021,1969-12-31T00:00:00,2024-05-13T16:34:11,37,new,active
068000000059,haladawt,,,The Park,,The Park,,The Park,,,,,,,,SE,N0065327,Halton Village,Runcorn,,Runcorn,EN,Castlefields,EN,false,UKOS,354250,382149,-2.68848,53.33426,BCT,MKD,OTH,,,,021,1969-12-31T00:00:00,1969-12-31T23:00:00,0,new,active
068000000060,haladgad,,,The Park,,The Park,,The Park,,,,,,,,NW,N0065327,Halton Village,Runcorn,,Runcorn,EN,Halton Village,EN,false,UKOS,354285,382115,-2.68795,53.33396,BCT,MKD,OTH,,,,021,1969-12-31T00:00:00,1969-12-31T23:00:00,0,new,active
068000000061,haladgag,,,Norton Priory,,Norton Priory,,Norton Priory,,,,,,,,NE,E0037835,Norton,Runcorn,,Runcorn,EN,Norton,EN,false,UKOS,354842,382316,-2.67961,53.33581,BCT,MKD,OTH,,,,021,1969-12-31T00:00:00,1969-12-31T23:00:00,0,new,active
068000000062,haladgaj,,,Norton Priory,,Norton Priory,,Norton Priory,,,,,,,,SW,E0037835,Norton,Runcorn,,Runcorn,EN,Norton,EN,false,UKOS,354723,382244,-2.68139,53.33515,BCT,MKD,OTH,,,,021,1969-12-31T00:00:00,1969-12-31T23:00:00,0,new,active
068000000053,haladawa,,,The Brow,,The Brow,,The Brow,,,,,,,,NE,N0065327,Halton Village,Runcorn,,Runcorn,EN,Halton Village,EN,false,UKOS,353415,382190,-2.70102,53.33456,BCT,MKD,OTH,,,,021,1969-12-31T00:00:00,1969-12-31T23:00:00,0,new,active
068000000054,haladawd,,,The Brow,,The Brow,,The Brow,,,,,,,,S,N0065327,Halton Village,Runcorn,,Runcorn,EN,Halton Village,EN,false,UKOS,353422,382190,-2.70092,53.33456,BCT,MKD,OTH,,,,021,1969-12-31T00:00:00,1969-12-31T23:00:00,0,new,active
068000000055,haladawg,,,Rolands Walk,,Rolands Walk,,Rolands Walk,,,,,,,,NE,N0065327,Halton Village,Runcorn,,Runcorn,EN,Castlefields,EN,false,UKOS,353589,382510,-2.69846,53.33745,BCT,MKD,OTH,,,,021,1969-12-31T00:00:00,1969-12-31T23:00:00,0,new,active
068000000056,haladawj,,,Rolands Walk,,Rolands Walk,,Rolands Walk,,Busway (Castlefields),,,,,,SW,N0065327,Halton Village,Runcorn,,Runcorn,EN,Castlefields,EN,false,UKOS,353596,382496,-2.69835,53.33732,BCT,MKD,OTH,,,,021,1969-12-31T00:00:00,1969-12-31T23:00:00,0,new,active
068000000069,haladgdj,,,Norton Village,,Norton Village,,Norton Village,,,,,,,,SE,E0037821,Eanley Wood,Norton,,Runcorn,EN,Eanley Wood,EN,false,UKOS,355488,381765,-2.66983,53.33091,BCT,MKD,OTH,,,,021,1969-12-31T00:00:00,2024-02-06T14:12:56,0,new,active
068000000070,haladgdm,,,Norton Village,,Norton Village,,Norton Village,,,,,,,,N,E0037821,Eanley Wood,Norton,,Runcorn,EN,Eanley Wood,EN,false,UKOS,355474,381757,-2.67004,53.33084,BCT,MKD,OTH,,,,021,1969-12-31T00:00:00,2024-02-06T14:13:03,0,new,active
068000000067,haladgda,,,Gooseberry Lane,,Gooseberry Lane,,Gooseberry Lane,,,,,,,,S,E0037835,Norton,Runcorn,,Runcorn,EN,Norton,EN,false,UKOS,355542,382160,-2.66908,53.33447,BCT,MKD,OTH,,,,021,1969-12-31T00:00:00,2024-05-13T16:21:42,36,new,active
068000000063,haladgam,,,Southwood Avenue,,Southwood Ave,,Southwood Ave,,,,,,,,NE,N0065324,Windmill Hill,Norton,,Runcorn,EN,Windmill Hill,EN,false,UKOS,355077,382579,-2.67612,53.3382,BCT,MKD,OTH,,,,021,1969-12-31T00:00:00,1969-12-31T23:00:00,0,new,active
068000000064,haladgap,,,Southwood Avenue,,Southwood Ave,,Southwood Ave,,,,,,,,SW,N0065324,Windmill Hill,Norton,,Runcorn,EN,Windmill Hill,EN,false,UKOS,355069,382562,-2.67624,53.33804,BCT,MKD,OTH,,,,021,1969-12-31T00:00:00,1969-12-31T23:00:00,0,new,active
068000000065,haladgat,,,Windmill Hill,,Windmill Hill,,Windmill Hill,,,,,,,,E,N0065324,Windmill Hill,Norton,,Runcorn,EN,Windmill Hill,EN,false,UKOS,355515,382725,-2.66956,53.33955,BCT,MKD,OTH,,,,021,1969-12-31T00:00:00,2024-11-25T12:10:21,37,new,active
068000000066,haladgaw,,,Windmill Hill,,Windmill Hill,,Windmill Hill,,,,,,,,W,N0065324,Windmill Hill,Norton,,Runcorn,EN,Windmill Hill,EN,false,UKOS,355514,382720,-2.66958,53.3395,BCT,MKD,OTH,,,,021,1969-12-31T00:00:00,2024-11-25T12:10:26,37,new,active
068000000343,haladtgd,,,Belmont Road,,Belmont Rd,,Belmont Rd,,Moorfield Road,,,,,,N,E0037817,Crow Wood,Widnes,,Widnes,EN,Crow Wood,EN,false,UKOS,352924,386832,-2.70909,53.37623,BCT,MKD,OTH,,,,021,1969-12-31T00:00:00,1969-12-31T23:00:00,0,new,active
068000000344,haladtgj,,,Belmont Road,,Belmont Rd,,Belmont Rd,,Moorfield Road,,,,,,S,E0037817,Crow Wood,Widnes,,Widnes,EN,Crow Wood,EN,false,UKOS,352931,386873,-2.70899,53.3766,BCT,MKD,OTH,,,,021,1969-12-31T00:00:00,1969-12-31T23:00:00,0,new,active
068000000345,haladtgm,,,Chorleys Lane,,Chorleys Lane,,Chorleys Lane,,Bishops Way,,,,,,E,E0037817,Crow Wood,Widnes,,Widnes,EN,Crow Wood,EN,false,UKOS,352846,387115,-2.7103,53.37877,BCT,MKD,OTH,,,,021,1969-12-31T00:00:00,1969-12-31T23:00:00,0,new,active
068000000346,haladtgp,,,Bancroft Road,,Bancroft Rd,,Bancroft Rd,,Bancroft Road,,,,,,E,E0037817,Crow Wood,Widnes,,Widnes,EN,Crow Wood,EN,false,UKOS,352707,387092,-2.71239,53.37855,BCT,MKD,OTH,,,,021,1969-12-31T00:00:00,1969-12-31T23:00:00,0,new,active
068000000347,haladtgt,,,Bancroft Road,,Bancroft Rd,,Bancroft Rd,,Bishops Way,,,,,,W,E0037817,Crow Wood,Widnes,,Widnes,EN,Crow Wood,EN,false,UKOS,352728,387123,-2.71208,53.37883,BCT,MKD,OTH,,,,021,1969-12-31T00:00:00,1969-12-31T23:00:00,0,new,active
068000000331,haladtdp,,,Wilmere House,,Wilmere House,,Wilmere House,,Wilmere Lane,,,,,,NE,E0037851,Upton Rocks,Widnes,,Widnes,EN,Upton Rocks,EN,false,UKOS,351221,389443,-2.73509,53.39955,BCT,MKD,OTH,,,,021,1969-12-31T00:00:00,1969-12-31T23:00:00,0,new,active
068000000332,haladtdt,,,Wilmere House,,Wilmere House,,Wilmere House,,Wilmere Lane,,,,,,SW,E0037809,Barrows Green,Widnes,,Widnes,EN,Barrows Green,EN,false,UKOS,351242,389465,-2.73477,53.39975,BCT,MKD,OTH,,,,021,1969-12-31T00:00:00,1969-12-31T23:00:00,0,new,active
068000000341,haladtdw,,,Crow Wood,,Crow Wood,,Crow Wood,,Moorfield Road,,,,,,N,E0037817,Crow Wood,Widnes,,Widnes,EN,Crow Wood,EN,false,UKOS,352905,386600,-2.70934,53.37415,BCT,MKD,OTH,,,,021,1969-12-31T00:00:00,1969-12-31T23:00:00,0,new,active
068000000342,haladtga,,,Crow Wood,,Crow Wood,,Crow Wood,,Moorfield Road,,,,,,S,E0037817,Crow Wood,Widnes,,Widnes,EN,Crow Wood,EN,false,UKOS,352901,386551,-2.70939,53.37371,BCT,MKD,OTH,,,,021,1969-12-31T00:00:00,1969-12-31T23:00:00,0,new,active
068000000348,haladtgw,,,Barnes Road,,Barnes Rd,,Barnes Rd,,Barnes Road,,,,,,S,E0037817,Crow Wood,Widnes,,Widnes,EN,Crow Wood,EN,false,UKOS,352685,386919,-2.71269,53.37699,BCT,MKD,OTH,,,,021,1969-12-31T00:00:00,1969-12-31T23:00:00,0,new,active
068000000349,haladtja,,,Barnes Road,,Barnes Rd,,Barnes Rd,,Bancroft Road,,,,,,N,E0037817,Crow Wood,Widnes,,Widnes,EN,Crow Wood,EN,false,UKOS,352684,386944,-2.71271,53.37722,BCT,MKD,OTH,,,,021,1969-12-31T00:00:00,1969-12-31T23:00:00,0,new,active
068000000353,haladtjp,,,Eight Towers,,Eight Towers,,Eight Towers,,Weates Close,,,,,,W,E0037809,Barrows Green,Widnes,,Widnes,EN,Barrows Green,EN,false,UKOS,353133,386762,-2.70593,53.37562,BCT,MKD,OTH,,,,021,1969-12-31T00:00:00,1969-12-31T23:00:00,0,new,active
068000000354,haladtjt,,,Eight Towers,,Eight Towers,,Eight Towers,,Weates Close,,,,,,E,E0037809,Barrows Green,Widnes,,Widnes,EN,Barrows Green,EN,false,UKOS,353122,386748,-2.7061,53.3755,BCT,MKD,OTH,,,,021,1969-12-31T00:00:00,1969-12-31T23:00:00,0,new,active
068000000355,haladtjw,,,Barneston Road,,Barneston Rd,,Barneston Rd,,Weates Close,,,,,,NE,E0037809,Barrows Green,Widnes,,Widnes,EN,Barrows Green,EN,false,UKOS,353499,387114,-2.70049,53.37882,BCT,MKD,OTH,,,,021,1969-12-31T00:00:00,1969-12-31T23:00:00,0,new,active
068000000356,haladtma,,,Barneston Road,,Barneston Rd,,Barneston Rd,,Weates Close,,,,,,NE,E0037809,Barrows Green,Widnes,,Widnes,EN,Barrows Green,EN,false,UKOS,353461,387068,-2.70105,53.3784,BCT,MKD,OTH,,,,021,1969-12-31T00:00:00,1969-12-31T23:00:00,0,new,active
068000000357,haladtmd,,,Snowberry Close,,Snowberry Cl,,Snowberry Cl,,Weates Close,,,,,,NW,E0037809,Barrows Green,Widnes,,Widnes,EN,Barrows Green,EN,false,UKOS,353463,387382,-2.70107,53.38122,BCT,MKD,OTH,,,,021,1969-12-31T00:00:00,1969-12-31T23:00:00,0,new,active
068000000358,haladtmg,,,Snowberry Close,,Snowberry Cl,,Snowberry Cl,,Weates Close,,,,,,SE,E0037809,Barrows Green,Widnes,,Widnes,EN,Barrows Green,EN,false,UKOS,353411,387464,-2.70186,53.38196,BCT,MKD,OTH,,,,021,1969-12-31T00:00:00,1969-12-31T23:00:00,0,new,active
068000000350,haladtjd,,,Smyth Road,,Smyth Rd,,Smyth Rd,,Bancroft Road,,,,,,N,E0037817,Crow Wood,Widnes,,Widnes,EN,Crow Wood,EN,false,UKOS,352658,386701,-2.71306,53.37503,BCT,MKD,OTH,,,,021,1969-12-31T00:00:00,1969-12-31T23:00:00,0,new,active
068000000351,haladtjg,,,Smyth Road,,Smyth Rd,,Smyth Rd,,Smyth Road,,,,,,NE,E0037817,Crow Wood,Widnes,,Widnes,EN,Crow Wood,EN,false,UKOS,352693,386643,-2.71253,53.37451,BCT,MKD,OTH,,,,021,1969-12-31T00:00:00,1969-12-31T23:00:00,0,new,active
068000000352,haladtjm,,,Crow Wood Lane,,Crow Wood Ln,,Crow Wood Ln,,Crow Wood Lane,,,,,,NW,E0037817,Crow Wood,Widnes,,Widnes,EN,Crow Wood,EN,false,UKOS,352880,386592,-2.70971,53.37407,BCT,MKD,OTH,,,,021,1969-12-31T00:00:00,1969-12-31T23:00:00,0,new,active
068000000329,haladtdj,,,Valentine House,,Valntine House,,Valentine House,,Wilmere Lane,,,,,,N,E0037829,Lunts Heath,Widnes,,Widnes,EN,Lunt's Heath,EN,false,UKOS,351176,388987,-2.73569,53.39544,BCT,MKD,OTH,,,,021,1969-12-31T00:00:00,1969-12-31T23:00:00,0,new,active
068000000330,haladtdm,,,Valentine House,,Valntine House,,Valentine House,,Wilmere Lane,,,,,,S,E0037829,Lunts Heath,Widnes,,Widnes,EN,Lunt's Heath,EN,false,UKOS,351194,388941,-2.73542,53.39503,BCT,MKD,OTH,,,,021,1969-12-31T00:00:00,1969-12-31T23:00:00,0,new,active
068000000315,haladpwg,,,Glebe Garage,,Glebe Garage,,Glebe Garage,,Lunts Heath Road,,,,,,NW,E0037822,Farnworth,Widnes,,Widnes,EN,Farnworth,EN,false,UKOS,352251,388034,-2.71938,53.38698,BCT,MKD,OTH,,,,021,1969-12-31T00:00:00,1969-12-31T23:00:00,0,new,active
068000000316,haladpwj,,,Glebe Garage,,Glebe Garage,,Glebe Garage,,Lunts Heath Road,,,,,,SE,E0037822,Farnworth,Widnes,,Widnes,EN,Farnworth,EN,false,UKOS,352229,388074,-2.71972,53.38733,BCT,MKD,OTH,,,,021,1969-12-31T00:00:00,1969-12-31T23:00:00,0,new,active
068000000317,haladpwm,,,Church View,,Church View,,Church View,,Lunts Heath Road,,,,,,NW,E0037829,Lunts Heath,Widnes,,Widnes,EN,Lunt's Heath,EN,false,UKOS,351910,388273,-2.72455,53.38909,BCT,MKD,OTH,,,,021,1969-12-31T00:00:00,1969-12-31T23:00:00,0,new,active
068000000318,haladpwp,,,Church View,,Church View,,Church View,,Lunnts Heath Road,,,,,,SE,E0037829,Lunts Heath,Widnes,,Widnes,EN,Lunt's Heath,EN,false,UKOS,351934,388277,-2.72419,53.38913,BCT,MKD,OTH,,,,021,1969-12-31T00:00:00,1969-12-31T23:00:00,0,new,active
068000000319,haladpwt,,,Cranshaw Lane,,Cranshaw Lane,,Cranshaw Lane,,Lunts Heath Road,,,,,,W,E0037829,Lunts Heath,Widnes,,Widnes,EN,Lunt's Heath,EN,false,UKOS,351634,388394,-2.72871,53.39016,BCT,MKD,OTH,,,,021,1969-12-31T00:00:00,1969-12-31T23:00:00,0,new,active
068000000320,haladtad,,,Cranshaw Lane,,Cranshaw Lane,,Cranshaw Lane,,Lunts Heath Road,,,,,,SE,E0037829,Lunts Heath,Widnes,,Widnes,EN,Lunt's Heath,EN,false,UKOS,351654,388400,-2.72842,53.39021,BCT,MKD,OTH,,,,021,1969-12-31T00:00:00,1969-12-31T23:00:00,0,new,active
068000000310,haladptp,,,Derby Road,,Derby Rd,,Derby Rd,,Derby Road,,,,,,E,E0037809,Barrows Green,Widnes,,Widnes,EN,Barrows Green,EN,false,UKOS,353098,387885,-2.70663,53.38571,BCT,MKD,OTH,,,,021,1969-12-31T00:00:00,1969-12-31T23:00:00,0,new,active
068000000311,haladptw,,,Barrows Green,,Barrows Green,,Barrows Green,,Derby Road,,,,,,W,E0037809,Barrows Green,Widnes,,Widnes,EN,Barrows Green,EN,false,UKOS,353083,387869,-2.70685,53.38557,BCT,MKD,OTH,,,,021,1969-12-31T00:00:00,1969-12-31T23:00:00,0,new,active
068000000313,haladpwa,,,Everglades,,Everglades,,Everglades,,Derby Road,,,,,,W,E0037809,Barrows Green,Widnes,,Widnes,EN,Barrows Green,EN,false,UKOS,352674,387910,-2.71301,53.3859,BCT,MKD,OTH,,,,021,1969-12-31T00:00:00,1969-12-31T23:00:00,0,new,active
068000000314,haladpwd,,,Everglades,,Everglades,,Everglades,,Derby Road,,,,,,E,E0037809,Barrows Green,Widnes,,Widnes,EN,Barrows Green,EN,false,UKOS,352665,387925,-2.71314,53.38603,BCT,MKD,OTH,,,,021,1969-12-31T00:00:00,1969-12-31T23:00:00,0,new,active
068000000326,haladtaw,,,Pex Hill,,Pex Hill,,Pex Hill,,Cronton Lane,,,,,,SW,E0037851,Upton Rocks,Widnes,,Widnes,EN,Upton Rocks,EN,false,UKOS,350488,388353,-2.74594,53.38968,BCT,MKD,OTH,,,,021,1969-12-31T00:00:00,1969-12-31T23:00:00,0,new,active
068000000327,haladtda,,,Pex Hill,,Pex Hill,,Pex Hill,,Cronton Lane,,,,,,E,E0037851,Upton Rocks,Widnes,,Widnes,EN,Upton Rocks,EN,false,UKOS,350510,388375,-2.74561,53.38988,BCT,MKD,OTH,,,,021,1969-12-31T00:00:00,2024-05-13T15:35:18,12,new,active
068000000321,haladtag,,,Wilmere Lane,,Wilmere Lane,,Wilmere Lane,,Lunts Heath Road,,,,,,SW,E0037829,Lunts Heath,Widnes,,Widnes,EN,Lunt's Heath,EN,false,UKOS,351230,388395,-2.73479,53.39013,BCT,MKD,OTH,,,,021,1969-12-31T00:00:00,1969-12-31T23:00:00,0,new,active
068000000328,haladtdg,,,Wilmere Lane,,Wilmere Lane,,Wilmere Lane,,Wilmere,,,,,,S,E0037829,Lunts Heath,Widnes,,Widnes,EN,Lunt's Heath,EN,false,UKOS,351212,388472,-2.73507,53.39082,BCT,MKD,OTH,,,,021,1969-12-31T00:00:00,2024-05-10T13:14:31,13,new,active
068000000324,haladtap,,,Hillcrest,,Hillcrest,,Hillcrest,,Cronton Lane,,,,,,W,E0037851,Upton Rocks,Widnes,,Widnes,EN,Upton Rocks,EN,false,UKOS,350673,388362,-2.74316,53.38978,BCT,MKD,OTH,,,,021,1969-12-31T00:00:00,2021-08-24T10:25:41,7,new,active
068000000325,haladtat,,,Hillcrest,,Hillcrest,,Hillcrest,,Cronton Lane,,,,,,E,E0037851,Upton Rocks,Widnes,,Widnes,EN,Upton Rocks,EN,false,UKOS,350702,388380,-2.74273,53.38994,BCT,MKD,OTH,,,,021,1969-12-31T00:00:00,2018-08-22T08:34:11,4,new,active
068000000304,haladptd,,,The Globe,,The Globe,,The Globe,,Birchfield Road,,,,,,S,E0037829,Lunts Heath,Widnes,,Widnes,EN,Lunt's Heath,EN,false,UKOS,351056,388240,-2.73738,53.38872,BCT,MKD,OTH,,,,021,1969-12-31T00:00:00,1969-12-31T23:00:00,0,new,active
068000000322,haladtaj,,,The Globe,,The Globe,,The Globe,,Lunts Heath Road,,,,,,SW,E0037829,Lunts Heath,Widnes,,Widnes,EN,Lunt's Heath,EN,false,UKOS,351105,388364,-2.73666,53.38984,BCT,MKD,OTH,,,,021,1969-12-31T00:00:00,1969-12-31T23:00:00,0,new,active
068000000305,haladptg,,,The Globe,,The Globe,,The Globe,,,,,,,,NW,E0037851,Upton Rocks,Widnes,,Widnes,EN,Upton Rocks,EN,false,UKOS,351004,388331,-2.73818,53.38953,BCT,MKD,OTH,,,,021,1969-12-31T00:00:00,1969-12-31T23:00:00,0,new,active
068000000323,haladtam,,,Birchfield Gardens,,The Globe,,The Globe,,Lunts Heath Road,,,,,,NE,E0037851,Upton Rocks,Widnes,,Widnes,EN,Upton Rocks,EN,false,UKOS,351091,388375,-2.73688,53.38994,BCT,MKD,OTH,,,,021,1969-12-31T00:00:00,2021-01-05T11:59:24,21,new,active
068000000391,haladwda,,,Moss Bank Road,,Moss Bank Rd,,Moss Bank Rd,,Moss Bank Road,,,,,,NE,E0037832,Moss Bank,Widnes,,Widnes,EN,Moss Bank,EN,false,UKOS,352695,385332,-2.7123,53.36273,BCT,MKD,OTH,,,,021,1969-12-31T00:00:00,1969-12-31T23:00:00,0,new,active
068000000392,haladwdg,,,Moss Bank Road,,Moss Bank Rd,,Moss Bank Rd,,Moss Bank Road,,,,,,SW,E0037832,Moss Bank,Widnes,,Widnes,EN,Moss Bank,EN,false,UKOS,352666,385316,-2.71274,53.36259,BCT,MKD,OTH,,,,021,1969-12-31T00:00:00,1969-12-31T23:00:00,0,new,active
068000000393,haladwdj,,,Suttons,,Suttons,,Suttons,,Gorseyn Lane,,,,,,N,E0037832,Moss Bank,Widnes,,Widnes,EN,Moss Bank,EN,false,UKOS,353064,385601,-2.7068,53.36518,BCT,MKD,OTH,,,,021,1969-12-31T00:00:00,1969-12-31T23:00:00,0,new,active
068000000394,haladwdm,,,Suttons,,Suttons,,Suttons,,Gorsey Lane,,,,,,S,E0037832,Moss Bank,Widnes,,Widnes,EN,Moss Bank,EN,false,UKOS,353075,385601,-2.70663,53.36518,BCT,MKD,OTH,,,,021,1969-12-31T00:00:00,1969-12-31T23:00:00,0,new,active
068000000390,haladwaw,,,Tanhouse Lane,,Tanhouse Lane,,Tanhouse Lane,,Tanhouse Lane,,,,,,NW,E0037828,Lugsdale,Widnes,,Widnes,EN,Lugsdale,EN,false,UKOS,352507,385551,-2.71516,53.36468,BCT,MKD,OTH,,,,021,1969-12-31T00:00:00,1969-12-31T23:00:00,0,new,active
068000000385,haladwaj,,,Frank Street,,Frank St,,Frank St,,Frank Street,,,,,,E,E0037860,Widnes,,,Widnes,EN,Widnes,EN,false,UKOS,352523,386191,-2.71502,53.37044,BCT,MKD,OTH,,,,021,1969-12-31T00:00:00,1969-12-31T23:00:00,0,new,active
068000000386,haladwam,,,Frank Street,,Frank St,,Frank St,,Frank Street,,,,,,W,E0037860,Widnes,,,Widnes,EN,Widnes,EN,false,UKOS,352541,386172,-2.71474,53.37027,BCT,MKD,OTH,,,,021,1969-12-31T00:00:00,1969-12-31T23:00:00,0,new,active
068000000387,haladwap,,,Warrington Road,,Warrington Rd,,Warrington Rd,,Warrington Road,,,,,,N,E0037860,Widnes,,,Widnes,EN,Widnes,EN,false,UKOS,352668,386368,-2.71286,53.37204,BCT,MKD,OTH,,,,021,1969-12-31T00:00:00,1969-12-31T23:00:00,0,new,active
068000000388,haladwat,,,Warrington Road,,Warrington Rd,,Warrington Rd,,Warrington Road,,,,,,S,E0037860,Widnes,,,Widnes,EN,Widnes,EN,false,UKOS,352667,386334,-2.71287,53.37173,BCT,MKD,OTH,,,,021,1969-12-31T00:00:00,1969-12-31T23:00:00,0,new,active
068000000395,haladwdp,,,Johnsons Lane,,Johnsons Lane,,Johnsons Lane,,Gorsey Lane,,,,,,N,E0037832,Moss Bank,Widnes,,Widnes,EN,Moss Bank,EN,false,UKOS,353181,386119,-2.70512,53.36985,BCT,MKD,OTH,,,,021,1969-12-31T00:00:00,1969-12-31T23:00:00,0,new,active
068000000411,haladwgj,,,Dickson Street,,Dickson St,,Dickson St,,South Street,,,,,,N,E0037860,Widnes,,,Widnes,EN,Widnes,EN,false,UKOS,351714,385919,-2.72713,53.36792,BCT,MKD,OTH,,,,021,1969-12-31T00:00:00,1969-12-31T23:00:00,0,new,active
068000000396,haladwdt,,,Gorsey Lane,,Gorsey Lane,,Gorsey Lane,,Gorsey Lane,,,,,,N,E0037860,Widnes,,,Widnes,EN,Widnes,EN,false,UKOS,353138,386425,-2.70581,53.37259,BCT,MKD,OTH,,,,021,1969-12-31T00:00:00,1969-12-31T23:00:00,0,new,active
068000000397,haladwdw,,,Gorsey Lane,,Gorsey Lane,,Gorsey Lane,,Gorsey Lane,,,,,,S,E0037860,Widnes,,,Widnes,EN,Widnes,EN,false,UKOS,353152,386405,-2.7056,53.37242,BCT,MKD,OTH,,,,021,1969-12-31T00:00:00,1969-12-31T23:00:00,0,new,active
068000000398,halmjpdw,,,Chorleys Lane,,Barrows Green Lane,,Chorleys Lane,,Barrows Green Lane,,,,,,S,E0037809,Barrows Green,Widnes,,Widnes,EN,Barrows Green,EN,false,UKOS,353131,387214,-2.70603,53.37969,BCT,MKD,OTH,,,,021,1969-12-31T00:00:00,1969-12-31T23:00:00,0,new,active
068000000399,halmpmtj,,,Chorleys Lane,,Barrows Green Lane,,Chorleys Lane,,Barrows Green Lane,,,,,,S,E0037809,Barrows Green,Widnes,,Widnes,EN,Barrows Green,EN,false,UKOS,353108,386995,-2.70634,53.37772,BCT,MKD,OTH,,,,021,1969-12-31T00:00:00,1969-12-31T23:00:00,0,new,active
068000000383,haladwad,,,St Ambrose Road,,St Ambrose Rd,,St Ambrose Rd,,Frank Street,,,,,,E,E0037860,Widnes,,,Widnes,EN,Widnes,EN,false,UKOS,352404,386216,-2.71681,53.37065,BCT,MKD,OTH,,,,021,1969-12-31T00:00:00,1969-12-31T23:00:00,0,new,active
068000000384,haladwag,,,St Ambrose Road,,St Ambrose Rd,,St Ambrose Rd,,Frank Street,,,,,,W,E0037860,Widnes,,,Widnes,EN,Widnes,EN,false,UKOS,352379,386200,-2.71718,53.3705,BCT,MKD,OTH,,,,021,1969-12-31T00:00:00,1969-12-31T23:00:00,0,new,active
068000000363,haladtpa,,,School Way,,School Way,,School Way,,Moorfield Road,,,,,,NW,E0037809,Barrows Green,Widnes,,Widnes,EN,Barrows Green,EN,false,UKOS,352769,387414,-2.7115,53.38145,BCT,MKD,OTH,,,,021,1969-12-31T00:00:00,1969-12-31T23:00:00,0,new,active
068000000364,haladtpd,,,School Way,,School Way,,School Way,,Moorfield Road,,,,,,SE,E0037809,Barrows Green,Widnes,,Widnes,EN,Barrows Green,EN,false,UKOS,352792,387390,-2.71115,53.38124,BCT,MKD,OTH,,,,021,1969-12-31T00:00:00,1969-12-31T23:00:00,0,new,active
068000000365,haladtpg,,,Horns,,Horns,,Horns,,Moorfield Road,,,,,,NW,E0037809,Barrows Green,Widnes,,Widnes,EN,Barrows Green,EN,false,UKOS,352579,387800,-2.71442,53.3849,BCT,MKD,OTH,,,,021,1969-12-31T00:00:00,1969-12-31T23:00:00,0,new,active
068000000366,haladtpj,,,Horns,,Horns,,Horns,,Moorfield Road,,,,,,SE,E0037809,Barrows Green,Widnes,,Widnes,EN,Barrows Green,EN,false,UKOS,352561,387850,-2.7147,53.38535,BCT,MKD,OTH,,,,021,1969-12-31T00:00:00,1969-12-31T23:00:00,0,new,active
068000000371,haladtpm,,,Page Lane,,Page Lane,,Page Lane,,Halton View Road,,,,,,NE,E0037860,Widnes,,,Widnes,EN,Widnes,EN,false,UKOS,352453,386430,-2.7161,53.37258,BCT,MKD,OTH,,,,021,1969-12-31T00:00:00,1969-12-31T23:00:00,0,new,active
068000000372,haladtpt,,,Page Lane,,Page Lane,,Page Lane,,Halton View Road,,,,,,SW,E0037860,Widnes,,,Widnes,EN,Widnes,EN,false,UKOS,352366,386384,-2.71741,53.37216,BCT,MKD,OTH,,,,021,1969-12-31T00:00:00,2024-05-03T16:35:24,13,new,active
068000000381,haladtwp,,,Page Lane,,Page Lane,,Page Lane,,Page Lane,,,,,,NE,E0037860,Widnes,,,Widnes,EN,Widnes,EN,false,UKOS,352323,386286,-2.71804,53.37127,BCT,MKD,OTH,,,,021,1969-12-31T00:00:00,1969-12-31T23:00:00,0,new,active
068000000382,haladtwt,,,Page Lane,,Page Lane,,Page Lane,,Page Lane,,,,,,N,E0037860,Widnes,,,Widnes,EN,Widnes,EN,false,UKOS,352323,386320,-2.71804,53.37158,BCT,MKD,OTH,,,,021,1969-12-31T00:00:00,1969-12-31T23:00:00,0,new,active
068000000359,haladtmj,,,Dykin Road,,Dykin Rd,,Dykin Rd,,Dykin Road,,,,,,SW,E0037809,Barrows Green,Widnes,,Widnes,EN,Barrows Green,EN,false,UKOS,353070,387306,-2.70696,53.38051,BCT,MKD,OTH,,,,021,1969-12-31T00:00:00,1969-12-31T23:00:00,0,new,active
068000000360,haladtmp,,,Dykin Road,,Dykin Rd,,Dykin Rd,,Dykin Road,,,,,,NE,E0037809,Barrows Green,Widnes,,Widnes,EN,Barrows Green,EN,false,UKOS,353082,387340,-2.70679,53.38081,BCT,MKD,OTH,,,,021,1969-12-31T00:00:00,1969-12-31T23:00:00,0,new,active
068000000361,haladtmt,,,Chorleys Lane,,Chorleys Lane,,Chorleys Lane,,Moorfield Road,,,,,,NW,E0037809,Barrows Green,Widnes,,Widnes,EN,Barrows Green,EN,false,UKOS,352872,387209,-2.70992,53.37962,BCT,MKD,OTH,,,,021,1969-12-31T00:00:00,1969-12-31T23:00:00,0,new,active
068000000362,haladtmw,,,Chorleys Lane,,Chorleys Lane,,Chorleys Lane,,Moorfield Road,,,,,,SE,E0037809,Barrows Green,Widnes,,Widnes,EN,Barrows Green,EN,false,UKOS,352902,387168,-2.70947,53.37925,BCT,MKD,OTH,,,,021,1969-12-31T00:00:00,1969-12-31T23:00:00,0,new,active
068000000377,haladtwj,,,Dans Road,,Dans Rd,,Dans Rd,,Dans Road,,,,,,NE,E0037860,Widnes,,,Widnes,EN,Widnes,EN,false,UKOS,353445,386840,-2.70126,53.37635,BCT,MKD,OTH,,,,021,1969-12-31T00:00:00,1969-12-31T23:00:00,0,new,active
068000000378,haladtwm,,,Dans Road,,Dans Rd,,Dans Rd,,Dans Road,,,,,,SW,E0037860,Widnes,,,Widnes,EN,Widnes,EN,false,UKOS,353428,386806,-2.70151,53.37604,BCT,MKD,OTH,,,,021,1969-12-31T00:00:00,1969-12-31T23:00:00,0,new,active
068000000373,haladtpw,,,Halton View Road,,Halton View Rd,,Halton View Rd,,Halton View Road,,,,,,NW,E0037860,Widnes,,,Widnes,EN,Widnes,EN,false,UKOS,352639,386449,-2.71331,53.37277,BCT,MKD,OTH,,,,021,1969-12-31T00:00:00,1969-12-31T23:00:00,0,new,active
068000000374,haladtwa,,,Halton View Road,,Halton View Rd,,Halton View Rd,,Halton View Road,,,,,,W,E0037860,Widnes,,,Widnes,EN,Widnes,EN,false,UKOS,352612,386441,-2.71372,53.37269,BCT,MKD,OTH,,,,021,1969-12-31T00:00:00,1969-12-31T23:00:00,0,new,active
068000000375,haladtwd,,,Crow Wood Cnr.,,Crow Wood Cnr.,,Crow Wood Cnr.,,Warrington Road,,,,,,NE,E0037817,Crow Wood,Widnes,,Widnes,EN,Crow Wood,EN,false,UKOS,352922,386549,-2.70907,53.37369,BCT,MKD,OTH,,,,021,1969-12-31T00:00:00,1969-12-31T23:00:00,0,new,active
068000000376,haladtwg,,,Crow Wood Cnr.,,Crow Wood Cnr.,,Crow Wood Cnr.,,Warrington Road,,,,,,SE,E0037817,Crow Wood,Widnes,,Widnes,EN,Crow Wood,EN,false,UKOS,352912,386528,-2.70922,53.3735,BCT,MKD,OTH,,,,021,1969-12-31T00:00:00,1969-12-31T23:00:00,0,new,active
068000000238,haladmtd,,,Upton Community Centre,,Sporting Ford,,Sporting Ford,,Hough Green Road,,,,,,E,E0037850,Upton,Widnes,,Widnes,EN,Upton,EN,false,UKOS,348822,387196,-2.7708,53.37912,BCT,MKD,OTH,,,,021,1969-12-31T00:00:00,2019-07-16T13:37:37,10,new,active
068000000239,haladmtg,,,Upton Community Centre,,Sporting Ford,,Sporting Ford,,Hough Green Road,,,,,,W,E0037850,Upton,Widnes,,Widnes,EN,Upton,EN,false,UKOS,348730,387169,-2.77218,53.37887,BCT,MKD,OTH,,,,021,1969-12-31T00:00:00,2019-07-16T13:38:22,10,new,active
068000000240,haladmtj,,,St. Basils,,St. Basils,,St. Basils,,Hough Green Road,,,,,,SW,E0037826,Hough Green,Widnes,,Widnes,EN,Hough Green,EN,false,UKOS,348468,386980,-2.77608,53.37715,BCT,MKD,OTH,,,,021,1969-12-31T00:00:00,1969-12-31T23:00:00,0,new,active
068000000241,haladmtm,,,St. Basils,,St. Basils,,St. Basils,,Hough Green Road,,,,,,NE,E0037850,Upton,Widnes,,Widnes,EN,Upton,EN,false,UKOS,348485,387043,-2.77584,53.37772,BCT,MKD,OTH,,,,021,1969-12-31T00:00:00,1969-12-31T23:00:00,0,new,active
068000000242,haladmtp,,,Wellington Inn,,Wellington Inn,,Wellington Inn,,Prescot Road,,,,,,NW,E0037807,Ball ODitton,Ditton,,Widnes,EN,Ball O'Ditton,EN,false,UKOS,349770,386492,-2.75644,53.37289,BCT,MKD,OTH,,,,021,1969-12-31T00:00:00,1969-12-31T23:00:00,0,new,active
068000000234,haladmpm,,,Foxcote,,Foxcote,,Foxcote,,Arley Drive,,,,,,NE,E0037826,Hough Green,Widnes,,Widnes,EN,Hough Green,EN,false,UKOS,348874,386839,-2.76996,53.37592,BCT,MKD,OTH,,,,021,1969-12-31T00:00:00,1969-12-31T23:00:00,0,new,active
068000000235,haladmpt,,,Fulbeck,,Fulbeck,,Fulbeck,,Arley Drive,,,,,,N,E0037826,Hough Green,Widnes,,Widnes,EN,Hough Green,EN,false,UKOS,349156,386937,-2.76574,53.37683,BCT,MKD,OTH,,,,021,1969-12-31T00:00:00,1969-12-31T23:00:00,0,new,active
068000000236,haladmpw,,,Haddon Drive,,Haddon Drive,,Haddon Dr,,Hough Green Road,,,,,,W,E0037850,Upton,Widnes,,Widnes,EN,Upton,EN,false,UKOS,349112,387157,-2.76643,53.3788,BCT,MKD,OTH,,,,021,1969-12-31T00:00:00,1969-12-31T23:00:00,0,new,active
068000000237,haladmta,,,Haddon Drive,,Haddon Dr,,Haddon Dr,,Hough Green Road,,,,,,E,E0037850,Upton,Widnes,,Widnes,EN,Upton,EN,false,UKOS,349190,387160,-2.76526,53.37884,BCT,MKD,OTH,,,,021,1969-12-31T00:00:00,1969-12-31T23:00:00,0,new,active
068000000251,halmdmdt,,,Haddon Drive,,Blair Drive,,Haddon Drive,,Blair Drive,,,,,,SE,E0037850,Upton,Widnes,,Widnes,EN,Upton,EN,false,UKOS,349066,387375,-2.76716,53.38076,BCT,MKD,OTH,,,,021,1969-12-31T00:00:00,2019-06-06T14:33:23,6,new,active
068000000244,haladmtw,,,Four Topped Oak,,Four Topped Oak,,Four Topped Oak,,Hough Green Road,,,,,,NW,E0037850,Upton,Widnes,,Widnes,EN,Upton,EN,false,UKOS,349457,387073,-2.76123,53.37808,BCT,MKD,OTH,,,,021,1969-12-31T00:00:00,1969-12-31T23:00:00,0,new,active
068000000245,haladmwa,,,Four Topped Oak,,Four Topped Oak,,Four Topped Oak,,Hough Green Road,,,,,,SE,E0037850,Upton,Widnes,,Widnes,EN,Upton,EN,false,UKOS,349482,387077,-2.76086,53.37812,BCT,MKD,OTH,,,,021,1969-12-31T00:00:00,2024-05-03T17:03:32,13,new,active
068000000250,haladmwp,,,Burnsall Drive,,Burnsall Dr,,Burnsall Dr,,Haddon Drive,,,,,,S,E0037850,Upton,Widnes,,Widnes,EN,Upton,EN,false,UKOS,349078,387426,-2.76699,53.38122,BCT,MKD,OTH,,,,021,1969-12-31T00:00:00,2024-05-08T13:10:20,13,new,active
068000000252,halmgmtg,,,Brookdale,,Cherry Sutton Road,,Brookdale,,Cherry Sutton Road,,,,Adj,,W,E0037850,Upton,Widnes,,Widnes,EN,Upton,EN,false,UKOS,348716,387228,-2.7724,53.3794,BCT,MKD,OTH,,,,021,1969-12-31T00:00:00,1969-12-31T23:00:00,0,new,active
068000000249,haladmwm,,,Billington Road,,Billington Rd,,Billington Rd,,Haddon Drive,,,,,,NE,E0037850,Upton,Widnes,,Widnes,EN,Upton,EN,false,UKOS,348941,387561,-2.76907,53.38242,BCT,MKD,OTH,,,,021,1969-12-31T00:00:00,1969-12-31T23:00:00,0,new,active
068000000246,haladmwd,,,Cherry Sutton,,Cherry Sutton,,Cherry Sutton,,Cherry Sutton,,,,,,W,E0037850,Upton,Widnes,,Widnes,EN,Upton,EN,false,UKOS,348901,387335,-2.76963,53.38038,BCT,MKD,OTH,,,,021,1969-12-31T00:00:00,1969-12-31T23:00:00,0,new,active
068000000247,haladmwg,,,Thornhills,,Thornhills,,Thornhills,,Cherry Sutton,,,,,,W,E0037850,Upton,Widnes,,Widnes,EN,Upton,EN,false,UKOS,348524,387247,-2.77529,53.37955,BCT,MKD,OTH,,,,021,1969-12-31T00:00:00,1969-12-31T23:00:00,0,new,active
068000000248,haladmwj,,,Alderbrook,,Alderbrook,,Alderbrook,,Cherry Sutton,,,,,,NE,E0037850,Upton,Widnes,,Widnes,EN,Upton,EN,false,UKOS,348617,387395,-2.77391,53.38089,BCT,MKD,OTH,,,,021,1969-12-31T00:00:00,1969-12-31T23:00:00,0,new,active
068000000213,haladmgt,,,Ormiston Chadwick Academy,,Ormiston Chadwick Academy,,Ormiston Chadwick Academy,,Liverpool Road,,,,,,W,E0037819,Ditton,Widnes,,Widnes,EN,Ditton,EN,false,UKOS,349440,386221,-2.76135,53.37042,BCT,MKD,OTH,,,,021,1969-12-31T00:00:00,2024-05-09T18:03:06,41,new,active
068000000214,haladmgw,,,Ormiston Chadwick Academy,,Ormiston Chadwick Academy,,Ormiston Chadwick academy,,Liverpool Road,,,,,,NE,E0037819,Ditton,Widnes,,Widnes,EN,Ditton,EN,false,UKOS,349581,386238,-2.75924,53.37059,BCT,MKD,OTH,,,,021,1969-12-31T00:00:00,2024-05-09T18:04:53,41,new,active
068000000221,haladmjw,,,Hough Green Road,,Hough Green Rd,,Hough Green Rd,,Liverpool Road,,,,,,NW,E0037826,Hough Green,Widnes,,Widnes,EN,Hough Green,EN,false,UKOS,348195,386571,-2.78012,53.37344,BCT,MKD,OTH,,,,021,1969-12-31T00:00:00,1969-12-31T23:00:00,0,new,active
068000000222,haladmpa,,,Hough Green Road,,Hough Green Rd,,Hough Green Rd,,Liverpool Road,,,,,,SE,E0037826,Hough Green,Widnes,,Widnes,EN,Hough Green,EN,false,UKOS,348207,386577,-2.77994,53.3735,BCT,MKD,OTH,,,,021,1969-12-31T00:00:00,1969-12-31T23:00:00,0,new,active
068000000231,haladmpd,,,Afton,,Afton,,Afton,,Hough Green Road,,,,,,NE,E0037826,Hough Green,Widnes,,Widnes,EN,Hough Green,EN,false,UKOS,348293,386713,-2.77867,53.37473,BCT,MKD,OTH,,,,021,1969-12-31T00:00:00,1969-12-31T23:00:00,0,new,active
068000000232,haladmpg,,,Afton,,Afton,,Afton,,Hough Green Road,,,,,,SW,E0037826,Hough Green,Widnes,,Widnes,EN,Hough Green,EN,false,UKOS,348283,386634,-2.77881,53.37402,BCT,MKD,OTH,,,,021,1969-12-31T00:00:00,1969-12-31T23:00:00,0,new,active
068000000219,haladmjp,,,Hough Green Station,,Hough Green Stn,,Hough Green Stn,,Liverpool Road,,,,,,NW,E0037819,Ditton,Widnes,,Widnes,EN,Ditton,EN,false,UKOS,348560,386334,-2.7746,53.37135,BCT,MKD,OTH,,,,021,1969-12-31T00:00:00,1969-12-31T23:00:00,0,new,active
068000000220,haladmjt,,,Hough Green Station,,Hough Green Stn,,Hough Green Stn,,Liverpool Road,,,,,,E,E0037819,Ditton,Widnes,,Widnes,EN,Ditton,EN,false,UKOS,348677,386331,-2.77284,53.37133,BCT,MKD,OTH,,,,021,1969-12-31T00:00:00,1969-12-31T23:00:00,0,new,active
068000000217,haladmjg,,,Crawford Avenue,,Crawford Ave,,Crawford Ave,,Liverpool Road,,,,,,NW,E0037819,Ditton,Widnes,,Widnes,EN,Ditton,EN,false,UKOS,348772,386305,-2.77141,53.37111,BCT,MKD,OTH,,,,021,1969-12-31T00:00:00,1969-12-31T23:00:00,0,new,active
068000000218,haladmjm,,,Sunningdale,,Crawford Ave,,Sunningdale,,Liverpool Road,,,,,,SE,E0037819,Ditton,Widnes,,Widnes,EN,Ditton,EN,false,UKOS,348929,386286,-2.76904,53.37095,BCT,MKD,OTH,,,,021,1969-12-31T00:00:00,1969-12-31T23:00:00,0,new,active
068000000294,haladpjt,,,Derby Road,,Farnworth,,Derby Rd,,Derby Road,,,,,,W,E0037822,Farnworth,Widnes,,Widnes,EN,Farnworth,EN,false,UKOS,351722,387386,-2.72724,53.3811,BCT,MKD,OTH,,,,021,1969-12-31T00:00:00,1969-12-31T23:00:00,0,new,active
068000000295,haladpjw,,,Derby Road,,Farnworth,,Derby Rd,,Derby Road,,,,,,E,E0037822,Farnworth,Widnes,,Widnes,EN,Farnworth,EN,false,UKOS,351741,387400,-2.72695,53.38123,BCT,MKD,OTH,,,,021,1969-12-31T00:00:00,1969-12-31T23:00:00,0,new,active
068000000296,haladpma,,,Sefton Avenue,,Sefton Avenue,,Sefton Ave,,Derby Road,,,,,,W,E0037822,Farnworth,Widnes,,Widnes,EN,Farnworth,EN,false,UKOS,351428,387330,-2.73165,53.38057,BCT,MKD,OTH,,,,021,1969-12-31T00:00:00,1969-12-31T23:00:00,0,new,active
068000000297,haladpmd,,,Sefton Avenue,,Sefton Avenue,,Sefton Ave,,Derby Road,,,,,,E,E0037822,Farnworth,Widnes,,Widnes,EN,Farnworth,EN,false,UKOS,351432,387346,-2.73159,53.38072,BCT,MKD,OTH,,,,021,1969-12-31T00:00:00,1969-12-31T23:00:00,0,new,active
068000000292,haladpjm,,,Everite Works,,Everite Works,,Everite Works,,Derby Road,,,,,,E,E0037822,Farnworth,Widnes,,Widnes,EN,Farnworth,EN,false,UKOS,352036,387669,-2.72256,53.38368,BCT,MKD,OTH,,,,021,1969-12-31T00:00:00,1969-12-31T23:00:00,0,new,active
068000000293,haladpjp,,,Everite Works,,Everite Works,,Everite Works,,Derby Road,,,,,,SW,E0037822,Farnworth,Widnes,,Widnes,EN,Farnworth,EN,false,UKOS,352084,387694,-2.72184,53.38391,BCT,MKD,OTH,,,,021,1969-12-31T00:00:00,1969-12-31T23:00:00,0,new,active
068000000284,haladpja,,,Horse & Jockey,,Horse & Jockey,,Horse & Jockey,,Birchfield Road,,,,,,N,E0037860,Widnes,,,Widnes,EN,Widnes,EN,false,UKOS,351333,386443,-2.73294,53.37259,BCT,MKD,OTH,,,,021,1969-12-31T00:00:00,1969-12-31T23:00:00,0,new,active
068000000290,haladpjd,,,Peelhouse Lane,,Farnworth,,Peelhouse Lane,,Peelhouse Lane,,,,,,N,E0037822,Farnworth,Widnes,,Widnes,EN,Farnworth,EN,false,UKOS,351832,387336,-2.72558,53.38067,BCT,MKD,OTH,,,,021,1969-12-31T00:00:00,1969-12-31T23:00:00,0,new,active
068000000291,haladpjg,,,Peelhouse Lane,,Farnworth,,Peelhouse Lane,,Peelhouse Lane,,,,,,S,E0037822,Farnworth,Widnes,,Widnes,EN,Farnworth,EN,false,UKOS,351853,387316,-2.72526,53.38049,BCT,MKD,OTH,,,,021,1969-12-31T00:00:00,1969-12-31T23:00:00,0,new,active
068000000298,haladpmg,,,Widnes Station,,Widnes Station,,Widnes Station,,Birchfield Road,,,,,,NE,E0037851,Upton Rocks,Widnes,,Widnes,EN,Upton Rocks,EN,false,UKOS,351347,387205,-2.73285,53.37944,BCT,MKD,OTH,,,,021,1969-12-31T00:00:00,1969-12-31T23:00:00,0,new,active
068000000308,haladptj,,,Pendlebury Farm,,Pendlebury Farm,,Pendlebury Farm,,South Lane,,,,,,E,E0037809,Barrows Green,Widnes,,Widnes,EN,Barrows Green,EN,false,UKOS,353883,387913,-2.69483,53.38603,BCT,MKD,OTH,,,,021,1969-12-31T00:00:00,1969-12-31T23:00:00,0,new,active
068000000309,haladptm,,,Pendlebury Farm,,Pendlebury Farm,,Pendlebury Farm,,South Lane,,,,,,W,E0037809,Barrows Green,Widnes,,Widnes,EN,Barrows Green,EN,false,UKOS,353881,387907,-2.69486,53.38598,BCT,MKD,OTH,,,,021,1969-12-31T00:00:00,1969-12-31T23:00:00,0,new,active
068000000303,haladpta,,,Buckingham Avenue,,Buckingham Ave,,Buckingham Ave,,Birchfield Road,,,,,,S,E0037822,Farnworth,Widnes,,Widnes,EN,Farnworth,EN,false,UKOS,351092,387946,-2.73679,53.38608,BCT,MKD,OTH,,,,021,1969-12-31T00:00:00,1969-12-31T23:00:00,0,new,active
068000000299,haladpmj,,,Widnes Station,,Widnes Station,,Widnes Station,,Birchfield Road,,,,,,SW,E0037822,Farnworth,Widnes,,Widnes,EN,Farnworth,EN,false,UKOS,351358,387188,-2.73268,53.37929,BCT,MKD,OTH,,,,021,1969-12-31T00:00:00,1969-12-31T23:00:00,0,new,active
068000000300,haladpmp,,,Pit Lane,,Pit Lane,,Pit Lane,,Birchfield Road,,,,,,NW,E0037851,Upton Rocks,Widnes,,Widnes,EN,Upton Rocks,EN,false,UKOS,351190,387670,-2.73528,53.38361,BCT,MKD,OTH,,,,021,1969-12-31T00:00:00,1969-12-31T23:00:00,0,new,active
068000000301,haladpmt,,,Pit Lane,,Pit Lane,,Pit Lane,,Birchfield Road,,,,,,SE,E0037822,Farnworth,Widnes,,Widnes,EN,Farnworth,EN,false,UKOS,351243,387604,-2.73447,53.38302,BCT,MKD,OTH,,,,021,1969-12-31T00:00:00,1969-12-31T23:00:00,0,new,active
068000000302,haladpmw,,,Buckingham Avenue,,Buckingham Ave,,Buckingham Ave,,Birchfield Road,,,,,,N,E0037851,Upton Rocks,Widnes,,Widnes,EN,Upton Rocks,EN,false,UKOS,351072,388001,-2.7371,53.38657,BCT,MKD,OTH,,,,021,1969-12-31T00:00:00,1969-12-31T23:00:00,0,new,active
068000000283,haladpgw,,,Cypress Avenue,,Cypress Avenue,,Cypress Ave,,Lockett Road,,,,,,E,E0037805,Appleton,Widnes,,Widnes,EN,Appleton,EN,false,UKOS,351762,387059,-2.72659,53.37817,BCT,MKD,OTH,,,,021,1969-12-31T00:00:00,1969-12-31T23:00:00,0,new,active
068000000268,haladpaw,,,Lytham Road,,Lytham Road,,Lytham Rd,,Peelhouse Lane,,,,,,N,E0037805,Appleton,Widnes,,Widnes,EN,Appleton,EN,false,UKOS,351903,386907,-2.72444,53.37682,BCT,MKD,OTH,,,,021,1969-12-31T00:00:00,1969-12-31T23:00:00,0,new,active
068000000269,haladpda,,,Lytham Road,,Lytham Road,,Lytham Rd,,Peelhouse Lane,,,,,,S,E0037805,Appleton,Widnes,,Widnes,EN,Appleton,EN,false,UKOS,351919,386872,-2.7242,53.3765,BCT,MKD,OTH,,,,021,1969-12-31T00:00:00,1969-12-31T23:00:00,0,new,active
068000000270,haladpdg,,,Fairfield High,,Fairfield High,,Fairfield High,,Peel House Lane,,,,,,N,E0037805,Appleton,Widnes,,Widnes,EN,Appleton,EN,false,UKOS,351873,387130,-2.72493,53.37882,BCT,MKD,OTH,,,,021,1969-12-31T00:00:00,2017-07-31T13:26:15,10,new,active
068000000271,haladpdj,,,Fairfield High,,Fairfield High,,Fairfield High,,Peel House Lane,,,,,,S,E0037805,Appleton,Widnes,,Widnes,EN,Appleton,EN,false,UKOS,351890,387120,-2.72467,53.37873,BCT,MKD,OTH,,,,021,1969-12-31T00:00:00,2017-07-31T13:26:28,11,new,active
068000000266,haladpap,,,Barracks,,Barracks,,Barracks,,Peelhouse Lane,,,,,,N,E0037805,Appleton,Widnes,,Widnes,EN,Appleton,EN,false,UKOS,351927,386701,-2.72405,53.37497,BCT,MKD,OTH,,,,021,1969-12-31T00:00:00,2024-05-03T16:25:00,13,new,active
068000000267,haladpat,,,Barracks,,Barracks,,Barracks,,Peelhouse Lane,,,,,,S,E0037805,Appleton,Widnes,,Widnes,EN,Appleton,EN,false,UKOS,351945,386670,-2.72378,53.37469,BCT,MKD,OTH,,,,021,1969-12-31T00:00:00,1969-12-31T23:00:00,0,new,active
068000000263,haladpag,,,Harris Shop,,Harris's,,Harris Shop,,Albert Road,,,,,,N,E0037805,Appleton,Widnes,,Widnes,EN,Appleton,EN,false,UKOS,351848,386095,-2.72515,53.36951,BCT,MKD,OTH,,,,021,1969-12-31T00:00:00,1969-12-31T23:00:00,0,new,active
068000000264,haladpaj,,,Peelhouse Lane,,Peelhouse Lane,,Peelhouse Lane,,Albert Road,,,,,,NE,E0037805,Appleton,Widnes,,Widnes,EN,Appleton,EN,false,UKOS,351967,386255,-2.72338,53.37096,BCT,MKD,OTH,,,,021,1969-12-31T00:00:00,2019-09-20T13:43:54,4,new,active
068000000265,haladpam,,,Peelhouse Lane,,Peelhouse Lane,,Peelhouse Lane,,B5178 Albert Road,,,,,,SW,E0037805,Appleton,Widnes,,Widnes,EN,Appleton,EN,false,UKOS,352050,386240,-2.72213,53.37083,BCT,MKD,OTH,,,,021,1969-12-31T00:00:00,1969-12-31T23:00:00,0,new,active
068000000272,haladpdm,,,Appleton Village,,Appleton,,Appleton Village,,Appleton Village,,,,,,W,E0037853,Victoria Park,Appleton,,Widnes,EN,Victoria Park,EN,false,UKOS,351471,386347,-2.73085,53.37174,BCT,MKD,OTH,,,,021,1969-12-31T00:00:00,1969-12-31T23:00:00,0,new,active
068000000273,haladpdp,,,Appleton Village,,Appleton,,Appleton Village,,Appleton Village,,,,,,NE,E0037853,Victoria Park,Appleton,,Widnes,EN,Victoria Park,EN,false,UKOS,351505,386355,-2.73034,53.37182,BCT,MKD,OTH,,,,021,1969-12-31T00:00:00,1969-12-31T23:00:00,0,new,active
068000000279,haladpgj,,,Lockett Road,,Victoria Park,,Lockett Rd,,Lockett Road,,,,,,E,E0037853,Victoria Park,Appleton,,Widnes,EN,Victoria Park,EN,false,UKOS,351382,386996,-2.73229,53.37757,BCT,MKD,OTH,,,,021,1969-12-31T00:00:00,1969-12-31T23:00:00,0,new,active
068000000280,haladpgm,,,Lockett Road,,Victoria Park,,Lockett Rd,,Lockett Road,,,,,,W,E0037853,Victoria Park,Appleton,,Widnes,EN,Victoria Park,EN,false,UKOS,351346,386980,-2.73283,53.37742,BCT,MKD,OTH,,,,021,1969-12-31T00:00:00,1969-12-31T23:00:00,0,new,active
068000000281,haladpgp,,,Fairfield Road,,Fairfield Road,,Fairfield Rd,,Lockett Road,,,,,,E,E0037853,Victoria Park,Appleton,,Widnes,EN,Victoria Park,EN,false,UKOS,351575,387025,-2.72939,53.37785,BCT,MKD,OTH,,,,021,1969-12-31T00:00:00,1969-12-31T23:00:00,0,new,active
068000000282,haladpgt,,,Fairfield Road,,Fairfield Road,,Fairfield Rd,,Lockett Road,,,,,,W,E0037853,Victoria Park,Appleton,,Widnes,EN,Victoria Park,EN,false,UKOS,351577,387014,-2.72936,53.37775,BCT,MKD,OTH,,,,021,1969-12-31T00:00:00,1969-12-31T23:00:00,0,new,active
068000000277,haladpgd,,,Birchfield Road,,Victoria Park,,Birchfield Rd,,Birchfield Road,,,,,,S,E0037853,Victoria Park,Appleton,,Widnes,EN,Victoria Park,EN,false,UKOS,351297,386912,-2.73355,53.3768,BCT,MKD,OTH,,,,021,1969-12-31T00:00:00,1969-12-31T23:00:00,0,new,active
068000000274,haladpdt,,,Wade Deacon,,Wade Deacon,,Wade Deacon,,Birchfield Road,,,,,,N,E0037860,Widnes,,,Widnes,EN,Widnes,EN,false,UKOS,351292,386780,-2.73361,53.37562,BCT,MKD,OTH,,,,021,1969-12-31T00:00:00,1969-12-31T23:00:00,0,new,active
068000000275,haladpdw,,,Horse & Jockey,,Horse & Jockey,,Horse & Jockey,,Birchfield Road,,,,,,S,E0037853,Victoria Park,Appleton,,Widnes,EN,Victoria Park,EN,false,UKOS,351337,386535,-2.73289,53.37342,BCT,MKD,OTH,,,,021,1969-12-31T00:00:00,1969-12-31T23:00:00,0,new,active
068000000276,haladpga,,,Birchfield Road,,Victoria Park,,Birchfield Rd,,Birchfield Road,,,,,,N,E0037860,Widnes,,,Widnes,EN,Widnes,EN,false,UKOS,351281,386939,-2.7338,53.37705,BCT,MKD,OTH,,,,021,1969-12-31T00:00:00,1969-12-31T23:00:00,0,new,active
068000000389,halpmawm,,,Green Oaks Path,,Green Oaks Path,,Green Oaks Path,,Warrington Road,,,,Adj,,NE,E0037860,Widnes,,,Widnes,EN,Widnes,EN,false,UKOS,352492,386019,-2.71546,53.36889,BCT,MKD,OTH,,,,021,1969-12-31T00:00:00,1969-12-31T23:00:00,0,new,active
068000000207,haladmdw,,,Widnes Rec.,,Widnes Rec.,,Widnes Rec.,,Liverpool Road,,,,,,NW,E0037807,Ball ODitton,Ditton,,Widnes,EN,Ball O'Ditton,EN,false,UKOS,350412,386260,-2.74675,53.37086,BCT,MKD,OTH,,,,021,1969-12-31T00:00:00,2017-10-18T09:47:25,4,new,active
068000000208,haladmga,,,Widnes Rec.,,Widnes Rec.,,Widnes Rec.,,,,,,,,SE,E0037807,Ball ODitton,Ditton,,Widnes,EN,Ball O'Ditton,EN,false,UKOS,350435,386264,-2.74641,53.3709,BCT,MKD,OTH,,,,021,1969-12-31T00:00:00,2017-10-18T09:47:14,4,new,active
068000000209,haladmgd,,,Ball O Ditton,,Ball O Ditton,,Ball O Ditton,,Liverpool Road,,,,,,SW,E0037807,Ball ODitton,Ditton,,Widnes,EN,Ball O'Ditton,EN,false,UKOS,350118,386329,-2.75118,53.37145,BCT,MKD,OTH,,,,021,1969-12-31T00:00:00,1969-12-31T23:00:00,0,new,active
068000000210,haladmgj,,,Ball O Ditton,,Ball O Ditton,,Ball O Ditton,,Liverpool Road,,,,,,NE,E0037807,Ball ODitton,Ditton,,Widnes,EN,Ball O'Ditton,EN,false,UKOS,350134,386342,-2.75094,53.37157,BCT,MKD,OTH,,,,021,1969-12-31T00:00:00,1969-12-31T23:00:00,0,new,active
068000000211,haladmgm,,,Chesnut Lodge,,Chesnut Lodge,,Chesnut Lodge,,Liverpool Road,,,,,,SW,E0037807,Ball ODitton,Ditton,,Widnes,EN,Ball O'Ditton,EN,false,UKOS,349885,386291,-2.75468,53.37109,BCT,MKD,OTH,,,,021,1969-12-31T00:00:00,1969-12-31T23:00:00,0,new,active
068000000212,haladmgp,,,Chesnut Lodge,,Chesnut Lodge,,Chesnut Lodge,,B5178 Liverpool Road,,,,,,E,E0037807,Ball ODitton,Ditton,,Widnes,EN,Ball Oditton,EN,false,UKOS,349942,386315,-2.75382,53.37131,BCT,MKD,OTH,,,,021,1969-12-31T00:00:00,1969-12-31T23:00:00,0,new,active
068000000196,haladmaw,,,The Albion,,The Albion,,The Albion,,Lowerhouse Lane,,,,,,S,E0037860,Widnes,,,Widnes,EN,Widnes,EN,false,UKOS,350898,386137,-2.73943,53.3698,BCT,MKD,OTH,,,,021,1969-12-31T00:00:00,1969-12-31T23:00:00,0,new,active
068000000205,haladmdp,,,The Albion,,The Albion,,The Albion,,Liverpool Road,,,,,,W,E0037860,Widnes,,,Widnes,EN,Widnes,EN,false,UKOS,350824,386224,-2.74055,53.37058,BCT,MKD,OTH,,,,021,1969-12-31T00:00:00,2024-05-13T15:38:36,51,new,active
068000000206,haladmdt,,,The Albion,,The Albion,,The Albion,,Leigh Avenue,,,,,,E,E0037860,Widnes,,,Widnes,EN,Widnes,EN,false,UKOS,350987,386229,-2.73811,53.37064,BCT,MKD,OTH,,,,021,1969-12-31T00:00:00,2019-01-03T07:48:28,4,new,active
068000000201,haladmda,,,Leigh Avenue,,Appleton Vill,,Leigh Ave,,Leigh Avenue,,,,,,W,E0037860,Widnes,,,Widnes,EN,Widnes,EN,false,UKOS,351492,386168,-2.73051,53.37014,BCT,MKD,OTH,,,,021,1969-12-31T00:00:00,1969-12-31T23:00:00,0,new,active
068000000203,haladmdj,,,Leigh Avenue,,Leigh Avenue,,Leigh Ave,,Leogh Avenue,,,,,,W,E0037860,Widnes,,,Widnes,EN,Widnes,EN,false,UKOS,351274,386189,-2.73379,53.3703,BCT,MKD,OTH,,,,021,1969-12-31T00:00:00,1969-12-31T23:00:00,0,new,active
068000000204,haladmdm,,,Leigh Avenue,,Leigh Ave,,Leigh Ave,,Leigh Avenue,,,,,,E,E0037860,Widnes,,,Widnes,EN,Widnes,EN,false,UKOS,351250,386207,-2.73415,53.37046,BCT,MKD,OTH,,,,021,1969-12-31T00:00:00,1969-12-31T23:00:00,0,new,active
068000000202,haladmdg,,,Leigh Avenue,,Appleton Vill,,Leigh Ave,,Leigh Avenue,,,,,,SE,E0037805,Appleton,Widnes,,Widnes,EN,Appleton,EN,false,UKOS,351506,386183,-2.7303,53.37027,BCT,MKD,OTH,,,,021,1969-12-31T00:00:00,2016-10-05T14:21:19,4,new,active
068000000419,haladwjm,,,Windmill Shopping Park,,John Briggs,,Widnes Shopping Park,,Gerrard Street,,,,o/s,,E,E0037844,Simms Cross,Widnes,,Widnes,EN,Simms Cross,EN,false,UKOS,351802,385640,-2.72577,53.36542,BCT,MKD,OTH,,,,021,1969-12-31T00:00:00,2020-11-10T15:14:16,10,new,active
068000000424,halagmpw,,,VINE STREET,,ASDA,,Vine Street,,Widnes Road,,,,,,N,E0037860,Widnes,,,Widnes,EN,Widnes,EN,false,UKOS,351519,385592,-2.73001,53.36496,BCT,MKD,OTH,,,,021,1969-12-31T00:00:00,1969-12-31T23:00:00,0,new,active
068000000451,halagmta,,,WIDNES TOWN HALL,,Vicarage rd,,Town Hall,,Widnes Road,,,,,,NE,E0037860,Widnes,,,Widnes,EN,Widnes,EN,false,UKOS,351446,385436,-2.73109,53.36355,BCT,MKD,OTH,,,,021,1969-12-31T00:00:00,1969-12-31T23:00:00,0,new,active
068000000454,halagmtg,,,WIDNES TOWN HALL,,Vicarage rd,,Town Hall,,Vicarage Road,,,,,,E,E0037860,Widnes,,,Widnes,EN,Widnes,EN,false,UKOS,351398,385386,-2.7318,53.3631,BCT,MKD,OTH,,,,021,1969-12-31T00:00:00,1969-12-31T23:00:00,0,new,active
068000000452,halagmtd,,,Widnes Vicarage Road (alighting Only),,Vicarage Rd,,Vicarage Road,,Vicarage Road,,,,,,E,E0037860,Widnes,,,Widnes,EN,Widnes,EN,false,UKOS,351326,385390,-2.73288,53.36313,BCT,MKD,OTH,,,,021,1969-12-31T00:00:00,1969-12-31T23:00:00,0,new,active
068000000413,haladwgp,,,Milton Road,,ASDA,,Milton Rd,,Milton Road,,,,,,SW,E0037860,Widnes,,,Widnes,EN,Widnes,EN,false,UKOS,351481,385682,-2.7306,53.36577,BCT,MKD,OTH,,,,021,1969-12-31T00:00:00,1969-12-31T23:00:00,0,new,active
068000000261,haladmwt,,,The Bradley,,The Bradley,,The Bradley,,Deacon Road,,,,,,W,E0037860,Widnes,,,Widnes,EN,Widnes,EN,false,UKOS,351834,386032,-2.72535,53.36895,BCT,MKD,OTH,,,,021,1969-12-31T00:00:00,1969-12-31T23:00:00,0,new,active
068000000262,haladpad,,,Bradley Way,,Bradley Way,,Bradley Way,,Bradley Way,,,,,,NE,E0037805,Appleton,Widnes,,Widnes,EN,Appleton,EN,false,UKOS,351943,386095,-2.72372,53.36952,BCT,MKD,OTH,,,,021,1969-12-31T00:00:00,1969-12-31T23:00:00,0,new,active
068000000401,haladwga,,,Green Oaks,,Green Oaks,,Green Oaks,,Town Centre,,,,,,SW,E0037860,Widnes,,,Widnes,EN,Widnes,EN,false,UKOS,352022,385971,-2.72251,53.36841,BCT,MKD,OTH,,,,021,1969-12-31T00:00:00,2024-02-02T09:03:01,0,new,active
068000000402,halagmpm,,,Green Oaks,,Green Oaks,,Green Oaks,,Green Oaks,,,,,,SW,E0037860,Widnes,,,Widnes,EN,Widnes,EN,false,UKOS,352001,385969,-2.72283,53.36839,BCT,MKD,OTH,,,,021,1969-12-31T00:00:00,2024-02-02T09:03:19,0,new,active
068000000403,haladwgd,,,Green Oaks,,Green Oaks,,Green Oaks,,Town Centre,,,,,,NE,E0037860,Widnes,,,Widnes,EN,Widnes,EN,false,UKOS,352039,385970,-2.72226,53.36841,BCT,MKD,OTH,,,,021,1969-12-31T00:00:00,1969-12-31T23:00:00,0,new,active
06800000503B,halagtap,,,RUNCORN HIGH STREET- STAND C,,Runcorn High Street,,High Street,,Public Hall Street,,,,,,W,E0037841,Runcorn,,,Runcorn,EN,Runcorn,EN,false,UKOS,351347,383005,-2.7322,53.34169,BCT,MKD,OTH,,,,021,1969-12-31T00:00:00,2017-06-19T17:23:07,7,new,active
06800000503A,halagtam,,,RUNCORN HIGH STREET- STAND C,,,,,,Public Hall Street,,,,,,W,E0037841,Runcorn,,,,,,,false,UKOS,351332,382999,-2.73242,53.34164,BCT,MKD,OTH,,,,021,1969-12-31T00:00:00,2017-06-19T17:22:49,7,delete,inactive
068000000147,haladjgp,,,New Inn,,New Inn,,New Inn,,Hale Road,,,,,,S,E0037819,Ditton,Widnes,,Widnes,EN,Ditton,EN,false,UKOS,349043,385134,-2.76714,53.36061,BCT,MKD,OTH,,,,021,1969-12-31T00:00:00,1969-12-31T23:00:00,0,new,active
068000000148,haladjgt,,,New Inn,,New Inn,,New Inn,,Hale Road,,,,,,NE,E0037819,Ditton,Widnes,,Widnes,EN,Ditton,EN,false,UKOS,349045,385156,-2.76712,53.36081,BCT,MKD,OTH,,,,021,1969-12-31T00:00:00,1969-12-31T23:00:00,0,new,active
068000000149,haladjgw,,,Marshgate,,Marshgate,,Marshgate,,Hale Road,,,,,,S,E0037830,Ditton Marsh,Ditton,,Widnes,EN,Ditton Marsh,EN,false,UKOS,349026,384964,-2.76737,53.35908,BCT,MKD,OTH,,,,021,1969-12-31T00:00:00,2019-01-03T07:52:55,3,new,active
068000000145,haladjgj,,,St. Michaels,,St. Michaels,,St. Michaels,,Hale Road,,,,,,SW,E0037819,Ditton,Widnes,,Widnes,EN,Ditton,EN,false,UKOS,349227,385300,-2.76441,53.36212,BCT,MKD,OTH,,,,021,1969-12-31T00:00:00,1969-12-31T23:00:00,0,new,active
068000000146,haladjgm,,,St. Michaels,,St. Michaels,,St. Michaels,,Hale Road,,,,,,NE,E0037819,Ditton,Widnes,,Widnes,EN,Ditton,EN,false,UKOS,349348,385427,-2.76261,53.36327,BCT,MKD,OTH,,,,021,1969-12-31T00:00:00,1969-12-31T23:00:00,0,new,active
068000000150,haladjma,,,St. Michaels,,St. Michaels,,St. Michaels,,Ditchfield Road,,,,,,NW,E0037819,Ditton,Widnes,,Widnes,EN,Ditton,EN,false,UKOS,349221,385400,-2.76451,53.36302,BCT,MKD,OTH,,,,021,1969-12-31T00:00:00,1969-12-31T23:00:00,0,new,active
068000000151,haladjmd,,,Wyncroft Road,,Wyncroft Rd,,Wyncroft Rd,,Dichfield Road,,,,,,NW,E0037819,Ditton,Widnes,,Widnes,EN,Ditton,EN,false,UKOS,348956,385509,-2.76851,53.36397,BCT,MKD,OTH,,,,021,1969-12-31T00:00:00,1969-12-31T23:00:00,0,new,active
068000000152,haladjmg,,,Wyncroft Road,,Wyncroft Rd,,Wyncroft Rd,,Ditchfield Road,,,,,,SE,E0037819,Ditton,Widnes,,Widnes,EN,Ditton,EN,false,UKOS,349017,385510,-2.76759,53.36399,BCT,MKD,OTH,,,,021,1969-12-31T00:00:00,1969-12-31T23:00:00,0,new,active
068000000141,haladjdt,,,Crossway,,Crossway,,Crossway,,Hale Road,,,,,,SW,E0037819,Ditton,Widnes,,Widnes,EN,Ditton,EN,false,UKOS,349697,385903,-2.75744,53.36759,BCT,MKD,OTH,,,,021,1969-12-31T00:00:00,1969-12-31T23:00:00,0,new,active
068000000142,haladjdw,,,Crossway,,Crossway,,Crossway,,Hale Road,,,,,,NE,E0037819,Ditton,Widnes,,Widnes,EN,Ditton,EN,false,UKOS,349732,386045,-2.75694,53.36887,BCT,MKD,OTH,,,,021,1969-12-31T00:00:00,1969-12-31T23:00:00,0,new,active
068000000187,haladmag,,,Crossway,,Crossway,,Crossway,,Dundalk Road,,,,,,E,E0037819,Ditton,Widnes,,Widnes,EN,Ditton,EN,false,UKOS,349815,385970,-2.75568,53.3682,BCT,MKD,OTH,,,,021,1969-12-31T00:00:00,2017-04-27T14:09:39,8,new,active
068000000143,haladjga,,,Alexander Drive,,Alexander Dr,,Alexander Dr,,Hale Road,,,,,,SW,E0037819,Ditton,Widnes,,Widnes,EN,Ditton,EN,false,UKOS,349636,385774,-2.75834,53.36642,BCT,MKD,OTH,,,,021,1969-12-31T00:00:00,1969-12-31T23:00:00,0,new,active
068000000144,haladjgd,,,Alexander Drive,,Alexander Dr,,Alexander Dr,,Hale Road,,,,,,NE,E0037819,Ditton,Widnes,,Widnes,EN,Ditton,EN,false,UKOS,349639,385807,-2.7583,53.36672,BCT,MKD,OTH,,,,021,1969-12-31T00:00:00,1969-12-31T23:00:00,0,new,active
068000000167,haladjtj,,,Queens Avenue,,Queens Avenue,,Queens Ave,,Coronation Drive,,,,,,SW,E0037819,Ditton,Widnes,,Widnes,EN,Ditton,EN,false,UKOS,348998,385839,-2.76793,53.36694,BCT,MKD,OTH,,,,021,1969-12-31T00:00:00,1969-12-31T23:00:00,0,new,active
068000000168,haladjtm,,,Queens Avenue,,Queens Avenue,,Queens Ave,,Coronation Drive,,,,,,E,E0037819,Ditton,Widnes,,Widnes,EN,Ditton,EN,false,UKOS,349045,385848,-2.76723,53.36703,BCT,MKD,OTH,,,,021,1969-12-31T00:00:00,1969-12-31T23:00:00,0,new,active
068000000169,haladjtp,,,Coronet Way,,Coronet Way,,Coronet Way,,Coronation Drive,,,,,,SW,E0037819,Ditton,Widnes,,Widnes,EN,Ditton,EN,false,UKOS,348708,385732,-2.77227,53.36595,BCT,MKD,OTH,,,,021,1969-12-31T00:00:00,1969-12-31T23:00:00,0,new,active
068000000170,haladjtw,,,Coronet Way,,Coronet Way,,Coronet Way,,Coronation Drive,,,,,,NE,E0037819,Ditton,Widnes,,Widnes,EN,Ditton,EN,false,UKOS,348749,385787,-2.77167,53.36645,BCT,MKD,OTH,,,,021,1969-12-31T00:00:00,1969-12-31T23:00:00,0,new,active
068000000154,haladjmp,,,Ditchfield Place,,Ditchfield Place,,Ditchfield Place,,Ditchfield Road,,,,,,NW,E0037819,Ditton,Widnes,,Widnes,EN,Ditton,EN,false,UKOS,348702,385559,-2.77234,53.3644,BCT,MKD,OTH,,,,021,1969-12-31T00:00:00,2020-01-28T10:53:44,4,new,active
068000000155,haladjmt,,,Ditchfield Place,,Ditchfield Place,,Ditchfield Place,,Ditchfield Road,,,,,,SE,E0037819,Ditton,Widnes,,Widnes,EN,Ditton,EN,false,UKOS,348704,385566,-2.77231,53.36446,BCT,MKD,OTH,,,,021,1969-12-31T00:00:00,2020-01-28T10:53:52,4,new,active
068000000171,haladjwa,,,Ditchfield Place,,Ditchfield Place,,Ditchfield Place,,Coronation Drive,,,,,,S,E0037819,Ditton,Widnes,,Widnes,EN,Ditton,EN,false,UKOS,348665,385609,-2.7729,53.36484,BCT,MKD,OTH,,,,021,1969-12-31T00:00:00,1969-12-31T23:00:00,0,new,active
068000000172,haladjwd,,,Ditchfield Place,,Ditchfield Place,,Ditchfield Place,,Coronation Drive,,,,,,N,E0037819,Ditton,Widnes,,Widnes,EN,Ditton,EN,false,UKOS,348656,385615,-2.77304,53.3649,BCT,MKD,OTH,,,,021,1969-12-31T00:00:00,1969-12-31T23:00:00,0,new,active
068000000163,haladjpw,,,Blundell Arms,,Blundell Arms,,Blundell Arms,,Coronation Drive,,,,,,NW,E0037819,Ditton,Widnes,,Widnes,EN,Ditton,EN,false,UKOS,349400,385706,-2.76187,53.36579,BCT,MKD,OTH,,,,021,1969-12-31T00:00:00,1969-12-31T23:00:00,0,new,active
068000000164,haladjta,,,Blundell Arms,,Blundell Arms,,Blundell Arms,,Coronation Drive,,,,,,SW,E0037819,Ditton,Widnes,,Widnes,EN,Ditton,EN,false,UKOS,349447,385666,-2.76116,53.36543,BCT,MKD,OTH,,,,021,1969-12-31T00:00:00,1969-12-31T23:00:00,0,new,active
068000000165,haladjtd,,,Borrowdale Road,,Borrowdale Rd,,Borrowdale Rd,,Coronation Drive,,,,,,W,E0037819,Ditton,Widnes,,Widnes,EN,Ditton,EN,false,UKOS,349224,385807,-2.76453,53.36668,BCT,MKD,OTH,,,,021,1969-12-31T00:00:00,1969-12-31T23:00:00,0,new,active
068000000166,haladjtg,,,Borrowdale Road,,Borrowdale Rd,,Borrowdale Rd,,Coronation Drive,,,,,,SE,E0037819,Ditton,Widnes,,Widnes,EN,Ditton,EN,false,UKOS,349293,385797,-2.76349,53.36659,BCT,MKD,OTH,,,,021,1969-12-31T00:00:00,1969-12-31T23:00:00,0,new,active
068000000461,halagmtm,,,KINGSWAY HOTEL,,Kingsway Hotel,,National Express stop only,,Victoria Road,,,,,,S,E0037860,Widnes,,,Widnes,EN,Widnes,EN,false,UKOS,351225,385162,-2.73436,53.36107,BCT,MKD,OTH,,,,021,1969-12-31T00:00:00,1969-12-31T23:00:00,0,new,active
068000000582,halagadp,,,Runcorn Station,,Runcorn Stn.,,Runcorn Station,,Queensway,,,,,,N,E0037841,Runcorn,,,Runcorn,EN,Runcorn,EN,false,UKOS,350903,382802,-2.73884,53.33983,BCT,MKD,OTH,,,,021,1969-12-31T00:00:00,2021-03-03T10:33:35,11,new,active
068000000583,halagadt,,,Runcorn Station,,Runcorn Station,,Station Road,,Picow Farm Road,,,,,,SE,E0037841,Runcorn,,,Runcorn,EN,Runcorn,EN,false,UKOS,350921,382738,-2.73855,53.33925,BCT,MKD,OTH,,,,021,1969-12-31T00:00:00,2024-06-11T14:53:54,51,new,active
068000000584,halagadw,,,Runcorn Station,,Runcorn Station,,Station Road,,Picow Farm Road,,,,,,NE,E0037841,Runcorn,,,Runcorn,EN,Runcorn,EN,false,UKOS,350917,382743,-2.73862,53.3393,BCT,MKD,OTH,,,,021,1969-12-31T00:00:00,2024-06-11T14:53:49,29,new,active
068000001002,,,,Runcorn Station,,,,,,,,,,,,NE,E0037841,Runcorn,,,,,,,false,UKOS,350947,382692,-2.73816,53.33884,BCT,MKD,OTH,,,,021,2019-10-14T00:00:00,2024-06-11T15:11:38,144,delete,inactive
068000000586,halagagd,,,York Street,,York St,,York St,,Greenway Road,,,,,,S,E0037841,Runcorn,,,Runcorn,EN,Runcorn,EN,false,UKOS,351147,382584,-2.73514,53.33789,BCT,MKD,OTH,,,,021,1969-12-31T00:00:00,1969-12-31T23:00:00,0,new,active
068000000587,halagagj,,,Bonton,,Bonton,,Bonton,,Greenway Road,,,,,,N,E0037841,Runcorn,,,Runcorn,EN,Runcorn,EN,false,UKOS,351100,382436,-2.73582,53.33656,BCT,MKD,OTH,,,,021,1969-12-31T00:00:00,1969-12-31T23:00:00,0,new,active
068000000588,halagagm,,,Cenotaph,,Cenotaph,,Cenotaph,,Greenway Road,,,,,,S,E0037841,Runcorn,,,Runcorn,EN,Runcorn,EN,false,UKOS,350979,382186,-2.7376,53.3343,BCT,MKD,OTH,,,,021,1969-12-31T00:00:00,1969-12-31T23:00:00,0,new,active
068000000589,halagagp,,,Cenotaph,,Cenotaph,,Cenotaph,,Greenway Road,,,,,,NE,E0037841,Runcorn,,,Runcorn,EN,Runcorn,EN,false,UKOS,350955,382178,-2.73796,53.33422,BCT,MKD,OTH,,,,021,1969-12-31T00:00:00,1969-12-31T23:00:00,0,new,active
068000000572,haladwtm,,,Brackendale,,Brackendale,,Brackendale,,Halton Brook Avenue,,,,,,N,E0037823,Halton Brook,Runcorn,,Runcorn,EN,Halton Brook,EN,false,UKOS,353053,381875,-2.70641,53.33169,BCT,MKD,OTH,,,,021,1969-12-31T00:00:00,1969-12-31T23:00:00,0,new,active
068000000573,haladwtp,,,Brackendale,,Brackendale,,Brackendale,,Halton Brook Avenue,,,,,,S,E0037823,Halton Brook,Runcorn,,Runcorn,EN,Halton Brook,EN,false,UKOS,353061,381872,-2.70629,53.33167,BCT,MKD,OTH,,,,021,1969-12-31T00:00:00,1969-12-31T23:00:00,0,new,active
068000000574,haladwtw,,,The Tithings,,The Tithings,,The Tithings,,Halton Brook Avenue,,,,,,NW,E0037823,Halton Brook,Runcorn,,Runcorn,EN,Halton Brook,EN,false,UKOS,353157,382036,-2.70487,53.33315,BCT,MKD,OTH,,,,021,1969-12-31T00:00:00,1969-12-31T23:00:00,0,new,active
068000000575,halagada,,,The Tithings,,The Tithings,,The Tithings,,Halton Brook Avenue,,,,,,SE,E0037823,Halton Brook,Runcorn,,Runcorn,EN,Halton Brook,EN,false,UKOS,353163,382066,-2.70479,53.33342,BCT,MKD,OTH,,,,021,1969-12-31T00:00:00,1969-12-31T23:00:00,0,new,active
068000000576,halagadg,,,Penfolds,,Penfolds,,Penfolds,,Halton Brook Avenue,,,,,,SW,E0037823,Halton Brook,Runcorn,,Runcorn,EN,Halton Brook,EN,false,UKOS,352975,382316,-2.70765,53.33565,BCT,MKD,OTH,,,,021,1969-12-31T00:00:00,1969-12-31T23:00:00,0,new,active
068000000577,halagadj,,,Penfolds,,Penfolds,,Penfolds,,Halton Brook Avenue,,,,,,NE,E0037823,Halton Brook,Runcorn,,Runcorn,EN,Halton Brook,EN,false,UKOS,352946,382314,-2.70808,53.33563,BCT,MKD,OTH,,,,021,1969-12-31T00:00:00,1969-12-31T23:00:00,0,new,active
068000000581,halagadm,,,Station Road,,Station Road,,Station Road,,Station Road,,,,,,S,E0037841,Runcorn,,,Runcorn,EN,Runcorn,EN,false,UKOS,350912,382806,-2.7387,53.33987,BCT,MKD,OTH,,,,021,1969-12-31T00:00:00,2024-06-11T14:54:46,0,new,active
068000000597,halagajt,,,Heath School,,Heath School,,Heath School,,Clifton Road,,,,,,SE,E0037842,Runcorn Heath,Runcorn,,Runcorn,EN,Runcorn Heath,EN,false,UKOS,351847,380919,-2.72437,53.32299,BCT,MKD,OTH,,,,021,1969-12-31T00:00:00,2024-02-06T13:04:36,0,new,active
068000000598,halagajw,,,Heath School,,Heath School,,Heath School,,Clifton Road,,,,,,NW,E0037842,Runcorn Heath,Runcorn,,Runcorn,EN,Runcorn Heath,EN,false,UKOS,351798,380943,-2.72511,53.3232,BCT,MKD,OTH,,,,021,1969-12-31T00:00:00,1969-12-31T23:00:00,0,new,active
068000000599,halagama,,,Malpas Road,,Malpas Rd,,Malpas Rd,,Clifton Road,,,,,,SE,E0037842,Runcorn Heath,Runcorn,,Runcorn,EN,Runcorn Heath,EN,false,UKOS,352133,380724,-2.72005,53.32126,BCT,MKD,OTH,,,,021,1969-12-31T00:00:00,2024-02-06T12:59:51,0,new,active
068000000600,halagamd,,,Malpas Road,,Malpas Rd,,Malpas Rd,,Clifton Road,,,,,,NW,E0037842,Runcorn Heath,Runcorn,,Runcorn,EN,Runcorn Heath,EN,false,UKOS,352070,380736,-2.721,53.32137,BCT,MKD,OTH,,,,021,1969-12-31T00:00:00,1969-12-31T23:00:00,0,new,active
068000000701,halagdmd,,,Halton Lea North,,Halton Lea North,,Halton Lea North,,Busway,,,,,,E,N0065331,Palace Fields,Runcorn,,Runcorn,EN,Palace Fields,EN,false,UKOS,353651,381528,-2.69738,53.32863,BCT,MKD,OTH,,,,021,1969-12-31T00:00:00,2024-03-25T14:49:53,0,new,active
068000000595,halagajm,,,Golf Course,,Golf Course,,Golf Course,,Clifton Road,,,,,,SE,E0037842,Runcorn Heath,Runcorn,,Runcorn,EN,Runcorn Heath,EN,false,UKOS,351439,381318,-2.73056,53.32654,BCT,MKD,OTH,,,,021,1969-12-31T00:00:00,1969-12-31T23:00:00,0,new,active
068000000596,halagajp,,,Golf Course,,Golf Course,,Golf Course,,Clifton Road,,,,,,NW,E0037842,Runcorn Heath,Runcorn,,Runcorn,EN,Runcorn Heath,EN,false,UKOS,351445,381275,-2.73046,53.32615,BCT,MKD,OTH,,,,021,1969-12-31T00:00:00,1969-12-31T23:00:00,0,new,active
068000000590,halagagt,,,Whitley Close,,Whitley Close,,Whitley Close,,Moughland Lane,,,,,,SE,E0037841,Runcorn,,,Runcorn,EN,Runcorn,EN,false,UKOS,350999,382023,-2.73727,53.33284,BCT,MKD,OTH,,,,021,1969-12-31T00:00:00,1969-12-31T23:00:00,0,new,active
068000000591,halagagw,,,Whitley Close,,Whitley Close,,Whitley Close,,Moughland Lane,,,,,,NW,E0037841,Runcorn,,,Runcorn,EN,Runcorn,EN,false,UKOS,350958,382035,-2.73789,53.33294,BCT,MKD,OTH,,,,021,1969-12-31T00:00:00,1969-12-31T23:00:00,0,new,active
0680TX000006,,,,HALE ROAD,,HALE ROAD,,HALE ROAD,,Hale Road,,,,,,,E0037819,Ditton,Widnes,,Widnes,EN,Ditton,EN,false,UKOS,349492,385712,-2.76049,53.36585,TXR,,,,,,021,1969-12-31T00:00:00,1969-12-31T23:00:00,0,new,active
0680TX000015,,,,HALE ROAD,,HALE ROAD,,HALE ROAD,,Hale Road,,,,,,,E0037819,Ditton,Widnes,,Widnes,EN,Ditton,EN,false,UKOS,349492,385712,-2.76049,53.36585,TXR,,,,,,021,1969-12-31T00:00:00,1969-12-31T23:00:00,0,new,active
068000000593,halagajd,,,Heath Road,,Heath Rd,,Heath Rd,,Moughland Lane,,,,,,SE,E0037841,Runcorn,,,Runcorn,EN,Runcorn,EN,false,UKOS,351330,381600,-2.73224,53.32906,BCT,MKD,OTH,,,,021,1969-12-31T00:00:00,1969-12-31T23:00:00,0,new,active
068000000594,halagajg,,,Heath Road,,Heath Rd,,Heath Rd,,Moughland Lane,,,,,,NW,E0037841,Runcorn,,,Runcorn,EN,Runcorn,EN,false,UKOS,351286,381673,-2.73291,53.32972,BCT,MKD,OTH,,,,021,1969-12-31T00:00:00,1969-12-31T23:00:00,0,new,active
068000000475,halagpap,,,Irwell Street/the Bridge,,The Bridge,,The Bridge,,,,,,,,SE,E0037856,West Bank,Widnes,,Widnes,EN,West Bank,EN,false,UKOS,351052,383971,-2.73678,53.35035,BCT,MKD,OTH,,,,021,2023-12-07T00:00:00,2024-05-23T10:44:29,0,new,active
068000000476,halagpat,,,Irwell Street/the Bridge,,The Bridge,,The Bridge,,Irwell Street,,,,,,NW,E0037856,West Bank,Widnes,,Widnes,EN,West Bank,EN,false,UKOS,351011,384032,-2.7374,53.35089,BCT,MKD,OTH,,,,021,2023-12-07T00:00:00,2024-05-23T10:44:29,0,new,active
068000000501,halpmawd,,,Runcorn High Street Bus Station,,Runc High St - St A,,High Street,,Public Hall Street,,,,Stand,,E,E0037841,Runcorn,,,Runcorn,EN,Runcorn,EN,false,UKOS,351343,383020,-2.73226,53.34183,BCT,MKD,OTH,,,,021,1969-12-31T00:00:00,2017-06-19T16:52:44,16,new,active
068000000503,halpmawg,,,Runcorn High Street Bus Station,,Runcorn High St- St,,High Street,,Public Hall Street,,,,Stand,,W,E0037841,Runcorn,,,Runcorn,EN,Runcorn,EN,false,UKOS,351338,383006,-2.73233,53.3417,BCT,MKD,OTH,,,,021,1969-12-31T00:00:00,2019-03-22T15:11:12,21,new,active
068000000502,halagpaw,,,RUNCORN HIGH STREET- STAND B,,Runcorn High Street,,High Street,,Public Hall Street,,,,,,E,E0037841,Runcorn,,,Runcorn,EN,Runcorn,EN,false,UKOS,351366,383031,-2.73192,53.34193,BCT,MKD,OTH,,,,021,1969-12-31T00:00:00,2017-06-19T17:00:42,11,new,active
068000000526,halagpjd,,,DELPH BRIDGE,,Delph Bridge,,Delph Bridge,,Heath Road,,,,,,S,E0037841,Runcorn,,,Runcorn,EN,Runcorn,EN,false,UKOS,351846,382897,-2.72469,53.34077,BCT,MKD,OTH,,,,021,1969-12-31T00:00:00,1969-12-31T23:00:00,0,new,active
068000000527,halagpjg,,,DELPH BRIDGE,,Delph Bridge,,Delph Bridge,,Heath Road,,,,,,N,E0037841,Runcorn,,,Runcorn,EN,Runcorn,EN,false,UKOS,351822,382867,-2.72504,53.3405,BCT,MKD,OTH,,,,021,1969-12-31T00:00:00,1969-12-31T23:00:00,0,new,active
068000000462,halagmtp,,,DOCTORS PUB,,Doctors Pub,,Doctors Pub,,,,,,,,N,E0037860,Widnes,,,Widnes,EN,Widnes,EN,false,UKOS,351214,385170,-2.73453,53.36114,BCT,MKD,OTH,,,,021,1969-12-31T00:00:00,1969-12-31T23:00:00,0,new,active
068000000464,halagmwa,,,ASHLEY WAY,,Ashley Way,,Ashley way,,Victoria Road,,,,,,N,E0037860,Widnes,,,Widnes,EN,Widnes,EN,false,UKOS,351162,385011,-2.73529,53.35971,BCT,MKD,OTH,,,,021,1969-12-31T00:00:00,1969-12-31T23:00:00,0,new,active
068000000465,halagmwd,,,ASHLEY WAY,,Ashley Way,,Ashley way,,Victoria Road,,,,,,S,E0037860,Widnes,,,Widnes,EN,Widnes,EN,false,UKOS,351204,384904,-2.73464,53.35875,BCT,MKD,OTH,,,,021,1969-12-31T00:00:00,2017-10-17T08:27:40,1,new,active
068000000466,halagmwg,,,WATERLOO CENTRE,,Waterloo Centre,,Waterloo Centre,,Victoria Road,,,,,,NW,E0037854,Waterloo,Widnes,,Widnes,EN,Waterloo,EN,false,UKOS,351194,384888,-2.73479,53.3586,BCT,MKD,OTH,,,,021,1969-12-31T00:00:00,2017-10-16T14:19:39,6,new,active
068000000467,halagmwj,,,WATERLOO CENTRE,,Waterloo Centre,,Waterloo Centre,,Waterloo Road,,,,,,SE,E0037854,Waterloo,Widnes,,Widnes,EN,Waterloo,EN,false,UKOS,351228,384568,-2.73423,53.35573,BCT,MKD,OTH,,,,021,1969-12-31T00:00:00,2024-05-13T15:58:10,84,new,active
068000000474,halagpam,,,WEST BANK STREET,,West Bank St,,West Bank Street,,Waterloo Road,,,,,,NE,E0037854,Waterloo,Widnes,,Widnes,EN,Waterloo,EN,false,UKOS,351087,384317,-2.73631,53.35346,BCT,MKD,OTH,,,,021,1969-12-31T00:00:00,1969-12-31T23:00:00,0,new,active
068000000542,halagptj,,,FESTIVAL WAY,,Festival Way,,Festival Way,,Boston Avenue,,,,,,NE,E0037841,Runcorn,,,Runcorn,EN,Runcorn,EN,false,UKOS,352064,381937,-2.72127,53.33216,BCT,MKD,OTH,,,,021,1969-12-31T00:00:00,1969-12-31T23:00:00,0,new,active
068000000543,halagptm,,,FESTIVAL WAY,,Festival Way,,Festival Way,,Boston Avenue,,,,,,SW,E0037841,Runcorn,,,Runcorn,EN,Runcorn,EN,false,UKOS,352113,381945,-2.72053,53.33224,BCT,MKD,OTH,,,,021,1969-12-31T00:00:00,1969-12-31T23:00:00,0,new,active
068000000544,halagptp,,,LATHAM AVENUE,,Latham Avenue,,Latham Avenue,,Boston Avenue,,,,,,NE,E0037823,Halton Brook,Runcorn,,Runcorn,EN,Halton Brook,EN,false,UKOS,352477,382099,-2.71509,53.33365,BCT,MKD,OTH,,,,021,1969-12-31T00:00:00,1969-12-31T23:00:00,0,new,active
068000000545,halagptw,,,LATHAM AVENUE,,Latham Avenue,,Latham Avenue,,Boston Avenue,,,,,,SW,E0037823,Halton Brook,Runcorn,,Runcorn,EN,Halton Brook,EN,false,UKOS,352423,382067,-2.7159,53.33336,BCT,MKD,OTH,,,,021,1969-12-31T00:00:00,1969-12-31T23:00:00,0,new,active
068000000546,halagpwa,,,QUARRY CLOSE,,Quarry Close,,Quarry Close,,Boston Avenue,,,,,,NE,E0037812,Castle Rise,Runcorn,,Runcorn,EN,Castle Rise,EN,false,UKOS,352739,382300,-2.71119,53.33548,BCT,MKD,OTH,,,,021,1969-12-31T00:00:00,1969-12-31T23:00:00,0,new,active
068000000547,halagpwd,,,QUARRY CLOSE,,Quarry Close,,Quarry Close,,Boston Avenue,,,,,,SW,E0037812,Castle Rise,Runcorn,,Runcorn,EN,Castle Rise,EN,false,UKOS,352670,382222,-2.71221,53.33478,BCT,MKD,OTH,,,,021,1969-12-31T00:00:00,1969-12-31T23:00:00,0,new,active
068000000528,halagpjm,,,UNION STREET,,Union Street,,Union Street,,Heath Road,,,,,,S,E0037823,Halton Brook,Runcorn,,Runcorn,EN,Halton Brook,EN,false,UKOS,351781,382558,-2.72561,53.33772,BCT,MKD,OTH,,,,021,1969-12-31T00:00:00,1969-12-31T23:00:00,0,new,active
068000000529,halagpjp,,,UNION STREET,,Union Street,,Union Street,,Heath Road,,,,,,N,E0037823,Halton Brook,Runcorn,,Runcorn,EN,Halton Brook,EN,false,UKOS,351773,382588,-2.72574,53.33799,BCT,MKD,OTH,,,,021,1969-12-31T00:00:00,1969-12-31T23:00:00,0,new,active
068000000530,halagpjt,,,RUNCORN TOWN HALL,,Runcorn Town Hall,,Runcorn Town Hall,,Heath Road,,,,,,SE,E0037841,Runcorn,,,Runcorn,EN,Runcorn,EN,false,UKOS,351786,382240,-2.72549,53.33486,BCT,MKD,OTH,,,,021,1969-12-31T00:00:00,1969-12-31T23:00:00,0,new,active
068000000531,halagpjw,,,RUNCORN TOWN HALL,,Runcorn Town Hall,,Runcorn Town Hall,,Heath Road,,,,,,NW,E0037841,Runcorn,,,Runcorn,EN,Runcorn,EN,false,UKOS,351779,382173,-2.72558,53.33426,BCT,MKD,OTH,,,,021,1969-12-31T00:00:00,1969-12-31T23:00:00,0,new,active
068000000540,halagptd,,,RED ADMIRAL,,Red Admiral,,Red Admiral Pub,,Boston Avenue,,,,,,SE,E0037841,Runcorn,,,Runcorn,EN,Runcorn,EN,false,UKOS,351800,381991,-2.72524,53.33262,BCT,MKD,OTH,,,,021,1969-12-31T00:00:00,1969-12-31T23:00:00,0,new,active
068000000541,halagptg,,,RED ADMIRAL,,Red Admiral,,Red Admiral Pub,,Boston Avenue,,,,,,NW,E0037841,Runcorn,,,Runcorn,EN,Runcorn,EN,false,UKOS,351810,381964,-2.72509,53.33238,BCT,MKD,OTH,,,,021,1969-12-31T00:00:00,1969-12-31T23:00:00,0,new,active
068000000109,haladgpt,,,Halegate Farm,,Halegate Farm,,Halegate Farm,,Hale Gate Road,,,,,,SW,E0037819,Ditton,Widnes,,Widnes,EN,Ditton,EN,false,UKOS,347843,383013,-2.78482,53.34143,BCT,MKD,OTH,,,,021,1969-12-31T00:00:00,1969-12-31T23:00:00,0,new,active
068000000110,haladgpw,,,Halegate Farm,,Halegate Farm,,Halegate Farm,,Hale Gate Road,,,,,,NE,E0037819,Ditton,Widnes,,Widnes,EN,Ditton,EN,false,UKOS,347822,383008,-2.78514,53.34138,BCT,MKD,OTH,,,,021,1969-12-31T00:00:00,1969-12-31T23:00:00,0,new,active
068000000107,haladgpj,,,Garnetts Lane,,Garnetts Lane,,Garnetts Lane,,Hale Gate Road,,,,,,SW,E0037819,Ditton,Widnes,,Widnes,EN,Ditton,EN,false,UKOS,348256,383531,-2.77871,53.34613,BCT,MKD,OTH,,,,021,1969-12-31T00:00:00,1969-12-31T23:00:00,0,new,active
068000000108,haladgpm,,,Garnetts Lane,,Garnetts Lane,,Garnetts Lane,,Hale Gate Road,,,,,,NE,E0037819,Ditton,Widnes,,Widnes,EN,Ditton,EN,false,UKOS,348254,383552,-2.77874,53.34632,BCT,MKD,OTH,,,,021,1969-12-31T00:00:00,1969-12-31T23:00:00,0,new,active
068000000100,,,,Merseyview,,Merseyview,,Merseyview,,Merseyview,,,,,,SW,E0037819,Ditton,Widnes,,Widnes,EN,Ditton,EN,false,UKOS,348582,384025,-2.77389,53.3506,BCT,MKD,OTH,,,,021,1969-12-31T00:00:00,2020-11-09T16:27:19,16,new,active
068000000105,haladgpd,,,Merseyview,,Merseyview,,Merseyview,,Hale Gate Road,,,,,,SW,E0037819,Ditton,Widnes,,Widnes,EN,Ditton,EN,false,UKOS,348465,383796,-2.77561,53.34853,BCT,MKD,OTH,,,,021,1969-12-31T00:00:00,1969-12-31T23:00:00,0,new,active
068000000106,haladgpg,,,Merseyview,,Merseyview,,Merseyview,,Hale Road,,,,,,NE,E0037819,Ditton,Widnes,,Widnes,EN,Ditton,EN,false,UKOS,348566,384012,-2.77413,53.35048,BCT,MKD,OTH,,,,021,1969-12-31T00:00:00,1969-12-31T23:00:00,0,new,active
068000000104,haladgpa,,,Baguley Ave.,,Baguley Ave.,,Baguley Ave.,,Hale Road,,,,,,NE,E0037819,Ditton,Widnes,,Widnes,EN,Ditton,EN,false,UKOS,348647,384081,-2.77292,53.35111,BCT,MKD,OTH,,,,021,1969-12-31T00:00:00,1969-12-31T23:00:00,0,new,active
068000000115,haladgtm,,,Aran Close,,Aran Close,,Aran Close,,High Street,,,,,,NW,E0053152,Hale,Widnes,,Widnes,EN,Hale,EN,false,UKOS,346562,382494,-2.80397,53.33664,BCT,MKD,OTH,,,,021,1969-12-31T00:00:00,1969-12-31T23:00:00,0,new,active
068000000116,haladgtp,,,Aran Close,,Aran Close,,Aran Close,,High Street,,,,,,SE,E0053152,Hale,Widnes,,Widnes,EN,Hale,EN,false,UKOS,346595,382479,-2.80347,53.33651,BCT,MKD,OTH,,,,021,1969-12-31T00:00:00,1969-12-31T23:00:00,0,new,active
068000000113,haladgtg,,,Village Green,,Village Green,,Village Green,,Church End,,,,,,NW,E0053152,Hale,Widnes,,Widnes,EN,Hale,EN,false,UKOS,346881,382305,-2.79915,53.33497,BCT,MKD,OTH,,,,021,1969-12-31T00:00:00,1969-12-31T23:00:00,0,new,active
068000000114,haladgtj,,,Village Green,,Village Green,,Village Green,,High Street,,,,,,N,E0053152,Hale,Widnes,,Widnes,EN,Hale,EN,false,UKOS,346829,382336,-2.79994,53.33525,BCT,MKD,OTH,,,,021,1969-12-31T00:00:00,1969-12-31T23:00:00,0,new,active
068000000111,haladgta,,,The Wellington,,The Wellington,,The Wellington,,,,,,,,S,E0037813,Ciss Green,Hale,,Widnes,EN,Ciss Green,EN,false,UKOS,347007,382662,-2.79732,53.33819,BCT,MKD,OTH,,,,021,1969-12-31T00:00:00,2024-05-13T15:51:48,37,new,active
068000000112,haladgtd,,,The Wellington,,The Wellington,,The Wellington,,Town Lane,,,,,,NE,E0037813,Ciss Green,Hale,,Widnes,EN,Ciss Green,EN,false,UKOS,346957,382568,-2.79805,53.33734,BCT,MKD,OTH,,,,021,1969-12-31T00:00:00,2024-05-13T15:54:29,39,new,active
068000000102,haladgmt,,,Clapgate Crescent,,Clapgate Cres.,,Clapgate Cres.,,Hale Road,,,,,,SW,E0037819,Ditton,Widnes,,Widnes,EN,Ditton,EN,false,UKOS,348720,384176,-2.77184,53.35197,BCT,MKD,OTH,,,,021,1969-12-31T00:00:00,1969-12-31T23:00:00,0,new,active
068000000103,haladgmw,,,Clapgate Crescent,,Clapgate Cres.,,Clapgate Cres.,,Hale Road,,,,,,NE,E0037819,Ditton,Widnes,,Widnes,EN,Ditton,EN,false,UKOS,348804,384349,-2.77061,53.35353,BCT,MKD,OTH,,,,021,1969-12-31T00:00:00,1969-12-31T23:00:00,0,new,active
068000000075,haladgjd,,,Hill Lodge Avenue,,H. Lodge Ave,,H. Lodge Ave,,,,,,,,SE,N0065328,Grange,Runcorn,,Runcorn,EN,Grange,EN,false,UKOS,353045,381648,-2.7065,53.32965,BCT,MKD,OTH,,,,021,1969-12-31T00:00:00,2024-09-16T11:24:04,0,new,active
068000000076,haladgjg,,,Hill Lodge Avenue,,H. Lodge Ave,,H. Lodge Ave,,,,,,,,NW,N0065328,Grange,Runcorn,,Runcorn,EN,Grange,EN,false,UKOS,353042,381635,-2.70654,53.32953,BCT,MKD,OTH,,,,021,1969-12-31T00:00:00,2024-09-16T11:23:58,0,new,active
068000000051,haladatp,,,Halton Hospital,,Halton Hospital,,Halton Hospital,,,,,,,,NW,N0065331,Palace Fields,Runcorn,,Runcorn,EN,Palace Fields,EN,false,UKOS,353959,381086,-2.69269,53.32468,BCT,MKD,OTH,,,,021,1969-12-31T00:00:00,2024-03-25T14:42:48,0,new,active
068000000052,haladatw,,,Halton Hospital,,Halton Hospital,,Halton Hospital,,,,,,,,SE,N0065331,Palace Fields,Runcorn,,Runcorn,EN,Palace Fields,EN,false,UKOS,353943,381101,-2.69293,53.32481,BCT,MKD,OTH,,,,021,1969-12-31T00:00:00,2024-03-25T14:42:40,0,new,active
068000000011,haladada,,,Bridge Street,,Bridge St,,Bridge St,,,,,,,,SW,E0037841,Runcorn,,,Runcorn,EN,Runcorn,EN,false,UKOS,351736,382988,-2.72635,53.34158,BCT,MKD,OTH,,,,021,1969-12-31T00:00:00,2024-06-14T11:10:16,0,new,active
068000000012,haladadg,,,Bridge Street,,Bridge Street,,Bridge Street,,,,,,,,NE,E0037841,Runcorn,,,Runcorn,EN,Runcorn,EN,false,UKOS,351746,383018,-2.72621,53.34185,BCT,MKD,OTH,,,,021,1969-12-31T00:00:00,1969-12-31T23:00:00,0,new,active
068000000077,haladgjm,,,Halton Lodge,,Halton Lodge,,Halton Lodge,,,,,,,,SW,N0065328,Grange,Runcorn,,Runcorn,EN,Grange,EN,false,UKOS,352907,381287,-2.70851,53.32639,BCT,MKD,OTH,,,,021,1969-12-31T00:00:00,1969-12-31T23:00:00,0,new,active
068000000078,haladgjp,,,Halton Lodge,,Halton Lodge,,Halton Lodge,,,,,,,,NE,N0065328,Grange,Runcorn,,Runcorn,EN,Grange,EN,false,UKOS,352890,381262,-2.70877,53.32617,BCT,MKD,OTH,,,,021,1969-12-31T00:00:00,2024-03-25T14:47:52,0,new,active
068000000101,haladgmp,,,Harrison Street,,Harrison St,,Harrison St,,,,,,,,SW,E0037819,Ditton,Widnes,,Widnes,EN,Ditton,EN,false,UKOS,348847,384477,-2.76998,53.35469,BCT,MKD,OTH,,,,021,1969-12-31T00:00:00,1969-12-31T23:00:00,0,new,active
068000000079,haladgjt,,,Handforth Lane,,Handforth Lane,,Handforth Lane,,,,,,,,SW,N0065328,Grange,Runcorn,,Runcorn,EN,Grange,EN,false,UKOS,352629,380920,-2.71263,53.32307,BCT,MKD,OTH,,,,021,1969-12-31T00:00:00,1969-12-31T23:00:00,0,new,active
068000000080,haladgjw,,,Handforth Lane,,Handforth Lane,,Handforth Lane,,,,,,,,NE,N0065328,Grange,Runcorn,,Runcorn,EN,Grange,EN,false,UKOS,352644,380945,-2.71241,53.3233,BCT,MKD,OTH,,,,021,1969-12-31T00:00:00,2024-02-06T13:31:07,0,new,active
068000000118,haladgwa,,,Baileys Lane,,Baileys Lane,,Baileys Lane,,Hale Road,,,,,,E,E0053152,Hale,Widnes,,Widnes,EN,Hale,EN,false,UKOS,345572,382558,-2.81885,53.33711,BCT,MKD,OTH,,,,021,1969-12-31T00:00:00,1969-12-31T23:00:00,0,new,active
068000000119,haladgwd,,,Baileys Lane,,Baileys Lane,,Baileys Lane,,Baileys Lane,,,,,,W,E0053152,Hale,Widnes,,Widnes,EN,Hale,EN,false,UKOS,345428,382571,-2.82101,53.33721,BCT,MKD,OTH,,,,021,1969-12-31T00:00:00,1969-12-31T23:00:00,0,new,active
068000000137,haladjdm,,,Old Station,,Old Station,,Old Station,,Hale Road,,,,,,SW,E0037830,Ditton Marsh,Ditton,,Widnes,EN,Ditton Marsh,EN,false,UKOS,348943,384748,-2.76858,53.35713,BCT,MKD,OTH,,,,021,1969-12-31T00:00:00,1969-12-31T23:00:00,0,new,active
068000000135,haladjdg,,,St Michaels Road,,St Michaels Rd,,St Michaels Rd,,Ditton Road,,,,,,W,E0037830,Ditton Marsh,Ditton,,Widnes,EN,Ditton Marsh,EN,false,UKOS,349421,384852,-2.76142,53.35811,BCT,MKD,OTH,,,,021,1969-12-31T00:00:00,1969-12-31T23:00:00,0,new,active
068000000136,haladjdj,,,St Michaels Road,,St Michaels Rd,,St Michaels Rd,,Ditton Road,,,,,,E,E0037830,Ditton Marsh,Ditton,,Widnes,EN,Ditton Marsh,EN,false,UKOS,349420,384867,-2.76144,53.35825,BCT,MKD,OTH,,,,021,1969-12-31T00:00:00,1969-12-31T23:00:00,0,new,active
068000000131,haladjap,,,McKechnies,,McKechnies,,McKechnies,,Ditton Road,,,,,,W,E0037830,Ditton Marsh,Ditton,,Widnes,EN,Ditton Marsh,EN,false,UKOS,350450,384905,-2.74597,53.35869,BCT,MKD,OTH,,,,021,1969-12-31T00:00:00,1969-12-31T23:00:00,0,new,active
068000000132,haladjat,,,McKechnies,,McKechnies,,McKechnies,,Ditton Road,,,,,,NE,E0037830,Ditton Marsh,Ditton,,Widnes,EN,Ditton Marsh,EN,false,UKOS,350413,384912,-2.74653,53.35875,BCT,MKD,OTH,,,,021,1969-12-31T00:00:00,1969-12-31T23:00:00,0,new,active
068000000133,haladjaw,,,ALCAN,,ALCAN,,ALCAN,,Ditton Road,,,,,,W,E0037830,Ditton Marsh,Ditton,,Widnes,EN,Ditton Marsh,EN,false,UKOS,349962,384875,-2.75329,53.35837,BCT,MKD,OTH,,,,021,1969-12-31T00:00:00,1969-12-31T23:00:00,0,new,active
068000000134,haladjda,,,ALCAN,,ALCAN,,ALCAN,,Ditton Road,,,,,,E,E0037830,Ditton Marsh,Ditton,,Widnes,EN,Ditton Marsh,EN,false,UKOS,349962,384886,-2.7533,53.35847,BCT,MKD,OTH,,,,021,1969-12-31T00:00:00,1969-12-31T23:00:00,0,new,active
068000000138,haladjdp,,,Old Station,,Old Station,,Old Station,,Hale Road,,,,,,NE,E0037819,Ditton,Widnes,,Widnes,EN,Ditton,EN,false,UKOS,348943,384757,-2.76859,53.35721,BCT,MKD,OTH,,,,021,1969-12-31T00:00:00,1969-12-31T23:00:00,0,new,active
068000000120,haladgwg,,,Pickerings Farm,,Pickerings Farm,,Pickerings Farm,,Hale Gate Road,,,,,,SW,E0037819,Ditton,Widnes,,Widnes,EN,Ditton,EN,false,UKOS,348151,383378,-2.78026,53.34474,BCT,MKD,OTH,,,,021,1969-12-31T00:00:00,1969-12-31T23:00:00,0,new,active
068000000404,halagmpj,,,Tesco Store,,,,,,,,,,o/s,,SW,E0037860,Widnes,,,,,,,true,UKOS,351762,385293,-2.72632,53.3623,BCT,MKD,OTH,,,,021,1969-12-31T00:00:00,2020-11-10T16:19:26,7,new,active
068000000253,halagpag,,,Columbine Close,,,,,,,,,,adj,,E,E0037860,Widnes,,,,,,,false,UKOS,348819,387551,-2.7709,53.38231,BCT,MKD,OTH,,,,021,1969-12-31T00:00:00,1969-12-31T23:00:00,0,new,active
068000002,,,,Cheshire And Merseyside Treatment Centre,,,,,,,,,,,,,N0065327,Halton Village,Runcorn,,,,,,false,UKOS,353713,380750,-2.69634,53.32164,BCT,HAR,OTH,,,,021,2025-03-19T14:25:37.3335709Z,2019-09-03T13:20:57,12,new,active
068000001,,,,Halton Hospital (Main Entrance),,,,,,,,,,,,,N0065327,Halton Village,Runcorn,,,,,,false,UKOS,353835,380855,-2.69452,53.32259,BCT,HAR,OTH,,,,021,2025-03-19T14:25:37.356626Z,2019-09-02T16:05:35,9,new,active
068000000691,halagpwp,,,Hanover Court,,,,,,,,,,opp,,NE,N0065332,Brookvale,Runcorn,,,,Runcorn,EN,false,UKOS,354473,380581,-2.6849,53.32019,BCT,MKD,OTH,,,,021,2025-03-19T14:25:37.356626Z,2024-01-11T12:29:34,0,new,active
068000000692,halagtad,,,Hanover Court,,,,,,,,,,adj,,SW,N0065332,Brookvale,Runcorn,,,,Runcorn,EN,false,UKOS,354498,380610,-2.68453,53.32045,BCT,MKD,OTH,,,,021,2025-03-19T14:25:37.3782891Z,2024-03-01T11:33:12,0,new,active
06800000901,,,,Woodland Avenue,,,,,,Highfield Road,,,,o/s,,,E0037805,Appleton,Widnes,,,,,,false,UKOS,350962,386481,-2.73852,53.3729,BCT,HAR,OTH,,,,021,2025-03-19T14:25:37.3782891Z,2019-09-27T10:34:22,8,delete,inactive
068000000898,halagtdg,,,Southern Expressway,,,,,,Chester Road,,,,opp.,,E,E0044437,Sutton Weaver,Frodsham,,Runcorn,EN,Sutton Weaver,EN,false,UKOS,355110,379785,-2.67523,53.31309,BCT,MKD,OTH,,,,021,2025-03-19T14:25:37.4155938Z,2024-01-11T12:29:34,0,new,active
068000000901,,,,Allendale,,,,,,Palace Fields Avenue,,,,adj,,S,N0065331,Palace Fields,Runcorn,,,,,,false,UKOS,354533,380862,-2.68404,53.32272,BCT,MKD,OTH,,,,021,2017-03-15T00:00:00,2019-09-03T13:23:15,20,new,active
068000000902,,,,Wren Close,,,,,,Palace Fields Avenue,,,,adj,,N,N0065331,Palace Fields,Runcorn,,,,,,false,UKOS,354545,380874,-2.68386,53.32283,BCT,MKD,OTH,,,,021,2017-03-15T00:00:00,2019-09-03T13:24:24,16,new,active
068000000880,halagtdp,,,St Georges Court,,St Georges Court,,St Georges Court,,Dundalk Road,,,,adj,,W,E0037819,Ditton,Widnes,,Widnes,EN,Ditton,EN,false,UKOS,349829,385961,-2.75547,53.36812,BCT,MKD,OTH,,,,021,2017-04-27T00:00:00,2017-04-27T14:44:55,27,new,active
068000000904,halagtdt,,,Castlefields,,Castlefields,,Tyrrell Way,,,,,,,,E,N0065327,Halton Village,Runcorn,,Runcorn,EN,Castlefields,EN,false,UKOS,354315,382555,-2.68756,53.33791,BCT,MKD,OTH,,,,021,2017-10-04T00:00:00,2017-10-05T08:57:33,32,new,active
068000000903,halagtdw,,,Castlefields,,Castlefields,,Tyrrell Way,,Tyrrell Way,,,,,,W,N0065327,Halton Village,Runcorn,,Runcorn,EN,Castlefields,EN,false,UKOS,354321,382545,-2.68747,53.33783,BCT,MKD,OTH,,,,021,2017-10-04T00:00:00,2017-10-05T08:56:55,45,new,active
068000000459,halagtga,,,Pitt Street,,Waterloo Road,,Spike Island,,Waterloo Road,,,,adj,,N,E0037854,Waterloo,Widnes,,Widnes,EN,Waterloo,EN,false,UKOS,351219,384549,-2.73436,53.35556,BCT,MKD,OTH,,,,021,2021-02-05T00:00:00,2021-02-05T12:36:43,82,new,active
068000000091,halagtgd,,,St Chads School,,St Chads School,,St Chads School,,,,,,o/s,,N,N0065328,Grange,Runcorn,,Runcorn,EN,Grange,EN,false,UKOS,352861,381166,-2.70919,53.3253,BCT,MKD,OTH,,,,021,2021-04-29T00:00:00,2024-02-06T13:31:44,66,new,active
068000000400,halagtgj,,,Gorsey Lane,,Gorsey Lane,,,,Henry Road,,,,nr,,NE,E0037832,Moss Bank,Widnes,,Widnes,EN,Moss Bank,EN,false,UKOS,353003,386003,-2.70778,53.36879,BCT,MKD,OTH,,,,021,2023-06-27T00:00:00,2023-06-29T12:08:14,98,new,active
068000000733,halpmawt,,,The Holiday Inn,,The Holiday Inn,,The Holiday Inn,,Wood Lane,,,,O/s,,NE,N0065330,Beechwood,Runcorn,,Runcorn,EN,Beechwood,EN,false,UKOS,353848,379569,-2.69414,53.31104,BCT,MKD,OTH,,,,021,1969-12-31T00:00:00,1969-12-31T23:00:00,0,new,active
068000000734,halpmawp,,,The Holiday Inn,,The Holiday Inn,,The Holiday Inn,,Wood Lane,,,,Opp,,SW,N0065330,Beechwood,Runcorn,,Runcorn,EN,Beechwood,EN,false,UKOS,353853,379561,-2.69406,53.31096,BCT,MKD,OTH,,,,021,1969-12-31T00:00:00,1969-12-31T23:00:00,0,new,active
068000000592,halagaja,,,Campbell Avenue,,Campbell Ave,,Campbell Ave,,Moughland Lane,,,,,,SE,E0037841,Runcorn,,,Runcorn,EN,Runcorn,EN,false,UKOS,351260,381746,-2.73331,53.33037,BCT,MKD,OTH,,,,021,1969-12-31T00:00:00,1969-12-31T23:00:00,0,new,active
0680TX000007,,,,PRESCOT ROAD,,PRESCOT ROAD,,PRESCOT ROAD,,Prescot Road,,,,,,,E0037807,Ball ODitton,Ditton,,Widnes,EN,Ball O'Ditton,EN,false,UKOS,349792,386437,-2.7561,53.37239,TXR,,,,,,021,1969-12-31T00:00:00,1969-12-31T23:00:00,0,new,active
0680TX000016,,,,PRESCOT ROAD,,PRESCOT ROAD,,PRESCOT ROAD,,Prescot Road,,,,,,,E0037807,Ball ODitton,Ditton,,Widnes,EN,Ball O'Ditton,EN,false,UKOS,349792,386437,-2.7561,53.37239,TXR,,,,,,021,1969-12-31T00:00:00,1969-12-31T23:00:00,0,new,active
0680TX000008,,,,VICTORIA SQUARE,,VICTORIA SQUARE,,VICTORIA SQUARE,,Alforde Street,,,,,,,E0037860,Widnes,,,Widnes,EN,Widnes,EN,false,UKOS,351433,385255,-2.73125,53.36192,TXR,,,,,,021,1969-12-31T00:00:00,1969-12-31T23:00:00,0,new,active
0680TX000017,,,,VICTORIA SQUARE,,VICTORIA SQUARE,,VICTORIA SQUARE,,Alforde Street,,,,,,,E0037860,Widnes,,,Widnes,EN,Widnes,EN,false,UKOS,351433,385255,-2.73125,53.36192,TXR,,,,,,021,1969-12-31T00:00:00,1969-12-31T23:00:00,0,new,active
0680TX000009,,,,MARKET STREET,,MARKET STREET,,MARKET STREET,,Market Street,,,,,,,E0037860,Widnes,,,Widnes,EN,Widnes,EN,false,UKOS,351356,385257,-2.73241,53.36194,TXR,,,,,,021,1969-12-31T00:00:00,1969-12-31T23:00:00,0,new,active
0680TX000018,,,,MARKET STREET,,MARKET STREET,,MARKET STREET,,Market Street,,,,,,,E0037860,Widnes,,,Widnes,EN,Widnes,EN,false,UKOS,351356,385257,-2.73241,53.36194,TXR,,,,,,021,1969-12-31T00:00:00,1969-12-31T23:00:00,0,new,active
