ATCOCode,NaptanCode,PlateCode,CleardownCode,CommonName,CommonNameLang,ShortCommonName,ShortCommonNameLang,Landmark,LandmarkLang,Street,StreetLang,Crossing,CrossingLang,Indicator,IndicatorLang,Bearing,NptgLocalityCode,LocalityName,ParentLocalityName,GrandParentLocalityName,Town,TownLang,Suburb,SuburbLang,LocalityCentre,GridType,Easting,Northing,Longitude,Latitude,StopType,BusStopType,TimingStatus,DefaultWaitTime,Notes,NotesLang,AdministrativeAreaCode,CreationDateTime,ModificationDateTime,RevisionNumber,Modification,Status
07501040A,hardtpm,,,Merlin Way,,,,Opp Lapwing Road,,Merlin Way,,,,1,,E,E0037890,Throston Grange,Hartlepool,,,,,,0,UKOS,448602,533988,-1.247398,54.698586,BCT,MKD,OTH,,,,022,2006-06-07T00:00:00.000,2007-06-15T00:00:00.000,1,revise,inactive
07501040B,hardtpt,,,Merlin Way,,,,o/s Guilimot Close,,Merlin Way,,,,2,,W,E0037890,Throston Grange,Hartlepool,,,,,,0,UKOS,448762,534115,-1.244894,54.699712,BCT,MKD,OTH,,,,022,2006-06-07T00:00:00.000,2007-06-15T00:00:00.000,1,revise,inactive
07501040C,hardtpw,,,Merlin Way,,,,Goshawk Road,,Merlin Way,,,,3,,E,E0037890,Throston Grange,Hartlepool,,,,,,0,UKOS,448748,534183,-1.2451,54.700324,BCT,MKD,OTH,,,,022,2006-06-07T00:00:00.000,2007-06-15T00:00:00.000,1,revise,inactive
07501040D,hardtwa,,,Merlin Way,,,,Opp 29 Merlin Way,,Merlin Way,,,,4,,W,E0037890,Throston Grange,Hartlepool,,,,,,0,UKOS,448981,534431,-1.241443,54.70253,BCT,MKD,OTH,,,,022,2006-06-07T00:00:00.000,2007-06-15T00:00:00.000,1,revise,inactive
07501040E,hardtwd,,,Merlin Way,,,,o/s 31 Merlin Way,,Merlin Way,,,,5,,E,E0037890,Throston Grange,Hartlepool,,,,,,0,UKOS,448976,534443,-1.241519,54.702638,BCT,MKD,OTH,,,,022,2006-06-07T00:00:00.000,2007-06-15T00:00:00.000,1,revise,inactive
07501041B,hardwda,,,Guillimot Road,,,,,,Merlin Way,,,,2,,S,E0037890,Throston Grange,Hartlepool,,,,,,0,UKOS,448762,534115,-1.244894,54.699712,BCT,MKD,OTH,,,,022,2009-09-07T00:00:00.000,2009-09-07T00:00:00.000,0,new,inactive
07501316B,hardwgp,,,Glaisdale Grove,,,,Glaisdale Grove,,Station Lane,,,,2,,W,E0037883,Seaton Carew,,,,,,,0,UKOS,452031,529738,-1.194954,54.660055,BCT,MKD,OTH,,,,022,2010-01-05T00:00:00.000,2010-01-05T00:00:00.000,0,new,inactive
075071001A,haradad,,,Lancaster Court,,,,Lancaster Road,,BROUGHAM TERRACE,,,,A,,W,N0073090,Dyke House,Hartlepool,,,,,,0,UKOS,450786,533472,-1.213597,54.693734,BCT,MKD,OTH,,,,022,2005-07-06T00:00:00.000,2016-12-07T12:11:35.735,2,revise,active
075071001B,haradag,,,Lancaster Court,,,,Lancaster Road,,BROUGHAM TERRACE,,,,B,,E,N0073090,Dyke House,Hartlepool,,,,,,0,UKOS,450823,533485,-1.213035,54.693854,BCT,MKD,OTH,,,,022,2005-07-06T00:00:00.000,2016-12-07T12:18:54.483,2,revise,active
075071002A,haradaj,,,Parton Street,,,,Avondale Gardens,,MILBANK ROAD,,,,A,,S,N0073090,Dyke House,Hartlepool,,,,,,0,UKOS,450650,533574,-1.215694,54.694668,BCT,MKD,TIP,,,,022,2005-07-06T00:00:00.000,2016-12-07T12:24:40.698,2,revise,active
075071002B,haradam,,,Parton Street,,,,Avondale Gardens,,MILBANK ROAD,,,,B,,N,N0073090,Dyke House,Hartlepool,,,,,,0,UKOS,450639,533612,-1.215866,54.695013,BCT,MKD,TIP,,,,022,2005-07-06T00:00:00.000,2016-12-07T13:01:47.883,2,revise,active
075071003A,haradap,,,Amberton Road,,,,Amberton Road,,Milbank Road,,,,A,,N,N0073090,Dyke House,Hartlepool,,,,,,0,UKOS,450628,533853,-1.215988,54.697174,BCT,MKD,OTH,,,,022,2005-07-06T00:00:00.000,2016-12-07T13:14:15.395,2,revise,active
075071003B,haradat,,,Amberton Road,,,,Amberton Road,,Milbank Road,,,,B,,S,N0073090,Dyke House,Hartlepool,,,,,,0,UKOS,450641,533830,-1.215791,54.696966,BCT,MKD,OTH,,,,022,2005-07-06T00:00:00.000,2016-12-07T13:24:46.116,2,revise,active
075071004A,haradaw,,,BMB Group,,,,opp factory,,Powlett Road,,,,A,,W,N0073090,Dyke House,Hartlepool,,,,,,0,UKOS,450503,534008,-1.217901,54.698579,BCT,MKD,TIP,,,,022,2005-07-06T00:00:00.000,2016-12-07T13:55:11.645,2,revise,active
075071004B,haradga,,,BMB Group,,,,o/s factory,,Powlett Road,,,,B,,E,N0073090,Dyke House,Hartlepool,,,,,,0,UKOS,450395,534043,-1.21957,54.698904,BCT,MKD,TIP,,,,022,2005-07-06T00:00:00.000,2016-12-07T14:02:42.559,3,revise,active
075071005A,haradgd,,,May Street,,,,May Street,,Powlett Road,,,,A,,W,N0073090,Dyke House,Hartlepool,,,,,,0,UKOS,450801,533942,-1.213289,54.697956,BCT,MKD,OTH,,,,022,2005-07-06T00:00:00.000,2016-12-07T14:23:24.477,2,revise,active
075071005B,haradgj,,,May Street,,,,Stonethwaite Close,,Powlett Road,,,,B,,E,N0073090,Dyke House,Hartlepool,,,,,,0,UKOS,450697,533983,-1.214895,54.698335,BCT,MKD,OTH,,,,022,2005-07-06T00:00:00.000,2016-12-07T14:44:23.951,3,revise,active
075071006A,haradgm,,,High Point Retail Park,,,,Middleton Road,,Marina Way,,,,A,,N,N0073108,Marina,Hartlepool,,,,,,0,UKOS,450992,533510,-1.210401,54.694055,BCT,MKD,OTH,,,,022,2005-07-06T00:00:00.000,2016-12-07T15:07:58.110,2,revise,active
075071006B,haradgp,,,High Point Retail Park,,,,Middleton Road,,Marina Way,,,,B,,S,N0073108,Marina,Hartlepool,,,,,,0,UKOS,451069,533415,-1.209223,54.693194,BCT,MKD,OTH,,,,022,2005-07-06T00:00:00.000,2016-12-07T15:14:05.244,2,revise,active
075071007A,haradgt,,,Greenland Road,,,,Cleveland Roundabout,,Marina Way,,,,A,,N,N0073090,Dyke House,Hartlepool,,,,,,0,UKOS,450948,533894,-1.211017,54.69751,BCT,MKD,OTH,,,,022,2005-07-06T00:00:00.000,2016-12-07T16:07:14.170,2,revise,active
075071007B,haradgw,,,Greenland Road,,,,Cleveland Roundabout,,Marina Way,,,,B,,S,N0073090,Dyke House,Hartlepool,,,,,,0,UKOS,450974,533886,-1.210615,54.697435,BCT,MKD,OTH,,,,022,2005-07-06T00:00:00.000,2016-12-07T16:27:02.767,2,revise,active
075071008A,haradja,,,Bankston Close,,,,Bankston Close,,Cairnston Road,,,,A,,SW,E0037890,Throston Grange,Hartlepool,,,,,,0,UKOS,448421,533370,-1.250308,54.69305,BCT,MKD,OTH,,,,022,2005-07-06T00:00:00.000,2016-12-07T16:45:03.233,2,revise,active
075071009A,haradjd,,,Moorston Close,,,,Moorston Close,,Cairnston Road,,,,A,,S,E0037890,Throston Grange,Hartlepool,,,,,,0,UKOS,448384,533027,-1.250939,54.689972,BCT,MKD,OTH,,,,022,2005-07-06T00:00:00.000,2016-12-07T16:48:54.469,2,revise,active
075071010A,haradjg,,,Hart to Haswell Local Nature Reserve,,,,Walkway Entrance,,Ocean Road,,,,A,,SE,E0037869,Hart Station,Hartlepool,,,,,,0,UKOS,448430,536210,-1.249698,54.718569,BCT,MKD,TIP,,,,022,2005-07-06T00:00:00.000,2016-12-07T16:57:00.563,2,revise,active
075071011A,haradjm,,,Summerhill,,,,Summerhill Park,,Summerhill Lane,,,,A,,W,E0037882,Rifthouse,Hartlepool,,,,,,0,UKOS,449005,531655,-1.241536,54.677583,BCT,MKD,TIP,,,,022,2005-07-06T00:00:00.000,2016-12-07T17:24:52.096,2,revise,active
075071012A,haradjp,,,PD Logistics Huntsman Tioxide,,,,Stadium,,Tofts Road East,,,,A,,NW,N0073093,Brenda Road,,,,,,,0,UKOS,451740,528347,-1.19971,54.647585,BCT,MKD,TIP,,,,022,2005-07-06T00:00:00.000,2020-05-06T13:56:45.879,4,revise,active
075071012B,haradjt,,,PD Logistics Huntsman Tioxide,,,,Stadium,,Tofts Road East,,,,B,,SE,N0073093,Brenda Road,,,,,,,0,UKOS,451751,528373,-1.199535,54.647818,BCT,MKD,TIP,,,,022,2005-07-06T00:00:00.000,2020-05-06T13:57:57.255,4,revise,active
075071013A,haradjw,,,Jackson's Wharf,,,,Jacksons Wharf,,The Highlight,,,,A,,E,N0073108,Marina,Hartlepool,,,,,,0,UKOS,451227,533200,-1.20681,54.691246,BCT,MKD,OTH,,,,022,2005-07-06T00:00:00.000,2016-12-07T18:09:30.823,2,revise,active
075071013B,haradma,,,Jackson's Wharf,,,,Jacksons Wharf,,The Highlight,,,,B,,W,N0073108,Marina,Hartlepool,,,,,,0,UKOS,451197,533191,-1.207277,54.691168,BCT,MKD,OTH,,,,022,2005-07-06T00:00:00.000,2016-12-08T10:38:22.471,2,revise,active
075071014A,haradmd,,,Seaton High Light,,,,The Highlight,,The Highlight,,,,A,,SW,N0073108,Marina,Hartlepool,,,,,,0,UKOS,451491,533189,-1.202717,54.69112,BCT,MKD,OTH,,,,022,2005-07-06T00:00:00.000,2016-12-08T10:51:31.668,2,revise,active
075071015A,haradmg,,,Jacksons Landing,,,,Designer Outlet Shops,,The Highlight,,,,A,,W,N0073108,Marina,Hartlepool,,,,,,0,UKOS,451330,533153,-1.20522,54.690813,BCT,MKD,OTH,,,,022,2005-07-06T00:00:00.000,2016-12-08T10:56:06.993,2,revise,active
075071016A,haradmj,,,The National Museum of the Royal Navy Entrance,,,,Historic Quay Entrance,,Car Park,,,,A,,S,N0073108,Marina,Hartlepool,,,,,,0,UKOS,451216,533056,-1.207006,54.689953,BCT,MKD,OTH,,,,022,2005-07-06T00:00:00.000,2016-12-08T11:27:24.062,2,revise,active
075071017A,haradmp,,,Mecca,,,,Mecca Bingo,,Car Park,,,,A,,S,N0073108,Marina,Hartlepool,,,,,,0,UKOS,451180,532905,-1.207591,54.6886,BCT,MKD,OTH,,,,022,2005-07-06T00:00:00.000,2016-12-08T11:33:22.049,2,revise,active
075071018A,haradmt,,,Vue,,,,Marina Way Roundabout,,The Lanyard,,,,A,,W,N0073108,Marina,Hartlepool,,,,,,0,UKOS,451164,532819,-1.207854,54.687828,BCT,MKD,OTH,,,,022,2005-07-06T00:00:00.000,2020-05-06T14:02:05.575,3,revise,active
075071020A,haradmw,,,Tofts Road Roundabout,,,,Tofts Farm Ind Estate,,Brenda Road,,,,A,,SE,N0073093,Brenda Road,,,,,,,0,UKOS,451668,528317,-1.200831,54.647323,BCT,MKD,OTH,,,,022,2005-07-06T00:00:00.000,2020-03-04T16:57:01.040,4,revise,active
075071020B,haradpa,,,Tofts Road Roundabout,,,,Tofts Farm Ind Estate,,Brenda Road,,,,B,,NW,N0073093,Brenda Road,,,,,,,0,UKOS,451640,528333,-1.201262,54.64747,BCT,MKD,OTH,,,,022,2005-07-06T00:00:00.000,2020-03-04T16:57:10.195,4,revise,active
075071021A,haradpd,,,Palmer UK,,,,Tofts Farm East Ind Estate,,Tofts Road East,,,,1,,S,N0073093,Brenda Road,,,,,,,0,UKOS,451583,528743,-1.202073,54.65116,BCT,MKD,OTH,,,,022,2005-07-06T00:00:00.000,2007-06-15T00:00:00.000,1,revise,inactive
075071022A,haradpg,,,Stadium North,,,,Tofts Farm East Ind Estate,,Tofts Road East,,,,1,,S,N0073093,Brenda Road,,,,,,,0,UKOS,451662,528616,-1.200871,54.650011,BCT,MKD,OTH,,,,022,2005-07-06T00:00:00.000,2007-06-15T00:00:00.000,1,revise,inactive
075071023A,haradpj,,,Stadium,,,,Tofts Farm East Ind Estate,,Tofts Road East,,,,A,,E,N0073093,Brenda Road,,,,,,,0,UKOS,451736,528613,-1.199725,54.649976,BCT,MKD,OTH,,,,022,2005-07-06T00:00:00.000,2016-12-08T12:33:46.049,2,revise,active
075071023B,hardtpd,,,Stadium,,,,Tofts Farm East Ind Estate,,Tofts Road East,,,,B,,W,N0073093,Brenda Road,,,,,,,0,UKOS,451749,528594,-1.199527,54.649804,BCT,MKD,OTH,,,,022,2005-07-06T00:00:00.000,2016-12-08T15:49:15.350,2,revise,active
075071024A,haradpm,,,Alderwood Close,,,,Alderwood Close,,Woodstock Way,,,,A,,W,N0070311,Clavering,Hartlepool,,,,,,0,UKOS,448215,535783,-1.253106,54.714753,BCT,MKD,OTH,,,,022,2005-07-06T00:00:00.000,2016-12-08T16:09:41.251,2,revise,active
075071024B,haradpt,,,Alderwood Close,,,,Alderwood Close,,Woodstock Way,,,,B,,E,N0070311,Clavering,Hartlepool,,,,,,0,UKOS,448216,535798,-1.253088,54.714887,BCT,MKD,OTH,,,,022,2005-07-06T00:00:00.000,2016-12-08T16:17:58.508,2,revise,active
075071025A,haradpw,,,Thornbury Close,,,,Thornbury Close,,Westwood Way,,,,A,,SE,N0070311,Clavering,Hartlepool,,,,,,0,UKOS,448231,535508,-1.252903,54.71228,BCT,MKD,OTH,,,,022,2005-07-06T00:00:00.000,2016-12-08T16:40:28.122,2,revise,active
075071025B,haradta,,,Thornbury Close,,,,Pinewood Close,,Westwood Way,,,,B,,N,N0070311,Clavering,Hartlepool,,,,,,0,UKOS,448155,535557,-1.254074,54.712728,BCT,MKD,OTH,,,,022,2005-07-06T00:00:00.000,2016-12-08T16:44:20.248,2,revise,active
075071026A,haradtd,,,Torcross Close,,,,Talland Close,,Westwood Way,,,,A,,S,N0070311,Clavering,Hartlepool,,,,,,0,UKOS,448328,535297,-1.251432,54.710375,BCT,MKD,TIP,,,,022,2005-07-06T00:00:00.000,2016-12-08T16:48:53.790,2,revise,active
075071026B,haradtg,,,Torcross Close,,,,Talland Close,,Westwood Way,,,,B,,N,N0070311,Clavering,Hartlepool,,,,,,0,UKOS,448310,535303,-1.251711,54.71043,BCT,MKD,TIP,,,,022,2005-07-06T00:00:00.000,2016-12-13T10:14:56.414,2,revise,active
075071027A,haradtj,,,Tintagel Close,,,,Tintagel Close,,Westwood Way,,,,A,,SE,N0070311,Clavering,Hartlepool,,,,,,0,UKOS,448414,535109,-1.250129,54.708677,BCT,MKD,OTH,,,,022,2005-07-06T00:00:00.000,2016-12-13T12:53:39.086,2,revise,active
075071027B,haradtm,,,Tintagel Close,,,,Tintagel Close,,Westwood Way,,,,B,,NW,N0070311,Clavering,Hartlepool,,,,,,0,UKOS,448366,535115,-1.250873,54.708736,BCT,MKD,OTH,,,,022,2005-07-06T00:00:00.000,2016-12-13T12:54:55.690,2,revise,active
075071028A,haradtp,,,St Teresa's RC Primary School,,,,St Teresa's School,,CALLANDER ROAD,,,,A,,E,E0037879,Owton Manor,Hartlepool,,,,,,0,UKOS,449778,529681,-1.229892,54.659769,BCT,MKD,OTH,,,,022,2005-07-06T00:00:00.000,2018-06-04T15:49:46.912,3,revise,active
075071029A,haradtw,,,St Hild's Church of England School,,,,St Hild's School,,King Oswy Drive,,,,A,,W,E0037896,West View,Hartlepool,,,,,,0,UKOS,449563,535332,-1.23226,54.710569,BCT,MKD,OTH,,,,022,2005-07-06T00:00:00.000,2017-05-18T16:20:54.067,3,revise,active
075071030A,haradwa,,,Golf Club,,,,Roundabout,,Hart Lane,,,,A,,SE,E0037890,Throston Grange,Hartlepool,,,,,,0,UKOS,448305,534007,-1.252002,54.698785,BCT,MKD,TIP,,,,022,2005-07-06T00:00:00.000,2016-12-13T14:03:34.970,2,revise,active
075071030B,haradwd,,,Golf Club,,,,Roundabout,,Hart Lane,,,,B,,NW,E0037890,Throston Grange,Hartlepool,,,,,,0,UKOS,448297,533995,-1.252129,54.698678,BCT,MKD,TIP,,,,022,2005-07-06T00:00:00.000,2016-12-13T14:14:01.830,2,revise,active
075071040A,hardtwg,,,Lapwing Road,,,,Opp Lapwing Road,,Merlin Way,,,,A,,E,E0037890,Throston Grange,Hartlepool,,,,,,0,UKOS,448602,533988,-1.2473928,54.6985850,BCT,MKD,OTH,,,,022,2006-06-08T00:00:00.000,2016-12-13T15:37:33.967,3,revise,active
075071040B,hardtwj,,,Lapwing Road,,,,Lapwing Road,,Merlin Way,,,,B,,W,E0037890,Throston Grange,Hartlepool,,,,,,0,UKOS,448585,533974,-1.247664,54.698462,BCT,MKD,OTH,,,,022,2006-06-08T00:00:00.000,2016-12-13T15:41:41.766,2,revise,active
075071040C,hardtwm,,,Merlin Way,,,,Goshawk Road,,Merlin Way,,,,3,,E,E0037890,Throston Grange,Hartlepool,,,,,,0,UKOS,448748,534183,-1.2451,54.700324,BCT,MKD,OTH,,,,022,2006-06-08T00:00:00.000,2007-06-15T00:00:00.000,1,revise,inactive
075071040D,hardtwp,,,Merlin Way,,,,Opp 29 Merlin Way,,Merlin Way,,,,4,,W,E0037890,Throston Grange,Hartlepool,,,,,,0,UKOS,448981,534431,-1.241443,54.70253,BCT,MKD,OTH,,,,022,2006-06-08T00:00:00.000,2007-06-15T00:00:00.000,1,revise,inactive
075071040E,hardtwt,,,Merlin Way,,,,o/s 31 Merlin Way,,Merlin Way,,,,5,,E,E0037890,Throston Grange,Hartlepool,,,,,,0,UKOS,448976,534443,-1.241519,54.702638,BCT,MKD,OTH,,,,022,2006-06-08T00:00:00.000,2007-06-15T00:00:00.000,1,revise,inactive
075071040F,hardwam,,,Merlin Way,,,,Lapwing Road,,Merlin Way,,,,6,,W,E0037890,Throston Grange,Hartlepool,,,,,,0,UKOS,448585,533974,-1.247664,54.698462,BCT,MKD,OTH,,,,022,2008-01-22T00:00:00.000,2008-01-22T00:00:00.000,0,new,inactive
075071041A,hardwaw,,,Goldfinch Road,,,,Goshawk Road,,Merlin Way,,,,A,,N,E0037890,Throston Grange,Hartlepool,,,,,,0,UKOS,448748,534183,-1.2451,54.700324,BCT,MKD,OTH,,,,022,2009-09-07T00:00:00.000,2016-12-13T15:54:58.689,1,revise,active
075071041B,hardwdm,,,Goldfinch Road,,,,,,Merlin Way,,,,B,,S,E0037890,Throston Grange,Hartlepool,,,,,,0,UKOS,448762,534115,-1.244894,54.699712,BCT,MKD,OTH,,,,022,2009-09-07T00:00:00.000,2016-12-13T16:34:02.470,1,revise,active
075071042A,hardwdg,,,Bluebell Way,,,,Bluebell Way,,Merlin Way,,,,A,,NE,E0037890,Throston Grange,Hartlepool,,,,,,0,UKOS,448976,534443,-1.241519,54.702638,BCT,MKD,OTH,,,,022,2009-09-07T00:00:00.000,2016-12-13T16:48:32.958,1,revise,active
075071042B,hardwdj,,,Bluebell Way,,,,Bluebell Way,,Merlin Way,,,,B,,SW,E0037890,Throston Grange,Hartlepool,,,,,,0,UKOS,448981,534431,-1.241443,54.70253,BCT,MKD,OTH,,,,022,2009-09-07T00:00:00.000,2016-12-13T17:05:27.288,1,revise,active
075071043A,hardwga,,,Wansbeck Gardens,,,,Opp Rydal Street,,Elwick Road,,,,A,,E,E0037866,Foggy Furze,Hartlepool,,,,,,0,UKOS,450289,531874,-1.221588,54.679425,BCT,MKD,OTH,,,,022,2009-12-09T00:00:00.000,2016-12-13T17:09:26.690,1,revise,active
075071044A,hardwgj,,,Bonnyrigg Walk,,,,Balcary Court,,Balmoral Road,,,,A,,N,E0037879,Owton Manor,Hartlepool,,,,,,0,UKOS,449915,529829,-1.227736,54.661086,BCT,MKD,OTH,,,,022,2010-01-05T00:00:00.000,2016-12-13T17:26:37.905,1,revise,active
075071044B,hardwgm,,,Bonnyrigg Walk,,,,Bonnyrigg Walk,,Balmoral Road,,,,B,,S,E0037879,Owton Manor,Hartlepool,,,,,,0,UKOS,449912,529782,-1.227791,54.660664,BCT,MKD,OTH,,,,022,2010-01-05T00:00:00.000,2016-12-13T17:55:07.403,1,revise,active
075071045A,hardwgw,,,Kildale Grove,,,,Kildale Grove,,Elizabeth Way,,,,A,,S,E0037883,Seaton Carew,,,,,,,0,UKOS,451937,529603,-1.196435,54.658851,BCT,MKD,OTH,,,,022,2010-01-05T00:00:00.000,2016-12-14T11:03:21.380,1,revise,active
075071045B,hardwgt,,,Kildale Grove,,,,Kildale Grove,,Elizabeth Way,,,,B,,N,E0037883,Seaton Carew,,,,,,,0,UKOS,451929,529553,-1.196568,54.658403,BCT,MKD,OTH,,,,022,2010-01-05T00:00:00.000,2016-12-14T11:23:37.658,1,revise,active
075071046A,hardwja,,,Warrior Drive South End,,,,adj Health Centre,,Warrior Drive,,,,A,,S,E0037883,Seaton Carew,,,,,,,0,UKOS,452117,529858,-1.193599,54.661124,BCT,MKD,OTH,,,,022,2010-01-05T00:00:00.000,2016-12-14T11:46:41.136,1,revise,active
075071047A,hardwjm,,,Interchange,,,,,,Interchange,,,,A,,,E0054977,Hartlepool,,,,,,,0,UKOS,451071,532660,-1.2093179,54.6864166,BCS,,TIP,,,,022,2010-07-20T00:00:00.000,2016-11-11T12:35:16.626,2,revise,active
075071047B,hardwjp,,,Interchange,,,,,,Interchange,,,,B,,,E0054977,Hartlepool,,,,,,,0,UKOS,451084,532659,-1.2091164,54.6864063,BCS,,TIP,,,,022,2010-07-20T00:00:00.000,2016-11-11T12:35:58.435,2,revise,active
075071047C,hardwjt,,,Interchange,,,,,,Interchange,,,,C,,,E0054977,Hartlepool,,,,,,,0,UKOS,451097,532652,-1.2089160,54.6863421,BCS,,TIP,,,,022,2010-07-20T00:00:00.000,2016-11-11T12:36:18.482,2,revise,active
075071047D,hardwjw,,,Interchange,,,,,,Interchange,,,,D,,,E0054977,Hartlepool,,,,,,,0,UKOS,451095,532639,-1.2089493,54.6862255,BCS,,OTH,,,,022,2010-07-20T00:00:00.000,2016-11-11T12:36:39.668,2,revise,active
075071048A,hardwma,,,Burn Valley Grove,,,,playground,,Blakelock Gardens,,,,A,,E,E0037866,Foggy Furze,Hartlepool,,,,,,0,UKOS,450286,531619,-1.221678,54.677134,BCT,MKD,OTH,,,,022,2010-09-06T00:00:00.000,2016-12-14T12:32:51.741,1,revise,active
075071048B,hardwmd,,,Burn Valley Grove,,,,Burn Valley Grove,,Blakelock Gardens,,,,B,,W,E0037866,Foggy Furze,Hartlepool,,,,,,0,UKOS,450341,531621,-1.220825,54.677146,BCT,MKD,OTH,,,,022,2010-09-06T00:00:00.000,2016-12-14T12:49:46.419,1,revise,active
075071049A,hardwmg,,,Claremont Apartments,,,,opp 148 Elwick Road,,Elwick Road,,,,A,,W,E0054977,Hartlepool,,,,,,,0,UKOS,449840,531813,-1.228561,54.678921,BCT,MKD,OTH,,,,022,2010-09-06T00:00:00.000,2016-12-14T13:07:37.824,1,revise,active
075071050A,hardwmj,,,The Museum of Hartlepool,,,,Mecca Bingo,,Maritime Avenue,,,,A,,W,N0073108,Marina,Hartlepool,,,,,,0,UKOS,451240,532955,-1.206651,54.689043,BCT,MKD,OTH,,,,022,2012-03-05T11:21:27.000,2016-11-11T15:22:41.068,2,revise,active
075071050B,hardwmp,,,The Museum of Hartlepool,,,,Mecca Bingo,,Maritime Avenue,,,,B,,E,N0073108,Marina,Hartlepool,,,,,,0,UKOS,451262,532974,-1.206307,54.689211,BCT,MKD,OTH,,,,022,2012-03-05T11:23:49.000,2016-11-11T15:23:20.396,1,revise,active
075071051A,hardwmt,,,Elwick Grange,,,,Elwick Grange Care Home,,Elwick Road,,,,A,,W,E0037866,Foggy Furze,Hartlepool,,,,,,0,UKOS,450015,531833,-1.225844,54.679084,BCT,MKD,OTH,,,,022,2013-01-22T15:09:46.000,2016-12-14T13:57:42.749,1,revise,active
075071052A,hardwmw,,,Tesco Express,,,,Tesco Express,,Hart Lane,,,,A,,NW,E0037890,Throston Grange,Hartlepool,,,,,,0,UKOS,448819,533375,-1.244133,54.693057,BCT,MKD,OTH,,,,022,2013-03-25T17:34:29.000,2016-12-14T14:15:46.456,1,revise,active
075071052B,hardwpa,,,Tesco Express,,,,Tesco Express,,Hart Lane,,,,B,,SE,E0037890,Throston Grange,Hartlepool,,,,,,0,UKOS,448849,533370,-1.243669,54.693009,BCT,MKD,OTH,,,,022,2013-03-25T17:35:47.000,2016-12-14T14:19:06.081,2,revise,active
075071053A,hardwpd,,,Hartfields Manor,,,,Hartfields Manor,,Osprey Way,,,,A,,W,E0037890,Throston Grange,Hartlepool,,,,,,0,UKOS,449271,534447,-1.236941,54.702646,BCT,MKD,OTH,,,,022,2013-04-30T11:42:35.000,2020-05-06T14:10:00.244,5,revise,active
075071054A,hardwpg,,,De Havilland Way,,,,The Dunes,,Tees Road,,,,A,,N,E0037883,Seaton Carew,,,,,,,0,UKOS,452452,528859,-1.188586,54.652113,BCT,MKD,OTH,,,,022,2013-05-08T13:53:25.000,2016-12-14T14:50:06.017,1,revise,active
075071054B,hardwpm,,,De Havilland Way,,,,The Dunes,,Tees Road,,,,B,,S,E0037883,Seaton Carew,,,,,,,0,UKOS,452465,528822,-1.188391,54.651779,BCT,MKD,OTH,,,,022,2013-05-08T13:56:02.000,2016-12-14T15:05:08.811,1,revise,active
075071071A,haradwg,,,Newton Bewley,,,,Grange Farm,,Stockton Road,,,,A,,NE,E0053161,Newton Bewley,,,,,,,0,UKOS,446560,526725,-1.280234,54.633514,BCT,MKD,TIP,,,,022,2005-07-06T00:00:00.000,2023-05-04T14:20:37.067,3,revise,active
075071071B,haradwj,,,Newton Bewley,,,,Letch Farm,,Stockton Road,,,,B,,SW,E0053161,Newton Bewley,,,,,,,0,UKOS,446540,526668,-1.280552,54.633003,BCT,MKD,TIP,,,,022,2005-07-06T00:00:00.000,2023-05-04T14:20:50.302,3,revise,active
075071072A,haradwm,,,Claxton House Farm,,,,o/s Claxton House Farm,,Stockton Road,,,,NE bound,,NE,E0053156,Claxton,,,,,,,0,UKOS,447318,527292,-1.268401,54.638538,BCT,CUS,OTH,,,,022,2005-07-06T00:00:00.000,2023-05-04T14:23:26.028,3,revise,inactive
075071072B,haradwp,,,Claxton House Farm,,,,Opp Claxton House Farm,,Stockton Road,,,,SW bound,,SW,E0053156,Claxton,,,,,,,0,UKOS,447326,527269,-1.26828,54.638331,BCT,CUS,OTH,,,,022,2005-07-06T00:00:00.000,2023-05-04T14:23:34.451,3,revise,inactive
075071073A,haradwt,,,Dalton Back Lane,,,,Dalton Back Lane,,Greatham Road,,,,A,,NE,E0053156,Claxton,,,,,,,0,UKOS,448470,527763,-1.250479,54.642665,BCT,MKD,OTH,,,,022,2005-07-06T00:00:00.000,2016-12-15T11:58:50.107,2,revise,active
075071073B,haragad,,,Dalton Back Lane,,,,Dalton Back Lane,,Stockton Road,,,,B,,SW,E0053156,Claxton,,,,,,,0,UKOS,448243,527764,-1.253993,54.642692,BCT,MKD,OTH,,,,022,2005-07-06T00:00:00.000,2023-05-04T14:22:50.716,3,revise,active
075071074A,haragag,,,Bull and Dog,,,,Village Centre,,High Street,,,,A,,N,E0053159,Greatham,,,,,,,0,UKOS,449139,527820,-1.240101,54.643109,BCT,MKD,TIP,,,,022,2005-07-06T00:00:00.000,2016-12-15T12:22:09.707,2,revise,active
075071074B,haragaj,,,Bull and Dog,,,,Village Centre,,High Street,,,,B,,S,E0053159,Greatham,,,,,,,0,UKOS,449157,527805,-1.239825,54.642973,BCT,MKD,TIP,,,,022,2005-07-06T00:00:00.000,2016-12-15T12:38:59.584,2,revise,active
075071075A,haragam,,,Sappers Corner Garage,,,,A689 Stockton Road,,High Street,,,,A,,N,E0053159,Greatham,,,,,,,0,UKOS,449150,528258,-1.239858,54.647044,BCT,MKD,OTH,,,,022,2005-07-06T00:00:00.000,2016-12-15T13:23:49.186,2,revise,active
075071075B,haragap,,,Sappers Corner Garage,,,,A689 Stockton Road,,High Street,,,,B,,S,E0053159,Greatham,,,,,,,0,UKOS,449167,528213,-1.239602,54.646638,BCT,MKD,OTH,,,,022,2005-07-06T00:00:00.000,2016-12-15T13:44:16.632,2,revise,active
075071075C,haragat,,,Sappers Corner Garage,,,,High Street Greatham,,Stockton Road,,,,C,,NE,E0053159,Greatham,,,,,,,0,UKOS,449223,528375,-1.238707,54.648088,BCT,MKD,OTH,,,,022,2005-07-06T00:00:00.000,2016-12-15T13:46:15.822,2,revise,active
075071075D,haragaw,,,Sappers Corner Garage,,,,High Street Greatham,,Stockton Road,,,,D,,SW,E0053159,Greatham,,,,,,,0,UKOS,449089,528308,-1.240794,54.647499,BCT,MKD,OTH,,,,022,2005-07-06T00:00:00.000,2023-05-04T14:25:06.973,3,revise,active
075071076A,haragda,,,Queens Meadow,,,,Fire HQ,,Stockton Road,,,,A,,SW,E0037887,The Fens,Hartlepool,,,,,,0,UKOS,449730,528651,-1.230804,54.650519,BCT,MKD,TIP,,,,022,2005-07-06T00:00:00.000,2016-12-15T13:58:52.963,2,revise,active
075071076B,haragdg,,,Queens Meadow,,,,Fire HQ,,Stockton Road,,,,B,,NE,E0037887,The Fens,Hartlepool,,,,,,0,UKOS,449686,528669,-1.231483,54.650685,BCT,MKD,TIP,,,,022,2005-07-06T00:00:00.000,2016-12-15T14:06:48.186,2,revise,active
075071077A,haragdj,,,Dawlish Drive,,,,Dawlish Drive,,Stockton Road,,,,A,,N,E0037879,Owton Manor,Hartlepool,,,,,,0,UKOS,450193,529250,-1.223526,54.655856,BCT,MKD,OTH,,,,022,2005-07-06T00:00:00.000,2017-05-03T17:32:18.197,2,revise,active
075071077B,haragdm,,,Dawlish Drive,,,,Dawlish Drive,,Stockton Road,,,,B,,S,E0037879,Owton Manor,Hartlepool,,,,,,0,UKOS,450189,529137,-1.223608,54.654841,BCT,MKD,OTH,,,,022,2005-07-06T00:00:00.000,2017-05-03T17:32:36.770,2,revise,active
075071077C,haragdp,,,Dawlish Drive,,,,Dawlish Drive,,Stockton Road,,,,3,,N,E0037879,Owton Manor,Hartlepool,,,,,,0,UKOS,450129,529082,-1.224547,54.654352,BCT,MKD,OTH,,,,022,2005-07-06T00:00:00.000,2018-02-13T16:04:39.436,4,revise,inactive
075071078A,haragdt,,,Honiton Way,,,,Stockton Drive,,Truro Drive,,,,A,,NW,E0037887,The Fens,Hartlepool,,,,,,0,UKOS,450003,529018,-1.226511,54.65379,BCT,MKD,OTH,,,,022,2005-07-06T00:00:00.000,2017-05-03T17:33:28.224,2,revise,active
075071078B,haragdw,,,Honiton Way,,,,Truro Drive,,Truro Drive,,,,B,,SE,E0037887,The Fens,Hartlepool,,,,,,0,UKOS,450014,529026,-1.226339,54.65386,BCT,MKD,OTH,,,,022,2005-07-06T00:00:00.000,2017-05-03T17:34:30.536,2,revise,active
075071078D,haragja,,,Meryl Gardens,,,,Truro Drive,,Stockton Road,,,,4,,SW,E0037887,The Fens,Hartlepool,,,,,,0,UKOS,450050,528928,-1.225798,54.652976,BCT,MKD,OTH,,,,022,2005-07-06T00:00:00.000,2018-02-13T16:05:02.023,4,revise,inactive
075071079A,haragjd,,,Front Street,,,,Front Street,,Front Street,,,,S bound,,S,E0053159,Greatham,,,,,,,0,UKOS,449238,527657,-1.238595,54.641635,BCT,HAR,OTH,,,,022,2005-07-06T00:00:00.000,2007-06-15T00:00:00.000,1,revise,active
075071079B,haragjg,,,Front Street,,,,Front Street,,Front Street,,,,N bound,,N,E0053159,Greatham,,,,,,,0,UKOS,449217,527651,-1.238921,54.641583,BCT,HAR,OTH,,,,022,2005-07-06T00:00:00.000,2007-06-15T00:00:00.000,1,revise,active
075071079C,haragjm,,,Egerton Terrace,,,,Station Road,,Egerton Terrace,,,,SE bound,,SE,E0053159,Greatham,,,,,,,0,UKOS,449348,527553,-1.236908,54.64069,BCT,HAR,OTH,,,,022,2005-07-06T00:00:00.000,2007-06-15T00:00:00.000,1,revise,active
075071079D,haragjp,,,Egerton Terrace,,,,Station Road,,Egerton Terrace,,,,NW bound,,NW,E0053159,Greatham,,,,,,,0,UKOS,449329,527540,-1.237205,54.640575,BCT,HAR,OTH,,,,022,2005-07-06T00:00:00.000,2007-06-15T00:00:00.000,1,revise,active
075071079E,haragjt,,,Station Road,,,,Station Road,,Station Road,,,,SE bound,,SE,E0053159,Greatham,,,,,,,0,UKOS,449606,527403,-1.232936,54.639317,BCT,HAR,OTH,,,,022,2005-07-06T00:00:00.000,2007-06-15T00:00:00.000,1,revise,active
075071079F,haragjw,,,Station Road,,,,Station Road,,Station Road,,,,NW bound,,NW,E0053159,Greatham,,,,,,,0,UKOS,449591,527389,-1.233171,54.639192,BCT,HAR,OTH,,,,022,2005-07-06T00:00:00.000,2007-06-15T00:00:00.000,1,revise,active
075071079G,haragma,,,Marsh House Lane,,,,Marsh House Lane,,Marsh House Lane,,,,SE bound,,SE,E0053159,Greatham,,,,,,,0,UKOS,449751,526976,-1.230763,54.635465,BCT,HAR,OTH,,,,022,2005-07-06T00:00:00.000,2007-06-15T00:00:00.000,1,revise,active
075071079H,haragmd,,,Marsh House Lane,,,,Marsh House Lane,,Marsh House Lane,,,,NE bound,,NW,E0053159,Greatham,,,,,,,0,UKOS,449730,526966,-1.23109,54.635378,BCT,HAR,OTH,,,,022,2005-07-06T00:00:00.000,2007-06-15T00:00:00.000,1,revise,active
075071080A,haragmg,,,The Fens,,,,Fens Hotel,,Catcote Road,,,,A,,N,E0037887,The Fens,Hartlepool,,,,,,0,UKOS,449590,529197,-1.232881,54.655439,BCT,MKD,TIP,,,,022,2005-07-06T00:00:00.000,2016-12-15T14:14:28.575,2,revise,active
075071080B,haragmj,,,The Fens,,,,Fens Hotel,,Catcote Road,,,,B,,S,E0037887,The Fens,Hartlepool,,,,,,0,UKOS,449621,529119,-1.232414,54.654735,BCT,MKD,TIP,,,,022,2005-07-06T00:00:00.000,2016-12-15T14:28:28.464,2,revise,active
075071080C,haragmp,,,The Fens,,,,Fens Hotel,,Truro Drive,,,,C,,E,E0037887,The Fens,Hartlepool,,,,,,0,UKOS,449649,529152,-1.231974,54.655029,BCT,MKD,TIP,,,,022,2005-07-06T00:00:00.000,2016-12-15T14:33:14.809,3,revise,active
075071081A,haragmt,,,Bacon Walk,,,,Bacon Walk,,Masefield Road,,,,A,,S,E0037882,Rifthouse,Hartlepool,,,,,,0,UKOS,448737,530579,-1.245871,54.66794,BCT,MKD,OTH,,,,022,2005-07-06T00:00:00.000,2016-12-15T15:01:31.261,2,revise,active
075071081B,haragmw,,,Bacon Walk,,,,Bacon Walk,,Masefield Road,,,,B,,N,E0037882,Rifthouse,Hartlepool,,,,,,0,UKOS,448717,530526,-1.24619,54.667466,BCT,MKD,OTH,,,,022,2005-07-06T00:00:00.000,2016-12-15T15:03:54.682,2,revise,active
075071082A,haragpa,,,Fens Primary School - Mowbray Road,,,,Holland Road,,Mowbray Road,,,,A,,W,E0037887,The Fens,Hartlepool,,,,,,0,UKOS,449440,528968,-1.235244,54.653396,BCT,MKD,OTH,,,,022,2005-07-06T00:00:00.000,2017-05-03T17:53:54.607,2,revise,active
075071082B,haragpd,,,Fens Primary School - Mowbray Road,,,,Fens Primary School,,Mowbray Road,,,,B,,E,E0037887,The Fens,Hartlepool,,,,,,0,UKOS,449556,528991,-1.233443,54.653591,BCT,MKD,OTH,,,,022,2005-07-06T00:00:00.000,2017-05-03T17:57:50.870,2,revise,active
075071082C,haragpg,,,Fens Primary School,,,,Fens Primary School,,Catcote Road,,,,3,,N,E0037887,The Fens,Hartlepool,,,,,,0,UKOS,449601,528883,-1.232764,54.652616,BCT,MKD,OTH,,,,022,2005-07-06T00:00:00.000,2018-02-13T16:06:55.471,4,revise,inactive
075071082D,haragpj,,,Fens Primary School,,,,Fens Primary School,,Catcote Road,,,,4,,S,E0037887,The Fens,Hartlepool,,,,,,0,UKOS,449613,528843,-1.232584,54.652256,BCT,MKD,OTH,,,,022,2005-07-06T00:00:00.000,2018-02-13T16:07:28.793,4,revise,inactive
075071083A,haragpm,,,Cromer Walk,,,,Holland Road,,Mowbray Road,,,,A,,W,E0037887,The Fens,Hartlepool,,,,,,0,UKOS,449300,528939,-1.237419,54.653149,BCT,MKD,OTH,,,,022,2005-07-06T00:00:00.000,2016-12-15T15:19:10.430,2,revise,active
075071083B,haragpt,,,Cromer Walk,,,,Holland Road,,Mowbray Road,,,,B,,E,E0037887,The Fens,Hartlepool,,,,,,0,UKOS,449333,528962,-1.236904,54.653352,BCT,MKD,OTH,,,,022,2005-07-06T00:00:00.000,2016-12-15T15:21:25.828,2,revise,active
075071084A,haragpw,,,Marlowe Road End,,,,Masefield Rd,,Marlowe Road,,,,1,,W,E0037882,Rifthouse,Hartlepool,,,,,,0,UKOS,448834,530925,-1.24431,54.67104,BCT,MKD,OTH,,,,022,2005-07-06T00:00:00.000,2018-02-13T16:07:44.226,4,revise,inactive
075071084B,haragta,,,Marlowe Road End,,,,Marlowe Road,,Masefield Road,,,,2,,S,E0037882,Rifthouse,Hartlepool,,,,,,0,UKOS,448763,530982,-1.245401,54.671559,BCT,MKD,OTH,,,,022,2005-07-06T00:00:00.000,2018-02-13T16:08:09.596,4,revise,inactive
075071084C,haragtd,,,Marlowe Road End,,,,Marlowe Road,,Masefield Road,,,,3,,N,E0037882,Rifthouse,Hartlepool,,,,,,0,UKOS,448748,531010,-1.245629,54.671812,BCT,MKD,OTH,,,,022,2005-07-06T00:00:00.000,2018-02-13T16:08:21.103,4,revise,inactive
075071084D,haragtg,,,Marlowe Road End,,,,Marlowe Road,,Masefield Road,,,,4,,E,E0037882,Rifthouse,Hartlepool,,,,,,0,UKOS,448867,530938,-1.243796,54.671154,BCT,MKD,TIP,,,,022,2005-07-06T00:00:00.000,2018-02-13T16:07:56.938,4,revise,inactive
075071085A,haragtj,,,Spalding Road,,,,Cramwell Road,,Mowbray Road,,,,A,,W,E0037887,The Fens,Hartlepool,,,,,,0,UKOS,449133,528915,-1.240011,54.652949,BCT,MKD,OTH,,,,022,2005-07-06T00:00:00.000,2016-12-15T15:30:39.799,2,revise,active
075071085B,haragtm,,,Spalding Road,,,,Cramwell Road,,Mowbray Road,,,,B,,E,E0037887,The Fens,Hartlepool,,,,,,0,UKOS,449008,528958,-1.241941,54.653348,BCT,MKD,OTH,,,,022,2005-07-06T00:00:00.000,2016-12-15T15:53:52.476,2,revise,active
075071086A,haragtp,,,Wainfleet Road,,,,Wainfleet Road,,Mowbray Road,,,,A,,NW,E0037887,The Fens,Hartlepool,,,,,,0,UKOS,448872,528966,-1.244047,54.653433,BCT,MKD,OTH,,,,022,2005-07-06T00:00:00.000,2016-12-15T16:03:25.335,2,revise,active
075071087A,haragtw,,,Moffat Road,,,,Moffat Road,,Maxwell Road,,,,A,,S,E0037879,Owton Manor,Hartlepool,,,,,,0,UKOS,448823,529127,-1.24478,54.654884,BCT,MKD,OTH,,,,022,2005-07-06T00:00:00.000,2016-12-15T16:23:52.669,2,revise,active
075071087B,haragwa,,,Moffat Road,,,,Moffat Road,,Maxwell Road,,,,B,,N,E0037879,Owton Manor,Hartlepool,,,,,,0,UKOS,448797,529182,-1.245174,54.655381,BCT,MKD,OTH,,,,022,2005-07-06T00:00:00.000,2016-12-15T17:05:38.809,2,revise,active
075071088A,haragwd,,,St Patrick's RC Church,,,,Owton Manor Lane,,MAXWELL ROAD,,,,A,,N,E0037879,Owton Manor,Hartlepool,,,,,,0,UKOS,448781,529401,-1.245389,54.65735,BCT,MKD,TIP,,,,022,2005-07-06T00:00:00.000,2021-02-12T15:24:02.884,3,revise,active
075071088B,haragwg,,,St Patrick's RC Church,,,,Owton Manor Lane,,Maxwell Road,,,,B,,S,E0037879,Owton Manor,Hartlepool,,,,,,0,UKOS,448798,529369,-1.245127,54.657061,BCT,MKD,TIP,,,,022,2005-07-06T00:00:00.000,2016-12-15T17:22:45.904,2,revise,active
075071088C,haragwj,,,St Patrick's RC Church,,,,Maxwell Road,,Owton Manor Lane,,,,C,,E,E0037879,Owton Manor,Hartlepool,,,,,,0,UKOS,448782,529433,-1.245364,54.657638,BCT,MKD,TIP,,,,022,2005-07-06T00:00:00.000,2016-12-15T17:29:02.455,2,revise,active
075071088D,haragwm,,,St Patrick's RC Church,,,,Maxwell Road,,Owton Manor Lane,,,,D,,W,E0037879,Owton Manor,Hartlepool,,,,,,0,UKOS,448739,529412,-1.246034,54.657454,BCT,MKD,TIP,,,,022,2005-07-06T00:00:00.000,2016-12-15T17:36:21.374,2,revise,active
075071089A,haragwp,,,Dumfries Road,,,,Dumfries Road,,Rossmere Way,,,,A,,W,E0037879,Owton Manor,Hartlepool,,,,,,0,UKOS,449684,529882,-1.231308,54.661585,BCT,MKD,OTH,,,,022,2005-07-06T00:00:00.000,2016-12-15T18:00:14.279,2,revise,active
075071089B,haragwt,,,Dumfries Road,,,,Dumfries Road,,Rossmere Way,,,,B,,E,E0037879,Owton Manor,Hartlepool,,,,,,0,UKOS,449718,529903,-1.230777,54.66177,BCT,MKD,OTH,,,,022,2005-07-06T00:00:00.000,2016-12-15T18:25:03.755,2,revise,active
075071090A,harajad,,,Ardrossan Road,,,,Rossmere Park,,Rossmere Way,,,,A,,W,E0037879,Owton Manor,Hartlepool,,,,,,0,UKOS,450050,529975,-1.225619,54.662384,BCT,MKD,TIP,,,,022,2005-07-06T00:00:00.000,2016-12-16T10:36:43.079,2,revise,active
075071090B,harajag,,,Ardrossan Road,,,,Rossmere Park,,Rossmere Way,,,,B,,E,E0037879,Owton Manor,Hartlepool,,,,,,0,UKOS,449990,529985,-1.226547,54.66248,BCT,MKD,TIP,,,,022,2005-07-06T00:00:00.000,2016-12-16T10:39:37.139,2,revise,active
075071091A,harajaj,,,Macrae Road,,,,Wynyard Road,,Owton Manor Lane,,,,A,,SE,E0037879,Owton Manor,Hartlepool,,,,,,0,UKOS,448585,529452,-1.248414,54.657828,BCT,MKD,OTH,,,,022,2005-07-06T00:00:00.000,2020-05-06T14:13:05.809,3,revise,active
075071091B,harajam,,,Macrae Road,,,,Wynyard Road,,Owton Manor Lane,,,,B,,N,E0037879,Owton Manor,Hartlepool,,,,,,0,UKOS,448531,529492,-1.249245,54.658192,BCT,MKD,OTH,,,,022,2005-07-06T00:00:00.000,2016-12-16T12:46:50.079,2,revise,active
075071092A,harajap,,,Lindsay Road,,,,Lindsay Road,,Wynyard Road,,,,A,,S,E0037879,Owton Manor,Hartlepool,,,,,,0,UKOS,448579,529775,-1.248454,54.660731,BCT,MKD,OTH,,,,022,2005-07-06T00:00:00.000,2016-12-16T12:51:37.101,2,revise,active
075071092B,harajat,,,Lindsay Road,,,,Lindsay Road,,Wynyard Road,,,,B,,N,E0037879,Owton Manor,Hartlepool,,,,,,0,UKOS,448568,529790,-1.248622,54.660867,BCT,MKD,OTH,,,,022,2005-07-06T00:00:00.000,2016-12-16T12:53:08.812,2,revise,active
075071093A,harajaw,,,Belmont Gardens,,,,Belmont Gardens,,Park Road,,,,1,,W,E0054977,Hartlepool,,,,,,,0,UKOS,449963,532176,-1.226592,54.682171,BCT,MKD,OTH,,,,022,2005-07-06T00:00:00.000,2018-02-13T16:07:11.962,8,revise,inactive
075071094A,harajda,,,Dalkeith Road,,,,Dalkeith Road,,Eskdale Road,,,,A,,S,E0037879,Owton Manor,Hartlepool,,,,,,0,UKOS,448946,530065,-1.242717,54.663301,BCT,MKD,OTH,,,,022,2005-07-06T00:00:00.000,2016-12-16T14:44:56.889,2,revise,active
075071094B,harajdg,,,Dalkeith Road,,,,Dalkeith Road,,Eskdale Road,,,,B,,N,E0037879,Owton Manor,Hartlepool,,,,,,0,UKOS,448924,530115,-1.24305,54.663753,BCT,MKD,OTH,,,,022,2005-07-06T00:00:00.000,2016-12-16T14:47:21.357,2,revise,active
075071095A,harajdj,,,Travellers Rest,,,,Travellers Rest,,Stockton Road,,,,A,,NE,E0037866,Foggy Furze,Hartlepool,,,,,,0,UKOS,450440,530264,-1.219524,54.664943,BCT,MKD,TIP,,,,022,2005-07-06T00:00:00.000,2016-12-16T14:51:44.532,2,revise,active
075071095B,harajdm,,,Travellers Rest,,,,Travellers Rest,,Stockton Road,,,,B,,SW,E0037866,Foggy Furze,Hartlepool,,,,,,0,UKOS,450446,530238,-1.219435,54.664708,BCT,MKD,TIP,,,,022,2005-07-06T00:00:00.000,2016-12-16T14:54:27.796,2,revise,active
075071096A,harajdp,,,Park View Industrial Estate,,,,Park View Road,,Brenda Road,,,,A,,S,E0037866,Foggy Furze,Hartlepool,,,,,,0,UKOS,451050,529989,-1.210116,54.66241,BCT,MKD,OTH,,,,022,2005-07-06T00:00:00.000,2016-12-16T15:15:41.950,3,revise,active
075071096B,harajdt,,,Park View Industrial Estate,,,,Park View Industrial Estate,,Brenda Road,,,,B,,N,E0037866,Foggy Furze,Hartlepool,,,,,,0,UKOS,451022,530072,-1.210535,54.663159,BCT,MKD,OTH,,,,022,2005-07-06T00:00:00.000,2016-12-16T15:18:58.381,2,revise,active
075071097A,harajdw,,,Brierton Shops,,,,Brierton Lane,,Brierton Lane,,,,A,,W,E0037879,Owton Manor,Hartlepool,,,,,,0,UKOS,448888,530398,-1.24356,54.666299,BCT,MKD,TIP,,,,022,2005-07-06T00:00:00.000,2020-05-06T14:14:55.072,3,revise,active
075071097B,harajga,,,Brierton Shops,,,,Eskdale Road,,Eskdale Road,,,,B,,S,E0037879,Owton Manor,Hartlepool,,,,,,0,UKOS,448930,530301,-1.242925,54.665424,BCT,MKD,TIP,,,,022,2005-07-06T00:00:00.000,2020-05-06T14:15:17.813,3,revise,active
075071098A,harajgd,,,Shaw Grove,,,,Shaw Grove,,Masefield Road,,,,A,,S,E0037882,Rifthouse,Hartlepool,,,,,,0,UKOS,448751,530808,-1.245616,54.669997,BCT,MKD,TIP,,,,022,2005-07-06T00:00:00.000,2016-12-16T15:45:50.682,2,revise,active
075071098B,harajgj,,,Shaw Grove,,,,Shaw Grove,,Masefield Road,,,,B,,N,E0037882,Rifthouse,Hartlepool,,,,,,0,UKOS,448719,530814,-1.246111,54.670054,BCT,MKD,TIP,,,,022,2005-07-06T00:00:00.000,2016-12-16T15:50:52.818,2,revise,active
075071099A,harajgm,,,Throston Close,,,,Throston Close,,Throston Grange Lane,,,,A,,W,E0037890,Throston Grange,Hartlepool,,,,,,0,UKOS,449622,534131,-1.231548,54.699772,BCT,MKD,OTH,,,,022,2005-07-06T00:00:00.000,2016-12-16T15:54:52.164,2,revise,active
075071099B,harajgp,,,Throston Close,,,,Throston Close,,Throston Grange Lane,,,,B,,E,E0037890,Throston Grange,Hartlepool,,,,,,0,UKOS,449609,534137,-1.231749,54.699827,BCT,MKD,OTH,,,,022,2005-07-06T00:00:00.000,2016-12-16T16:01:29.365,2,revise,active
075071100A,harajgt,,,Family Wood,,,,Summerhill Lane,,Catcote Road,,,,A,,S,E0054977,Hartlepool,,,,,,,0,UKOS,449441,531842,-1.234744,54.679221,BCT,MKD,OTH,,,,022,2005-07-06T00:00:00.000,2016-12-16T16:42:20.104,2,revise,active
075071100B,harajgw,,,Family Wood,,,,Summerhill Lane,,Catcote Road,,,,B,,N,E0054977,Hartlepool,,,,,,,0,UKOS,449418,531836,-1.235101,54.679169,BCT,MKD,OTH,,,,022,2005-07-06T00:00:00.000,2016-12-16T16:51:56.105,3,revise,active
075071101A,harajma,,,Darwin Grove,,,,Thackery Road,,Masefield Road,,,,A,,E,E0037882,Rifthouse,Hartlepool,,,,,,0,UKOS,448925,531143,-1.242862,54.67299,BCT,MKD,TIP,,,,022,2005-07-06T00:00:00.000,2016-12-16T16:55:15.519,2,revise,active
075071101B,harajmd,,,Darwin Grove,,,,Thackery Road,,Masefield Road,,,,B,,W,E0037882,Rifthouse,Hartlepool,,,,,,0,UKOS,448897,531129,-1.243299,54.672867,BCT,MKD,OTH,,,,022,2005-07-06T00:00:00.000,2016-12-16T17:04:56.892,2,revise,active
075071102A,harajmg,,,Community Building,,,,Primary School,,MASEFIELD ROAD,,,,A,,W,E0037882,Rifthouse,Hartlepool,,,,,,0,UKOS,449198,531132,-1.238631,54.67287,BCT,MKD,OTH,,,,022,2005-07-06T00:00:00.000,2019-05-07T14:21:56.951,3,revise,active
075071102B,harajmj,,,Community Building,,,,Primary School,,Masefield Road,,,,B,,E,E0037882,Rifthouse,Hartlepool,,,,,,0,UKOS,449209,531146,-1.238458,54.672989,BCT,MKD,OTH,,,,022,2005-07-06T00:00:00.000,2016-12-16T17:34:34.713,2,revise,active
075071103A,harajmp,,,St Columba's Centre,,,,St Columba's Church,,Marlowe Road,,,,A,,W,E0037882,Rifthouse,Hartlepool,,,,,,0,UKOS,449060,530913,-1.240808,54.67091,BCT,MKD,OTH,,,,022,2005-07-06T00:00:00.000,2016-12-16T17:40:56.639,2,revise,active
075071103B,harajmt,,,St Columba's Centre,,,,St Columba's Church,,Marlowe Road,,,,B,,E,E0037882,Rifthouse,Hartlepool,,,,,,0,UKOS,449108,530925,-1.240061,54.671013,BCT,MKD,OTH,,,,022,2005-07-06T00:00:00.000,2016-12-16T17:43:29.958,2,revise,active
075071104A,harajmw,,,Catholic Club,,,,Chesterton Road,,Marlowe Road,,,,A,,E,E0037882,Rifthouse,Hartlepool,,,,,,0,UKOS,449304,530939,-1.23702,54.67112,BCT,MKD,TIP,,,,022,2005-07-06T00:00:00.000,2016-12-16T18:47:33.161,2,revise,active
075071104B,harajpa,,,Catholic Club,,,,Chesterton Road,,Marlowe Road,,,,B,,W,E0037882,Rifthouse,Hartlepool,,,,,,0,UKOS,449243,530909,-1.237971,54.670857,BCT,MKD,TIP,,,,022,2005-07-06T00:00:00.000,2016-12-16T18:50:47.073,2,revise,active
075071105A,harajpd,,,Tristram Avenue,,,,Tristram Avenue,,Oxford Road,,,,A,,E,E0037882,Rifthouse,Hartlepool,,,,,,0,UKOS,449860,531188,-1.228357,54.673303,BCT,MKD,OTH,,,,022,2005-07-06T00:00:00.000,2016-12-20T11:33:46.973,2,revise,active
075071105B,harajpg,,,Tristram Avenue,,,,Tristram Avenue,,Oxford Road,,,,B,,W,E0037882,Rifthouse,Hartlepool,,,,,,0,UKOS,449884,531181,-1.227987,54.673238,BCT,MKD,OTH,,,,022,2005-07-06T00:00:00.000,2016-12-20T12:03:41.053,2,revise,active
075071106A,harajpj,,,English Martyrs School,,,,English Martyrs School,,CATCOTE ROAD,,,,A,,N,E0037882,Rifthouse,Hartlepool,,,,,,0,UKOS,449372,531474,-1.235869,54.675928,BCT,MKD,OTH,,,,022,2005-07-06T00:00:00.000,2019-11-15T14:10:16.139,4,revise,active
075071106B,harajpm,,,English Martyrs School,,,,English Martyrs School,,Catcote Road,,,,B,,N,E0037882,Rifthouse,Hartlepool,,,,,,0,UKOS,449371,531463,-1.235893,54.675822,BCT,MKD,OTH,,,,022,2005-07-06T00:00:00.000,2019-11-15T14:10:23.893,3,revise,active
075071106C,harajpt,,,English Martyrs School,,,,English Martyrs School,,Catcote Road,,,,C,,N,E0037882,Rifthouse,Hartlepool,,,,,,0,UKOS,449366,531432,-1.235976,54.675544,BCT,MKD,OTH,,,,022,2005-07-06T00:00:00.000,2019-11-15T14:10:31.138,3,revise,active
075071106D,harajpw,,,English Martyrs School,,,,English Martyrs School,,Catcote Road,,,,D,,N,E0037882,Rifthouse,Hartlepool,,,,,,0,UKOS,449363,531391,-1.236029,54.675176,BCT,MKD,OTH,,,,022,2005-07-06T00:00:00.000,2019-11-15T14:10:38.761,3,revise,active
075071106E,harajta,,,English Martyrs School,,,,English Martyrs School,,Catcote Road,,,,Stand E,,N,E0037882,Rifthouse,Hartlepool,,,,,,0,UKOS,449362,531366,-1.236049,54.674951,BCT,MKD,OTH,,,,022,2005-07-06T00:00:00.000,2018-12-14T16:56:57.037,4,revise,active
075071107A,harajtd,,,Chaucer Avenue,,,,Swalebrooke Avenue,,Oxford Road,,,,A,,W,E0037882,Rifthouse,Hartlepool,,,,,,0,UKOS,449449,531072,-1.23475,54.672301,BCT,MKD,TIP,,,,022,2005-07-06T00:00:00.000,2016-12-20T13:00:22.617,2,revise,active
075071107B,harajtg,,,Chaucer Avenue,,,,Swalebrooke Avenue,,Oxford Road,,,,B,,E,E0037882,Rifthouse,Hartlepool,,,,,,0,UKOS,449479,531099,-1.23428,54.672541,BCT,MKD,TIP,,,,022,2005-07-06T00:00:00.000,2016-12-20T13:17:46.822,2,revise,active
075071108A,harajtj,,,Southbrooke Avenue,,,,Southbrooke Avenue,,Westbrooke Avenue,,,,A,,E,E0037866,Foggy Furze,Hartlepool,,,,,,0,UKOS,450039,530689,-1.225667,54.668801,BCT,MKD,TIP,,,,022,2005-07-06T00:00:00.000,2016-12-20T13:24:48.980,2,revise,active
075071108B,harajtm,,,Southbrooke Avenue,,,,Southbrooke Avenue,,Westbrooke Avenue,,,,B,,W,E0037866,Foggy Furze,Hartlepool,,,,,,0,UKOS,450007,530669,-1.226167,54.668625,BCT,MKD,TIP,,,,022,2005-07-06T00:00:00.000,2016-12-20T13:30:57.933,2,revise,active
075071109A,harajtp,,,Macaulay Road,,,,Tynebrooke Avenue,,Catcote Road,,,,A,,N,E0037882,Rifthouse,Hartlepool,,,,,,0,UKOS,449424,530729,-1.235195,54.669221,BCT,MKD,OTH,,,,022,2005-07-06T00:00:00.000,2016-12-20T13:37:47.288,2,revise,active
075071109B,harajtw,,,Macaulay Road,,,,Tynebrooke Avenue,,Catcote Road,,,,B,,S,E0037882,Rifthouse,Hartlepool,,,,,,0,UKOS,449440,530697,-1.234953,54.668932,BCT,MKD,OTH,,,,022,2005-07-06T00:00:00.000,2016-12-20T14:28:42.781,2,revise,active
075071110A,harajwa,,,Farmfoods,,,,Brierton Lane,,Catcote Road,,,,A,,S,E0037879,Owton Manor,Hartlepool,,,,,,0,UKOS,449412,530217,-1.235468,54.664622,BCT,MKD,OTH,,,,022,2005-07-06T00:00:00.000,2016-12-20T15:49:13.201,2,revise,active
075071110B,harajwd,,,Farmfoods,,,,Brierton Lane,,Catcote Road,,,,B,,N,E0037879,Owton Manor,Hartlepool,,,,,,0,UKOS,449402,530341,-1.235602,54.665737,BCT,MKD,OTH,,,,022,2005-07-06T00:00:00.000,2016-12-20T15:52:21.250,2,revise,active
075071111A,harajwg,,,Kingsley Avenue,,,,Kingsley Avenue,,Westbrooke Avenue,,,,A,,W,E0037882,Rifthouse,Hartlepool,,,,,,0,UKOS,449704,530698,-1.230859,54.668915,BCT,MKD,OTH,,,,022,2005-07-06T00:00:00.000,2016-12-20T15:58:18.020,2,revise,active
075071111B,harajwj,,,Kingsley Avenue,,,,Kingsley Avenue,,Westbrooke Avenue,,,,B,,E,E0037882,Rifthouse,Hartlepool,,,,,,0,UKOS,449737,530711,-1.230346,54.669029,BCT,MKD,OTH,,,,022,2005-07-06T00:00:00.000,2016-12-20T16:02:13.247,2,revise,active
075071112A,harajwm,,,Teesbrooke Avenue,,,,Teesbrooke Avenue,,Tynebrooke Avenue,,,,A,,W,E0037882,Rifthouse,Hartlepool,,,,,,0,UKOS,449474,530645,-1.234434,54.668462,BCT,MKD,OTH,,,,022,2005-07-06T00:00:00.000,2016-12-20T16:21:06.968,2,revise,active
075071112B,harajwp,,,Teesbrooke Avenue,,,,Teesbrooke Avenue,,Tynebrooke Avenue,,,,B,,E,E0037882,Rifthouse,Hartlepool,,,,,,0,UKOS,449505,530662,-1.233951,54.668611,BCT,MKD,OTH,,,,022,2005-07-06T00:00:00.000,2016-12-20T16:25:41.859,2,revise,active
075071113A,harajwt,,,Wynyard Mews,,,,Farr Walk,,Wynyard Road,,,,1,,W,E0037879,Owton Manor,Hartlepool,,,,,,0,UKOS,449125,529790,-1.239988,54.660813,BCT,MKD,OTH,,,,022,2005-07-06T00:00:00.000,2019-11-15T14:13:55.878,6,revise,inactive
075071113B,haramad,,,Farr Walk,,,,Farr Walk,,WYNYARD ROAD,,,,2,,E,E0037879,Owton Manor,Hartlepool,,,,,,0,UKOS,449215,529806,-1.238588,54.660948,BCT,MKD,OTH,,,,022,2005-07-06T00:00:00.000,2018-02-13T16:10:43.144,4,revise,inactive
075071114A,haramag,,,Wynyard Road Shops,,,,Wynyard Road Shops,,Catcote Road,,,,1,,N,E0037879,Owton Manor,Hartlepool,,,,,,0,UKOS,449394,529903,-1.2358,54.661802,BCT,MKD,TIP,,,,022,2005-07-06T00:00:00.000,2018-02-13T16:09:44.715,4,revise,inactive
075071114B,haramaj,,,Wynyard Road Shops,,,,Wynyard Road Shops,,Catcote Road,,,,2,,N,E0037879,Owton Manor,Hartlepool,,,,,,0,UKOS,449393,529875,-1.23582,54.661551,BCT,MKD,TIP,,,,022,2005-07-06T00:00:00.000,2018-02-13T16:09:56.975,4,revise,inactive
075071114C,haramam,,,Wynyard Road Shops,,,,Wynyard Road Shops,,WYNYARD ROAD,,,,3,,W,E0037879,Owton Manor,Hartlepool,,,,,,0,UKOS,449284,529793,-1.237521,54.660825,BCT,MKD,TIP,,,,022,2005-07-06T00:00:00.000,2018-02-13T16:08:56.245,4,revise,inactive
075071114D,haramap,,,Dundee Road,,,,Wynyard Road Shops,,Rossmere Way,,,,4,,E,E0037879,Owton Manor,Hartlepool,,,,,,0,UKOS,449496,529896,-1.23422,54.661729,BCT,MKD,OTH,,,,022,2005-07-06T00:00:00.000,2007-06-15T00:00:00.000,1,revise,inactive
075071114E,haramat,,,Wynyard Road Shops,,,,Wynyard Road Shops,,Catcote Road,,,,5,,S,E0037879,Owton Manor,Hartlepool,,,,,,0,UKOS,449458,529727,-1.234837,54.660214,BCT,MKD,TIP,,,,022,2005-07-06T00:00:00.000,2018-02-13T16:09:09.607,4,revise,inactive
075071114G,hardwad,,,Rossmere Way,,,,Rossmere Way,,Catcote Road,,,,7,,S,E0037879,Owton Manor,Hartlepool,,,,,,0,UKOS,449412,529959,-1.235511,54.662303,BCT,MKD,OTH,,,,022,2006-10-11T00:00:00.000,2018-02-13T16:10:09.487,4,revise,inactive
075071115A,haramaw,,,McDonald's,,,,Thompson Street,,GREEN STREET,,,,A,,S,E0054977,Hartlepool,,,,,,,0,UKOS,451009,531901,-1.210426,54.679602,BCT,MKD,OTH,,,,022,2005-07-06T00:00:00.000,2018-11-27T15:31:04.706,2,revise,active
075071115B,haramda,,,McDonald's,,,,Thompson Street,,Green Street,,,,B,,W,E0054977,Hartlepool,,,,,,,0,UKOS,450974,531917,-1.210958,54.679742,BCT,MKD,OTH,,,,022,2005-07-06T00:00:00.000,2016-12-20T16:43:33.935,2,revise,active
075071116A,haramdg,,,Huntsman Greatham,,,,Tioxide,,Tees Road,,,,A,,SW,E0037868,Graythorp,,,,,,,0,UKOS,451448,526748,-1.204515,54.633247,BCT,MKD,OTH,,,,022,2005-07-06T00:00:00.000,2016-12-20T16:49:52.368,2,revise,active
075071116B,haramdj,,,Huntsman Greatham,,,,Tioxide,,Tees Road,,,,B,,NE,E0037868,Graythorp,,,,,,,0,UKOS,451406,526700,-1.205174,54.63282,BCT,MKD,OTH,,,,022,2005-07-06T00:00:00.000,2016-12-20T16:59:17.131,2,revise,active
075071117A,haramdm,,,Greatham Creek Bridge,,,,Greatham Creek,,Tees Road,,,,A,,S,E0037868,Graythorp,,,,,,,0,UKOS,451025,525800,-1.211232,54.624771,BCT,MKD,OTH,,,,022,2005-07-06T00:00:00.000,2016-12-20T17:14:09.341,2,revise,active
075071117B,haramdp,,,Greatham Creek Bridge,,,,Greatham Creek,,Tees Road,,,,B,,N,E0037868,Graythorp,,,,,,,0,UKOS,451010,525848,-1.211456,54.625204,BCT,MKD,OTH,,,,022,2005-07-06T00:00:00.000,2016-12-20T17:15:36.586,2,revise,active
075071118A,haramdt,,,Juniper Walk,,,,Jedburgh Road,,Kilmarnock Road,,,,A,,N,E0037879,Owton Manor,Hartlepool,,,,,,0,UKOS,448883,529664,-1.24376,54.659704,BCT,MKD,OTH,,,,022,2005-07-06T00:00:00.000,2016-12-20T17:33:30.907,2,revise,active
075071118B,haramdw,,,Juniper Walk,,,,Jedburgh Road,,Kilmarnock Road,,,,B,,S,E0037879,Owton Manor,Hartlepool,,,,,,0,UKOS,448896,529641,-1.243563,54.659496,BCT,MKD,OTH,,,,022,2005-07-06T00:00:00.000,2016-12-20T17:37:31.462,2,revise,active
075071119A,haramga,,,Surtees Street,,,,Church Street,,Tower Street,,,,A,,N,E0054977,Hartlepool,,,,,,,0,UKOS,451123,532430,-1.208558,54.684337,BCT,MKD,OTH,,,,022,2005-07-06T00:00:00.000,2016-11-11T16:13:12.600,2,revise,active
075071120A,haramgd,,,Stagecoach Depot,,,,Industrial Estate,,Brenda Road,,,,A,,S,E0037866,Foggy Furze,Hartlepool,,,,,,0,UKOS,450948,530531,-1.211602,54.667291,BCT,MKD,TIP,,,,022,2005-07-06T00:00:00.000,2016-12-20T17:45:19.362,2,revise,active
075071120B,haramgj,,,Stagecoach Depot,,,,Industrial Estate,,Brenda Road,,,,B,,N,E0037866,Foggy Furze,Hartlepool,,,,,,0,UKOS,450952,530459,-1.211553,54.666643,BCT,MKD,TIP,,,,022,2005-07-06T00:00:00.000,2016-12-20T17:55:46.824,2,revise,active
075071121A,haramgm,,,The Park Inn,,,,Osborne Road,,Park Road,,,,A,,E,E0054977,Hartlepool,,,,,,,0,UKOS,450485,532222,-1.218488,54.682532,BCT,MKD,TIP,,,,022,2005-07-06T00:00:00.000,2016-11-11T16:03:04.787,3,revise,active
075071121B,haramgp,,,The Park Inn,,,,Osborne Road,,Park Road,,,,B,,W,E0054977,Hartlepool,,,,,,,0,UKOS,450519,532206,-1.217964,54.682385,BCT,MKD,TIP,,,,022,2005-07-06T00:00:00.000,2016-11-11T16:03:34.584,3,revise,active
075071122A,haramgt,,,Braemar Road,,,,Braemar Road,,Owton Manor Lane,,,,A,,W,E0037879,Owton Manor,Hartlepool,,,,,,0,UKOS,450236,529501,-1.222817,54.658107,BCT,MKD,OTH,,,,022,2005-07-06T00:00:00.000,2016-12-21T10:07:02.793,3,revise,active
075071122B,haramgw,,,Braemar Road,,,,Braemar Road,,Owton Manor Lane,,,,B,,E,E0037879,Owton Manor,Hartlepool,,,,,,0,UKOS,450261,529516,-1.222427,54.658239,BCT,MKD,OTH,,,,022,2005-07-06T00:00:00.000,2016-12-21T10:13:14.945,3,revise,active
075071123A,haramja,,,Baptist Church,,,,Catcote Road,,Owton Manor Lane,,,,A,,W,E0037879,Owton Manor,Hartlepool,,,,,,0,UKOS,449528,529509,-1.233789,54.658248,BCT,MKD,OTH,,,,022,2005-07-06T00:00:00.000,2016-12-21T10:27:05.939,2,revise,active
075071123B,haramjd,,,Baptist Church,,,,Catcote Road,,Owton Manor Lane,,,,B,,E,E0037879,Owton Manor,Hartlepool,,,,,,0,UKOS,449619,529503,-1.23238,54.658186,BCT,MKD,OTH,,,,022,2005-07-06T00:00:00.000,2016-12-21T10:31:32.096,2,revise,active
075071123C,haramjg,,,Baptist Church,,,,Owton Manor Lane,,Catcote Road,,,,C,,S,E0037879,Owton Manor,Hartlepool,,,,,,0,UKOS,449588,529427,-1.232873,54.657506,BCT,MKD,OTH,,,,022,2005-07-06T00:00:00.000,2016-12-21T10:56:38.309,2,revise,active
075071123D,haramjm,,,Baptist Church,,,,Owton Manor Lane,,Catcote Road,,,,D,,N,E0037879,Owton Manor,Hartlepool,,,,,,0,UKOS,449536,529551,-1.233658,54.658625,BCT,MKD,TIP,,,,022,2005-07-06T00:00:00.000,2016-12-21T11:01:39.611,2,revise,active
075071124A,haramjp,,,Inverness Road,,,,Huntley Road,,Owton Manor Lane,,,,A,,E,E0037879,Owton Manor,Hartlepool,,,,,,0,UKOS,449350,529492,-1.236551,54.658113,BCT,MKD,OTH,,,,022,2005-07-06T00:00:00.000,2016-12-21T11:28:40.407,2,revise,active
075071124B,haramjt,,,Inverness Road,,,,Huntley Road,,Owton Manor Lane,,,,B,,W,E0037879,Owton Manor,Hartlepool,,,,,,0,UKOS,449288,529467,-1.237516,54.657895,BCT,MKD,OTH,,,,022,2005-07-06T00:00:00.000,2016-12-21T11:42:00.951,2,revise,active
075071125A,haramjw,,,Manor Community Academy,,,,Owton Manor School,,Owton Manor Lane,,,,A,,E,E0037879,Owton Manor,Hartlepool,,,,,,0,UKOS,449156,529478,-1.23956,54.658006,BCT,MKD,OTH,,,,022,2005-07-06T00:00:00.000,2016-12-21T11:58:18.566,3,revise,active
075071125B,harampa,,,Manor Community Academy,,,,Owton Manor School,,Owton Manor Lane,,,,B,,W,E0037879,Owton Manor,Hartlepool,,,,,,0,UKOS,449035,529441,-1.241442,54.657686,BCT,MKD,OTH,,,,022,2005-07-06T00:00:00.000,2016-12-21T12:08:43.984,2,revise,active
075071125C,harampd,,,Manor School,,,,Owton Manor School,,Owton Manor Lane,,,,3,,E,E0037879,Owton Manor,Hartlepool,,,,,,0,UKOS,449165,529479,-1.23942,54.658014,BCT,MKD,OTH,,,,022,2005-07-06T00:00:00.000,2017-05-18T15:13:54.044,3,revise,inactive
075071126A,harampg,,,Eskdale Road,,,,Forres Walk,,Wynyard Road,,,,1,,E,E0037879,Owton Manor,Hartlepool,,,,,,0,UKOS,448968,529818,-1.242417,54.66108,BCT,MKD,OTH,,,,022,2005-07-06T00:00:00.000,2018-02-13T16:11:09.662,4,revise,inactive
075071126B,harampj,,,Eskdale Road,,,,Eskdale Road,,Wynyard Road,,,,2,,W,E0037879,Owton Manor,Hartlepool,,,,,,0,UKOS,448830,529801,-1.244559,54.66094,BCT,MKD,OTH,,,,022,2005-07-06T00:00:00.000,2018-02-13T16:11:21.402,4,revise,inactive
075071126C,harampm,,,Eskdale Road South End,,,,Owton Manor Primary School,,Eskdale Road,,,,3,,S,E0037879,Owton Manor,Hartlepool,,,,,,0,UKOS,448877,529840,-1.243824,54.661286,BCT,MKD,OTH,,,,022,2005-07-06T00:00:00.000,2018-02-13T16:11:32.917,4,revise,inactive
075071126D,harampt,,,Eskdale Road South End,,,,Owton Manor Primary School,,Eskdale Road,,,,4,,N,E0037879,Owton Manor,Hartlepool,,,,,,0,UKOS,448855,529861,-1.244161,54.661477,BCT,MKD,OTH,,,,022,2005-07-06T00:00:00.000,2018-02-13T16:11:47.234,4,revise,inactive
075071127A,harampw,,,The Rossmere,,,,The Rossmere,,Owton Manor Lane,,,,A,,W,E0037879,Owton Manor,Hartlepool,,,,,,0,UKOS,449777,529519,-1.229928,54.658314,BCT,MKD,OTH,,,,022,2005-07-06T00:00:00.000,2016-12-21T12:23:40.708,3,revise,active
075071127B,haramta,,,The Rossmere,,,,The Rossmere,,Owton Manor Lane,,,,B,,E,E0037879,Owton Manor,Hartlepool,,,,,,0,UKOS,449800,529537,-1.229569,54.658473,BCT,MKD,OTH,,,,022,2005-07-06T00:00:00.000,2016-12-21T12:33:06.515,3,revise,active
075071128A,haramtd,,,Westbourne Road,,,,Bowling Green,,Shrewsbury Street,,,,A,,N,E0037866,Foggy Furze,Hartlepool,,,,,,0,UKOS,450164,531448,-1.223599,54.675609,BCT,MKD,OTH,,,,022,2005-07-06T00:00:00.000,2016-12-21T12:37:58.862,2,revise,active
075071128B,haramtg,,,Westbourne Road,,,,Bowling Green,,Shrewsbury Street,,,,B,,S,E0037866,Foggy Furze,Hartlepool,,,,,,0,UKOS,450168,531497,-1.223529,54.676049,BCT,MKD,OTH,,,,022,2005-07-06T00:00:00.000,2016-12-21T13:03:00.965,2,revise,active
075071129A,haramtj,,,St Theresa's RC Church,,,,Beath Grove,,Stockton Road,,,,A,,N,E0037879,Owton Manor,Hartlepool,,,,,,0,UKOS,450305,529625,-1.221726,54.659214,BCT,MKD,TIP,,,,022,2005-07-06T00:00:00.000,2017-05-11T12:23:07.171,2,revise,active
075071129B,haramtm,,,St Theresa's RC Church,,,,Lealholm Road,,Stockton Road,,,,B,,S,E0037879,Owton Manor,Hartlepool,,,,,,0,UKOS,450323,529557,-1.221459,54.658601,BCT,MKD,TIP,,,,022,2005-07-06T00:00:00.000,2017-05-11T12:51:57.966,2,revise,active
075071129C,haramtp,,,Owton Lodge,,,,Owton Lodge,,Stockton Road,,,,3,,S,E0037879,Owton Manor,Hartlepool,,,,,,0,UKOS,450274,529418,-1.222242,54.657357,BCT,MKD,TIP,,,,022,2005-07-06T00:00:00.000,2018-02-13T16:12:16.240,4,revise,inactive
075071129D,haramtw,,,Owton Lodge,,,,Owton Lodge,,Stockton Road,,,,4,,N,E0037879,Owton Manor,Hartlepool,,,,,,0,UKOS,450255,529424,-1.222536,54.657413,BCT,MKD,TIP,,,,022,2005-07-06T00:00:00.000,2018-02-13T16:12:05.412,4,revise,inactive
075071129E,haramwa,,,Owton Lodge,,,,Owton Lodge,,Seaton Lane,,,,5,,E,E0037879,Owton Manor,Hartlepool,,,,,,0,UKOS,450389,529512,-1.220444,54.65819,BCT,MKD,TIP,,,,022,2005-07-06T00:00:00.000,2018-02-13T16:12:39.813,4,revise,inactive
075071129F,haramwd,,,Owton Lodge,,,,Owton Lodge,,Seaton Lane,,,,6,,W,E0037879,Owton Manor,Hartlepool,,,,,,0,UKOS,450354,529493,-1.220989,54.658023,BCT,MKD,TIP,,,,022,2005-07-06T00:00:00.000,2018-02-13T16:12:27.846,4,revise,inactive
075071130A,haramwg,,,The Arches,,,,York Road,,Park Road,,,,A,,E,E0054977,Hartlepool,,,,,,,0,UKOS,450643,532229,-1.216037,54.682579,BCT,MKD,TIP,,,,022,2005-07-06T00:00:00.000,2016-11-11T15:58:46.070,2,revise,active
075071130C,haramwj,,,Gill Street,,,,Gill Street,,York Road,,,,A,,S,E0054977,Hartlepool,,,,,,,0,UKOS,450614,532117,-1.216506,54.681576,BCT,MKD,TIP,,,,022,2005-07-06T00:00:00.000,2016-11-11T15:59:58.198,3,revise,active
075071130D,haramwm,,,York Road,,,,Lister Street,,York Road,,,,4,,S,E0054977,Hartlepool,,,,,,,0,UKOS,450622,532091,-1.216386,54.681341,BCT,MKD,TIP,,,,022,2005-07-06T00:00:00.000,2007-06-15T00:00:00.000,1,revise,inactive
075071131A,haramwp,,,Jutland Road,,,,Jutland Road,,Seaton Lane,,,,A,,W,N0073091,Golden Flatts,,,,,,,0,UKOS,450627,529513,-1.216755,54.658176,BCT,MKD,OTH,,,,022,2005-07-06T00:00:00.000,2016-12-21T13:08:02.564,2,revise,active
075071131B,haramwt,,,Jutland Road,,,,Jutland Road,,Seaton Lane,,,,B,,E,N0073091,Golden Flatts,,,,,,,0,UKOS,450651,529530,-1.21638,54.658326,BCT,MKD,OTH,,,,022,2005-07-06T00:00:00.000,2016-12-21T13:18:56.540,2,revise,active
075071132A,harapad,,,Staincliffe Hotel,,,,Queen Street,,The Cliff,,,,A,,S,E0037883,Seaton Carew,,,,,,,0,UKOS,452460,530385,-1.188188,54.665824,BCT,MKD,OTH,,,,022,2005-07-06T00:00:00.000,2016-12-21T13:53:58.906,2,revise,active
075071132B,harapag,,,Staincliffe Hotel,,,,Queen Street,,The Cliff,,,,B,,N,E0037883,Seaton Carew,,,,,,,0,UKOS,452439,530361,-1.188518,54.665611,BCT,MKD,OTH,,,,022,2005-07-06T00:00:00.000,2016-12-21T15:06:37.035,2,revise,active
075071133A,harapaj,,,Golden Flatts Roundabout,,,,Seaton Lane,,Brenda Road,,,,A,,S,N0073091,Golden Flatts,,,,,,,0,UKOS,451100,529682,-1.209394,54.659647,BCT,MKD,TIP,,,,022,2005-07-06T00:00:00.000,2017-05-11T16:38:16.919,2,revise,active
075071133B,harapam,,,Golden Flatts Roundabout,,,,Seaton Lane,,Brenda Road,,,,B,,N,N0073091,Golden Flatts,,,,,,,0,UKOS,451093,529654,-1.209507,54.659396,BCT,MKD,TIP,,,,022,2005-07-06T00:00:00.000,2017-05-11T16:40:14.963,2,revise,active
075071133C,harapap,,,Golden Flatts,,,,Brenda Road,,Seaton Lane,,,,3,,W,N0073091,Golden Flatts,,,,,,,0,UKOS,450948,529585,-1.211767,54.65879,BCT,MKD,OTH,,,,022,2005-07-06T00:00:00.000,2018-02-13T16:12:57.497,4,revise,inactive
075071133D,harapat,,,Golden Flatts,,,,Brenda Road,,Seaton Lane,,,,4,,E,N0073091,Golden Flatts,,,,,,,0,UKOS,451034,529600,-1.210431,54.658916,BCT,MKD,TIP,,,,022,2005-07-06T00:00:00.000,2018-02-13T16:13:09.164,4,revise,inactive
075071134A,harapaw,,,Wainwright Walk,,,,Lawson Road,,Coronation Drive,,,,A,,S,E0037883,Seaton Carew,,,,,,,0,UKOS,452356,530603,-1.189762,54.667794,BCT,MKD,OTH,,,,022,2005-07-06T00:00:00.000,2016-12-21T15:36:33.643,2,revise,active
075071134B,harapda,,,Wainwright Walk,,,,Lawson Road,,Coronation Drive,,,,B,,N,E0037883,Seaton Carew,,,,,,,0,UKOS,452327,530629,-1.190207,54.66803,BCT,MKD,OTH,,,,022,2005-07-06T00:00:00.000,2016-12-21T15:38:45.715,2,revise,active
075071135A,harapdg,,,Newhaven Court,,,,Telephone Exchange,,Hucklehoven Way,,,,A,,E,E0054977,Hartlepool,,,,,,,0,UKOS,451205,532357,-1.207299,54.683673,BCT,MKD,TIP,,,,022,2005-07-06T00:00:00.000,2016-11-11T16:10:53.459,3,revise,active
075071135B,harapdj,,,Newhaven Court,,,,Telephone Exchange,,Hucklehoven Way,,,,B,,W,E0054977,Hartlepool,,,,,,,0,UKOS,451138,532318,-1.208345,54.683329,BCT,MKD,TIP,,,,022,2005-07-06T00:00:00.000,2016-11-11T16:10:12.399,3,revise,active
075071136A,harapdm,,,Ripon Close,,,,B1277 Roundabout,,Seaton Lane,,,,A,,W,N0073091,Golden Flatts,,,,,,,0,UKOS,451398,529558,-1.204797,54.658502,BCT,MKD,OTH,,,,022,2005-07-06T00:00:00.000,2016-12-21T16:45:21.815,2,revise,active
075071136B,harapdp,,,Ripon Close,,,,B1277 Roundabout,,Seaton Lane,,,,B,,E,N0073091,Golden Flatts,,,,,,,0,UKOS,451357,529573,-1.20543,54.658641,BCT,MKD,OTH,,,,022,2005-07-06T00:00:00.000,2016-12-22T10:44:20.481,2,revise,active
075071137A,harapdt,,,Throston Engine House,,,,Clyde Place,,West View Road,,,,A,,NW,E0037896,West View,Hartlepool,,,,,,0,UKOS,451677,534403,-1.199617,54.70201,BCT,MKD,OTH,,,,022,2005-07-06T00:00:00.000,2016-12-22T10:53:21.961,2,revise,active
075071137B,harapdw,,,Throston Engine House,,,,Clyde Place,,West View Road,,,,B,,SE,E0037896,West View,Hartlepool,,,,,,0,UKOS,451717,534414,-1.198994,54.702104,BCT,MKD,OTH,,,,022,2005-07-06T00:00:00.000,2016-12-22T11:03:51.020,3,revise,active
075071138A,harapga,,,Stanmore Grove,,,,Elizabeth Way,,Station Lane,,,,1,,SW,E0037883,Seaton Carew,,,,,,,0,UKOS,452031,529738,-1.194954,54.660055,BCT,MKD,OTH,,,,022,2005-07-06T00:00:00.000,2007-06-15T00:00:00.000,1,revise,inactive
075071138B,harapgd,,,Rail Station,,,,Rail Station,,Station Lane,,,,2,,E,E0037883,Seaton Carew,,,,,,,0,UKOS,451806,529630,-1.19846,54.659107,BCT,MKD,OTH,,,,022,2005-07-06T00:00:00.000,2018-02-13T16:20:58.775,4,revise,inactive
075071138C,harapgj,,,Stanmore Grove,,,,Station Lane,,Elizabeth Way,,,,3,,S,E0037883,Seaton Carew,,,,,,,0,UKOS,451942,529610,-1.196356,54.658914,BCT,MKD,OTH,,,,022,2005-07-06T00:00:00.000,2007-06-15T00:00:00.000,1,revise,inactive
075071138D,harapgm,,,Stanmore Grove,,,,Station Lane,,Elizabeth Way,,,,4,,N,E0037883,Seaton Carew,,,,,,,0,UKOS,451910,529551,-1.196862,54.658387,BCT,MKD,OTH,,,,022,2005-07-06T00:00:00.000,2007-06-15T00:00:00.000,1,revise,inactive
075071139A,harapgp,,,Library,,,,The Library,,Station Lane,,,,A,,W,E0037883,Seaton Carew,,,,,,,0,UKOS,452327,529868,-1.190343,54.661192,BCT,MKD,TIP,,,,022,2005-07-06T00:00:00.000,2016-12-22T11:12:36.925,2,revise,active
075071139B,harapgt,,,Library,,,,The Library,,Station Lane,,,,B,,E,E0037883,Seaton Carew,,,,,,,0,UKOS,452259,529867,-1.191397,54.66119,BCT,MKD,TIP,,,,022,2005-07-06T00:00:00.000,2016-12-22T11:32:12.843,2,revise,active
075071140A,harapgw,,,Cleveland Street,,,,Cleveland Street,,Durham Street,,,,A,,SE,N0070310,The Headland,Hartlepool,,,,,,0,UKOS,452682,534135,-1.184072,54.699497,BCT,MKD,OTH,,,,022,2005-07-06T00:00:00.000,2016-12-22T11:40:57.014,2,revise,active
075071141A,harapja,,,Meadowfield Court,,,,Meadowfield Court,,Elizabeth Way,,,,A,,W,E0037883,Seaton Carew,,,,,,,0,UKOS,452289,529261,-1.19104,54.655742,BCT,MKD,OTH,,,,022,2005-07-06T00:00:00.000,2016-12-22T11:45:44.861,2,revise,active
075071141B,harapjd,,,Meadowfield Court,,,,Meadowfield Court,,Elizabeth Way,,,,B,,E,E0037883,Seaton Carew,,,,,,,0,UKOS,452373,529283,-1.189734,54.655931,BCT,MKD,OTH,,,,022,2005-07-06T00:00:00.000,2016-12-22T12:03:40.999,2,revise,active
075071142A,harapjg,,,Elizabeth Way Shops,,,,Nursery School,,Elizabeth Way,,,,A,,NW,E0037883,Seaton Carew,,,,,,,0,UKOS,452050,529268,-1.194743,54.655829,BCT,MKD,TIP,,,,022,2005-07-06T00:00:00.000,2018-06-04T15:29:51.838,3,revise,active
075071142B,harapjm,,,Elizabeth Way Shops,,,,Westerdale Road,,Elizabeth Way,,,,B,,S,E0037883,Seaton Carew,,,,,,,0,UKOS,452026,529361,-1.195098,54.656668,BCT,MKD,TIP,,,,022,2005-07-06T00:00:00.000,2016-12-22T12:14:29.675,2,revise,active
075071142C,harapjp,,,Elizabeth Way Shops,,,,Westerdale Road,,Elizabeth Way,,,,C,,N,E0037883,Seaton Carew,,,,,,,0,UKOS,452033,529322,-1.194997,54.656316,BCT,MKD,TIP,,,,022,2005-07-06T00:00:00.000,2016-12-22T12:22:02.341,2,revise,active
075071143A,harapjt,,,Wolviston Road,,,,Harrow Street,,Oxford Road,,,,A,,E,E0037866,Foggy Furze,Hartlepool,,,,,,0,UKOS,450461,531373,-1.219007,54.674906,BCT,MKD,OTH,,,,022,2005-07-06T00:00:00.000,2016-12-22T12:34:09.209,2,revise,active
075071144A,harapjw,,,Windermere Road,,,,Windermere Road,,Brenda Road,,,,A,,N,E0037866,Foggy Furze,Hartlepool,,,,,,0,UKOS,450864,530849,-1.212849,54.670157,BCT,MKD,TIP,,,,022,2005-07-06T00:00:00.000,2016-12-22T12:44:38.061,2,revise,active
075071144B,harapma,,,Windermere Road,,,,Windermere Road,,Brenda Road,,,,B,,S,E0037866,Foggy Furze,Hartlepool,,,,,,0,UKOS,450868,530893,-1.21278,54.670552,BCT,MKD,TIP,,,,022,2005-07-06T00:00:00.000,2016-12-22T12:47:37.785,2,revise,active
075071145A,harapmd,,,Tanfield Road,,,,Tanfield Road,,Stockton Road,,,,A,,N,E0037866,Foggy Furze,Hartlepool,,,,,,0,UKOS,450467,530626,-1.219043,54.668193,BCT,MKD,OTH,,,,022,2005-07-06T00:00:00.000,2016-12-22T12:55:54.080,2,revise,active
075071145B,harapmg,,,Tanfield Road,,,,Tanfield Road,,Stockton Road,,,,B,,S,E0037866,Foggy Furze,Hartlepool,,,,,,0,UKOS,450489,530593,-1.218707,54.667894,BCT,MKD,OTH,,,,022,2005-07-06T00:00:00.000,2016-12-22T13:02:41.145,2,revise,active
075071146B,harapmj,,,Gladstone Street,,,,Gladstone Street,,Durham Street,,,,2,,S,N0070310,The Headland,Hartlepool,,,,,,0,UKOS,452805,533893,-1.182207,54.69731,BCT,MKD,OTH,,,,022,2005-07-06T00:00:00.000,2018-02-13T16:21:14.256,4,revise,inactive
075071147A,harapmp,,,Queensland Road,,,,Rossmere Way,,Stockton Road,,,,1,,N,E0037879,Owton Manor,Hartlepool,,,,,,0,UKOS,450345,529939,-1.221052,54.662032,BCT,MKD,OTH,,,,022,2005-07-06T00:00:00.000,2007-06-15T00:00:00.000,1,revise,inactive
075071147B,harapmt,,,Queensland Road,,,,Rossmere Way,,Stockton Road,,,,2,,S,E0037879,Owton Manor,Hartlepool,,,,,,0,UKOS,450355,529849,-1.220913,54.661222,BCT,MKD,OTH,,,,022,2005-07-06T00:00:00.000,2018-02-13T16:21:50.739,4,revise,inactive
075071147D,harapmw,,,Queensland Road,,,,Stockton Road,,Rossmere Way,,,,4,,W,E0037879,Owton Manor,Hartlepool,,,,,,0,UKOS,450281,529955,-1.222042,54.662182,BCT,MKD,OTH,,,,022,2005-07-06T00:00:00.000,2018-02-13T16:22:01.081,4,revise,inactive
075071147E,harapta,,,Queensland Road,,,,Stockton Road,,Rossmere Way,,,,5,,E,E0037879,Owton Manor,Hartlepool,,,,,,0,UKOS,450331,529980,-1.221262,54.662401,BCT,MKD,OTH,,,,022,2005-07-06T00:00:00.000,2018-02-13T16:22:11.749,4,revise,inactive
075071148A,haraptd,,,Mountbatten Close,,,,Greenland Road,,Cleveland Road,,,,A,,NE,E0037896,West View,Hartlepool,,,,,,0,UKOS,451132,534242,-1.208101,54.700618,BCT,MKD,TIP,,,,022,2005-07-06T00:00:00.000,2016-12-22T13:11:58.250,2,revise,active
075071148B,haraptg,,,Mountbatten Close,,,,Greenland Road,,Cleveland Road,,,,B,,SW,E0037896,West View,Hartlepool,,,,,,0,UKOS,451221,534258,-1.206718,54.700753,BCT,MKD,TIP,,,,022,2005-07-06T00:00:00.000,2016-12-22T13:26:18.438,2,revise,active
075071149A,haraptj,,,Hart Reservoirs,,,,opp Hart Reservoir,,Hart Lane,,,,NW bound,,NW,E0037890,Throston Grange,Hartlepool,,,,,,0,UKOS,448124,534132,-1.25479,54.699926,BCT,CUS,OTH,,,,022,2005-07-06T00:00:00.000,2007-06-15T00:00:00.000,1,revise,active
075071149B,haraptm,,,Hart Reservoirs,,,,o/s Hart Reservoir,,Hart Lane,,,,SE bound,,SE,E0037890,Throston Grange,Hartlepool,,,,,,0,UKOS,448134,534145,-1.254633,54.700042,BCT,CUS,OTH,,,,022,2005-07-06T00:00:00.000,2007-06-15T00:00:00.000,1,revise,active
075071150A,haraptp,,,Westbrooke Grove,,,,Westbrooke Grove,,Westbrooke Avenue,,,,A,,E,E0037866,Foggy Furze,Hartlepool,,,,,,0,UKOS,450324,530747,-1.221239,54.669294,BCT,MKD,OTH,,,,022,2005-07-06T00:00:00.000,2016-12-22T13:44:34.988,2,revise,active
075071150B,haraptw,,,Westbrooke Grove,,,,Westbrooke Grove,,Westbrooke Avenue,,,,B,,W,E0037866,Foggy Furze,Hartlepool,,,,,,0,UKOS,450301,530724,-1.221599,54.66909,BCT,MKD,OTH,,,,022,2005-07-06T00:00:00.000,2016-12-22T13:48:48.987,2,revise,active
075071151A,harapwa,,,St Francis Gate,,,,Loyalty Road,,Stockton Road,,,,A,,SW,E0037866,Foggy Furze,Hartlepool,,,,,,0,UKOS,450540,530864,-1.21787,54.670324,BCT,MKD,OTH,,,,022,2005-07-06T00:00:00.000,2016-12-22T13:59:56.622,2,revise,active
075071151B,harapwd,,,St Francis Gate,,,,Loyalty Road,,Stockton Road,,,,B,,NE,E0037866,Foggy Furze,Hartlepool,,,,,,0,UKOS,450561,530916,-1.217535,54.670789,BCT,MKD,OTH,,,,022,2005-07-06T00:00:00.000,2016-12-22T15:18:11.502,2,revise,active
075071152A,harapwg,,,Ashgrove Avenue,,,,Ashgrove Avenue,,Stockton Road,,,,A,,SW,E0037866,Foggy Furze,Hartlepool,,,,,,0,UKOS,450727,531211,-1.214911,54.673423,BCT,MKD,TIP,,,,022,2005-07-06T00:00:00.000,2020-05-06T14:50:59.073,4,revise,active
075071152B,harapwj,,,Ashgrove Avenue,,,,Coleridge Avenue,,Stockton Road,,,,B,,E,E0037866,Foggy Furze,Hartlepool,,,,,,0,UKOS,450684,531208,-1.215578,54.673401,BCT,MKD,TIP,,,,022,2005-07-06T00:00:00.000,2020-05-06T14:51:12.054,4,revise,active
075071152C,harapwm,,,Sydenham Road,,,,Startford Road,,Brenda Road,,,,3,,N,E0037866,Foggy Furze,Hartlepool,,,,,,0,UKOS,450762,531191,-1.214371,54.67324,BCT,MKD,OTH,,,,022,2005-07-06T00:00:00.000,2018-02-13T16:22:36.051,4,revise,inactive
075071152D,harapwp,,,Sydenham Road,,,,Sydenham Road,,Brenda Road,,,,4,,S,E0037866,Foggy Furze,Hartlepool,,,,,,0,UKOS,450772,531211,-1.214213,54.673419,BCT,MKD,OTH,,,,022,2005-07-06T00:00:00.000,2018-02-13T16:22:46.391,4,revise,inactive
075071153A,harapwt,,,Shields Terrace,,,,Union Road,,West View Road,,,,A,,SE,E0037896,West View,Hartlepool,,,,,,0,UKOS,451217,534609,-1.206718,54.703908,BCT,MKD,OTH,,,,022,2005-07-06T00:00:00.000,2016-12-22T15:41:37.232,2,revise,active
075071153B,haratad,,,Shields Terrace,,,,Union Road,,West View Road,,,,B,,NW,E0037896,West View,Hartlepool,,,,,,0,UKOS,451304,534544,-1.20538,54.703315,BCT,MKD,OTH,,,,022,2005-07-06T00:00:00.000,2016-12-22T15:52:18.795,2,revise,active
075071154A,haratag,,,St Aidan's Church,,,,Oxford Road,,Stockton Road,,,,A,,N,E0037866,Foggy Furze,Hartlepool,,,,,,0,UKOS,450676,531493,-1.215653,54.675963,BCT,MKD,TIP,,,,022,2005-07-06T00:00:00.000,2017-05-18T12:01:39.230,2,revise,active
075071154B,harataj,,,St Aidan's Church,,,,Cornwall Street,,Stockton Road,,,,B,,N,E0037866,Foggy Furze,Hartlepool,,,,,,0,UKOS,450667,531525,-1.215787,54.676251,BCT,MKD,TIP,,,,022,2005-07-06T00:00:00.000,2017-05-18T12:04:30.465,2,revise,active
075071154C,haratam,,,St Aidan's Church,,,,Cornwall Street,,Stockton Road,,,,C,,S,E0037866,Foggy Furze,Hartlepool,,,,,,0,UKOS,450679,531557,-1.215595,54.676537,BCT,MKD,TIP,,,,022,2005-07-06T00:00:00.000,2017-05-18T12:05:42.157,2,revise,active
075071154D,haratap,,,St Aidan's,,,,Devon Street,,Oxford Road,,,,4,,W,E0037866,Foggy Furze,Hartlepool,,,,,,0,UKOS,450599,531399,-1.216863,54.675126,BCT,MKD,OTH,,,,022,2005-07-06T00:00:00.000,2018-02-13T16:23:39.983,4,revise,inactive
075071154E,haratat,,,St Aidan's,,,,St Aidans Church,,Stockton Road,,,,5,,N,E0037866,Foggy Furze,Hartlepool,,,,,,0,UKOS,450715,531361,-1.215071,54.674772,BCT,MKD,OTH,,,,022,2005-07-06T00:00:00.000,2013-10-04T15:14:57.000,2,revise,inactive
075071154F,harataw,,,St Aidan's Church,,,,St Aidans Church,,Stockton Road,,,,D,,S,E0037866,Foggy Furze,Hartlepool,,,,,,0,UKOS,450723,531374,-1.214944,54.674888,BCT,MKD,TIP,,,,022,2005-07-06T00:00:00.000,2017-05-18T11:59:38.771,2,revise,active
075071155A,haratda,,,Stratford Road,,,,Stratford Road End,,Caledonian Road,,,,A,,S,E0037866,Foggy Furze,Hartlepool,,,,,,0,UKOS,450394,531151,-1.220084,54.672918,BCT,MKD,OTH,,,,022,2005-07-06T00:00:00.000,2016-12-22T16:06:59.865,2,revise,active
075071155B,haratdg,,,Stratford Road,,,,Stratford Road End,,Caledonian Road,,,,B,,N,E0037866,Foggy Furze,Hartlepool,,,,,,0,UKOS,450382,531124,-1.220275,54.672676,BCT,MKD,OTH,,,,022,2005-07-06T00:00:00.000,2016-12-22T16:21:06.525,2,revise,active
075071156A,haratdj,,,Whellyhill Farm,,,,Whelly Hill Farm,,Hart Lane,,,,A,,E,E0053160,Hart,,,,,,,0,UKOS,444908,534319,-1.304659,54.701903,BCT,MKD,OTH,,,,022,2005-07-06T00:00:00.000,2016-12-22T17:05:33.426,2,revise,active
075071156B,haratdm,,,Whellyhill Farm,,,,Whelly Hill Farm,,Hart Lane,,,,B,,W,E0053160,Hart,,,,,,,0,UKOS,444920,534309,-1.304474,54.701812,BCT,MKD,OTH,,,,022,2005-07-06T00:00:00.000,2016-12-22T17:10:48.966,2,revise,active
075071157A,haratdp,,,Baptist Chapel,,,,Baptist Chapel,,Oxford Road,,,,1,,W,E0037866,Foggy Furze,Hartlepool,,,,,,0,UKOS,450371,531328,-1.22041,54.67451,BCT,MKD,OTH,,,,022,2005-07-06T00:00:00.000,2018-02-13T16:23:02.174,4,revise,inactive
075071157B,haratdt,,,Baptist Chapel,,,,Baptist Chapel,,Caledonian Road,,,,2,,S,E0037866,Foggy Furze,Hartlepool,,,,,,0,UKOS,450365,531277,-1.220512,54.674053,BCT,MKD,OTH,,,,022,2005-07-06T00:00:00.000,2018-02-13T16:23:15.181,4,revise,inactive
075071158A,haratdw,,,The Wok Inn,,,,The Touchdown,,West View Road,,,,A,,NW,E0037896,West View,Hartlepool,,,,,,0,UKOS,450697,534900,-1.214736,54.706575,BCT,MKD,OTH,,,,022,2005-07-06T00:00:00.000,2016-12-22T17:33:05.647,2,revise,active
075071158B,haratga,,,The Wok Inn,,,,The Touchdown,,West View Road,,,,B,,SE,E0037896,West View,Hartlepool,,,,,,0,UKOS,450684,534930,-1.214933,54.706846,BCT,MKD,OTH,,,,022,2005-07-06T00:00:00.000,2016-12-22T17:36:53.402,2,revise,active
075071159A,haratgd,,,Arkley Crescent,,,,Arkley Crescent,,West View Road,,,,A,,NW,E0037896,West View,Hartlepool,,,,,,0,UKOS,450530,535014,-1.217308,54.707616,BCT,MKD,OTH,,,,022,2005-07-06T00:00:00.000,2016-12-22T18:37:58.194,2,revise,active
075071159B,haratgj,,,Arkley Crescent,,,,Arkley Crescent,,West View Road,,,,B,,SE,E0037896,West View,Hartlepool,,,,,,0,UKOS,450522,535037,-1.217428,54.707824,BCT,MKD,OTH,,,,022,2005-07-06T00:00:00.000,2016-12-23T09:37:55.891,2,revise,active
075071160A,haratgm,,,Oval Grange,,,,Oval Grange,,Tunstall Avenue,,,,A,,N,E0054977,Hartlepool,,,,,,,0,UKOS,449583,532846,-1.232371,54.688229,BCT,MKD,OTH,,,,022,2005-07-06T00:00:00.000,2016-12-23T09:40:22.541,2,revise,active
075071161A,haratgp,,,Shakespeare Avenue,,,,Shakespeare Avenue,,Oxford Road,,,,A,,E,E0037866,Foggy Furze,Hartlepool,,,,,,0,UKOS,450102,531263,-1.224592,54.673953,BCT,MKD,OTH,,,,022,2005-07-06T00:00:00.000,2016-12-23T09:43:25.247,3,revise,active
075071161B,haratgt,,,Shakespeare Avenue,,,,Shakespeare Avenue,,Oxford Road,,,,B,,W,E0037866,Foggy Furze,Hartlepool,,,,,,0,UKOS,450171,531264,-1.223522,54.673955,BCT,MKD,OTH,,,,022,2005-07-06T00:00:00.000,2016-12-23T09:49:43.246,2,revise,active
075071162A,haratgw,,,Eldon Grove Academy,,,,Elwick Road,,Eldon Grove,,,,A,,S,E0054977,Hartlepool,,,,,,,0,UKOS,449917,531871,-1.227357,54.679435,BCT,MKD,OTH,,,,022,2005-07-06T00:00:00.000,2016-12-23T10:03:40.025,2,revise,active
075071162B,haratja,,,Eldon Grove Academy,,,,Elwick Road,,Eldon Grove,,,,B,,N,E0054977,Hartlepool,,,,,,,0,UKOS,449896,531871,-1.227683,54.679437,BCT,MKD,OTH,,,,022,2005-07-06T00:00:00.000,2016-12-23T10:21:48.523,2,revise,active
075071163A,haratjd,,,Arncliffe Gardens,,,,Arncliffe Gardens,,Elwick Road,,,,1,,E,E0037866,Foggy Furze,Hartlepool,,,,,,0,UKOS,450131,531859,-1.224041,54.679306,BCT,MKD,OTH,,,,022,2005-07-06T00:00:00.000,2018-02-13T16:24:07.029,4,revise,inactive
075071163B,haratjg,,,Arncliffe Gardens,,,,Arncliffe Gardens,,Elwick Road,,,,2,,W,E0037866,Foggy Furze,Hartlepool,,,,,,0,UKOS,450230,531851,-1.222507,54.679224,BCT,MKD,OTH,,,,022,2005-07-06T00:00:00.000,2018-02-13T16:23:58.237,4,revise,inactive
075071163C,haratjm,,,Arncliffe Gardens,,,,Elwick Road,,Arncliffe Gardens,,,,3,,N,E0037866,Foggy Furze,Hartlepool,,,,,,0,UKOS,450167,531884,-1.223478,54.679527,BCT,MKD,OTH,,,,022,2005-07-06T00:00:00.000,2007-06-15T00:00:00.000,1,revise,inactive
075071163D,haratjp,,,Arncliffe Gardens,,,,Elwick Road,,Arncliffe Gardens,,,,4,,S,E0037866,Foggy Furze,Hartlepool,,,,,,0,UKOS,450181,531926,-1.223254,54.679903,BCT,MKD,OTH,,,,022,2005-07-06T00:00:00.000,2007-06-15T00:00:00.000,1,revise,inactive
075071164A,haratjt,,,Burn Valley Roundabout,,,,Elwick Road,,York Road,,,,A,,N,E0037866,Foggy Furze,Hartlepool,,,,,,0,UKOS,450610,531953,-1.216596,54.680103,BCT,MKD,TIP,,,,022,2005-07-06T00:00:00.000,2016-12-23T10:37:08.627,2,revise,active
075071164B,haratjw,,,Burn Valley Roundabout,,,,Elwick Road,,York Road,,,,B,,S,E0037866,Foggy Furze,Hartlepool,,,,,,0,UKOS,450632,531866,-1.21627,54.679319,BCT,MKD,TIP,,,,022,2005-07-06T00:00:00.000,2016-12-23T10:40:34.307,2,revise,active
075071164C,haratma,,,Burn Valley Roundabout,,,,Elwick Road,,York Road,,,,C,,N,E0037866,Foggy Furze,Hartlepool,,,,,,0,UKOS,450616,531813,-1.216528,54.678844,BCT,MKD,TIP,,,,022,2005-07-06T00:00:00.000,2016-12-23T13:07:19.067,2,revise,active
075071164D,haratmd,,,Burn Valley Roundabout,,,,Houghton Street,,York Road,,,,D,,S,E0037866,Foggy Furze,Hartlepool,,,,,,0,UKOS,450632,531791,-1.216283,54.678645,BCT,MKD,TIP,,,,022,2005-07-06T00:00:00.000,2016-12-23T13:36:43.157,2,revise,active
075071165A,haratmg,,,The Royal,,,,Mainsforth Terrace,,Church Street,,,,A,,E,E0054977,Hartlepool,,,,,,,0,UKOS,451377,532727,-1.204566,54.68698,BCT,MKD,TIP,,,,022,2005-07-06T00:00:00.000,2018-08-02T15:34:54.326,3,revise,inactive
075071165B,haratmj,,,The Royal Stand U,,,,Mainsforth Terrace,,Church Street,,,,Stand U,,W,E0054977,Hartlepool,,,,,,,0,UKOS,451386,532717,-1.204428,54.686889,BCT,MKD,TIP,,,,022,2005-07-06T00:00:00.000,2016-11-11T16:22:32.782,2,revise,inactive
075071166A,haratmp,,,Three Gates Farm,,,,o/s Three Gates Farm,,Dalton Piercy Lane,,,,A,,E,E0053157,Dalton Piercy,,,,,,,0,UKOS,445718,530681,-1.29266,54.669141,BCT,MKD,OTH,,,,022,2005-07-06T00:00:00.000,2018-11-27T15:41:03.813,2,revise,active
075071166B,haratmt,,,Three Gates Farm,,,,opp Three Gates Farm,,Dalton Piercy Lane,,,,W bound,,W,E0053157,Dalton Piercy,,,,,,,0,UKOS,445770,530684,-1.291853,54.669161,BCT,CUS,OTH,,,,022,2005-07-06T00:00:00.000,2007-06-15T00:00:00.000,1,revise,active
075071167A,haratmw,,,St Peter's Elwick CE Primary School,,,,School,,North Lane,,,,A,,NW,E0053158,Elwick,,,,,,,0,UKOS,445322,532465,-1.298523,54.685206,BCT,MKD,OTH,,,,022,2005-07-06T00:00:00.000,2017-01-03T10:07:44.077,2,revise,active
075071167B,haratpa,,,St Peter's Elwick CE Primary School,,,,School,,North Lane,,,,B,,SE,E0053158,Elwick,,,,,,,0,UKOS,445341,532463,-1.298228,54.685186,BCT,MKD,OTH,,,,022,2005-07-06T00:00:00.000,2017-01-03T10:38:07.778,2,revise,active
075071168A,haratpd,,,A19 North Lane Junction,,,,North Lane,,A19,,,,A,,S,E0053158,Elwick,,,,,,,0,UKOS,444964,532633,-1.304049,54.686747,BCT,MKD,OTH,,,,022,2005-07-06T00:00:00.000,2018-06-15T12:19:56.499,3,revise,active
075071168B,haratpg,,,A19 North Lane Junction,,,,North Lane,,A19,,,,B,,N,E0053158,Elwick,,,,,,,0,UKOS,444883,532794,-1.305281,54.688201,BCT,MKD,OTH,,,,022,2005-07-06T00:00:00.000,2018-06-15T12:19:37.144,4,revise,active
075071168C,haratpj,,,A19 North Lane Junction,,,,Sliproad to Elwick Village,,North Lane,,,,C,,SE,E0053158,Elwick,,,,,,,0,UKOS,444974,532739,-1.303878,54.687699,BCT,MKD,OTH,,,,022,2005-07-06T00:00:00.000,2018-11-27T16:15:03.408,3,revise,active
075071169A,haratpm,,,Raby Arms,,,,Voltigeur Drive,,Front Street,,,,A,,E,E0053160,Hart,,,,,,,0,UKOS,447156,534986,-1.269671,54.707691,BCT,MKD,OTH,,,,022,2005-07-06T00:00:00.000,2017-01-03T11:44:29.692,2,revise,active
075071169B,haratpt,,,Raby Arms,,,,Voltigeur Drive,,Front Street,,,,B,,W,E0053160,Hart,,,,,,,0,UKOS,447126,534962,-1.270141,54.707478,BCT,MKD,OTH,,,,022,2005-07-06T00:00:00.000,2017-01-03T11:50:25.009,2,revise,active
075071170A,haratpw,,,Alston Street,,,,Alston Street,,Elwick Road,,,,A,,W,E0037866,Foggy Furze,Hartlepool,,,,,,0,UKOS,450543,531883,-1.217648,54.67948,BCT,MKD,TIP,,,,022,2005-07-06T00:00:00.000,2017-01-03T12:09:12.538,3,revise,active
075071170B,haratwa,,,Alston Street,,,,Alston Street,,Elwick Road,,,,B,,E,E0037866,Foggy Furze,Hartlepool,,,,,,0,UKOS,450509,531892,-1.218173,54.679565,BCT,MKD,TIP,,,,022,2005-07-06T00:00:00.000,2017-01-03T12:14:12.748,3,revise,active
075071171A,haratwd,,,Methodist Church,,,,York Road,,Stockton Road,,,,A,,E,E0037866,Foggy Furze,Hartlepool,,,,,,0,UKOS,450702,531776,-1.2152,54.678503,BCT,MKD,OTH,,,,022,2005-07-06T00:00:00.000,2017-01-03T12:19:57.290,2,revise,active
075071171B,haratwg,,,Methodist Church,,,,York Road,,Stockton Road,,,,B,,W,E0037866,Foggy Furze,Hartlepool,,,,,,0,UKOS,450693,531752,-1.215344,54.678288,BCT,MKD,OTH,,,,022,2005-07-06T00:00:00.000,2017-01-03T12:29:18.407,2,revise,active
075071172A,haratwj,,,Kielder Road,,,,Kielder Road,,Elwick Road,,,,A,,W,E0037895,West Park,Hartlepool,,,,,,0,UKOS,448265,532916,-1.252803,54.688986,BCT,MKD,OTH,,,,022,2005-07-06T00:00:00.000,2017-01-03T12:44:00.084,2,revise,active
075071172B,haratwm,,,Kielder Road,,,,Kielder Road,,Elwick Road,,,,B,,E,E0037895,West Park,Hartlepool,,,,,,0,UKOS,448403,532928,-1.250661,54.68908,BCT,MKD,OTH,,,,022,2005-07-06T00:00:00.000,2017-01-03T12:57:42.036,2,revise,active
075071173A,haratwp,,,Park Tower,,,,Stockton Street,,Park Road,,,,A,,E,E0054977,Hartlepool,,,,,,,0,UKOS,450876,532239,-1.212422,54.682646,BCT,MKD,TIP,,,,022,2005-07-06T00:00:00.000,2016-11-11T16:06:34.840,2,revise,active
075071173B,haratwt,,,Park Tower,,,,Stockton Street,,Park Road,,,,B,,W,E0054977,Hartlepool,,,,,,,0,UKOS,450818,532216,-1.213325,54.682445,BCT,MKD,TIP,,,,022,2005-07-06T00:00:00.000,2016-11-11T16:07:32.835,2,revise,active
075071173C,harawad,,,Westgate,,,,Brewery Street,,Stockton Street,,,,3,,N,E0054977,Hartlepool,,,,,,,0,UKOS,450948,532129,-1.211324,54.68165,BCT,MKD,OTH,,,,022,2005-07-06T00:00:00.000,2017-05-19T14:25:13.623,2,revise,inactive
075071173D,harawag,,,Westgate,,,,Brewery Street,,Stockton Street,,,,S bound,,S,E0054977,Hartlepool,,,,,,,0,UKOS,450973,532084,-1.210944,54.681243,BCT,CUS,OTH,,,,022,2005-07-06T00:00:00.000,2017-05-19T14:25:26.511,2,revise,inactive
075071174A,harawaj,,,Dalton Crossroads - Elwick Road,,,,Dalton Lane,,Elwick Road,,,,A,,E,E0053158,Elwick,,,,,,,0,UKOS,447082,533220,-1.271104,54.691829,BCT,MKD,OTH,,,,022,2005-07-06T00:00:00.000,2018-11-28T12:16:58.892,2,revise,active
075071174B,harawam,,,Dalton Crossroads - Elwick Road,,,,Dalton Lane,,Elwick Road,,,,B,,W,E0053158,Elwick,,,,,,,0,UKOS,447091,533207,-1.270966,54.691711,BCT,MKD,OTH,,,,022,2005-07-06T00:00:00.000,2018-11-27T16:23:10.532,4,revise,active
075071174C,harawap,,,Dalton Lane End,,,,Elwick Road,,Dalton Lane,,,,S bound,,S,E0053158,Elwick,,,,,,,0,UKOS,447126,533186,-1.270427,54.691519,BCT,CUS,OTH,,,,022,2005-07-06T00:00:00.000,2017-05-12T16:32:04.038,2,revise,inactive
075071174D,harawat,,,Dalton Lane End,,,,Elwick Road,,Dalton Lane,,,,4,,N,E0053158,Elwick,,,,,,,0,UKOS,447108,533179,-1.270707,54.691458,BCT,MKD,OTH,,,,022,2005-07-06T00:00:00.000,2018-02-13T16:24:22.201,4,revise,inactive
075071175A,harawaw,,,Four Winds Court,,,,Four Winds Court,,West Park,,,,A,,N,E0037895,West Park,Hartlepool,,,,,,0,UKOS,448660,532615,-1.246726,54.686243,BCT,MKD,OTH,,,,022,2005-07-06T00:00:00.000,2017-01-03T13:20:48.027,2,revise,active
075071175B,harawda,,,Four Winds Court,,,,Four Winds Court,,West Park,,,,B,,S,E0037895,West Park,Hartlepool,,,,,,0,UKOS,448681,532587,-1.246405,54.685989,BCT,MKD,OTH,,,,022,2005-07-06T00:00:00.000,2017-01-03T13:26:46.948,2,revise,active
075071176A,harawdg,,,Park Road,,,,Park Road,,Arncliffe Gardens,,,,1,,N,E0037866,Foggy Furze,Hartlepool,,,,,,0,UKOS,450152,532175,-1.223661,54.682143,BCT,MKD,OTH,,,,022,2005-07-06T00:00:00.000,2007-06-15T00:00:00.000,1,revise,inactive
075071176B,harawdj,,,Park Road,,,,Park Road,,Arncliffe Gardens,,,,2,,S,E0037866,Foggy Furze,Hartlepool,,,,,,0,UKOS,450174,532175,-1.22332,54.682141,BCT,MKD,OTH,,,,022,2005-07-06T00:00:00.000,2007-06-15T00:00:00.000,1,revise,inactive
075071177A,harawdm,,,Davison Drive North End,,,,Davison Drive,,West View Road,,,,A,,W,E0037896,West View,Hartlepool,,,,,,0,UKOS,449831,535096,-1.228141,54.708422,BCT,MKD,OTH,,,,022,2005-07-06T00:00:00.000,2017-01-03T13:52:12.742,2,revise,active
075071177B,harawdp,,,Davison Drive North End,,,,Davison Drive,,West View Road,,,,B,,W,E0037896,West View,Hartlepool,,,,,,0,UKOS,449781,535088,-1.228918,54.708355,BCT,MKD,OTH,,,,022,2005-07-06T00:00:00.000,2017-01-03T14:00:52.916,2,revise,active
075071177C,harawdt,,,Davison Drive North End,,,,West View Road,,West View Road,,,,C,,E,E0037896,West View,Hartlepool,,,,,,0,UKOS,449888,535150,-1.227247,54.708902,BCT,MKD,OTH,,,,022,2005-07-06T00:00:00.000,2017-01-03T14:06:36.534,2,revise,active
075071177D,harawdw,,,Davison Drive North End,,,,West View Road,,West View Road,,,,D,,W,E0037896,West View,Hartlepool,,,,,,0,UKOS,449813,535122,-1.228416,54.708658,BCT,MKD,OTH,,,,022,2005-07-06T00:00:00.000,2017-01-03T14:17:10.325,2,revise,active
075071178A,harawga,,,Eldon Grove Crossroads,,,,Eldon Grove,,Park Road,,,,A,,E,E0054977,Hartlepool,,,,,,,0,UKOS,449841,532196,-1.22848,54.682363,BCT,MKD,OTH,,,,022,2005-07-06T00:00:00.000,2017-01-03T14:25:58.088,2,revise,active
075071178B,harawgd,,,Eldon Grove Crossroads,,,,Park Road,,Eldon Grove,,,,B,,N,E0054977,Hartlepool,,,,,,,0,UKOS,449887,532141,-1.227776,54.681864,BCT,MKD,OTH,,,,022,2005-07-06T00:00:00.000,2017-01-03T14:28:17.371,2,revise,active
075071179A,harawgj,,,Queensberry Avenue,,,,Queensberry Avenue,,Park Road,,,,A,,E,E0054977,Hartlepool,,,,,,,0,UKOS,449552,532184,-1.232964,54.682283,BCT,MKD,OTH,,,,022,2005-07-06T00:00:00.000,2017-05-12T17:18:45.026,2,revise,active
075071179B,harawgm,,,Queensberry Avenue,,,,Queensberry Avenue,,Park Road,,,,B,,W,E0054977,Hartlepool,,,,,,,0,UKOS,449578,532170,-1.232564,54.682155,BCT,MKD,OTH,,,,022,2005-07-06T00:00:00.000,2017-05-12T17:21:17.592,2,revise,active
075071179C,harawgp,,,Queensberry Avenue,,,,North Brook Court,,Elwick Road,,,,3,,S,E0054977,Hartlepool,,,,,,,0,UKOS,449472,532095,-1.23422,54.681491,BCT,MKD,OTH,,,,022,2005-07-06T00:00:00.000,2018-02-13T16:24:35.601,6,revise,inactive
075071179D,harawgt,,,The Grove,,,,The Grove,,Wooler Road,,,,4,,N,E0054977,Hartlepool,,,,,,,0,UKOS,449422,532293,-1.234962,54.683275,BCT,MKD,OTH,,,,022,2005-07-06T00:00:00.000,2018-02-13T16:24:45.534,4,revise,inactive
075071180A,harawgw,,,St John Vianney Catholic Church,,,,Primary School,,King Oswy Drive,,,,A,,NW,E0037896,West View,Hartlepool,,,,,,0,UKOS,449631,535311,-1.231208,54.710374,BCT,MKD,OTH,,,,022,2005-07-06T00:00:00.000,2017-01-03T15:24:26.268,3,revise,active
075071180B,harawja,,,St John Vianney Catholic Church,,,,Primary School,,King Oswy Drive,,,,B,,SE,E0037896,West View,Hartlepool,,,,,,0,UKOS,449729,535305,-1.229688,54.710311,BCT,MKD,OTH,,,,022,2005-07-06T00:00:00.000,2017-01-03T15:37:19.388,2,revise,active
075071181A,harawjd,,,Holly House,,,,Park Avenue,,Elwick Road,,,,A,,W,E0037895,West Park,Hartlepool,,,,,,0,UKOS,449186,532254,-1.238629,54.682948,BCT,MKD,OTH,,,,022,2005-07-06T00:00:00.000,2017-01-03T16:26:25.314,2,revise,active
075071181B,harawjg,,,Holly House,,,,Park Avenue,,Elwick Road,,,,B,,E,E0037895,West Park,Hartlepool,,,,,,0,UKOS,449265,532255,-1.237403,54.682949,BCT,MKD,OTH,,,,022,2005-07-06T00:00:00.000,2017-01-03T16:37:07.790,2,revise,active
075071182A,harawjm,,,Ward Jackson Park Lodge,,,,Egerton Road,,Park Avenue,,,,A,,S,E0037895,West Park,Hartlepool,,,,,,0,UKOS,449180,532326,-1.23871,54.683596,BCT,MKD,OTH,,,,022,2005-07-06T00:00:00.000,2017-01-03T16:51:50.261,2,revise,active
075071182B,harawjp,,,Ward Jackson Park Lodge,,,,Egerton Road,,Park Avenue,,,,B,,N,E0037895,West Park,Hartlepool,,,,,,0,UKOS,449163,532327,-1.238973,54.683606,BCT,MKD,OTH,,,,022,2005-07-06T00:00:00.000,2017-01-03T17:03:51.382,2,revise,active
075071183A,harawjt,,,Verner Road,,,,Verner Road,,Easington Road,,,,A,,NW,E0037869,Hart Station,Hartlepool,,,,,,0,UKOS,448288,535999,-1.251937,54.716687,BCT,MKD,OTH,,,,022,2005-07-06T00:00:00.000,2017-01-03T17:26:47.450,3,revise,active
075071183B,harawjw,,,Verner Road,,,,Verner Road,,Easington Road,,,,B,,SE,E0037869,Hart Station,Hartlepool,,,,,,0,UKOS,448325,535985,-1.251365,54.716557,BCT,MKD,OTH,,,,022,2005-07-06T00:00:00.000,2017-01-03T17:29:47.751,2,revise,active
075071184A,harawma,,,Hylton Road,,,,Elwick Road,,Egerton Road,,,,A,,W,E0037895,West Park,Hartlepool,,,,,,0,UKOS,448834,532321,-1.244077,54.683584,BCT,MKD,OTH,,,,022,2005-07-06T00:00:00.000,2017-05-12T17:33:03.848,2,revise,active
075071184B,harawmd,,,Hylton Road,,,,Elwick Road,,Egerton Road,,,,B,,E,E0037895,West Park,Hartlepool,,,,,,0,UKOS,448856,532344,-1.243732,54.683789,BCT,MKD,OTH,,,,022,2005-07-06T00:00:00.000,2017-05-12T17:34:51.719,2,revise,active
075071184C,harawmg,,,Egerton Road,,,,Egerton Road,,Elwick Road,,,,3,,N,E0037895,West Park,Hartlepool,,,,,,0,UKOS,448891,532431,-1.243174,54.684567,BCT,MKD,OTH,,,,022,2005-07-06T00:00:00.000,2018-02-13T16:24:59.889,4,revise,inactive
075071184D,harawmj,,,Egerton Road,,,,Egerton Road,,Elwick Road,,,,4,,S,E0037895,West Park,Hartlepool,,,,,,0,UKOS,448910,532392,-1.242886,54.684215,BCT,MKD,OTH,,,,022,2005-07-06T00:00:00.000,2018-02-13T16:25:11.197,4,revise,inactive
075071185A,harawmp,,,Addison Road,,,,Addison Road,,MIDDLETON ROAD,,,,A,,E,N0073090,Dyke House,Hartlepool,,,,,,0,UKOS,450589,533153,-1.216716,54.690894,BCT,MKD,TIP,,,,022,2005-07-06T00:00:00.000,2020-11-02T09:07:21.300,3,revise,active
075071185B,harawmt,,,Addison Road,,,,Addison Road,,MIDDLETON ROAD,,,,B,,W,N0073090,Dyke House,Hartlepool,,,,,,0,UKOS,450771,533197,-1.213889,54.691268,BCT,MKD,TIP,,,,022,2005-07-06T00:00:00.000,2020-11-02T09:08:50.963,3,revise,active
075071186A,harawmw,,,Quarry Farm,,,,Quarry Farm,,Elwick Road,,,,A,,E,E0037895,West Park,Hartlepool,,,,,,0,UKOS,447719,532997,-1.261259,54.689765,BCT,MKD,OTH,,,,022,2005-07-06T00:00:00.000,2017-01-03T17:45:36.563,2,revise,active
075071186B,harawpa,,,Quarry Farm,,,,Quarry Farm,,Elwick Road,,,,B,,W,E0037895,West Park,Hartlepool,,,,,,0,UKOS,447673,532982,-1.261975,54.689635,BCT,MKD,OTH,,,,022,2005-07-06T00:00:00.000,2018-11-27T16:23:29.924,2,revise,active
075071187A,harawpd,,,Coniscliffe Road,,,,Egerton Road,,West Park,,,,A,,N,E0037895,West Park,Hartlepool,,,,,,0,UKOS,448670,532369,-1.246612,54.684031,BCT,MKD,TIP,,,,022,2005-07-06T00:00:00.000,2017-01-04T10:56:39.846,3,revise,active
075071187B,harawpg,,,Coniscliffe Road,,,,Egerton Road,,West Park,,,,B,,S,E0037895,West Park,Hartlepool,,,,,,0,UKOS,448685,532386,-1.246377,54.684183,BCT,MKD,TIP,,,,022,2005-07-06T00:00:00.000,2017-01-04T11:07:46.262,3,revise,active
075071188A,harawpj,,,Woodlands Grove,,,,School,,Elwick Road,,,,A,,S,E0037895,West Park,Hartlepool,,,,,,0,UKOS,448713,532830,-1.245869,54.68817,BCT,MKD,TIP,,,,022,2005-07-06T00:00:00.000,2017-01-04T11:15:10.552,2,revise,active
075071188B,harawpm,,,Woodlands Grove,,,,School,,Elwick Road,,,,B,,N,E0037895,West Park,Hartlepool,,,,,,0,UKOS,448695,532858,-1.246143,54.688423,BCT,MKD,TIP,,,,022,2005-07-06T00:00:00.000,2017-01-04T11:29:27.586,2,revise,active
075071189A,harawpt,,,Elwick Green,,,,The Green,,Elwick Road,,,,A,,W,E0053158,Elwick,,,,,,,0,UKOS,445548,532310,-1.295046,54.683797,BCT,MKD,TIP,,,,022,2005-07-06T00:00:00.000,2017-01-04T11:47:17.719,2,revise,active
075071189B,harawpw,,,Elwick Green,,,,The Green,,Elwick Road,,,,B,,E,E0053158,Elwick,,,,,,,0,UKOS,445535,532314,-1.295243,54.68383,BCT,MKD,TIP,,,,022,2005-07-06T00:00:00.000,2017-01-04T11:49:58.781,2,revise,active
075071190A,harawta,,,Dalton Piercy Green,,,,High Street,,Dalton Piercy Lane,,,,A,,E,E0053157,Dalton Piercy,,,,,,,0,UKOS,446483,531213,-1.280715,54.67385,BCT,MKD,TIP,,,,022,2005-07-06T00:00:00.000,2017-01-04T11:54:50.787,2,revise,active
075071190B,harawtd,,,Dalton Piercy Green,,,,High Street,,Dalton Piercy Lane,,,,W bound,,W,E0053157,Dalton Piercy,,,,,,,0,UKOS,446481,531194,-1.280749,54.673679,BCT,CUS,TIP,,,,022,2005-07-06T00:00:00.000,2007-06-15T00:00:00.000,1,revise,active
075071191A,harawtg,,,Hart Village Hall,,,,Post Office,,Front Street,,,,A,,E,E0053160,Hart,,,,,,,0,UKOS,446921,534942,-1.273325,54.707318,BCT,MKD,TIP,,,,022,2005-07-06T00:00:00.000,2018-06-25T11:46:10.598,3,revise,active
075071191B,harawtj,,,Hart Village Hall,,,,Post Office,,Front Street,,,,B,,W,E0053160,Hart,,,,,,,0,UKOS,446897,534911,-1.273702,54.707041,BCT,MKD,TIP,,,,022,2005-07-06T00:00:00.000,2017-01-04T12:11:29.360,2,revise,active
075071192A,harawtm,,,Gillen Arms,,,,Wentworth Grove,,Clavering Road,,,,A,,N,N0070311,Clavering,Hartlepool,,,,,,0,UKOS,448460,535522,-1.249346,54.712384,BCT,MKD,TIP,,,,022,2005-07-06T00:00:00.000,2017-01-04T12:22:12.430,2,revise,active
075071192B,harawtp,,,Gillen Arms,,,,Wentworth Grove,,Clavering Road,,,,B,,S,N0070311,Clavering,Hartlepool,,,,,,0,UKOS,448459,535469,-1.249371,54.711908,BCT,MKD,TIP,,,,022,2005-07-06T00:00:00.000,2017-01-04T12:27:48.933,2,revise,active
075071193A,harawtw,,,Rafton Drive,,,,Rafton Drive,,Clavering Road,,,,A,,S,N0070311,Clavering,Hartlepool,,,,,,0,UKOS,448800,535212,-1.244121,54.709566,BCT,MKD,OTH,,,,022,2005-07-06T00:00:00.000,2017-01-04T12:46:50.048,2,revise,active
075071193B,hardada,,,Rafton Drive,,,,Rafton Drive,,Clavering Road,,,,B,,N,N0070311,Clavering,Hartlepool,,,,,,0,UKOS,448777,535221,-1.244477,54.709649,BCT,MKD,OTH,,,,022,2005-07-06T00:00:00.000,2017-01-04T12:48:17.193,2,revise,active
075071194A,hardadg,,,Bournemouth Drive,,,,Bournemouth Drive,,King Oswy Drive,,,,A,,W,E0037869,Hart Station,Hartlepool,,,,,,0,UKOS,448553,535905,-1.247839,54.715817,BCT,MKD,TIP,,,,022,2005-07-06T00:00:00.000,2017-01-04T14:12:26.905,2,revise,active
075071194B,hardadj,,,Bournemouth Drive,,,,Bournemouth Drive,,King Oswy Drive,,,,B,,E,E0037869,Hart Station,Hartlepool,,,,,,0,UKOS,448678,535953,-1.245891,54.716236,BCT,MKD,TIP,,,,022,2005-07-06T00:00:00.000,2017-01-04T14:19:53.561,2,revise,active
075071195A,hardadm,,,Seaview Residential Park,,,,Seaview Park,,Easington Road,,,,A,,N,E0037869,Hart Station,Hartlepool,,,,,,0,UKOS,448063,536240,-1.25539,54.718874,BCT,MKD,OTH,,,,022,2005-07-06T00:00:00.000,2017-01-04T14:23:38.522,3,revise,active
075071195B,hardadp,,,Seaview Residential Park,,,,Seaview Park,,Easington Road,,,,B,,SE,E0037869,Hart Station,Hartlepool,,,,,,0,UKOS,448166,536153,-1.253805,54.718082,BCT,MKD,OTH,,,,022,2005-07-06T00:00:00.000,2017-01-04T14:28:51.862,3,revise,active
075071196A,hardadt,,,Parkstone Grove,,,,Dorchester Drive,,EASINGTON ROAD,,,,A,,NW,E0037869,Hart Station,Hartlepool,,,,,,0,UKOS,448658,535605,-1.246255,54.713114,BCT,MKD,TIP,,,,022,2005-07-06T00:00:00.000,2017-01-04T14:38:43.650,2,revise,active
075071196B,hardadw,,,Parkstone Grove,,,,Dorchester Drive,,EASINGTON ROAD,,,,B,,SE,E0037869,Hart Station,Hartlepool,,,,,,0,UKOS,448740,535527,-1.244993,54.712407,BCT,MKD,TIP,,,,022,2005-07-06T00:00:00.000,2017-01-04T14:40:44.326,2,revise,active
075071197A,hardaga,,,Weymouth Drive,,,,Barnard Grove School,,King Oswy Drive,,,,A,,NW,E0037869,Hart Station,Hartlepool,,,,,,0,UKOS,448772,535858,-1.244448,54.715373,BCT,MKD,OTH,,,,022,2005-07-06T00:00:00.000,2017-01-04T15:02:45.831,2,revise,active
075071197B,hardagd,,,Weymouth Drive,,,,Barnard Grove School,,King Oswy Drive,,,,B,,SE,E0037869,Hart Station,Hartlepool,,,,,,0,UKOS,448837,535792,-1.24345,54.714774,BCT,MKD,OTH,,,,022,2005-07-06T00:00:00.000,2017-01-04T15:15:18.328,2,revise,active
075071198A,hardagj,,,Ridlington Way,,,,Ridlington Way,,King Oswy Drive,,,,A,,NW,E0037869,Hart Station,Hartlepool,,,,,,0,UKOS,448937,535607,-1.241929,54.713102,BCT,MKD,OTH,,,,022,2005-07-06T00:00:00.000,2017-01-04T15:26:15.491,2,revise,active
075071198B,hardagm,,,Ridlington Way,,,,Ridlington Way,,King Oswy Drive,,,,B,,SE,E0037869,Hart Station,Hartlepool,,,,,,0,UKOS,449027,535538,-1.240544,54.712473,BCT,MKD,OTH,,,,022,2005-07-06T00:00:00.000,2017-01-04T15:30:08.338,2,revise,active
075071199A,hardagp,,,Goldsmith Avenue,,,,Goldsmith Avenue,,King Oswy Drive,,,,A,,NW,E0037869,Hart Station,Hartlepool,,,,,,0,UKOS,449203,535436,-1.23783,54.711539,BCT,MKD,TIP,,,,022,2005-07-06T00:00:00.000,2017-01-04T15:36:53.396,2,revise,active
075071199B,hardagt,,,Goldsmith Avenue,,,,Goldsmith Avenue,,King Oswy Drive,,,,B,,SE,E0037869,Hart Station,Hartlepool,,,,,,0,UKOS,449270,535430,-1.236791,54.711479,BCT,MKD,TIP,,,,022,2005-07-06T00:00:00.000,2017-01-04T15:40:39.768,2,revise,active
075071200A,hardagw,,,Miller Crescent,,,,Saxon Hotel,,Easington Road,,,,A,,NW,E0037869,Hart Station,Hartlepool,,,,,,0,UKOS,448919,535316,-1.242257,54.710489,BCT,MKD,OTH,,,,022,2005-07-06T00:00:00.000,2017-01-04T15:57:19.322,2,revise,active
075071200B,hardaja,,,Miller Crescent,,,,Saxon Hotel,,Easington Road,,,,B,,SE,E0037869,Hart Station,Hartlepool,,,,,,0,UKOS,448859,535401,-1.243174,54.711258,BCT,MKD,OTH,,,,022,2005-07-06T00:00:00.000,2017-01-04T16:05:54.946,2,revise,active
075071201A,hardajd,,,Cemetery,,,,New Cemetery,,West View Road,,,,A,,E,E0037896,West View,Hartlepool,,,,,,0,UKOS,449420,535086,-1.234521,54.708373,BCT,MKD,OTH,,,,022,2005-07-06T00:00:00.000,2017-01-04T16:57:24.249,2,revise,active
075071201B,hardajg,,,Cemetery,,,,New Cemetery,,West View Road,,,,B,,W,E0037896,West View,Hartlepool,,,,,,0,UKOS,449473,535070,-1.233701,54.708224,BCT,MKD,OTH,,,,022,2005-07-06T00:00:00.000,2017-01-04T17:01:55.804,2,revise,active
075071202A,hardajm,,,Brus Corner,,,,Winterbottom Avenue,,West View Road,,,,A,,W,E0037896,West View,Hartlepool,,,,,,0,UKOS,450147,535195,-1.22322,54.709281,BCT,MKD,TIP,,,,022,2005-07-06T00:00:00.000,2017-05-18T11:17:41.078,2,revise,active
075071202B,hardajp,,,Brus Corner,,,,West View Road,,Winterbottom Avenue,,,,B,,S,E0037896,West View,Hartlepool,,,,,,0,UKOS,450219,535130,-1.222114,54.708689,BCT,MKD,TIP,,,,022,2005-07-06T00:00:00.000,2017-05-18T11:19:42.957,2,revise,active
075071202C,hardajt,,,Brus Shops,,,,West View Road,,Winterbottom Avenue,,,,3,,S,E0037896,West View,Hartlepool,,,,,,0,UKOS,450218,535116,-1.222132,54.708564,BCT,MKD,OTH,,,,022,2005-07-06T00:00:00.000,2017-05-18T11:14:07.586,2,revise,inactive
075071202D,hardajw,,,Brus Corner,,,,Winterbottom Avenue,,West View Road,,,,C,,E,E0037896,West View,Hartlepool,,,,,,0,UKOS,450292,535202,-1.220969,54.709329,BCT,MKD,TIP,,,,022,2005-07-06T00:00:00.000,2017-05-18T11:15:29.513,2,revise,active
075071203A,hardama,,,Central Estate Methodist Church,,,,Rugby Ground,,West View Road,,,,A,,SE,E0037896,West View,Hartlepool,,,,,,0,UKOS,451089,534683,-1.208691,54.704585,BCT,MKD,OTH,,,,022,2005-07-06T00:00:00.000,2017-01-04T17:25:00.590,2,revise,active
075071203B,hardamd,,,Central Estate Methodist Church,,,,Rugby Ground,,West View Road,,,,B,,NW,E0037896,West View,Hartlepool,,,,,,0,UKOS,451054,534682,-1.209235,54.70458,BCT,MKD,OTH,,,,022,2005-07-06T00:00:00.000,2017-01-04T17:30:29.248,2,revise,active
075071204B,hardamg,,,Victoria Arms,,,,Durham Street,,Northgate,,,,B,,E,N0070310,The Headland,Hartlepool,,,,,,0,UKOS,452037,534358,-1.194039,54.701568,BCT,MKD,OTH,,,,022,2005-07-06T00:00:00.000,2017-05-12T17:55:31.625,2,revise,active
075071204C,hardamj,,,Throston Bridge,,,,Durham Street,,Northgate,,,,3,,W,N0070310,The Headland,Hartlepool,,,,,,0,UKOS,452034,534336,-1.19409,54.701371,BCT,MKD,TIP,,,,022,2005-07-06T00:00:00.000,2018-02-13T16:25:34.968,4,revise,inactive
075071205A,hardamp,,,Vane Street,,,,Bridge Hotel,,Durham Street,,,,A,,E,N0070310,The Headland,Hartlepool,,,,,,0,UKOS,452240,534283,-1.190903,54.700873,BCT,MKD,OTH,,,,022,2005-07-06T00:00:00.000,2017-01-05T11:45:23.321,2,revise,active
075071205B,hardamt,,,Vane Street,,,,Bridge Hotel,,Northgate,,,,B,,NW,N0070310,The Headland,Hartlepool,,,,,,0,UKOS,452208,534233,-1.191408,54.700427,BCT,MKD,OTH,,,,022,2005-07-06T00:00:00.000,2017-01-05T11:48:15.177,2,revise,active
075071206B,hardamw,,,St Helens Primary School,,,,St Helens Primary School,,Durham Street,,,,2,,E,N0070310,The Headland,Hartlepool,,,,,,0,UKOS,452500,534199,-1.186884,54.700092,BCT,MKD,OTH,,,,022,2005-07-06T00:00:00.000,2018-02-13T16:26:01.497,4,revise,inactive
075071207A,hardapa,,,Mayfield House,,,,opp Mayfield House,,Dalton Lane,,,,A,,N,E0053157,Dalton Piercy,,,,,,,0,UKOS,447108,532178,-1.270868,54.682463,BCT,MKD,OTH,,,,022,2005-07-06T00:00:00.000,2018-11-28T12:17:46.522,2,revise,active
075071207B,hardapd,,,Mayfield House,,,,o/s Mayfield House,,Dalton Lane,,,,S bound,,S,E0053157,Dalton Piercy,,,,,,,0,UKOS,447126,532167,-1.270591,54.682363,BCT,CUS,OTH,,,,022,2005-07-06T00:00:00.000,2007-06-15T00:00:00.000,1,revise,active
075071208A,hardapg,,,Anchor Court,,,,Church Close,,Durham Street,,,,A,,S,N0070310,The Headland,Hartlepool,,,,,,0,UKOS,452820,533744,-1.182001,54.69597,BCT,MKD,OTH,,,,022,2005-07-06T00:00:00.000,2017-01-05T12:15:39.295,2,revise,active
075071209A,hardapj,,,Town Square,,,,Middlegate,,Northgate,,,,A,,W,N0070310,The Headland,Hartlepool,,,,,,0,UKOS,452687,533730,-1.184067,54.695858,BCT,MKD,TIP,,,,022,2005-07-06T00:00:00.000,2017-01-05T12:22:35.793,2,revise,active
075071209B,hardapm,,,Middlegate Bus Station,,,,Middlegate,,Northgate,,,,2,,S,N0070310,The Headland,Hartlepool,,,,,,0,UKOS,452661,533698,-1.184476,54.695573,BCT,MKD,TIP,,,,022,2005-07-06T00:00:00.000,2007-06-15T00:00:00.000,1,revise,inactive
075071210A,hardapt,,,Darlington Street,,,,Wells Street,,Northgate,,,,A,,N,N0070310,The Headland,Hartlepool,,,,,,0,UKOS,452649,533973,-1.184613,54.698045,BCT,MKD,TIP,,,,022,2005-07-06T00:00:00.000,2017-01-05T12:31:03.679,2,revise,active
075071211A,hardapw,,,Amateur Boxing Club,,,,Warren Street,,Northgate,,,,A,,W,N0070310,The Headland,Hartlepool,,,,,,0,UKOS,452464,534067,-1.187466,54.698909,BCT,MKD,OTH,,,,022,2005-07-06T00:00:00.000,2017-01-05T13:37:45.418,2,revise,active
075071212A,hardata,,,Hartlepool Dock Main Offices,,,,Telford Close,,Cleveland Road,,,,A,,NE,E0037896,West View,Hartlepool,,,,,,0,UKOS,451424,534351,-1.203552,54.701568,BCT,MKD,OTH,,,,022,2005-07-06T00:00:00.000,2017-01-05T13:49:26.569,2,revise,active
075071212B,hardatd,,,Hartlepool Dock Main Offices,,,,Telford Close,,Cleveland Road,,,,B,,SW,E0037896,West View,Hartlepool,,,,,,0,UKOS,451397,534318,-1.203976,54.701274,BCT,MKD,OTH,,,,022,2005-07-06T00:00:00.000,2017-01-05T14:11:45.763,2,revise,active
075071214A,hardatg,,,Crimdon House Farm,,,,Crimdon House Farm,,Coast Road,,,,A,,N,E0037869,Hart Station,Hartlepool,,,,,,0,UKOS,447931,536600,-1.25738,54.722121,BCT,MKD,OTH,,,,022,2005-07-06T00:00:00.000,2017-01-05T14:18:05.455,2,revise,active
075071214B,hardatj,,,Crimdon House Farm,,,,Crimdon House Farm,,Coast Road,,,,B,,S,E0037869,Hart Station,Hartlepool,,,,,,0,UKOS,447956,536561,-1.256998,54.721768,BCT,MKD,OTH,,,,022,2005-07-06T00:00:00.000,2017-01-05T14:28:07.039,3,revise,active
075071215A,hardatm,,,Amberton Road,,,,Amberton Road,,Lancaster Road,,,,1,,N,N0073090,Dyke House,Hartlepool,,,,,,0,UKOS,450849,533890,-1.212553,54.697484,BCT,MKD,OTH,,,,022,2005-07-06T00:00:00.000,2014-05-13T15:10:56.000,2,revise,inactive
075071215B,hardatp,,,Amberton Road,,,,Amberton Road,,Lancaster Road,,,,2,,S,N0073090,Dyke House,Hartlepool,,,,,,0,UKOS,450867,533852,-1.212281,54.697141,BCT,MKD,OTH,,,,022,2005-07-06T00:00:00.000,2014-05-13T15:10:19.000,2,revise,inactive
075071216A,hardatw,,,Hart-on-the-Hill,,,,Hart on Hill,,Dalton Piercy Lane,,,,NE bound,,NE,E0053157,Dalton Piercy,,,,,,,0,UKOS,446860,531868,-1.274764,54.679701,BCT,CUS,OTH,,,,022,2005-07-06T00:00:00.000,2007-06-15T00:00:00.000,1,revise,active
075071216B,hardawa,,,Hart-on-the-Hill,,,,Hart on Hill,,Dalton Piercy Lane,,,,SW bound,,SW,E0053157,Dalton Piercy,,,,,,,0,UKOS,446875,531858,-1.274533,54.679609,BCT,CUS,OTH,,,,022,2005-07-06T00:00:00.000,2007-06-15T00:00:00.000,1,revise,active
075071217A,hardawd,,,Lindisfarne Close,,,,Bamburgh Court,,BAMBURGH ROAD,,,,A,,SE,N0070311,Clavering,Hartlepool,,,,,,0,UKOS,448634,535310,-1.246676,54.710469,BCT,MKD,OTH,,,,022,2005-07-06T00:00:00.000,2017-01-05T16:15:47.664,2,revise,active
075071218A,hardawg,,,Gleneagles Road,,,,Gleneagles Road,,Clavering Road,,,,A,,NW,N0070311,Clavering,Hartlepool,,,,,,0,UKOS,448455,535700,-1.249394,54.713984,BCT,MKD,OTH,,,,022,2005-07-06T00:00:00.000,2017-01-05T16:49:02.431,2,revise,active
075071218B,hardawj,,,Gleneagles Road,,,,Gleneagles Road,,Clavering Road,,,,B,,SE,N0070311,Clavering,Hartlepool,,,,,,0,UKOS,448442,535740,-1.24959,54.714345,BCT,MKD,OTH,,,,022,2005-07-06T00:00:00.000,2017-01-05T16:51:10.710,2,revise,active
075071220A,hardawm,,,Sharwoods Factory,,,,Marsh House Lane End,,Sharwoods Factory,,,,Entrance,,NW,E0053159,Greatham,,,,,,,0,UKOS,449893,526732,-1.228604,54.633259,BCT,CUS,OTH,,,,022,2005-07-06T00:00:00.000,2017-05-19T14:28:06.858,2,revise,inactive
075071221A,hardawp,,,Falcon Road,,,,Glamorgan Grove,,Throston Grange Lane,,,,A,,NE,E0037890,Throston Grange,Hartlepool,,,,,,0,UKOS,448866,533919,-1.243313,54.697941,BCT,MKD,OTH,,,,022,2005-07-06T00:00:00.000,2017-01-05T16:54:51.132,2,revise,active
075071221B,hardawt,,,Falcon Road,,,,Glamorgan Grove,,THROSTON GRANGE LANE,,,,B,,SW,E0037890,Throston Grange,Hartlepool,,,,,,0,UKOS,448852,533892,-1.243535,54.697706,BCT,MKD,OTH,,,,022,2005-07-06T00:00:00.000,2020-12-16T09:00:37.010,3,revise,active
075071222A,hardgad,,,Cardigan Grove,,,,Cardigan Grove,,Throston Grange Lane,,,,A,,W,E0037890,Throston Grange,Hartlepool,,,,,,0,UKOS,449358,534104,-1.235649,54.699555,BCT,MKD,OTH,,,,022,2005-07-06T00:00:00.000,2017-01-05T17:33:41.335,2,revise,active
075071222B,hardgag,,,Cardigan Grove,,,,Cardigan Grove,,Throston Grange Lane,,,,B,,E,E0037890,Throston Grange,Hartlepool,,,,,,0,UKOS,449375,534120,-1.235383,54.699697,BCT,MKD,OTH,,,,022,2005-07-06T00:00:00.000,2017-01-05T17:38:36.252,2,revise,active
075071223A,hardgaj,,,University Hospital,,,,University Hospital,,Holdforth Road,,,,A,,NE,N0073090,Dyke House,Hartlepool,,,,,,0,UKOS,449834,534245,-1.2282343,54.7007742,BCT,MKD,TIP,,,,022,2005-07-06T00:00:00.000,2018-06-25T11:45:41.926,3,revise,active
075071223B,hardgam,,,University Hospital,,,,University Hospital,,Holdforth Road,,,,B,,SW,N0073090,Dyke House,Hartlepool,,,,,,0,UKOS,449908,534263,-1.227089,54.70093,BCT,MKD,TIP,,,,022,2005-07-06T00:00:00.000,2018-06-25T11:43:00.453,3,revise,active
075071223C,hardgap,,,University Hospital,,,,Holdforth Road,,Easington Road,,,,3,,E,N0073090,Dyke House,Hartlepool,,,,,,0,UKOS,449848,534145,-1.22804,54.699875,BCT,MKD,TIP,,,,022,2005-07-06T00:00:00.000,2018-02-13T16:26:16.948,4,revise,inactive
075071223D,hardgat,,,University Hospital,,,,Holdforth Road,,Easington Road,,,,4,,W,N0073090,Dyke House,Hartlepool,,,,,,0,UKOS,449891,534112,-1.227378,54.699574,BCT,MKD,TIP,,,,022,2005-07-06T00:00:00.000,2018-02-13T16:26:28.928,4,revise,inactive
075071224A,hardgaw,,,North Urn,,,,North Urn Cottage,,Elwick Road,,,,A,,NE,E0053158,Elwick,,,,,,,0,UKOS,446560,533003,-1.279236,54.689927,BCT,MKD,OTH,,,,022,2005-07-06T00:00:00.000,2018-11-28T09:13:38.009,2,revise,active
075071224B,hardgda,,,North Urn,,,,North Urn Cottage,,Elwick Road,,,,B,,SW,E0053158,Elwick,,,,,,,0,UKOS,446585,532992,-1.27885,54.689826,BCT,MKD,OTH,,,,022,2005-07-06T00:00:00.000,2018-11-28T09:15:33.111,2,revise,active
075071225A,hardgdg,,,Holdforth Road East End,,,,Holdforth Road,,Winterbottom Avenue,,,,A,,N,E0037896,West View,Hartlepool,,,,,,0,UKOS,450193,534369,-1.222648,54.701854,BCT,MKD,OTH,,,,022,2005-07-06T00:00:00.000,2017-05-15T10:25:01.596,2,revise,active
075071225B,hardgdj,,,Holdforth Road East End,,,,Holdforth Road,,Winterbottom Avenue,,,,B,,S,E0037896,West View,Hartlepool,,,,,,0,UKOS,450191,534452,-1.222665,54.7026,BCT,MKD,TIP,,,,022,2005-07-06T00:00:00.000,2017-05-15T10:31:48.209,3,revise,active
075071225D,hardgdm,,,Holdforth Road,,,,Winterbottom Avenue,,Holdforth Road,,,,4,,E,E0037896,West View,Hartlepool,,,,,,0,UKOS,450085,534382,-1.224322,54.701981,BCT,MKD,OTH,,,,022,2005-07-06T00:00:00.000,2018-02-13T16:26:46.945,4,revise,inactive
075071226A,hardgdp,,,Richardsons & Westgarth Social Club,,,,Howbeck Lane,,Winterbottom Avenue,,,,A,,N,E0037896,West View,Hartlepool,,,,,,0,UKOS,450228,534179,-1.222138,54.700143,BCT,MKD,TIP,,,,022,2005-07-06T00:00:00.000,2018-06-25T11:42:15.328,3,revise,active
075071226B,hardgdt,,,Richardsons & Westgarth Social Club,,,,Howbeck Lane,,Winterbottom Avenue,,,,B,,S,E0037896,West View,Hartlepool,,,,,,0,UKOS,450237,534213,-1.221993,54.700448,BCT,MKD,TIP,,,,022,2005-07-06T00:00:00.000,2018-06-25T11:46:30.128,3,revise,active
075071226D,hardgdw,,,Richardson's Club,,,,Winterbottom Avenue,,Easington Road,,,,4,,W,E0037896,West View,Hartlepool,,,,,,0,UKOS,450142,534076,-1.22349,54.699226,BCT,MKD,OTH,,,,022,2005-07-06T00:00:00.000,2018-02-13T16:27:05.372,4,revise,inactive
075071226E,hardgja,,,Richardson's Club,,,,Winterbottom Avenue,,Easington Road,,,,5,,E,E0037896,West View,Hartlepool,,,,,,0,UKOS,450117,534097,-1.223874,54.699417,BCT,MKD,OTH,,,,022,2005-07-06T00:00:00.000,2018-02-13T16:27:15.467,4,revise,inactive
075071227A,hardgjd,,,Bellasis Grove,,,,Bamburgh Court,,Clavering Road,,,,A,,W,N0070311,Clavering,Hartlepool,,,,,,0,UKOS,448631,535337,-1.246723,54.710705,BCT,MKD,TIP,,,,022,2005-07-06T00:00:00.000,2017-01-05T17:48:33.204,3,revise,active
075071227B,hardgjg,,,Bellasis Grove,,,,Bamburgh Court,,Clavering Road,,,,B,,E,N0070311,Clavering,Hartlepool,,,,,,0,UKOS,448648,535359,-1.246456,54.710901,BCT,MKD,TIP,,,,022,2005-07-06T00:00:00.000,2017-01-05T18:05:46.630,3,revise,active
075071228A,hardgjm,,,Ashley Gardens,,,,Ashley Gardens,,Chatham Road,,,,A,,E,N0073090,Dyke House,Hartlepool,,,,,,0,UKOS,449906,533555,-1.22724,54.694568,BCT,MKD,OTH,,,,022,2005-07-06T00:00:00.000,2017-01-05T18:09:57.588,2,revise,active
075071228B,hardgjp,,,Ashley Gardens,,,,Ashley Gardens,,Chatham Road,,,,B,,W,N0073090,Dyke House,Hartlepool,,,,,,0,UKOS,449979,533546,-1.22611,54.69448,BCT,MKD,OTH,,,,022,2005-07-06T00:00:00.000,2017-01-06T11:20:48.529,2,revise,active
075071229A,hardgjt,,,Sports & Technology College,,,,Chattham Road,,Raby Road,,,,A,,N,N0073090,Dyke House,Hartlepool,,,,,,0,UKOS,450347,533730,-1.220369,54.696097,BCT,MKD,OTH,,,,022,2005-07-06T00:00:00.000,2017-01-06T11:50:44.822,2,revise,active
075071229B,hardgjw,,,Sports & Technology College,,,,Dyke House School,,Raby Road,,,,B,,S,N0073090,Dyke House,Hartlepool,,,,,,0,UKOS,450341,533853,-1.220441,54.697202,BCT,MKD,OTH,,,,022,2005-07-06T00:00:00.000,2017-01-06T12:07:20.557,2,revise,active
075071230A,hardgma,,,Leighton Terrace,,,,Hart Road/A179,,Clavering Road,,,,A,,NW,N0070311,Clavering,Hartlepool,,,,,,0,UKOS,448846,535096,-1.243427,54.708519,BCT,MKD,OTH,,,,022,2005-07-06T00:00:00.000,2017-01-06T12:19:19.946,2,revise,active
075071230B,hardgmd,,,Leighton Terrace,,,,Hart Road/A179,,Clavering Road,,,,B,,S,N0070311,Clavering,Hartlepool,,,,,,0,UKOS,448868,535075,-1.243089,54.708328,BCT,MKD,OTH,,,,022,2005-07-06T00:00:00.000,2018-11-28T09:17:23.505,2,revise,active
075071231A,hardgmg,,,Brougham Terrace East End,,,,Brougham Terrace,,Lancaster Road,,,,A,,S,N0073090,Dyke House,Hartlepool,,,,,,0,UKOS,450894,533491,-1.211925,54.693894,BCT,MKD,OTH,,,,022,2005-07-06T00:00:00.000,2017-01-06T12:39:53.492,2,revise,active
075071231B,hardgmj,,,Brougham Terrace East End,,,,Brougham Terrace,,Lancaster Road,,,,B,,N,N0073090,Dyke House,Hartlepool,,,,,,0,UKOS,450868,533541,-1.212319,54.694346,BCT,MKD,OTH,,,,022,2005-07-06T00:00:00.000,2017-01-06T12:46:57.737,2,revise,active
075071232A,hardgmp,,,High Point Retail Park - Middleton Road,,,,Lancaster Road,,Middleton Road,,,,A,,E,N0073090,Dyke House,Hartlepool,,,,,,0,UKOS,450969,533285,-1.210797,54.692036,BCT,MKD,OTH,,,,022,2005-07-06T00:00:00.000,2017-05-15T10:55:52.399,2,revise,active
075071232B,hardgmt,,,Lancaster Road,,,,Middleton Road,,Lancaster Road,,,,2,,N,N0073090,Dyke House,Hartlepool,,,,,,0,UKOS,450879,533290,-1.212192,54.69209,BCT,MKD,OTH,,,,022,2005-07-06T00:00:00.000,2018-02-13T16:27:30.135,4,revise,inactive
075071233A,hardgmw,,,The General Medical Centre,,,,Warren Road,,Winterbottom Avenue,,,,A,,N,E0037896,West View,Hartlepool,,,,,,0,UKOS,450138,534693,-1.223446,54.704771,BCT,MKD,OTH,,,,022,2005-07-06T00:00:00.000,2017-01-06T12:56:44.506,2,revise,active
075071233B,hardgpa,,,The General Medical Centre,,,,Warren Road,,Winterbottom Avenue,,,,B,,S,E0037896,West View,Hartlepool,,,,,,0,UKOS,450152,534725,-1.223223,54.705057,BCT,MKD,OTH,,,,022,2005-07-06T00:00:00.000,2017-01-06T13:03:10.482,2,revise,active
075071233C,hardgpd,,,The General Medical Centre,,,,Warren Road,,Winterbottom Avenue,,,,C,,N,E0037896,West View,Hartlepool,,,,,,0,UKOS,450148,534608,-1.223306,54.704006,BCT,MKD,OTH,,,,022,2005-07-06T00:00:00.000,2017-01-06T13:08:24.980,2,revise,active
075071234A,hardgpg,,,Miers Avenue,,,,Miers Avenue,,Winterbottom Avenue,,,,A,,N,E0037896,West View,Hartlepool,,,,,,0,UKOS,450151,534953,-1.2232,54.707106,BCT,MKD,OTH,,,,022,2005-07-06T00:00:00.000,2017-01-06T13:13:44.250,2,revise,active
075071234B,hardgpj,,,Miers Avenue,,,,Miers Avenue,,Winterbottom Avenue,,,,B,,S,E0037896,West View,Hartlepool,,,,,,0,UKOS,450160,534920,-1.223066,54.706808,BCT,MKD,OTH,,,,022,2005-07-06T00:00:00.000,2017-01-06T13:25:49.259,2,revise,active
075071235A,hardgpm,,,Holy Trinity Parish Church,,,,Trinity Church,,Davison Drive,,,,A,,S,E0037896,West View,Hartlepool,,,,,,0,UKOS,449857,534860,-1.227778,54.706299,BCT,MKD,TIP,,,,022,2005-07-06T00:00:00.000,2017-01-06T13:32:47.915,2,revise,active
075071235B,hardgpt,,,Holy Trinity Parish Church,,,,Trinity Church,,Davison Drive,,,,B,,N,E0037896,West View,Hartlepool,,,,,,0,UKOS,449838,534888,-1.228068,54.706553,BCT,MKD,TIP,,,,022,2005-07-06T00:00:00.000,2017-01-06T13:40:00.831,2,revise,active
075071236A,hardgpw,,,Mayfield Park,,,,Mayfield Park,,Easington Road,,,,A,,SE,E0037896,West View,Hartlepool,,,,,,0,UKOS,449382,534798,-1.235154,54.705795,BCT,MKD,OTH,,,,022,2005-07-06T00:00:00.000,2020-05-06T15:10:44.239,3,revise,active
075071236B,hardgta,,,Mayfield Park,,,,Mayfield Park,,Easington Road,,,,B,,NW,E0037896,West View,Hartlepool,,,,,,0,UKOS,449367,534783,-1.235395,54.705655,BCT,MKD,OTH,,,,022,2005-07-06T00:00:00.000,2017-01-06T14:52:11.081,2,revise,active
075071237A,hardgtd,,,Harcourt Street,,,,Sandringham Road,,Duke Street,,,,A,,N,E0054977,Hartlepool,,,,,,,0,UKOS,449939,532947,-1.226832,54.689101,BCT,MKD,OTH,,,,022,2005-07-06T00:00:00.000,2017-01-06T15:20:57.715,2,revise,active
075071237B,hardgtg,,,Harcourt Street,,,,Harcourt Street,,Duke Street,,,,B,,S,E0054977,Hartlepool,,,,,,,0,UKOS,449953,532908,-1.226622,54.688749,BCT,MKD,OTH,,,,022,2005-07-06T00:00:00.000,2017-01-06T15:23:16.519,2,revise,active
075071238A,hardgtj,,,Cobden Street,,,,Cobden Street,,Mulgrave Road,,,,A,,N,E0054977,Hartlepool,,,,,,,0,UKOS,449953,532757,-1.226648,54.687393,BCT,MKD,OTH,,,,022,2005-07-06T00:00:00.000,2020-05-06T15:12:46.222,3,revise,active
075071238B,hardgtm,,,Cobden Street,,,,Cobden Street,,Mulgrave Road,,,,B,,S,E0054977,Hartlepool,,,,,,,0,UKOS,449962,532731,-1.226513,54.687158,BCT,MKD,OTH,,,,022,2005-07-06T00:00:00.000,2020-05-06T15:12:59.797,3,revise,active
075071239A,hardgtp,,,Interchange Stand F,,,,Marina Way,,Marina Gateway,,,,F,,NE,E0054977,Hartlepool,,,,,,,0,UKOS,450994,532710,-1.21051,54.686866,BCT,MKD,TIP,,,,022,2005-07-06T00:00:00.000,2017-03-30T12:59:02.083,3,revise,active
075071240A,hardgtw,,,Clavering Play Area,,,,West View Roundabout,,Hart Road,,,,A,,E,E0037896,West View,Hartlepool,,,,,,0,UKOS,449026,535035,-1.240644,54.707953,BCT,MKD,OTH,,,,022,2005-07-06T00:00:00.000,2017-05-15T11:16:57.237,2,revise,active
075071240B,hardgwa,,,Clavering Play Area,,,,West View Roundabout,,Hart Road,,,,B,,W,E0037896,West View,Hartlepool,,,,,,0,UKOS,449028,535006,-1.240618,54.707692,BCT,MKD,OTH,,,,022,2005-07-06T00:00:00.000,2023-05-03T09:46:32.666,4,revise,active
075071240C,hardgwd,,,Easington Road,,,,West View Road,,Easington Road,,,,3,,SE,E0037896,West View,Hartlepool,,,,,,0,UKOS,449265,534977,-1.236945,54.707409,BCT,MKD,TIP,,,,022,2005-07-06T00:00:00.000,2018-02-13T16:27:44.503,4,revise,inactive
075071240D,hardgwg,,,Easington Road,,,,Hart Road,,Easington Road,,,,4,,NW,E0037896,West View,Hartlepool,,,,,,0,UKOS,449270,534918,-1.236877,54.706878,BCT,MKD,TIP,,,,022,2005-07-06T00:00:00.000,2018-02-13T16:28:02.809,4,revise,inactive
075071241C,hardgwj,,,Church Street,,,,Whitby Street,,Church Street,,,,3,,W,E0054977,Hartlepool,,,,,,,0,UKOS,451215,532645,-1.207093,54.68626,BCT,MKD,OTH,,,,022,2005-07-06T00:00:00.000,2007-06-15T00:00:00.000,1,revise,inactive
075071242A,hardgwm,,,Railway Station,,,,Church Street,,Church Square,,,,1,,E,E0054977,Hartlepool,,,,,,,1,UKOS,451152,532630,-1.208073,54.686131,BCT,MKD,TIP,,,,022,2005-07-06T00:00:00.000,2007-06-15T00:00:00.000,1,revise,inactive
075071242B,hardgwp,,,Church Square,,,,Church Street,,Church Square,,,,2,,E,E0054977,Hartlepool,,,,,,,1,UKOS,451028,532635,-1.209995,54.686189,BCT,MKD,TIP,,,,022,2005-07-06T00:00:00.000,2007-06-15T00:00:00.000,1,revise,inactive
075071242C,hardgwt,,,Railway Station Approach,,,,Whitby Street,,Church Street,,,,A,,W,E0054977,Hartlepool,,,,,,,0,UKOS,451219,532636,-1.207033,54.686178,BCT,MKD,TIP,,,,022,2005-07-06T00:00:00.000,2018-02-13T16:28:16.910,5,revise,inactive
075071242E,hardjad,,,Interchange,,,,Church Street,,Church Square,,,,Stand E,,W,E0054977,Hartlepool,,,,,,,1,UKOS,451009,532626,-1.210292,54.68611,BCT,MKD,TIP,,,,022,2005-07-06T00:00:00.000,2016-11-11T12:38:21.440,2,revise,active
075071243A,hardjag,,,Asda,,,,Retail Park,,Marina Way,,,,A,,N,N0073108,Marina,Hartlepool,,,,,,0,UKOS,451094,532979,-1.208912,54.689273,BCT,MKD,TIP,,,,022,2005-07-06T00:00:00.000,2016-11-11T12:51:20.469,2,revise,active
075071243B,hardjaj,,,National Museum of the Royal Navy,,,,Retail Park,,Marina Way,,,,B,,S,N0073108,Marina,Hartlepool,,,,,,0,UKOS,451118,533049,-1.208527,54.6899,BCT,MKD,TIP,,,,022,2005-07-06T00:00:00.000,2018-06-25T11:41:19.908,4,revise,active
075071243C,hardjam,,,Mecca Bingo Stand 1,,,,Marina Way,,Maritime Avenue,,,,Stand 1,,W,N0073108,Marina,Hartlepool,,,,,,0,UKOS,451240,532936,-1.206654,54.688872,BCT,MKD,OTH,,,,022,2005-07-06T00:00:00.000,2007-06-15T00:00:00.000,1,revise,inactive
075071243D,hardjap,,,Mecca Bingo Stand 2,,,,Marina Way,,Maritime Avenue,,,,Stand 2,,E,N0073108,Marina,Hartlepool,,,,,,0,UKOS,451261,532974,-1.206322,54.689211,BCT,MKD,TIP,,,,022,2005-07-06T00:00:00.000,2007-06-15T00:00:00.000,1,revise,inactive
075071244A,hardjat,,,Jubilee Homes,,,,Bowling Green,,Brinkburn Road,,,,A,,N,E0037866,Foggy Furze,Hartlepool,,,,,,0,UKOS,450175,531647,-1.223395,54.677396,BCT,MKD,TIP,,,,022,2005-07-06T00:00:00.000,2017-01-06T15:43:18.528,2,revise,active
075071244B,hardjaw,,,Jubilee Homes,,,,Bowling Green,,Brinkburn Road,,,,B,,S,E0037866,Foggy Furze,Hartlepool,,,,,,0,UKOS,450192,531680,-1.223125,54.677691,BCT,MKD,TIP,,,,022,2005-07-06T00:00:00.000,2017-01-06T15:48:05.507,2,revise,active
075071245A,hardjda,,,Whitby Grove,,,,Whitby Grove,,Hucklehoven Way,,,,A,,W,E0054977,Hartlepool,,,,,,,0,UKOS,451295,532377,-1.205899,54.683843,BCT,MKD,TIP,,,,022,2005-07-06T00:00:00.000,2016-11-11T16:14:28.219,3,revise,active
075071245B,hardjdg,,,Whitby Grove,,,,Whitby Grove,,Huckelhoven Way,,,,B,,NE,E0054977,Hartlepool,,,,,,,0,UKOS,451295,532391,-1.205897,54.683969,BCT,MKD,OTH,,,,022,2005-07-06T00:00:00.000,2016-11-11T16:15:22.227,3,revise,active
075071246A,hardjdj,,,Catherine Road,,,,Bridge St,,Mainsforth Terrace,,,,A,,N,E0054977,Hartlepool,,,,,,,0,UKOS,451574,532388,-1.20157,54.683914,BCT,MKD,OTH,,,,022,2005-07-06T00:00:00.000,2017-01-06T16:16:58.962,2,revise,active
075071246B,hardjdm,,,Catherine Road,,,,Bridge St,,Mainsforth Terrace,,,,B,,S,E0054977,Hartlepool,,,,,,,0,UKOS,451596,532368,-1.201233,54.683732,BCT,MKD,OTH,,,,022,2005-07-06T00:00:00.000,2017-01-06T16:21:42.242,2,revise,active
075071247A,hardjdp,,,Havelock Street,,,,Newburn Bridge,,Mainsforth Terrace,,,,A,,S,E0054977,Hartlepool,,,,,,,0,UKOS,451623,532087,-1.200864,54.681204,BCT,MKD,OTH,,,,022,2005-07-06T00:00:00.000,2017-01-06T16:38:31.629,2,revise,active
075071247B,hardjdt,,,Havelock Street,,,,Newburn Bridge,,Mainsforth Terrace,,,,B,,N,E0054977,Hartlepool,,,,,,,0,UKOS,451594,532017,-1.201326,54.680578,BCT,MKD,OTH,,,,022,2005-07-06T00:00:00.000,2020-05-06T15:34:11.091,3,revise,active
075071248A,hardjdw,,,Coronation Drive Car Park,,,,Steelworks Bridge,,Coronation Drive,,,,A,,S,E0054977,Hartlepool,,,,,,,0,UKOS,451894,531451,-1.196774,54.675461,BCT,MKD,OTH,,,,022,2005-07-06T00:00:00.000,2017-01-06T16:49:45.543,2,revise,active
075071248B,hardjga,,,Coronation Drive Car Park,,,,Steelworks Bridge,,Coronation Drive,,,,B,,N,E0054977,Hartlepool,,,,,,,0,UKOS,451812,531570,-1.198024,54.676539,BCT,MKD,OTH,,,,022,2005-07-06T00:00:00.000,2017-01-06T16:52:36.160,2,revise,active
075071249A,hardjgd,,,Warrior Drive North End,,,,Sandgate Crossing,,Coronation Drive,,,,A,,S,E0054977,Hartlepool,,,,,,,0,UKOS,452070,531091,-1.194109,54.672208,BCT,MKD,OTH,,,,022,2005-07-06T00:00:00.000,2017-01-06T17:07:49.832,2,revise,active
075071249B,hardjgj,,,Warrior Drive North End,,,,Sandgate Crossing,,Coronation Drive,,,,B,,N,E0054977,Hartlepool,,,,,,,0,UKOS,452038,531116,-1.1946,54.672436,BCT,MKD,OTH,,,,022,2005-07-06T00:00:00.000,2017-01-06T17:15:16.064,2,revise,active
075071250A,hardjgm,,,Green,,,,Green Terrace,,The Cliff,,,,A,,S,E0037883,Seaton Carew,,,,,,,0,UKOS,452510,529996,-1.187483,54.662324,BCT,MKD,OTH,,,,022,2005-07-06T00:00:00.000,2017-01-10T10:48:47.604,2,revise,active
075071250B,hardjgp,,,Green,,,,The Green,,The Cliff,,,,B,,N,E0037883,Seaton Carew,,,,,,,0,UKOS,452485,530038,-1.187863,54.662704,BCT,MKD,OTH,,,,022,2005-07-06T00:00:00.000,2017-01-10T11:07:28.613,2,revise,active
075071251A,hardjgt,,,Lightfoot Crescent,,,,Lightfoot Crescent,,Easington Road,,,,A,,S,E0037896,West View,Hartlepool,,,,,,0,UKOS,449535,534568,-1.232824,54.703707,BCT,MKD,OTH,,,,022,2005-07-06T00:00:00.000,2017-01-10T11:18:15.815,2,revise,active
075071251B,hardjgw,,,Lightfoot Crescent,,,,Lightfoot Crescent,,Easington Road,,,,B,,N,E0037896,West View,Hartlepool,,,,,,0,UKOS,449473,534619,-1.233778,54.704171,BCT,MKD,OTH,,,,022,2005-07-06T00:00:00.000,2017-01-10T11:23:48.907,2,revise,active
075071252A,hardjma,,,Marine Hotel,,,,The Longscar Centre,,The Front,,,,A,,S,E0037883,Seaton Carew,,,,,,,0,UKOS,452528,529811,-1.187237,54.660659,BCT,MKD,OTH,,,,022,2005-07-06T00:00:00.000,2017-01-10T11:28:22.847,2,revise,active
075071252B,hardjmd,,,Marine Hotel,,,,The Longscar Centre,,The Front,,,,B,,N,E0037883,Seaton Carew,,,,,,,0,UKOS,452504,529793,-1.187613,54.6605,BCT,MKD,OTH,,,,022,2005-07-06T00:00:00.000,2017-01-10T11:41:37.582,2,revise,active
075071253A,hardjmg,,,Runciman Road,,,,Jones Road,,Davison Drive,,,,A,,S,E0037896,West View,Hartlepool,,,,,,0,UKOS,449902,534629,-1.227119,54.704219,BCT,MKD,OTH,,,,022,2005-07-06T00:00:00.000,2017-01-10T11:48:34.697,2,revise,active
075071253B,hardjmj,,,Runciman Road,,,,Jones Road,,Davison Drive,,,,B,,N,E0037896,West View,Hartlepool,,,,,,0,UKOS,449878,534641,-1.227489,54.704329,BCT,MKD,OTH,,,,022,2005-07-06T00:00:00.000,2017-01-10T12:02:06.036,2,revise,active
075071254A,hardjmp,,,Bus Station,,,,Bus Station,,The Front,,,,A,,S,E0037883,Seaton Carew,,,,,,,1,UKOS,452577,529568,-1.186521,54.658471,BCT,MKD,TIP,,,,022,2005-07-06T00:00:00.000,2017-05-15T17:42:18.108,2,revise,active
075071254B,hardjmt,,,Bus Station,,,,Bus Station,,The Front,,,,B,,S,E0037883,Seaton Carew,,,,,,,1,UKOS,452597,529543,-1.186216,54.658244,BCT,MKD,TIP,,,,022,2005-07-06T00:00:00.000,2017-05-15T17:44:25.204,2,revise,active
075071254C,hardjmw,,,Bus Station,,,,Bus Station,,The Front,,,,C,,S,E0037883,Seaton Carew,,,,,,,1,UKOS,452604,529516,-1.186112,54.658001,BCT,MKD,TIP,,,,022,2005-07-06T00:00:00.000,2017-05-15T17:50:13.012,2,revise,active
075071254D,hardjpa,,,Bus Station,,,,Bus Station,,The Front,,,,D,,S,E0037883,Seaton Carew,,,,,,,0,UKOS,452600,529493,-1.186178,54.657794,BCT,MKD,OTH,,,,022,2005-07-06T00:00:00.000,2017-05-18T10:39:22.058,3,revise,active
075071254F,hardjpd,,,Bus Station,,,,Bus Station,,The Front,,,,6,,N,E0037883,Seaton Carew,,,,,,,1,UKOS,452559,529505,-1.186812,54.657906,BCT,MKD,TIP,,,,022,2005-07-06T00:00:00.000,2018-02-13T16:28:33.069,4,revise,inactive
075071255A,hardjpg,,,Mainsforth Flats,,,,Burbank Street,,Mainsforth Terrace,,,,A,,N,E0054977,Hartlepool,,,,,,,0,UKOS,451615,532208,-1.200966,54.682292,BCT,MKD,OTH,,,,022,2005-07-06T00:00:00.000,2017-01-10T13:06:07.963,2,revise,active
075071256A,hardjpj,,,The Sports Domes,,,,The Mayfair Centre,,TEES ROAD,,,,A,,S,E0037883,Seaton Carew,,,,,,,0,UKOS,452423,528552,-1.189087,54.649364,BCT,MKD,TIP,,,,022,2005-07-06T00:00:00.000,2017-01-10T13:09:41.243,2,revise,active
075071256B,hardjpm,,,The Sports Domes,,,,The Mayfair Centre,,Tees Road,,,,B,,N,E0037883,Seaton Carew,,,,,,,0,UKOS,452417,528579,-1.189178,54.6496,BCT,MKD,TIP,,,,022,2005-07-06T00:00:00.000,2017-01-10T13:19:38.051,2,revise,active
075071257A,hardjpt,,,Zinc Works Road,,,,Zinc Works Road,,Tees Road,,,,A,,S,N0070312,Hartlepool Power Station,,,,,,,0,UKOS,452455,527959,-1.188697,54.644032,BCT,MKD,OTH,,,,022,2005-07-06T00:00:00.000,2017-12-07T13:23:32.255,2,revise,active
075071257B,hardjpw,,,Zinc Works Road,,,,Zinc Works Road,,Tees Road,,,,B,,N,N0070312,Hartlepool Power Station,,,,,,,0,UKOS,452441,528013,-1.188908,54.644512,BCT,MKD,OTH,,,,022,2005-07-06T00:00:00.000,2017-01-10T13:58:16.965,2,revise,active
075071258A,hardjta,,,Power Station - Tees Road,,,,Power Station,,Tees Road,,,,A,,SW,N0070312,Hartlepool Power Station,,,,,,,0,UKOS,452234,527548,-1.192198,54.640355,BCT,MKD,OTH,,,,022,2005-07-06T00:00:00.000,2017-05-15T17:57:40.077,2,revise,active
075071258B,hardjtd,,,Power Station - Tees Road,,,,Power Station,,Tees Road,,,,B,,NE,N0070312,Hartlepool Power Station,,,,,,,0,UKOS,452240,527579,-1.192099,54.640633,BCT,MKD,OTH,,,,022,2005-07-06T00:00:00.000,2017-05-15T18:02:16.445,2,revise,active
075071258C,hardjtg,,,Power Station,,,,Power Station,,Brenda Road,,,,3,,SE,N0070312,Hartlepool Power Station,,,,,,,0,UKOS,452130,527582,-1.193803,54.640671,BCT,MKD,OTH,,,,022,2005-07-06T00:00:00.000,2018-02-13T16:28:47.529,4,revise,inactive
075071258D,hardjtj,,,Power Station,,,,Power Station,,Brenda Road,,,,4,,NW,N0070312,Hartlepool Power Station,,,,,,,0,UKOS,452118,527581,-1.193989,54.640663,BCT,MKD,OTH,,,,022,2005-07-06T00:00:00.000,2018-02-13T16:28:57.848,4,revise,inactive
075071259A,hardjtm,,,Industrial Estate,,,,Graythorp Ind Est,,Tees Road,,,,A,,SW,E0037868,Graythorp,,,,,,,0,UKOS,451738,527156,-1.199951,54.636883,BCT,MKD,TIP,,,,022,2005-07-06T00:00:00.000,2017-01-10T14:56:43.787,2,revise,active
075071259B,hardjtp,,,Industrial Estate,,,,Graythorp Ind Est,,Tees Road,,,,B,,NE,E0037868,Graythorp,,,,,,,0,UKOS,451669,527104,-1.201029,54.636423,BCT,MKD,TIP,,,,022,2005-07-06T00:00:00.000,2017-01-10T15:23:28.429,2,revise,active
075071260A,hardjtw,,,Lambton Street,,,,Lambton Street,,Hucklehoven Way,,,,A,,W,E0054977,Hartlepool,,,,,,,0,UKOS,451498,532410,-1.202745,54.684119,BCT,MKD,OTH,,,,022,2005-07-06T00:00:00.000,2016-11-11T16:17:13.378,2,revise,active
075071260B,hardjwa,,,Lambton Street,,,,Lambton Street,,Hucklehoven Way,,,,B,,E,E0054977,Hartlepool,,,,,,,0,UKOS,451537,532435,-1.202136,54.68434,BCT,MKD,OTH,,,,022,2005-07-06T00:00:00.000,2016-11-11T16:17:23.653,2,revise,active
075071261A,hardjwd,,,Centre for Independent Living,,,,Lynn Street,,Burbank Street,,,,A,,W,E0054977,Hartlepool,,,,,,,0,UKOS,451509,532131,-1.202624,54.681611,BCT,MKD,OTH,,,,022,2005-07-06T00:00:00.000,2017-01-10T15:57:12.507,2,revise,active
075071261B,hardjwg,,,Centre for Independent Living,,,,Lynn Street,,Burbank Street,,,,B,,E,E0054977,Hartlepool,,,,,,,0,UKOS,451486,532139,-1.202979,54.681685,BCT,MKD,OTH,,,,022,2005-07-06T00:00:00.000,2017-01-10T17:02:42.842,2,revise,active
075071262A,hardjwj,,,A19 Junction,,,,Dalton Piercy Lane,,A19,,,,A,,S,E0053157,Dalton Piercy,,,,,,,0,UKOS,445252,530497,-1.299913,54.667528,BCT,MKD,TIP,,,,022,2005-07-06T00:00:00.000,2017-05-16T16:38:25.663,3,revise,active
075071262B,hardjwm,,,A19 Junction,,,,Dalton Piercy Lane,,A19,,,,B,,N,E0053157,Dalton Piercy,,,,,,,0,UKOS,445225,530520,-1.300328,54.667737,BCT,MKD,TIP,,,,022,2005-07-06T00:00:00.000,2017-05-16T16:39:01.113,2,revise,active
075071262C,hardjwp,,,The Windmill,,,,A19,,Dalton Piercy Lane,,,,W bound,,W,E0053157,Dalton Piercy,,,,,,,0,UKOS,445350,530608,-1.298376,54.668516,BCT,CUS,OTH,,,,022,2005-07-06T00:00:00.000,2017-12-21T12:15:12.518,4,revise,inactive
075071262D,hardjwt,,,The Windmill,,,,A19,,Dalton Piercy Lane,,,,4,,E,E0053157,Dalton Piercy,,,,,,,0,UKOS,445349,530625,-1.298389,54.668669,BCT,MKD,TIP,,,,022,2005-07-06T00:00:00.000,2018-02-13T16:29:12.039,4,revise,inactive
075071263A,hardmad,,,A19 Church Bank Junction,,,,Elwick Road End,,A19,,,,A,,S,E0053158,Elwick,,,,,,,0,UKOS,445148,531847,-1.301317,54.679668,BCT,MKD,OTH,,,,022,2005-07-06T00:00:00.000,2018-06-15T12:18:33.661,3,revise,active
075071263B,hardmag,,,A19 Church Bank Junction,,,,Elwick Road End,,A19,,,,B,,N,E0053158,Elwick,,,,,,,0,UKOS,445127,531798,-1.30165,54.679229,BCT,MKD,OTH,,,,022,2005-07-06T00:00:00.000,2018-06-15T12:18:18.895,3,revise,active
075071264A,hardmaj,,,A19 Flyover,,,,A19,,A179,,,,1,,W,E0053160,Hart,,,,,,,0,UKOS,444329,534265,-1.313651,54.701469,BCT,MKD,OTH,,,,022,2005-07-06T00:00:00.000,2007-06-15T00:00:00.000,1,revise,inactive
075071264B,hardmam,,,A19 Flyover,,,,A19,,A179,,,,2,,E,E0053160,Hart,,,,,,,0,UKOS,444357,534277,-1.313215,54.701574,BCT,MKD,OTH,,,,022,2005-07-06T00:00:00.000,2007-06-15T00:00:00.000,1,revise,inactive
075071264C,hardmap,,,A19 Flyover,,,,A19,,B1280,,,,3,,W,E0053160,Hart,,,,,,,0,UKOS,444111,534270,-1.317033,54.701533,BCT,MKD,OTH,,,,022,2005-07-06T00:00:00.000,2007-06-15T00:00:00.000,1,revise,inactive
075071264D,hardmat,,,A19 Flyover,,,,A19,,B1280,,,,Opposite Stand 3,,E,E0053160,Hart,,,,,,,0,UKOS,444113,534282,-1.317,54.70164,BCT,CUS,OTH,,,,022,2005-07-06T00:00:00.000,2007-06-15T00:00:00.000,1,revise,inactive
075071265A,hardmaw,,,Burbank Street Community Garden,,,,Lizard Grove,,Burbank Street,,,,A,,W,E0054977,Hartlepool,,,,,,,0,UKOS,451333,532096,-1.205359,54.681315,BCT,MKD,TIP,,,,022,2005-07-06T00:00:00.000,2017-01-11T11:04:18.799,2,revise,active
075071265B,hardmda,,,Burbank Street Community Garden,,,,Lizard Grove,,Burbank Street,,,,B,,E,E0054977,Hartlepool,,,,,,,0,UKOS,451306,532097,-1.205778,54.681326,BCT,MKD,TIP,,,,022,2005-07-06T00:00:00.000,2017-01-11T11:10:05.299,2,revise,active
075071266A,hardmdg,,,Nine Acres,,,,Nineacres,,Palace Row,,,,A,,NE,E0053160,Hart,,,,,,,0,UKOS,446367,534690,-1.281962,54.705104,BCT,MKD,OTH,,,,022,2005-07-06T00:00:00.000,2017-01-11T11:19:39.184,2,revise,active
075071266B,hardmdj,,,Nine Acres,,,,Nineacres,,Palace Row,,,,B,,SW,E0053160,Hart,,,,,,,0,UKOS,446349,534656,-1.282247,54.704801,BCT,MKD,OTH,,,,022,2005-07-06T00:00:00.000,2017-01-11T11:29:05.115,2,revise,active
075071267A,hardmdm,,,Clark Street Crossroads,,,,Clark Street,,Burbank Street,,,,A,,W,E0054977,Hartlepool,,,,,,,0,UKOS,451046,532028,-1.209822,54.680733,BCT,MKD,OTH,,,,022,2005-07-06T00:00:00.000,2017-01-11T11:34:29.574,2,revise,active
075071267B,hardmdp,,,Clark Street Crossroads,,,,Clark Street,,Burbank Street,,,,B,,E,E0054977,Hartlepool,,,,,,,0,UKOS,451029,532037,-1.210084,54.680815,BCT,MKD,OTH,,,,022,2005-07-06T00:00:00.000,2017-01-11T13:22:08.231,2,revise,active
075071269A,hardmdt,,,The Vesper House,,,,Lawson Road,,Queen Street,,,,A,,E,E0037883,Seaton Carew,,,,,,,0,UKOS,452353,530256,-1.18987,54.664676,BCT,MKD,TIP,,,,022,2005-07-06T00:00:00.000,2017-01-11T13:48:08.178,2,revise,active
075071269B,hardmdw,,,The Vesper House,,,,Lawson Road,,Queen Street,,,,B,,W,E0037883,Seaton Carew,,,,,,,0,UKOS,452328,530226,-1.190263,54.664409,BCT,MKD,TIP,,,,022,2005-07-06T00:00:00.000,2017-01-11T15:18:38.762,2,revise,active
075071270A,hardmga,,,Warkworth Drive,,,,Warkworth Drive,,Dunston Road,,,,A,,NE,E0037890,Throston Grange,Hartlepool,,,,,,0,UKOS,448725,533009,-1.245653,54.689777,BCT,MKD,OTH,,,,022,2005-07-06T00:00:00.000,2017-01-11T15:25:09.513,2,revise,active
075071270B,hardmgd,,,Warkworth Drive,,,,Warkworth Drive,,Dunston Road,,,,B,,SW,E0037890,Throston Grange,Hartlepool,,,,,,0,UKOS,448772,533033,-1.24492,54.689988,BCT,MKD,OTH,,,,022,2005-07-06T00:00:00.000,2017-01-11T15:29:45.390,2,revise,active
075071271A,hardmgj,,,Aldi,,,,Dunston Road,,Hart Lane,,,,A,,SE,E0037890,Throston Grange,Hartlepool,,,,,,0,UKOS,448964,533259,-1.241903,54.692,BCT,MKD,OTH,,,,022,2005-07-06T00:00:00.000,2017-01-11T16:05:29.275,2,revise,active
075071271B,hardmgm,,,Aldi,,,,Burnston Close,,Hart Lane,,,,B,,W,E0037890,Throston Grange,Hartlepool,,,,,,0,UKOS,449090,533196,-1.23996,54.691422,BCT,MKD,OTH,,,,022,2005-07-06T00:00:00.000,2017-01-11T16:16:25.781,2,revise,active
075071272A,hardmgp,,,Hart Avenue,,,,Hart Avenue,,Hart Lane,,,,A,,E,E0037890,Throston Grange,Hartlepool,,,,,,0,UKOS,449229,533190,-1.237804,54.691355,BCT,MKD,TIP,,,,022,2005-07-06T00:00:00.000,2017-01-11T16:21:22.443,2,revise,active
075071272B,hardmgt,,,Hart Avenue,,,,Hart Avenue,,Hart Lane,,,,B,,W,E0037890,Throston Grange,Hartlepool,,,,,,0,UKOS,449259,533175,-1.237342,54.691217,BCT,MKD,TIP,,,,022,2005-07-06T00:00:00.000,2017-01-11T16:23:07.438,2,revise,active
075071273A,hardmgw,,,War Memorial Homes & the Crosby Homes,,,,Elmwood Road,,Ryehill Gardens,,,,A,,N,E0037890,Throston Grange,Hartlepool,,,,,,0,UKOS,449392,533439,-1.235234,54.693576,BCT,MKD,OTH,,,,022,2005-07-06T00:00:00.000,2017-01-11T16:30:24.783,2,revise,active
075071273B,hardwdw,,,War Memorial Homes & the Crosby Homes,,,,Elmwood Road,,Ryehill Gardens,,,,B,,S,E0037890,Throston Grange,Hartlepool,,,,,,0,UKOS,449406,533440,-1.235016,54.693584,BCT,MKD,OTH,,,,022,2009-09-24T00:00:00.000,2018-11-28T09:20:13.493,2,revise,active
075071274A,hardmja,,,St Luke's Church,,,,Tunstall Avenue,,Hart Lane,,,,A,,E,E0037890,Throston Grange,Hartlepool,,,,,,0,UKOS,449533,533146,-1.233096,54.690929,BCT,MKD,TIP,,,,022,2005-07-06T00:00:00.000,2017-01-11T16:42:59.034,2,revise,active
075071274B,hardmjd,,,St Luke's Church,,,,Hart Lane,,Tunstall Avenue,,,,B,,N,E0037890,Throston Grange,Hartlepool,,,,,,0,UKOS,449571,533105,-1.232514,54.690557,BCT,MKD,OTH,,,,022,2005-07-06T00:00:00.000,2017-01-11T16:44:41.726,2,revise,active
075071274C,hardmjg,,,St Luke's Church,,,,Tunstall Avenue,,Hart Lane,,,,C,,W,E0037890,Throston Grange,Hartlepool,,,,,,0,UKOS,449617,533104,-1.2318,54.690544,BCT,MKD,TIP,,,,022,2005-07-06T00:00:00.000,2017-01-11T16:51:05.611,2,revise,active
075071275A,hardmjm,,,Elmwood Road,,,,Elmwood Road,,Thornhill Gardens,,,,A,,S,E0037890,Throston Grange,Hartlepool,,,,,,0,UKOS,449506,533431,-1.233467,54.693493,BCT,MKD,TIP,,,,022,2005-07-06T00:00:00.000,2017-01-11T17:21:09.477,2,revise,active
075071275B,hardwdt,,,Elmwood Road,,,,Elmwood Road,,Thornhill Gardens,,,,B,,N,E0037890,Throston Grange,Hartlepool,,,,,,0,UKOS,449488,533434,-1.233745,54.693522,BCT,MKD,OTH,,,,022,2009-09-24T00:00:00.000,2018-11-28T09:23:43.038,2,revise,active
075071276A,hardmjp,,,Sacred Heart RC Primary School,,,,Sacred Heart RC School,,Hart Lane,,,,A,,E,E0037890,Throston Grange,Hartlepool,,,,,,0,UKOS,449774,533089,-1.229368,54.690394,BCT,MKD,OTH,,,,022,2005-07-06T00:00:00.000,2017-01-12T10:49:05.503,2,revise,active
075071277A,hardmjt,,,Park Square,,,,Jesmond Road,,Hart Lane,,,,A,,W,N0073090,Dyke House,Hartlepool,,,,,,0,UKOS,449887,533056,-1.22762,54.690086,BCT,MKD,TIP,,,,022,2005-07-06T00:00:00.000,2017-05-16T17:13:47.787,2,revise,active
075071277D,hardmjw,,,Park Square,,,,Hart Lane,,Jesmond Road,,,,4,,N,N0073090,Dyke House,Hartlepool,,,,,,0,UKOS,449939,533114,-1.226804,54.690602,BCT,MKD,TIP,,,,022,2005-07-06T00:00:00.000,2018-02-13T16:29:38.804,4,revise,inactive
075071278A,hardmpa,,,Everett Street,,,,School,,Jesmond Road,,,,A,,N,N0073090,Dyke House,Hartlepool,,,,,,0,UKOS,449916,533295,-1.22713,54.692231,BCT,MKD,OTH,,,,022,2005-07-06T00:00:00.000,2017-01-12T11:02:53.776,2,revise,active
075071278B,hardmpd,,,Everett Street,,,,School,,Jesmond Road,,,,B,,S,N0073090,Dyke House,Hartlepool,,,,,,0,UKOS,449928,533320,-1.226939,54.692454,BCT,MKD,OTH,,,,022,2005-07-06T00:00:00.000,2017-01-12T11:11:11.342,2,revise,active
075071279A,hardmpg,,,Wynnstay Gardens,,,,Chatham Gardens,,Chatham Road,,,,A,,E,N0073090,Dyke House,Hartlepool,,,,,,0,UKOS,450062,533576,-1.224817,54.694741,BCT,MKD,TIP,,,,022,2005-07-06T00:00:00.000,2017-01-12T11:30:54.173,2,revise,active
075071279B,hardmpj,,,Wynnstay Gardens,,,,Chatham Gardens,,Chatham Road,,,,B,,W,N0073090,Dyke House,Hartlepool,,,,,,0,UKOS,450132,533567,-1.223732,54.694653,BCT,MKD,TIP,,,,022,2005-07-06T00:00:00.000,2017-01-12T14:01:14.107,2,revise,active
075071280A,hardmpm,,,Wattie Moore Grove,,,,Raby Road,,Chatham Road,,,,A,,W,N0073090,Dyke House,Hartlepool,,,,,,0,UKOS,450350,533599,-1.220345,54.694919,BCT,MKD,OTH,,,,022,2005-07-06T00:00:00.000,2017-01-12T14:31:24.773,2,revise,active
075071280B,hardmpt,,,Wattie Moore Grove,,,,Raby Road,,Chatham Road,,,,B,,E,N0073090,Dyke House,Hartlepool,,,,,,0,UKOS,450292,533610,-1.221243,54.695024,BCT,MKD,OTH,,,,022,2005-07-06T00:00:00.000,2017-01-12T14:52:33.023,2,revise,active
075071281A,hardmpw,,,Chester Road,,,,Brougham Terrace,,Raby Road,,,,1,,S,N0073090,Dyke House,Hartlepool,,,,,,0,UKOS,450404,533539,-1.219518,54.694375,BCT,MKD,TIP,,,,022,2005-07-06T00:00:00.000,2018-02-13T16:30:03.300,5,revise,inactive
075071281B,hardmta,,,Chester Hotel,,,,Brougham Terrace,,Raby Road,,,,2,,S,N0073090,Dyke House,Hartlepool,,,,,,0,UKOS,450413,533498,-1.219385,54.694005,BCT,MKD,TIP,,,,022,2005-07-06T00:00:00.000,2007-06-15T00:00:00.000,1,revise,inactive
075071281D,hardmtd,,,Chester Road,,,,Chatham Road,,Raby Road,,,,4,,N,N0073090,Dyke House,Hartlepool,,,,,,0,UKOS,450381,533548,-1.219873,54.694458,BCT,MKD,TIP,,,,022,2005-07-06T00:00:00.000,2018-02-13T16:30:15.136,5,revise,inactive
075071281E,hardmtg,,,Chester Road,,,,Brougham Terrace,,Raby Road,,,,5,,N,N0073090,Dyke House,Hartlepool,,,,,,0,UKOS,450421,533368,-1.219283,54.692836,BCT,MKD,TIP,,,,022,2005-07-06T00:00:00.000,2018-02-13T16:30:27.719,5,revise,inactive
075071282A,hardmtj,,,Brunel Close,,,,Football Ground,,West View Road,,,,A,,W,E0037896,West View,Hartlepool,,,,,,0,UKOS,451469,534463,-1.202834,54.70257,BCT,MKD,OTH,,,,022,2005-07-06T00:00:00.000,2017-01-12T15:10:21.637,2,revise,active
075071282B,hardmtm,,,Brunel Close,,,,Football Ground,,West View Road,,,,B,,E,E0037896,West View,Hartlepool,,,,,,0,UKOS,451538,534464,-1.201763,54.702572,BCT,MKD,OTH,,,,022,2005-07-06T00:00:00.000,2017-01-12T15:17:30.373,2,revise,active
075071283A,hardmtp,,,Murray Street,,,,Murray Street,,Hart Lane,,,,A,,W,N0073090,Dyke House,Hartlepool,,,,,,0,UKOS,450464,533107,-1.218661,54.690487,BCT,MKD,OTH,,,,022,2005-07-06T00:00:00.000,2017-05-17T15:22:31.727,2,revise,active
075071283B,hardmtw,,,North Cemetery,,,,North Cemetery,,Raby Road,,,,2,,N,N0073090,Dyke House,Hartlepool,,,,,,0,UKOS,450452,533201,-1.218831,54.691333,BCT,MKD,OTH,,,,022,2005-07-06T00:00:00.000,2018-02-13T16:31:21.816,4,revise,inactive
075071284B,hardmwa,,,Mill House Leisure Centre,,,,Mill House Leisure Centre,,Raby Road,,,,B,,SE,E0054977,Hartlepool,,,,,,,0,UKOS,450606,532975,-1.216482,54.689286,BCT,MKD,TIP,,,,022,2005-07-06T00:00:00.000,2016-11-11T12:53:50.371,2,revise,active
075071284C,hardmwd,,,Mill House Leisure Centre,,,,Mill House Leisure Centre,,Raby Road,,,,C,,SE,E0054977,Hartlepool,,,,,,,0,UKOS,450595,532993,-1.216649,54.689449,BCT,MKD,TIP,,,,022,2005-07-06T00:00:00.000,2018-06-25T11:47:35.375,3,revise,active
075071284D,hardmwg,,,Mill House Leisure Centre,,,,Raby Road,,York Road,,,,D,,N,E0054977,Hartlepool,,,,,,,0,UKOS,450589,532913,-1.216756,54.688731,BCT,MKD,TIP,,,,022,2005-07-06T00:00:00.000,2018-06-25T11:42:43.928,3,revise,active
075071284F,hardmwj,,,Mill House Leisure Centre,,,,Mill House Leisure Centre,,Raby Road,,,,A,,N,E0054977,Hartlepool,,,,,,,0,UKOS,450640,532888,-1.215969,54.688501,BCT,MKD,OTH,,,,022,2005-07-06T00:00:00.000,2018-02-13T16:31:37.834,5,revise,inactive
075071285A,hardmwm,,,The Schooner,,,,The Schooner,,Warrior Drive,,,,A,,NE,E0037883,Seaton Carew,,,,,,,0,UKOS,451923,530251,-1.196537,54.664676,BCT,MKD,TIP,,,,022,2005-07-06T00:00:00.000,2017-01-12T15:51:46.293,2,revise,active
075071285B,hardmwp,,,The Schooner,,,,The Schooner,,Warrior Drive,,,,B,,SW,E0037883,Seaton Carew,,,,,,,0,UKOS,451957,530258,-1.196009,54.664735,BCT,MKD,TIP,,,,022,2005-07-06T00:00:00.000,2017-01-12T16:01:48.736,2,revise,active
075071286A,hardmwt,,,Carlton Bingo,,,,Middleton Grange Lane,,York Road,,,,A,,S,E0054977,Hartlepool,,,,,,,0,UKOS,450601,532655,-1.216615,54.686412,BCT,MKD,TIP,,,,022,2005-07-06T00:00:00.000,2016-11-11T12:57:09.065,2,revise,active
075071286B,hardpad,,,Carlton Bingo,,,,Middleton Grange Lane,,York Road,,,,B,,N,E0054977,Hartlepool,,,,,,,0,UKOS,450589,532586,-1.216813,54.685793,BCT,MKD,TIP,,,,022,2005-07-06T00:00:00.000,2016-11-11T12:57:28.773,2,revise,active
075071287A,hardpag,,,South Drive,,,,Elm Grove,,Wooler Road,,,,A,,N,E0037895,West Park,Hartlepool,,,,,,0,UKOS,449411,532796,-1.235048,54.687796,BCT,MKD,OTH,,,,022,2005-07-06T00:00:00.000,2017-01-12T16:30:41.824,2,revise,active
075071287B,hardwjg,,,South Drive,,,,Elm Grove,,Wooler Road,,,,B,,S,E0037895,West Park,Hartlepool,,,,,,0,UKOS,449430,532855,-1.234743,54.688325,BCT,MKD,OTH,,,,022,2010-06-09T00:00:00.000,2017-01-12T16:36:04.542,1,revise,active
075071288A,hardpaj,,,College,,,,Victoria Road,,Stockton Street,,,,A,,S,E0054977,Hartlepool,,,,,,,1,UKOS,450965,532446,-1.211005,54.684497,BCT,MKD,TIP,,,,022,2005-07-06T00:00:00.000,2016-11-11T15:47:03.085,2,revise,active
075071288B,hardpam,,,College,,,,Victoria Road,,Stockton Street,,,,B,,N,E0054977,Hartlepool,,,,,,,1,UKOS,450934,532433,-1.211488,54.684383,BCT,MKD,TIP,,,,022,2005-07-06T00:00:00.000,2016-11-11T15:48:09.002,2,revise,active
075071288C,hardpap,,,Victoria Road - Grand Hotel,,,,Hartlepool Mail Offices,,Victoria Road,,,,H,,E,E0054977,Hartlepool,,,,,,,1,UKOS,450893,532556,-1.212103,54.685493,BCT,MKD,TIP,,,,022,2005-07-06T00:00:00.000,2017-05-17T15:56:48.923,2,revise,active
075071288E,hardpat,,,Victoria Road - Grand Hotel,,,,Swainson Street,,Victoria Road,,,,K,,W,E0054977,Hartlepool,,,,,,,1,UKOS,450810,532533,-1.213394,54.685294,BCT,MKD,TIP,,,,022,2005-07-06T00:00:00.000,2017-05-17T15:58:40.985,2,revise,active
075071288F,hardpaw,,,Victoria Road - Grand Hotel,,,,Swainson Street,,Victoria Road,,,,J,,W,E0054977,Hartlepool,,,,,,,1,UKOS,450819,532533,-1.213255,54.685293,BCT,MKD,TIP,,,,022,2005-07-06T00:00:00.000,2017-05-17T16:00:38.543,2,revise,active
075071288G,hardpda,,,Victoria Road - Grand Hotel,,,,Swainson Street,,Victoria Road,,,,G,,E,E0054977,Hartlepool,,,,,,,1,UKOS,450823,532549,-1.21319,54.685437,BCT,MKD,TIP,,,,022,2005-07-06T00:00:00.000,2017-05-17T16:02:08.839,2,revise,active
075071289A,hardpdg,,,Nookston Close,,,,Nookston Close,,Tarnston Road,,,,A,,NE,E0037890,Throston Grange,Hartlepool,,,,,,0,UKOS,448633,533453,-1.247006,54.693776,BCT,MKD,OTH,,,,022,2005-07-06T00:00:00.000,2017-01-12T16:40:36.777,4,revise,active
075071289B,hardpdj,,,Nookston Close,,,,Nookston Close,,Tarnston Road,,,,B,,SW,E0037890,Throston Grange,Hartlepool,,,,,,0,UKOS,448645,533443,-1.246821,54.693685,BCT,MKD,OTH,,,,022,2005-07-06T00:00:00.000,2017-01-12T17:00:46.720,3,revise,active
075071290A,hardpdm,,,Burnston Close,,,,Burnston Close,,Dunston Road,,,,1,,NE,E0037890,Throston Grange,Hartlepool,,,,,,0,UKOS,448962,533190,-1.241946,54.691381,BCT,MKD,TIP,,,,022,2005-07-06T00:00:00.000,2018-02-13T16:32:30.876,4,revise,inactive
075071290B,hardpdp,,,Burnston Close,,,,Burnston Close,,Dunston Road,,,,2,,SW,E0037890,Throston Grange,Hartlepool,,,,,,0,UKOS,448849,533089,-1.243716,54.690484,BCT,MKD,TIP,,,,022,2005-07-06T00:00:00.000,2018-02-13T16:32:39.976,4,revise,inactive
075071291A,hardpdt,,,York Road - Central Library,,,,Victoria Road,,York Road,,,,R,,N,E0054977,Hartlepool,,,,,,,1,UKOS,450583,532402,-1.216937,54.68414,BCT,MKD,TIP,,,,022,2005-07-06T00:00:00.000,2017-05-17T16:54:05.676,3,revise,active
075071291B,hardpdw,,,York Road - Central Library,,,,Central Library,,York Road,,,,Q,,S,E0054977,Hartlepool,,,,,,,1,UKOS,450613,532302,-1.21649,54.683238,BCT,MKD,TIP,,,,022,2005-07-06T00:00:00.000,2017-05-17T16:56:16.284,7,revise,active
075071291C,hardpga,,,York Road - Central Library,,,,South Road,,York Road,,,,P,,S,E0054977,Hartlepool,,,,,,,1,UKOS,450602,532479,-1.216629,54.68483,BCT,MKD,TIP,,,,022,2005-07-06T00:00:00.000,2017-05-17T16:57:53.291,5,revise,active
075071291E,hardpgd,,,Health Centre,,,,York Road,,Victoria Road,,,,B,,W,E0054977,Hartlepool,,,,,,,1,UKOS,450495,532528,-1.218281,54.685281,BCT,MKD,TIP,,,,022,2005-07-06T00:00:00.000,2018-02-13T16:32:54.459,6,revise,inactive
075071291F,hardpgj,,,Health Centre,,,,York Road,,Victoria Road,,,,A,,E,E0054977,Hartlepool,,,,,,,1,UKOS,450478,532552,-1.21854,54.685498,BCT,MKD,TIP,,,,022,2005-07-06T00:00:00.000,2018-02-13T16:33:07.404,6,revise,inactive
075071292A,hardpgm,,,Victoria Road - Avenue Road,,,,Opp Yates's,,Victoria Road,,,,M,,W,E0054977,Hartlepool,,,,,,,1,UKOS,450641,532523,-1.216017,54.685221,BCT,MKD,TIP,,,,022,2005-07-06T00:00:00.000,2017-05-17T17:13:33.674,2,revise,active
075071292B,hardpgp,,,Victoria Road - Avenue Road,,,,Yates's,,Victoria Road,,,,L,,W,E0054977,Hartlepool,,,,,,,1,UKOS,450655,532523,-1.2158,54.68522,BCT,MKD,TIP,,,,022,2005-07-06T00:00:00.000,2017-05-17T17:16:04.617,2,revise,active
075071292C,hardpgt,,,Victoria Road - Avenue Road,,,,Yates's,,Victoria Road,,,,Stand N,,E,E0054977,Hartlepool,,,,,,,1,UKOS,450642,532539,-1.215999,54.685365,BCT,MKD,TIP,,,,022,2005-07-06T00:00:00.000,2018-06-05T10:53:14.333,4,revise,active
075071293A,hardpgw,,,Hayston Road,,,,Hayston Road,,Tarnston Road,,,,A,,NW,E0037890,Throston Grange,Hartlepool,,,,,,0,UKOS,448694,533178,-1.246105,54.691299,BCT,MKD,TIP,,,,022,2005-07-06T00:00:00.000,2017-01-12T17:06:27.342,3,revise,active
075071293B,hardpja,,,Hayston Road,,,,Hayston Road,,Tarnston Road,,,,B,,SE,E0037890,Throston Grange,Hartlepool,,,,,,0,UKOS,448675,533241,-1.24639,54.691867,BCT,MKD,TIP,,,,022,2005-07-06T00:00:00.000,2017-01-12T17:08:48.797,3,revise,active
075071294A,hardpjd,,,Ark Royal Close,,,,Brigandine Close,,Warrior Drive,,,,A,,SE,E0037883,Seaton Carew,,,,,,,0,UKOS,451999,529964,-1.19541,54.662089,BCT,MKD,OTH,,,,022,2005-07-06T00:00:00.000,2017-01-12T17:23:53.710,4,revise,active
075071294B,hardpjg,,,Ark Royal Close,,,,Brigandine Close,,Warrior Drive,,,,B,,NW,E0037883,Seaton Carew,,,,,,,0,UKOS,451928,529983,-1.196507,54.662267,BCT,MKD,OTH,,,,022,2005-07-06T00:00:00.000,2017-01-12T17:34:37.631,7,revise,active
075071295A,hardpjm,,,Grange Road Methodist Church,,,,Tankerville Street,,Grange Road,,,,A,,E,E0054977,Hartlepool,,,,,,,0,UKOS,450202,532583,-1.222815,54.685804,BCT,MKD,OTH,,,,022,2005-07-06T00:00:00.000,2017-01-13T10:57:30.948,2,revise,active
075071295B,hardpjp,,,Grange Road Methodist Church,,,,St Paul's Church,,Grange Road,,,,B,,W,E0054977,Hartlepool,,,,,,,0,UKOS,450272,532564,-1.221733,54.685627,BCT,MKD,OTH,,,,022,2005-07-06T00:00:00.000,2017-01-13T11:03:37.754,2,revise,active
075071296A,hardpjt,,,Thornville Road,,,,Mulgrave Road,,Grange Road,,,,A,,E,E0054977,Hartlepool,,,,,,,0,UKOS,449983,532601,-1.226209,54.685988,BCT,MKD,OTH,,,,022,2005-07-06T00:00:00.000,2017-01-13T11:15:19.309,2,revise,active
075071296B,hardpjw,,,Thornville Road,,,,Mulgrave Road,,Grange Road,,,,B,,W,E0054977,Hartlepool,,,,,,,0,UKOS,450011,532581,-1.225778,54.685805,BCT,MKD,OTH,,,,022,2005-07-06T00:00:00.000,2017-01-13T11:58:01.637,2,revise,active
075071297A,hardpma,,,Granville Place,,,,Welldeck Road,,Grange Road,,,,A,,W,E0054977,Hartlepool,,,,,,,0,UKOS,449718,532592,-1.230321,54.685933,BCT,MKD,OTH,,,,022,2005-07-06T00:00:00.000,2018-09-12T13:59:07.277,3,revise,active
075071297B,hardpmd,,,Granville Place,,,,The Crescent,,Grange Road,,,,B,,E,E0054977,Hartlepool,,,,,,,0,UKOS,449559,532620,-1.232782,54.6862,BCT,MKD,OTH,,,,022,2005-07-06T00:00:00.000,2018-09-12T14:00:05.503,3,revise,active
075071297C,hardpmg,,,Granville Place,,,,Grange Road,,Granville Avenue,,,,C,,S,E0054977,Hartlepool,,,,,,,0,UKOS,449645,532637,-1.231445,54.686345,BCT,MKD,OTH,,,,022,2005-07-06T00:00:00.000,2018-09-12T14:00:48.823,3,revise,active
075071298A,hardpmj,,,Relton Way,,,,Relton Way,,The Parade,,,,A,,W,E0037895,West Park,Hartlepool,,,,,,0,UKOS,449361,532572,-1.235861,54.685788,BCT,MKD,OTH,,,,022,2005-07-06T00:00:00.000,2017-05-17T17:24:05.047,2,revise,active
075071298B,hardpmp,,,Relton Way,,,,Relton Way,,The Parade,,,,B,,E,E0037895,West Park,Hartlepool,,,,,,0,UKOS,449350,532587,-1.236029,54.685924,BCT,MKD,OTH,,,,022,2005-07-06T00:00:00.000,2017-05-17T17:25:42.196,2,revise,active
075071298C,hardpmt,,,The White House,,,,The White House,,Wooler Road,,,,3,,S,E0037895,West Park,Hartlepool,,,,,,0,UKOS,449435,532515,-1.234723,54.685269,BCT,MKD,OTH,,,,022,2005-07-06T00:00:00.000,2018-02-13T16:33:30.405,4,revise,inactive
075071298D,hardpmw,,,The White House,,,,The White House,,Wooler Road,,,,4,,N,E0037895,West Park,Hartlepool,,,,,,0,UKOS,449421,532493,-1.234944,54.685073,BCT,MKD,OTH,,,,022,2005-07-06T00:00:00.000,2018-02-13T16:33:21.306,4,revise,inactive
075071299A,hardpta,,,Ward Jackson Park Clock Tower,,,,Park Avenue,,The Parade,,,,A,,W,E0037895,West Park,Hartlepool,,,,,,0,UKOS,449196,532556,-1.238423,54.685661,BCT,MKD,TIP,,,,022,2005-07-06T00:00:00.000,2017-01-13T12:38:14.428,2,revise,active
075071299B,hardptd,,,Ward Jackson Park Clock Tower,,,,Park Avenue,,The Parade,,,,B,,E,E0037895,West Park,Hartlepool,,,,,,0,UKOS,449167,532565,-1.238871,54.685744,BCT,MKD,TIP,,,,022,2005-07-06T00:00:00.000,2017-01-13T13:02:16.992,2,revise,active
075071300A,hardptg,,,Serpentine Gardens,,,,Greenbank Court,,Serpentine Road,,,,1,,S,E0037895,West Park,Hartlepool,,,,,,0,UKOS,449431,532856,-1.234727,54.688334,BCT,MKD,OTH,,,,022,2005-07-06T00:00:00.000,2007-06-15T00:00:00.000,1,revise,inactive
075071300B,hardptj,,,Serpentine Gardens,,,,Greenbank Court,,Serpentine Road,,,,2,,N,E0037895,West Park,Hartlepool,,,,,,0,UKOS,449391,532998,-1.235324,54.689613,BCT,MKD,OTH,,,,022,2005-07-06T00:00:00.000,2018-02-13T16:34:12.069,4,revise,inactive
075071301A,hardptm,,,Throston Medical Centre,,,,Throston Grange Terminus,,Wiltshire Way,,,,A,,NW,E0037890,Throston Grange,Hartlepool,,,,,,0,UKOS,448843,533541,-1.243733,54.694546,BCT,MKD,TIP,,,,022,2005-07-06T00:00:00.000,2017-01-13T13:20:21.519,2,revise,active
075071301B,hardptp,,,Throston Medical Centre,,,,Throston Grange Terminus,,Wiltshire Way,,,,B,,NW,E0037890,Throston Grange,Hartlepool,,,,,,0,UKOS,448834,533531,-1.243875,54.694457,BCT,MKD,TIP,,,,022,2005-07-06T00:00:00.000,2017-01-13T13:37:00.711,2,revise,active
075071302A,hardptw,,,Anglesey Grove,,,,Anglesey Grove,,Throston Grange Lane,,,,A,,NE,E0037890,Throston Grange,Hartlepool,,,,,,0,UKOS,449103,534068,-1.239611,54.699256,BCT,MKD,TIP,,,,022,2005-07-06T00:00:00.000,2017-01-13T13:59:51.859,2,revise,active
075071302B,hardpwa,,,Anglesey Grove,,,,Anglesey Grove,,Throston Grange Lane,,,,B,,SW,E0037890,Throston Grange,Hartlepool,,,,,,0,UKOS,449050,534034,-1.240439,54.698956,BCT,MKD,TIP,,,,022,2005-07-06T00:00:00.000,2017-01-13T14:38:43.746,2,revise,active
075071303A,hardpwd,,,Tees Bay Business Park,,,,Fosters Wheelers Works,,Brenda Road,,,,A,,SE,N0073093,Brenda Road,,,,,,,0,UKOS,451863,528008,-1.197864,54.644527,BCT,MKD,OTH,,,,022,2005-07-06T00:00:00.000,2017-01-13T15:33:00.565,2,revise,active
075071303B,hardpwg,,,Tees Bay Business Park,,,,Fosters Wheelers Works,,Brenda Road,,,,B,,NW,N0073093,Brenda Road,,,,,,,0,UKOS,451799,528081,-1.198843,54.645189,BCT,MKD,OTH,,,,022,2005-07-06T00:00:00.000,2017-01-13T15:39:28.076,2,revise,active
075071304A,hardpwj,,,Caparo,,,,Tofts Road Roundabout,,Brenda Road,,,,A,,SE,N0073093,Brenda Road,,,,,,,0,UKOS,451550,528504,-1.202626,54.649016,BCT,MKD,OTH,,,,022,2005-07-06T00:00:00.000,2017-01-13T15:50:33.788,2,revise,active
075071304B,hardpwm,,,Caparo,,,,Tofts Road Roundabout,,Brenda Road,,,,B,,NW,N0073093,Brenda Road,,,,,,,0,UKOS,451569,528447,-1.202342,54.648501,BCT,MKD,OTH,,,,022,2005-07-06T00:00:00.000,2017-01-13T15:57:07.115,2,revise,active
075071305A,hardpwp,,,Tata Steel,,,,BSC Entrance,,Brenda Road,,,,A,,S,N0073091,Golden Flatts,,,,,,,0,UKOS,451262,529168,-1.206973,54.655011,BCT,MKD,OTH,,,,022,2005-07-06T00:00:00.000,2017-01-13T16:12:05.843,2,revise,active
075071305B,hardpwt,,,Tata Steel,,,,BSC Entrance,,Brenda Road,,,,B,,N,N0073091,Golden Flatts,,,,,,,0,UKOS,451264,529094,-1.206955,54.654346,BCT,MKD,OTH,,,,022,2005-07-06T00:00:00.000,2017-01-13T16:20:33.578,2,revise,active
075071306A,hardtad,,,Kinnersley's,,,,Seaton Lane,,Brenda Road,,,,A,,S,N0073091,Golden Flatts,,,,,,,0,UKOS,451200,529368,-1.207899,54.656815,BCT,MKD,OTH,,,,022,2005-07-06T00:00:00.000,2017-01-13T16:38:29.781,2,revise,active
075071306B,hardtag,,,Kinnersley's,,,,Seaton Lane,,Brenda Road,,,,B,,N,N0073091,Golden Flatts,,,,,,,0,UKOS,451171,529379,-1.208346,54.656917,BCT,MKD,OTH,,,,022,2005-07-06T00:00:00.000,2017-01-13T16:49:24.179,2,revise,active
075071307A,hardtaj,,,Knaresborough Close,,,,Knaresborough Close,,Bamburgh Road,,,,A,,S,N0070311,Clavering,Hartlepool,,,,,,0,UKOS,448705,535166,-1.245603,54.709161,BCT,MKD,OTH,,,,022,2005-07-06T00:00:00.000,2017-01-13T16:54:47.555,2,revise,active
075071308A,hardtam,,,Taunton Grove,,,,Taunton Grove,,Wiltshire Way,,,,A,,NE,E0037890,Throston Grange,Hartlepool,,,,,,0,UKOS,449045,533587,-1.240592,54.69494,BCT,MKD,TIP,,,,022,2005-07-06T00:00:00.000,2017-01-13T16:58:18.496,2,revise,active
075071308B,hardtap,,,Taunton Grove,,,,Taunton Grove,,Wiltshire Way,,,,B,,SW,E0037890,Throston Grange,Hartlepool,,,,,,0,UKOS,449027,533535,-1.24088,54.694474,BCT,MKD,TIP,,,,022,2005-07-06T00:00:00.000,2017-01-13T17:00:38.042,2,revise,active
075071309A,hardtat,,,Plymouth Grove,,,,Springwell School,,Wiltshire Way,,,,A,,E,E0037890,Throston Grange,Hartlepool,,,,,,0,UKOS,449345,533759,-1.235909,54.696456,BCT,MKD,OTH,,,,022,2005-07-06T00:00:00.000,2017-01-13T17:10:04.265,2,revise,active
075071309B,hardtaw,,,Plymouth Grove,,,,Springwell School,,Wiltshire Way,,,,B,,W,E0037890,Throston Grange,Hartlepool,,,,,,0,UKOS,449321,533732,-1.236286,54.696216,BCT,MKD,OTH,,,,022,2005-07-06T00:00:00.000,2017-01-13T17:14:54.042,2,revise,active
075071310A,hardtda,,,Gower Walk,,,,Throston Grange Lane,,Wiltshire Way,,,,A,,NE,E0037890,Throston Grange,Hartlepool,,,,,,0,UKOS,449468,533963,-1.233966,54.698277,BCT,MKD,OTH,,,,022,2005-07-06T00:00:00.000,2017-01-13T17:41:40.020,2,revise,active
075071310B,hardtdg,,,Gower Walk,,,,Throston Grange Lane,,Wiltshire Way,,,,B,,S,E0037890,Throston Grange,Hartlepool,,,,,,0,UKOS,449536,534081,-1.232891,54.699331,BCT,MKD,OTH,,,,022,2005-07-06T00:00:00.000,2017-01-17T10:36:57.047,2,revise,active
075071311A,hardtdj,,,Barford Close,,,,Barford Close,,Catcote Road,,,,A,,W,E0037887,The Fens,Hartlepool,,,,,,0,UKOS,449141,528511,-1.239955,54.649318,BCT,MKD,TIP,,,,022,2005-07-06T00:00:00.000,2022-09-13T17:04:17.505,3,revise,active
075071312A,hardtdm,,,Spilsby Close,,,,Spilsby Close,,Catcote Road,,,,A,,E,E0037887,The Fens,Hartlepool,,,,,,0,UKOS,449445,528673,-1.235217,54.650744,BCT,MKD,OTH,,,,022,2005-07-06T00:00:00.000,2017-01-17T10:54:00.219,2,revise,active
075071312B,hardtdp,,,Spilsby Close,,,,Spilsby Close,,Catcote Road,,,,B,,W,E0037887,The Fens,Hartlepool,,,,,,0,UKOS,449430,528643,-1.235454,54.650476,BCT,MKD,OTH,,,,022,2005-07-06T00:00:00.000,2017-01-17T11:46:35.301,2,revise,active
075071313A,hardtdt,,,Belle Vue Way,,,,Stockton Road,,Belle Vue Way,,,,1,,NE,E0037866,Foggy Furze,Hartlepool,,,,,,0,UKOS,450719,530515,-1.215155,54.66717,BCT,MKD,OTH,,,,022,2005-07-06T00:00:00.000,2017-05-19T14:28:21.438,2,revise,inactive
075071313B,hardtdw,,,Belle Vue Way,,,,Stockton Road,,Belle Vue Way,,,,2,,SW,E0037866,Foggy Furze,Hartlepool,,,,,,0,UKOS,450734,530497,-1.214926,54.667007,BCT,MKD,OTH,,,,022,2005-07-06T00:00:00.000,2017-05-19T14:28:28.925,2,revise,inactive
075071314A,hardtga,,,Barford Close,,,,Barford Close,,Catcote Road,,,,A,,E,E0037887,The Fens,Hartlepool,,,,,,0,UKOS,449179,528583,-1.239354,54.649962,BCT,MKD,OTH,,,,022,2005-07-06T00:00:00.000,2022-09-13T17:03:44.633,3,revise,inactive
075071315A,hardtgd,,,The Fens,,,,Fens Footpath,,Hart Road,,,,A,,E,E0053160,Hart,,,,,,,0,UKOS,447595,534983,-1.262859,54.707623,BCT,MKD,OTH,,,,022,2005-07-06T00:00:00.000,2023-05-04T14:25:48.871,3,revise,active
075071315B,hardtgj,,,The Fens,,,,Fens Footpath,,Hart Road,,,,B,,W,E0053160,Hart,,,,,,,0,UKOS,447599,534972,-1.262799,54.707524,BCT,MKD,OTH,,,,022,2005-07-06T00:00:00.000,2023-05-04T14:25:56.184,3,revise,active
075071316A,hardtgm,,,Glaisdale Grove,,,,Glaisdale Grove,,Station Lane,,,,A,,NE,E0037883,Seaton Carew,,,,,,,0,UKOS,452046,529778,-1.194714,54.660413,BCT,MKD,OTH,,,,022,2005-07-06T00:00:00.000,2017-01-17T12:34:31.154,2,revise,active
075071316B,hardwjd,,,Glaisdale Grove,,,,Glaisdale Grove,,Station Lane,,,,B,,SW,E0037883,Seaton Carew,,,,,,,0,UKOS,452031,529738,-1.194954,54.660055,BCT,MKD,OTH,,,,022,2010-01-05T00:00:00.000,2018-06-04T14:34:54.829,2,revise,active
075071317A,hardtgp,,,Britannia Close,,,,Britannia Close,,Victoria Terrace,,,,A,,N,N0073108,Marina,Hartlepool,,,,,,0,UKOS,451446,532887,-1.203468,54.688411,BCT,MKD,OTH,,,,022,2005-07-06T00:00:00.000,2016-11-11T15:34:35.177,4,revise,active
075071317B,hardtgt,,,Britannia Close,,,,Britannia Close,,Victoria Terrace,,,,B,,S,N0073108,Marina,Hartlepool,,,,,,0,UKOS,451454,532842,-1.203352,54.688006,BCT,MKD,OTH,,,,022,2005-07-06T00:00:00.000,2016-11-11T15:34:52.618,3,revise,active
075071318A,hardtgw,,,Admiral Way,,,,Fleet Avenue,,Maritime Avenue,,,,A,,S,N0073108,Marina,Hartlepool,,,,,,0,UKOS,451554,532893,-1.201792,54.688454,BCT,MKD,OTH,,,,022,2005-07-06T00:00:00.000,2017-01-17T13:07:03.340,2,revise,active
075071318B,hardtja,,,Admiral Way,,,,Fleet Avenue,,Maritime Avenue,,,,B,,N,N0073108,Marina,Hartlepool,,,,,,0,UKOS,451565,532856,-1.201627,54.68812,BCT,MKD,OTH,,,,022,2005-07-06T00:00:00.000,2017-01-17T13:16:45.224,2,revise,active
075071319A,hardtjd,,,Ensign Court,,,,Ensign Court,,Maritime Avenue,,,,A,,S,N0073108,Marina,Hartlepool,,,,,,0,UKOS,451665,532660,-1.200111,54.686349,BCT,MKD,OTH,,,,022,2005-07-06T00:00:00.000,2017-05-18T10:13:11.642,2,revise,active
075071319B,hardtjg,,,Schooner Court,,,,Ensign Court,,Maritime Avenue,,,,B,,N,N0073108,Marina,Hartlepool,,,,,,0,UKOS,451632,532687,-1.200618,54.686595,BCT,MKD,TIP,,,,022,2005-07-06T00:00:00.000,2017-05-18T10:13:47.571,2,revise,active
075071320A,hardtjm,,,Maritime Avenue,,,,Chandlers Close,,Maritime Avenue,,,,Road End,,S,N0073108,Marina,Hartlepool,,,,,,0,UKOS,451679,532607,-1.199903,54.685871,BCT,CUS,OTH,,,,022,2005-07-06T00:00:00.000,2007-06-15T00:00:00.000,1,revise,inactive
075071321A,hardtjp,,,Eckford Walk,,,,Brierton School,,Brierton Lane,,,,A,,W,E0037882,Rifthouse,Hartlepool,,,,,,0,UKOS,449047,530340,-1.241105,54.665763,BCT,MKD,OTH,,,,022,2005-07-06T00:00:00.000,2017-01-17T13:41:16.731,2,revise,active
075071322A,hardtjt,,,Pine Grove,,,,Jesmond Gardens,,Challoner Road,,,,A,,W,N0073090,Dyke House,Hartlepool,,,,,,0,UKOS,449904,533731,-1.227241,54.69615,BCT,MKD,OTH,,,,022,2005-07-06T00:00:00.000,2017-01-17T13:54:03.569,5,revise,active
075071323A,hardtjw,,,Birch Walk,,,,Lime Crescent,,CHALLONER ROAD,,,,A,,W,N0073090,Dyke House,Hartlepool,,,,,,0,UKOS,450050,533756,-1.224965,54.696367,BCT,MKD,TIP,,,,022,2005-07-06T00:00:00.000,2017-01-17T14:46:06.541,3,revise,active
075071324A,hardtma,,,Chatham Square,,,,Raby Gardens,,Chatham Gardens,,,,1,,N,N0073090,Dyke House,Hartlepool,,,,,,0,UKOS,450114,533653,-1.223997,54.695428,BCT,MKD,OTH,,,,022,2005-07-06T00:00:00.000,2016-04-11T00:00:00.000,3,revise,inactive
075071325A,hardtmd,,,Jesmond Square,,,,Challoner Road,,Jesmond Gardens,,,,1,,S,N0073090,Dyke House,Hartlepool,,,,,,0,UKOS,449876,533642,-1.227691,54.695353,BCT,MKD,OTH,,,,022,2005-07-06T00:00:00.000,2016-04-11T00:00:00.000,3,revise,inactive
075071326A,hardtmg,,,Alnwick Close,,,,Alnwick Close,,Bamburgh Road,,,,A,,W,N0070311,Clavering,Hartlepool,,,,,,0,UKOS,448541,535052,-1.248167,54.708153,BCT,MKD,OTH,,,,022,2005-07-06T00:00:00.000,2017-01-17T15:54:56.405,2,revise,active
075071327A,hardtmj,,,Sunderland Lodge,,,,o/s Sunderland lodge,,A19,,,,N bound,,N,N0073092,Sunderland Lodge,,,,,,,0,UKOS,445188,528197,-1.301259,54.646865,BCT,CUS,OTH,,,,022,2005-07-06T00:00:00.000,2017-05-19T14:28:42.153,2,revise,inactive
075071327B,hardtmp,,,Sunderland Lodge,,,,opp Sunderland lodge,,A19,,,,S bound,,S,N0073092,Sunderland Lodge,,,,,,,0,UKOS,445171,528450,-1.301484,54.64914,BCT,CUS,OTH,,,,022,2005-07-06T00:00:00.000,2017-05-19T14:28:50.980,2,revise,inactive
075071329A,hardtmt,,,Tesco Extra,,,,Tesco Car Park,,Tesco Car Park,,,,A,,N,E0054977,Hartlepool,,,,,,,0,UKOS,451037,531779,-1.210005,54.678496,BCT,MKD,TIP,,,,022,2005-07-06T00:00:00.000,2017-01-18T13:42:34.357,2,revise,active
075071330A,hardtmw,,,Morrisons,,,,Morrisons Car Park,,Museum Road,,,,A,,W,E0054977,Hartlepool,,,,,,,0,UKOS,450809,532725,-1.213376,54.68702,BCT,MKD,OTH,,,,022,2005-07-06T00:00:00.000,2016-11-11T15:55:22.171,2,revise,active
075071331A,hardtpa,,,Morrisons,,,,Morrisons,,Clarence Road,,,,B,,N,E0054977,Hartlepool,,,,,,,0,UKOS,450928,532794,-1.211519,54.687628,BCT,MKD,OTH,,,,022,2005-07-06T00:00:00.000,2018-02-13T16:34:27.463,6,revise,inactive
075071332A,hardtpg,,,Hunter House Industrial Estate,,,,Terminus,,Turning Circle,,,,A,,E,N0073093,Brenda Road,,,,,,,0,UKOS,452106,528498,-1.194013,54.648911,BCT,MKD,OTH,,,,022,2005-07-06T00:00:00.000,2017-01-18T14:31:38.651,2,revise,active
075071333A,hardtpj,,,Rium Terrace,,,,Museum Road,,Raby Road,,,,A,,SE,E0054977,Hartlepool,,,,,,,0,UKOS,450750,532755,-1.214286,54.687295,BCT,MKD,OTH,,,,022,2005-07-06T00:00:00.000,2016-11-11T12:55:10.139,2,revise,active
075071333B,hardwgd,,,Rium Terrace,,,,Museum Road,,Raby Road,,,,B,,NW,E0054977,Hartlepool,,,,,,,0,UKOS,450724,532767,-1.214687,54.687406,BCT,MKD,OTH,,,,022,2009-12-22T00:00:00.000,2016-11-11T12:55:52.436,1,revise,active
075071334A,hardwag,,,Rossmere Centre,,,,Dundee Road,,Rossmere Way,,,,A,,E,E0037879,Owton Manor,Hartlepool,,,,,,0,UKOS,449496,529896,-1.23422,54.661729,BCT,MKD,OTH,,,,022,2006-10-19T00:00:00.000,2017-01-18T15:07:49.668,2,revise,active
075071334B,hardwaj,,,Rossmere Centre,,,,Dundee Road,,Rossmere Way,,,,B,,W,E0037879,Owton Manor,Hartlepool,,,,,,0,UKOS,449502,529873,-1.234131,54.661522,BCT,MKD,OTH,,,,022,2006-10-19T00:00:00.000,2017-01-18T15:19:33.309,2,revise,active
075071335A,hardwap,,,Wynyard Woods,,,,Wynyard Woods,,The Wynd,,,,N bound,,N,E0042105,Wynyard Estate,,,,,,,0,UKOS,441858,527341,-1.352981,54.63946,BCT,CUS,OTH,,,,022,2008-02-28T00:00:00.000,2017-05-19T14:29:56.836,1,revise,active
075071336A,hardwat,,,Navigation Point,,,,Marina (East Side),,Navigation Point,,,,A,,N,N0073108,Marina,Hartlepool,,,,,,0,UKOS,451744,533358,-1.198762,54.692613,BCT,MKD,OTH,,,,022,2009-06-29T00:00:00.000,2017-01-18T16:11:40.301,1,revise,active
075071TX01,,,,Church Street (Top),,,,Taxi Rank,,Church Street,,,,1,,,E0054977,Hartlepool,,,,,,,0,UKOS,451350,532720,-1.204986,54.68692,STR,,,,,,022,2005-07-06T00:00:00.000,2007-06-15T00:00:00.000,1,revise,active
075071TX02,,,,Church Street (Bottom),,,,Taxi Rank,,Church Street,,,,1,,,E0054977,Hartlepool,,,,,,,0,UKOS,451260,532680,-1.206389,54.68657,STR,,,,,,022,2005-07-06T00:00:00.000,2007-06-15T00:00:00.000,1,revise,active
075071TX03,,,,Station Approach (East Side),,,,Taxi Rank,,Station Approach,,,,1,,,E0054977,Hartlepool,,,,,,,0,UKOS,451180,532655,-1.207634,54.686353,TXR,,,,,,022,2005-07-06T00:00:00.000,2007-06-15T00:00:00.000,1,revise,active
075071TX04,,,,Station Approach (West Side),,,,Taxi Rank,,Station Approach,,,,1,,,E0054977,Hartlepool,,,,,,,0,UKOS,451160,532660,-1.207944,54.6864,TXR,,,,,,022,2005-07-06T00:00:00.000,2007-06-15T00:00:00.000,1,revise,active
075071TX05,,,,Whitby Street,,,,Taxi Rank,,Whitby Street,,,,1,,,E0054977,Hartlepool,,,,,,,0,UKOS,451170,532620,-1.207795,54.68604,STR,,,,,,022,2005-07-06T00:00:00.000,2007-06-15T00:00:00.000,1,revise,active
075071TX06,,,,Surtees Street,,,,Taxi Rank,,Surtees Street,,,,1,,,E0054977,Hartlepool,,,,,,,0,UKOS,451450,532545,-1.203466,54.685337,STR,,,,,,022,2005-07-06T00:00:00.000,2007-06-15T00:00:00.000,1,revise,active
075071TX07,,,,Bus Station,,,,Taxi Rank,,The Front,,,,1,,,E0037883,Seaton Carew,,,,,,,0,UKOS,452565,529485,-1.186722,54.657726,TXR,,,,,,022,2005-07-06T00:00:00.000,2007-06-15T00:00:00.000,1,revise,active
075071TX08,,,,os Arcade,,,,Taxi Rank,,The Front,,,,1,,,E0037883,Seaton Carew,,,,,,,0,UKOS,452510,529725,-1.187532,54.659888,STR,,,,,,022,2005-07-06T00:00:00.000,2007-06-15T00:00:00.000,1,revise,active
075071TX09,,,,Avenue Road (Gas Show Room),,,,Taxi Rank,,Avenue Road,,,,1,,,E0054977,Hartlepool,,,,,,,0,UKOS,450675,532565,-1.215482,54.685595,STR,,,,,,022,2005-07-06T00:00:00.000,2007-06-15T00:00:00.000,1,revise,active
075071TX10,,,,Avenue Road (Civic Centre),,,,Taxi Rank,,Avenue Road,,,,1,,,E0054977,Hartlepool,,,,,,,0,UKOS,450700,532550,-1.215097,54.685458,STR,,,,,,022,2005-07-06T00:00:00.000,2007-06-15T00:00:00.000,1,revise,active
075071TX11,,,,Swainson Street,,,,Taxi Rank,,Swainson Street,,,,1,,,E0054977,Hartlepool,,,,,,,0,UKOS,450855,532560,-1.212692,54.685532,TXR,,,,,,022,2005-07-06T00:00:00.000,2007-06-15T00:00:00.000,1,revise,active
075071TX12,,,,Middleton Grange Lane,,,,Taxi Rank,,Middleton Grange Lane,,,,1,,,E0054977,Hartlepool,,,,,,,0,UKOS,450615,532625,-1.216403,54.686141,STR,,,,,,022,2005-07-06T00:00:00.000,2007-06-15T00:00:00.000,1,revise,active
075071TX13,,,,Park Road (Old Asda),,,,Taxi Rank,,Park Road,,,,1,,,E0054977,Hartlepool,,,,,,,0,UKOS,450820,532240,-1.21329,54.68266,TXR,,,,,,022,2005-07-06T00:00:00.000,2007-06-15T00:00:00.000,1,revise,active
075071TX14,,,,Roker Street (Kwik Save),,,,Taxi Rank,,Roker Street,,,,1,,,E0054977,Hartlepool,,,,,,,0,UKOS,450650,532260,-1.215923,54.682857,STR,,,,,,022,2005-07-06T00:00:00.000,2007-06-15T00:00:00.000,1,revise,active
075071TX15,,,,Park Road (Churchills),,,,Taxi Rank,,Park Road,,,,1,,,E0054977,Hartlepool,,,,,,,0,UKOS,450530,532225,-1.21779,54.682555,STR,,,,,,022,2005-07-06T00:00:00.000,2007-06-15T00:00:00.000,1,revise,active
075071TX16,,,,42nd Street (Lucan Street),,,,Taxi Rank,,Lucan Street,,,,1,,,E0054977,Hartlepool,,,,,,,0,UKOS,450670,532595,-1.215555,54.685865,STR,,,,,,022,2005-07-06T00:00:00.000,2007-06-15T00:00:00.000,1,revise,active
075071TX17,,,,Club (Wynyard Road),,,,Taxi Rank,,Wynyard Road,,,,1,,,E0037879,Owton Manor,Hartlepool,,,,,,0,UKOS,449250,529810,-1.238047,54.66098,TXR,,,,,,022,2005-07-06T00:00:00.000,2007-06-15T00:00:00.000,1,revise,active
075071TX18,,,,King Johns Tavern,,,,Taxi Rank,,South Road,,,,1,,,E0054977,Hartlepool,,,,,,,0,UKOS,450660,532460,-1.215733,54.684653,STR,,,,,,022,2005-07-06T00:00:00.000,2007-06-15T00:00:00.000,1,revise,active
075071TX19,,,,Lucan Street (rear Yates),,,,Taxi Rank,,Lucan Street,,,,1,,,E0054977,Hartlepool,,,,,,,0,UKOS,450630,532580,-1.216178,54.685735,STR,,,,,,022,2005-07-06T00:00:00.000,2007-06-15T00:00:00.000,1,revise,active
075071TX20,,,,Whitby Street (Chicago Rock),,,,Taxi Rank,,Whitby Street,,,,1,,,E0054977,Hartlepool,,,,,,,0,UKOS,451230,532520,-1.206882,54.685135,STR,,,,,,022,2005-07-06T00:00:00.000,2007-06-15T00:00:00.000,1,revise,active
075071TX21,,,,Park Road (Layby Opp Kwik Save),,,,Taxi Rank,,Villiers Street,,,,1,,,E0054977,Hartlepool,,,,,,,0,UKOS,450660,532310,-1.215759,54.683306,STR,,,,,,022,2005-07-06T00:00:00.000,2007-06-15T00:00:00.000,1,revise,active
075071TX22,,,,Victoria Road,,,,adj bus stop 1292C Yates,,Victoria Road,,,,1,,,E0054977,Hartlepool,,,,,,,0,UKOS,450635,532537,-1.216108,54.685348,STR,,,,,,022,2009-10-14T00:00:00.000,2009-10-14T00:00:00.000,0,new,active
0750HRTLEPL0,,,,Hartlepool Rail Station,,,,Hartlepool Rail Station,,Church Street,,,,1,,,E0054977,Hartlepool,,,,,,,1,UKOS,451160,532680,-1.20794,54.68658,RSE,,,,,,022,2005-07-06T00:00:00.000,2007-06-15T00:00:00.000,1,revise,active
0750SETNCRW0,,,,Seaton Carew Rail Station,,,,Seaton Carew Rail Station,,Station Lane,,,,1,,,E0037883,Seaton Carew,,,,,,,1,UKOS,451705,529585,-1.200034,54.658713,RSE,,,,,,022,2005-07-06T00:00:00.000,2007-06-15T00:00:00.000,1,revise,active
075071337A,hardwpj,,,St Aidan's CE Memorial Primary School,,,,Loyalty Road,,Stockton Road,,,,A,,SW,E0037866,Foggy Furze,Hartlepool,,,,,,0,UKOS,450627,530955,-1.216505,54.671133,BCT,MKD,OTH,,,,022,2014-08-28T17:13:01.000,2017-01-18T16:21:20.110,3,revise,active
075071049B,hardwpw,,,Claremont Apartments,,,,Claremont Drive,,ELWICK ROAD,,,,E bound,,E,E0054977,Hartlepool,,,,,,,0,UKOS,449837,531827,-1.228605,54.679052,BCT,CUS,OTH,,,,022,2015-06-01T11:50:55.000,2019-05-31T09:53:03.584,3,revise,active
075071338A,hardwpt,,,Catcote Academy,,,,Rugby Club,,Catcote Road,,,,A,,N,E0054977,Hartlepool,,,,,,,0,UKOS,449370,531586,-1.235888,54.676928,BCT,MKD,OTH,,,,022,2015-05-29T15:10:05.000,2017-01-18T17:12:16.503,1,revise,active
075071322B,hardwta,,,Pine Grove,,,,Jesmond Gardens,,Challoner Road,,,,B,,E,N0073090,Dyke House,Hartlepool,,,,,,0,UKOS,449894,533748,-1.227394,54.696303,BCT,MKD,OTH,,,,022,2016-04-08T12:20:21.000,2017-01-17T14:11:33.140,1,revise,active
075071323B,hardwtd,,,Birch Walk,,,,Chatham Gardens,,Challoner Road,,,,B,,E,N0073090,Dyke House,Hartlepool,,,,,,0,UKOS,450101,533778,-1.224177,54.696552,BCT,MKD,OTH,,,,022,2016-04-08T12:29:42.000,2017-01-17T15:10:54.587,1,revise,active
075071339A,hardwtg,,,Willow Grove,,,,Willow Grove,,Challoner Road,,,,1,,E,N0073090,Dyke House,Hartlepool,,,,,,0,UKOS,450250,533802,-1.221861,54.696753,BCT,MKD,OTH,,,,022,2016-04-08T12:38:53.000,2018-02-13T16:34:41.095,3,revise,inactive
07501594A,hardwtj,,,East Lodge,,,,,,Rose Garden Lane,,,,A,,SE,E0042105,Wynyard Estate,,,,,,,,UKOS,442381,527329,-1.344875,54.639315,BCT,MKD,OTH,,,,022,2016-11-04T14:25:57.000,2024-03-12T12:52:11.477,3,revise,inactive
07501594B,hardwtm,,,East Lodge,,,,,,Hartlepool Road,,,,B,,N,E0042105,Wynyard Estate,,,,,,,,UKOS,442292,527256,-1.346274,54.63866,BCT,MKD,OTH,,,,022,2016-11-04T15:18:59.000,2024-03-12T12:52:42.489,3,revise,inactive
075071106F,hardwtp,,,English Martyrs School,,,,,,CATCOTE ROAD,,,,F,,S,E0037882,Rifthouse,Hartlepool,,,,,,,UKOS,449371,531334,-1.235909,54.674662,BCT,MKD,OTH,,,,022,2016-11-10T15:52:24.976,2019-11-15T14:10:47.570,1,revise,active
075071594A,hardwtw,,,North Lodges,,,,,,Hartlepool Road,,,,A,,SE,E0059816,Wynyard Park,,,,,,,,UKOS,442366,527294,-1.3451244,54.6389999,BCT,MKD,OTH,,,,022,2016-11-10T18:15:15.221,2024-04-25T13:52:09.829,3,revise,active
075071594B,hargada,,,North Lodges,,,,,,Hartlepool Road,,,,B,,NW,E0059816,Wynyard Park,,,,,,,,UKOS,442312,527286,-1.3459576,54.6389271,BCT,MKD,OTH,,,,022,2016-11-10T18:20:53.607,2024-04-25T13:52:22.955,3,revise,active
075071340A,hargadg,,,Ward Jackson C of E Primary School,,,,,,CLARK STREET,,,,A,,S,E0054977,Hartlepool,,,,,,,,UKOS,451071,532074,-1.2094291,54.6811469,BCT,MKD,OTH,,,,022,2016-11-11T10:28:11.832,2016-11-11T10:28:11.832,0,new,active
075071019A,hargadj,,,Milestone Nurseries,,,,,,STOCKTON ROAD,,,,A,,N,E0037879,Owton Manor,Hartlepool,,,,,,,UKOS,450129,529082,-1.2245476,54.6543523,BCT,MKD,OTH,,,,022,2017-05-03T16:40:19.275,2017-05-03T16:40:19.275,0,new,active
075071019B,hargadm,,,Milestone Nurseries,,,,,,Stockton Road,,,,B,,SW,E0037879,Owton Manor,Hartlepool,,,,,,,UKOS,450050,528928,-1.2257982,54.6529763,BCT,MKD,OTH,,,,022,2017-05-03T16:46:02.576,2017-05-03T16:46:02.576,0,new,active
075071178C,hargadp,,,Eldon Grove Crossroads,,,,,,PARK ROAD,,,,C,,W,E0054977,Hartlepool,,,,,,,,UKOS,449963,532176,-1.2265924,54.6821714,BCT,MKD,OTH,,,,022,2017-05-03T16:54:41.282,2017-05-03T16:54:41.282,0,new,active
075071031A,hargadt,,,Fens Primary School - Catcote Road,,,,,,CATCOTE ROAD,,,,A,,N,E0037887,The Fens,Hartlepool,,,,,,,UKOS,449601,528882,-1.2327643,54.6526108,BCT,MKD,OTH,,,,022,2017-05-10T11:25:39.102,2017-05-10T11:25:39.102,0,new,active
075071031B,hargadw,,,Fens Primary School - Catcote Road,,,,,,CATCOTE ROAD,,,,B,,S,E0037887,The Fens,Hartlepool,,,,,,,UKOS,449613,528842,-1.2325851,54.6522502,BCT,MKD,OTH,,,,022,2017-05-10T11:30:02.859,2017-05-10T11:30:02.859,0,new,active
075071032A,hargaga,,,Compton Road,,,,,,MARLOWE ROAD,,,,A,,W,E0037882,Rifthouse,Hartlepool,,,,,,,UKOS,448834,530924,-1.2443103,54.6710344,BCT,MKD,OTH,,,,022,2017-05-10T12:07:34.427,2017-05-10T12:07:34.427,0,new,active
075071032B,hargagd,,,Compton Road,,,,,,MARLOWE ROAD,,,,B,,E,E0037882,Rifthouse,Hartlepool,,,,,,,UKOS,448867,530937,-1.2437965,54.6711480,BCT,MKD,TIP,,,,022,2017-05-10T12:17:23.616,2017-05-10T12:17:23.616,0,new,active
075071033A,hargagj,,,Marlowe Road West End,,,,,,MASEFIELD ROAD,,,,A,,N,E0037882,Rifthouse,Hartlepool,,,,,,,UKOS,448748,531009,-1.2456295,54.6718065,BCT,MKD,OTH,,,,022,2017-05-10T12:42:10.926,2017-05-10T12:42:10.926,0,new,active
075071033B,hargagm,,,Marlowe Road West End,,,,,,MASEFIELD ROAD,,,,B,,S,E0037882,Rifthouse,Hartlepool,,,,,,,UKOS,448763,530981,-1.2454016,54.6715535,BCT,MKD,OTH,,,,022,2017-05-10T12:47:14.915,2017-05-10T12:47:14.915,0,new,active
075071034A,hargagp,,,Social Club,,,,,,WYNYARD ROAD,,,,A,,W,E0037879,Owton Manor,Hartlepool,,,,,,,UKOS,449284,529793,-1.237521,54.660832,BCT,MKD,OTH,,,,022,2017-05-10T16:54:58.230,2018-02-22T11:33:47.863,1,revise,active
075071034B,hargagt,,,Social Club,,,,,,WYNYARD ROAD,,,,B,,E,E0037879,Owton Manor,Hartlepool,,,,,,,UKOS,449215,529806,-1.238588,54.660948,BCT,MKD,OTH,,,,022,2017-05-10T17:02:48.571,2017-05-10T17:02:48.571,0,new,active
075071035A,hargagw,,,Rossmere Primary School,,,,,,CATCOTE ROAD,,,,A,,S,E0037879,Owton Manor,Hartlepool,,,,,,,UKOS,449458,529726,-1.2348379,54.6602088,BCT,MKD,TIP,,,,022,2017-05-10T17:10:26.072,2017-05-10T17:10:26.072,0,new,active
075071036A,hargaja,,,Manor Park,,,,,,CATCOTE ROAD,,,,A,,N,E0037879,Owton Manor,Hartlepool,,,,,,,UKOS,449394,529902,-1.2358003,54.6617965,BCT,MKD,TIP,,,,022,2017-05-10T17:21:57.405,2017-05-10T17:21:57.405,0,new,active
075071036B,hargajd,,,Manor Park,,,,,,CATCOTE ROAD,,,,B,,N,E0037879,Owton Manor,Hartlepool,,,,,,,UKOS,449393,529874,-1.2358205,54.6615450,BCT,MKD,TIP,,,,022,2017-05-10T17:26:48.462,2017-05-10T17:26:48.462,0,new,active
075071036C,hargajg,,,Manor Park,,,,,,CATCOTE ROAD,,,,C,,S,E0037879,Owton Manor,Hartlepool,,,,,,,UKOS,449412,529958,-1.2355118,54.6622980,BCT,MKD,OTH,,,,022,2017-05-11T10:12:41.853,2017-05-11T10:12:41.853,0,new,active
075071037A,hargajm,,,Wynyard Mews,,,,,,WYNYARD ROAD,,,,A,,W,E0037879,Owton Manor,Hartlepool,,,,,,,UKOS,449125,529789,-1.2399889,54.6608074,BCT,MKD,OTH,,,,022,2017-05-11T10:25:01.765,2017-05-11T10:25:01.765,0,new,active
075071037B,hargajp,,,Wynyard Mews,,,,,,WYNYARD ROAD,,,,B,,E,E0037879,Owton Manor,Hartlepool,,,,,,,UKOS,448968,529817,-1.2424178,54.6610742,BCT,MKD,OTH,,,,022,2017-05-11T10:30:14.722,2020-01-09T16:06:11.457,1,revise,active
075071038A,hargajt,,,Lovat Grove,,,,,,WYNYARD ROAD,,,,A,,W,E0037879,Owton Manor,Hartlepool,,,,,,,UKOS,448830,529800,-1.2445597,54.6609348,BCT,MKD,OTH,,,,022,2017-05-11T10:36:14.626,2017-05-11T10:36:14.626,0,new,active
075071039A,hargajw,,,Eskdale Academy,,,,,,ESKDALE ROAD,,,,A,,S,E0037879,Owton Manor,Hartlepool,,,,,,,UKOS,448877,529839,-1.2438247,54.6612807,BCT,MKD,OTH,,,,022,2017-05-11T10:46:53.879,2017-05-11T10:46:53.879,0,new,active
075071039B,hargama,,,Eskdale Academy,,,,,,ESKDALE ROAD,,,,B,,N,E0037879,Owton Manor,Hartlepool,,,,,,,UKOS,448855,529860,-1.2441622,54.6614715,BCT,MKD,OTH,,,,022,2017-05-11T10:52:34.122,2017-05-11T10:52:34.122,0,new,active
075071055A,hargamd,,,Torquay Avenue,,,,,,Stockton Road,,,,A,,N,E0037879,Owton Manor,Hartlepool,,,,,,,UKOS,450255,529423,-1.2225363,54.6574075,BCT,MKD,TIP,,,,022,2017-05-11T16:07:21.489,2017-05-11T16:07:21.489,0,new,active
075071055B,hargamg,,,Torquay Avenue,,,,,,Stockton Road,,,,B,,S,E0037879,Owton Manor,Hartlepool,,,,,,,UKOS,450274,529417,-1.2222429,54.6573517,BCT,MKD,TIP,,,,022,2017-05-11T16:13:08.066,2017-05-11T16:13:08.066,0,new,active
075071056A,hargamj,,,Owton Lodge,,,,,,SEATON LANE,,,,A,,W,E0037879,Owton Manor,Hartlepool,,,,,,,UKOS,450354,529492,-1.2209901,54.6580176,BCT,MKD,OTH,,,,022,2017-05-11T16:19:56.169,2021-01-08T12:14:47.830,1,revise,active
075071056B,hargamp,,,Owton Lodge,,,,,,SEATON LANE,,,,B,,E,E0037879,Owton Manor,Hartlepool,,,,,,,UKOS,450389,529511,-1.2204443,54.6581849,BCT,MKD,TIP,,,,022,2017-05-11T16:24:41.804,2017-05-11T16:24:41.804,0,new,active
075071057A,hargamt,,,Primary School,,,,,,SEATON LANE,,,,A,,W,N0073091,Golden Flatts,,,,,,,,UKOS,450948,529584,-1.2117676,54.6587848,BCT,MKD,OTH,,,,022,2017-05-11T16:43:47.349,2017-05-11T16:43:47.349,0,new,active
075071057B,hargamw,,,Primary School,,,,,,SEATON LANE,,,,B,,E,N0073091,Golden Flatts,,,,,,,,UKOS,451034,529599,-1.2104320,54.6589109,BCT,MKD,TIP,,,,022,2017-05-11T16:53:24.499,2017-05-11T16:53:24.499,0,new,active
075071058A,hargapa,,,Rail Station,,,,,,STATION LANE,,,,A,,E,E0037883,Seaton Carew,,,,,,,,UKOS,451806,529629,-1.1984611,54.6591019,BCT,MKD,OTH,,,,022,2017-05-11T17:11:28.164,2017-05-11T17:11:28.164,0,new,active
075071146A,hargapd,,,Friar Terrace,,,,,,DURHAM STREET,,,,A,,S,N0070310,The Headland,Hartlepool,,,,,,,UKOS,452805,533892,-1.1822078,54.6973042,BCT,MKD,OTH,,,,022,2017-05-11T17:20:01.120,2017-05-11T17:20:01.120,0,new,active
075071059A,hargapg,,,Queensland Road,,,,,,STOCKTON ROAD,,,,A,,S,E0037879,Owton Manor,Hartlepool,,,,,,,UKOS,450355,529848,-1.2209134,54.6612165,BCT,MKD,OTH,,,,022,2017-05-11T17:24:49.246,2017-05-11T17:24:49.246,0,new,active
075071060A,hargapj,,,Argyll Road,,,,,,ROSSMERE WAY,,,,A,,W,E0037879,Owton Manor,Hartlepool,,,,,,,UKOS,450281,529954,-1.2220422,54.6621763,BCT,MKD,OTH,,,,022,2017-05-11T17:37:18.418,2017-05-11T17:37:18.418,0,new,active
075071060B,hargapm,,,Argyll Road,,,,,,ROSSMERE WAY,,,,B,,NE,E0037879,Owton Manor,Hartlepool,,,,,,,UKOS,450331,529979,-1.2212629,54.6623960,BCT,MKD,OTH,,,,022,2017-05-11T17:41:36.770,2020-05-06T14:12:25.723,1,revise,active
075071061A,hargapt,,,Sydenham Road,,,,,,BRENDA ROAD,,,,A,,N,E0037866,Foggy Furze,Hartlepool,,,,,,,UKOS,450762,531190,-1.2143721,54.6732346,BCT,MKD,OTH,,,,022,2017-05-11T17:54:23.015,2017-05-11T17:54:23.015,0,new,active
075071061B,hargapw,,,Sydenham Road,,,,,,Brenda Road,,,,B,,S,E0037866,Foggy Furze,Hartlepool,,,,,,,UKOS,450772,531210,-1.2142136,54.6734133,BCT,MKD,OTH,,,,022,2017-05-11T17:57:35.193,2017-05-11T17:57:35.193,0,new,active
075071143B,hargata,,,Wolviston Road,,,,,,OXFORD ROAD,,,,B,,W,E0037866,Foggy Furze,Hartlepool,,,,,,,UKOS,450371,531327,-1.2204110,54.6745047,BCT,MKD,OTH,,,,022,2017-05-12T10:46:16.020,2017-05-12T10:46:16.020,0,new,active
075071062A,hargatd,,,Baptist Church,,,,,,CALEDONIAN ROAD,,,,A,,S,E0037866,Foggy Furze,Hartlepool,,,,,,,UKOS,450365,531276,-1.2205128,54.6740471,BCT,MKD,OTH,,,,022,2017-05-12T10:50:31.887,2017-05-12T10:50:31.887,0,new,active
075071043B,hargatg,,,Wansbeck Gardens,,,,,,ELWICK ROAD,,,,B,,W,E0037866,Foggy Furze,Hartlepool,,,,,,,UKOS,450230,531850,-1.2225075,54.6792183,BCT,MKD,OTH,,,,022,2017-05-12T10:59:31.284,2017-05-12T10:59:31.284,0,new,active
075071051B,hargatj,,,Elwick Grange,,,,,,ELWICK ROAD,,,,B,,E,E0037866,Foggy Furze,Hartlepool,,,,,,,UKOS,450131,531858,-1.2240414,54.6793000,BCT,MKD,OTH,,,,022,2017-05-12T11:17:13.461,2017-05-12T11:17:13.461,0,new,active
075071063A,hargatm,,,Dalton Crossroads - Dalton Lane,,,,,,Dalton Lane,,,,A,,N,E0053158,Elwick,,,,,,,,UKOS,447108,533178,-1.2707080,54.6914523,BCT,MKD,OTH,,,,022,2017-05-12T16:36:07.654,2017-05-12T16:36:07.654,0,new,active
075071064A,hargatp,,,Devon Street,,,,,,OXFORD ROAD,,,,A,,W,E0037866,Foggy Furze,Hartlepool,,,,,,,UKOS,450599,531398,-1.2168635,54.6751199,BCT,MKD,OTH,,,,022,2017-05-12T17:13:31.591,2017-05-12T17:13:31.591,0,new,active
075071065A,hargatw,,,Northbrook Court,,,,,,ELWICK ROAD,,,,A,,S,E0054977,Hartlepool,,,,,,,,UKOS,449472,532094,-1.2342208,54.6814856,BCT,MKD,OTH,,,,022,2017-05-12T17:27:11.126,2018-01-10T10:24:58.272,1,revise,active
075071066A,hargawa,,,The Grove,,,,,,WOOLER ROAD,,,,A,,N,E0054977,Hartlepool,,,,,,,,UKOS,449422,532292,-1.2349628,54.6832697,BCT,MKD,OTH,,,,022,2017-05-12T17:30:53.595,2017-05-12T17:30:53.595,0,new,active
075071067B,hargawd,,,Park Drive,,,,,,ELWICK ROAD,,,,B,,N,E0037895,West Park,Hartlepool,,,,,,,UKOS,448891,532430,-1.2431750,54.6845614,BCT,MKD,OTH,,,,022,2017-05-12T17:44:44.182,2017-05-12T17:44:44.182,0,new,active
075071067A,hargawg,,,Park Drive,,,,,,ELWICK ROAD,,,,A,,S,E0037895,West Park,Hartlepool,,,,,,,UKOS,448910,532391,-1.2428868,54.6842092,BCT,MKD,OTH,,,,022,2017-05-12T17:48:11.709,2017-05-12T17:48:11.709,0,new,active
075071204A,hargawj,,,Victoria Arms,,,,,,NORTHGATE,,,,A,,W,N0070310,The Headland,Hartlepool,,,,,,,UKOS,452034,534335,-1.1940903,54.7013649,BCT,MKD,TIP,,,,022,2017-05-12T17:53:24.652,2017-05-12T17:53:24.652,0,new,active
075071206A,hargawm,,,St Helen's Primary School,,,,,,DURHAM STREET,,,,A,,E,N0070310,The Headland,Hartlepool,,,,,,,UKOS,452500,534198,-1.1868847,54.7000856,BCT,MKD,OTH,,,,022,2017-05-12T17:58:56.482,2017-05-12T17:58:56.482,0,new,active
075071068A,hargawp,,,Army Reserve Centre,,,,,,EASINGTON ROAD,,,,A,,E,N0073090,Dyke House,Hartlepool,,,,,,,UKOS,449848,534144,-1.2280403,54.6998694,BCT,MKD,TIP,,,,022,2017-05-15T10:12:12.100,2017-05-15T10:12:12.100,0,new,active
075071068B,hargawt,,,Army Reserve Centre,,,,,,EASINGTON ROAD,,,,B,,W,N0073090,Dyke House,Hartlepool,,,,,,,UKOS,449891,534111,-1.2273788,54.6995686,BCT,MKD,TIP,,,,022,2017-05-15T10:16:28.676,2017-05-15T10:16:28.676,0,new,active
075071225C,hargdad,,,Holdforth Road East End,,,,,,HOLDFORTH ROAD,,,,C,,E,E0037896,West View,Hartlepool,,,,,,,UKOS,450085,534381,-1.2243226,54.7019755,BCT,MKD,OTH,,,,022,2017-05-15T10:35:27.301,2017-05-15T10:35:27.301,0,new,active
075071069A,hargdag,,,St Thomas More RC Church,,,,,,EASINGTON ROAD,,,,A,,E,E0037896,West View,Hartlepool,,,,,,,UKOS,450117,534096,-1.2238750,54.6994114,BCT,MKD,OTH,,,,022,2017-05-15T10:47:09.392,2017-05-15T10:47:09.392,0,new,active
075071069B,hargdaj,,,St Thomas More RC Church,,,,,,EASINGTON ROAD,,,,B,,W,E0037896,West View,Hartlepool,,,,,,,UKOS,450142,534075,-1.2234907,54.6992202,BCT,MKD,OTH,,,,022,2017-05-15T10:50:21.903,2017-05-15T10:50:21.903,0,new,active
075071070A,hargdam,,,Sandwell Park,,,,,,LANCASTER ROAD,,,,A,,N,N0073090,Dyke House,Hartlepool,,,,,,,UKOS,450879,533289,-1.2121930,54.6920837,BCT,MKD,OTH,,,,022,2017-05-15T11:02:44.436,2017-05-15T11:02:44.436,0,new,active
075071341A,hargdap,,,John Howe Gardens,,,,,,Easington Road,,,,A,,SE,E0037896,West View,Hartlepool,,,,,,,UKOS,449265,534976,-1.2369455,54.7074027,BCT,MKD,TIP,,,,022,2017-05-15T12:12:42.960,2017-05-15T12:12:42.960,0,new,active
075071341B,hargdat,,,John Howe Gardens,,,,,,EASINGTON ROAD,,,,B,,NW,E0037896,West View,Hartlepool,,,,,,,UKOS,449270,534917,-1.2368778,54.7068721,BCT,MKD,TIP,,,,022,2017-05-15T16:45:01.260,2017-05-15T16:45:01.260,0,new,active
075071342A,hargdaw,,,Railway Station Approach,,,,,,CHURCH STREET,,,,A,,W,E0054977,Hartlepool,,,,,,,,UKOS,451219,532635,-1.2070334,54.6861727,BCT,MKD,OTH,,,,022,2017-05-15T17:20:10.007,2018-08-02T15:35:16.734,1,revise,inactive
075071254E,hargdga,,,Bus Station,,,,,,THE FRONT,,,,Stand E,,NW,E0037883,Seaton Carew,,,,,,,,UKOS,452563,529500,-1.186749,54.657867,BCT,MKD,TIP,,,,022,2017-05-15T17:54:02.243,2018-06-04T15:30:50.343,1,revise,active
075071343A,hargdgd,,,Power Station - Brenda Road,,,,,,BRENDA ROAD,,,,A,,SE,N0070312,Hartlepool Power Station,,,,,,,,UKOS,452130,527581,-1.1938034,54.6406659,BCT,MKD,OTH,,,,022,2017-05-16T16:17:39.093,2017-05-16T16:17:39.093,0,new,active
075071343B,hargdgj,,,Power Station - Brenda Road,,,,,,BRENDA ROAD,,,,B,,NW,N0070312,Hartlepool Power Station,,,,,,,,UKOS,452118,527580,-1.1939895,54.6406582,BCT,MKD,OTH,,,,022,2017-05-16T16:24:59.497,2017-05-16T16:24:59.497,0,new,active
075071344A,hargdgm,,,The Windmill Hotel,,,,,,Dalton Piercy Lane,,,,A,,E,E0053157,Dalton Piercy,,,,,,,,UKOS,445349,530624,-1.2983897,54.6686635,BCT,MKD,OTH,,,,022,2017-05-16T16:58:39.031,2017-05-16T16:58:39.031,0,new,active
075071277B,hargdgp,,,Park Square,,,,,,JESMOND ROAD,,,,B,,N,N0073090,Dyke House,Hartlepool,,,,,,,UKOS,449939,533113,-1.2268046,54.6905961,BCT,MKD,TIP,,,,022,2017-05-16T17:18:30.123,2017-05-16T17:18:30.123,0,new,active
075071345A,hargdgt,,,Wharton Terrace,,,,,,Raby Road,,,,A,,S,N0073090,Dyke House,Hartlepool,,,,,,,UKOS,450404,533538,-1.2195184,54.6943688,BCT,MKD,TIP,,,,022,2017-05-16T17:36:58.490,2017-05-16T17:36:58.490,0,new,active
075071345B,hargdgw,,,Wharton Terrace,,,,,,Raby Road,,,,B,,N,N0073090,Dyke House,Hartlepool,,,,,,,UKOS,450381,533547,-1.2198736,54.6944520,BCT,MKD,TIP,,,,022,2017-05-16T17:40:47.528,2017-05-16T17:40:47.528,0,new,active
075071346A,hargdja,,,Phillips Road,,,,,,RABY ROAD,,,,A,,N,N0073090,Dyke House,Hartlepool,,,,,,,UKOS,450421,533367,-1.2192842,54.6928306,BCT,MKD,TIP,,,,022,2017-05-16T17:45:08.579,2023-02-23T16:35:03.755,3,revise,inactive
075071347A,hargdjd,,,Grainger Street,,,,,,MARTON STREET,,,,A,,N,N0073090,Dyke House,Hartlepool,,,,,,,UKOS,450443,533261,-1.218959,54.691876,BCT,MKD,OTH,,,,022,2017-05-17T15:19:37.894,2023-02-23T10:03:52.664,1,revise,active
075071284A,hargdjg,,,Mill House Leisure Centre,,,,,,RABY ROAD,,,,A,,N,E0054977,Hartlepool,,,,,,,,UKOS,450640,532887,-1.2159700,54.6884955,BCT,MKD,OTH,,,,022,2017-05-17T15:27:54.973,2017-05-17T15:27:54.973,0,new,active
07501271C,hargdjm,,,Aldi,,,,,,DUNSTON ROAD,,,,C,,NE,E0037890,Throston Grange,Hartlepool,,,,,,,UKOS,448962,533189,-1.2419468,54.6913747,BCT,MKD,TIP,,,,022,2017-05-17T16:26:07.437,2017-05-17T16:27:57.438,1,revise,inactive
075071271C,hargdjp,,,Aldi,,,,,,DUNSTON ROAD,,,,C,,NE,E0037890,Throston Grange,Hartlepool,,,,,,,UKOS,448962,533189,-1.2419468,54.6913747,BCT,MKD,OTH,,,,022,2017-05-17T16:31:06.191,2017-05-17T16:31:06.191,0,new,active
075071348A,hargdjt,,,Burnston Close,,,,,,DUNSTON ROAD,,,,A,,SW,E0037890,Throston Grange,Hartlepool,,,,,,,UKOS,448849,533088,-1.2437165,54.6904781,BCT,MKD,OTH,,,,022,2017-05-17T16:51:47.628,2017-05-17T16:51:47.628,0,new,active
075071349A,hargdjw,,,Health Centre,,,,,,VICTORIA ROAD,,,,A,,E,E0054977,Hartlepool,,,,,,,,UKOS,450478,532551,-1.2185408,54.6854926,BCT,MKD,OTH,,,,022,2017-05-17T17:04:14.537,2017-05-17T17:04:14.537,0,new,active
075071349B,hargdma,,,Health Centre,,,,,,VICTORIA ROAD,,,,B,,W,E0054977,Hartlepool,,,,,,,,UKOS,450495,532527,-1.2182813,54.6852752,BCT,MKD,OTH,,,,022,2017-05-17T17:08:46.957,2017-05-17T17:08:46.957,0,new,active
075071350A,hargdmd,,,White House,,,,,,WOOLER ROAD,,,,A,,N,E0037895,West Park,Hartlepool,,,,,,,UKOS,449421,532492,-1.2349445,54.6850670,BCT,MKD,OTH,,,,022,2017-05-17T17:30:53.577,2017-05-17T17:30:53.577,0,new,active
075071350B,hargdmg,,,White House,,,,,,WOOLER ROAD,,,,B,,S,E0037895,West Park,Hartlepool,,,,,,,UKOS,449435,532514,-1.2347237,54.6852633,BCT,MKD,OTH,,,,022,2017-05-17T17:33:55.443,2017-05-17T17:33:55.443,0,new,active
075071351A,hargdmj,,,Greenbank Court,,,,,,SERPENTINE ROAD,,,,A,,N,E0037895,West Park,Hartlepool,,,,,,,UKOS,449391,532997,-1.2353246,54.6896077,BCT,MKD,OTH,,,,022,2017-05-17T17:48:08.525,2017-05-17T17:48:08.525,0,new,active
075071331B,hargdmp,,,Morrisons,,,,,,CLARENCE ROAD,,,,B,,N,E0054977,Hartlepool,,,,,,,,UKOS,450928,532793,-1.2115193,54.6876219,BCT,MKD,OTH,,,,022,2017-05-18T10:23:18.861,2017-05-18T10:23:18.861,0,new,inactive
075071330B,hargdmt,,,Morrisons,,,,,,CLARENCE ROAD,,,,B,,N,E0054977,Hartlepool,,,,,,,,UKOS,450928,532793,-1.2115193,54.6876219,BCT,MKD,OTH,,,,022,2017-05-18T10:24:44.392,2017-05-18T10:24:44.392,0,new,active
075071229C,hargdmw,,,Sports & Technology College,,,,,,CHALLONER ROAD,,,,C,,E,N0073090,Dyke House,Hartlepool,,,,,,,UKOS,450250,533801,-1.2218622,54.6967474,BCT,MKD,OTH,,,,022,2017-05-18T10:36:02.639,2017-05-18T10:36:02.639,0,new,active
075071352A,hargdpa,,,Strawberry Apartments,,,,,,MERLIN WAY,,,,A,,W,E0037890,Throston Grange,Hartlepool,,,,,,,UKOS,448520,534836,-1.2485324,54.7062152,BCT,MKD,OTH,,,,022,2017-12-07T10:43:07.245,2017-12-07T10:43:07.245,0,new,active
075071352B,hargdpd,,,Strawberry Apartments,,,,,,MERLIN WAY,,,,B,,SE,E0037890,Throston Grange,Hartlepool,,,,,,,UKOS,448505,534851,-1.2487538,54.7063528,BCT,MKD,OTH,,,,022,2017-12-07T10:45:33.029,2017-12-07T13:29:58.609,1,revise,active
075071353A,hargdpg,,,Primrose Road,,,,,,MERLIN WAY,,,,A,,W,E0037890,Throston Grange,Hartlepool,,,,,,,UKOS,448869,534843,-1.2431165,54.7062474,BCT,MKD,OTH,,,,022,2017-12-07T11:50:56.222,2017-12-07T11:50:56.222,0,new,active
075071353B,hargdpj,,,Primrose Road,,,,,,MERLIN WAY,,,,B,,NE,E0037890,Throston Grange,Hartlepool,,,,,,,UKOS,448899,534866,-1.2426504,54.7064462,BCT,MKD,OTH,,,,022,2017-12-07T12:05:48.859,2017-12-07T12:05:48.859,0,new,active
075071354A,hargdpm,,,Orchid Road,,,,,,MERLIN WAY,,,,A,,N,E0037890,Throston Grange,Hartlepool,,,,,,,UKOS,449034,534769,-1.2405618,54.7055652,BCT,MKD,OTH,,,,022,2017-12-07T13:16:59.807,2017-12-07T13:16:59.807,0,new,active
075071354B,hargdpt,,,Orchid Road,,,,,,MERLIN WAY,,,,B,,S,E0037890,Throston Grange,Hartlepool,,,,,,,UKOS,449043,534780,-1.2404225,54.7056666,BCT,MKD,OTH,,,,022,2017-12-07T13:20:07.424,2017-12-07T13:59:41.218,1,revise,active
075071355,hargdpw,,,Hart FLX,,,,,,FRONT STREET,,,,flx,,,E0053160,Hart,,,,,,,,UKOS,446962,534926,-1.2726966,54.7071709,BCT,FLX,OTH,,,,022,2019-10-25T14:13:55.357,2019-10-25T14:13:55.357,0,new,active
075071356,hargdta,,,Elwick FLX,,,,,,Elwick Road,,,,flx,,,E0053158,Elwick,,,,,,,,UKOS,445559,532317,-1.2948679,54.6838553,BCT,FLX,OTH,,,,022,2019-10-25T14:20:38.633,2019-10-25T14:20:38.633,0,new,active
075071357,hargdtd,,,Dalton Piercy FLX,,,,,,Dalton Piercy Lane,,,,flx,,,E0053157,Dalton Piercy,,,,,,,,UKOS,446444,531196,-1.2813229,54.6737049,BCT,FLX,OTH,,,,022,2019-10-25T14:22:56.965,2019-10-25T14:22:56.965,0,new,active
075071328A,hargdtg,,,Tall Ships,,,,,,A179,,,,A,,E,E0037890,Throston Grange,Hartlepool,,,,,,,UKOS,448391,535059,-1.2505002,54.7082362,BCT,MKD,OTH,,,,022,2022-03-17T11:40:27.442,2022-03-17T11:40:27.442,0,new,active
075071328B,hargdtj,,,Tall Ships,,,,,,A179,,,,B,,NW,E0037890,Throston Grange,Hartlepool,,,,,,,UKOS,448355,535053,-1.251058,54.708183,BCT,MKD,OTH,,,,022,2022-03-17T11:54:29.329,2022-03-17T11:55:35.028,1,revise,active
075071347B,hargdtm,,,Grainger Street,,,,,,RABY ROAD,,,,B,,SE,N0073090,Dyke House,Hartlepool,,,,,,,UKOS,450471,533177,-1.2185463,54.6911166,BCT,MKD,OTH,,,,022,2023-02-23T10:08:53.991,2023-02-23T10:08:53.991,0,new,active
075071355A,hargdtp,,,Poppy Close,,,,,,The Meadows,,,,A,,W,E0059816,Wynyard Park,,,,,,,,UKOS,442300,527546,-1.3461085,54.6412664,BCT,MKD,OTH,,,,022,2024-02-16T09:47:27.632,2024-04-25T13:51:55.552,1,revise,active
075071356A,hargdtw,,,Black Wood,,,,,,Wynyard Woods,,,,A,,NE,E0042105,Wynyard Estate,,,,,,,,UKOS,441139,527656,-1.3640730,54.6423562,BCT,MKD,OTH,,,,022,2024-04-04T12:02:52.494,2024-04-04T12:02:52.494,0,new,active
075071357A,hargdwa,,,Gledstone,,,,,,Wynyard Woods,,,,A,,E,E0042105,Wynyard Estate,,,,,,,,UKOS,441452,527588,-1.3592414,54.6417201,BCT,MKD,OTH,,,,022,2024-04-04T12:06:01.628,2024-04-04T12:06:01.628,0,new,active
075071358A,hargdwg,,,Delamere,,,,,,Delamere,,,,A,,E,E0042105,Wynyard Estate,,,,,,,,UKOS,441726,527441,-1.3550144,54.6403736,BCT,MKD,OTH,,,,022,2024-04-04T12:19:38.905,2024-04-04T12:19:38.905,0,new,active
