ATCOCode,NaptanCode,PlateCode,CleardownCode,CommonName,CommonNameLang,ShortCommonName,ShortCommonNameLang,Landmark,LandmarkLang,Street,StreetLang,Crossing,CrossingLang,Indicator,IndicatorLang,Bearing,NptgLocalityCode,LocalityName,ParentLocalityName,GrandParentLocalityName,Town,TownLang,Suburb,SuburbLang,LocalityCentre,GridType,Easting,Northing,Longitude,Latitude,StopType,BusStopType,TimingStatus,DefaultWaitTime,Notes,NotesLang,AdministrativeAreaCode,CreationDateTime,ModificationDateTime,RevisionNumber,Modification,Status
07605001,dloadada,,,Foresters Arms,,,,Foresters Arms,,Durham Road,,,,I,,S,E0052964,Coatham Mundeville,,,,,,,0,UKOS,428727,520576,-1.557081,54.579582,BCT,MKD,OTH,,,,015,2005-09-07T00:00:00.000,2014-01-02T11:24:42.000,4,revise,active
07605002,dloadadg,,,Foresters Arms,,,,Foresters Arms,,Durham Road,,,,O,,NW,E0052964,Coatham Mundeville,,,,,,,1,UKOS,428724,520534,-1.557132,54.579205,BCT,MKD,OTH,,,,015,2005-09-07T00:00:00.000,2014-01-02T11:24:54.000,4,revise,active
07605003,dloadadj,,,Broadway,,,,Broadway,,Durham Road,,,,O,,NW,E0052964,Coatham Mundeville,,,,,,,0,UKOS,429084,519814,-1.551633,54.572714,BCT,MKD,OTH,,,,015,2005-09-07T00:00:00.000,2014-01-02T11:25:30.000,4,revise,active
07605004,dloadadm,,,Broadway,,,,Broadway,,Durham Road,,,,I,,SE,E0052964,Coatham Mundeville,,,,,,,0,UKOS,429107,519796,-1.551279,54.572551,BCT,MKD,OTH,,,,015,2005-09-07T00:00:00.000,2014-01-02T11:25:41.000,4,revise,active
07605005,dloadadp,,,Ketton Hall Farm,,,,Ketton Lane,,Durham Road,,,,I,,S,E0052964,Coatham Mundeville,,,,,,,0,UKOS,429295,519321,-1.548418,54.56828,BCT,MKD,OTH,,,,015,2005-09-07T00:00:00.000,2014-01-02T10:22:09.000,5,revise,active
07605006,dloadadt,,,Ketton Hall Farm,,,,Ketton Lane,,Durham Road,,,,O,,N,E0052964,Coatham Mundeville,,,,,,,0,UKOS,429272,519269,-1.548779,54.567814,BCT,MKD,OTH,,,,015,2005-09-07T00:00:00.000,2014-01-02T10:22:00.000,5,revise,active
07605007,dloadadw,,,Hartlea Avenue,,,,Hartlea Avenue,,Beaumont Hill,,,,O,,N,E0036655,Beaumont Hill,Darlington,,,,,,1,UKOS,429241,518639,-1.549321,54.562146,BCT,MKD,OTH,,,,015,2005-09-07T00:00:00.000,2013-12-05T16:39:33.000,3,revise,active
07605008,dloadaga,,,Hartlea Avenue,,,,Hartlea Avenue,,Beaumont Hill,,,,I,,S,E0036655,Beaumont Hill,Darlington,,,,,,0,UKOS,429259,518573,-1.549049,54.561552,BCT,MKD,OTH,,,,015,2005-09-07T00:00:00.000,2013-12-05T16:40:16.000,4,revise,active
07605009,dloadagd,,,Little Burdon Subway,,,,Little Burdon Far,,A66,,,,O,,E,E0036677,Little Burdon,,,,,,,1,UKOS,432805,516420,-1.494455,54.541996,BCT,MKD,OTH,,,,015,2005-09-07T00:00:00.000,2013-09-04T10:48:52.000,3,revise,inactive
07605012,dloadagp,,,Great Burdon,,,,Great Burdon Green,,Stockton Road,,,,O,,E,E0052967,Great Burdon,Darlington,,,,,,0,UKOS,431761,516446,-1.510588,54.542296,BCT,MKD,OTH,,,,015,2005-09-16T00:00:00.000,2009-08-27T08:30:00.000,2,revise,active
07605013,dloadagt,,,Great Burdon,,,,Great Burdon Green,,Stockton Road,,,,I,,W,E0052967,Great Burdon,Darlington,,,,,,0,UKOS,431762,516429,-1.510575,54.542143,BCT,MKD,OTH,,,,015,2005-09-02T00:00:00.000,2009-08-27T08:30:00.000,2,revise,active
07605014,dloadagw,,,Sainsbury's,,,,Sainsburys,,Grange Road,,,,O,,SW,N0078475,West End,Darlington,,,,,,0,UKOS,428600,514080,-1.559674,54.521221,BCT,MKD,OTH,,,,015,2005-08-30T00:00:00.000,2009-12-11T08:30:00.000,2,revise,active
07605015,dloadaja,,,Sainsbury's,,,,Sainsburys,,Grange Road,,,,I,,NE,N0078475,West End,Darlington,,,,,,0,UKOS,428571,514046,-1.560126,54.520917,BCT,MKD,OTH,,,,015,2005-08-30T00:00:00.000,2017-10-26T10:27:57.383,4,revise,active
07605016,dloadajd,,,Blackwell Lane,,,,Blackwell Lane,,Grange Road,,,,O,,SW,N0078475,West End,Darlington,,,,,,0,UKOS,428409,513732,-1.562658,54.518105,BCT,MKD,OTH,,,,015,2005-08-30T00:00:00.000,2009-12-11T08:30:00.000,2,revise,active
07605017,dloadajg,,,Blackwell Lane,,,,Blackwell Lane,,Grange Road,,,,I,,NE,N0078475,West End,Darlington,,,,,,0,UKOS,428359,513624,-1.563441,54.517137,BCT,MKD,OTH,,,,015,2005-08-30T00:00:00.000,2009-12-11T08:30:00.000,2,revise,active
07605018,dloadajm,,,South Park,,,,South Park,,Grange Road,,,,I,,NE,N0078475,West End,Darlington,,,,,,0,UKOS,428250,513325,-1.565153,54.514456,BCT,MKD,OTH,,,,015,2005-08-30T00:00:00.000,2015-10-06T10:07:27.000,4,revise,active
07605019,dloadajp,,,South Park,,,,South Park,,Grange Road,,,,O,,SW,N0078475,West End,Darlington,,,,,,0,UKOS,428254,513288,-1.565095,54.514123,BCT,MKD,OTH,,,,015,2005-08-30T00:00:00.000,2015-10-06T10:54:48.000,5,revise,active
07605020,dloadajt,,,Blackwell Grange Hotel,,,,Blackwell Grange Hotel,,Grange Road,,,,I,,NE,E0036657,Blackwell,Darlington,,,,,,0,UKOS,428162,513026,-1.566541,54.511774,BCT,MKD,OTH,,,,015,2005-08-30T00:00:00.000,2014-01-02T11:04:30.000,4,revise,active
07605021,dloadajw,,,Blackwell Grange Hotel,,,,Blackwell Grange Hotel,,Grange Road,,,,O,,SW,E0036657,Blackwell,Darlington,,,,,,0,UKOS,428138,512971,-1.566917,54.511281,BCT,MKD,OTH,,,,015,2005-08-30T00:00:00.000,2015-10-06T10:57:10.000,5,revise,active
07605022,dloadama,,,Bland's Corner Roundabout,,,,Car dealership,,Croft Road,,,,O,,SW,E0036657,Blackwell,Darlington,,,,,,0,UKOS,427809,512482,-1.572044,54.506905,BCT,MKD,OTH,,,,015,2005-08-24T00:00:00.000,2013-12-05T16:12:36.000,3,revise,active
07605023,dloadamd,,,Bland's Corner Roundabout,,,,Car dealership,,Croft Road,,,,I,,NE,E0036657,Blackwell,Darlington,,,,,,0,UKOS,427807,512513,-1.572072,54.507183,BCT,MKD,OTH,,,,015,2005-08-24T00:00:00.000,2013-12-05T16:15:25.000,3,revise,active
07605024,dloadamg,,,Blackwell House,,,,Blackwell House,,Bridge Road,,,,I,,E,E0036657,Blackwell,Darlington,,,,,,0,UKOS,427689,512583,-1.573888,54.507819,BCT,MKD,OTH,,,,015,2005-08-25T00:00:00.000,2014-01-02T11:23:12.000,4,revise,active
07605025,dloadamj,,,Blackwell House,,,,Blackwell House,,Bridge Road,,,,O,,W,E0036657,Blackwell,Darlington,,,,,,0,UKOS,427556,512554,-1.575945,54.507565,BCT,MKD,OTH,,,,015,2005-08-26T00:00:00.000,2014-01-02T11:23:23.000,4,revise,active
07605026,dloadamp,,,Briar Walk,,,,Briar Walk,,Blackwell,,,,O,,SE,E0036657,Blackwell,Darlington,,,,,,0,UKOS,427429,512726,-1.57789,54.509118,BCT,MKD,OTH,,,,015,2005-08-24T00:00:00.000,2009-08-24T08:30:00.000,2,revise,active
07605027,dloadamt,,,Briar Walk,,,,Briar Walk,,Blackwell,,,,I,,N,E0036657,Blackwell,Darlington,,,,,,0,UKOS,427406,512784,-1.57824,54.50964,BCT,MKD,OTH,,,,015,2005-08-24T00:00:00.000,2009-08-24T08:30:00.000,2,revise,active
07605028,dloadamw,,,Blackwell Post Office,,,,Blackwell Post Office,,Blackwell,,,,I,,NE,E0036657,Blackwell,Darlington,,,,,,1,UKOS,427617,513121,-1.57495,54.512649,BCT,MKD,OTH,,,,015,2005-08-24T00:00:00.000,2020-05-06T15:35:30.349,3,revise,active
07605029,dloadapa,,,Linwood Grove,,,,Linwood Grove,,Carmel Road South,,,,O,,SE,N0078475,West End,Darlington,,,,,,0,UKOS,427606,513226,-1.57511,54.513602,BCT,MKD,OTH,,,,015,2005-08-24T00:00:00.000,2009-08-24T08:30:00.000,2,revise,active
07605030,dloadapd,,,Linwood Grove,,,,Linwood Grove,,Carmel Road South,,,,I,,NW,N0078475,West End,Darlington,,,,,,0,UKOS,427545,513348,-1.576041,54.514701,BCT,MKD,OTH,,,,015,2005-08-24T00:00:00.000,2009-08-24T08:30:00.000,2,revise,active
07605031,dloadapg,,,Carmel Grove,,,,Carmel Grove,,Carmel Road South,,,,O,,SE,N0078475,West End,Darlington,,,,,,0,UKOS,427518,513443,-1.576449,54.515557,BCT,MKD,OTH,,,,015,2005-08-24T00:00:00.000,2009-08-24T08:30:00.000,2,revise,active
07605032,dloadapj,,,Carmel Grove,,,,Carmel Grove,,Carmel Road South,,,,I,,NW,N0078475,West End,Darlington,,,,,,0,UKOS,427446,513504,-1.577555,54.516109,BCT,MKD,OTH,,,,015,2005-08-24T00:00:00.000,2009-08-24T08:30:00.000,2,revise,active
07605033,dloadapm,,,Sir ED Walker Homes,,,,Sir ED Walker Homes,,Coniscliffe Road,,,,O,,W,N0078475,West End,Darlington,,,,,,0,UKOS,427502,513703,-1.576672,54.517894,BCT,MKD,OTH,,,,015,2005-08-30T00:00:00.000,2009-08-24T08:30:00.000,3,revise,active
07605034,dloadapt,,,Sir ED Walker Homes,,,,Sir ED Walker Homes,,Coniscliffe Road,,,,I,,E,N0078475,West End,Darlington,,,,,,0,UKOS,427524,513721,-1.57633,54.518046,BCT,MKD,OTH,,,,015,2005-08-30T00:00:00.000,2009-08-24T08:30:00.000,3,revise,active
07605035,dloadapw,,,Linden Avenue,,,,Linden Avenue,,Coniscliffe Road,,,,O,,SW,N0078475,West End,Darlington,,,,,,0,UKOS,427597,513717,-1.575203,54.518015,BCT,MKD,OTH,,,,015,2005-08-30T00:00:00.000,2009-08-24T08:30:00.000,3,revise,active
07605036,dloadata,,,Linden Avenue,,,,Linden Avenue,,Coniscliffe Road,,,,I,,NE,N0078475,West End,Darlington,,,,,,0,UKOS,427677,513754,-1.573964,54.518343,BCT,MKD,OTH,,,,015,2005-08-30T00:00:00.000,2009-08-24T08:30:00.000,3,revise,active
07605037,dloadatd,,,Fox & Hounds,,,,Fox & Hounds,,Teesway,,,,O,,NE,E0052979,Neasham,,,,,,,0,UKOS,432572,510212,-1.498739,54.486223,BCT,MKD,OTH,,,,015,2005-08-31T00:00:00.000,2014-01-02T10:16:50.000,4,revise,active
07605038,dloadatg,,,Fox & Hounds,,,,Fox & Hounds,,Teesway,,,,I,,SW,E0052979,Neasham,,,,,,,1,UKOS,432590,510208,-1.498462,54.486185,BCT,MKD,OTH,,,,015,2005-09-01T00:00:00.000,2014-01-02T10:16:40.000,4,revise,active
07605039,dloadatj,,,Reading Rooms,,,,Reading Room & Club,,Sockburn Lane,,,,I,,NW,E0052979,Neasham,,,,,,,0,UKOS,432944,510386,-1.492978,54.487762,BCT,MKD,OTH,,,,015,2005-09-02T00:00:00.000,2020-05-06T15:36:02.664,6,revise,active
07605042,dloadatw,,,Larchfield House,,,,Stanhope Road South,,Coniscliffe Road,,,,O,,SW,N0078475,West End,Darlington,,,,,,0,UKOS,428519,514261,-1.560908,54.522844,BCT,MKD,OTH,,,,015,2005-08-31T00:00:00.000,2015-09-02T10:02:53.000,3,revise,active
07605043,dloadawa,,,Beechwood Avenue,,,,Beechwood Avenue,,Coniscliffe Road,,,,I,,NE,N0078475,West End,Darlington,,,,,,0,UKOS,428370,514178,-1.563218,54.522115,BCT,MKD,OTH,,,,015,2005-08-30T00:00:00.000,2009-08-24T08:30:00.000,2,revise,active
07605044,dloadawd,,,Beechwood Avenue,,,,Beechwood Avenue,,Coniscliffe Road,,,,O,,SW,N0078475,West End,Darlington,,,,,,0,UKOS,428294,514098,-1.5644,54.5214,BCT,MKD,OTH,,,,015,2005-08-30T00:00:00.000,2009-08-24T08:30:00.000,2,revise,active
07605045,dloadawg,,,Greenmount Road,,,,Greenmount Road,,Coniscliffe Road,,,,I,,NE,N0078475,West End,Darlington,,,,,,0,UKOS,428110,513963,-1.567255,54.520197,BCT,MKD,OTH,,,,015,2005-09-09T00:00:00.000,2009-08-24T08:30:00.000,2,revise,active
07605046,dloadawj,,,Greenmount Road,,,,Greenmount Road,,Coniscliffe Road,,,,O,,SW,N0078475,West End,Darlington,,,,,,0,UKOS,428071,513929,-1.567861,54.519894,BCT,MKD,OTH,,,,015,2005-08-30T00:00:00.000,2009-08-24T08:30:00.000,2,revise,active
07605047,dloadawm,,,Hartford Road,,,,Hartford Road,,Coniscliffe Road,,,,O,,SW,N0078475,West End,Darlington,,,,,,0,UKOS,427781,513770,-1.572356,54.518481,BCT,MKD,OTH,,,,015,2005-08-30T00:00:00.000,2009-08-24T08:30:00.000,3,revise,active
07605048,dloadawp,,,Hartford Road,,,,Hartford Road,,Coniscliffe Road,,,,I,,NE,N0078475,West End,Darlington,,,,,,0,UKOS,427827,513816,-1.571641,54.518892,BCT,MKD,OTH,,,,015,2005-08-30T00:00:00.000,2009-08-23T08:30:00.000,3,revise,active
07605049,dloadawt,,,Ashcroft Road,,,,Ashcroft Road,,Coniscliffe Road,,,,I,,NE,N0078475,West End,Darlington,,,,,,0,UKOS,427985,513907,-1.569192,54.519701,BCT,MKD,OTH,,,,015,2005-08-30T00:00:00.000,2009-08-24T08:30:00.000,3,revise,active
07605050,dloadgad,,,Woodburn Drive,,,,Elm Ridge Garden Centre,,Coniscliffe Road,,,,O,,W,E0036673,Hummersknott,Darlington,,,,,,0,UKOS,427341,513694,-1.57916,54.517822,BCT,MKD,OTH,,,,015,2005-08-24T00:00:00.000,2024-02-06T15:05:36.258,5,revise,active
07605051,dloadgag,,,Woodburn Drive,,,,Elm Ridge Garden Centre,,Coniscliffe Road,,,,I,,E,E0036673,Hummersknott,Darlington,,,,,,0,UKOS,427353,513702,-1.578974,54.517893,BCT,MKD,OTH,,,,015,2005-08-24T00:00:00.000,2024-02-06T15:05:50.591,5,revise,active
07605052,dloadgaj,,,Dene Grove,,,,Dene Grove,,Woodland Road,,,,O,,NW,E0036687,Pierremont,Darlington,,,,,,0,UKOS,427589,515220,-1.575186,54.531522,BCT,MKD,OTH,,,,015,2005-08-24T00:00:00.000,2009-08-25T08:30:00.000,3,revise,active
07605053,dloadgam,,,Dene Grove,,,,Tennis court dene,,Woodland Road,,,,I,,SE,E0036687,Pierremont,Darlington,,,,,,0,UKOS,427614,515220,-1.5748,54.531512,BCT,MKD,OTH,,,,015,2005-08-24T00:00:00.000,2018-06-25T11:25:08.136,4,revise,active
07605054,dloadgap,,,Pierremont Crescent,,,,Pierremont Crescent,,Woodland Road,,,,O,,NW,E0036687,Pierremont,Darlington,,,,,,1,UKOS,427743,515158,-1.572813,54.530956,BCT,MKD,OTH,,,,015,2005-08-24T00:00:00.000,2009-08-25T08:30:00.000,3,revise,active
07605055,dloadgat,,,Pierremont Crescent,,,,Pierremont Crescent,,Woodland Road,,,,I,,SE,E0036687,Pierremont,Darlington,,,,,,0,UKOS,427821,515134,-1.57161,54.530736,BCT,MKD,OTH,,,,015,2005-08-24T00:00:00.000,2018-06-25T11:36:08.676,4,revise,active
07605056,dloadgaw,,,St Teresa's Hospice,,,,St Teresa's Hospice,,Woodland Road,,,,O,,NW,E0036687,Pierremont,Darlington,,,,,,0,UKOS,427970,515051,-1.569315,54.529982,BCT,MKD,OTH,,,,015,2005-08-24T00:00:00.000,2009-08-25T08:30:00.000,3,revise,active
07605057,dloadgda,,,Hawkesbury Mews,,,,Hawkesbury Mews,,Woodland Road,,,,I,,SE,E0036687,Pierremont,Darlington,,,,,,0,UKOS,428146,514974,-1.566603,54.529281,BCT,MKD,OTH,,,,015,2005-08-24T00:00:00.000,2018-06-25T10:49:57.638,4,revise,active
07605058,dloadgdg,,,Holy Trinity Church,,,,Holy Trinity Parish Church,,Woodland Road,,,,I,,SE,E0054904,Darlington,,,,,,,0,UKOS,428317,514857,-1.563972,54.52822,BCT,MKD,OTH,,,,015,2005-08-24T00:00:00.000,2009-08-25T08:30:00.000,3,revise,active
07605059,dloadgdj,,,Holy Trinity Church,,,,Holy Trinity Parish Church,,Woodland Road,,,,O,,NW,E0054904,Darlington,,,,,,,0,UKOS,428306,514848,-1.564143,54.528131,BCT,MKD,OTH,,,,015,2005-08-24T00:00:00.000,2018-06-25T11:37:28.028,4,revise,active
07605060,dloadgdm,,,Maude Street,,,,Maude Street,,Woodland Road,,,,O,,NW,E0054904,Darlington,,,,,,,0,UKOS,428517,514792,-1.560888,54.527616,BCT,MKD,OTH,,,,015,2005-08-24T00:00:00.000,2009-08-25T08:30:00.000,3,revise,active
07605061,dloadgdp,,,Maude Street,,,,Maude Street,,Woodland Road,,,,I,,SE,E0054904,Darlington,,,,,,,0,UKOS,428507,514809,-1.561041,54.527778,BCT,MKD,OTH,,,,015,2005-08-24T00:00:00.000,2015-09-02T11:07:10.000,4,revise,active
07605062,dloadgdt,,,North Lodge Park,,,,North Lodge Park,,Northgate,,,,I,,S,N0078632,North Lodge,Darlington,,,,,,0,UKOS,429037,514953,-1.552838,54.529042,BCT,MKD,OTH,,,,015,2005-08-30T00:00:00.000,2009-08-06T08:30:00.000,2,revise,active
07605063,dloadgdw,,,North Lodge Park,,,,North Lodge Park,,Northgate,,,,O,,N,N0078632,North Lodge,Darlington,,,,,,1,UKOS,429029,515008,-1.552956,54.529528,BCT,MKD,OTH,,,,015,2005-08-30T00:00:00.000,2018-06-25T10:51:23.010,3,revise,active
07605064,dloadgja,,,Odeon Cinema,,,,Odeon Cinema,,Northgate,,,,I,,S,N0078632,North Lodge,Darlington,,,,,,0,UKOS,429056,515148,-1.552525,54.530793,BCT,MKD,OTH,,,,015,2005-08-30T00:00:00.000,2018-06-25T09:59:56.192,3,revise,active
07605065,dloadgjd,,,Odeon Cinema,,,,Odeon Cinema,,Northgate,,,,O,,N,N0078632,North Lodge,Darlington,,,,,,0,UKOS,429042,515182,-1.552738,54.531091,BCT,MKD,OTH,,,,015,2005-08-30T00:00:00.000,2018-06-25T10:00:48.322,2,revise,active
07605066,dloadgjg,,,Elmfield Centre,,,,Elmfield Centre,,Corporation Road,,,,O,,W,N0078632,North Lodge,Darlington,,,,,,0,UKOS,429014,515219,-1.553167,54.531425,BCT,MKD,OTH,,,,015,2005-08-30T00:00:00.000,2009-08-28T08:30:00.000,2,revise,active
07605067,dloadgjm,,,Elmfield Centre,,,,Elmfield Centre,,Corporation Road,,,,I,,E,N0078632,North Lodge,Darlington,,,,,,0,UKOS,428913,515245,-1.554725,54.531673,BCT,MKD,OTH,,,,015,2005-08-30T00:00:00.000,2009-08-28T08:30:00.000,2,revise,active
07605068,dloadgjp,,,Corporation Road School,,,,Baptist Tabernacle,,Corporation Road,,,,O,,W,N0078632,North Lodge,Darlington,,,,,,0,UKOS,428718,515256,-1.557737,54.531783,BCT,MKD,OTH,,,,015,2005-08-30T00:00:00.000,2009-08-28T08:30:00.000,2,revise,active
07605069,dloadgjt,,,Marshall Street,,,,Sainsbury's Local,,Corporation Road,,,,I,,E,N0076137,The Denes,Darlington,,,,,,0,UKOS,428625,515261,-1.559174,54.531833,BCT,MKD,OTH,,,,015,2005-08-30T00:00:00.000,2009-08-28T08:30:00.000,2,revise,active
07605070,dloadgjw,,,Barningham Street,,,,Sainsbury's Local,,Corporation Road,,,,O,,W,N0076137,The Denes,Darlington,,,,,,0,UKOS,428545,515239,-1.560412,54.53164,BCT,MKD,OTH,,,,015,2005-08-30T00:00:00.000,2015-09-02T10:05:23.000,3,revise,active
07605071,dloadgma,,,Brinkburn Dene,,,,Brinkburn Dene- Playground Dene,,Salisbury Terrace,,,,O,,N,N0076137,The Denes,Darlington,,,,,,1,UKOS,428518,515550,-1.5608,54.534436,BCT,MKD,OTH,,,,015,2005-08-30T00:00:00.000,2009-08-28T08:30:00.000,2,revise,active
07605072,dloadgmd,,,Brinkburn Dene,,,,Brinkburn Dene- Bowling Green Dene,,Salisbury Terrace,,,,I,,S,N0076137,The Denes,Darlington,,,,,,0,UKOS,428520,515526,-1.560771,54.53422,BCT,MKD,OTH,,,,015,2005-08-30T00:00:00.000,2009-08-28T08:30:00.000,2,revise,active
07605073,dloadgmg,,,Fairfield Street,,,,Fairfield Street,,Brinkburn Road,,,,O,,W,N0076119,Brinkburn,Darlington,,,,,,0,UKOS,428484,515820,-1.561299,54.536856,BCT,MKD,OTH,,,,015,2005-08-22T00:00:00.000,2009-08-28T08:30:00.000,2,revise,active
07605074,dloadgmj,,,Fairfield Street,,,,Fairfield Street,,Brinkburn Road,,,,I,,E,N0076119,Brinkburn,Darlington,,,,,,0,UKOS,428459,515841,-1.561683,54.537046,BCT,MKD,OTH,,,,015,2005-08-22T00:00:00.000,2009-08-28T08:30:00.000,2,revise,active
07605075,dloadgmp,,,Harrison Terrace,,,,Harrison Terrace,,Brinkburn Road,,,,I,,E,N0076119,Brinkburn,Darlington,,,,,,0,UKOS,428320,515831,-1.563832,54.536964,BCT,MKD,OTH,,,,015,2005-08-22T00:00:00.000,2009-08-28T08:30:00.000,2,revise,active
07605076,dloadgmt,,,Stooperdale Offices,,,,Stooperdale Offices,,Brinkburn Road,,,,O,,W,N0076119,Brinkburn,Darlington,,,,,,1,UKOS,428162,515786,-1.566278,54.536577,BCT,MKD,OTH,,,,015,2005-08-22T00:00:00.000,2009-08-28T08:30:00.000,2,revise,active
07605077,dloadgmw,,,Stooperdale Offices,,,,Stooperdale Offices,,Brinkburn Road,,,,I,,E,N0076119,Brinkburn,Darlington,,,,,,0,UKOS,428101,515794,-1.56722,54.536652,BCT,MKD,OTH,,,,015,2005-08-22T00:00:00.000,2009-08-28T08:30:00.000,2,revise,active
07605078,dloadgpa,,,Wayland Terrace,,,,Wayland Terrace,,Brinkburn Avenue,,,,O,,N,N0076119,Brinkburn,Darlington,,,,,,0,UKOS,427883,516009,-1.570569,54.538596,BCT,MKD,OTH,,,,015,2005-08-30T00:00:00.000,2009-09-10T08:30:00.000,2,revise,active
07605079,dloadgpd,,,Wayland Terrace,,,,Wayland Terrace,,Brinkburn Avenue,,,,I,,S,N0076119,Brinkburn,Darlington,,,,,,0,UKOS,427885,516045,-1.570535,54.538911,BCT,MKD,OTH,,,,015,2005-08-30T00:00:00.000,2009-09-10T08:30:00.000,2,revise,active
07605080,dloadgpg,,,Auckland Avenue,,,,Auckland Avenue,,Auckland Oval,,,,O,,W,N0076119,Brinkburn,Darlington,,,,,,0,UKOS,427692,516151,-1.573508,54.539883,BCT,MKD,OTH,,,,015,2005-08-30T00:00:00.000,2009-09-10T08:30:00.000,2,revise,active
07605081,dloadgpj,,,Auckland Avenue,,,,Auckland Avenue,,Auckland Oval,,,,I,,E,N0076119,Brinkburn,Darlington,,,,,,0,UKOS,427684,516208,-1.573626,54.540387,BCT,MKD,OTH,,,,015,2005-08-30T00:00:00.000,2009-09-10T08:30:00.000,2,revise,active
07605082,dloadgpm,,,Auckland Oval,,,,Auckland Oval,,West Auckland Road,,,,I,,SW,E0036660,Cockerton,Darlington,,,,,,0,UKOS,427554,516141,-1.575642,54.539792,BCT,MKD,OTH,,,,015,2005-08-30T00:00:00.000,2009-09-10T08:30:00.000,2,revise,active
07605083,dloadgpt,,,Auckland Oval,,,,Auckland Oval,,West Auckland Road,,,,O,,NW,E0036660,Cockerton,Darlington,,,,,,0,UKOS,427542,516176,-1.575824,54.540107,BCT,MKD,OTH,,,,015,2005-08-30T00:00:00.000,2009-09-10T08:30:00.000,2,revise,active
07605084,dloadgpw,,,Beck House,,,,Beck House,,West Auckland Road,,,,O,,NW,E0036663,Faverdale,Darlington,,,,,,0,UKOS,427450,516350,-1.577229,54.541684,BCT,MKD,OTH,,,,015,2005-08-30T00:00:00.000,2018-06-25T11:36:29.771,3,revise,active
07605085,dloadgta,,,Beck House,,,,Beck House,,West Auckland Road,,,,I,,SE,E0036663,Faverdale,Darlington,,,,,,0,UKOS,427408,516396,-1.577874,54.5421,BCT,MKD,OTH,,,,015,2005-08-30T00:00:00.000,2018-06-25T10:18:02.011,3,revise,active
07605086,dloadgtd,,,Faverdale Road,,,,Blackett Hart & Pratt Solicitors,,Faverdale,,,,I,,W,E0036663,Faverdale,Darlington,,,,,,0,UKOS,427380,516516,-1.578296,54.54318,BCT,MKD,OTH,,,,015,2005-08-30T00:00:00.000,2009-09-11T08:30:00.000,2,revise,active
07605087,dloajgdm,,,Faverdale Road,,,,Blackett Hart & Pratt Solicitors,,Faverdale,,,,O,,E,E0036663,Faverdale,Darlington,,,,,,1,UKOS,427490,516519,-1.576603,54.543199,BCT,MKD,OTH,,,,015,2006-06-06T00:00:00.000,2024-03-21T08:45:47.074,6,revise,active
07605088,dloadgtj,,,Arriva Depot,,,,Glen Office Supplies,,Faverdale,,,,O,,E,E0036663,Faverdale,Darlington,,,,,,0,UKOS,427731,516529,-1.57287,54.543269,BCT,MKD,OTH,,,,015,2005-08-30T00:00:00.000,2009-09-11T08:30:00.000,2,revise,active
07605089,dloadgtm,,,Arriva Depot,,,,Glen Office Supplies,,Faverdale,,,,I,,W,E0036663,Faverdale,Darlington,,,,,,0,UKOS,427731,516514,-1.572871,54.543143,BCT,MKD,OTH,,,,015,2005-08-30T00:00:00.000,2009-09-11T08:30:00.000,2,revise,active
07605091,dloadgtw,,,Aldi Distribution Centre,,,,Aldi Distribution Centre,,Faverdale North,,,,O,,N,E0036663,Faverdale,Darlington,,,,,,0,UKOS,427806,516940,-1.571672,54.546967,BCT,MKD,OTH,,,,015,2005-08-30T00:00:00.000,2009-09-11T08:30:00.000,2,revise,active
07605092,dloadgwa,,,Aldi Distribution Centre,,,,Aldi Distribution Centre,,Faverdale North,,,,I,,S,E0036663,Faverdale,Darlington,,,,,,0,UKOS,427830,516976,-1.571303,54.547286,BCT,MKD,OTH,,,,015,2005-08-30T00:00:00.000,2024-03-21T08:46:16.020,3,revise,active
07605093,dloadgwd,,,John Fowler Way,,,,The White Heifer Public House,,West Auckland Road,,,,I,,SE,N0076140,West Park,Darlington,,,,,,0,UKOS,426957,517008,-1.584789,54.547615,BCT,MKD,OTH,,,,015,2005-08-30T00:00:00.000,2018-06-25T11:29:17.126,4,revise,active
07605094,dloadgwg,,,John Fowler Way,,,,The White Heifer Public House,,West Auckland Road,,,,O,,NW,N0076140,West Park,Darlington,,,,,,0,UKOS,426858,517103,-1.586311,54.548474,BCT,MKD,OTH,,,,015,2005-08-30T00:00:00.000,2011-09-08T00:00:00.000,2,revise,active
07605095,dloadgwj,,,Westgate Crescent,,,,Westgate Crescent,,West Auckland Road,,,,O,,NW,E0036663,Faverdale,Darlington,,,,,,1,UKOS,427210,516571,-1.580919,54.543683,BCT,MKD,OTH,,,,015,2005-08-30T00:00:00.000,2018-06-25T10:18:31.363,5,revise,active
07605096,dloadgwm,,,Westgate Crescent,,,,Westgate Crescent,,West Auckland Road,,,,I,,SE,E0036663,Faverdale,Darlington,,,,,,0,UKOS,427249,516558,-1.580317,54.543564,BCT,MKD,OTH,,,,015,2005-08-30T00:00:00.000,2018-06-25T11:22:43.781,5,revise,active
07605097,dloadgwp,,,Memorial Hospital,,,,Darlington Memorial Hospital,,Hollyhurst Road,,,,O,,NE,E0036687,Pierremont,Darlington,,,,,,0,UKOS,428095,515084,-1.567381,54.530272,BCT,MKD,OTH,,,,015,2005-08-30T00:00:00.000,2011-09-08T00:00:00.000,3,revise,active
07605098,dloadgwt,,,Hospital Grounds,,,,Hospital Grounds,,Darlington Memorial Hospital,,,,adj,,NW,E0036687,Pierremont,Darlington,,,,,,0,UKOS,428267,515018,-1.564729,54.529669,BCT,CUS,TIP,,,,015,2005-09-09T00:00:00.000,2018-05-09T12:41:58.122,6,revise,inactive
07605099,dloadjad,,,Memorial Hospital,,,,Darlington Memorial Hospital,,Hollyhurst Road,,,,I,,SW,E0036687,Pierremont,Darlington,,,,,,0,UKOS,428141,515166,-1.566662,54.531006,BCT,MKD,OTH,,,,015,2005-08-30T00:00:00.000,2011-09-08T00:00:00.000,3,revise,active
07605100,dloadjag,,,Orchard Road,,,,Orchard Road,,Hollyhurst Road,,,,O,,NE,E0036687,Pierremont,Darlington,,,,,,0,UKOS,428194,515308,-1.56583,54.532271,BCT,MKD,OTH,,,,015,2005-08-30T00:00:00.000,2011-09-08T00:00:00.000,3,revise,active
07605101,dloadjaj,,,Orchard Road,,,,Orchard Road,,Hollyhurst Road,,,,I,,SW,E0036687,Pierremont,Darlington,,,,,,0,UKOS,428195,515286,-1.565816,54.532082,BCT,MKD,OTH,,,,015,2005-09-09T00:00:00.000,2011-09-08T00:00:00.000,3,revise,active
07605102,dloadjam,,,Newfoundland Street,,,,Newfoundland Street,,Hollyhurst Road,,,,I,,S,N0076137,The Denes,Darlington,,,,,,0,UKOS,428215,515487,-1.565488,54.533887,BCT,MKD,OTH,,,,015,2005-08-30T00:00:00.000,2011-09-08T00:00:00.000,3,revise,active
07605103,dloadjap,,,Newfoundland Street,,,,Newfoundland Street,,Hollyhurst Road,,,,O,,NE,N0076137,The Denes,Darlington,,,,,,0,UKOS,428218,515611,-1.56543,54.535001,BCT,MKD,OTH,,,,015,2005-08-30T00:00:00.000,2011-09-08T00:00:00.000,3,revise,active
07605104,dloadjat,,,Hazel Avenue,,,,Hazel Avenue,,Willow Road,,,,I,,E,N0076137,The Denes,Darlington,,,,,,0,UKOS,428186,515645,-1.565921,54.5353,BCT,MKD,OTH,,,,015,2005-08-30T00:00:00.000,2011-09-08T00:00:00.000,3,revise,active
07605105,dloadjaw,,,Olympic Street,,,,Olympic Street,,Willow Road,,,,I,,E,N0076137,The Denes,Darlington,,,,,,0,UKOS,427977,515579,-1.569157,54.534727,BCT,MKD,OTH,,,,015,2005-08-30T00:00:00.000,2011-09-08T00:00:00.000,3,revise,active
07605106,dloadjda,,,Olympic Street,,,,Olympic Street,,WILLOW ROAD,,,,O,,W,N0076137,The Denes,Darlington,,,,,,0,UKOS,427970,515569,-1.569267,54.534633,BCT,MKD,OTH,,,,015,2005-08-30T00:00:00.000,2011-09-08T00:00:00.000,3,revise,active
07605111,dloadjdt,,,Brinkburn Road,,,,,,West Auckland Road,,,,I,,S,E0036660,Cockerton,Darlington,,,,,,0,UKOS,427385,515753,-1.578289,54.536323,BCT,MKD,OTH,,,,015,2005-08-22T00:00:00.000,2011-09-08T00:00:00.000,3,revise,active
07605112,dloadjdw,,,Brinkburn Road,,,,,,West Auckland Road,,,,O,,NE,E0036660,Cockerton,Darlington,,,,,,0,UKOS,427366,515725,-1.578586,54.536072,BCT,MKD,OTH,,,,015,2005-08-22T00:00:00.000,2011-09-08T00:00:00.000,3,revise,active
07605113,dloadjga,,,Laing Street,,,,Laing Street,,West Auckland Road,,,,O,,NE,E0036660,Cockerton,Darlington,,,,,,0,UKOS,427469,515976,-1.576971,54.538322,BCT,MKD,OTH,,,,015,2005-08-22T00:00:00.000,2011-09-08T00:00:00.000,3,revise,active
07605114,dloadjgd,,,Laing Street,,,,Laing Street,,West Auckland Road,,,,I,,SW,E0036660,Cockerton,Darlington,,,,,,0,UKOS,427514,516043,-1.576269,54.538922,BCT,MKD,OTH,,,,015,2005-08-22T00:00:00.000,2011-09-08T00:00:00.000,3,revise,active
07605115,dloadjgj,,,Bowen Road,,,,Bowen Road,,Bates Avenue,,,,I,,E,E0036660,Cockerton,Darlington,,,,,,0,UKOS,427492,516084,-1.576605,54.539283,BCT,MKD,OTH,,,,015,2005-08-22T00:00:00.000,2011-09-08T00:00:00.000,3,revise,active
07605116,dloadjgm,,,Bowen Road,,,,Bowen Road,,Bates Avenue,,,,O,,W,E0036660,Cockerton,Darlington,,,,,,0,UKOS,427436,516089,-1.57747,54.539331,BCT,MKD,OTH,,,,015,2005-08-22T00:00:00.000,2011-09-08T00:00:00.000,3,revise,active
07605117,dloadjgp,,,Sandriggs,,,,Bates Av shop,,Bates Avenue,,,,I,,E,E0036660,Cockerton,Darlington,,,,,,0,UKOS,427328,516123,-1.579136,54.539651,BCT,MKD,OTH,,,,015,2005-08-22T00:00:00.000,2011-09-08T00:00:00.000,3,revise,active
07605118,dloadjgt,,,Sandriggs,,,,Leach Grove,,Bates Avenue,,,,O,,W,E0036660,Cockerton,Darlington,,,,,,0,UKOS,427247,516105,-1.58039,54.539485,BCT,MKD,OTH,,,,015,2005-08-22T00:00:00.000,2011-09-08T00:00:00.000,3,revise,active
07605119,dloadjgw,,,Stooperdale Avenue,,,,Stooperdale Avenue,,Bates Avenue,,,,I,,E,E0036660,Cockerton,Darlington,,,,,,0,UKOS,427083,516080,-1.582927,54.539269,BCT,MKD,OTH,,,,015,2005-08-22T00:00:00.000,2011-09-08T00:00:00.000,3,revise,active
07605120,dloadjma,,,Stooperdale Avenue,,,,Stooperdale Avenue,,Bates Avenue,,,,O,,W,E0036660,Cockerton,Darlington,,,,,,0,UKOS,427017,516060,-1.583948,54.539101,BCT,MKD,OTH,,,,015,2005-08-22T00:00:00.000,2011-09-08T00:00:00.000,3,revise,active
07605121,dloadjmd,,,Newton Court,,,,Newton Court,,Newton Lane,,,,O,,NW,E0036660,Cockerton,Darlington,,,,,,0,UKOS,427121,515583,-1.582385,54.534809,BCT,MKD,OTH,,,,015,2005-08-23T00:00:00.000,2013-09-25T14:08:10.000,4,revise,active
07605122,dloadjmg,,,Newton Court,,,,Newton Court,,Newton Lane,,,,I,,SE,E0036660,Cockerton,Darlington,,,,,,0,UKOS,427074,515634,-1.583107,54.53527,BCT,MKD,OTH,,,,015,2005-08-23T00:00:00.000,2011-09-08T00:00:00.000,3,revise,active
07605124,dloadjmp,,,Cockerton Library,,,,Cockerton Library,,Woodland Road,,,,O,,NW,E0036660,Cockerton,Darlington,,,,,,1,UKOS,427427,515412,-1.577672,54.533256,BCT,MKD,OTH,,,,015,2005-09-09T00:00:00.000,2018-06-25T11:36:48.065,4,revise,active
07605125,dloadjmt,,,Cockerton Library,,,,Cockerton Library,,Woodland Road,,,,I,,SE,E0036660,Cockerton,Darlington,,,,,,0,UKOS,427435,515431,-1.577547,54.533426,BCT,MKD,OTH,,,,015,2005-09-09T00:00:00.000,2018-06-25T10:20:57.409,4,revise,active
07605126,dloadjmw,,,Cockerton Police Station,,,,Cockerton Police Station,,Willow Road,,,,I,,E,E0036660,Cockerton,Darlington,,,,,,0,UKOS,427463,515562,-1.577102,54.534602,BCT,MKD,OTH,,,,015,2005-08-24T00:00:00.000,2013-09-25T14:09:33.000,4,revise,active
07605127,dloadjpa,,,Cockerton Police Station,,,,Cockerton Police Station,,Willow Road,,,,O,,W,E0036660,Cockerton,Darlington,,,,,,0,UKOS,427405,515552,-1.577999,54.534515,BCT,MKD,OTH,,,,015,2005-08-24T00:00:00.000,2013-09-25T14:09:17.000,5,revise,active
07605128,dloadjpd,,,Holmlands Road,,,,Holmlands Road,,Willow Road,,,,O,,W,N0076137,The Denes,Darlington,,,,,,0,UKOS,427632,515532,-1.574493,54.534323,BCT,MKD,OTH,,,,015,2005-08-24T00:00:00.000,2011-09-08T00:00:00.000,3,revise,active
07605129,dloadjpg,,,Holmlands Road,,,,Holmlands Road,,Willow Road,,,,I,,E,N0076137,The Denes,Darlington,,,,,,0,UKOS,427687,515550,-1.573641,54.534482,BCT,MKD,OTH,,,,015,2005-08-24T00:00:00.000,2011-09-08T00:00:00.000,3,revise,active
07605130,dloadjpj,,,Prospect Place,,,,Kings Centre,,Whessoe Road,,,,O,,N,E0036690,Rise Carr,Darlington,,,,,,1,UKOS,428656,516383,-1.558586,54.541914,BCT,MKD,OTH,,,,015,2005-09-01T00:00:00.000,2021-12-08T10:02:13.609,4,revise,inactive
07605131,dloadjpm,,,Elmtree Street,,,,St George's Bridge Centre,,Whessoe Road,,,,I,,SE,E0036690,Rise Carr,Darlington,,,,,,0,UKOS,428611,516561,-1.559265,54.543516,BCT,MKD,OTH,,,,015,2005-09-01T00:00:00.000,2011-09-08T00:00:00.000,3,revise,active
07605132,dloadjpt,,,Elmtree Street,,,,St George's Bridge Centre,,Whessoe Road,,,,O,,N,E0036690,Rise Carr,Darlington,,,,,,0,UKOS,428575,516626,-1.559815,54.544094,BCT,MKD,OTH,,,,015,2005-09-01T00:00:00.000,2009-08-06T08:30:00.000,1,revise,active
07605133,dloadjpw,,,North Park,,,,North Park,,Whessoe Road,,,,O,,N,E0036669,Harrowgate Hill,Darlington,,,,,,0,UKOS,428567,516696,-1.559932,54.544732,BCT,MKD,OTH,,,,015,2005-09-01T00:00:00.000,2021-12-07T13:47:06.790,4,revise,inactive
07605134,dloadjta,,,North Park,,,,North Park House,,Longfield Road,,,,I,,SW,E0036669,Harrowgate Hill,Darlington,,,,,,0,UKOS,428616,516770,-1.559167,54.545394,BCT,MKD,OTH,,,,015,2005-09-16T00:00:00.000,2021-12-07T13:47:25.024,3,revise,inactive
07605135,dloadjtd,,,Percy Road,,,,Harrowgate Hill Primary School,,Longfield Road,,,,I,,SW,E0036669,Harrowgate Hill,Darlington,,,,,,0,UKOS,428698,516824,-1.557894,54.545875,BCT,MKD,OTH,,,,015,2005-09-01T00:00:00.000,2009-08-06T08:30:00.000,2,revise,active
07605136,dloadjtg,,,Ridgeway,,,,Ridgeway,,Longfield Road,,,,O,,NE,E0036669,Harrowgate Hill,Darlington,,,,,,0,UKOS,428791,516908,-1.556449,54.546616,BCT,MKD,OTH,,,,015,2005-09-01T00:00:00.000,2009-08-06T08:30:00.000,2,revise,active
07605137,dloadjtj,,,Longfield Academy,,,,Longfield Academy,,Longfield Road,,,,O,,NE,E0036669,Harrowgate Hill,Darlington,,,,,,0,UKOS,428984,517033,-1.553453,54.547737,BCT,MKD,OTH,,,,015,2005-09-01T00:00:00.000,2018-06-18T12:49:14.260,5,revise,active
07605138,dloadjtm,,,Longfield Academy,,,,Longfield Academy,,Longfield Road,,,,I,,SW,E0036669,Harrowgate Hill,Darlington,,,,,,0,UKOS,428956,517001,-1.553889,54.547451,BCT,MKD,OTH,,,,015,2005-09-01T00:00:00.000,2018-06-18T12:48:57.622,5,revise,active
07605139,dloadjtp,,,Vaughan Street,,,,DSRM Social Club,,Longfield Road,,,,O,,NE,E0036669,Harrowgate Hill,Darlington,,,,,,0,UKOS,429105,517116,-1.551574,54.548476,BCT,MKD,OTH,,,,015,2005-09-01T00:00:00.000,2009-08-06T08:30:00.000,2,revise,active
07605140,dloadjtw,,,Vaughan Street,,,,DSRM Social Club,,Longfield Road,,,,I,,SW,E0036669,Harrowgate Hill,Darlington,,,,,,0,UKOS,429136,517120,-1.551095,54.54851,BCT,MKD,OTH,,,,015,2005-09-01T00:00:00.000,2009-08-06T08:30:00.000,2,revise,active
07605142,dloadjwd,,,Nurseries,,,,Beaumont Hill Nurseries,,Beaumont Hill,,,,O,,N,E0036655,Beaumont Hill,Darlington,,,,,,0,UKOS,429259,518382,-1.549068,54.559844,BCT,MKD,OTH,,,,015,2005-09-07T00:00:00.000,2018-05-09T17:44:40.230,3,revise,active
07605143,dloadjwg,,,Nurseries,,,,Beaumont Hill Nurseries,,Beaumont Hill,,,,I,,S,E0036655,Beaumont Hill,Darlington,,,,,,0,UKOS,429272,518360,-1.548869,54.559637,BCT,MKD,OTH,,,,015,2005-09-07T00:00:00.000,2018-05-09T17:44:51.830,4,revise,active
07605144,dloadjwj,,,Whessoe Parish Hall,,,,Whessoe Parish Hall,,Beaumont Hill,,,,I,,S,E0036655,Beaumont Hill,Darlington,,,,,,0,UKOS,429308,517938,-1.548355,54.555851,BCT,MKD,OTH,,,,015,2005-09-07T00:00:00.000,2013-12-05T16:42:15.000,3,revise,active
07605145,dloadjwm,,,Whessoe Parish Hall,,,,Whessoe Parish Hall,,Beaumont Hill,,,,O,,N,E0036655,Beaumont Hill,Darlington,,,,,,0,UKOS,429306,517876,-1.548392,54.555294,BCT,MKD,OTH,,,,015,2005-09-01T00:00:00.000,2013-12-05T16:42:57.000,3,revise,active
07605146,dloadjwp,,,Hayle Court,,,,Hayle Court,,Camborne Drive,,,,I,,E,N0076124,Harrowgate Farm,Darlington,,,,,,1,UKOS,429070,517835,-1.552045,54.554939,BCT,MKD,OTH,,,,015,2005-09-01T00:00:00.000,2009-12-14T08:30:00.000,3,revise,active
07605147,dloadjwt,,,Roberts Walk,,,,Roberts Walk,,Hundens Lane,,,,O,,N,N0078628,Hundens Lane,Darlington,,,,,,0,UKOS,429982,514409,-1.538292,54.524098,BCT,MKD,OTH,,,,015,2005-09-02T00:00:00.000,2009-08-13T08:30:00.000,2,revise,active
07605148,dloadmad,,,Larkspur Drive,,,,NHS Rehabilitation Centre,,Hundens Lane,,,,I,,S,N0078628,Hundens Lane,Darlington,,,,,,0,UKOS,430014,514510,-1.537787,54.525004,BCT,MKD,OTH,,,,015,2005-09-02T00:00:00.000,2009-08-13T08:30:00.000,2,revise,active
07605149,dloadmag,,,Larkspur Drive,,,,NHS Rehabilitation Centre,,Hundens Lane,,,,O,,NE,N0078628,Hundens Lane,Darlington,,,,,,0,UKOS,430005,514533,-1.537924,54.525211,BCT,MKD,OTH,,,,015,2005-09-02T00:00:00.000,2009-08-13T08:30:00.000,2,revise,active
07605150,dloadmaj,,,Hundens Park,,,,Hundens Park Care Home,,Hundens Lane,,,,O,,NE,N0078628,Hundens Lane,Darlington,,,,,,1,UKOS,430100,514888,-1.53642,54.528396,BCT,MKD,OTH,,,,015,2005-09-02T00:00:00.000,2009-08-13T08:30:00.000,2,revise,active
07605151,dloadmam,,,Hundens Park,,,,Hundens Park,,Hundens Lane,,,,I,,SW,N0078628,Hundens Lane,Darlington,,,,,,0,UKOS,430102,514857,-1.536392,54.528117,BCT,MKD,OTH,,,,015,2005-09-02T00:00:00.000,2009-08-13T08:30:00.000,2,revise,active
07605152,dloadmap,,,Byron Road,,,,Byron Road,,Hundens Lane,,,,I,,SE,N0078628,Hundens Lane,Darlington,,,,,,0,UKOS,430093,515029,-1.536514,54.529655,BCT,MKD,OTH,,,,015,2005-09-02T00:00:00.000,2009-08-13T08:30:00.000,2,revise,active
07605153,dloadmat,,,Byron Road,,,,Byron Road,,Hundens Lane,,,,O,,NW,N0078628,Hundens Lane,Darlington,,,,,,0,UKOS,430063,515048,-1.536975,54.529836,BCT,MKD,OTH,,,,015,2005-09-02T00:00:00.000,2009-08-13T08:30:00.000,2,revise,active
07605154,dloadmaw,,,Haughton Road,,,,Haughton Road,,Hundens Lane,,,,O,,NW,N0078628,Hundens Lane,Darlington,,,,,,0,UKOS,429935,515220,-1.538936,54.531389,BCT,MKD,OTH,,,,015,2005-09-02T00:00:00.000,2009-08-13T08:30:00.000,2,revise,active
07605155,dloadmda,,,Haughton Road,,,,Haughton Road,,Hundens Lane,,,,I,,SE,N0078628,Hundens Lane,Darlington,,,,,,0,UKOS,429938,515233,-1.538888,54.531506,BCT,MKD,OTH,,,,015,2005-09-02T00:00:00.000,2009-08-13T08:30:00.000,2,revise,active
07605156,dloadmdg,,,St James' Church,,,,The Parish Church Of St James,,Barton Street,,,,O,,N,E0036653,Albert Hill,Darlington,,,,,,0,UKOS,429970,515431,-1.538373,54.533283,BCT,MKD,OTH,,,,015,2005-09-02T00:00:00.000,2013-02-22T12:18:39.000,3,revise,active
07605157,dloadmdj,,,St James' Church,,,,The Parish Church Of St James,,Barton Street,,,,I,,S,E0036653,Albert Hill,Darlington,,,,,,0,UKOS,429981,515425,-1.538204,54.533229,BCT,MKD,OTH,,,,015,2005-09-02T00:00:00.000,2013-03-01T10:50:03.000,3,revise,active
07605158,dloadmdm,,,St William's RC Church,,,,St William's RC Church,,Barton Street,,,,I,,S,E0036653,Albert Hill,Darlington,,,,,,0,UKOS,429992,515519,-1.538024,54.534073,BCT,MKD,OTH,,,,015,2005-09-02T00:00:00.000,2013-03-01T10:50:24.000,3,revise,active
07605159,dloadmdp,,,St William's RC Church,,,,St Williams RC Church,,Barton Street,,,,O,,N,E0036653,Albert Hill,Darlington,,,,,,0,UKOS,429991,515597,-1.538032,54.534774,BCT,MKD,OTH,,,,015,2005-09-02T00:00:00.000,2018-06-01T14:43:53.138,3,revise,active
07605160,dloadmdt,,,River View Industrial Estate,,,,River View Industrial Estate,,Dodsworth Street,,,,I,,E,E0036653,Albert Hill,Darlington,,,,,,0,UKOS,429938,515734,-1.538837,54.536008,BCT,MKD,OTH,,,,015,2005-09-02T00:00:00.000,2020-05-06T16:40:22.645,3,revise,active
07605161,dloadmdw,,,Albert Hill WMC,,,,Albert Hill Wmc,,Dodsworth Street,,,,I,,E,E0036653,Albert Hill,Darlington,,,,,,0,UKOS,429787,515598,-1.541184,54.534795,BCT,MKD,OTH,,,,015,2005-09-02T00:00:00.000,2010-02-22T08:30:00.000,2,revise,active
07605162,dloadmga,,,Albert Hill WMC,,,,Albert Hill Wmc,,Dodsworth Street,,,,O,,W,E0036653,Albert Hill,Darlington,,,,,,1,UKOS,429784,515586,-1.541232,54.534687,BCT,MKD,OTH,,,,015,2005-09-02T00:00:00.000,2010-02-22T08:30:00.000,2,revise,active
07605163,dloadmgd,,,Cleveland Trading Estate,,,,Cleveland Trading Est,,Cleveland Street,,,,O,,E,E0036653,Albert Hill,Darlington,,,,,,0,UKOS,429469,515608,-1.546098,54.534903,BCT,MKD,OTH,,,,015,2005-09-02T00:00:00.000,2010-02-22T08:30:00.000,3,revise,active
07605164,dloadmgj,,,Cleveland Trading Estate,,,,Cleveland Trading Est,,Cleveland Street,,,,I,,W,E0036653,Albert Hill,Darlington,,,,,,0,UKOS,429488,515598,-1.545805,54.534812,BCT,MKD,OTH,,,,015,2005-09-02T00:00:00.000,2010-02-22T08:30:00.000,3,revise,active
07605165,dloadmgm,,,North Road,,,,Southampton Street,,Albert Road,,,,O,,W,E0036683,North Road (Darlington),Darlington,,,,,,0,UKOS,429131,515719,-1.55131,54.535916,BCT,MKD,OTH,,,,015,2005-09-02T00:00:00.000,2020-05-11T09:27:12.336,2,revise,active
07605166,dloadmgp,,,North Road,,,,Southampton Street,,ALBERT ROAD,,,,I,,SE,E0036683,North Road (Darlington),Darlington,,,,,,0,UKOS,429217,515696,-1.549984,54.535704,BCT,MKD,OTH,,,,015,2005-09-02T00:00:00.000,2020-05-11T09:27:42.818,2,revise,active
07605167,dloadmgt,,,Havelock Street,,,,Havelock Street,,Katherine Street,,,,I,,NW,E0036683,North Road (Darlington),Darlington,,,,,,0,UKOS,429137,515857,-1.551204,54.53716,BCT,MKD,OTH,,,,015,2005-09-03T00:00:00.000,2018-05-01T11:25:11.381,2,revise,inactive
07605168,dloadmgw,,,Charles Street,,,,Charles Street,,Gurney Street,,,,I,,SW,E0036683,North Road (Darlington),Darlington,,,,,,0,UKOS,429197,515919,-1.55027,54.537714,BCT,MKD,OTH,,,,015,2005-09-04T00:00:00.000,2018-05-01T11:27:16.063,3,revise,inactive
07605169,dloadmja,,,Gurney Street,,,,Gurney Street,,Henry Street,,,,I,,SE,E0036683,North Road (Darlington),Darlington,,,,,,0,UKOS,429208,516040,-1.550088,54.538792,BCT,MKD,OTH,,,,015,2005-09-06T00:00:00.000,2018-05-01T11:27:33.636,3,revise,inactive
07605170,dloadmjd,,,Morrisons,,,,Morrisons,,North Road,,,,O,,NE,E0036683,North Road (Darlington),Darlington,,,,,,1,UKOS,429038,515909,-1.552729,54.537633,BCT,MKD,TIP,,,,015,2005-08-31T00:00:00.000,2018-06-25T10:50:43.773,4,revise,active
07605171,dloadmjg,,,Morrisons,,,,Morrisons,,North Road,,,,I,,S,E0036683,North Road (Darlington),Darlington,,,,,,0,UKOS,429054,515882,-1.552484,54.537389,BCT,MKD,TIP,,,,015,2005-08-31T00:00:00.000,2018-06-25T10:50:20.954,4,revise,active
07605172,dloadmjm,,,Hopetown,,,,Darlington Club & Institute,,HIGH NORTHGATE,,,,I,,S,E0036683,North Road (Darlington),Darlington,,,,,,0,UKOS,429020,515475,-1.553049,54.533729,BCT,MKD,OTH,,,,015,2005-08-31T00:00:00.000,2024-04-17T15:02:57.883,5,revise,active
07605173,dloadmjp,,,Hopetown,,,,Darlington Club & Institute,,High Northgate,,,,O,,N,E0036683,North Road (Darlington),Darlington,,,,,,0,UKOS,429012,515484,-1.553172,54.533815,BCT,MKD,OTH,,,,015,2005-08-31T00:00:00.000,2024-04-17T15:03:14.563,5,revise,active
07605174,dloadmjt,,,Westmoreland Street,,,,St Paul's Place,,North Road,,,,O,,NE,E0036683,North Road (Darlington),Darlington,,,,,,0,UKOS,429145,516140,-1.551052,54.539703,BCT,MKD,OTH,,,,015,2005-08-31T00:00:00.000,2018-06-25T10:02:15.657,3,revise,active
07605175,dloadmjw,,,Westmoreland Street,,,,St Paul's Place,,North Road,,,,I,,SW,E0036683,North Road (Darlington),Darlington,,,,,,0,UKOS,429154,516133,-1.550914,54.539639,BCT,MKD,OTH,,,,015,2005-08-31T00:00:00.000,2018-06-25T10:02:37.826,3,revise,active
07605176,dloadmpa,,,Brougham Street,,,,Brougham Street,,North Road,,,,I,,SW,E0036683,North Road (Darlington),Darlington,,,,,,0,UKOS,429258,516337,-1.549286,54.541458,BCT,MKD,OTH,,,,015,2005-08-31T00:00:00.000,2018-06-25T09:56:27.678,3,revise,active
07605177,dloadmpd,,,Brougham Street,,,,Brougham Street,,North Road,,,,O,,NE,E0036683,North Road (Darlington),Darlington,,,,,,0,UKOS,429258,516385,-1.549281,54.541898,BCT,MKD,OTH,,,,015,2005-08-31T00:00:00.000,2009-08-06T08:30:00.000,2,revise,active
07605178,dloadmpg,,,Campion Road,,,,Campion Road,,Fitzwilliam Drive,,,,I,,W,N0078634,Northwood Park,Darlington,,,,,,0,UKOS,429488,516368,-1.545728,54.541732,BCT,MKD,OTH,,,,015,2005-09-06T00:00:00.000,2009-08-28T08:30:00.000,2,revise,active
07605179,dloadmpj,,,Campion Road,,,,Campion Road,,Fitzwilliam Drive,,,,O,,NE,N0078634,Northwood Park,Darlington,,,,,,1,UKOS,429538,516404,-1.544952,54.542044,BCT,MKD,OTH,,,,015,2005-09-06T00:00:00.000,2015-07-30T00:00:00.000,4,revise,inactive
07605180,dloadmpm,,,Cavendish Drive,,,,Cavendish Drive,,Fitzwilliam Drive,,,,I,,S,N0078634,Northwood Park,Darlington,,,,,,0,UKOS,429579,516677,-1.544291,54.544495,BCT,MKD,OTH,,,,015,2005-09-06T00:00:00.000,2011-09-08T00:00:00.000,3,revise,active
07605181,dloadmpt,,,Cavendish Drive,,,,Cavendish Drive,,Fitzwilliam Drive,,,,O,,N,N0078634,Northwood Park,Darlington,,,,,,0,UKOS,429565,516685,-1.544506,54.544576,BCT,MKD,OTH,,,,015,2005-09-06T00:00:00.000,2015-07-30T00:00:00.000,5,revise,inactive
07605182,dloadmpw,,,The Burns,,,,The Burns,,Thompson Street East,,,,O,,E,E0036669,Harrowgate Hill,Darlington,,,,,,0,UKOS,429572,516833,-1.544383,54.545897,BCT,MKD,OTH,,,,015,2005-08-31T00:00:00.000,2013-08-29T15:29:19.000,4,revise,inactive
07605185,dloadmtg,,,Thompson Street,,,,Thompson Street,,North Road,,,,I,,S,E0036669,Harrowgate Hill,Darlington,,,,,,0,UKOS,429355,516776,-1.547743,54.545406,BCT,MKD,OTH,,,,015,2005-08-31T00:00:00.000,2018-06-25T10:53:38.305,5,revise,active
07605186,dloadmtj,,,Thompson Street,,,,Thompson Street,,North Road,,,,O,,N,E0036669,Harrowgate Hill,Darlington,,,,,,0,UKOS,429335,516749,-1.548055,54.545156,BCT,MKD,OTH,,,,015,2005-08-31T00:00:00.000,2018-06-25T10:54:12.990,5,revise,active
07605187,dloadmtm,,,St Thomas Aquinas Church,,,,St Thomas Aquinas Church,,North Road,,,,I,,S,E0036683,North Road (Darlington),Darlington,,,,,,0,UKOS,429332,516649,-1.548111,54.544266,BCT,MKD,OTH,,,,015,2005-08-31T00:00:00.000,2018-06-25T10:03:00.211,4,revise,active
07605188,dloadmtp,,,St Thomas Aquinas Church,,,,St Thomas Aquinas Church,,North Road,,,,O,,N,E0036683,North Road (Darlington),Darlington,,,,,,0,UKOS,429295,516541,-1.548694,54.543289,BCT,MKD,OTH,,,,015,2005-08-31T00:00:00.000,2018-06-25T10:03:17.234,4,revise,active
07605189,dloadmtw,,,North Road,,,,St Paul's Motors,,Westmoreland Street,,,,O,,NW,E0036683,North Road (Darlington),Darlington,,,,,,0,UKOS,429105,516179,-1.551667,54.540047,BCT,MKD,OTH,,,,015,2005-09-01T00:00:00.000,2011-09-08T00:00:00.000,3,revise,active
07605190,dloadmwa,,,North Road,,,,St Paul's Motors,,Westmoreland Street,,,,I,,SE,E0036683,North Road (Darlington),Darlington,,,,,,0,UKOS,429125,516181,-1.551357,54.540072,BCT,MKD,OTH,,,,015,2005-09-01T00:00:00.000,2011-09-08T00:00:00.000,3,revise,active
07605191,dloadmwd,,,Derby Street,,,,Derby Street,,Westmoreland Street,,,,I,,SE,E0036683,North Road (Darlington),Darlington,,,,,,0,UKOS,428992,516243,-1.553407,54.540637,BCT,MKD,OTH,,,,015,2005-09-01T00:00:00.000,2011-09-08T00:00:00.000,3,revise,active
07605192,dloadmwg,,,Derby Street,,,,Derby Street,,Westmoreland Street,,,,O,,NW,E0036683,North Road (Darlington),Darlington,,,,,,0,UKOS,428946,516252,-1.554117,54.540712,BCT,MKD,OTH,,,,015,2005-09-01T00:00:00.000,2011-09-08T00:00:00.000,3,revise,active
07605193,dloadmwj,,,Hilton House,,,,Hilton House,,Westmoreland Street,,,,I,,E,E0036690,Rise Carr,Darlington,,,,,,0,UKOS,428755,516331,-1.557061,54.541441,BCT,MKD,OTH,,,,015,2005-09-01T00:00:00.000,2011-09-08T00:00:00.000,3,revise,active
07605194,dloadmwm,,,Hilton House,,,,Hilton House,,Westmoreland Street,,,,O,,W,E0036690,Rise Carr,Darlington,,,,,,0,UKOS,428722,516321,-1.557572,54.541353,BCT,MKD,OTH,,,,015,2005-09-01T00:00:00.000,2011-09-08T00:00:00.000,3,revise,active
07605195,dloadmwp,,,Ashleigh House,,,,Ashleigh House,,North Road,,,,O,,N,E0036669,Harrowgate Hill,Darlington,,,,,,0,UKOS,429350,517532,-1.547746,54.5522,BCT,MKD,OTH,,,,015,2005-09-01T00:00:00.000,2018-06-25T09:56:07.080,4,revise,active
07605196,dloadmwt,,,Ashleigh House,,,,Ashleigh House,,North Road,,,,I,,S,E0036669,Harrowgate Hill,Darlington,,,,,,0,UKOS,429369,517531,-1.547452,54.55219,BCT,MKD,OTH,,,,015,2005-09-01T00:00:00.000,2011-09-08T00:00:00.000,3,revise,active
07605197,dloadpad,,,Harrowgate Hill Roundabout,,,,Bensham Road,,North Road,,,,I,,S,E0036669,Harrowgate Hill,Darlington,,,,,,0,UKOS,429413,517214,-1.546803,54.549339,BCT,MKD,OTH,,,,015,2005-09-01T00:00:00.000,2011-09-08T00:00:00.000,3,revise,active
07605198,,,,Harrowgate Hill Terminus,,,,Harrowgate Hill Roundabout,,Longfield Road,,,,O,,NE,E0036669,Harrowgate Hill,Darlington,,,,,,1,UKOS,429395,517330,-1.54707,54.550382,BCT,MKD,TIP,,,,015,2005-09-01T00:00:00.000,2024-12-03T11:36:42.118,7,revise,active
07605199,dloadpaj,,,Harrowgate Hill Roundabout,,,,Bensham Road,,North Road,,,,O,,N,E0036669,Harrowgate Hill,Darlington,,,,,,1,UKOS,429407,517251,-1.546892,54.549663,BCT,MKD,TIP,,,,015,2005-09-16T00:00:00.000,2011-09-08T00:00:00.000,3,revise,active
07605200,dloadpam,,,Lowson Street,,,,Lowson Street,,North Road,,,,O,,N,E0036669,Harrowgate Hill,Darlington,,,,,,0,UKOS,429382,517106,-1.547293,54.54837,BCT,MKD,OTH,,,,015,2005-09-01T00:00:00.000,2011-09-08T00:00:00.000,3,revise,active
07605201,dloadpap,,,Lowson Street,,,,Lowson Street,,North Road,,,,I,,S,E0036669,Harrowgate Hill,Darlington,,,,,,0,UKOS,429383,517023,-1.547286,54.547624,BCT,MKD,OTH,,,,015,2005-09-01T00:00:00.000,2015-05-20T10:41:58.000,4,revise,active
07605202,dloadpat,,,Elmcroft,,,,Elmcroft,,Salters Lane North,,,,I,,W,E0036669,Harrowgate Hill,Darlington,,,,,,0,UKOS,429549,517350,-1.544687,54.550553,BCT,MKD,OTH,,,,015,2005-09-01T00:00:00.000,2011-09-08T00:00:00.000,3,revise,active
07605203,dloadpaw,,,Elmcroft,,,,Elmcroft,,Salters Lane North,,,,O,,E,E0036669,Harrowgate Hill,Darlington,,,,,,0,UKOS,429565,517360,-1.544439,54.550642,BCT,MKD,OTH,,,,015,2005-09-01T00:00:00.000,2011-09-08T00:00:00.000,3,revise,active
07605204,dloadpda,,,Mistral Drive,,,,Davison Road,,Salters Lane North,,,,I,,NW,E0036669,Harrowgate Hill,Darlington,,,,,,0,UKOS,429724,517280,-1.541989,54.549914,BCT,MKD,OTH,,,,015,2005-09-01T00:00:00.000,2011-09-08T00:00:00.000,3,revise,active
07605205,dloadpdg,,,Mistral Drive,,,,Davison Road,,Salters Lane North,,,,O,,SE,E0036669,Harrowgate Hill,Darlington,,,,,,0,UKOS,429786,517264,-1.541032,54.549758,BCT,MKD,OTH,,,,015,2005-09-01T00:00:00.000,2011-09-08T00:00:00.000,3,revise,active
07605206,dloadpdj,,,Monarch Green,,,,Monarch Green,,Salters Lane North,,,,I,,NW,E0036669,Harrowgate Hill,Darlington,,,,,,0,UKOS,429949,517113,-1.538527,54.5484,BCT,MKD,OTH,,,,015,2005-09-01T00:00:00.000,2011-09-08T00:00:00.000,3,revise,active
07605207,dloadpdm,,,Monarch Green,,,,Monarch Green,,Salters Lane North,,,,O,,SE,E0036669,Harrowgate Hill,Darlington,,,,,,0,UKOS,430030,517056,-1.537281,54.547883,BCT,MKD,OTH,,,,015,2005-09-01T00:00:00.000,2011-09-08T00:00:00.000,3,revise,active
07605208,dloadpdp,,,Kingsway,,,,Kingsway,,Salters Lane North,,,,I,,NW,E0036669,Harrowgate Hill,Darlington,,,,,,0,UKOS,430144,516944,-1.53553,54.546861,BCT,MKD,OTH,,,,015,2005-09-01T00:00:00.000,2011-09-08T00:00:00.000,3,revise,active
07605209,dloadpdt,,,Locomotive Street,,,,Salvation Army Citadel,,Thompson Street East,,,,I,,W,E0036692,Springfield,Darlington,,,,,,0,UKOS,430132,516836,-1.535727,54.5459,BCT,MKD,OTH,,,,015,2005-08-31T00:00:00.000,2013-02-26T10:18:36.000,4,revise,active
07605210,dloadpdw,,,Danby Court,,,,Danby Court,,Wylam Avenue,,,,I,,S,E0036692,Springfield,Darlington,,,,,,0,UKOS,430002,516469,-1.537774,54.542601,BCT,MKD,OTH,,,,015,2005-09-06T00:00:00.000,2013-03-04T12:43:01.000,4,revise,active
07605211,dloadpga,,,St Bede's RC School,,,,Kingsway,,Thompson Street East,,,,O,,E,E0036692,Springfield,Darlington,,,,,,0,UKOS,429999,516826,-1.537784,54.545818,BCT,MKD,OTH,,,,015,2005-08-31T00:00:00.000,2015-07-30T00:00:00.000,7,revise,inactive
07605212,dloadpgd,,,St Bede's RC School,,,,Kingsway,,Thompson Street East,,,,I,,W,E0036692,Springfield,Darlington,,,,,,0,UKOS,429935,516818,-1.538774,54.545741,BCT,MKD,OTH,,,,015,2005-08-31T00:00:00.000,2015-07-30T00:00:00.000,7,revise,inactive
07605213,dloadpgj,,,Davison Road,,,,Davison Road,,Thompson Street East,,,,O,,E,E0036669,Harrowgate Hill,Darlington,,,,,,0,UKOS,429699,516831,-1.54242,54.54588,BCT,MKD,OTH,,,,015,2005-08-31T00:00:00.000,2015-07-30T00:00:00.000,5,revise,inactive
07605214,dloadpgm,,,Davison Road,,,,Davison Road,,Thompson Street East,,,,I,,W,E0036669,Harrowgate Hill,Darlington,,,,,,0,UKOS,429642,516819,-1.543303,54.545776,BCT,MKD,OTH,,,,015,2005-08-31T00:00:00.000,2015-07-30T00:00:00.000,5,revise,inactive
07605215,dloadpgp,,,Asda,,,,Asda,,Whinbush Way,,,,O,,N,N0076141,Whinfield,Darlington,,,,,,0,UKOS,430826,516846,-1.524998,54.545948,BCT,MKD,OTH,,,,015,2005-09-01T00:00:00.000,2018-06-25T10:19:13.808,6,revise,active
07605216,dloadpgt,,,Asda,,,,Asda,,Whinbush Way,,,,I,,S,N0076141,Whinfield,Darlington,,,,,,1,UKOS,430843,516805,-1.52474,54.54557,BCT,MKD,OTH,,,,015,2005-09-01T00:00:00.000,2018-06-25T10:19:32.944,4,revise,active
07605217,dloadpgw,,,Gleneagles Road,,,,Gleneagles Road,,Whinbush Way,,,,O,,NE,N0076141,Whinfield,Darlington,,,,,,0,UKOS,430921,517050,-1.523508,54.547767,BCT,MKD,OTH,,,,015,2005-09-01T00:00:00.000,2012-06-03T00:00:00.000,5,revise,active
07605218,dloadpja,,,Gleneagles Road,,,,Gleneagles Road,,Whinbush Way,,,,I,,SW,N0076141,Whinfield,Darlington,,,,,,0,UKOS,430980,517083,-1.522593,54.54806,BCT,MKD,OTH,,,,015,2005-09-01T00:00:00.000,2011-09-08T00:00:00.000,3,revise,active
07605219,dloadpjd,,,Caledonian Way,,,,Caledonian Way,,Whinbush Way,,,,O,,NE,N0076141,Whinfield,Darlington,,,,,,0,UKOS,431137,517177,-1.520156,54.548895,BCT,MKD,OTH,,,,015,2005-09-01T00:00:00.000,2012-06-03T00:00:00.000,5,revise,active
07605220,dloadpjg,,,Caledonian Way,,,,Caledonian Way,,Whinbush Way,,,,I,,SW,N0076141,Whinfield,Darlington,,,,,,0,UKOS,431168,517182,-1.519676,54.548938,BCT,MKD,OTH,,,,015,2005-09-01T00:00:00.000,2011-09-08T00:00:00.000,3,revise,active
07605221,dloadpjm,,,Rossway,,,,Rossway,,WHINBUSH WAY,,,,O,,E,N0076141,Whinfield,Darlington,,,,,,0,UKOS,431295,517252,-1.517704,54.549561,BCT,MKD,OTH,,,,015,2005-09-01T00:00:00.000,2020-05-11T09:29:07.156,6,revise,active
07605222,dloadpjp,,,Barmpton Mews,,,,Barmpton Mews,,Barmpton Lane,,,,O,,N,N0076141,Whinfield,Darlington,,,,,,0,UKOS,431478,517217,-1.51488,54.549242,BCT,MKD,OTH,,,,015,2005-09-01T00:00:00.000,2011-09-08T00:00:00.000,3,revise,active
07605223,dloadpjt,,,Torrance Drive,,,,Torrance Drive,,Barmpton Lane,,,,O,,N,N0076141,Whinfield,Darlington,,,,,,0,UKOS,431488,517088,-1.514739,54.548082,BCT,MKD,OTH,,,,015,2005-09-01T00:00:00.000,2011-09-08T00:00:00.000,3,revise,active
07605224,dloadpjw,,,Torrance Drive,,,,Torrance Drive,,Barmpton Lane,,,,I,,S,N0076141,Whinfield,Darlington,,,,,,0,UKOS,431499,517096,-1.514569,54.548145,BCT,MKD,OTH,,,,015,2005-09-01T00:00:00.000,2012-06-03T00:00:00.000,5,revise,active
07605225,dloadpma,,,Beech Road,,,,Beech Road,,Barmpton Lane,,,,I,,S,N0076141,Whinfield,Darlington,,,,,,0,UKOS,431434,516808,-1.515604,54.545569,BCT,MKD,OTH,,,,015,2005-09-01T00:00:00.000,2012-06-03T00:00:00.000,5,revise,active
07605226,dloadpmd,,,Beech Road,,,,Beech Road,,Barmpton Lane,,,,O,,N,N0076141,Whinfield,Darlington,,,,,,0,UKOS,431429,516861,-1.515676,54.546046,BCT,MKD,OTH,,,,015,2005-09-01T00:00:00.000,2011-09-08T00:00:00.000,3,revise,active
07605227,dloadpmg,,,Rivergarth,,,,Rivergarth,,Barmpton Lane,,,,I,,S,N0076141,Whinfield,Darlington,,,,,,0,UKOS,431492,516514,-1.514739,54.542915,BCT,MKD,OTH,,,,015,2005-09-01T00:00:00.000,2012-06-03T00:00:00.000,5,revise,active
07605228,dloadpmj,,,Welbeck Avenue,,,,Welbeck Avenue,,Whinfield Road,,,,O,,E,N0076141,Whinfield,Darlington,,,,,,0,UKOS,431380,516468,-1.516475,54.542517,BCT,MKD,OTH,,,,015,2005-09-02T00:00:00.000,2011-09-08T00:00:00.000,3,revise,active
07605229,dloadpmp,,,Jesmond Road,,,,Jesmond Road,,Whinfield Road,,,,O,,SE,N0076141,Whinfield,Darlington,,,,,,0,UKOS,431172,516527,-1.519683,54.54306,BCT,MKD,OTH,,,,015,2005-09-02T00:00:00.000,2011-09-08T00:00:00.000,3,revise,active
07605230,dloadpmt,,,Glamis Road,,,,Glamis Road,,Whinfield Road,,,,I,,NW,N0076141,Whinfield,Darlington,,,,,,0,UKOS,430659,516754,-1.527589,54.545131,BCT,MKD,OTH,,,,015,2005-09-01T00:00:00.000,2011-09-08T00:00:00.000,3,revise,active
07605231,dloadpmw,,,Glamis Road,,,,Glamis Road,,Whinfield Road,,,,O,,SE,N0076141,Whinfield,Darlington,,,,,,0,UKOS,430595,516795,-1.528574,54.545495,BCT,MKD,OTH,,,,015,2005-09-01T00:00:00.000,2011-09-08T00:00:00.000,3,revise,active
07605232,dloadpta,,,The Springfield,,,,The Springfield,,Whinfield Road,,,,I,,NW,E0036692,Springfield,Darlington,,,,,,0,UKOS,430438,516812,-1.530999,54.545666,BCT,MKD,OTH,,,,015,2005-09-01T00:00:00.000,2011-09-08T00:00:00.000,3,revise,active
07605233,dloadptd,,,The Springfield,,,,The Springfield,,Whinfield Road,,,,O,,SE,E0036692,Springfield,Darlington,,,,,,0,UKOS,430373,516859,-1.531999,54.546092,BCT,MKD,OTH,,,,015,2005-09-01T00:00:00.000,2011-09-08T00:00:00.000,3,revise,active
07605235,dloadptj,,,Salters Close,,,,Salters Close,,Salters Lane South,,,,O,,NW,E0036692,Springfield,Darlington,,,,,,0,UKOS,430415,516678,-1.531369,54.544463,BCT,MKD,OTH,,,,015,2005-09-02T00:00:00.000,2011-09-08T00:00:00.000,3,revise,active
07605236,dloadptm,,,Nightingale Avenue,,,,Education Village,,Salters Lane South,,,,O,,NW,E0036692,Springfield,Darlington,,,,,,0,UKOS,430560,516458,-1.52915,54.542477,BCT,MKD,OTH,,,,015,2005-09-02T00:00:00.000,2013-07-11T14:02:19.000,4,revise,active
07605237,dloadptp,,,Springwell Terrace,,,,Ted Fletcher Court,,Salters Lane South,,,,I,,SE,E0036671,Haughton le Skerne,Darlington,,,,,,0,UKOS,430665,516050,-1.52757,54.538796,BCT,MKD,OTH,,,,015,2005-09-02T00:00:00.000,2013-07-11T14:02:01.000,6,revise,active
07605238,dloadptw,,,St Andrew's Church,,,,St Andrew's Church,,Salters Lane South,,,,I,,E,E0036671,Haughton le Skerne,Darlington,,,,,,0,UKOS,430854,515911,-1.524663,54.537544,BCT,MKD,OTH,,,,015,2005-09-02T00:00:00.000,2011-09-08T00:00:00.000,3,revise,active
07605239,dloadpwa,,,St Andrew's Church,,,,St Andrew's Church,,Salters Lane South,,,,O,,W,E0036671,Haughton le Skerne,Darlington,,,,,,0,UKOS,430830,515901,-1.525035,54.537447,BCT,MKD,OTH,,,,015,2005-09-02T00:00:00.000,2011-09-08T00:00:00.000,3,revise,active
07605240,dloadpwd,,,Winchester Way,,,,Winchester Way,,Stockton Road,,,,O,,NE,E0036671,Haughton le Skerne,Darlington,,,,,,0,UKOS,431448,516390,-1.515432,54.541812,BCT,MKD,OTH,,,,015,2005-09-02T00:00:00.000,2011-09-08T00:00:00.000,3,revise,active
07605241,dloadpwg,,,Winchester Way,,,,Winchester Way,,Stockton Road,,,,I,,SW,E0036671,Haughton le Skerne,Darlington,,,,,,0,UKOS,431431,516329,-1.515701,54.541265,BCT,MKD,OTH,,,,015,2005-09-02T00:00:00.000,2011-09-08T00:00:00.000,3,revise,active
07605242,dloadpwj,,,Haughton Village Nursing Home,,,,Haughton Village Nursing Home,,Stockton Road,,,,O,,NE,E0036671,Haughton le Skerne,Darlington,,,,,,0,UKOS,431245,516094,-1.518601,54.539156,BCT,MKD,OTH,,,,015,2005-09-02T00:00:00.000,2011-09-08T00:00:00.000,3,revise,active
07605243,dloadpwm,,,Haughton Village Nursing Home,,,,Haughton Village Nursing Home,,Stockton Road,,,,I,,SW,E0036671,Haughton le Skerne,Darlington,,,,,,0,UKOS,431227,516051,-1.518884,54.538779,BCT,MKD,OTH,,,,015,2005-09-02T00:00:00.000,2011-09-08T00:00:00.000,3,revise,active
07605244,dloadpwp,,,The Grey Horse,,,,The Grey Horse,,Haughton Green,,,,O,,E,E0036671,Haughton le Skerne,Darlington,,,,,,1,UKOS,431090,515957,-1.521011,54.537943,BCT,MKD,OTH,,,,015,2005-09-02T00:00:00.000,2018-09-13T14:22:27.836,4,revise,inactive
07605245,dloadpwt,,,The Green,,,,The Grey Horse,,Haughton Green,,,,I,,SW,E0036671,Haughton le Skerne,Darlington,,,,,,0,UKOS,431054,515935,-1.52157,54.537739,BCT,MKD,OTH,,,,015,2005-09-02T00:00:00.000,2018-09-13T14:06:35.472,4,revise,active
07605246,dloadtad,,,St Andrews Close,,,,St Andrews Close,,Haughton Green,,,,I,,SW,E0036671,Haughton le Skerne,Darlington,,,,,,0,UKOS,430952,515910,-1.523149,54.537529,BCT,MKD,OTH,,,,015,2005-09-02T00:00:00.000,2011-09-08T00:00:00.000,3,revise,inactive
07605247,dloadtag,,,Salters Lane South,,,,St Andrews Close,,Haughton Green,,,,O,,E,E0036671,Haughton le Skerne,Darlington,,,,,,0,UKOS,430932,515925,-1.523456,54.537665,BCT,MKD,OTH,,,,015,2005-09-02T00:00:00.000,2018-09-13T14:22:09.037,4,revise,inactive
07605248,dloadtaj,,,McMullen Road,,,,Haughton Bridge,,Haughton Road,,,,O,,NE,N0078627,Haughton Road,Darlington,,,,,,0,UKOS,430687,515721,-1.527264,54.535838,BCT,MKD,OTH,,,,015,2005-09-02T00:00:00.000,2011-09-08T00:00:00.000,3,revise,active
07605249,dloadtam,,,McMullen Road,,,,Haughton Bridge,,Haughton Road,,,,I,,SW,N0078627,Haughton Road,Darlington,,,,,,0,UKOS,430705,515715,-1.526986,54.535783,BCT,MKD,OTH,,,,015,2005-09-02T00:00:00.000,2011-09-08T00:00:00.000,3,revise,active
07605250,dloadtap,,,Blackett Road,,,,Blackett Road,,Haughton Road,,,,I,,W,N0078627,Haughton Road,Darlington,,,,,,0,UKOS,430576,515626,-1.528989,54.534991,BCT,MKD,OTH,,,,015,2005-09-02T00:00:00.000,2011-09-08T00:00:00.000,3,revise,active
07605251,dloadtat,,,Blackett Road,,,,Blackett Road,,Haughton Road,,,,O,,E,N0078627,Haughton Road,Darlington,,,,,,0,UKOS,430539,515627,-1.52956,54.535011,BCT,MKD,OTH,,,,015,2005-09-02T00:00:00.000,2011-09-08T00:00:00.000,3,revise,active
07605252,dloadtaw,,,Alexander Street,,,,Alexander Street,,Haughton Road,,,,O,,NE,N0078627,Haughton Road,Darlington,,,,,,0,UKOS,430244,515515,-1.534131,54.534022,BCT,MKD,OTH,,,,015,2005-09-02T00:00:00.000,2011-09-08T00:00:00.000,3,revise,active
07605253,dloadtda,,,Alexander Street,,,,Alexander Street,,Haughton Road,,,,I,,SW,N0078627,Haughton Road,Darlington,,,,,,0,UKOS,430221,515489,-1.534489,54.53379,BCT,MKD,OTH,,,,015,2005-09-02T00:00:00.000,2011-09-08T00:00:00.000,3,revise,active
07605254,dloadtdg,,,Westgarth Terrace,,,,Westgarth Terrace,,HAUGHTON ROAD,,,,O,,NE,N0078627,Haughton Road,Darlington,,,,,,0,UKOS,430098,515427,-1.536389,54.53324,BCT,MKD,OTH,,,,015,2005-09-02T00:00:00.000,2019-04-09T15:25:24.206,5,revise,active
07605255,dloadtdj,,,Westgarth Terrace,,,,Westgarth Terrace,,Haughton Road,,,,I,,SW,N0078627,Haughton Road,Darlington,,,,,,0,UKOS,430030,515359,-1.537454,54.532633,BCT,MKD,OTH,,,,015,2005-09-02T00:00:00.000,2011-09-08T00:00:00.000,3,revise,active
07605256,dloadtdm,,,Darlington College,,,,Darlington College,,Haughton Road,,,,O,,NE,N0078627,Haughton Road,Darlington,,,,,,0,UKOS,429863,515249,-1.540045,54.531654,BCT,MKD,OTH,,,,015,2005-09-02T00:00:00.000,2018-06-25T11:37:05.858,4,revise,active
07605257,dloadtdp,,,Darlington College,,,,Darlington College,,Haughton Road,,,,I,,SW,N0078627,Haughton Road,Darlington,,,,,,1,UKOS,429753,515169,-1.541753,54.530933,BCT,MKD,OTH,,,,015,2005-09-02T00:00:00.000,2018-06-25T11:23:46.259,3,revise,active
07605258,dloadtdt,,,East Mount Road,,,,Eastmount Road,,Haughton Road,,,,I,,SW,N0078627,Haughton Road,Darlington,,,,,,0,UKOS,429551,515013,-1.54489,54.529543,BCT,MKD,OTH,,,,015,2005-09-02T00:00:00.000,2018-05-11T13:00:45.861,4,revise,active
07605259,dloadtdw,,,East Mount Road,,,,East Mount Road,,Haughton Road,,,,O,,NE,N0078627,Haughton Road,Darlington,,,,,,0,UKOS,429549,515033,-1.544919,54.529731,BCT,MKD,OTH,,,,015,2005-09-02T00:00:00.000,2015-01-08T14:40:33.000,4,revise,active
07605260,dloadtga,,,Bannatyne's Health Club,,,,Bannatyne's Health Club,,Haughton Road,,,,O,,NE,N0078627,Haughton Road,Darlington,,,,,,0,UKOS,429417,514911,-1.546971,54.528634,BCT,MKD,OTH,,,,015,2005-09-02T00:00:00.000,2011-09-08T00:00:00.000,3,revise,active
07605261,dloadtgd,,,Bannatyne's Health Club,,,,Bannatyne's Health Club,,Haughton Road,,,,I,,SW,N0078627,Haughton Road,Darlington,,,,,,0,UKOS,429415,514885,-1.547004,54.528409,BCT,MKD,OTH,,,,015,2005-09-02T00:00:00.000,2011-09-08T00:00:00.000,4,revise,active
07605262,dloadtgj,,,Coburg Street,,,,Halfords car park,,Freeman's Place,,,,I,,SW,N0078627,Haughton Road,Darlington,,,,,,0,UKOS,429290,514730,-1.548951,54.527023,BCT,MKD,OTH,,,,015,2005-09-02T00:00:00.000,2013-03-05T14:18:38.000,4,revise,active
07605263,dloadtgm,,,Leisure,,,,Town Hall,,Feethams,,,,I,,N,E0054904,Darlington,,,,,,,0,UKOS,428980,514274,-1.553785,54.522943,BCT,MKD,TIP,,,,015,2005-09-06T00:00:00.000,2009-12-17T08:30:00.000,2,revise,active
07605265,dloadtgt,,,Park Street,,,,Park Street,,Victoria Road,,,,O,,E,E0036654,Bank Top,Darlington,,,,,,0,UKOS,429163,514114,-1.550974,54.521495,BCT,MKD,OTH,,,,015,2005-09-06T00:00:00.000,2011-09-08T00:00:00.000,3,revise,active
07605266,dloadtgw,,,Park Street,,,,Park Street,,Victoria Road,,,,I,,W,E0036654,Bank Top,Darlington,,,,,,0,UKOS,429185,514101,-1.550635,54.521377,BCT,MKD,OTH,,,,015,2005-09-06T00:00:00.000,2021-02-03T12:32:21.155,4,revise,inactive
07605267,dloadtja,,,Darlington Rail Station,,,,Darlington Station,,Victoria Road,,,,I,,W,E0036654,Bank Top,Darlington,,,,,,0,UKOS,429348,514073,-1.54812,54.521116,BCT,MKD,OTH,,,,015,2005-09-06T00:00:00.000,2018-06-18T12:22:38.446,6,revise,active
07605268,dloadtjd,,,Darlington Rail Station,,,,Darlington Station,,Park Lane,,,,O,,S,E0036654,Bank Top,Darlington,,,,,,0,UKOS,429381,514031,-1.547614,54.520728,BCT,MKD,OTH,,,,015,2005-09-06T00:00:00.000,2020-01-14T16:10:39.923,8,revise,active
07605271,dloadtjm,,,Darlington Rail Station Main Entrance,,,,Darlington Railway Station,,Parkgate,,,,O,,SE,E0054904,Darlington,,,,,,,0,UKOS,429480,514363,-1.546052,54.523714,BCT,MKD,OTH,,,,015,2005-09-06T00:00:00.000,2020-01-15T10:50:22.744,9,revise,active
07605272,dloadtjp,,,Darlington Rail Station Main Entrance,,,,Darlington Railway Station,,Parkgate,,,,I,,NW,E0054904,Darlington,,,,,,,1,UKOS,429464,514358,-1.546299,54.52367,BCT,MKD,OTH,,,,015,2005-09-06T00:00:00.000,2020-01-15T10:50:01.257,11,revise,active
07605273,dloadtjt,,,Hippodrome,,,,Darlington Civic Theatre,,Parkgate,,,,I,,NW,E0054904,Darlington,,,,,,,0,UKOS,429346,514417,-1.548117,54.524207,BCT,MKD,OTH,,,,015,2005-09-06T00:00:00.000,2017-11-09T10:40:52.039,5,revise,active
07605274,dloadtjw,,,Hippodrome,,,,Darlington Civic Theatre,,Parkgate,,,,O,,SE,E0054904,Darlington,,,,,,,0,UKOS,429265,514459,-1.549364,54.524589,BCT,MKD,OTH,,,,015,2005-09-06T00:00:00.000,2017-11-09T10:41:10.498,5,revise,active
07605302,dloadwda,,,Cummins,,,,Cummins,,Yarm Road,,,,O,,E,E0036676,Lingfield,Darlington,,,,,,0,UKOS,431521,514082,-1.51455,54.521067,BCT,MKD,OTH,,,,015,2005-09-05T00:00:00.000,2011-09-08T00:00:00.000,4,revise,active
07605303,dloadwdg,,,Cummins,,,,Cummins,,Yarm Road,,,,I,,W,E0036676,Lingfield,Darlington,,,,,,0,UKOS,431464,514081,-1.51543,54.521061,BCT,MKD,OTH,,,,015,2005-09-05T00:00:00.000,2011-09-08T00:00:00.000,4,revise,active
07605304,dloadwdj,,,EE,,,,EE,,Yarm Road,,,,I,,W,E0036676,Lingfield,Darlington,,,,,,0,UKOS,431879,513829,-1.509047,54.518771,BCT,MKD,TIP,,,,015,2005-09-05T00:00:00.000,2013-09-20T14:05:41.000,4,revise,active
07605305,dloadwdm,,,EE,,,,EE,,Yarm Road,,,,O,,E,E0036676,Lingfield,Darlington,,,,,,0,UKOS,431807,513871,-1.510149,54.51915,BCT,MKD,TIP,,,,015,2005-09-05T00:00:00.000,2024-10-04T10:40:13.801,5,revise,active
07605306,dloajdgp,,,Morton Palms,,,,Premier Inn,,Yarm Road,,,,O,,E,N0076129,Morton Park - Darlington,Darlington,,,,,,0,UKOS,432201,513777,-1.504078,54.518283,BCT,MKD,OTH,,,,015,2006-06-06T00:00:00.000,2014-01-02T12:00:24.000,5,revise,active
07605307,dloadwdt,,,Wild Road,,,,EE,,Lingfield Way,,,,O,,N,E0036676,Lingfield,Darlington,,,,,,0,UKOS,431981,514072,-1.507445,54.520948,BCT,MKD,OTH,,,,015,2005-09-05T00:00:00.000,2015-09-02T10:36:40.000,4,revise,active
07605308,dloadwdw,,,Morton Road,,,,Morton Road,,Lingfield Way,,,,O,,N,E0036676,Lingfield,Darlington,,,,,,0,UKOS,431999,514244,-1.507148,54.522493,BCT,MKD,OTH,,,,015,2005-09-05T00:00:00.000,2015-09-02T10:33:49.000,4,revise,active
07605309,dloadwga,,,Henson Road,,,,Henson Road,,Allington Way,,,,O,,W,E0036676,Lingfield,Darlington,,,,,,0,UKOS,431912,514483,-1.508466,54.524646,BCT,MKD,OTH,,,,015,2005-09-05T00:00:00.000,2015-08-26T11:23:48.000,4,revise,active
07605310,dloadwgd,,,Kellaw Road,,,,Kellaw Road,,Allington Way,,,,O,,W,E0036676,Lingfield,Darlington,,,,,,0,UKOS,431576,514516,-1.513654,54.524963,BCT,MKD,OTH,,,,015,2005-09-05T00:00:00.000,2015-08-26T11:01:53.000,4,revise,active
07605311,dloadwgj,,,Lingfield Green,,,,Lingfield Green,,McMullen Road,,,,I,,SE,E0036676,Lingfield,Darlington,,,,,,0,UKOS,431233,514416,-1.518964,54.524086,BCT,MKD,OTH,,,,015,2005-09-05T00:00:00.000,2011-09-08T00:00:00.000,3,revise,active
07605312,dloadwgm,,,Lingfield Green,,,,Lingfield Green,,McMullen Road,,,,O,,NW,E0036676,Lingfield,Darlington,,,,,,0,UKOS,431228,514389,-1.519044,54.523844,BCT,MKD,OTH,,,,015,2005-09-05T00:00:00.000,2011-09-08T00:00:00.000,2,revise,active
07605313,dloadwgp,,,McMullen Road Roundabout,,,,McMullen Road Roundabout,,Yarm Road,,,,I,,NW,E0036662,Eastbourne,Darlington,,,,,,0,UKOS,431300,514098,-1.517962,54.521224,BCT,MKD,TIP,,,,015,2005-09-05T00:00:00.000,2014-10-07T11:12:06.000,5,revise,inactive
07605314,dloadwgt,,,McMullen Road Roundabout,,,,McMullen Road Roundabout,,Yarm Road,,,,O,,E,E0036662,Eastbourne,Darlington,,,,,,0,UKOS,431228,514144,-1.51907,54.521642,BCT,MKD,TIP,,,,015,2005-09-05T00:00:00.000,2011-09-08T00:00:00.000,3,revise,active
07605315,dloadwgw,,,St Herbert's Church,,,,St Herbert's Church,,Yarm Road,,,,I,,W,E0036662,Eastbourne,Darlington,,,,,,0,UKOS,431098,514149,-1.521077,54.521695,BCT,MKD,OTH,,,,015,2005-09-05T00:00:00.000,2011-09-08T00:00:00.000,3,revise,active
07605316,dloadwja,,,St Herbert's Church,,,,St Herbert's Church,,Yarm Road,,,,O,,E,E0036662,Eastbourne,Darlington,,,,,,0,UKOS,431066,514174,-1.521569,54.521913,BCT,MKD,OTH,,,,015,2005-09-05T00:00:00.000,2011-09-08T00:00:00.000,3,revise,active
07605317,dloadwjd,,,The Wheatsheaf,,,,The Wheatsheaf,,Yarm Road,,,,O,,E,E0036662,Eastbourne,Darlington,,,,,,0,UKOS,430916,514204,-1.523883,54.5222,BCT,MKD,OTH,,,,015,2005-09-05T00:00:00.000,2011-09-08T00:00:00.000,3,revise,active
07605318,dloadwjg,,,The Wheatsheaf,,,,The Wheatsheaf,,Yarm Road,,,,I,,W,E0036662,Eastbourne,Darlington,,,,,,0,UKOS,430823,514206,-1.52532,54.522224,BCT,MKD,OTH,,,,015,2005-09-05T00:00:00.000,2018-06-25T11:30:19.909,4,revise,active
07605319,dloadwjm,,,Yarm Road Post Office,,,,Yarm Road Post Office,,Yarm Road,,,,O,,SE,E0036662,Eastbourne,Darlington,,,,,,0,UKOS,430679,514255,-1.527539,54.522673,BCT,MKD,OTH,,,,015,2005-09-05T00:00:00.000,2011-09-08T00:00:00.000,3,revise,active
07605320,dloadwjp,,,Yarm Road Post Office,,,,Yarm Road Post Office,,Yarm Road,,,,I,,NW,E0036662,Eastbourne,Darlington,,,,,,0,UKOS,430519,514294,-1.530007,54.523033,BCT,MKD,OTH,,,,015,2005-09-05T00:00:00.000,2011-09-08T00:00:00.000,3,revise,active
07605321,dloadwjt,,,Cobden Street,,,,Cobden Street,,Yarm Road,,,,O,,E,E0036662,Eastbourne,Darlington,,,,,,0,UKOS,430408,514335,-1.531718,54.523408,BCT,MKD,OTH,,,,015,2005-09-05T00:00:00.000,2011-09-08T00:00:00.000,2,revise,active
07605322,dloadwjw,,,Cobden Street,,,,Cobden Street,,Yarm Road,,,,I,,W,E0036662,Eastbourne,Darlington,,,,,,0,UKOS,430372,514329,-1.532274,54.523356,BCT,MKD,OTH,,,,015,2005-09-05T00:00:00.000,2011-09-08T00:00:00.000,3,revise,active
07605323,dloadwma,,,Bright Street,,,,Bright Street,,Yarm Road,,,,I,,W,E0036662,Eastbourne,Darlington,,,,,,0,UKOS,430101,514313,-1.536463,54.523229,BCT,MKD,OTH,,,,015,2005-09-05T00:00:00.000,2011-09-08T00:00:00.000,3,revise,active
07605324,dloadwmd,,,Bright Street,,,,Bright Street,,Yarm Road,,,,O,,E,E0036662,Eastbourne,Darlington,,,,,,0,UKOS,430053,514326,-1.537203,54.523348,BCT,MKD,OTH,,,,015,2005-09-05T00:00:00.000,2011-09-08T00:00:00.000,3,revise,active
07605325,dloadwmg,,,Eastbourne Methodist Church,,,,Eastbourne Methodist Church,,Yarm Road,,,,I,,W,E0036662,Eastbourne,Darlington,,,,,,0,UKOS,429920,514313,-1.539259,54.523239,BCT,MKD,OTH,,,,015,2005-09-05T00:00:00.000,2011-09-08T00:00:00.000,3,revise,active
07605326,dloadwmj,,,Central Park,,,,Central Park,,YARM ROAD,,,,O,,E,E0036662,Eastbourne,Darlington,,,,,,0,UKOS,429701,514312,-1.542643,54.523239,BCT,MKD,OTH,,,,015,2005-09-05T00:00:00.000,2015-09-03T10:37:23.000,7,revise,active
07605327,dloadwmp,,,Central Park,,,,Central Park,,Yarm Road,,,,I,,W,E0036662,Eastbourne,Darlington,,,,,,0,UKOS,429741,514301,-1.542026,54.523138,BCT,MKD,OTH,,,,015,2005-09-05T00:00:00.000,2015-09-03T10:37:43.000,5,revise,active
07605328,dloadwmt,,,Badminton Close,,,,Badminton Close,,Coombe Drive,,,,I,,SE,N0076131,Red Hall,Darlington,,,,,,1,UKOS,431542,515560,-1.514068,54.534339,BCT,MKD,OTH,,,,015,2005-09-06T00:00:00.000,2011-09-08T00:00:00.000,3,revise,active
07605329,dloadwmw,,,Twickenham Rise,,,,Twickenham Rise,,Coombe Drive,,,,O,,NW,N0076131,Red Hall,Darlington,,,,,,0,UKOS,431628,515498,-1.512745,54.533785,BCT,MKD,OTH,,,,015,2005-09-06T00:00:00.000,2011-09-08T00:00:00.000,3,revise,active
07605330,dloadwpa,,,Twickenham Rise,,,,Twickenham Rise,,Coombe Drive,,,,I,,E,N0076131,Red Hall,Darlington,,,,,,0,UKOS,431669,515500,-1.512112,54.5338,BCT,MKD,OTH,,,,015,2005-09-06T00:00:00.000,2011-09-08T00:00:00.000,3,revise,active
07605331,dloadwpd,,,Aviemore Court,,,,Aviemore Court,,Coombe Drive,,,,I,,SW,N0076131,Red Hall,Darlington,,,,,,0,UKOS,431784,515414,-1.510344,54.53302,BCT,MKD,OTH,,,,015,2005-09-06T00:00:00.000,2011-09-08T00:00:00.000,3,revise,active
07605332,dloadwpg,,,Aviemore Court,,,,Aviemore Court,,Coombe Drive,,,,O,,NE,N0076131,Red Hall,Darlington,,,,,,0,UKOS,431769,515425,-1.510574,54.53312,BCT,MKD,OTH,,,,015,2005-09-06T00:00:00.000,2011-09-08T00:00:00.000,3,revise,active
07605333,dloadwpj,,,Bramall Lane,,,,Bramall Lane,,Coombe Drive,,,,O,,E,N0076131,Red Hall,Darlington,,,,,,0,UKOS,431586,515333,-1.513412,54.532305,BCT,MKD,OTH,,,,015,2005-09-06T00:00:00.000,2011-09-08T00:00:00.000,3,revise,active
07605334,dloadwpm,,,Bramall Lane,,,,Bramall Lane,,Coombe Drive,,,,I,,W,N0076131,Red Hall,Darlington,,,,,,0,UKOS,431590,515323,-1.513351,54.532215,BCT,MKD,OTH,,,,015,2005-09-06T00:00:00.000,2011-09-08T00:00:00.000,3,revise,active
07605335,dloadwpt,,,Headingley Crescent,,,,Headingley Crescent,,Coombe Drive,,,,O,,E,N0076131,Red Hall,Darlington,,,,,,0,UKOS,431284,515338,-1.518078,54.532368,BCT,MKD,OTH,,,,015,2005-09-06T00:00:00.000,2011-09-08T00:00:00.000,3,revise,active
07605336,dloadwpw,,,Headingley Crescent,,,,Headingley Crescent,,Coombe Drive,,,,I,,W,N0076131,Red Hall,Darlington,,,,,,0,UKOS,431292,515325,-1.517956,54.532251,BCT,MKD,OTH,,,,015,2005-09-06T00:00:00.000,2011-09-08T00:00:00.000,3,revise,active
07605337,dloadwta,,,Red Hall Drive,,,,Red Hall Drive,,Coombe Drive,,,,I,,W,N0076131,Red Hall,Darlington,,,,,,0,UKOS,430997,515339,-1.522513,54.532395,BCT,MKD,OTH,,,,015,2005-09-06T00:00:00.000,2011-09-08T00:00:00.000,3,revise,active
07605338,dloadwtd,,,Red Hall Drive,,,,Red Hall Drive,,Coombe Drive,,,,O,,E,N0076131,Red Hall,Darlington,,,,,,0,UKOS,431002,515349,-1.522435,54.532476,BCT,MKD,OTH,,,,015,2005-09-06T00:00:00.000,2011-09-08T00:00:00.000,3,revise,active
07605339,dloadwtg,,,Kwik Fit,,,,Kwik Fit,,McMullen Road,,,,O,,NW,E0036676,Lingfield,Darlington,,,,,,0,UKOS,431012,515081,-1.522308,54.530067,BCT,MKD,OTH,,,,015,2005-09-05T00:00:00.000,2011-09-08T00:00:00.000,3,revise,active
07605340,dloadwtj,,,Kwik Fit,,,,Kwik Fit,,McMullen Road,,,,I,,SE,E0036676,Lingfield,Darlington,,,,,,0,UKOS,431026,515057,-1.522094,54.529859,BCT,MKD,OTH,,,,015,2005-09-05T00:00:00.000,2011-09-08T00:00:00.000,3,revise,active
07605341,dloadwtm,,,Lingfield Point,,,,Lingfield Point,,McMullen Road,,,,O,,NW,E0036676,Lingfield,Darlington,,,,,,1,UKOS,431088,514812,-1.521162,54.527645,BCT,MKD,OTH,,,,015,2005-10-20T00:00:00.000,2011-09-08T00:00:00.000,3,revise,active
07605342,dloadwtp,,,Lingfield Point,,,,Lingfield Point,,McMullen Road,,,,I,,SE,E0036676,Lingfield,Darlington,,,,,,0,UKOS,431150,514669,-1.520219,54.526365,BCT,MKD,OTH,,,,015,2005-09-05T00:00:00.000,2011-09-08T00:00:00.000,3,revise,active
07605343,dloadwtw,,,Allington Way,,,,Allington Way,,McMullen Road,,,,O,,NW,E0036676,Lingfield,Darlington,,,,,,0,UKOS,431157,514597,-1.520119,54.525717,BCT,MKD,OTH,,,,015,2005-09-05T00:00:00.000,2011-09-08T00:00:00.000,3,revise,active
07605344,dloagada,,,Milner Road,,,,Milner Road,,Park Lane,,,,O,,S,N0078631,South Park,Darlington,,,,,,0,UKOS,429317,513717,-1.548634,54.517918,BCT,MKD,OTH,,,,015,2005-09-06T00:00:00.000,2018-06-04T12:40:17.773,4,revise,active
07605345,dloagadg,,,Milner Road,,,,Milner Road,,Park Lane,,,,I,,N,N0078631,South Park,Darlington,,,,,,0,UKOS,429305,513691,-1.548822,54.517685,BCT,MKD,OTH,,,,015,2005-09-06T00:00:00.000,2011-09-08T00:00:00.000,3,revise,active
07605346,dloagadj,,,Clifton Avenue,,,,Clifton Avenue,,Park Lane,,,,I,,N,N0078631,South Park,Darlington,,,,,,0,UKOS,429312,513465,-1.548736,54.515654,BCT,MKD,OTH,,,,015,2005-09-06T00:00:00.000,2019-06-07T11:57:05.653,5,revise,inactive
07605347,dloagadm,,,Clifton Avenue,,,,Clifton Avenue,,Park Lane,,,,O,,S,N0078631,South Park,Darlington,,,,,,0,UKOS,429323,513432,-1.548569,54.515357,BCT,MKD,OTH,,,,015,2005-09-06T00:00:00.000,2019-06-07T11:57:26.192,5,revise,inactive
07605348,dloagadp,,,Wordsworth Road,,,,Wordsworth Road,,Parkside,,,,I,,E,N0078631,South Park,Darlington,,,,,,0,UKOS,429266,513221,-1.549471,54.513464,BCT,MKD,OTH,,,,015,2005-09-06T00:00:00.000,2011-09-08T00:00:00.000,3,revise,active
07605349,dloagadt,,,Wordsworth Road,,,,Wordsworth Road,,Parkside,,,,O,,W,N0078631,South Park,Darlington,,,,,,0,UKOS,429204,513218,-1.550429,54.513441,BCT,MKD,OTH,,,,015,2005-09-06T00:00:00.000,2011-09-08T00:00:00.000,3,revise,active
07605350,dloagadw,,,Coleridge Centre,,,,Skerne Park Primary School,,Coleridge Gardens,,,,I,,N,N0076133,Skerne Park,Darlington,,,,,,0,UKOS,429117,513163,-1.551778,54.512951,BCT,MKD,OTH,,,,015,2005-09-06T00:00:00.000,2009-11-27T08:30:00.000,2,revise,active
07605351,dloagaga,,,Coleridge Centre,,,,Skerne Park Primary School,,Coleridge Gardens,,,,O,,S,N0076133,Skerne Park,Darlington,,,,,,0,UKOS,429114,513103,-1.55183,54.512412,BCT,MKD,OTH,,,,015,2005-09-06T00:00:00.000,2009-11-27T08:30:00.000,2,revise,active
07605352,dloagagd,,,Skerne Park Post Office,,,,Skerne Park Post Office,,Coleridge Gardens,,,,I,,N,N0076133,Skerne Park,Darlington,,,,,,1,UKOS,429041,512905,-1.552977,54.510637,BCT,MKD,PTP,,,,015,2005-09-06T00:00:00.000,2009-11-27T08:30:00.000,2,revise,active
07605353,dloagagj,,,Cockerton Cricket Club,,,,Cockerton Cricket Club,,Newton Lane,,,,O,,NW,E0036660,Cockerton,Darlington,,,,,,0,UKOS,426905,515710,-1.585711,54.535962,BCT,MKD,OTH,,,,015,2005-09-05T00:00:00.000,2009-09-10T08:30:00.000,2,revise,active
07605354,dloagagm,,,Cockerton Cricket Club,,,,Cockerton Cricket Club,,Newton Lane,,,,I,,SE,E0036660,Cockerton,Darlington,,,,,,0,UKOS,426968,515692,-1.584739,54.535797,BCT,MKD,OTH,,,,015,2005-09-05T00:00:00.000,2009-09-10T08:30:00.000,2,revise,active
07605355,dloagagp,,,Fountains View,,,,Fountains View,,Eggleston View,,,,I,,NE,E0036658,Branksome,Darlington,,,,,,0,UKOS,426797,515678,-1.587383,54.53568,BCT,MKD,OTH,,,,015,2005-09-05T00:00:00.000,2009-09-10T08:30:00.000,2,revise,active
07605356,dloagagt,,,Rosedale Crescent,,,,Rosedale Crescent,,Eggleston View,,,,I,,SE,E0036658,Branksome,Darlington,,,,,,0,UKOS,426641,515730,-1.589789,54.536147,BCT,MKD,OTH,,,,015,2005-09-05T00:00:00.000,2009-09-10T08:30:00.000,2,revise,active
07605358,dloagaja,,,Wyvern Academy,,,,Cockerbeck Nature Reserve,,Eggleston View,,,,I,,SE,E0036658,Branksome,Darlington,,,,,,0,UKOS,426338,515853,-1.594461,54.537268,BCT,MKD,OTH,,,,015,2005-09-05T00:00:00.000,2017-10-26T10:02:13.963,7,revise,active
07605360,dloagajg,,,Branksome Hall Drive,,,,Branksome Hall Drive,,Whitby Way,,,,I,,S,E0036658,Branksome,Darlington,,,,,,0,UKOS,426393,516014,-1.593597,54.538712,BCT,MKD,OTH,,,,015,2005-09-05T00:00:00.000,2009-09-10T08:30:00.000,2,revise,active
07605363,dloagajw,,,Shops,,,,Branksome Shops,,Whitby Way,,,,I,,E,E0036658,Branksome,Darlington,,,,,,1,UKOS,426069,516167,-1.598591,54.540112,BCT,MKD,OTH,,,,015,2005-09-05T00:00:00.000,2014-09-29T14:53:29.000,3,revise,active
07605364,dloajawj,,,Woburn Avenue,,,,Branksome Green,,Malvern Crescent,,,,I,,S,E0036658,Branksome,Darlington,,,,,,0,UKOS,425812,516113,-1.602567,54.53964,BCT,MKD,OTH,,,,015,2005-09-05T00:00:00.000,2015-09-02T10:37:38.000,3,revise,active
07605365,dloagama,,,The Cumby Arms,,,,Hall Lane,,Beech Crescent,,,,I,,S,E0052969,Heighington,,,,,,,0,UKOS,425092,522587,-1.613145,54.597855,BCT,MKD,OTH,,,,015,2005-10-20T00:00:00.000,2018-05-01T11:27:49.542,6,revise,inactive
07605366,dloagamd,,,Jedburgh Drive,,,,Malvern Crescent Loop,,Malvern Crescent,,,,I,,S,E0036658,Branksome,Darlington,,,,,,0,UKOS,425784,516288,-1.602985,54.541214,BCT,MKD,OTH,,,,015,2005-09-05T00:00:00.000,2009-09-10T08:30:00.000,2,revise,active
07605367,dloagamg,,,Ellerton Close,,,,Ellerton Close,,Jedburgh Drive,,,,O,,W,E0036658,Branksome,Darlington,,,,,,0,UKOS,425985,516304,-1.599877,54.541348,BCT,MKD,OTH,,,,015,2005-09-05T00:00:00.000,2009-09-10T08:30:00.000,2,revise,active
07605369,dloagamp,,,Wimborne Close,,,,Wimborne Close,,Jedburgh Drive,,,,O,,W,E0036658,Branksome,Darlington,,,,,,0,UKOS,426230,516332,-1.596088,54.541587,BCT,MKD,OTH,,,,015,2005-09-06T00:00:00.000,2009-09-10T08:30:00.000,2,revise,active
07605371,dloagamw,,,Windsor Court,,,,Windsor Court,,Newton Lane,,,,O,,NW,E0036660,Cockerton,Darlington,,,,,,0,UKOS,426344,516299,-1.594329,54.541284,BCT,MKD,OTH,,,,015,2005-09-05T00:00:00.000,2009-09-10T08:30:00.000,2,revise,active
07605373,dloagapd,,,Berwick Road,,,,Berwick Road,,Newton Lane,,,,O,,NW,E0036660,Cockerton,Darlington,,,,,,0,UKOS,426483,516157,-1.592193,54.540001,BCT,MKD,OTH,,,,015,2005-09-05T00:00:00.000,2017-10-26T10:29:42.081,4,revise,active
07605375,dloagapj,,,Nickstream Shops,,,,Nickstream Shops,,Nickstream Lane,,,,O,,N,E0036660,Cockerton,Darlington,,,,,,0,UKOS,426811,516265,-1.587114,54.540946,BCT,MKD,OTH,,,,015,2005-09-05T00:00:00.000,2009-09-10T08:30:00.000,2,revise,active
07605376,dloagapm,,,Nickstream Shops,,,,Nickstream Shops,,Nickstream Lane,,,,I,,S,E0036660,Cockerton,Darlington,,,,,,0,UKOS,426820,516252,-1.586976,54.540837,BCT,MKD,OTH,,,,015,2005-09-05T00:00:00.000,2009-09-10T08:30:00.000,2,revise,active
07605377,dloagapt,,,Bates Avenue,,,,,,Nickstream Lane,,,,I,,S,E0036660,Cockerton,Darlington,,,,,,0,UKOS,426820,516113,-1.586988,54.539588,BCT,MKD,OTH,,,,015,2005-09-05T00:00:00.000,2009-09-10T08:30:00.000,2,revise,active
07605378,dloagapw,,,Bates Avenue,,,,,,Nickstream Lane,,,,O,,N,E0036660,Cockerton,Darlington,,,,,,0,UKOS,426808,516096,-1.587175,54.539436,BCT,MKD,OTH,,,,015,2005-09-05T00:00:00.000,2009-09-10T08:30:00.000,2,revise,active
07605381,dloagatg,,,Branksome Lodge,,,,Branksome Lodge,,Newton Lane,,,,O,,NW,E0036660,Cockerton,Darlington,,,,,,0,UKOS,426638,516037,-1.589813,54.538908,BCT,MKD,OTH,,,,015,2005-09-05T00:00:00.000,2024-03-21T08:49:12.960,4,revise,active
07605383,dloagatm,,,The Deacon,,,,The Deacon,,Newton Lane,,,,I,,SE,E0036660,Cockerton,Darlington,,,,,,0,UKOS,426748,515944,-1.588116,54.538073,BCT,MKD,OTH,,,,015,2005-09-05T00:00:00.000,2017-05-11T11:37:01.553,5,revise,inactive
07605384,dloagatp,,,The Deacon 2,,,,The Deacon,,NEWTON LANE,,,,O,,NW,E0036660,Cockerton,Darlington,,,,,,0,UKOS,426763,515894,-1.58789,54.537619,BCT,MKD,OTH,,,,015,2005-09-05T00:00:00.000,2013-10-21T10:14:50.000,5,revise,active
07605385,dloagatw,,,St John's Crescent,,,,St John's Church,,Neasham Road,,,,I,,NW,N0078629,Neasham Road,Darlington,,,,,,0,UKOS,429617,514207,-1.543951,54.522296,BCT,MKD,OTH,,,,015,2005-09-06T00:00:00.000,2022-09-14T10:38:56.066,3,revise,inactive
07605386,dloagawa,,,St John's Crescent,,,,St John's Church,,Neasham Road,,,,O,,S,N0078629,Neasham Road,Darlington,,,,,,0,UKOS,429650,514144,-1.543447,54.521736,BCT,MKD,OTH,,,,015,2005-09-06T00:00:00.000,2009-11-27T08:30:00.000,2,revise,active
07605387,dloagawd,,,Matalan,,,,Matalan,,Neasham Road,,,,I,,N,N0078629,Neasham Road,Darlington,,,,,,0,UKOS,429670,513977,-1.543155,54.520226,BCT,MKD,OTH,,,,015,2005-09-06T00:00:00.000,2018-06-25T11:30:03.344,3,revise,active
07605388,dloagawg,,,Matalan,,,,Matalan,,Neasham Road,,,,O,,S,N0078629,Neasham Road,Darlington,,,,,,0,UKOS,429704,513850,-1.542643,54.519091,BCT,MKD,OTH,,,,015,2005-09-06T00:00:00.000,2009-11-27T08:30:00.000,2,revise,active
07605389,dloagawj,,,Neasham Rd Surgery,,,,Surgery,,Neasham Road,,,,I,,N,N0078629,Neasham Road,Darlington,,,,,,0,UKOS,429726,513646,-1.542323,54.517257,BCT,MKD,OTH,,,,015,2005-09-06T00:00:00.000,2009-11-29T08:30:00.000,2,revise,active
07605390,dloagawm,,,Neasham Rd Surgery,,,,Surgery,,Neasham Road,,,,O,,SE,N0078629,Neasham Road,Darlington,,,,,,1,UKOS,429743,513625,-1.542063,54.517067,BCT,MKD,OTH,,,,015,2005-09-06T00:00:00.000,2009-11-27T08:30:00.000,2,revise,active
07605391,dloagawp,,,Copper Beech,,,,Copper Beech,,Neasham Road,,,,I,,N,N0078629,Neasham Road,Darlington,,,,,,0,UKOS,429781,513414,-1.541497,54.515169,BCT,MKD,OTH,,,,015,2005-09-06T00:00:00.000,2009-11-27T08:30:00.000,2,revise,active
07605392,dloagawt,,,Geneva Road,,,,Geneva Road Roundabout,,Neasham Road,,,,I,,NW,N0078629,Neasham Road,Darlington,,,,,,0,UKOS,429853,513193,-1.540407,54.513178,BCT,MKD,OTH,,,,015,2005-09-06T00:00:00.000,2009-11-27T08:30:00.000,2,revise,active
07605393,dloagdad,,,Geneva Road,,,,Geneva Road Roundabout,,Neasham Road,,,,O,,SE,N0078629,Neasham Road,Darlington,,,,,,0,UKOS,429862,513221,-1.540265,54.513429,BCT,MKD,OTH,,,,015,2005-09-06T00:00:00.000,2009-11-27T08:30:00.000,2,revise,active
07605394,dloagdag,,,Brankin Drive,,,,Brankin Drive,,Brankin Road,,,,I,,W,N0078629,Neasham Road,Darlington,,,,,,0,UKOS,429950,513003,-1.538928,54.511465,BCT,MKD,OTH,,,,015,2005-09-06T00:00:00.000,2009-09-14T08:30:00.000,2,revise,active
07605395,dloagdaj,,,Brankin Drive,,,,Brankin Drive,,Brankin Road,,,,O,,E,N0078629,Neasham Road,Darlington,,,,,,0,UKOS,430006,513010,-1.538063,54.511525,BCT,MKD,OTH,,,,015,2005-09-06T00:00:00.000,2009-09-14T08:30:00.000,2,revise,active
07605396,dloagdam,,,Brankin Road,,,,Brankin Road,,West Moor Road,,,,O,,E,E0036666,Firthmoor,Darlington,,,,,,0,UKOS,430212,513007,-1.534881,54.511486,BCT,MKD,OTH,,,,015,2005-09-06T00:00:00.000,2013-07-23T10:40:59.000,3,revise,active
07605397,dloagdap,,,Hildon Drive,,,,Hildon Drive,,Brankin Road,,,,I,,W,N0078629,Neasham Road,Darlington,,,,,,0,UKOS,430153,512997,-1.535794,54.511399,BCT,MKD,OTH,,,,015,2005-09-06T00:00:00.000,2009-09-14T08:30:00.000,2,revise,active
07605398,dloagdat,,,Geneva Road Post Office,,,,Geneva Road Post Office,,Geneva Road,,,,I,,W,N0078629,Neasham Road,Darlington,,,,,,0,UKOS,430016,513289,-1.53788,54.514031,BCT,MKD,OTH,,,,015,2005-09-06T00:00:00.000,2011-09-08T00:00:00.000,3,revise,active
07605399,dloagdaw,,,Geneva Road Post Office,,,,Geneva Road Post Office,,Geneva Road,,,,O,,E,N0078629,Neasham Road,Darlington,,,,,,0,UKOS,429882,513275,-1.539951,54.513913,BCT,MKD,OTH,,,,015,2005-09-06T00:00:00.000,2011-09-08T00:00:00.000,3,revise,active
07605400,dloagdga,,,Coxwold Drive,,,,Coxwold Drive,,Fenby Avenue,,,,O,,N,N0076127,Lascelles,Eastbourne,,,,,,0,UKOS,430101,513347,-1.536561,54.514548,BCT,MKD,OTH,,,,015,2005-09-06T00:00:00.000,2011-09-08T00:00:00.000,4,revise,active
07605401,dloagdgd,,,Scargill,,,,Scargill,,Fenby Avenue,,,,I,,SW,N0076127,Lascelles,Eastbourne,,,,,,0,UKOS,430139,513427,-1.535966,54.515264,BCT,MKD,OTH,,,,015,2005-09-06T00:00:00.000,2011-09-08T00:00:00.000,4,revise,active
07605402,dloagdgj,,,Scargill,,,,Scargill,,Fenby Avenue,,,,O,,NE,N0076127,Lascelles,Eastbourne,,,,,,1,UKOS,430147,513461,-1.535839,54.515569,BCT,MKD,OTH,,,,015,2005-09-06T00:00:00.000,2011-09-08T00:00:00.000,4,revise,active
07605407,dloagdja,,,Maidendale House,,,,Maidendale House,,Burnside Road,,,,O,,S,E0036666,Firthmoor,Darlington,,,,,,1,UKOS,430882,513516,-1.52448,54.51602,BCT,MKD,OTH,,,,015,2005-09-06T00:00:00.000,2011-09-08T00:00:00.000,4,revise,active
07605409,dloagdjg,,,Ingleby Moor Crescent,,,,Ingleby Moor Crescent,,Burnside Road,,,,I,,SW,E0036666,Firthmoor,Darlington,,,,,,0,UKOS,430833,513395,-1.52525,54.514935,BCT,MKD,OTH,,,,015,2005-09-06T00:00:00.000,2011-09-08T00:00:00.000,4,revise,active
07605411,dloagdjp,,,Rosemary Court,,,,Rosemary Court,,Fenby Avenue,,,,I,,NW,N0076127,Lascelles,Eastbourne,,,,,,0,UKOS,430358,513560,-1.53257,54.516446,BCT,MKD,OTH,,,,015,2005-09-06T00:00:00.000,2011-09-08T00:00:00.000,4,revise,active
07605412,dloagdjt,,,Rosemary Court,,,,Rosemary Court,,Fenby Avenue,,,,O,,SE,N0076127,Lascelles,Eastbourne,,,,,,0,UKOS,430341,513575,-1.532831,54.516582,BCT,MKD,OTH,,,,015,2005-09-06T00:00:00.000,2011-09-08T00:00:00.000,4,revise,active
07605413,dloagdjw,,,Buckden Court,,,,Buckden Court,,Larchfield Street,,,,I,,S,E0054904,Darlington,,,,,,,0,UKOS,428535,514426,-1.560645,54.524334,BCT,MKD,OTH,,,,015,2005-09-09T00:00:00.000,2015-06-15T00:00:00.000,5,revise,inactive
07605414,dloagdma,,,Outram Street,,,,Outram Street,,Duke Street,,,,I,,E,E0054904,Darlington,,,,,,,0,UKOS,428497,514548,-1.561221,54.525433,BCT,MKD,OTH,,,,015,2005-08-30T00:00:00.000,2024-02-06T14:53:37.424,4,revise,inactive
07605415,dloagdmd,,,Stanhope Green,,,,Stanhope Green,,Abbey Road,,,,I,,E,N0078475,West End,Darlington,,,,,,0,UKOS,428320,514543,-1.563956,54.525398,BCT,MKD,OTH,,,,015,2005-08-24T00:00:00.000,2011-09-08T00:00:00.000,3,revise,active
07605416,dloagdmg,,,Stanhope Green,,,,Stanhope Green,,Abbey Road,,,,O,,W,N0078475,West End,Darlington,,,,,,0,UKOS,428304,514531,-1.564204,54.525291,BCT,MKD,OTH,,,,015,2005-08-24T00:00:00.000,2011-09-08T00:00:00.000,3,revise,active
07605417,dloagdmj,,,Cleveland Avenue,,,,Kiddies Corner Nursery,,Abbey Road,,,,I,,E,N0078475,West End,Darlington,,,,,,0,UKOS,428085,514523,-1.567588,54.525231,BCT,MKD,OTH,,,,015,2005-08-24T00:00:00.000,2011-09-08T00:00:00.000,3,revise,active
07605418,dloagdmp,,,Cleveland Avenue,,,,Kiddies Corner Nursery,,Abbey Road,,,,O,,W,N0078475,West End,Darlington,,,,,,0,UKOS,428036,514501,-1.568347,54.525036,BCT,MKD,OTH,,,,015,2005-09-09T00:00:00.000,2013-03-15T15:02:13.000,4,revise,active
07605420,dloagdmw,,,Elton Road,,,,Elton Road Roundabout,,Abbey Road,,,,O,,W,N0078475,West End,Darlington,,,,,,0,UKOS,427738,514475,-1.572954,54.524819,BCT,MKD,OTH,,,,015,2005-08-24T00:00:00.000,2018-06-20T09:57:22.088,3,revise,inactive
07605421,dloagdpa,,,Elton Road,,,,Elton Road Roundabout,,Abbey Road,,,,I,,NE,N0078475,West End,Darlington,,,,,,0,UKOS,427616,514445,-1.574842,54.524556,BCT,MKD,OTH,,,,015,2005-08-24T00:00:00.000,2009-09-02T08:30:00.000,2,revise,active
07605422,dloagdpd,,,Abbey Junior School,,,,Abbey Junior School,,Abbey Road,,,,I,,E,N0078475,West End,Darlington,,,,,,0,UKOS,427464,514391,-1.577195,54.524079,BCT,MKD,OTH,,,,015,2005-08-24T00:00:00.000,2009-09-02T08:30:00.000,2,revise,active
07605423,dloagdpg,,,Abbey Junior School,,,,Abbey Junior School,,Abbey Road,,,,O,,W,N0078475,West End,Darlington,,,,,,0,UKOS,427423,514369,-1.57783,54.523883,BCT,MKD,OTH,,,,015,2005-08-24T00:00:00.000,2009-09-02T08:30:00.000,2,revise,active
07605424,dloagdpj,,,Crematorium,,,,West Cemetery,,Carmel Road North,,,,I,,N,N0078475,West End,Darlington,,,,,,0,UKOS,427414,513974,-1.578006,54.520334,BCT,MKD,OTH,,,,015,2005-08-24T00:00:00.000,2011-08-10T12:10:00.000,2,revise,active
07605425,dloagdpm,,,Crematorium,,,,West Cemetery,,Carmel Road North,,,,O,,S,N0078475,West End,Darlington,,,,,,0,UKOS,427421,514008,-1.577895,54.520639,BCT,MKD,OTH,,,,015,2005-08-24T00:00:00.000,2011-08-09T12:30:00.000,2,revise,active
07605432,dloagdtm,,,Cemetery Lane,,,,Cemetery Lane,,Baydale Road,,,,O,,S,E0036673,Hummersknott,Darlington,,,,,,0,UKOS,426631,514062,-1.590094,54.521166,BCT,MKD,OTH,,,,015,2005-08-24T00:00:00.000,2013-02-08T13:49:19.000,5,revise,active
07605433,dloagdtp,,,Cemetery Lane,,,,Cemetery Lane,,Baydale Road,,,,I,,N,E0036673,Hummersknott,Darlington,,,,,,0,UKOS,426622,514112,-1.590229,54.521616,BCT,MKD,OTH,,,,015,2005-08-24T00:00:00.000,2013-02-08T13:48:58.000,5,revise,active
07605434,dloagdtw,,,St Hild Close,,,,St Hild Close,,Hummersknott Avenue,,,,I,,E,E0036673,Hummersknott,Darlington,,,,,,0,UKOS,426854,514211,-1.586635,54.522494,BCT,MKD,OTH,,,,015,2005-08-24T00:00:00.000,2009-09-02T08:30:00.000,2,revise,active
07605435,dloagdwa,,,Carroll Road,,,,Carroll Road,,Hummersknott Avenue,,,,O,,SW,E0036673,Hummersknott,Darlington,,,,,,0,UKOS,426666,514160,-1.589544,54.522045,BCT,MKD,OTH,,,,015,2005-08-24T00:00:00.000,2009-09-02T08:30:00.000,2,revise,active
07605436,dloagdwd,,,Hummersknott Academy,,,,Hummersknott Academy,,Wycliffe Way,,,,O,,NW,E0036673,Hummersknott,Darlington,,,,,,1,UKOS,426500,514108,-1.5921196,54.5215813,BCT,MKD,OTH,,,,015,2005-08-24T00:00:00.000,2017-06-22T10:36:07.795,7,revise,active
07605437,dloagdwg,,,Hummersknott Academy,,,,Hummersknott Academy,,Wycliffe Way,,,,I,,SE,E0036673,Hummersknott,Darlington,,,,,,0,UKOS,426482,514125,-1.59239,54.52174,BCT,MKD,OTH,,,,015,2005-08-24T00:00:00.000,2017-06-22T10:54:27.698,4,revise,inactive
07605438,dloagdwj,,,Holyrood Avenue,,,,Holyrood Avenue,,Edinburgh Drive,,,,O,,NW,E0036673,Hummersknott,Darlington,,,,,,0,UKOS,426397,514206,-1.593696,54.522473,BCT,MKD,OTH,,,,015,2005-08-23T00:00:00.000,2009-09-02T08:30:00.000,2,revise,active
07605439,dloagdwm,,,Hanover Close,,,,Hanover Close,,Edinburgh Drive,,,,O,,N,N0076130,Mowden,Darlington,,,,,,0,UKOS,426365,514345,-1.594178,54.523715,BCT,MKD,OTH,,,,015,2005-08-23T00:00:00.000,2009-09-02T08:30:00.000,2,revise,active
07605440,dloagdwp,,,Hanover Close,,,,Hanover Close,,Edinburgh Drive,,,,I,,S,N0076130,Mowden,Darlington,,,,,,0,UKOS,426375,514346,-1.594023,54.523732,BCT,MKD,OTH,,,,015,2005-08-23T00:00:00.000,2009-09-02T08:30:00.000,2,revise,active
07605441,dloagdwt,,,Garthorne Avenue,,,,Garthorne Avenue,,Edinburgh Drive,,,,O,,N,N0076130,Mowden,Darlington,,,,,,0,UKOS,426385,514586,-1.593848,54.525888,BCT,MKD,OTH,,,,015,2005-08-23T00:00:00.000,2009-09-02T08:30:00.000,2,revise,active
07605442,dloagjad,,,Garthorne Avenue,,,,Garthorne Avenue,,Fulthorpe Avenue,,,,I,,S,N0076130,Mowden,Darlington,,,,,,0,UKOS,426394,514598,-1.593708,54.525987,BCT,MKD,OTH,,,,015,2005-08-23T00:00:00.000,2009-09-02T08:30:00.000,2,revise,active
07605443,dloagjag,,,Mowden Shops,,,,Mowden Shops,,Fulthorpe Avenue,,,,O,,S,N0076130,Mowden,Darlington,,,,,,0,UKOS,426406,514684,-1.593514,54.526768,BCT,MKD,OTH,,,,015,2005-09-09T00:00:00.000,2009-09-02T08:30:00.000,2,revise,active
07605444,dloagjaj,,,Mowden Shops,,,,Mowden Shops,,Fulthorpe Avenue,,,,I,,N,N0076130,Mowden,Darlington,,,,,,1,UKOS,426381,514738,-1.593896,54.527254,BCT,MKD,OTH,,,,015,2005-08-23T00:00:00.000,2018-06-25T11:25:28.196,2,revise,active
07605445,dloagjam,,,Chester Grove,,,,Chester Grove,,Barnes Road,,,,I,,N,N0076130,Mowden,Darlington,,,,,,0,UKOS,426441,514911,-1.592953,54.528806,BCT,MKD,OTH,,,,015,2005-08-23T00:00:00.000,2009-09-02T08:30:00.000,2,revise,active
07605446,dloagjap,,,Chester Grove,,,,Chester Grove,,Barnes Road,,,,O,,S,N0076130,Mowden,Darlington,,,,,,0,UKOS,426451,514956,-1.592795,54.52921,BCT,MKD,OTH,,,,015,2005-08-23T00:00:00.000,2009-09-02T08:30:00.000,2,revise,active
07605447,dloagjat,,,Barnes Close,,,,Barnes Close,,Barnes Road,,,,I,,N,N0076130,Mowden,Darlington,,,,,,0,UKOS,426430,515165,-1.593101,54.531089,BCT,MKD,OTH,,,,015,2005-08-23T00:00:00.000,2009-09-02T08:30:00.000,2,revise,active
07605448,dloagjaw,,,Barnes Close,,,,Barnes Close,,Barnes Road,,,,O,,S,N0076130,Mowden,Darlington,,,,,,0,UKOS,426444,515176,-1.592883,54.531187,BCT,MKD,OTH,,,,015,2005-08-23T00:00:00.000,2009-09-02T08:30:00.000,2,revise,active
07605449,dloagjda,,,Mowden Hall,,,,Mowden Hall,,Barnes Road,,,,O,,W,N0076130,Mowden,Darlington,,,,,,0,UKOS,426580,515220,-1.590778,54.531567,BCT,MKD,OTH,,,,015,2005-08-23T00:00:00.000,2009-09-02T08:30:00.000,2,revise,active
07605450,dloagjdg,,,Mowden Hall,,,,Mowden Hall,,Barnes Road,,,,I,,E,N0076130,Mowden,Darlington,,,,,,0,UKOS,426626,515236,-1.590069,54.531715,BCT,MKD,OTH,,,,015,2005-08-23T00:00:00.000,2024-06-07T13:44:29.265,3,revise,active
07605451,dloagjdj,,,Mowden Hall Drive,,,,Mowden Hall Drive,,Barnes Road,,,,O,,SW,N0076130,Mowden,Darlington,,,,,,0,UKOS,426734,515252,-1.588395,54.531855,BCT,MKD,OTH,,,,015,2005-08-23T00:00:00.000,2013-10-02T13:42:49.000,3,revise,active
07605452,dloagjdm,,,Lazenby Crescent,,,,Lazenby Crescent,,Claxton Avenue,,,,I,,S,N0076130,Mowden,Darlington,,,,,,0,UKOS,426799,515171,-1.587398,54.531124,BCT,MKD,OTH,,,,015,2005-08-23T00:00:00.000,2015-07-30T00:00:00.000,4,revise,inactive
07605453,dloagjdp,,,Bushel Hill Court,,,,Lazenby Crescent,,Claxton Avenue,,,,O,,N,N0076130,Mowden,Darlington,,,,,,0,UKOS,426793,515121,-1.587495,54.530675,BCT,MKD,OTH,,,,015,2005-08-23T00:00:00.000,2009-09-02T08:30:00.000,2,revise,active
07605454,dloagjdt,,,Bushel Hill Court,,,,Bushel Hill Court,,Claxton Avenue,,,,I,,S,N0076130,Mowden,Darlington,,,,,,0,UKOS,426809,515073,-1.587253,54.530234,BCT,MKD,OTH,,,,015,2005-08-23T00:00:00.000,2015-07-30T00:00:00.000,4,revise,inactive
07605455,dloagjdw,,,Wilton Drive,,,,Wilton Drive,,Claxton Avenue,,,,I,,S,N0076130,Mowden,Darlington,,,,,,0,UKOS,426827,514934,-1.586987,54.528984,BCT,MKD,OTH,,,,015,2005-08-23T00:00:00.000,2015-07-30T00:00:00.000,4,revise,inactive
07605456,dloagjga,,,Wilton Drive,,,,Wilton Drive,,Claxton Avenue,,,,O,,N,N0076130,Mowden,Darlington,,,,,,0,UKOS,426818,514936,-1.587126,54.529011,BCT,MKD,OTH,,,,015,2005-08-23T00:00:00.000,2009-09-02T08:30:00.000,2,revise,active
07605457,dloagjgd,,,Lunedale Road,,,,Lunedale Road,,Birkdale Road,,,,O,,W,N0076130,Mowden,Darlington,,,,,,0,UKOS,426970,515050,-1.584767,54.530027,BCT,MKD,OTH,,,,015,2005-08-23T00:00:00.000,2017-10-26T10:50:43.867,6,revise,active
07605458,dloagjgj,,,Farndale Crescent,,,,Farndale Crescent,,Swaledale Avenue,,,,I,,S,N0076130,Mowden,Darlington,,,,,,0,UKOS,427030,515001,-1.583844,54.529584,BCT,MKD,OTH,,,,015,2005-09-09T00:00:00.000,2009-09-02T08:30:00.000,2,revise,active
07605459,dloagjgm,,,Swaledale Avenue,,,,Carmelite Convent,,Nunnery Lane,,,,O,,W,N0076130,Mowden,Darlington,,,,,,0,UKOS,427074,514828,-1.58318,54.528027,BCT,MKD,OTH,,,,015,2005-08-23T00:00:00.000,2009-09-02T08:30:00.000,2,revise,active
07605460,dloagjgp,,,Swaledale Avenue,,,,Carmelite Convent,,Nunnery Lane,,,,I,,E,N0076130,Mowden,Darlington,,,,,,0,UKOS,427119,514841,-1.582484,54.528141,BCT,MKD,OTH,,,,015,2005-08-23T00:00:00.000,2009-09-02T08:30:00.000,2,revise,active
07605461,dloagjgt,,,Carmel Medical Practice,,,,Carmel Medical Practice,,Nunnery Lane,,,,I,,E,N0076130,Mowden,Darlington,,,,,,0,UKOS,427315,514863,-1.579453,54.528328,BCT,MKD,OTH,,,,015,2005-08-23T00:00:00.000,2009-09-02T08:30:00.000,2,revise,active
07605462,dloagjgw,,,Carmel Medical Practice,,,,Carmel Medical Practice,,Nunnery Lane,,,,O,,W,N0076130,Mowden,Darlington,,,,,,0,UKOS,427315,514857,-1.579454,54.528266,BCT,MKD,OTH,,,,015,2005-08-23T00:00:00.000,2009-09-02T08:30:00.000,2,revise,active
07605463,dloagjma,,,Clareville Road,,,,Clareville Road,,Carmel Road North,,,,I,,S,N0078475,West End,Darlington,,,,,,0,UKOS,427345,514608,-1.579013,54.526035,BCT,MKD,OTH,,,,015,2005-08-24T00:00:00.000,2023-06-02T12:35:56.458,4,revise,active
07605464,dloagjmd,,,Clareville Road,,,,Clareville Road,,Carmel Road North,,,,adj,,N,N0076130,Mowden,Darlington,,,,,,0,UKOS,427347,514797,-1.578965,54.527725,BCT,CUS,OTH,,,,015,2005-09-09T00:00:00.000,2023-06-02T12:35:47.892,7,revise,active
07605465,dloagjmg,,,Thornbury Rise,,,,Thornbury Rise,,Carmel Road North,,,,I,,NE,N0078475,West End,Darlington,,,,,,0,UKOS,427395,515203,-1.578186,54.531371,BCT,MKD,OTH,,,,015,2005-09-09T00:00:00.000,2009-08-25T08:30:00.000,2,revise,active
07605466,dloagjmj,,,Lunedale Road,,,,Lunedale Road,,Staindrop Road,,,,I,,SE,N0076130,Mowden,Darlington,,,,,,0,UKOS,426973,515388,-1.58469,54.533056,BCT,MKD,OTH,,,,015,2005-08-23T00:00:00.000,2009-08-25T08:30:00.000,2,revise,active
07605467,dloagjmp,,,Staindrop Crescent,,,,Staindrop Crescent,,Staindrop Road,,,,O,,NW,N0076130,Mowden,Darlington,,,,,,0,UKOS,427148,515325,-1.581991,54.532489,BCT,MKD,OTH,,,,015,2005-08-24T00:00:00.000,2017-04-06T10:45:53.534,3,revise,inactive
07605468,dloagjmt,,,Burtree Gate,,,,Burtree Inn,,West Auckland Road,,,,I,,SE,N0076120,Burtree Gate,,,,,,,1,UKOS,426125,518734,-1.597498,54.563178,BCT,MKD,OTH,,,,015,2005-09-07T00:00:00.000,2015-09-02T11:02:50.000,7,revise,active
07605469,dloagjmw,,,Burtree Gate,,,,Burtree Inn,,West Auckland Road,,,,O,,NW,N0076120,Burtree Gate,,,,,,,0,UKOS,426107,518707,-1.597779,54.562936,BCT,MKD,OTH,,,,015,2005-09-07T00:00:00.000,2015-09-02T11:03:00.000,7,revise,active
07605470,dloagjpa,,,Broken Scar Treatment Works,,,,Broken Scar Treatment Works,,Coniscliffe Road,,,,O,,W,E0036673,Hummersknott,Darlington,,,,,,0,UKOS,425485,513961,-1.607807,54.520317,BCT,MKD,OTH,,,,015,2005-08-23T00:00:00.000,2018-06-19T14:22:10.490,3,revise,active
07605471,dloagjpd,,,Broken Scar Treatment Works,,,,Broken Scar Treatment Works,,Coniscliffe Road,,,,I,,E,E0036673,Hummersknott,Darlington,,,,,,0,UKOS,425612,513946,-1.605846,54.520176,BCT,MKD,OTH,,,,015,2005-08-23T00:00:00.000,2018-06-19T14:22:43.601,3,revise,active
07605472,dloagjpg,,,Jubilee Cottages,,,,Tees Cottage pumping station,,Coniscliffe Road,,,,O,,W,E0036673,Hummersknott,Darlington,,,,,,0,UKOS,425816,513918,-1.602697,54.519914,BCT,MKD,OTH,,,,015,2005-08-23T00:00:00.000,2011-08-03T11:20:00.000,2,revise,active
07605473,dloagjpj,,,Jubilee Cottages,,,,Broken Scar picnic area,,Coniscliffe Road,,,,I,,SE,E0036673,Hummersknott,Darlington,,,,,,0,UKOS,425888,513899,-1.601586,54.51974,BCT,MKD,OTH,,,,015,2005-08-23T00:00:00.000,2011-08-03T11:45:00.000,2,revise,active
07605474,dloagjpm,,,Edinburgh Drive,,,,Edinburgh Drive,,Coniscliffe Road,,,,O,,NW,E0036673,Hummersknott,Darlington,,,,,,0,UKOS,426307,513741,-1.595128,54.518299,BCT,MKD,OTH,,,,015,2005-08-23T00:00:00.000,2011-08-03T12:10:00.000,2,revise,active
07605475,dloagjpt,,,Edinburgh Drive,,,,Edinburgh Drive,,Coniscliffe Road,,,,I,,SE,E0036673,Hummersknott,Darlington,,,,,,0,UKOS,426353,513737,-1.594418,54.51826,BCT,MKD,OTH,,,,015,2005-08-23T00:00:00.000,2011-08-03T12:35:00.000,2,revise,active
07605476,dloagjpw,,,Baydale Road,,,,Baydale Road,,Coniscliffe Road,,,,I,,SE,E0036673,Hummersknott,Darlington,,,,,,0,UKOS,426486,513698,-1.592367,54.517903,BCT,MKD,OTH,,,,015,2005-08-24T00:00:00.000,2011-08-03T13:50:00.000,2,revise,active
07605477,dloagjta,,,Baydale Road,,,,Baydale Road,,Coniscliffe Road,,,,O,,NW,E0036673,Hummersknott,Darlington,,,,,,0,UKOS,426514,513681,-1.591936,54.517749,BCT,MKD,OTH,,,,015,2005-08-24T00:00:00.000,2011-08-03T14:15:00.000,2,revise,active
07605478,dloagjtd,,,Baydale Farm,,,,Baydale House,,Coniscliffe Road,,,,O,,W,E0036673,Hummersknott,Darlington,,,,,,0,UKOS,426847,513610,-1.586798,54.517093,BCT,MKD,OTH,,,,015,2005-08-24T00:00:00.000,2015-09-02T10:04:33.000,3,revise,active
07605479,dloagjtg,,,Baydale Farm,,,,Baydale House,,Coniscliffe Road,,,,I,,E,E0036673,Hummersknott,Darlington,,,,,,0,UKOS,426885,513615,-1.586211,54.517136,BCT,MKD,OTH,,,,015,2005-08-24T00:00:00.000,2015-09-02T10:04:54.000,3,revise,active
07605480,dloagjtj,,,Woodburn Lodge,,,,Woodburn Lodge,,Coniscliffe Road,,,,O,,SW,E0036673,Hummersknott,Darlington,,,,,,0,UKOS,427103,513632,-1.582842,54.517277,BCT,MKD,OTH,,,,015,2005-08-24T00:00:00.000,2011-08-03T16:40:00.000,2,revise,active
07605481,dloagjtm,,,The Comet,,,,The Comet,,Tees View,,,,O,,S,E0036674,Hurworth Place,Hurworth-on-Tees,,,,,,0,UKOS,429047,509866,-1.553182,54.483326,BCT,MKD,OTH,,,,015,2005-08-25T00:00:00.000,2014-01-02T10:46:47.000,4,revise,active
07605482,dloagjtp,,,The Comet,,,,The Comet,,Tees View,,,,I,,N,E0036674,Hurworth Place,Hurworth-on-Tees,,,,,,0,UKOS,429032,509881,-1.553412,54.483462,BCT,MKD,OTH,,,,015,2005-08-26T00:00:00.000,2014-01-02T10:46:58.000,5,revise,active
07605483,dloagjtw,,,Oxford Garage,,,,Oxford Garage,,Hurworth Road,,,,I,,SW,E0036674,Hurworth Place,Hurworth-on-Tees,,,,,,0,UKOS,429409,509854,-1.547601,54.483197,BCT,MKD,OTH,,,,015,2005-08-27T00:00:00.000,2024-10-04T10:58:20.715,5,revise,active
07605484,dloagjwa,,,Oxford Garage,,,,Oxford Garage,,Hurworth Road,,,,O,,NE,E0036674,Hurworth Place,Hurworth-on-Tees,,,,,,0,UKOS,429387,509854,-1.547936,54.483199,BCT,MKD,OTH,,,,015,2005-08-28T00:00:00.000,2014-01-02T10:47:21.000,4,revise,active
07605485,dloagjwd,,,Avon Road,,,,Rockliffe Hall,,Hurworth Road,,,,I,,SW,E0036674,Hurworth Place,Hurworth-on-Tees,,,,,,0,UKOS,429631,509940,-1.544161,54.483958,BCT,MKD,OTH,,,,015,2005-08-29T00:00:00.000,2014-01-02T10:47:58.000,4,revise,active
07605486,dloagjwg,,,Avon Road,,,,Rockliffe Court,,Hurworth Road,,,,O,,NE,E0036674,Hurworth Place,Hurworth-on-Tees,,,,,,0,UKOS,429651,509952,-1.543851,54.484064,BCT,MKD,OTH,,,,015,2005-08-30T00:00:00.000,2014-01-02T10:47:48.000,4,revise,active
07605487,dloagjwj,,,Elmfield Road,,,,Hurworth Grange Community Centre,,Croft Road,,,,I,,SW,E0052972,Hurworth-on-Tees,,,,,,,0,UKOS,429958,510042,-1.539104,54.484855,BCT,MKD,OTH,,,,015,2005-08-31T00:00:00.000,2014-01-02T10:48:24.000,4,revise,active
07605488,dloagjwm,,,Elmfield Road,,,,Hurworth Grange Community Centre,,Croft Road,,,,O,,NE,E0052972,Hurworth-on-Tees,,,,,,,0,UKOS,429994,510066,-1.538546,54.485069,BCT,MKD,OTH,,,,015,2005-09-01T00:00:00.000,2014-01-02T10:48:12.000,4,revise,active
07605489,dloagjwp,,,Post Office,,,,Drinking fountain,,The Green,,,,O,,E,E0052972,Hurworth-on-Tees,,,,,,,1,UKOS,430389,510212,-1.532434,54.486358,BCT,MKD,OTH,,,,015,2005-09-02T00:00:00.000,2014-01-02T10:54:05.000,6,revise,active
07605490,dloagjwt,,,Post Office,,,,Drinking fountain,,The Green,,,,I,,W,E0052972,Hurworth-on-Tees,,,,,,,0,UKOS,430404,510202,-1.532204,54.486267,BCT,MKD,OTH,,,,015,2005-09-03T00:00:00.000,2014-01-02T10:53:53.000,6,revise,active
07605491,dloagmad,,,Hurworth House School,,,,Village Green,,The Green,,,,I,,W,E0052972,Hurworth-on-Tees,,,,,,,0,UKOS,430566,510162,-1.529707,54.485898,BCT,MKD,OTH,,,,015,2005-09-04T00:00:00.000,2014-01-02T10:54:42.000,6,revise,active
07605492,dloagmag,,,Hurworth House School,,,,Village Green,,The Green,,,,O,,E,E0052972,Hurworth-on-Tees,,,,,,,0,UKOS,430625,510164,-1.528796,54.485912,BCT,MKD,OTH,,,,015,2005-09-05T00:00:00.000,2014-01-02T10:54:30.000,6,revise,active
07605493,dloagmaj,,,All Saints Church,,,,All Saints Church,,Church View,,,,I,,W,E0052972,Hurworth-on-Tees,,,,,,,0,UKOS,430902,510137,-1.524524,54.485653,BCT,MKD,OTH,,,,015,2005-09-08T00:00:00.000,2014-01-02T10:55:08.000,6,revise,active
07605494,dloagmam,,,All Saints Church,,,,All Saints Church,,Church View,,,,O,,E,E0052972,Hurworth-on-Tees,,,,,,,0,UKOS,430916,510152,-1.524306,54.485787,BCT,MKD,OTH,,,,015,2005-09-08T00:00:00.000,2014-01-02T10:54:58.000,6,revise,active
07605495,dloagmap,,,Timmy's Lane,,,,The Otter & Fish,,Strait Lane,,,,I,,S,E0052972,Hurworth-on-Tees,,,,,,,0,UKOS,431097,510172,-1.52151,54.485955,BCT,MKD,OTH,,,,015,2005-10-20T00:00:00.000,2023-11-09T15:06:10.994,6,revise,active
07605496,dloajdgw,,,Timmy's Lane,,,,The Otter & Fish,,Strait Lane,,,,O,,N,E0052972,Hurworth-on-Tees,,,,,,,0,UKOS,431091,510168,-1.521603,54.48592,BCT,MKD,OTH,,,,015,2006-06-06T00:00:00.000,2023-11-09T15:06:54.820,5,revise,active
07605497,dloagmaw,,,The Birches,,,,The Birches,,Strait Lane,,,,O,,N,E0052972,Hurworth-on-Tees,,,,,,,0,UKOS,431078,510396,-1.52178,54.487969,BCT,MKD,OTH,,,,015,2005-10-20T00:00:00.000,2014-01-02T10:56:09.000,4,revise,active
07605498,dloagmda,,,The Oval,,,,The Oval,,Sanderson Road,,,,I,,S,E0052972,Hurworth-on-Tees,,,,,,,0,UKOS,430977,510334,-1.523346,54.487418,BCT,MKD,OTH,,,,015,2005-10-21T00:00:00.000,2014-01-02T10:56:39.000,6,revise,active
07605499,dloagmdg,,,Red House Farm,,,,Red House Lane,,Shildon Road,,,,I,,S,E0036689,Redworth,,,,,,,0,UKOS,423687,523966,-1.63478,54.610306,BCT,MKD,OTH,,,,015,2005-09-07T00:00:00.000,2014-01-02T12:03:12.000,6,revise,active
07605500,dloagmdj,,,Red House Farm,,,,Red House Lane,,Shildon Road,,,,O,,N,E0036689,Redworth,,,,,,,0,UKOS,423669,523973,-1.635058,54.61037,BCT,MKD,OTH,,,,015,2005-09-07T00:00:00.000,2014-01-02T12:03:24.000,7,revise,active
07605501,dloagmdm,,,Surtees Road,,,,Mill Lane,,Shildon Road,,,,O,,NW,E0036689,Redworth,,,,,,,0,UKOS,424021,523460,-1.62965,54.605744,BCT,MKD,OTH,,,,015,2005-09-07T00:00:00.000,2014-01-02T12:04:19.000,6,revise,active
07605502,dloagmdp,,,Surtees Road,,,,Mill Lane,,Main Road,,,,I,,SE,E0036689,Redworth,,,,,,,0,UKOS,424142,523433,-1.62778,54.605495,BCT,MKD,OTH,,,,015,2005-09-07T00:00:00.000,2014-01-02T12:04:30.000,6,revise,active
07605503,dloagmdt,,,Redworth Hall Hotel,,,,Redworth Hall Hotel,,Main Road,,,,I,,SE,E0036689,Redworth,,,,,,,0,UKOS,424279,523254,-1.625673,54.60388,BCT,MKD,OTH,,,,015,2005-09-07T00:00:00.000,2014-01-02T10:26:01.000,6,revise,active
07605504,dloagmdw,,,Redworth Hall Hotel,,,,Redworth Hall Hotel,,Main Road,,,,O,,NW,E0036689,Redworth,,,,,,,0,UKOS,424324,523182,-1.624983,54.603231,BCT,MKD,OTH,,,,015,2005-09-07T00:00:00.000,2014-01-02T10:25:51.000,6,revise,active
07605507,dloagmgj,,,Hall Lane,,,,Heighington School,,Redworth Road,,,,O,,NW,E0052969,Heighington,,,,,,,0,UKOS,424763,522532,-1.618242,54.597368,BCT,MKD,OTH,,,,015,2005-09-07T00:00:00.000,2014-01-02T11:29:37.000,5,revise,active
07605508,dloagmgm,,,Village Hall,,,,West Green,,Darlington Road,,,,O,,NW,E0052969,Heighington,,,,,,,1,UKOS,424841,522326,-1.617052,54.595513,BCT,MKD,OTH,,,,015,2005-09-07T00:00:00.000,2014-01-02T11:30:04.000,5,revise,active
07605509,dloagmgp,,,Village Hall,,,,West Green,,Darlington Road,,,,I,,SE,E0052969,Heighington,,,,,,,0,UKOS,424868,522294,-1.616637,54.595233,BCT,MKD,TIP,,,,015,2005-09-07T00:00:00.000,2014-01-02T11:30:14.000,5,revise,active
07605510,dloagmgt,,,The Cumby Arms,,,,Hall Lane,,Beech Crescent,,,,O,,N,E0052969,Heighington,,,,,,,0,UKOS,425074,522555,-1.613427,54.59756,BCT,MKD,OTH,,,,015,2005-09-07T00:00:00.000,2018-05-01T11:52:58.999,6,revise,inactive
07605511,dloagmgw,,,Water Tower,,,,High Barn Road,,School Aycliffe Lane,,,,O,,NE,E0010209,School Aycliffe,Newton Aycliffe,,,,,,0,UKOS,425669,523425,-1.604142,54.605348,BCT,MKD,OTH,,,,015,2005-09-07T00:00:00.000,2018-05-01T11:53:15.281,7,revise,inactive
07605512,dloagmja,,,High Barn Road,,,,High Barn Road,,School Aycliffe Lane,,,,I,,SW,E0010209,School Aycliffe,Newton Aycliffe,,,,,,0,UKOS,425692,523425,-1.603786,54.605347,BCT,MKD,OTH,,,,015,2005-09-07T00:00:00.000,2015-07-23T12:13:16.000,8,revise,active
07605513,dloagmjd,,,Eastfields Road,,,,North Cottages,,School Aycliffe Lane,,,,I,,SW,E0010209,School Aycliffe,Newton Aycliffe,,,,,,0,UKOS,426032,523653,-1.598502,54.607379,BCT,MKD,OTH,,,,015,2005-09-07T00:00:00.000,2015-07-23T11:58:34.000,6,revise,active
07605514,dloagmjg,,,Eastfields Road,,,,Eastfields Road,,School Aycliffe Lane,,,,O,,NE,E0010209,School Aycliffe,Newton Aycliffe,,,,,,1,UKOS,426014,523657,-1.598781,54.607416,BCT,MKD,OTH,,,,015,2005-09-07T00:00:00.000,2015-07-23T11:58:50.000,6,revise,active
07605516,dloagmjm,,,Aerial House,,,,Great Aycliffe Council Offices,,School Aycliffe Lane,,,,O,,NE,E0010209,School Aycliffe,Newton Aycliffe,,,,,,0,UKOS,426768,523980,-1.587079,54.610279,BCT,MKD,OTH,,,,015,2005-09-08T00:00:00.000,2015-07-23T11:59:35.000,6,revise,active
07605517,dloagmjp,,,Aerial House,,,,Great Aycliffe Council Offices,,School Aycliffe Lane,,,,I,,SW,E0010209,School Aycliffe,Newton Aycliffe,,,,,,0,UKOS,426769,523974,-1.587064,54.610225,BCT,MKD,OTH,,,,015,2005-09-09T00:00:00.000,2015-07-23T11:59:16.000,6,revise,active
07605521,dloagmpg,,,Middleton St George Hospital,,,,Fire Training Centre,,Airport,,,,I,,NW,N0076138,Teesside Airport,Middleton St George,,,,,,0,UKOS,436643,513453,-1.435503,54.515071,BCT,MKD,TIP,,,,015,2005-09-09T00:00:00.000,2015-09-14T17:04:46.000,8,revise,active
07605522,dloagmpj,,,Middleton St George Hospital,,,,Fire Training Centre,,Airport,,,,O,,SE,N0076138,Teesside Airport,Middleton St George,,,,,,0,UKOS,436629,513478,-1.435716,54.515297,BCT,MKD,TIP,,,,015,2005-09-10T00:00:00.000,2018-05-01T11:53:50.233,7,revise,inactive
07605523,dloagmpm,,,Oak Tree Inn,,,,Oak Tree Inn,,Yarm Road,,,,O,,NE,E0036684,Oak Tree,Middleton St George,,,,,,0,UKOS,436135,513528,-1.44334,54.515781,BCT,MKD,OTH,,,,015,2005-09-11T00:00:00.000,2014-01-02T12:02:15.000,7,revise,active
07605524,dloagmpt,,,Virginia Estate West End,,,,Virginia Estate West End,,Yarm Road,,,,O,,E,E0036684,Oak Tree,Middleton St George,,,,,,0,UKOS,435700,513456,-1.450068,54.515165,BCT,MKD,OTH,,,,015,2005-09-12T00:00:00.000,2014-01-02T12:01:46.000,5,revise,active
07605525,dloagmpw,,,Virginia Estate,,,,Virginia Estate,,Yarm Road,,,,I,,W,E0036684,Oak Tree,Middleton St George,,,,,,0,UKOS,435748,513438,-1.449329,54.515,BCT,MKD,OTH,,,,015,2005-09-13T00:00:00.000,2014-01-02T12:01:55.000,5,revise,active
07605526,dloagmta,,,Virginia Estate East End,,,,Virginia Estate,,Yarm Road,,,,O,,E,E0036684,Oak Tree,Middleton St George,,,,,,0,UKOS,435858,513452,-1.447628,54.515118,BCT,MKD,OTH,,,,015,2005-09-14T00:00:00.000,2014-01-02T12:02:04.000,6,revise,active
07605527,dloagmtd,,,Middleton Hall,,,,Middleton Hall,,Road to Middleton One Row,,,,I,,NW,E0052977,Middleton St George,,,,,,,0,UKOS,435442,513090,-1.454097,54.511894,BCT,MKD,OTH,,,,015,2005-09-15T00:00:00.000,2017-06-22T10:31:05.230,9,revise,inactive
07605528,dloagmtg,,,Middleton Hall,,,,Middleton Hall,,Middleton Back Road,,,,O,,SE,E0052977,Middleton St George,,,,,,,0,UKOS,435455,513088,-1.4538984,54.5118692,BCT,MKD,OTH,,,,015,2005-09-16T00:00:00.000,2020-05-11T12:03:17.660,8,revise,active
07605529,dloagmtj,,,Archer Road,,,,Archer Road,,Hill Rise,,,,I,,SW,E0036679,Middleton One Row,Middleton St George,,,,,,0,UKOS,435470,512225,-1.453768,54.504119,BCT,MKD,OTH,,,,015,2005-09-17T00:00:00.000,2014-01-02T11:00:04.000,5,revise,active
07605530,dloagmtm,,,Archer Road,,,,Archer Road,,Hill Rise,,,,O,,NE,E0036679,Middleton One Row,Middleton St George,,,,,,0,UKOS,435452,512216,-1.4540492,54.5040330,BCT,MKD,OTH,,,,015,2005-09-18T00:00:00.000,2017-06-22T10:42:08.670,10,revise,inactive
07605531,dloagmtp,,,The Devonport,,,,The Devonport,,The Front,,,,I,,NW,E0036679,Middleton One Row,Middleton St George,,,,,,1,UKOS,435234,512265,-1.457407,54.504495,BCT,MKD,PTP,,,,015,2005-09-19T00:00:00.000,2014-01-02T11:00:40.000,7,revise,active
07605532,dloagmtw,,,The Devonport,,,,The Devonport,,The Front,,,,O,,SE,E0036679,Middleton One Row,Middleton St George,,,,,,1,UKOS,435250,512267,-1.4571624,54.5045053,BCT,MKD,PTP,,,,015,2005-09-20T00:00:00.000,2017-06-22T10:41:57.824,10,revise,inactive
07605533,dloagmwa,,,Ropner Gardens,,,,Ropner Gardens,,Middleton Lane,,,,O,,S,E0052977,Middleton St George,,,,,,,0,UKOS,434921,512523,-1.4622127,54.5068286,BCT,MKD,OTH,,,,015,2005-09-21T00:00:00.000,2017-06-22T10:30:55.241,9,revise,inactive
07605534,dloagmwd,,,Ropner Gardens,,,,Ropner Gardens,,Middleton Lane,,,,I,,N,E0052977,Middleton St George,,,,,,,0,UKOS,434906,512551,-1.462439,54.507087,BCT,MKD,OTH,,,,015,2005-09-22T00:00:00.000,2014-01-02T11:01:18.000,5,revise,active
07605535,dloagmwg,,,Almora Hall,,,,Almora Hall,,Middleton Lane,,,,O,,SE,E0052977,Middleton St George,,,,,,,0,UKOS,434768,512848,-1.4645373,54.5097598,BCT,MKD,OTH,,,,015,2005-09-23T00:00:00.000,2017-06-22T10:31:26.674,9,revise,inactive
07605536,dloagmwj,,,Almora Hall,,,,Almora Hall,,Middleton Lane,,,,I,,NW,E0052977,Middleton St George,,,,,,,0,UKOS,434737,512886,-1.465009,54.510109,BCT,MKD,OTH,,,,015,2005-09-24T00:00:00.000,2014-01-02T11:02:35.000,5,revise,active
07605537,dloagmwm,,,Felix House Surgery,,,,Felix House Surgery,,Middleton Lane,,,,O,,SE,E0052977,Middleton St George,,,,,,,0,UKOS,434594,513112,-1.4671937,54.5121442,BCT,MKD,OTH,,,,015,2005-09-25T00:00:00.000,2017-06-22T10:31:15.418,9,revise,inactive
07605538,dloagmwp,,,Felix House Surgery,,,,Felix House Surgery,,Middleton Lane,,,,I,,NW,E0052977,Middleton St George,,,,,,,0,UKOS,434562,513149,-1.467681,54.512485,BCT,MKD,OTH,,,,015,2005-09-26T00:00:00.000,2014-01-02T11:02:56.000,5,revise,active
07605539,dloagmwt,,,Chapel Street,,,,Westview Nursery,,Middleton Lane,,,,O,,S,E0052977,Middleton St George,,,,,,,0,UKOS,434552,513257,-1.4678255,54.5134501,BCT,MKD,OTH,,,,015,2005-09-27T00:00:00.000,2017-06-22T10:30:42.265,10,revise,inactive
07605540,dloagpad,,,Dinsdale Rail Station,,,,Dinsdale Station,,Middleton Lane,,,,I,,N,E0052977,Middleton St George,,,,,,,0,UKOS,434518,513367,-1.468335,54.514447,BCT,MKD,OTH,,,,015,2005-09-28T00:00:00.000,2014-01-02T11:03:20.000,6,revise,active
07605541,dloagpag,,,Dinsdale Rail Station,,,,Dinsdale Station,,Middleton Lane,,,,O,,SE,E0052977,Middleton St George,,,,,,,0,UKOS,434520,513402,-1.4683,54.514761,BCT,MKD,OTH,,,,015,2005-09-29T00:00:00.000,2017-06-22T10:30:24.172,9,revise,inactive
07605542,dloagpaj,,,High Stell,,,,The Havelock Arms,,Station Road,,,,O,,S,E0052977,Middleton St George,,,,,,,0,UKOS,434499,513654,-1.468595,54.517027,BCT,MKD,OTH,,,,015,2005-09-30T00:00:00.000,2014-01-02T11:30:52.000,5,revise,active
07605543,dloagpam,,,High Stell,,,,The Havelock Arms,,Station Road,,,,I,,N,E0052977,Middleton St George,,,,,,,0,UKOS,434487,513672,-1.468779,54.51719,BCT,MKD,OTH,,,,015,2005-10-01T00:00:00.000,2014-01-02T11:31:02.000,5,revise,active
07605544,dloagpap,,,Community Centre,,,,Community Centre,,Station Road,,,,I,,NW,E0052977,Middleton St George,,,,,,,0,UKOS,434338,513862,-1.471058,54.518907,BCT,MKD,OTH,,,,015,2005-10-02T00:00:00.000,2016-01-08T12:29:05.000,7,revise,active
07605545,dloagpat,,,Community Centre,,,,Community Centre,,Station Road,,,,O,,SE,E0052977,Middleton St George,,,,,,,0,UKOS,434314,513905,-1.471424,54.519295,BCT,MKD,OTH,,,,015,2005-10-03T00:00:00.000,2016-01-08T12:28:37.000,7,revise,active
07605546,dloagpaw,,,Sadberge Road,,,,Fighting Cocks,,Station Road,,,,I,,N,E0052977,Middleton St George,,,,,,,0,UKOS,434205,514117,-1.473083,54.521208,BCT,MKD,OTH,,,,015,2005-10-04T00:00:00.000,2014-01-02T11:32:01.000,5,revise,active
07605547,dloagpda,,,Sadberge Road,,,,Fighting Cocks,,Darlington Road,,,,O,,SE,E0052977,Middleton St George,,,,,,,0,UKOS,434138,514187,-1.474106,54.521834,BCT,MKD,OTH,,,,015,2005-10-05T00:00:00.000,2023-10-03T13:50:04.508,7,revise,active
07605548,dloagpdg,,,St George's Gate,,,,St George's Gate,,Darlington Road,,,,O,,SE,E0052977,Middleton St George,,,,,,,0,UKOS,433982,514247,-1.476513,54.522391,BCT,MKD,OTH,,,,015,2005-10-06T00:00:00.000,2014-01-02T11:32:58.000,6,revise,active
07605549,dloagpdj,,,St George's Gate,,,,St George's Gate,,Darlington Road,,,,I,,NW,E0052977,Middleton St George,,,,,,,0,UKOS,433989,514231,-1.476407,54.522247,BCT,MKD,OTH,,,,015,2005-10-07T00:00:00.000,2014-01-02T11:32:48.000,7,revise,active
07605550,dloagpdm,,,Beacon Hill,,,,Beacon Hill,,Darlington Road,,,,O,,NE,E0052981,Sadberge,,,,,,,0,UKOS,433665,516555,-1.481147,54.543153,BCT,MKD,OTH,,,,015,2005-10-08T00:00:00.000,2014-01-02T12:05:17.000,5,revise,active
07605551,dloagpdp,,,Village Hall,,,,Sadberge Village Hall,,Darlington Road,,,,O,,NE,E0052981,Sadberge,,,,,,,0,UKOS,433941,516803,-1.476853,54.545363,BCT,MKD,OTH,,,,015,2005-09-07T00:00:00.000,2014-01-02T12:05:28.000,6,revise,active
07605552,dloagpdt,,,Village Green,,,,Sadberge Village Green,,Darlington Road,,,,O,,NE,E0052981,Sadberge,,,,,,,0,UKOS,434211,516927,-1.472665,54.546459,BCT,MKD,OTH,,,,015,2005-09-07T00:00:00.000,2014-01-02T12:06:06.000,8,revise,active
07605553,dloagpdw,,,Village Green,,,,Sadberge Village Green,,Middleton Road,,,,I,,S,E0052981,Sadberge,,,,,,,0,UKOS,434227,516892,-1.472422,54.546135,BCT,MKD,OTH,,,,015,2005-09-07T00:00:00.000,2014-01-02T12:06:23.000,8,revise,active
07605554,dloagpga,,,Newton Grange Farm,,,,Newton Grange Farm,,A66,,,,O,,E,E0052981,Sadberge,,,,,,,0,UKOS,435085,516692,-1.459183,54.544288,BCT,MKD,OTH,,,,015,2005-09-07T00:00:00.000,2014-02-11T16:13:19.000,7,revise,inactive
07605555,dloagpgd,,,Newton Grange Farm,,,,Newton Grange Farm,,A66,,,,I,,W,E0052981,Sadberge,,,,,,,0,UKOS,435075,516670,-1.45934,54.544091,BCT,MKD,OTH,,,,015,2005-09-07T00:00:00.000,2015-06-15T00:00:00.000,8,revise,inactive
07605556,dloagpgj,,,Kings Arms,,,,Kings Arms,,Glebe Road,,,,I,,W,E0052968,Great Stainton,,,,,,,1,UKOS,433776,521976,-1.478811,54.591852,BCT,MKD,OTH,,,,015,2005-09-07T00:00:00.000,2015-06-15T00:00:00.000,8,revise,inactive
07605559,dloagpgt,,,The Talbot,,,,St Peter's Church and Talbot Hotel,,High Street,,,,O,,SE,E0052962,Bishopton,,,,,,,1,UKOS,436464,521262,-1.437303,54.58525,BCT,MKD,OTH,,,,015,2005-09-07T00:00:00.000,2018-05-01T11:54:07.130,7,revise,inactive
07605560,dloagpgw,,,The Talbot,,,,Opp War Memorial,,High Street,,,,Opp,,NW,E0052962,Bishopton,,,,,,,0,UKOS,436457,521251,-1.437413,54.58516,BCT,CUS,OTH,,,,015,2005-09-07T00:00:00.000,2015-09-25T09:57:10.000,10,revise,active
07605561,dloagpja,,,Little Stainton,,,,,,Little Stainton,,,,NE bound,,NE,E0052962,Bishopton,,,,,,,0,UKOS,435198,520161,-1.457023,54.575445,BCT,HAR,OTH,,,,015,2005-09-07T00:00:00.000,2017-04-06T10:52:50.302,6,revise,inactive
07605562,dloagpjd,,,Houghton Bank,,,,Houghton Bank Lane,,A68,,,,I,,SE,E0052971,Houghton-le-Side,,,,,,,1,UKOS,422552,522213,-1.652487,54.594605,BCT,MKD,OTH,,,,015,2005-10-20T00:00:00.000,2018-05-01T12:00:12.586,6,revise,inactive
07605563,dloagpjg,,,Raby Hunt Inn,,,,Raby Hunt Inn,,B6279,,,,I,,SE,E0052983,Summerhouse,,,,,,,0,UKOS,420178,519079,-1.689442,54.566549,BCT,MKD,OTH,,,,015,2005-09-07T00:00:00.000,2014-01-02T12:35:25.000,5,revise,active
07605564,dloagpjm,,,New Lane,,,,New Lane,,Staindrop Road,,,,I,,SE,E0052965,Denton,,,,,,,0,UKOS,421599,518589,-1.667501,54.562087,BCT,MKD,OTH,,,,015,2007-10-12T00:00:00.000,2014-01-02T10:14:23.000,5,revise,active
07605565,dloagpjp,,,Walworth Castle Hotel,,,,Walworth Castle Hotel,,Walworth,,,,I,,E,E0052984,Walworth,,,,,,,0,UKOS,423067,518971,-1.64477,54.565447,BCT,CUS,OTH,,,,015,2005-09-07T00:00:00.000,2018-05-01T12:00:27.003,5,revise,inactive
07605566,dloagpjt,,,The Fox Hole,,,,The Fox Hole,,B6275,,,,O,,W,E0052980,Piercebridge,,,,,,,1,UKOS,421063,515894,-1.675981,54.537891,BCT,MKD,OTH,,,,015,2005-09-07T00:00:00.000,2015-07-17T11:36:23.000,7,revise,active
07605567,dloagpjw,,,The Fox Hole,,,,The Fox Hole,,B6275,,,,I,,SE,E0052980,Piercebridge,,,,,,,0,UKOS,420973,515934,-1.677369,54.538254,BCT,MKD,OTH,,,,015,2005-09-07T00:00:00.000,2015-07-17T11:36:07.000,6,revise,active
07605568,dloagpma,,,Carlbury Hall,,,,Carlbury Hall,,A67,,,,I,,E,N0076122,Carlbury,,,,,,,0,UKOS,421517,515817,-1.66897,54.53718,BCT,MKD,OTH,,,,015,2005-09-07T00:00:00.000,2014-01-02T11:24:06.000,5,revise,active
07605569,dloagpmd,,,Carlbury Hall,,,,Carlbury Hall,,A67,,,,O,,W,N0076122,Carlbury,,,,,,,1,UKOS,421374,515874,-1.671176,54.537698,BCT,MKD,OTH,,,,015,2005-09-07T00:00:00.000,2014-01-02T11:24:14.000,5,revise,active
07605570,dloagpmg,,,Ulnaby Lane,,,,Duke Of Wellington,,The Green,,,,I,,SE,E0052970,High Coniscliffe,,,,,,,0,UKOS,422501,515378,-1.653796,54.533192,BCT,MKD,OTH,,,,015,2005-09-07T00:00:00.000,2016-01-08T12:30:35.000,6,revise,active
07605571,dloagpmj,,,St Edwin's Church,,,,St Edwin's Church,,The Green,,,,O,,NW,E0052970,High Coniscliffe,,,,,,,1,UKOS,422541,515336,-1.653181,54.532813,BCT,MKD,OTH,,,,015,2005-09-07T00:00:00.000,2016-01-08T12:29:50.000,6,revise,active
07605572,dloagpmp,,,St Edwin's Close,,,,St Edwins Church,,The Green,,,,I,,SE,E0052970,High Coniscliffe,,,,,,,0,UKOS,422648,515278,-1.651532,54.532287,BCT,MKD,OTH,,,,015,2005-09-08T00:00:00.000,2014-01-02T10:43:41.000,5,revise,active
07605573,dloagpmt,,,West End,,,,Merrybent,,Merrybent,,,,I,,SE,E0036678,Merrybent,,,,,,,0,UKOS,424041,514693,-1.630054,54.526966,BCT,MKD,OTH,,,,015,2005-09-07T00:00:00.000,2020-05-11T09:52:36.336,8,revise,active
07605574,dloagpmw,,,West End,,,,Merrybent,,Merrybent,,,,O,,NW,E0036678,Merrybent,,,,,,,0,UKOS,424067,514661,-1.629655,54.526677,BCT,MKD,OTH,,,,015,2005-09-07T00:00:00.000,2020-05-11T09:52:54.100,8,revise,active
07605575,dloagpta,,,East End,,,,A1(M),,Merrybent,,,,O,,NW,E0036678,Merrybent,,,,,,,1,UKOS,424416,514489,-1.624277,54.525115,BCT,MKD,OTH,,,,015,2005-09-07T00:00:00.000,2020-05-11T09:53:12.010,8,revise,active
07605576,dloagptd,,,East End,,,,A1(M),,Merrybent,,,,I,,SE,E0036678,Merrybent,,,,,,,0,UKOS,424552,514418,-1.622182,54.52447,BCT,MKD,OTH,,,,015,2005-09-07T00:00:00.000,2020-05-11T09:53:27.853,7,revise,active
07605577,dloagptg,,,Gate Lane,,,,Gate Lane,,A67,,,,O,,NW,E0052975,Low Coniscliffe,Darlington,,,,,,1,UKOS,425015,514215,-1.615046,54.522623,BCT,MKD,OTH,,,,015,2005-09-07T00:00:00.000,2014-01-02T10:58:12.000,5,revise,active
07605578,dloagptj,,,Gate Lane,,,,Baydale Beck Public House,,A67,,,,I,,SE,E0052975,Low Coniscliffe,Darlington,,,,,,0,UKOS,425133,514172,-1.613226,54.522231,BCT,MKD,OTH,,,,015,2005-09-07T00:00:00.000,2014-01-02T10:58:24.000,5,revise,active
07605580,dloagptp,,,Dog Inn,,,,Dog Inn,,West Auckland Road,,,,O,,NW,N0076121,Cross Lanes,,,,,,,1,UKOS,423833,521163,-1.632746,54.58511,BCT,CUS,OTH,,,,015,2005-10-20T00:00:00.000,2015-06-15T00:00:00.000,6,revise,inactive
07605581,dloagptw,,,Dog Inn,,,,Dog Inn,,West Auckland Road,,,,I,,SE,N0076121,Cross Lanes,,,,,,,0,UKOS,423841,521170,-1.632622,54.585173,BCT,CUS,OTH,,,,015,2005-10-20T00:00:00.000,2015-06-15T00:00:00.000,6,revise,inactive
07605582,dloajdjd,,,Raby Hunt Inn,,,,Raby Hunt Inn,,B6279,,,,O,,NW,E0052983,Summerhouse,,,,,,,1,UKOS,420199,519059,-1.689118,54.56636,BCT,MKD,TIP,,,,015,2009-10-12T08:30:00.000,2014-01-02T12:35:35.000,3,revise,active
07605583,dloagpwd,,,Houghton Bank,,,,Houghton Bank Lane,,A68,,,,O,,NW,E0052971,Houghton-le-Side,,,,,,,0,UKOS,422549,522207,-1.652534,54.594551,BCT,CUS,OTH,,,,015,2005-10-20T00:00:00.000,2015-06-15T00:00:00.000,7,revise,inactive
07605584,dloagpwg,,,Morrisons,,,,Morrisons,,Morton Park Way,,,,,,S,N0076129,Morton Park - Darlington,Darlington,,,,,,1,UKOS,432383,513936,-1.501249,54.519701,BCT,MKD,PTP,,,,015,2005-09-05T00:00:00.000,2013-04-09T14:38:37.000,4,revise,active
07605587,dloagpwp,,,Clifton Road,,,,Cattle Market,,Clifton Road,,,,S bound,,S,E0054904,Darlington,,,,,,,0,UKOS,429193,513957,-1.550526,54.520082,BCT,HAR,OTH,,,,015,2005-10-21T00:00:00.000,2017-03-08T14:53:01.539,5,revise,inactive
07605588,dloagpwt,,,Clifton Road,,,,Cattle Market,,Clifton Road,,,,N bound,,N,E0054904,Darlington,,,,,,,0,UKOS,429191,513983,-1.550554,54.520316,BCT,HAR,OTH,,,,015,2005-10-22T00:00:00.000,2017-03-08T14:53:28.003,5,revise,inactive
07605590,dloagtag,,,Bourne Avenue,,,,Bourne Ave,,Hundens Lane,,,,I,,SW,N0078628,Hundens Lane,Darlington,,,,,,0,UKOS,430062,514715,-1.537025,54.526835,BCT,MKD,OTH,,,,015,2005-09-02T00:00:00.000,2011-09-08T00:00:00.000,3,revise,active
07605592,dloagtmw,,,Harris Street,,,,Harris Street,,Hewitson Road South,,,,I,,N,E0036666,Firthmoor,Darlington,,,,,,0,UKOS,430913,513883,-1.523963,54.519316,BCT,MKD,OTH,,,,015,2005-09-09T00:00:00.000,2011-09-08T00:00:00.000,4,revise,active
07605593,dloagtpa,,,Marston Moor Road,,,,Firthmoor Crescent,,Hewitson Road South,,,,O,,S,E0036666,Firthmoor,Darlington,,,,,,0,UKOS,430956,513639,-1.523324,54.51712,BCT,MKD,OTH,,,,015,2005-09-10T00:00:00.000,2011-09-08T00:00:00.000,4,revise,active
07605595,dloagtpg,,,Grangemoor Close,,,,Grangemoor Close,,Carlton Moor Crescent,,,,O,,NW,E0036666,Firthmoor,Darlington,,,,,,0,UKOS,430776,513254,-1.526145,54.513663,BCT,MKD,OTH,,,,015,2005-09-12T00:00:00.000,2009-09-14T08:30:00.000,3,revise,active
07605596,dloagtpj,,,Kexwith Moor Close,,,,Kexwith Moor Close,,Forest Moor Road,,,,O,,N,E0036666,Firthmoor,Darlington,,,,,,0,UKOS,430845,513055,-1.5251,54.511879,BCT,MKD,OTH,,,,015,2005-09-13T00:00:00.000,2009-09-14T08:30:00.000,3,revise,active
07605597,dloagtpm,,,Barden Moor Road,,,,Barden Moor Road,,Edgemoor Road,,,,O,,SE,E0036666,Firthmoor,Darlington,,,,,,0,UKOS,430620,513122,-1.528568,54.512495,BCT,MKD,OTH,,,,015,2005-09-14T00:00:00.000,2009-09-14T08:30:00.000,3,revise,active
07605598,dloagtpt,,,Pateley Moor Crescent,,,,Pateley Moor Crescent,,Barden Moor Road,,,,I,,W,E0036666,Firthmoor,Darlington,,,,,,0,UKOS,430388,513066,-1.532157,54.512005,BCT,MKD,OTH,,,,015,2005-09-15T00:00:00.000,2009-09-14T08:30:00.000,3,revise,active
07605603,dloagtwp,,,Morton Park Business Park,,,,Hospitaller Order of St John of God,,Morton Road,,,,O,,S,E0036676,Lingfield,Darlington,,,,,,0,UKOS,432238,514208,-1.50346,54.522154,BCT,MKD,OTH,,,,015,2005-09-20T00:00:00.000,2014-03-20T13:55:16.000,4,revise,inactive
07605604,dloagtwt,,,Pilmoor Green,,,,Pilmoor Green,,Emley Moor Road,,,,O,,E,E0036666,Firthmoor,Darlington,,,,,,0,UKOS,430333,513155,-1.532997,54.512808,BCT,MKD,OTH,,,,015,2005-09-21T00:00:00.000,2009-09-14T08:30:00.000,0,new,active
07605610,dloagwda,,,Edgecombe Drive,,,,,,Edgecombe Drive,,,,S bound,,S,N0076130,Mowden,Darlington,,,,,,0,UKOS,426363,515304,-1.594124,54.532342,BCT,HAR,OTH,,,,015,2005-09-27T00:00:00.000,2013-04-05T17:21:52.000,5,revise,active
07605612,dloagwdm,,,Alwyn Road,,,,,,PRINCESS ROAD,,,,I,,W,E0036669,Harrowgate Hill,Darlington,,,,,,0,UKOS,429201,517702,-1.550033,54.553732,BCT,MKD,OTH,,,,015,2005-09-29T00:00:00.000,2019-02-07T10:14:20.273,12,revise,active
07605613,dloagwdp,,,Melrose Avenue,,,,,,ALWYN ROAD,,,,I,,S,E0036669,Harrowgate Hill,Darlington,,,,,,0,UKOS,429257,517388,-1.549198,54.550907,BCT,MKD,OTH,,,,015,2005-09-30T00:00:00.000,2019-06-07T15:08:23.759,12,revise,active
07605618,dloagwgj,,,Alverton Drive,,,,,,Alverton Drive,,,,SW bound,,SW,N0076125,High Grange,Darlington,,,,,,0,UKOS,427093,516984,-1.582689,54.547401,BCT,HAR,OTH,,,,015,2005-10-05T00:00:00.000,2018-05-01T12:00:46.183,8,revise,inactive
07605619,dloagwgm,,,Clowbeck Court,,,,,,Clowbeck Court,,,,NE bound,,NE,N0076125,High Grange,Darlington,,,,,,0,UKOS,427290,517010,-1.579642,54.547624,BCT,HAR,OTH,,,,015,2005-10-06T00:00:00.000,2018-05-01T12:01:03.145,6,revise,inactive
07605620,dloagwgp,,,Charnwood Drive,,,,Charnwood Drive,,Alverton Drive,,,,W bound,,SW,N0076125,High Grange,Darlington,,,,,,0,UKOS,427329,517198,-1.579021,54.549311,BCT,HAR,OTH,,,,015,2005-10-07T00:00:00.000,2018-05-01T12:01:17.027,7,revise,inactive
07605621,dloagwgt,,,The Broadway,,,,,,The Broadway,,,,W bound,,SW,E0036676,Lingfield,Darlington,,,,,,0,UKOS,430809,514726,-1.525482,54.526898,BCT,HAR,OTH,,,,015,2005-10-08T00:00:00.000,2018-05-01T12:01:30.859,6,revise,inactive
07605622,dloagwgw,,,The Broadway,,,,,,The Broadway,,,,E bound,,NE,E0036676,Lingfield,Darlington,,,,,,0,UKOS,430788,514727,-1.525806,54.526908,BCT,HAR,OTH,,,,015,2005-10-09T00:00:00.000,2018-05-01T12:01:45.835,6,revise,inactive
07605623,dloagwja,,,Teal Road,,,,,,Teal Road,,,,N bound,,NW,E0036676,Lingfield,Darlington,,,,,,0,UKOS,431059,514388,-1.521655,54.523845,BCT,HAR,OTH,,,,015,2005-10-10T00:00:00.000,2018-05-01T12:01:58.494,6,revise,inactive
07605624,dloagwjd,,,Teal Road,,,,,,Teal Road,,,,S bound,,SE,E0036676,Lingfield,Darlington,,,,,,0,UKOS,431064,514396,-1.521577,54.523917,BCT,HAR,OTH,,,,015,2005-10-11T00:00:00.000,2018-05-01T12:02:14.316,6,revise,inactive
07605625,dloagwjg,,,Martindale Road,,,,,,Martindale Road,,,,H&R I,,E,E0036692,Springfield,Darlington,,,,,,0,UKOS,430125,516410,-1.535878,54.542072,BCT,HAR,OTH,,,,015,2005-10-12T00:00:00.000,2013-03-21T12:12:49.000,7,revise,inactive
07605626,dloagwjm,,,Alnwick Place,,,,,,Alnwick Place,,,,W bound,,W,E0036692,Springfield,Darlington,,,,,,0,UKOS,430298,516380,-1.533208,54.541792,BCT,HAR,OTH,,,,015,2005-10-13T00:00:00.000,2018-05-01T12:02:37.320,8,revise,inactive
07605627,dloagwjp,,,Hutton Avenue,,,,,,Hutton Avenue,,,,H&R I,,SE,E0036692,Springfield,Darlington,,,,,,0,UKOS,430413,516082,-1.531461,54.539107,BCT,HAR,OTH,,,,015,2005-10-14T00:00:00.000,2013-03-21T12:16:31.000,6,revise,inactive
07605628,dloagwjt,,,Springwell Terrace,,,,,,Springwell Terrace,,,,E bound,,NE,E0036692,Springfield,Darlington,,,,,,0,UKOS,430538,516077,-1.529529,54.539055,BCT,HAR,OTH,,,,015,2005-10-15T00:00:00.000,2014-01-02T12:32:12.000,7,revise,active
07605629,dloagwjw,,,Morpeth Avenue,,,,,,Morpeth Avenue,,,,N bound,,N,E0036692,Springfield,Darlington,,,,,,0,UKOS,430303,516540,-1.5331181,54.5432248,BCT,HAR,OTH,,,,015,2005-10-16T00:00:00.000,2018-05-01T12:02:50.267,7,revise,inactive
07605630,dloagwma,,,Springfield Road,,,,,,Springfield Road,,,,E bound,,E,E0036692,Springfield,Darlington,,,,,,0,UKOS,430196,516622,-1.5347636,54.5439681,BCT,HAR,OTH,,,,015,2005-10-17T00:00:00.000,2018-05-01T12:03:37.295,9,revise,inactive
07605632,dloagwmd,,,Geneva Crescent,,,,,,Geneva Crescent,,,,NW bound,,NW,N0078629,Neasham Road,Darlington,,,,,,0,UKOS,429685,513037,-1.543018,54.511786,BCT,HAR,OTH,,,,015,2005-10-18T00:00:00.000,2013-04-05T17:27:01.000,3,revise,active
07605633,dloagwmg,,,Parkside,,,,,,Parkside,,,,E bound,,E,N0078629,Neasham Road,Darlington,,,,,,0,UKOS,429671,513220,-1.543215,54.513432,BCT,HAR,OTH,,,,015,2005-10-19T00:00:00.000,2013-04-05T17:27:18.000,3,revise,active
07605634,dloagwmj,,,Acorn Close,,,,Acorn Close,,Yarm Road,,,,O,,E,E0052977,Middleton St George,,,,,,,0,UKOS,434976,513571,-1.461237,54.516249,BCT,MKD,OTH,,,,015,2005-10-20T00:00:00.000,2014-01-02T11:58:08.000,5,revise,active
07605635,dloagwmp,,,New Row,,,,Hansons Buildings,,Yarm Road,,,,I,,NW,E0052977,Middleton St George,,,,,,,0,UKOS,434599,513534,-1.467065,54.515942,BCT,MKD,OTH,,,,015,2005-10-21T00:00:00.000,2023-09-14T11:57:13.594,7,revise,active
07605636,dloagwmt,,,Sadberge Road,,,,,,Sadberge Road,,,,S bound,,S,E0052977,Middleton St George,,,,,,,0,UKOS,434318,515073,-1.471226,54.529791,BCT,HAR,OTH,,,,015,2005-10-22T00:00:00.000,2018-05-01T12:05:04.506,7,revise,inactive
07605637,dloagwmw,,,Middleton Road,,,,,,Middleton Road,,,,N bound,,N,E0052981,Sadberge,,,,,,,0,UKOS,434203,516349,-1.472856,54.541266,BCT,HAR,OTH,,,,015,2005-10-23T00:00:00.000,2018-05-01T12:05:16.675,7,revise,inactive
07605638,dloagwpa,,,Hill House Lane,,,,,,Hill House Lane,,,,N bound,,N,E0052981,Sadberge,,,,,,,0,UKOS,434181,517907,-1.473015,54.555268,BCT,HAR,OTH,,,,015,2005-10-24T00:00:00.000,2014-01-02T10:08:44.000,6,revise,active
07605639,dloajagd,,,Pettys Nook,,,,,,Bishopton Lane,,,,N bound,,N,E0052981,Sadberge,,,,,,,0,UKOS,434064,519284,-1.474665,54.56765,BCT,HAR,OTH,,,,015,2005-10-25T00:00:00.000,2014-01-02T10:10:03.000,6,revise,active
07605641,dloajagm,,,Milbank Crescent,,,,Milbank Crescent,,Milbank Road,,,,E bound,,E,N0078475,West End,Darlington,,,,,,0,UKOS,427849,514858,-1.571203,54.528246,BCT,HAR,OTH,,,,015,2005-10-27T00:00:00.000,2018-08-31T11:27:39.948,7,revise,active
07605646,dloajajd,,,Walworth Castle Hotel,,,,Walworth Castle Hotel,,Walworth,,,,O,,N,E0052984,Walworth,,,,,,,1,UKOS,423051,518969,-1.645017,54.56543,BCT,CUS,OTH,,,,015,2005-11-01T00:00:00.000,2018-05-01T12:05:31.249,6,revise,inactive
07605647,dloajajg,,,Walworth Gate,,,,Back Lane,,Walworth Road,,,,I,,SE,E0052984,Walworth,,,,,,,0,UKOS,423435,520126,-1.638987,54.57581,BCT,CUS,OTH,,,,015,2005-11-02T00:00:00.000,2018-05-01T12:05:47.128,6,revise,inactive
07605656,dloajamp,,,High Barn Road,,,,School Aycliffe,,High Barn Road,,,,HAR O,,E,N0076134,School Aycliffe,,,,,,,0,UKOS,425703,523725,-1.603589,54.608043,BCT,HAR,OTH,,,,015,2005-11-11T00:00:00.000,2013-04-05T16:43:52.000,6,revise,inactive
07605657,dloajamt,,,Eastfields Road,,,,School Aycliffe,,Eastfields Road,,,,H&R O,,N,N0076134,School Aycliffe,,,,,,,0,UKOS,425920,523759,-1.600227,54.608337,BCT,HAR,OTH,,,,015,2005-11-12T00:00:00.000,2013-04-05T16:44:21.000,6,revise,inactive
07605663,dloajapm,,,Salters Avenue,,,,,,Salters Avenue,,,,SW bound,,SW,E0036692,Springfield,Darlington,,,,,,0,UKOS,430563,515932,-1.529158,54.53775,BCT,HAR,OTH,,,,015,2005-11-18T00:00:00.000,2018-05-01T12:06:03.716,8,revise,inactive
07605667,dloajatd,,,Tees Grange Avenue H&R,,,,,,Tees Grange Avenue,,,,E bound,,E,N0076130,Mowden,Darlington,,,,,,0,UKOS,426182,514455,-1.596996,54.524713,BCT,HAR,OTH,,,,015,2005-11-22T00:00:00.000,2018-05-01T12:06:17.392,8,revise,inactive
07605674,dloagwpd,,,New Lane,,,,New Lane,,Staindrop Road,,,,O,,NW,E0052965,Denton,,,,,,,1,UKOS,421565,518596,-1.668026,54.562143,BCT,MKD,OTH,,,,015,2007-10-12T00:00:00.000,2014-01-02T10:14:55.000,3,revise,active
07605675,dloagwpg,,,West Park Hospital,,,,West Park Hospital,,West Park,,,,I,,NW,N0076140,West Park,Darlington,,,,,,1,UKOS,426474,516568,-1.592295,54.543695,BCT,MKD,TIP,,,,015,2009-09-11T08:30:00.000,2015-09-25T10:06:46.000,1,revise,active
07605676,dloagwpj,,,Argos,,,,Argos Distribution Centre,,Rotary Way,,,,I,,SE,E0036663,Faverdale,Darlington,,,,,,0,UKOS,427651,517306,-1.574033,54.550256,BCT,MKD,OTH,,,,015,2009-09-11T08:30:00.000,2009-09-11T08:30:00.000,0,new,active
07605677,dloajdjg,,,Argos,,,,Argos Distribution Centre,,Rotary Way,,,,O,,NW,E0036663,Faverdale,Darlington,,,,,,0,UKOS,427716,517270,-1.573032,54.549929,BCT,MKD,OTH,,,,015,2009-09-11T08:30:00.000,2009-09-11T08:30:00.000,0,new,active
07605680,dloagwta,,,Arena,,,,Arena,,Neasham Road,,,,I,,NW,N0078629,Neasham Road,Darlington,,,,,,0,UKOS,430004,512832,-1.538119,54.509924,BCT,MKD,OTH,,,,015,2009-11-27T00:00:00.000,2024-10-04T10:10:59.720,5,revise,active
07605681,dloagwtd,,,Arena,,,,Arena,,Neasham Road,,,,O,,SE,N0078629,Neasham Road,Darlington,,,,,,0,UKOS,430077,512717,-1.536996,54.508887,BCT,MKD,OTH,,,,015,2009-11-27T00:00:00.000,2013-09-19T13:50:56.000,2,revise,active
07605682,dloagwtg,,,Rossway,,,,Rossway,,Whinbush Way,,,,I,,W,N0076141,Whinfield,Darlington,,,,,,0,UKOS,431409,517266,-1.515942,54.549678,BCT,MKD,OTH,,,,015,2005-09-01T00:00:00.000,2009-08-27T08:30:00.000,2,revise,active
07605683,dloagwtj,,,Rivergarth,,,,Rivergarth,,Barmpton Lane,,,,O,,N,N0076141,Whinfield,Darlington,,,,,,0,UKOS,431429,516629,-1.5157,54.543961,BCT,MKD,OTH,,,,015,2005-09-01T00:00:00.000,2009-08-27T08:30:00.000,2,revise,active
07605684,dloagwtm,,,Shuttle & Loom,,,,Shuttle & Loom,,Whinfield Road,,,,O,,SE,N0076141,Whinfield,Darlington,,,,,,0,UKOS,430899,516658,-1.523889,54.544254,BCT,MKD,OTH,,,,015,2005-09-01T00:00:00.000,2020-05-11T09:55:39.642,4,revise,active
07605685,dloagwtp,,,Locomotive Street,,,,Salvation Army Citadel,,Thompson Street East,,,,O,,E,E0036692,Springfield,Darlington,,,,,,1,UKOS,430155,516851,-1.53537,54.546033,BCT,MKD,OTH,,,,015,2005-08-31T00:00:00.000,2018-05-01T12:06:30.324,4,revise,inactive
07605686,dloagwtw,,,Staindrop Crescent,,,,Staindrop Crescent,,Staindrop Road,,,,I,,SE,N0076130,Mowden,Darlington,,,,,,0,UKOS,427206,515334,-1.581094,54.532567,BCT,MKD,OTH,,,,015,2005-08-23T00:00:00.000,2015-06-12T14:49:07.000,5,revise,active
07605692,dloajadt,,,Bowman Street,,,,Bowman Street,,Longfield Road,,,,O,,NE,E0036669,Harrowgate Hill,Darlington,,,,,,0,UKOS,429319,517260,-1.548252,54.549749,BCT,MKD,OTH,,,,015,2005-10-21T00:00:00.000,2021-12-07T16:04:56.112,5,revise,inactive
07605693,dloajadw,,,Arkle Crescent,,,,Shannon Way,,Hammond Drive,,,,O,,E,N0076133,Skerne Park,Darlington,,,,,,0,UKOS,428830,512810,-1.556245,54.509795,BCT,MKD,OTH,,,,015,2005-10-22T00:00:00.000,2017-10-26T10:54:52.972,5,revise,active
07605696,dloagtaj,,,Staindrop View,,,,Cockerbeck Nature Reserve,,Staindrop Road,,,,I,,SE,N0076130,Mowden,Darlington,,,,,,0,UKOS,426597,515538,-1.590487,54.534424,BCT,MKD,OTH,,,,015,2005-08-23T00:00:00.000,2011-09-08T00:00:00.000,3,revise,active
07605697,dloagtam,,,Staindrop View,,,,Cockerbeck Nature Reserve,,Staindrop Road,,,,O,,NW,N0076130,Mowden,Darlington,,,,,,0,UKOS,426537,515546,-1.591413,54.534499,BCT,MKD,OTH,,,,015,2005-08-23T00:00:00.000,2011-09-08T00:00:00.000,3,revise,active
07605698,dloagtap,,,Boundary View,,,,Cockerbeck Nature Reserve,,Staindrop Road,,,,I,,SE,N0076130,Mowden,Darlington,,,,,,0,UKOS,426687,515508,-1.589098,54.534158,BCT,MKD,OTH,,,,015,2005-08-23T00:00:00.000,2011-09-08T00:00:00.000,3,revise,active
07605699,dloagtat,,,Boundary View,,,,Cockerbeck Nature Reserve,,Staindrop Road,,,,O,,NW,N0076130,Mowden,Darlington,,,,,,0,UKOS,426632,515515,-1.589948,54.534224,BCT,MKD,OTH,,,,015,2005-08-23T00:00:00.000,2011-09-08T00:00:00.000,3,revise,active
07605700,dloagtaw,,,Compton Grove,,,,Compton Grove,,Staindrop Road,,,,O,,NW,E0054904,Darlington,,,,,,,0,UKOS,427350,515282,-1.578874,54.532092,BCT,MKD,OTH,,,,015,2005-08-23T00:00:00.000,2009-08-25T08:30:00.000,2,revise,active
07605701,dloagtda,,,Lunedale Road,,,,Lunedale Road,,Staindrop Road,,,,O,,NW,N0076130,Mowden,Darlington,,,,,,0,UKOS,426953,515381,-1.584999,54.533003,BCT,MKD,OTH,,,,015,2005-08-23T00:00:00.000,2015-09-02T10:58:21.000,4,revise,active
07605702,dloagtdg,,,Maidendale House,,,,Maidendale House,,Burnside Road,,,,I,,N,E0036666,Firthmoor,Darlington,,,,,,0,UKOS,430877,513554,-1.524554,54.516361,BCT,MKD,OTH,,,,015,2005-09-06T00:00:00.000,2011-09-08T00:00:00.000,3,revise,active
07605710,dloagtdj,,,Houndgate,,,,Town Centre,,Houndgate,,,,Stand N,,E,E0054904,Darlington,,,,,,,0,UKOS,428759,514364,-1.557191,54.523756,BCT,MKD,TIP,,,,015,2006-12-20T00:00:00.000,2022-10-13T13:59:06.442,3,revise,inactive
07605711,dloagtga,,,Town Hall,,,,Town Hall,,Feethams,,,,Stand T,,S,E0054904,Darlington,,,,,,,0,UKOS,429004,514355,-1.553406,54.52367,BCT,MKD,TIP,,,,015,2005-09-08T00:00:00.000,2018-06-25T11:22:21.964,6,revise,active
07605712,dloagtgd,,,Town Hall,,,,Town Hall,,Feethams,,,,Stand M,,S,E0054904,Darlington,,,,,,,0,UKOS,429002,514339,-1.553439,54.523526,BCT,MKD,PTP,,,,015,2006-12-20T00:00:00.000,2018-06-25T11:37:54.966,8,revise,active
07605713,dloagtgj,,,Tubwell Row,,,,Town Centre,,Tubwell Row,,,,Stand L,,E,E0054904,Darlington,,,,,,,0,UKOS,429047,514498,-1.552728,54.524952,BCT,MKD,PTP,,,,015,2005-09-10T00:00:00.000,2018-06-25T10:17:42.550,4,revise,active
07605714,dloagtgm,,,Tubwell Row,,,,Town Centre,,Tubwell Row,,,,Stand J,,E,E0054904,Darlington,,,,,,,0,UKOS,428958,514494,-1.554104,54.524913,BCT,MKD,PTP,,,,015,2005-09-11T00:00:00.000,2018-06-25T10:16:56.001,3,revise,active
07605715,dloagtgp,,,Tubwell Row,,,,Town Centre,,Tubwell Row,,,,Stand I,,E,E0054904,Darlington,,,,,,,0,UKOS,428941,514497,-1.554366,54.524941,BCT,MKD,PTP,,,,015,2005-09-12T00:00:00.000,2018-06-25T10:13:40.407,3,revise,active
07605716,dloagtgt,,,Tubwell Row,,,,Town Centre,,Tubwell Row,,,,Stand H,,E,E0054904,Darlington,,,,,,,1,UKOS,428920,514500,-1.55469,54.524978,BCT,MKD,PTP,,,,015,2005-09-13T00:00:00.000,2018-06-25T10:13:20.154,3,revise,active
07605716A,,,,Tubwell Row Stand H,,,,,,,,,,,,E,E0054904,Darlington,,,,,,,0,UKOS,428923,514513,-1.554642,54.525094,BCT,CUS,OTH,,,,015,2005-10-12T00:00:00.000,2007-06-15T00:00:00.000,1,revise,inactive
07605716C,,,,Tubwell Row Stand J,,,,,,,,,,,,E,E0054904,Darlington,,,,,,,0,UKOS,428962,514505,-1.554041,54.52502,BCT,CUS,OTH,,,,015,2005-10-12T00:00:00.000,2007-06-15T00:00:00.000,1,revise,inactive
07605716E,,,,Tubwell Row Stand L,,,,,,,,,,,,E,E0054904,Darlington,,,,,,,0,UKOS,429047,514510,-1.552727,54.52506,BCT,CUS,OTH,,,,015,2005-10-12T00:00:00.000,2007-06-15T00:00:00.000,1,revise,inactive
07605717,dloagtgw,,,Prebend Row,,,,Town Centre,,Prebend Row,,,,Stand G,,S,E0054904,Darlington,,,,,,,0,UKOS,428890,514524,-1.555151,54.525195,BCT,MKD,PTP,,,,015,2005-09-15T00:00:00.000,2018-06-25T10:01:44.221,3,revise,active
07605717A,,,,Prebend Row Stand G,,,,,,,,,,,,N,E0054904,Darlington,,,,,,,0,UKOS,428900,514569,-1.554992,54.525599,BCT,CUS,OTH,,,,015,2005-10-12T00:00:00.000,2007-06-15T00:00:00.000,1,revise,inactive
07605718,dloagtja,,,Prebend Row,,,,Town Centre,,Prebend Row,,,,Stand F,,S,E0054904,Darlington,,,,,,,0,UKOS,428894,514545,-1.555087,54.525375,BCT,MKD,PTP,,,,015,2005-09-15T00:00:00.000,2018-06-25T10:01:29.604,3,revise,active
07605720,dloagtjg,,,Crown Street,,,,Town Centre,,Crown Street,,,,Stand D,,SE,E0054904,Darlington,,,,,,,0,UKOS,428995,514708,-1.553511,54.526834,BCT,MKD,PTP,,,,015,2005-09-17T00:00:00.000,2018-06-25T09:58:18.122,6,revise,active
07605721,dloajgjg,,,Tubwell Row,,,,Town Centre,,Tubwell Row,,,,Stand K,,E,E0054904,Darlington,,,,,,,0,UKOS,429005,514494,-1.553377,54.524919,BCT,MKD,PTP,,,,015,2005-09-10T00:00:00.000,2018-06-25T10:17:18.965,3,revise,active
07605722,dloagtjm,,,Northgate,,,,Town Centre,,Northgate,,,,Stand C,,S,E0054904,Darlington,,,,,,,0,UKOS,428975,514738,-1.553817,54.527113,BCT,MKD,PTP,,,,015,2005-09-18T00:00:00.000,2018-06-25T09:59:28.318,3,revise,active
07605723,dloagtma,,,Northgate,,,,Town Centre,,Northgate,,,,Stand B,,S,E0054904,Darlington,,,,,,,0,UKOS,428984,514757,-1.553676,54.527275,BCT,MKD,PTP,,,,015,2005-09-19T00:00:00.000,2018-06-25T09:59:14.767,3,revise,active
07605724,dloagtmd,,,Northgate,,,,Town Centre,,Northgate,,,,Stand A,,S,E0054904,Darlington,,,,,,,0,UKOS,428988,514776,-1.553612,54.527454,BCT,MKD,PTP,,,,015,2005-09-20T00:00:00.000,2018-06-25T09:58:57.235,3,revise,active
07605725,dloagtmg,,,Four Riggs,,,,Four Riggs,,Bondgate,,,,I,,SE,E0054904,Darlington,,,,,,,0,UKOS,428672,514714,-1.558501,54.526915,BCT,MKD,OTH,,,,015,2007-01-22T00:00:00.000,2015-09-02T11:50:07.000,3,revise,active
07605726,dloagtmj,,,Four Riggs,,,,Four Riggs,,Bondgate,,,,O,,NW,E0054904,Darlington,,,,,,,0,UKOS,428663,514698,-1.558641,54.526763,BCT,MKD,OTH,,,,015,2007-01-22T00:00:00.000,2018-06-25T11:30:57.270,4,revise,active
07605727,dloajdap,,,Allington Way,,,,,,Allington Way,,,,E bound,,E,E0036676,Lingfield,Darlington,,,,,,0,UKOS,431629,514518,-1.512835,54.524978,BCT,HAR,OTH,,,,015,2009-04-23T00:00:00.000,2015-08-26T00:00:00.000,4,revise,inactive
07605743,dloajawp,,,Milbank Court,,,,Milbank Court,,Milbank Road,,,,O,,W,N0078475,West End,Darlington,,,,,,0,UKOS,427448,514811,-1.577403,54.527854,BCT,MKD,OTH,,,,015,2009-09-09T00:00:00.000,2018-05-01T12:06:43.620,1,revise,inactive
07605744,dloajawt,,,Milbank Crescent,,,,The Woodlands,,Milbank Road,,,,O,,W,N0078475,West End,Darlington,,,,,,0,UKOS,427889,514850,-1.570586,54.528172,BCT,MKD,OTH,,,,015,2009-02-19T00:00:00.000,2009-09-09T00:00:00.000,1,revise,active
07605745,dloajdad,,,Fenby Avenue,,,,Fenby Avenue,,Harris Street,,,,I,,W,E0036662,Eastbourne,Darlington,,,,,,0,UKOS,430571,513895,-1.529245,54.519444,BCT,MKD,OTH,,,,015,2009-02-19T00:00:00.000,2009-09-14T00:00:00.000,0,new,active
07605746,dloajdag,,,Greencroft Close,,,,Greencroft Close,,Cleveland Terrace,,,,I,,E,N0078475,West End,Darlington,,,,,,0,UKOS,427933,514147,-1.569972,54.521852,BCT,MKD,OTH,,,,015,2009-02-19T00:00:00.000,2018-05-01T12:06:56.086,2,revise,inactive
07605747,dloajdam,,,Hackworth House,,,,Hackworth House,,Alderman Best Way,,,,I,,N,E0052978,Morton Palms,Darlington,,,,,,1,UKOS,432289,513432,-1.502757,54.515177,BCT,MKD,TIP,,,,015,2009-04-20T00:00:00.000,2017-06-22T10:42:37.241,3,revise,inactive
07605749,dloajdaw,,,Bay Tree Road,,,,Bay Tree Road,,Mayfair Road,,,,I,,S,E0036669,Harrowgate Hill,Darlington,,,,,,0,UKOS,429505,517558,-1.545347,54.552425,BCT,MKD,OTH,,,,015,2009-10-27T00:00:00.000,2015-09-02T10:39:39.000,5,revise,active
07605751,dloajdgd,,,Glebe Road,,,,Glebe Road,,Laburnum Road,,,,I,,NW,E0036669,Harrowgate Hill,Darlington,,,,,,0,UKOS,429622,517590,-1.543535,54.552697,BCT,MKD,OTH,,,,015,2009-10-27T00:00:00.000,2013-02-08T13:50:30.000,3,revise,active
07605752,dloajdgj,,,Dolphin Centre,,,,Darlington Town Hall,,Feethams,,,,I,,N,E0054904,Darlington,,,,,,,0,UKOS,428988,514371,-1.553652,54.523806,BCT,MKD,TIP,,,,015,2009-12-17T00:00:00.000,2010-11-15T00:00:00.000,1,revise,active
07605753,dloajdjm,,,Lingfield Way,,,,,,Lingfield Way,,,,S bound,,S,E0036676,Lingfield,Darlington,,,,,,0,UKOS,431999,514173,-1.507156,54.521855,BCT,HAR,OTH,,,,015,2010-04-22T00:00:00.000,2015-08-26T00:00:00.000,3,revise,inactive
07605754,dloajdjp,,,Bourne Avenue,,,,Bourne Ave,,Hundens Lane,,,,O,,NE,N0078628,Hundens Lane,Darlington,,,,,,0,UKOS,430064,514755,-1.53699,54.527203,BCT,MKD,OTH,,,,015,2009-08-13T08:30:00.000,2011-09-08T00:00:00.000,1,revise,active
07605755,dloajdjt,,,Edgecombe Drive,,,,,,Edgecombe Drive,,,,N bound,,N,N0076130,Mowden,Darlington,,,,,,0,UKOS,426358,515278,-1.594203,54.532108,BCT,HAR,OTH,,,,015,2009-09-02T08:30:00.000,2018-05-01T12:12:09.604,3,revise,inactive
07605756,dloajdjw,,,Wylam Avenue North,,,,,,Wylam Avenue,,,,H&R I,,S,E0036692,Springfield,Darlington,,,,,,0,UKOS,430086,516732,-1.536448,54.544968,BCT,HAR,OTH,,,,015,2010-04-14T14:24:00.000,2013-03-21T12:12:18.000,3,revise,inactive
07605757,dloajdma,,,Wylam Avenue North,,,,,,Wylam Avenue,,,,N bound,,N,E0036692,Springfield,Darlington,,,,,,0,UKOS,430073,516723,-1.53665,54.544888,BCT,HAR,OTH,,,,015,2010-04-14T14:26:00.000,2018-05-01T12:15:59.199,6,revise,inactive
07605758,dloajdmd,,,Wylam Avenue South,,,,,,Wylam Avenue,,,,H&R I,,SW,E0036692,Springfield,Darlington,,,,,,0,UKOS,430022,516525,-1.537459,54.543103,BCT,HAR,OTH,,,,015,2010-04-14T14:29:00.000,2013-03-21T12:23:19.000,3,revise,inactive
07605759,dloajdmg,,,Alnwick Place,,,,,,Alnwick Place,,,,E bound,,E,E0036692,Springfield,Darlington,,,,,,0,UKOS,430302,516385,-1.533145,54.541837,BCT,HAR,OTH,,,,015,2010-04-14T14:35:00.000,2014-01-02T12:31:47.000,5,revise,active
07605760,dloajdmj,,,Hutton Avenue,,,,,,Hutton Avenue,,,,NW bound,,NW,E0036692,Springfield,Darlington,,,,,,0,UKOS,430382,516114,-1.531937,54.539388,BCT,HAR,OTH,,,,015,2010-04-14T14:54:00.000,2018-05-01T12:16:34.374,6,revise,inactive
07605761,dloajdmp,,,Springfield Road,,,,,,Springfield Road,,,,W bound,,W,E0036692,Springfield,Darlington,,,,,,0,UKOS,430190,516616,-1.5348570,54.5439146,BCT,HAR,OTH,,,,015,2010-04-14T15:23:00.000,2018-05-01T12:16:56.135,7,revise,inactive
07605762,dloajdmt,,,Geneva Crescent,,,,,,Geneva Crescent,,,,SE bound,,SE,N0078629,Neasham Road,Darlington,,,,,,0,UKOS,429696,513041,-1.542847,54.511822,BCT,HAR,OTH,,,,015,2010-04-14T16:16:00.000,2013-04-05T17:36:55.000,2,revise,active
07605763,dloajdmw,,,Parkside,,,,,,Parkside,,,,W bound,,W,N0078629,Neasham Road,Darlington,,,,,,0,UKOS,429682,513216,-1.543046,54.513395,BCT,HAR,OTH,,,,015,2010-04-14T16:27:00.000,2013-04-05T17:37:11.000,2,revise,active
07605764,dloajdpa,,,Hutton Avenue South,,,,,,Hutton Avenue,,,,NW bound,,NW,E0036692,Springfield,Darlington,,,,,,0,UKOS,430457,515977,-1.530792,54.538161,BCT,HAR,OTH,,,,015,2010-04-14T15:09:00.000,2018-05-01T12:17:18.213,6,revise,inactive
07605765,dloajdpd,,,Morpeth Avenue,,,,,,Morpeth Avenue,,,,S bound,,S,E0036692,Springfield,Darlington,,,,,,0,UKOS,430307,516522,-1.5330581,54.5430628,BCT,HAR,OTH,,,,015,2010-04-14T15:14:00.000,2018-05-01T12:18:34.554,5,revise,inactive
07605766,dloajdpg,,,Tees Grange Avenue,,,,,,Tees Grange Avenue,,,,W bound,,W,N0076130,Mowden,Darlington,,,,,,0,UKOS,426213,514447,-1.596517,54.524648,BCT,HAR,OTH,,,,015,2009-09-02T08:30:00.000,2018-05-01T12:18:53.325,7,revise,inactive
07605767,dloajdpj,,,Coleridge Gardens,,,,,,Coleridge Gardens,,,,H&R O,,SW,N0076133,Skerne Park,Darlington,,,,,,0,UKOS,429064,513044,-1.552608,54.511885,BCT,HAR,OTH,,,,015,2010-03-29T08:30:00.000,2011-09-08T00:00:00.000,1,revise,inactive
07605768,dloajdpm,,,Coleridge Gardens,,,,,,Coleridge Gardens,,,,H&R I,,NE,N0076133,Skerne Park,Darlington,,,,,,0,UKOS,429055,513043,-1.552747,54.511876,BCT,HAR,OTH,,,,015,2010-03-29T08:30:00.000,2011-09-08T00:00:00.000,1,revise,inactive
07605769,dloajdpt,,,Tees Drive,,,,,,Tees Drive,,,,H&R O,,E,N0076133,Skerne Park,Darlington,,,,,,0,UKOS,429177,512852,-1.550882,54.510153,BCT,HAR,OTH,,,,015,2010-03-29T08:30:00.000,2011-09-08T00:00:00.000,1,revise,inactive
07605770,dloajdpw,,,Esk Road,,,,,,Esk Road,,,,H&R,,S,N0076133,Skerne Park,Darlington,,,,,,0,UKOS,429280,512789,-1.549297,54.509581,BCT,HAR,OTH,,,,015,2010-03-29T08:30:00.000,2011-09-08T00:00:00.000,1,revise,inactive
07605771,dloajdta,,,Esk Road,,,,Esk Road,,Tyne Crescent,,,,O,,E,N0076133,Skerne Park,Darlington,,,,,,0,UKOS,429216,512724,-1.550292,54.509001,BCT,MKD,OTH,,,,015,2010-03-29T08:30:00.000,2015-09-02T10:59:46.000,4,revise,active
07605772,dloajdtd,,,Tweed Place,,,,,,Tees Drive,,,,I,,W,N0076133,Skerne Park,Darlington,,,,,,0,UKOS,429196,512840,-1.55059,54.510044,BCT,MKD,OTH,,,,015,2010-03-29T08:30:00.000,2013-04-05T16:46:34.000,2,revise,active
07605773,dloajdtg,,,Coleridge Gardens,,,,Ribble Court,,Ribble Drive,,,,O,,W,N0076133,Skerne Park,Darlington,,,,,,0,UKOS,428994,512945,-1.553699,54.510999,BCT,MKD,OTH,,,,015,2010-03-29T08:30:00.000,2015-09-02T10:56:38.000,3,revise,active
07605774,dloajdtj,,,Lakeside,,,,Lakeside,,Hammond Drive,,,,O,,SE,N0076133,Skerne Park,Darlington,,,,,,0,UKOS,428646,513028,-1.559066,54.511765,BCT,MKD,OTH,,,,015,2010-03-29T08:30:00.000,2015-09-02T10:24:46.000,3,revise,active
07605775,dloajdtm,,,Pioneer House,,,,Pioneer House,,Alderman Best Way,,,,O,,S,E0052978,Morton Palms,Darlington,,,,,,0,UKOS,432299,513684,-1.502575,54.517441,BCT,MKD,OTH,,,,015,2009-08-05T00:00:00.000,2017-06-22T10:42:22.867,3,revise,inactive
07605776,dloajdtp,,,Jesmond Road,,,,Jesmond Road,,Whinfield Road,,,,I,,NW,N0076141,Whinfield,Darlington,,,,,,0,UKOS,431263,516491,-1.518281,54.542731,BCT,MKD,OTH,,,,015,2009-08-27T00:00:00.000,2011-09-08T00:00:00.000,1,revise,active
07605777,dloajgdp,,,Elton Road,,,,Elton Road,,Milbank Road,,,,O,,W,N0078475,West End,Darlington,,,,,,0,UKOS,427639,514829,-1.57445,54.528005,BCT,MKD,OTH,,,,015,2009-09-09T00:00:00.000,2018-05-01T12:19:15.700,2,revise,inactive
07605778,dloajdtw,,,Holderness Drive,,,,Holderness Drive,,EDWARD PEASE WAY,,,,O,,S,N0076140,West Park,Darlington,,,,,,0,UKOS,426448,516938,-1.592658,54.547016,BCT,MKD,OTH,,,,015,2009-09-11T00:00:00.000,2020-08-11T13:57:08.647,1,revise,active
07605779,dloajdwa,,,Holderness Drive,,,,Holderness Drive,,Edward Pease Way,,,,I,,N,N0076140,West Park,Darlington,,,,,,0,UKOS,426419,516818,-1.593123,54.545936,BCT,MKD,OTH,,,,015,2009-09-11T00:00:00.000,2009-09-11T00:00:00.000,0,new,active
07605780,dloajdwd,,,Lanethorpe Crescent,,,,Lanethorpe Crescent,,Hewitson Road South,,,,O,,S,E0036666,Firthmoor,Darlington,,,,,,0,UKOS,430932,513823,-1.523676,54.518775,BCT,MKD,OTH,,,,015,2009-09-14T00:00:00.000,2011-09-08T00:00:00.000,1,revise,active
07605781,dloajdwg,,,Kexwith Moor Close,,,,Kexwith Moor Close,,Forest Moor Road,,,,I,,S,E0036666,Firthmoor,Darlington,,,,,,0,UKOS,430852,513131,-1.524984,54.512562,BCT,MKD,OTH,,,,015,2009-09-14T00:00:00.000,2009-09-14T00:00:00.000,0,new,active
07605782,dloajdwj,,,Gilling Crescent,,,,Gilling Crescent,,Fenby Avenue,,,,O,,N,N0076127,Lascelles,Eastbourne,,,,,,0,UKOS,430563,513683,-1.52939,54.51754,BCT,MKD,OTH,,,,015,2009-09-14T00:00:00.000,2009-09-14T00:00:00.000,0,new,active
07605783,dloajdwm,,,Gilling Crescent,,,,Gilling Crescent,,Fenby Avenue,,,,I,,S,N0076127,Lascelles,Eastbourne,,,,,,0,UKOS,430577,513738,-1.529168,54.518033,BCT,MKD,OTH,,,,015,2009-09-14T00:00:00.000,2009-09-14T00:00:00.000,0,new,active
07605784,dloajdwp,,,Fenby Avenue,,,,Fenby Avenue,,Harris Street,,,,O,,E,E0036662,Eastbourne,Darlington,,,,,,0,UKOS,430612,513912,-1.52861,54.519586,BCT,MKD,OTH,,,,015,2009-09-14T00:00:00.000,2009-09-14T00:00:00.000,0,new,active
07605785,dloajdwt,,,St Teresa's School,,,,Geneva Road,,Harris Street,,,,O,,E,E0036662,Eastbourne,Darlington,,,,,,0,UKOS,430690,513921,-1.527404,54.519671,BCT,MKD,OTH,,,,015,2009-09-14T00:00:00.000,2009-09-14T00:00:00.000,0,new,active
07605786,dloajgad,,,St Teresa's Church,,,,St Teresas RC Church,,Harris Street,,,,I,,W,E0036662,Eastbourne,Darlington,,,,,,0,UKOS,430854,513929,-1.52487,54.519733,BCT,MKD,OTH,,,,015,2009-09-14T00:00:00.000,2009-09-14T00:00:00.000,0,new,active
07605787,dloajgag,,,Loraine Crescent,,,,The South Park,,Parkside,,,,O,,NW,N0078631,South Park,Darlington,,,,,,0,UKOS,428723,513261,-1.557854,54.513854,BCT,MKD,OTH,,,,015,2009-11-27T00:00:00.000,2009-11-27T00:00:00.000,0,new,active
07605788,dloajgaj,,,Loraine Crescent,,,,The South Park,,Parkside,,,,I,,SE,N0078631,South Park,Darlington,,,,,,1,UKOS,428609,513319,-1.559609,54.514382,BCT,MKD,OTH,,,,015,2010-12-29T00:00:00.000,2010-12-29T00:00:00.000,1,revise,active
07605789,dloajdgm,,,Morton Palms,,,,Cleveland Bridge,,Yarm Road,,,,I,,W,N0076129,Morton Park - Darlington,Darlington,,,,,,0,UKOS,432121,513780,-1.505314,54.518315,BCT,MKD,OTH,,,,015,2009-08-05T08:30:00.000,2014-01-02T12:00:14.000,3,revise,active
07605796,dloajgdj,,,Chestnut Drive,,,,,,Edgemoor Road,,,,I,,NW,E0036666,Firthmoor,Darlington,,,,,,0,UKOS,430742,512990,-1.526697,54.511301,BCT,MKD,OTH,,,,015,2010-10-29T12:30:00.000,2010-10-29T12:30:00.000,0,new,active
07605797,dloajgdt,,,Hill House Lane,,,,,,Hill House Lane,,,,S bound,,S,E0052981,Sadberge,,,,,,,0,UKOS,434187,517904,-1.472923,54.555232,BCT,HAR,OTH,,,,015,2011-09-06T00:00:00.000,2014-01-02T10:09:06.000,4,revise,active
07605798,dloajgdw,,,Middleton Road,,,,,,Middleton Road,,,,S bound,,S,E0052981,Sadberge,,,,,,,0,UKOS,434207,516339,-1.472795,54.541167,BCT,HAR,OTH,,,,015,2011-09-06T00:00:00.000,2018-05-01T12:19:44.810,5,revise,inactive
07605799,dloajgja,,,Sadberge Road,,,,,,Sadberge Road,,,,N bound,,N,E0052977,Middleton St George,,,,,,,0,UKOS,434314,515076,-1.471288,54.52981,BCT,HAR,OTH,,,,015,2011-09-06T00:00:00.000,2018-05-01T12:20:23.808,5,revise,inactive
07605800,dloajgjd,,,Pettys Nook,,,,,,Bishopton Lane,,,,S bound,,S,E0052981,Sadberge,,,,,,,0,UKOS,434069,519286,-1.474588,54.567659,BCT,HAR,OTH,,,,015,2011-09-06T00:00:00.000,2014-01-02T10:10:37.000,3,revise,active
07605801,dloadagj,,,Castle Hill,,,,Motte and Bailey,,High Street,,,,SE bound,,SE,E0052962,Bishopton,,,,,,,0,UKOS,436794,520947,-1.432237,54.582395,BCT,HAR,OTH,,,,015,2011-09-06T00:00:00.000,2018-05-01T12:21:23.956,5,revise,inactive
07605802,dloajgjm,,,Redmarshall Road,,,,Out House Farm,,Redmarshall Road,,,,E bound,,E,E0052962,Bishopton,,,,,,,0,UKOS,437449,520915,-1.422107,54.58206,BCT,HAR,OTH,,,,015,2011-09-06T00:00:00.000,2018-05-01T12:21:40.759,5,revise,inactive
07605803,dloajgjp,,,Stainton Covert,,,,,,Great Stainton,,,,W bound,,W,E0052968,Great Stainton,,,,,,,0,UKOS,434939,522294,-1.460776,54.594631,BCT,HAR,OTH,,,,015,2011-09-06T00:00:00.000,2018-05-01T12:22:00.260,2,revise,inactive
07605804,dloajgjt,,,Galloping Hill,,,,Galloping Hill,,Bishopton Lane,,,,S bound,,S,E0052968,Great Stainton,,,,,,,0,UKOS,433832,520752,-1.478085,54.580849,BCT,HAR,OTH,,,,015,2011-09-06T00:00:00.000,2013-04-05T17:40:11.000,1,revise,active
07605805,dloadgtg,,,Harrison Terrace,,,,,,Brinkburn Road,,,,O,,W,N0076119,Brinkburn,Darlington,,,,,,0,UKOS,428345,515820,-1.563447,54.536872,BCT,MKD,OTH,,,,015,2011-12-12T00:00:00.000,2011-12-12T00:00:00.000,0,new,active
07605806,dloadjmj,,,The Beehive,,,,,,Lingfield Close,,,,O,,E,E0036676,Lingfield,Darlington,,,,,,0,UKOS,431234,514786,-1.518909,54.527411,BCT,MKD,OTH,,,,015,2011-12-14T00:00:00.000,2011-12-14T00:00:00.000,0,new,active
07605807,dloadtgp,,,Lingfield House,,,,,,Lingfield Close,,,,O,,E,E0036676,Lingfield,Darlington,,,,,,0,UKOS,431533,514784,-1.51429,54.527366,BCT,MKD,OTH,,,,015,2011-12-14T00:00:00.000,2011-12-14T00:00:00.000,0,new,active
07605808,dloadtjg,,,Lingfield Close,,,,,,Eastpoint Road,,,,O,,N,E0036676,Lingfield,Darlington,,,,,,0,UKOS,431825,514847,-1.509771,54.527914,BCT,MKD,OTH,,,,015,2011-12-14T00:00:00.000,2011-12-14T00:00:00.000,0,new,active
07605809,dloadtmd,,,Westpoint Road,,,,Lingfield Point,,Tornado Way,,,,I,,W,E0036676,Lingfield,Darlington,,,,,,0,UKOS,431388,515279,-1.516477,54.531832,BCT,MKD,OTH,,,,015,2011-12-14T00:00:00.000,2020-10-05T15:09:35.512,3,revise,active
07605810,dloadtmg,,,Wentworth Way,,,,,,Minors Crescent,,,,I,,N,E0036660,Cockerton,Darlington,,,,,,0,UKOS,426473,516323,-1.592333,54.541493,BCT,MKD,OTH,,,,015,2012-05-16T00:00:00.000,2012-05-16T00:00:00.000,0,new,active
07605811,dloadtmj,,,Warwick Square,,,,,,Minors Crescent,,,,I,,S,E0036660,Cockerton,Darlington,,,,,,0,UKOS,426737,516353,-1.588249,54.541749,BCT,MKD,OTH,,,,015,2012-05-16T00:00:00.000,2012-05-16T00:00:00.000,0,new,active
07605812,dloadtmp,,,Berwick Road,,,,,,Witton Crescent,,,,O,,NW,E0036660,Cockerton,Darlington,,,,,,0,UKOS,426571,516183,-1.59083,54.54023,BCT,MKD,OTH,,,,015,2012-05-16T00:00:00.000,2012-05-16T00:00:00.000,0,new,active
07605813,dloadtmt,,,Westpoint Road,,,,Lingfield Point,,Tornado Way,,,,O,,E,E0036676,Lingfield,Darlington,,,,,,0,UKOS,431526,515288,-1.514344,54.531904,BCT,MKD,OTH,,,,015,2012-10-29T00:00:00.000,2020-10-05T15:09:20.847,3,revise,active
07605814,dloagwpm,,,Salutation Road,,,,Teesdale Avenue,,Salutation Road,,,,W bound,,W,E0036673,Hummersknott,Darlington,,,,,,0,UKOS,426498,513789,-1.592173,54.51872,BCT,HAR,OTH,,,,015,2013-01-03T12:00:01.000,2014-01-02T10:45:48.000,3,revise,active
07605815,dloajmad,,,Salutation Road,,,,Teesdale Avenue,,Salutation Road,,,,E bound,,E,E0036673,Hummersknott,Darlington,,,,,,0,UKOS,426515,513802,-1.591909,54.518836,BCT,HAR,OTH,,,,015,2013-01-03T13:33:11.000,2014-01-02T10:46:00.000,3,revise,active
07605816,dloajmag,,,Edinburgh Drive,,,,Hummersknott School,,Edinburgh Drive,,,,N bound,,N,E0036673,Hummersknott,Darlington,,,,,,0,UKOS,426438,513977,-1.593083,54.520413,BCT,HAR,OTH,,,,015,2013-01-03T13:36:13.000,2013-04-05T17:41:27.000,1,revise,active
07605817,dloajmdw,,,Edinburgh Drive,,,,Hummersknott School,,Edinburgh Drive,,,,S bound,,S,E0036673,Hummersknott,Darlington,,,,,,0,UKOS,426453,513975,-1.592852,54.520394,BCT,HAR,OTH,,,,015,2013-01-03T13:39:17.000,2013-04-05T17:41:39.000,1,revise,active
07605818,dloajmaj,,,Neville Road,,,,Neville Road,,Elton Road,,,,N bound,,N,N0078475,West End,Darlington,,,,,,0,UKOS,427679,514664,-1.573848,54.52652,BCT,HAR,OTH,,,,015,2013-01-03T13:45:44.000,2013-04-05T17:41:54.000,1,revise,active
07605819,dloajmap,,,Abbey Road,,,,Dale Road,,ELTON ROAD,,,,I,,S,N0078475,West End,Darlington,,,,,,0,UKOS,427677,514530,-1.573892,54.525312,BCT,MKD,OTH,,,,015,2013-01-03T13:52:01.000,2018-09-13T14:56:50.263,3,revise,active
07605820,dloajmam,,,Trinity Road,,,,Trinity Road,,Cleveland Avenue,,,,S bound,,S,N0078475,West End,Darlington,,,,,,0,UKOS,428045,514690,-1.56819,54.526734,BCT,HAR,OTH,,,,015,2013-01-03T13:54:03.000,2013-04-05T17:42:18.000,1,revise,active
07605821,dloajmaw,,,Glaisdale Court,,,,Glaisdale Court,,CLEVELAND AVENUE,,,,O,,N,N0078475,West End,Darlington,,,,,,0,UKOS,428044,514593,-1.568216,54.525858,BCT,MKD,OTH,,,,015,2013-01-03T13:57:30.000,2018-09-13T14:45:34.888,2,revise,active
07605822,dloajmda,,,Brompton Walk,,,,The Headlands,,Hummersknott Avenue,,,,NE bound,,NE,E0036673,Hummersknott,Darlington,,,,,,0,UKOS,427193,514279,-1.581392,54.523087,BCT,HAR,OTH,,,,015,2013-01-03T14:21:48.000,2022-07-05T11:06:04.890,5,revise,active
07605823,dloajmat,,,Brompton Walk,,,,Brompton Walk,,Hummersknott Avenue,,,,SW bound,,SW,E0036673,Hummersknott,Darlington,,,,,,0,UKOS,427204,514267,-1.581223,54.522978,BCT,HAR,OTH,,,,015,2013-01-03T14:23:14.000,2022-07-05T11:06:35.515,6,revise,active
07605824,dloajmdg,,,High Barn Road,,,,School Aycliffe,,High Barn Road,,,,H&R I,,W,N0076134,School Aycliffe,,,,,,,0,UKOS,425715,523709,-1.603405,54.607898,BCT,HAR,OTH,,,,015,2013-01-10T15:39:12.000,2013-04-05T16:43:17.000,1,revise,inactive
07605825,dloajmdj,,,Eastfields Road,,,,School Aycliffe,,Eastfields Road,,,,H&R I,,N,N0076134,School Aycliffe,,,,,,,0,UKOS,425906,523749,-1.600444,54.608248,BCT,HAR,OTH,,,,015,2013-01-10T15:45:20.000,2013-04-05T16:44:49.000,1,revise,inactive
07605826,dloajmdt,,,St Michael's Church,,,,Toilets,,Heighington,,,,O,,E,E0052969,Heighington,,,,,,,0,UKOS,424888,522317,-1.616325,54.59543,BCT,CUS,PPT,,,,015,2013-01-24T13:55:08.000,2015-06-15T00:00:00.000,4,revise,inactive
07605827,dloajmdm,,,High Grange,,,,High Grange,,Alverton Road,,,,O,,S,N0076125,High Grange,Darlington,,,,,,0,UKOS,427154,517228,-1.581724,54.54959,BCT,MKD,PPT,,,,015,2013-01-24T14:09:05.000,2020-05-11T14:05:49.060,4,revise,active
07605828,dloajmdp,,,High Grange,,,,High Grange,,Alverton Road,,,,N bound,,N,N0076125,High Grange,Darlington,,,,,,0,UKOS,427139,517225,-1.581956,54.549564,BCT,HAR,PPT,,,,015,2013-01-24T14:12:42.000,2023-06-02T10:47:12.668,4,revise,inactive
07605829,dloajmga,,,Springfield Road,,,,Springfield Road,,Wylam Avenue,,,,I,,S,E0036692,Springfield,Darlington,,,,,,0,UKOS,430084,516671,-1.536486,54.54442,BCT,MKD,TIP,,,,015,2013-03-21T11:53:16.000,2017-10-26T11:00:42.456,3,revise,active
07605830,dloajmgd,,,Morpeth Avenue,,,,Alnwick Place,,Martindale Road,,,,I,,E,E0036692,Springfield,Darlington,,,,,,0,UKOS,430266,516414,-1.533699,54.542091,BCT,MKD,TIP,,,,015,2013-03-21T11:59:57.000,2013-04-17T10:37:01.000,1,revise,active
07605831,dloajmgj,,,Bamburgh Place,,,,Littlebeck Drive,,Hutton Avenue,,,,I,,SE,E0036692,Springfield,Darlington,,,,,,0,UKOS,430348,516241,-1.532449,54.54054,BCT,MKD,TIP,,,,015,2013-03-21T12:02:08.000,2014-01-02T12:35:08.000,2,revise,active
07605832,dloajmgm,,,Springwell Terrace,,,,Springwell Terrace,,Salters Lane South,,,,O,,N,E0036671,Haughton le Skerne,Darlington,,,,,,0,UKOS,430622,516127,-1.528226,54.539499,BCT,MKD,TIP,,,,015,2013-07-10T11:40:07.000,2013-07-10T11:40:07.000,0,new,active
07605833,dloajmgp,,,Eden Crescent,,,,,,Eden Crescent,,,,O,,NW,N0076133,Skerne Park,Darlington,,,,,,0,UKOS,428797,513058,-1.556731,54.512026,BCT,MKD,OTH,,,,015,2013-08-16T10:44:33.000,2013-08-16T10:44:33.000,0,new,active
07605834,dloajmgt,,,Dinsdale Close Temporary Stop,,,,Dinsdale Close,,Middleton Lane,,,,I,,S,E0052977,Middleton St George,,,,,,,0,UKOS,434537,513316,-1.468048,54.513987,BCT,MKD,OTH,,,,015,2013-09-13T10:06:04.000,2015-07-10T00:00:00.000,2,revise,inactive
07605835,dloajmgw,,,Mowden Hall Drive,,,,,,Barnes Road,,,,I,,NE,N0076130,Mowden,Darlington,,,,,,0,UKOS,426847,515361,-1.586639,54.532829,BCT,MKD,OTH,,,,015,2013-12-23T10:29:40.000,2013-12-23T10:29:40.000,0,new,active
07605836,dloajmja,,,Malim Road,,,,Retail Park,,McMullen Road,,,,I,,SE,E0036676,Lingfield,Darlington,,,,,,0,UKOS,431287,514242,-1.518148,54.522519,BCT,MKD,OTH,,,,015,2014-09-22T12:11:15.000,2014-09-22T12:11:15.000,0,new,active
07605837,dloajmjd,,,Lingfield Close,,,,Lingfield Close,,Eastpoint Road,,,,I,,S,E0036676,Lingfield,Darlington,,,,,,0,UKOS,431832,514842,-1.509664,54.527877,BCT,MKD,OTH,,,,015,2015-05-11T13:54:10.000,2015-05-11T17:00:35.000,1,revise,active
07605838,dloajmpd,,,Lingfield House,,,,Lingfield House,,Lingfield Close,,,,I,,W,E0036676,Lingfield,Darlington,,,,,,0,UKOS,431549,514769,-1.514044,54.527239,BCT,MKD,OTH,,,,015,2015-05-11T13:55:36.000,2015-05-11T16:59:18.000,1,revise,active
07605839,dloajmpa,,,The Beehive,,,,The Beehive,,Lingfield Close,,,,I,,W,E0036676,Lingfield,Darlington,,,,,,0,UKOS,431210,514774,-1.519281,54.527296,BCT,MKD,OTH,,,,015,2015-05-11T13:56:58.000,2015-05-11T17:01:41.000,3,revise,active
07605840,dloajmjg,,,Great Stainton West,,,,Great Stainton,,unknown,,,,W bound,,W,E0052968,Great Stainton,,,,,,,0,UKOS,433765,522257,-1.478949,54.594378,BCT,HAR,OTH,,,,015,2015-06-12T15:55:30.000,2015-06-12T15:55:30.000,0,new,active
07605841,dloajmjm,,,Great Stainton South,,,,Great Stainton,,Elstob Lane,,,,S bound,,S,E0052968,Great Stainton,,,,,,,0,UKOS,433682,522133,-1.480248,54.593269,BCT,HAR,OTH,,,,015,2015-06-12T15:58:50.000,2020-05-11T10:00:03.540,2,revise,active
07605842,dloajmjp,,,The Deacon,,,,Berry Bank,,NEWTON LANE,,,,O,,NW,E0036660,Cockerton,Darlington,,,,,,0,UKOS,426817,515792,-1.587064,54.536699,BCT,MKD,OTH,,,,015,2015-07-29T13:01:02.000,2015-07-29T13:01:02.000,0,new,active
07605843,dloajmjt,,,Kellaw Road,,,,Kellaw Road,,Allington Way,,,,I,,E,E0036676,Lingfield,Darlington,,,,,,0,UKOS,431611,514520,-1.513113,54.524997,BCT,MKD,OTH,,,,015,2015-08-26T11:00:17.000,2015-08-26T11:34:49.000,1,revise,active
07605844,dloajmjw,,,Henson Road,,,,Henson Road,,Allington Way,,,,I,,E,E0036676,Lingfield,Darlington,,,,,,0,UKOS,431880,514497,-1.508959,54.524774,BCT,MKD,OTH,,,,015,2015-08-26T11:04:07.000,2015-08-26T11:04:07.000,0,new,active
07605845,dloajmpg,,,Morton Road,,,,Morton Road,,Lingfield Way,,,,I,,S,E0036676,Lingfield,Darlington,,,,,,0,UKOS,432015,514325,-1.506892,54.52322,BCT,MKD,OTH,,,,015,2015-08-26T11:06:10.000,2015-08-26T11:06:10.000,0,new,active
07605846,dloajmpj,,,Wild Road,,,,EE,,Lingfield Way,,,,I,,S,E0036676,Lingfield,Darlington,,,,,,0,UKOS,431986,514033,-1.507372,54.520597,BCT,MKD,OTH,,,,015,2015-08-26T11:08:00.000,2015-09-02T10:36:29.000,1,revise,active
0760DINSDAL0,,,,Dinsdale Rail Station,,,,Dinsdale Rail Station,,Middleton Lane,,,,Entrance,,,E0052977,Middleton St George,,,,,,,0,UKOS,434598,513418,-1.467094,54.5149,RSE,,,,,,015,2015-07-10T13:31:33.000,2015-07-10T13:31:33.000,0,new,active
0760DLTN0,,,,Darlington Rail Station - main ent,,,,Darlington Rail Station,,Station Approach,,,,Entrance,,,E0054904,Darlington,,,,,,,0,UKOS,429477,514205,-1.546114,54.522295,RSE,,,,,,015,2015-07-10T12:11:08.000,2019-10-23T14:28:41.718,1,revise,active
0760DLTN1,,,,Darlington Rail Station - Park Lane,,,,Darlington Rail Station - Park Lane,,Park Lane,,,,Entrance,,,E0054904,Darlington,,,,,,,0,UKOS,429403,514078,-1.54727,54.521158,RSE,,,,,,015,2015-07-10T12:15:39.000,2015-07-10T12:15:39.000,0,new,active
0760MME1,,,,Durham Tees Valley Airport,,,,Durham Tees Valley Airport,,Approach Road,,,,Entrance,,,N0076138,Teesside Airport,Middleton St George,,,,,,0,UKOS,436740,513123,-1.434046,54.512098,AIR,,,,,,015,2015-07-10T13:40:45.000,2015-07-10T13:40:45.000,0,new,active
0760NTRD0,,,,North Road Rail Station,,,,North Road Rail Station,,North Road,,,,Entrance,,,E0036683,North Road (Darlington),Darlington,,,,,,0,UKOS,429004,515666,-1.553278,54.535451,RSE,,,,,,015,2015-07-10T12:32:06.000,2015-07-10T12:32:06.000,0,new,active
0760TSDARPR0,,,,Durham Tees Valley Rail Station,,,,Durham Tees Valley Rail Station,,Approach Road,,,,Entrance,,,N0076138,Teesside Airport,Middleton St George,,,,,,0,UKOS,437295,513836,-1.425384,54.518465,RSE,,,,,,015,2015-07-10T13:25:43.000,2015-07-10T13:25:43.000,0,new,active
07605847,dloajmpm,,,Shuttle & Loom,,,,,,Whinfield Road,,,,I,,NW,N0076141,Whinfield,Darlington,,,,,,,UKOS,430899,516645,-1.523891,54.544133,BCT,MKD,OTH,,,,015,2016-10-25T15:40:40.811,2016-10-25T15:40:40.811,0,new,active
07605848,dloajmpt,,,Waverley Terrace,,,,,,CLIFTON ROAD,,,,I,,N,E0054904,Darlington,,,,,,,,UKOS,429185,513965,-1.5506490,54.5201506,BCT,MKD,OTH,,,,015,2017-02-06T11:13:55.147,2017-02-06T11:13:55.147,0,new,active
07605849,dloajmpw,,,Waverley Terrace,,,,,,CLIFTON ROAD,,,,O,,S,E0054904,Darlington,,,,,,,,UKOS,429203,513989,-1.5503685,54.5203653,BCT,MKD,OTH,,,,015,2017-02-06T11:16:28.354,2017-02-06T11:16:28.354,0,new,active
07605850,dloajmta,,,Henderson Street,,,,,,CLIFTON ROAD,,,,I,,N,E0054904,Darlington,,,,,,,,UKOS,429117,513595,-1.5517358,54.5168295,BCT,MKD,OTH,,,,015,2017-02-06T11:18:17.946,2019-08-23T09:45:38.923,1,revise,active
07605851,dloajmtd,,,Henderson Street,,,,,,CLIFTON ROAD,,,,O,,S,E0054904,Darlington,,,,,,,,UKOS,429130,513585,-1.5515360,54.5167389,BCT,MKD,OTH,,,,015,2017-02-06T11:19:59.390,2019-08-23T09:46:03.252,1,revise,active
07605852,dloajmtg,,,Clifton Avenue,,,,,,CLIFTON ROAD,,,,I,,N,E0054904,Darlington,,,,,,,,UKOS,429201,513257,-1.5504716,54.5137873,BCT,MKD,OTH,,,,015,2017-02-06T11:22:38.713,2019-08-23T09:49:36.080,1,revise,active
07605853,dloajmtj,,,Clifton Avenue,,,,,,CLIFTON ROAD,,,,O,,S,E0054904,Darlington,,,,,,,,UKOS,429195,513327,-1.5505574,54.5144167,BCT,MKD,OTH,,,,015,2017-02-06T11:24:07.960,2017-02-06T11:24:07.960,0,new,active
07605854,dloajmtm,,,Bushel Hill Drive,,,,,,FULTHORPE AVENUE,,,,I,,E,N0076130,Mowden,Darlington,,,,,,,UKOS,426675,514923,-1.5893406,54.5288987,BCT,MKD,OTH,,,,015,2017-03-23T12:28:49.626,2017-03-23T12:28:49.626,0,new,active
07605855,dloajmwa,,,Flannels,,,,,,CROWN STREET,,,,O,,S,E0054904,Darlington,,,,,,,,UKOS,429074,514526,-1.552313,54.525198,BCT,MKD,OTH,,,,015,2018-09-04T16:13:46.013,2020-06-02T08:49:15.373,2,revise,active
07605856,dloajmwd,,,Crown Street Temp2,,,,,,CROWN STREET,,,,2,,S,E0054904,Darlington,,,,,,,,UKOS,429070,514544,-1.5523713,54.5253563,BCT,MKD,OTH,,,,015,2018-09-04T16:14:56.425,2019-05-30T15:51:33.532,1,revise,inactive
07605857,dloajmwg,,,The Green,,,,,,HAUGHTON GREEN,,,,O,,E,E0036671,Haughton le Skerne,Darlington,,,,,,,UKOS,430984,515935,-1.5226519,54.5377476,BCT,MKD,OTH,,,,015,2018-09-13T14:16:38.583,2018-09-13T14:16:38.583,0,new,active
07605858,dloajmwj,,,The Otter & Fish,,,,,,CHURCH ROW,,,,I,,W,E0052972,Hurworth-on-Tees,,,,,,,,UKOS,431047,510114,-1.5222886,54.4854335,BCT,MKD,OTH,,,,015,2019-04-23T09:14:20.245,2023-11-09T15:08:44.292,1,revise,active
07605859,dloajmwm,,,Skipbridge,,,,,,NEASHAM ROAD,,,,I,,SE,E0052972,Hurworth-on-Tees,,,,,,,,UKOS,431471,510970,-1.5156534,54.4930999,BCT,MKD,OTH,,,,015,2019-04-23T09:23:34.119,2019-04-23T09:23:34.119,0,new,active
07605860,dloajmwp,,,Terminal Building,,,,,,Airport Road,,,,I,,SW,N0076138,Teesside Airport,Middleton St George,,,,,,,UKOS,436810,513170,-1.4329517,54.5125143,BCT,MKD,OTH,,,,015,2019-08-12T14:56:55.665,2019-09-06T14:52:12.139,2,revise,active
07605861,dloajmwt,,,Middleton St George Hospital,,,,,,Airport,,,,O,,SE,N0076138,Teesside Airport,Middleton St George,,,,,,,UKOS,436648,513461,-1.4354185,54.5151358,BCT,CUS,OTH,,,,015,2019-09-12T15:52:26.595,2019-09-12T15:52:26.595,0,new,active
07605862,dloajpad,,,Brafferton FLX,,,,,,High House Lane,,,,flx,,,E0052963,Brafferton,,,,,,,,UKOS,429471,521101,-1.545523,54.584264,BCT,FLX,OTH,,,,015,2019-10-25T10:59:50.556,2019-10-25T12:17:03.954,2,revise,active
07605863,dloajpag,,,Great Stainton FLX,,,,,,GLEBE ROAD,,,,flx,,,E0052968,Great Stainton,,,,,,,,UKOS,433833,521997,-1.4779229,54.5920437,BCT,FLX,OTH,,,,015,2019-10-25T11:03:02.316,2019-10-25T12:18:38.399,1,revise,active
07605864,dloajpaj,,,Bishopton FLX,,,,,,HIGH STREET,,,,flx,,,E0052962,Bishopton,,,,,,,,UKOS,436434,521276,-1.4377661,54.5853785,BCT,FLX,OTH,,,,015,2019-10-25T11:06:22.507,2019-10-25T12:18:24.693,1,revise,active
07605865,dloajpam,,,Little Stainton FLX,,,,,,Folly Bank,,,,flx,,,E0052974,Little Stainton,,,,,,,,UKOS,434895,519966,-1.4617279,54.5737216,BCT,FLX,OTH,,,,015,2019-10-25T11:17:59.811,2019-10-25T12:16:46.769,1,revise,active
07605866,dloajpap,,,Sadberge FLX,,,,,,DARLINGTON ROAD,,,,flx,,,E0052981,Sadberge,,,,,,,,UKOS,434234,516927,-1.4723048,54.5464542,BCT,FLX,OTH,,,,015,2019-10-25T11:44:29.638,2019-10-25T12:17:50.899,1,revise,active
07605867,dloajpat,,,Neasham FLX,,,,,,TEESWAY,,,,flx,,,E0052979,Neasham,,,,,,,,UKOS,432874,510379,-1.4940661,54.4877005,BCT,FLX,OTH,,,,015,2019-10-25T11:48:15.633,2019-10-25T12:16:32.711,1,revise,active
07605868,dloajpaw,,,Hillclose Avenue,,,,,,LEITH ROAD,,,,I,,SE,N0076130,Mowden,Darlington,,,,,,,UKOS,426560,514457,-1.591156,54.524716,BCT,MKD,OTH,,,,015,2019-11-14T10:36:34.868,2022-07-05T09:40:57.624,3,revise,active
07605869,dloajpda,,,Hummersknott Avenue,,,,,,CARROLL ROAD,,,,I,,S,E0036673,Hummersknott,Darlington,,,,,,,UKOS,426660,514188,-1.589635,54.522293,BCT,MKD,OTH,,,,015,2019-11-14T10:39:47.192,2022-07-05T11:08:22.343,2,revise,active
07605870,dloajpdg,,,Symmetry Park,,,,,,Morton Park Way,,,,O,,N,E0036676,Lingfield,Darlington,,,,,,,UKOS,432248,514944,-1.503228,54.528761,BCT,MKD,OTH,,,,015,2020-03-02T14:10:35.363,2024-10-04T10:12:02.103,8,revise,active
07605871,dloajpdj,,,Library,,,,,,EAST STREET,,,,O,,W,E0054904,Darlington,,,,,,,,UKOS,429059,514678,-1.5525301,54.5265654,BCT,MKD,OTH,,,,015,2020-06-02T08:53:57.198,2020-06-02T08:53:57.198,0,new,active
07605872,dloajpja,,,Amazon,,,,,,Morton Park Way,,,,I,,S,E0036676,Lingfield,Darlington,,,,,,,UKOS,432263,514556,-1.503039,54.525279,BCT,MKD,OTH,,,,015,2020-07-20T13:53:21.141,2024-10-04T10:15:03.921,6,revise,active
07605873,dloajpjd,,,Amazon,,,,,,Morton Park Way,,,,O,,N,E0036676,Lingfield,Darlington,,,,,,,UKOS,432259,514666,-1.503092,54.526263,BCT,MKD,OTH,,,,015,2020-07-20T13:55:09.222,2024-10-04T10:17:00.553,5,revise,active
07605874,dloajpdt,,,Symmetry Park,,,,,,Morton Park Way,,,,I,,S,E0036676,Lingfield,Darlington,,,,,,,UKOS,432259,514991,-1.5030504,54.5291851,BCT,MKD,OTH,,,,015,2020-07-20T14:06:28.741,2021-05-20T11:30:10.940,2,revise,active
07605875,dloajpdw,,,Duke Street,,,,,,LARCHFIELD STREET,,,,I,,N,E0054904,Darlington,,,,,,,,UKOS,428529,514565,-1.5607181,54.5255763,BCT,MKD,OTH,,,,015,2020-09-08T09:19:16.579,2020-09-08T09:19:16.579,0,new,active
07605876,dloajpga,,,B6279 Symmetry Park,,,,,,B6279,,,,I,,W,E0054904,Darlington,,,,,,,,UKOS,432033,515264,-1.506515,54.531656,BCT,MKD,OTH,,,,015,2020-09-25T09:21:03.190,2023-10-03T10:15:36.577,6,revise,active
07605877,dloajpgd,,,B6279 Symmetry Park,,,,,,B6279,,,,O,,E,E0054904,Darlington,,,,,,,,UKOS,432378,515268,-1.501189,54.53167,BCT,MKD,OTH,,,,015,2020-09-25T09:23:20.381,2020-10-08T10:04:09.360,4,revise,active
07605878,dloajpgj,,,Auction Mart,,,,,,West Auckland Road,,,,O,,NW,N0076120,Burtree Gate,,,,,,,,UKOS,425862,519047,-1.601538,54.566,BCT,MKD,OTH,,,,015,2020-10-13T09:07:27.325,2021-04-27T08:59:45.080,1,revise,active
07605879,dloajpgm,,,Auction Mart,,,,,,West Auckland Road,,,,I,,SE,N0076120,Burtree Gate,,,,,,,,UKOS,425714,519169,-1.603817,54.567104,BCT,MKD,OTH,,,,015,2020-10-13T09:12:19.017,2021-04-27T09:01:02.619,1,revise,active
07605880,dloajpgp,,,Victoria Road,,,,,,PARK PLACE,,,,I,,N,E0036654,Bank Top,Darlington,,,,,,,UKOS,429240,514171,-1.5497790,54.5219987,BCT,MKD,OTH,,,,015,2021-04-20T09:10:33.248,2021-04-20T09:10:33.248,0,new,active
07605881,dloajpgt,,,Browdie Road,,,,,,NEWTON LANE,,,,I,,NW,N0076140,West Park,Darlington,,,,,,,UKOS,426173,516502,-1.596954,54.543113,BCT,MKD,OTH,,,,015,2022-01-17T10:56:57.815,2022-03-01T11:04:58.622,3,revise,active
07605882,dloajpgw,,,Thomas Sopwith Way,,,,,,Thomas Sopwith Way,,,,I,,W,N0076140,West Park,Darlington,,,,,,,UKOS,426217,516599,-1.596273,54.543979,BCT,MKD,OTH,,,,015,2022-01-26T16:28:23.018,2022-02-08T10:32:47.347,1,revise,active
07605883,dloajmtj,,,The Otter & Fish,,,,,,Church Row,,,,O,,E,E0052972,Hurworth-on-Tees,,,,,,,,UKOS,431086,510123,-1.5216857,54.4855120,BCT,MKD,OTH,,,,015,2023-11-08T14:55:03.622,2023-11-09T15:07:52.511,3,revise,active
07605884,dloajpjm,,,Acorn Close,,,,,,Yarm Road,,,,I,,W,E0052977,Middleton St George,,,,,,,,UKOS,434892,513550,-1.4625375,54.5160619,BCT,MKD,OTH,,,,015,2023-11-08T15:06:03.337,2023-11-08T15:06:03.337,0,new,active
076000001478,dloajpjp,,,The Tawny Owl,,,,,,Roundhill Road,,,,I,,NW,E0052979,Neasham,,,,,,,,UKOS,430355,512012,-1.532768,54.502529,BCT,MKD,OTH,,,,015,2023-11-08T15:15:06.962,2023-11-08T15:18:17.648,1,revise,inactive
07605885,dloajpjt,,,The Tawny Owl,,,,,,Neasham Road,,,,I,,NE,E0052979,Neasham,,,,,,,,UKOS,430578,512199,-1.5293124,54.5041987,BCT,MKD,OTH,,,,015,2023-11-08T15:24:36.238,2023-11-08T15:24:36.238,0,new,active
07605886,dloajpjw,,,The Tawny Owl,,,,,,Neasham Road,,,,O,,SE,E0052979,Neasham,,,,,,,,UKOS,430620,512174,-1.5286664,54.5039715,BCT,MKD,OTH,,,,015,2023-11-08T15:37:32.489,2023-11-08T15:37:32.489,0,new,active
07605887,dloajpma,,,Neasham Village Entrance,,,,,,Hurworth Road,,,,I,,SE,E0052979,Neasham,,,,,,,,UKOS,432208,510111,-1.504369,54.485334,BCT,MKD,OTH,,,,015,2023-11-08T15:42:47.236,2023-11-21T08:52:20.944,1,revise,active
07605888,dloajpmd,,,Neasham Village Entrance,,,,,,Hurworth Road,,,,E-bound,,E,E0052979,Neasham,,,,,,,,UKOS,432202,510122,-1.504461,54.485434,BCT,CUS,OTH,,,,015,2023-11-08T16:24:47.963,2023-11-08T16:24:47.963,0,new,active
