ATCOCode,NaptanCode,PlateCode,CleardownCode,CommonName,CommonNameLang,ShortCommonName,ShortCommonNameLang,Landmark,LandmarkLang,Street,StreetLang,Crossing,CrossingLang,Indicator,IndicatorLang,Bearing,NptgLocalityCode,LocalityName,ParentLocalityName,GrandParentLocalityName,Town,TownLang,Suburb,SuburbLang,LocalityCentre,GridType,Easting,Northing,Longitude,Latitude,StopType,BusStopType,TimingStatus,DefaultWaitTime,Notes,NotesLang,AdministrativeAreaCode,CreationDateTime,ModificationDateTime,RevisionNumber,Modification,Status
07903170B,mbrgamd,,,Transporter,,,,Ferry Road,,Vulcan Street,,,,2,,SE,E0039258,Middlesbrough,,,,,,,0,UKOS,449849,521161,-1.230231,54.583203,BCT,CUS,OTH,,,,031,2012-09-13T11:04:28.000,2012-09-13T11:04:28.000,0,new,inactive
07907300133,mbradmd,,,Bus Station Stand Z,,,,Broadcasting House,,Newport Road,,,,Stand Z,,SW,E0039258,Middlesbrough,,,,,,,1,UKOS,449106,520354,-1.24186,54.576032,BCT,MKD,TIP,,,,031,2005-07-06T00:00:00.000,2018-04-30T14:48:14.403,4,revise,active
079073001A,mbradad,,,Bus Station Stand 1,,,,Bus Station,,Newport Road,,,,1,,W,E0039258,Middlesbrough,,,,,,,1,UKOS,449239,520388,-1.239797,54.576316,BCT,MKD,TIP,,,,031,2005-07-06T00:00:00.000,2007-06-15T00:00:00.000,1,revise,active
079073001B,mbradag,,,Bus Station Stand 2,,,,Bus Station,,Newport Road,,,,2,,W,E0039258,Middlesbrough,,,,,,,1,UKOS,449226,520387,-1.239998,54.576317,BCT,MKD,TIP,,,,031,2005-07-06T00:00:00.000,2007-06-15T00:00:00.000,1,revise,active
079073001C,mbradaj,,,Bus Station Stand 3,,,,Bus Station,,Newport Road,,,,3,,W,E0039258,Middlesbrough,,,,,,,1,UKOS,449204,520387,-1.240339,54.576319,BCT,MKD,TIP,,,,031,2005-07-06T00:00:00.000,2007-06-15T00:00:00.000,1,revise,active
079073001D,mbradam,,,Bus Station Stand 4,,,,Bus Station,,Newport Road,,,,4,,W,E0039258,Middlesbrough,,,,,,,1,UKOS,449184,520387,-1.240648,54.576321,BCT,MKD,TIP,,,,031,2005-07-06T00:00:00.000,2007-06-15T00:00:00.000,1,revise,active
079073001E,mbradap,,,Bus Station Stand 5,,,,Bus Station,,Newport Road,,,,5,,SW,E0039258,Middlesbrough,,,,,,,1,UKOS,449177,520382,-1.240757,54.576277,BCT,MKD,TIP,,,,031,2005-07-06T00:00:00.000,2007-06-15T00:00:00.000,1,revise,active
079073001F,mbradat,,,Bus Station Stand 6,,,,Bus Station,,Newport Road,,,,6,,NE,E0039258,Middlesbrough,,,,,,,1,UKOS,449182,520379,-1.24068,54.576241,BCT,MKD,TIP,,,,031,2005-07-06T00:00:00.000,2007-06-15T00:00:00.000,1,revise,active
079073001G,mbradaw,,,Bus Station Stand 7,,,,Bus Station,,Newport Road,,,,7,,E,E0039258,Middlesbrough,,,,,,,1,UKOS,449201,520381,-1.240386,54.576257,BCT,MKD,TIP,,,,031,2005-07-06T00:00:00.000,2007-06-15T00:00:00.000,1,revise,active
079073001H,mbradga,,,Bus Station Stand 8,,,,Bus Station,,Newport Road,,,,8,,E,E0039258,Middlesbrough,,,,,,,1,UKOS,449214,520382,-1.240185,54.576265,BCT,MKD,TIP,,,,031,2005-07-06T00:00:00.000,2007-06-15T00:00:00.000,1,revise,active
079073001I,mbradgd,,,Bus Station Stand 9,,,,Bus Station,,Newport Road,,,,9,,E,E0039258,Middlesbrough,,,,,,,1,UKOS,449234,520381,-1.239876,54.576254,BCT,MKD,TIP,,,,031,2005-07-06T00:00:00.000,2007-06-15T00:00:00.000,1,revise,active
079073001J,mbradgj,,,Bus Station Stand 10,,,,Bus Station,,Newport Road,,,,10,,SE,E0039258,Middlesbrough,,,,,,,1,UKOS,449245,520381,-1.239706,54.576253,BCT,MKD,TIP,,,,031,2005-07-06T00:00:00.000,2007-06-15T00:00:00.000,1,revise,active
079073001K,mbradgm,,,Bus Station Stand 11,,,,Bus Station,,Newport Road,,,,11,,S,E0039258,Middlesbrough,,,,,,,1,UKOS,449267,520357,-1.239369,54.576035,BCT,MKD,TIP,,,,031,2005-07-06T00:00:00.000,2007-06-15T00:00:00.000,1,revise,active
079073001L,mbradgp,,,Bus Station Stand 12,,,,Bus Station,,Newport Road,,,,12,,W,E0039258,Middlesbrough,,,,,,,1,UKOS,449251,520335,-1.23962,54.575839,BCT,MKD,TIP,,,,031,2005-07-06T00:00:00.000,2007-06-15T00:00:00.000,1,revise,active
079073001M,mbradgt,,,Bus Station Stand 13,,,,Bus Station,,Newport Road,,,,13,,W,E0039258,Middlesbrough,,,,,,,1,UKOS,449235,520335,-1.239868,54.575849,BCT,MKD,TIP,,,,031,2005-07-06T00:00:00.000,2007-06-15T00:00:00.000,1,revise,active
079073001N,mbradgw,,,Bus Station Stand 14,,,,Bus Station,,Newport Road,,,,14,,W,E0039258,Middlesbrough,,,,,,,1,UKOS,449218,520338,-1.24013,54.575869,BCT,MKD,TIP,,,,031,2005-07-06T00:00:00.000,2007-06-15T00:00:00.000,1,revise,active
079073001O,mbradja,,,Bus Station Stand 15,,,,Bus Station,,Newport Road,,,,15,,W,E0039258,Middlesbrough,,,,,,,1,UKOS,449202,520339,-1.240378,54.575888,BCT,MKD,TIP,,,,031,2005-07-06T00:00:00.000,2007-06-15T00:00:00.000,1,revise,active
079073001P,mbradjd,,,Bus Station Stand 16,,,,Bus Station,,Newport Road,,,,16,,NW,E0039258,Middlesbrough,,,,,,,1,UKOS,449181,520343,-1.240702,54.575926,BCT,MKD,TIP,,,,031,2005-07-06T00:00:00.000,2007-06-15T00:00:00.000,1,revise,active
079073001Q,mbradjg,,,Bus Station Stand 17,,,,Bus Station,,Newport Road,,,,17,,SE,E0039258,Middlesbrough,,,,,,,1,UKOS,449177,520338,-1.240765,54.575873,BCT,MKD,TIP,,,,031,2005-07-06T00:00:00.000,2007-06-15T00:00:00.000,1,revise,active
079073001R,mbradjm,,,Bus Station Stand 18,,,,Bus Station,,Newport Road,,,,18,,E,E0039258,Middlesbrough,,,,,,,1,UKOS,449189,520334,-1.24058,54.575836,BCT,MKD,TIP,,,,031,2005-07-06T00:00:00.000,2007-06-15T00:00:00.000,1,revise,active
079073001S,mbradjp,,,Bus Station Stand 19,,,,Bus Station,,Newport Road,,,,19,,E,E0039258,Middlesbrough,,,,,,,1,UKOS,449205,520332,-1.240332,54.575825,BCT,MKD,TIP,,,,031,2005-07-06T00:00:00.000,2007-06-15T00:00:00.000,1,revise,active
079073001T,mbradjt,,,Bus Station Stand 20,,,,Bus Station,,Newport Road,,,,20,,E,E0039258,Middlesbrough,,,,,,,1,UKOS,449227,520329,-1.239993,54.575787,BCT,MKD,TIP,,,,031,2005-07-06T00:00:00.000,2007-06-15T00:00:00.000,1,revise,active
079073001U,mbradjw,,,Bus Station Stand 21,,,,Bus Station,,Newport Road,,,,21,,E,E0039258,Middlesbrough,,,,,,,1,UKOS,449247,520326,-1.239684,54.575767,BCT,MKD,TIP,,,,031,2005-07-06T00:00:00.000,2007-06-15T00:00:00.000,1,revise,active
079073001Z,mbradma,,,Bus Station Express Lounge,,,,Bus Station,,Newport Road,,,,30,,N,E0039258,Middlesbrough,,,,,,,1,UKOS,449279,520353,-1.239184,54.575998,BCT,MKD,TIP,,,,031,2005-07-06T00:00:00.000,2007-06-15T00:00:00.000,1,revise,active
07907300306,mbradpa,,,Borough Road,,,,Grange Road,,Borough Road,,,,6,,W,E0039258,Middlesbrough,,,,,,,0,UKOS,449308,520020,-1.238791,54.573011,BCT,MKD,OTH,,,,031,2005-07-06T00:00:00.000,2009-10-21T00:00:00.000,3,revise,inactive
079073003A,mbradmg,,,Priory Street,,,,Grange Road,,Borough Road,,,,A,,E,E0039258,Middlesbrough,,,,,,,0,UKOS,449240,520048,-1.239839,54.573261,BCT,MKD,TIP,,,,031,2005-07-06T00:00:00.000,2017-12-11T15:52:11.052,3,revise,active
079073003B,mbradmj,,,Borough Road Stand B,,,,Grange Road,,Borough Road,,,,2,,W,E0039258,Middlesbrough,,,,,,,0,UKOS,449309,520020,-1.238776,54.573011,BCT,MKD,TIP,,,,031,2005-07-06T00:00:00.000,2018-12-17T14:14:11.667,5,revise,inactive
079073003C,mbradmp,,,Borough Road,,,,Ruby Street,,Borough Road,,,,3,,W,E0039258,Middlesbrough,,,,,,,0,UKOS,449321,520019,-1.23859,54.573001,BCT,MKD,TIP,,,,031,2005-07-06T00:00:00.000,2018-12-17T14:14:37.718,6,revise,inactive
079073003D,mbradmt,,,Linthorpe Rd,,,,Borough Road,,Grange Road,,,,4,,N,E0039258,Middlesbrough,,,,,,,0,UKOS,449377,520057,-1.237718,54.573337,BCT,MKD,TIP,,,,031,2005-07-06T00:00:00.000,2012-09-27T14:24:47.000,4,revise,inactive
079073003E,mbradmw,,,Linthorpe Road,,,,Borough Road,,Linthorpe Road,,,,5,,S,E0039258,Middlesbrough,,,,,,,0,UKOS,449366,519933,-1.237909,54.572224,BCT,MKD,TIP,,,,031,2005-07-06T00:00:00.000,2012-09-27T14:16:56.000,5,revise,inactive
079073003F,mbrdwmp,,,Borough Road Stand 6,,,,Grange Road,,Borough Road,,,,6,,W,E0039258,Middlesbrough,,,,,,,0,UKOS,449308,520020,-1.238791,54.573011,BCT,MKD,OTH,,,,031,2009-09-08T00:00:00.000,2012-09-27T14:03:46.000,1,revise,inactive
079073004A,mbradpd,,,Ayresome Park,,,,Warwick Street,,Ayresome Street,,,,1,,W,E0039243,Ayresome,Middlesbrough,,,,,,0,UKOS,448858,519171,-1.245892,54.565417,BCT,MKD,OTH,,,,031,2005-07-06T00:00:00.000,2013-03-18T10:45:51.000,2,revise,inactive
079073004B,mbradpg,,,Ayresome Park,,,,Warwick Street,,Ayresome Street,,,,2,,E,E0039243,Ayresome,Middlesbrough,,,,,,0,UKOS,448767,519193,-1.247296,54.565632,BCT,MKD,OTH,,,,031,2005-07-06T00:00:00.000,2013-03-18T10:45:28.000,3,revise,inactive
079073005A,mbradpj,,,The Swatters Carr,,,,King Edward Road,,LINTHORPE ROAD,,,,A,,S,E0039258,Middlesbrough,,,,,,,0,UKOS,449304,519648,-1.238918,54.569663,BCT,MKD,TIP,,,,031,2005-07-06T00:00:00.000,2022-09-12T13:55:26.458,7,revise,active
079073005B,mbradpm,,,The Swatters Carr,,,,King Edward Road,,LINTHORPE ROAD,,,,B,,S,E0039258,Middlesbrough,,,,,,,0,UKOS,449309,519673,-1.238838,54.569889,BCT,MKD,TIP,,,,031,2005-07-06T00:00:00.000,2022-09-12T13:55:03.629,5,revise,active
079073005D,mbradpt,,,Southfield Road,,,,King Edward Road,,Linthorpe Road,,,,4,,N,E0039258,Middlesbrough,,,,,,,0,UKOS,449301,519716,-1.238951,54.57028,BCT,MKD,TIP,,,,031,2005-07-06T00:00:00.000,2018-12-17T14:14:52.830,4,revise,inactive
079073005E,mbradpw,,,Southfield Road,,,,Wilton Street,,Southfield Road,,,,5,,W,E0039258,Middlesbrough,,,,,,,0,UKOS,449399,519756,-1.237428,54.57063,BCT,MKD,TIP,,,,031,2005-07-06T00:00:00.000,2015-11-05T00:00:00.000,3,revise,inactive
079073005F,mbradta,,,Southfield Road,,,,Wilton Street,,Southfield Road,,,,6,,E,E0039258,Middlesbrough,,,,,,,0,UKOS,449399,519770,-1.237426,54.570756,BCT,MKD,TIP,,,,031,2005-07-06T00:00:00.000,2015-11-05T00:00:00.000,3,revise,inactive
079073006A,mbradtd,,,Ayresome Gardens,,,,Park Road North,,LINTHORPE ROAD,,,,A,,S,E0039243,Ayresome,Middlesbrough,,,,,,0,UKOS,449213,519301,-1.240379,54.566557,BCT,MKD,TIP,,,,031,2005-07-06T00:00:00.000,2022-09-09T11:50:43.323,6,revise,active
079073006B,mbradtg,,,Ayresome Gardens,,,,Gresham Road,,LINTHORPE ROAD,,,,B,,S,E0039243,Ayresome,Middlesbrough,,,,,,0,UKOS,449217,519316,-1.24031,54.566689,BCT,MKD,TIP,,,,031,2005-07-06T00:00:00.000,2022-09-09T11:50:58.943,8,revise,active
079073006C,mbrgamw,,,Ayresome Gardens,,,,Gresham Road,,LINTHORPE ROAD,,,,C,,N,E0039243,Ayresome,Middlesbrough,,,,,,0,UKOS,449195,519268,-1.240663,54.566258,BCT,MKD,OTH,,,,031,2012-09-27T14:52:17.000,2022-09-09T11:52:00.500,5,revise,active
079073007A,mbradtj,,,Dorman Museum,,,,Museum,,Linthorpe Road,,,,A,,S,E0039243,Ayresome,Middlesbrough,,,,,,0,UKOS,449152,519078,-1.241362,54.564553,BCT,MKD,TIP,,,,031,2005-07-06T00:00:00.000,2017-01-24T11:27:29.415,2,revise,active
079073007B,mbradtm,,,Dorman Museum,,,,Museum,,Linthorpe Road,,,,B,,S,E0039243,Ayresome,Middlesbrough,,,,,,0,UKOS,449153,519087,-1.241345,54.564634,BCT,MKD,TIP,,,,031,2005-07-06T00:00:00.000,2017-01-24T11:44:38.036,2,revise,active
079073007C,mbradtp,,,Dorman Museum,,,,Ayresome Street,,Linthorpe Road,,,,C,,N,E0039243,Ayresome,Middlesbrough,,,,,,0,UKOS,449174,519220,-1.240998,54.565827,BCT,MKD,TIP,,,,031,2005-07-06T00:00:00.000,2022-09-09T11:47:50.184,3,revise,inactive
079073008C,mbradtw,,,St Barnabas Church,,,,Park Road South,,Linthorpe Road,,,,3,,S,E0039254,Linthorpe,Middlesbrough,,,,,,0,UKOS,449113,518870,-1.241999,54.562696,BCT,MKD,TIP,,,,031,2005-07-06T00:00:00.000,2018-12-17T14:15:35.725,5,revise,inactive
079073008D,mbradwa,,,St Barnabas Church,,,,Linthorpe Road,,Park Road South,,,,4,,E,E0039254,Linthorpe,Middlesbrough,,,,,,0,UKOS,449170,518889,-1.241115,54.562853,BCT,MKD,OTH,,,,031,2005-07-06T00:00:00.000,2018-12-17T14:15:45.703,5,revise,inactive
079073008E,mbradwd,,,St Barnabas Church,,,,Park Road South,,Linthorpe Road,,,,5,,N,E0039254,Linthorpe,Middlesbrough,,,,,,0,UKOS,449109,518935,-1.24205,54.563281,BCT,MKD,TIP,,,,031,2005-07-06T00:00:00.000,2018-12-17T14:15:54.541,5,revise,inactive
079073009A,mbradwg,,,Maddren Way,,,,St Barnabas Road,,Ayresome Green Lane,,,,A,,NW,E0039243,Ayresome,Middlesbrough,,,,,,0,UKOS,448558,518826,-1.250589,54.562346,BCT,MKD,OTH,,,,031,2005-07-06T00:00:00.000,2017-01-24T12:09:41.612,2,revise,active
079073009B,mbradwj,,,Maddren Way,,,,St Barnabas Road,,Ayresome Green Lane,,,,B,,SE,E0039243,Ayresome,Middlesbrough,,,,,,0,UKOS,448557,518855,-1.250599,54.562615,BCT,MKD,OTH,,,,031,2005-07-06T00:00:00.000,2017-01-24T12:41:35.917,2,revise,active
07907300T32,mbrgadg,,,Temporary Stop T32,,Temporary Stop T32,,Argos Temporary Bus Station,,Wilson Street,,,,T32,,,E0039258,Middlesbrough,,,,,,,0,UKOS,449163,520443,-1.240964,54.576818,BCS,,PTP,,,,031,2012-06-14T10:49:28.000,2012-08-21T14:34:49.000,2,revise,inactive
07907300T34,mbrgadj,,,Temporary Stop T34,,Temporary Stop T34,,Nevisport Temporary Bus Station,,Newport Road,,,,T34,,,E0039258,Middlesbrough,,,,,,,0,UKOS,449044,520320,-1.242825,54.575724,BCS,,PTP,,,,031,2012-06-14T11:55:17.000,2012-08-21T14:35:20.000,1,revise,inactive
07907300T35,mbrgadm,,,Temporary Stop T35,,Temporary Stop T35,,Temporary Bus Station,,Newport Road,,,,T35,,,E0039258,Middlesbrough,,,,,,,0,UKOS,449080,520372,-1.242259,54.576188,BCS,,PTP,,,,031,2012-06-14T12:13:49.000,2012-08-21T14:35:43.000,1,revise,inactive
07907300T36,mbrgadp,,,Temporary Stop T36,,Temporary Stop T36,,Temporary Bus Station,,NewPort Road,,,,T36,,,E0039258,Middlesbrough,,,,,,,0,UKOS,449094,520379,-1.242041,54.576258,BCS,,PTP,,,,031,2012-06-14T12:22:15.000,2012-08-21T14:36:11.000,1,revise,inactive
07907300T37,mbrgadt,,,Temporary Stop T37,,Temporary Stop T37,,Sainsburys Car Park,,Sainsburys Car Park,,,,T37,,,E0039258,Middlesbrough,,,,,,,0,UKOS,449056,520379,-1.242629,54.576253,BCS,,PTP,,,,031,2012-06-14T12:27:44.000,2012-08-21T14:37:18.000,1,revise,inactive
07907300T38,mbrgadw,,,Temporary Stop T38,,Temporary Stop T38,,Sainsburys Car Park,,Sainsburys Car Park,,,,T38,,,E0039258,Middlesbrough,,,,,,,0,UKOS,449072,520387,-1.24238,54.576332,BCS,,PTP,,,,031,2012-06-14T12:29:58.000,2012-08-21T14:36:53.000,1,revise,inactive
07907300T39,mbrgaga,,,Riverside Stadium,,Temporary Stop T39,,Sainsburys Car Park,,THE LEEWAY,,,,A,,E,E0057198,Middlehaven,Middlesbrough,,,,,,0,UKOS,450681,520492,-1.217475,54.577117,BCT,MKD,PTP,,,,031,2012-06-14T12:31:19.000,2023-01-26T13:05:46.594,5,revise,inactive
07907300T40,mbrgagd,,,Riverside Stadium,,Temporary Stop T40,,Sainsburys Car Park,,THE LEEWAY,,,,B,,W,E0057198,Middlehaven,Middlesbrough,,,,,,0,UKOS,450694,520481,-1.217275,54.577009,BCT,MKD,PTP,,,,031,2012-06-14T12:34:50.000,2023-01-26T13:06:11.959,5,revise,inactive
079073010A,mbradwm,,,Clough Close,,,,old General Hospital,,Ayresome Green Lane,,,,A,,SE,E0039243,Ayresome,Middlesbrough,,,,,,0,UKOS,448437,519038,-1.252425,54.564271,BCT,MKD,TIP,,,,031,2005-07-06T00:00:00.000,2017-12-12T09:41:42.175,4,revise,active
079073010B,mbradwp,,,Clough Close,,,,old General Hospital,,Ayresome Green Lane,,,,B,,NW,E0039243,Ayresome,Middlesbrough,,,,,,0,UKOS,448400,519056,-1.252994,54.564436,BCT,MKD,TIP,,,,031,2005-07-06T00:00:00.000,2017-12-12T09:47:22.197,3,revise,active
079073010C,mbradwt,,,Parkside Gardens,,,,Ayresome Green Lane,,Acklam Road,,,,3,,NE,E0039243,Ayresome,Middlesbrough,,,,,,0,UKOS,448299,519176,-1.254536,54.565524,BCT,MKD,OTH,,,,031,2005-07-06T00:00:00.000,2018-12-17T14:16:08.757,5,revise,inactive
079073010D,mbragad,,,Parkside Gardens,,,,Ayresome Green Lane,,Acklam Road,,,,4,,SW,E0039243,Ayresome,Middlesbrough,,,,,,0,UKOS,448301,519124,-1.254514,54.565048,BCT,MKD,OTH,,,,031,2005-07-06T00:00:00.000,2018-12-17T14:16:19.588,5,revise,inactive
079073011A,mbragag,,,Leinster Road,,,,Leinster Road,,LONGFORD STREET,,,,A,,SW,E0039243,Ayresome,Middlesbrough,,,,,,0,UKOS,448440,519318,-1.252334,54.56678,BCT,MKD,OTH,,,,031,2005-07-06T00:00:00.000,2019-05-28T12:32:27.707,6,revise,active
079073011B,mbragaj,,,Leinster Road,,,,Leinster Road,,Longford Street,,,,B,,NE,E0039243,Ayresome,Middlesbrough,,,,,,0,UKOS,448446,519357,-1.252233,54.567128,BCT,MKD,OTH,,,,031,2005-07-06T00:00:00.000,2017-01-24T12:53:33.914,4,revise,active
079073012A,mbragam,,,Parliament Road,,,,Parliament Road,,Union Street,,,,A,,NE,E0039260,Newport,Middlesbrough,,,,,,0,UKOS,448596,519667,-1.249862,54.569908,BCT,MKD,OTH,,,,031,2005-07-06T00:00:00.000,2017-01-24T13:05:15.397,4,revise,active
079073012B,mbragap,,,Parliament Road,,,,Parliament Road,,Union Street,,,,B,,SW,E0039260,Newport,Middlesbrough,,,,,,0,UKOS,448575,519625,-1.250194,54.569524,BCT,MKD,OTH,,,,031,2005-07-06T00:00:00.000,2017-01-24T16:24:02.620,3,revise,active
079073013A,mbragat,,,Glebe Road,,,,Newport Primary School,,Union Street,,,,A,,SW,E0039260,Newport,Middlesbrough,,,,,,0,UKOS,448785,519773,-1.246922,54.570834,BCT,MKD,OTH,,,,031,2005-07-06T00:00:00.000,2017-01-24T16:32:21.056,3,revise,active
079073013B,mbragaw,,,Glebe Road,,,,Newport Primary School,,Union Street,,,,B,,NE,E0039260,Newport,Middlesbrough,,,,,,0,UKOS,448776,519787,-1.247058,54.570969,BCT,MKD,OTH,,,,031,2005-07-06T00:00:00.000,2017-01-24T16:52:56.791,3,revise,active
079073014A,mbragda,,,Parkville Care Centre,,,,Western Social Club,,Union Street,,,,A,,NE,E0039260,Newport,Middlesbrough,,,,,,0,UKOS,449047,519967,-1.242837,54.572552,BCT,MKD,OTH,,,,031,2005-07-06T00:00:00.000,2017-01-26T09:47:47.288,5,revise,active
079073014B,mbragdg,,,Parkville Care Centre,,,,Parkville Care Centre,,Union Street,,,,B,,SW,E0039260,Newport,Middlesbrough,,,,,,0,UKOS,449012,519924,-1.243386,54.572169,BCT,MKD,OTH,,,,031,2005-07-06T00:00:00.000,2017-01-26T09:59:24.144,4,revise,active
079073015A,mbragdj,,,Runswick Avenue,,,,Runswick Avenue,,Earlsdon Avenue,,,,A,,W,E0039247,Brookfield,Middlesbrough,,,,,,0,UKOS,448339,515882,-1.254457,54.53592,BCT,MKD,OTH,,,,031,2005-07-06T00:00:00.000,2017-01-26T10:04:28.387,3,revise,active
079073015B,mbragdm,,,Runswick Avenue,,,,Runswick Avenue,,Earlsdon Avenue,,,,B,,E,E0039247,Brookfield,Middlesbrough,,,,,,0,UKOS,448363,515895,-1.254084,54.536035,BCT,MKD,OTH,,,,031,2005-07-06T00:00:00.000,2017-01-26T10:10:13.538,2,revise,active
079073016A,mbragdp,,,Cannon Park Way,,,,Cannon Park Way,,Newport Road,,,,A,,SW,E0039260,Newport,Middlesbrough,,,,,,0,UKOS,448901,520217,-1.245054,54.574821,BCT,MKD,OTH,,,,031,2005-07-06T00:00:00.000,2016-11-08T18:04:37.730,3,revise,active
079073016B,mbragdt,,,Cannon Park Way,,,,Cannon Park Way,,Newport Road,,,,B,,NE,E0039260,Newport,Middlesbrough,,,,,,0,UKOS,448908,520253,-1.24494,54.575135,BCT,MKD,OTH,,,,031,2005-07-06T00:00:00.000,2017-01-26T10:17:14.987,3,revise,active
079073016C,mbragdw,,,Cannon Park Way,,,,Cannon Park Way,,Newport Road,,,,C,,NE,E0039260,Newport,Middlesbrough,,,,,,0,UKOS,448824,520193,-1.246249,54.574604,BCT,MKD,OTH,,,,031,2005-07-06T00:00:00.000,2016-11-08T18:04:56.752,3,revise,active
079073017A,mbragja,,,Marsh Street,,,,Barker & Stonehouse,,Newport Road,,,,A,,SW,E0039260,Newport,Middlesbrough,,,,,,0,UKOS,448620,520022,-1.249433,54.573087,BCT,MKD,OTH,,,,031,2005-07-06T00:00:00.000,2016-11-08T18:07:44.632,4,revise,active
079073017B,mbragjd,,,Marsh Street,,,,Barker & Stonehouse,,Newport Road,,,,B,,NE,E0039260,Newport,Middlesbrough,,,,,,0,UKOS,448698,520096,-1.248214,54.573753,BCT,MKD,OTH,,,,031,2005-07-06T00:00:00.000,2016-11-08T18:08:04.664,3,revise,active
079073018A,mbragjg,,,Lamport Street,,,,Lamport Street,,Newport Road,,,,A,,NE,E0039260,Newport,Middlesbrough,,,,,,0,UKOS,448451,519942,-1.252059,54.572393,BCT,MKD,TIP,,,,031,2005-07-06T00:00:00.000,2016-11-08T18:10:38.974,4,revise,active
079073018B,mbragjm,,,Lamport Street,,,,Lamport Street,,Newport Road,,,,B,,SW,E0039260,Newport,Middlesbrough,,,,,,0,UKOS,448347,519855,-1.2536784,54.5716167,BCT,MKD,TIP,,,,031,2005-07-06T00:00:00.000,2017-01-26T11:52:15.947,3,revise,active
079073018C,mbragjp,,,Lamport Street,,,,Lamport Street,,Newport Road,,,,C,,SW,E0039260,Newport,Middlesbrough,,,,,,0,UKOS,448341,519852,-1.253776,54.571586,BCT,MKD,TIP,,,,031,2005-07-06T00:00:00.000,2016-11-08T18:13:41.812,3,revise,active
079073019A,mbragjt,,,Teesside & District Society for the Blind,,,,West Lane,,Stockton Road,,,,A,,SW,E0039260,Newport,Middlesbrough,,,,,,0,UKOS,447894,519461,-1.260753,54.568115,BCT,MKD,OTH,,,,031,2005-07-06T00:00:00.000,2017-01-26T12:37:22.510,2,revise,active
079073019B,mbragjw,,,Teesside & District Society for the Blind,,,,Ayresome Road,,Stockton Road,,,,B,,NE,E0039260,Newport,Middlesbrough,,,,,,0,UKOS,447871,519465,-1.261108,54.568153,BCT,MKD,OTH,,,,031,2005-07-06T00:00:00.000,2017-01-26T13:06:56.047,2,revise,active
079073020A,mbragma,,,Macmillan Academy,,,,Macmillan College,,Stockton Road,,,,A,,SW,E0039260,Newport,Middlesbrough,,,,,,0,UKOS,447681,519280,-1.264076,54.566517,BCT,MKD,OTH,,,,031,2005-07-06T00:00:00.000,2017-01-26T13:34:25.234,4,revise,active
079073020B,mbragmd,,,Macmillan Academy,,,,Macmillan College,,Stockton Road,,,,B,,NE,E0039260,Newport,Middlesbrough,,,,,,0,UKOS,447713,519332,-1.263573,54.566973,BCT,MKD,OTH,,,,031,2005-07-06T00:00:00.000,2017-01-26T13:43:32.647,5,revise,active
079073021A,mbragmg,,,Army Reserve Centre,,,,TA Centre,,Stockton Road,,,,A,,SW,E0039260,Newport,Middlesbrough,,,,,,0,UKOS,447271,518965,-1.270467,54.563725,BCT,MKD,OTH,,,,031,2005-07-06T00:00:00.000,2017-01-26T13:51:18.921,3,revise,active
079073021B,mbragmj,,,Army Reserve Centre,,,,TA Centre,,Stockton Road,,,,B,,NE,E0039260,Newport,Middlesbrough,,,,,,0,UKOS,447227,518959,-1.271148,54.563675,BCT,MKD,OTH,,,,031,2005-07-06T00:00:00.000,2017-01-26T13:57:03.799,2,revise,active
079073022A,mbragmp,,,Old River,,,,Old River,,Stockton Road,,,,1,,E,E0039260,Newport,Middlesbrough,,,,,,0,UKOS,446854,518772,-1.276946,54.562021,BCT,MKD,OTH,,,,031,2005-07-06T00:00:00.000,2016-11-11T14:58:38.849,2,revise,inactive
079073022B,mbragmt,,,Old River,,,,Old River,,Stockton Road,,,,2,,SW,E0039260,Newport,Middlesbrough,,,,,,0,UKOS,446785,518723,-1.278021,54.561587,BCT,MKD,OTH,,,,031,2005-07-06T00:00:00.000,2016-11-11T14:58:53.425,3,revise,inactive
079073023A,mbragmw,,,Barnaby Avenue,,,,Barnaby Avenue,,Acklam Road,,,,A,,NE,E0039243,Ayresome,Middlesbrough,,,,,,0,UKOS,448166,519011,-1.25662,54.564054,BCT,MKD,OTH,,,,031,2005-07-06T00:00:00.000,2017-01-26T14:25:51.117,3,revise,active
079073023B,mbragpa,,,Barnaby Avenue,,,,Barnaby Avenue,,Acklam Road,,,,B,,SW,E0039243,Ayresome,Middlesbrough,,,,,,0,UKOS,448132,518942,-1.257157,54.563429,BCT,MKD,OTH,,,,031,2005-07-06T00:00:00.000,2017-01-26T16:02:09.768,3,revise,active
079073024A,mbragpd,,,West Lane Hospital,,,,West Lane Hospital,,Acklam Road,,,,A,,N,E0039243,Ayresome,Middlesbrough,,,,,,0,UKOS,448010,518707,-1.259082,54.561337,BCT,MKD,OTH,,,,031,2005-07-06T00:00:00.000,2017-01-26T16:08:19.120,2,revise,active
079073024B,mbragpg,,,West Lane Hospital,,,,West Lane Hospital,,Acklam Road,,,,B,,S,E0039243,Ayresome,Middlesbrough,,,,,,0,UKOS,448026,518749,-1.258827,54.561713,BCT,MKD,OTH,,,,031,2005-07-06T00:00:00.000,2017-01-26T16:18:35.853,2,revise,active
079073025A,mbragpj,,,Springfield Road,,,,Springfield Road,,Acklam Road,,,,A,,NE,E0039254,Linthorpe,Middlesbrough,,,,,,0,UKOS,447932,518413,-1.260336,54.558694,BCT,MKD,TIP,,,,031,2005-07-06T00:00:00.000,2017-12-12T13:45:33.719,2,revise,active
079073025B,mbragpm,,,Springfield Road,,,,Burlam Road,,Acklam Road,,,,B,,SW,E0039254,Linthorpe,Middlesbrough,,,,,,0,UKOS,447981,518568,-1.259553,54.560091,BCT,MKD,TIP,,,,031,2005-07-06T00:00:00.000,2017-12-12T15:30:06.886,3,revise,active
079073025C,mbragpt,,,Roseberry Hotel,,,,Acklam Road,,Burlam Road,,,,3,,E,E0039254,Linthorpe,Middlesbrough,,,,,,0,UKOS,448005,518528,-1.259188,54.559729,BCT,MKD,TIP,,,,031,2005-07-06T00:00:00.000,2018-12-17T14:16:34.852,4,revise,inactive
079073025D,mbragpw,,,Roseberry Hotel,,,,Hollins Lane,,Burlam Road,,,,4,,W,E0039254,Linthorpe,Middlesbrough,,,,,,0,UKOS,448032,518509,-1.258774,54.559556,BCT,MKD,TIP,,,,031,2005-07-06T00:00:00.000,2018-12-17T14:16:45.390,5,revise,inactive
079073026A,mbragta,,,Grosvenor Road,,,,Grosvenor Road,,BURLAM ROAD,,,,A,,W,E0039254,Linthorpe,Middlesbrough,,,,,,0,UKOS,448261,518522,-1.255228,54.559644,BCT,MKD,OTH,,,,031,2005-07-06T00:00:00.000,2020-08-21T08:32:56.511,3,revise,active
079073026B,mbragtd,,,Grosvenor Road,,,,Grosvenor Road,,BURLAM ROAD,,,,B,,E,E0039254,Linthorpe,Middlesbrough,,,,,,0,UKOS,448254,518530,-1.255345,54.559717,BCT,MKD,OTH,,,,031,2005-07-06T00:00:00.000,2020-08-21T08:32:26.619,3,revise,active
079073027B,mbragtg,,,Roseberry Court,,,,Roman Road,,Burlam Road,,,,B,,E,E0039254,Linthorpe,Middlesbrough,,,,,,0,UKOS,448617,518631,-1.249708,54.560588,BCT,MKD,OTH,,,,031,2005-07-06T00:00:00.000,2017-12-12T15:52:05.508,2,revise,active
079073027C,mbragtj,,,Burlam Road,,,,Roman Road,,Burlam Road,,,,3,,W,E0039254,Linthorpe,Middlesbrough,,,,,,0,UKOS,448615,518619,-1.249741,54.560489,BCT,MKD,OTH,,,,031,2005-07-06T00:00:00.000,2018-12-17T14:17:17.353,4,revise,inactive
079073027D,mbragtm,,,Burlam Road,,,,Burlam Road,,Ayresome Green Lane,,,,4,,NW,E0039254,Linthorpe,Middlesbrough,,,,,,0,UKOS,448633,518672,-1.249454,54.560963,BCT,MKD,OTH,,,,031,2005-07-06T00:00:00.000,2018-12-17T14:17:29.486,4,revise,inactive
079073027E,mbragtp,,,Burlam Road,,,,Chipchase Road,,Roman Road,,,,5,,S,E0039254,Linthorpe,Middlesbrough,,,,,,0,UKOS,448702,518588,-1.248401,54.560202,BCT,MKD,OTH,,,,031,2005-07-06T00:00:00.000,2018-12-17T14:17:39.327,5,revise,inactive
079073028A,mbragtw,,,Surrey Street,,,,General Hospital,,Ayresome Street,,,,1,,W,E0039243,Ayresome,Middlesbrough,,,,,,0,UKOS,448549,519169,-1.250671,54.565429,BCT,MKD,OTH,,,,031,2005-07-06T00:00:00.000,2013-03-18T10:43:29.000,2,revise,inactive
079073028B,mbragwa,,,Surrey Street,,,,General Hospital,,Ayresome Street,,,,2,,E,E0039243,Ayresome,Middlesbrough,,,,,,0,UKOS,448512,519183,-1.251241,54.565558,BCT,MKD,OTH,,,,031,2005-07-06T00:00:00.000,2013-03-18T10:43:57.000,2,revise,inactive
079073029A,mbragwd,,,Rockliffe Road,,,,Rockcliffe Road,,Roman Road,,,,A,,S,E0039254,Linthorpe,Middlesbrough,,,,,,0,UKOS,448752,518338,-1.247669,54.557942,BCT,MKD,OTH,,,,031,2005-07-06T00:00:00.000,2018-01-11T14:00:11.288,4,revise,active
079073029B,mbragwg,,,Rockliffe Road,,,,Rockcliffe Road,,Roman Road,,,,B,,N,E0039254,Linthorpe,Middlesbrough,,,,,,0,UKOS,448737,518341,-1.247901,54.557979,BCT,MKD,OTH,,,,031,2005-07-06T00:00:00.000,2018-01-11T14:01:18.975,3,revise,active
079073030A,mbragwj,,,Linthorpe Hotel,,,,Roman Road,,The Crescent,,,,A,,E,E0039254,Linthorpe,Middlesbrough,,,,,,0,UKOS,448780,518246,-1.247252,54.557121,BCT,MKD,OTH,,,,031,2005-07-06T00:00:00.000,2020-05-04T09:51:46.109,3,revise,active
079073030B,mbragwm,,,Linthorpe Hotel,,,,Roman Road,,Oxford Road,,,,B,,W,E0039254,Linthorpe,Middlesbrough,,,,,,0,UKOS,448709,518205,-1.248356,54.556751,BCT,MKD,OTH,,,,031,2005-07-06T00:00:00.000,2017-01-26T16:49:47.067,3,revise,active
079073031A,mbragwp,,,Dorman's,,,,Linden Grove,,Oxford Road,,,,A,,E,E0039254,Linthorpe,Middlesbrough,,,,,,0,UKOS,448553,518174,-1.250773,54.556496,BCT,MKD,OTH,,,,031,2005-07-06T00:00:00.000,2017-01-26T17:05:51.415,2,revise,active
079073031B,mbragwt,,,Dorman's,,,,Linden Grove,,Oxford Road,,,,B,,W,E0039254,Linthorpe,Middlesbrough,,,,,,0,UKOS,448532,518157,-1.251101,54.556345,BCT,MKD,OTH,,,,031,2005-07-06T00:00:00.000,2017-01-26T17:11:15.887,2,revise,active
079073032A,mbrajad,,,Thornfield Road,,,,Thornfield Road,,Oxford Road,,,,A,,E,E0039254,Linthorpe,Middlesbrough,,,,,,0,UKOS,448391,518133,-1.253284,54.556143,BCT,MKD,OTH,,,,031,2005-07-06T00:00:00.000,2017-01-26T17:16:21.505,3,revise,active
079073032B,mbrajag,,,Thornfield Road,,,,Thornfield Road,,Oxford Road,,,,B,,W,E0039254,Linthorpe,Middlesbrough,,,,,,0,UKOS,448315,518110,-1.254463,54.555935,BCT,MKD,OTH,,,,031,2005-07-06T00:00:00.000,2017-01-26T17:25:00.319,3,revise,active
079073033A,mbrajaj,,,Eton Road,,,,Eton Road,,Oxford Road,,,,A,,W,E0039254,Linthorpe,Middlesbrough,,,,,,0,UKOS,448071,518092,-1.258239,54.555805,BCT,MKD,OTH,,,,031,2005-07-06T00:00:00.000,2017-01-26T17:30:07.471,4,revise,active
079073033B,mbrajam,,,Eton Road,,,,Reeth Road,,Oxford Road,,,,B,,E,E0039254,Linthorpe,Middlesbrough,,,,,,0,UKOS,448026,518112,-1.258931,54.555989,BCT,MKD,OTH,,,,031,2005-07-06T00:00:00.000,2017-01-26T17:36:49.500,4,revise,active
079073034A,mbrajap,,,Oxford Road West End,,,,Weatherhead Avenue,,Acklam Road,,,,A,,S,E0039269,Whinney Banks,Middlesbrough,,,,,,0,UKOS,447842,518019,-1.261791,54.555162,BCT,MKD,TIP,,,,031,2005-07-06T00:00:00.000,2017-12-13T10:37:15.814,4,revise,active
079073034C,mbrajat,,,Oxford Road End,,,,Weatherhead Avenue,,Acklam Road,,,,3,,N,E0039269,Whinney Banks,Middlesbrough,,,,,,0,UKOS,447827,518030,-1.262021,54.555271,BCT,MKD,TIP,,,,031,2005-07-06T00:00:00.000,2018-12-17T14:17:51.273,4,revise,inactive
079073035A,mbrajaw,,,Cambridge Hotel,,,,Acklam Road,,Cambridge Road,,,,A,,E,E0039269,Whinney Banks,Middlesbrough,,,,,,0,UKOS,447841,517897,-1.261826,54.554066,BCT,MKD,TIP,,,,031,2005-07-06T00:00:00.000,2018-10-19T11:42:29.700,3,revise,active
079073035B,mbrajda,,,Acklam Road,,,,Cambridge Road West End,,Acklam Road,,,,2,,S,E0039269,Whinney Banks,Middlesbrough,,,,,,0,UKOS,447787,517817,-1.262674,54.553352,BCT,MKD,TIP,,,,031,2005-07-06T00:00:00.000,2018-12-17T14:18:06.842,10,revise,inactive
079073035C,mbrajdg,,,Acklam Road,,,,Cambridge Road West End,,Acklam Road,,,,3,,N,E0039269,Whinney Banks,Middlesbrough,,,,,,0,UKOS,447754,517755,-1.263194,54.552798,BCT,MKD,TIP,,,,031,2005-07-06T00:00:00.000,2018-12-17T14:18:20.250,9,revise,inactive
079073036A,mbrajdj,,,Levick Court,,,,Eton Road,,Cambridge Road,,,,A,,E,E0039254,Linthorpe,Middlesbrough,,,,,,0,UKOS,448038,517908,-1.258779,54.554155,BCT,MKD,TIP,,,,031,2005-07-06T00:00:00.000,2017-01-26T17:43:18.356,2,revise,active
079073036B,mbrajdm,,,Levick Court,,,,Reeth Road,,Cambridge Road,,,,B,,W,E0039254,Linthorpe,Middlesbrough,,,,,,0,UKOS,448084,517897,-1.25807,54.554043,BCT,MKD,OTH,,,,031,2005-07-06T00:00:00.000,2017-01-26T17:46:49.943,2,revise,active
079073037A,mbrajdp,,,Baptist Church,,,,Thornfield Road,,Cambridge Road,,,,A,,E,E0039254,Linthorpe,Middlesbrough,,,,,,0,UKOS,448322,517929,-1.254385,54.554308,BCT,MKD,TIP,,,,031,2005-07-06T00:00:00.000,2017-01-26T17:52:00.033,3,revise,active
079073037B,mbrajdt,,,Baptist Church,,,,Thornfield Road,,Cambridge Road,,,,B,,W,E0039254,Linthorpe,Middlesbrough,,,,,,0,UKOS,448400,517924,-1.25318,54.554264,BCT,MKD,TIP,,,,031,2005-07-06T00:00:00.000,2017-01-26T17:54:58.369,3,revise,active
079073038A,mbrajdw,,,Northgate Road,,,,Carter Bequest Hospital,,Cambridge Road,,,,A,,W,E0039254,Linthorpe,Middlesbrough,,,,,,0,UKOS,448581,517966,-1.250374,54.554624,BCT,MKD,TIP,,,,031,2005-07-06T00:00:00.000,2017-01-27T10:54:23.188,4,revise,active
079073038B,mbrajga,,,Northgate Road,,,,Carter Bequest Hospital,,Cambridge Road,,,,B,,E,E0039254,Linthorpe,Middlesbrough,,,,,,0,UKOS,448628,518001,-1.249642,54.554934,BCT,MKD,TIP,,,,031,2005-07-06T00:00:00.000,2017-01-27T10:57:46.096,3,revise,active
079073039A,mbrajgd,,,Masonic Hall,,,,Orchard Road,,Roman Road,,,,A,,SE,E0039254,Linthorpe,Middlesbrough,,,,,,0,UKOS,448883,517996,-1.245701,54.554865,BCT,MKD,TIP,,,,031,2005-07-06T00:00:00.000,2017-12-13T12:05:17.849,3,revise,active
079073039B,mbrajgj,,,Masonic Hall,,,,Cambridge Road,,Roman Road,,,,B,,NW,E0039254,Linthorpe,Middlesbrough,,,,,,0,UKOS,448861,517989,-1.246042,54.554804,BCT,MKD,TIP,,,,031,2005-07-06T00:00:00.000,2017-12-13T11:55:08.640,3,revise,active
079073039C,mbrajgm,,,Cambridge Square,,,,Cambridge Square,,Cambridge Road,,,,3,,W,E0039254,Linthorpe,Middlesbrough,,,,,,0,UKOS,448774,518014,-1.247383,54.555037,BCT,MKD,TIP,,,,031,2005-07-06T00:00:00.000,2018-12-17T14:18:35.485,6,revise,inactive
079073039D,mbrajgp,,,Cherryfield Drive,,,,College,,Orchard Road,,,,4,,E,E0039254,Linthorpe,Middlesbrough,,,,,,0,UKOS,448960,518054,-1.244501,54.55537,BCT,MKD,TIP,,,,031,2005-07-06T00:00:00.000,2018-12-17T14:19:55.296,5,revise,inactive
079073040A,mbrajgt,,,Cleveland College of Art & Design,,,,Roman Road,,Green Lane,,,,A,,E,E0039254,Linthorpe,Middlesbrough,,,,,,0,UKOS,448926,517749,-1.245077,54.552641,BCT,MKD,OTH,,,,031,2005-07-06T00:00:00.000,2017-01-27T11:04:18.834,2,revise,active
079073040B,mbrajgw,,,Cleveland College of Art & Design,,,,Roman Road,,Green Lane,,,,B,,W,E0039254,Linthorpe,Middlesbrough,,,,,,0,UKOS,448915,517731,-1.24525,54.552472,BCT,MKD,OTH,,,,031,2005-07-06T00:00:00.000,2017-01-27T11:15:16.462,2,revise,active
079073041A,mbrajma,,,St Mary's Walk,,,,St Marys Walk,,Green Lane,,,,A,,W,E0039254,Linthorpe,Middlesbrough,,,,,,0,UKOS,448578,517625,-1.250477,54.55156,BCT,MKD,OTH,,,,031,2005-07-06T00:00:00.000,2017-01-27T11:33:40.552,3,revise,active
079073041B,mbrajmd,,,St Mary's Walk,,,,St Marys Walk,,Green Lane,,,,B,,E,E0039254,Linthorpe,Middlesbrough,,,,,,0,UKOS,448659,517667,-1.249218,54.55193,BCT,MKD,OTH,,,,031,2005-07-06T00:00:00.000,2017-01-27T11:36:49.961,3,revise,active
079073042A,mbrajmg,,,Acklam Park,,,,Thornfield Grove,,Green Lane,,,,A,,E,E0039254,Linthorpe,Middlesbrough,,,,,,0,UKOS,448394,517594,-1.253327,54.551299,BCT,MKD,OTH,,,,031,2005-07-06T00:00:00.000,2017-01-27T11:48:16.212,2,revise,active
079073042B,mbrajmj,,,Acklam Park,,,,Thornfield Grove,,Green Lane,,,,B,,W,E0039254,Linthorpe,Middlesbrough,,,,,,0,UKOS,448422,517579,-1.252896,54.551162,BCT,MKD,OTH,,,,031,2005-07-06T00:00:00.000,2017-01-27T12:08:29.305,3,revise,active
079073043A,mbrajmp,,,Ridley Avenue,,,,Ridley Avenue,,Green Lane,,,,A,,E,E0039254,Linthorpe,Middlesbrough,,,,,,0,UKOS,448186,517525,-1.256553,54.550699,BCT,MKD,OTH,,,,031,2005-07-06T00:00:00.000,2017-01-27T12:17:28.923,2,revise,active
079073043B,mbrajmt,,,Ridley Avenue,,,,Ridley Avenue,,Green Lane,,,,B,,W,E0039254,Linthorpe,Middlesbrough,,,,,,0,UKOS,448182,517512,-1.256617,54.550574,BCT,MKD,OTH,,,,031,2005-07-06T00:00:00.000,2017-01-27T12:27:43.569,3,revise,active
079073044A,mbrajmw,,,Rockingham Court,,,,Green Lane,,Acklam Road,,,,A,,S,E0039242,Acklam,Middlesbrough,,,,,,0,UKOS,447947,517395,-1.260269,54.549545,BCT,MKD,OTH,,,,031,2005-07-06T00:00:00.000,2017-12-13T12:41:09.479,2,revise,active
079073044B,mbrajpa,,,Rockingham Court,,,,Green Lane,,Acklam Road,,,,B,,N,E0039242,Acklam,Middlesbrough,,,,,,0,UKOS,447936,517370,-1.260443,54.54933,BCT,MKD,OTH,,,,031,2005-07-06T00:00:00.000,2017-12-13T12:43:00.631,3,revise,active
079073044C,mbrajpd,,,Green Lane,,,,Acklam Road,,Green Lane,,,,3,,E,E0039242,Acklam,Middlesbrough,,,,,,0,UKOS,447941,517453,-1.260352,54.550075,BCT,MKD,OTH,,,,031,2005-07-06T00:00:00.000,2018-12-17T14:20:07.482,4,revise,inactive
079073044D,mbrajpg,,,Green Lane,,,,Acklam Road,,Green Lane West,,,,4,,W,E0039242,Acklam,Middlesbrough,,,,,,0,UKOS,447982,517453,-1.259719,54.550071,BCT,MKD,OTH,,,,031,2005-07-06T00:00:00.000,2018-12-17T14:20:17.218,4,revise,inactive
079073045A,mbrajpj,,,Pannell Avenue,,,,St Francis's Church,,Acklam Road,,,,A,,SE,E0039242,Acklam,Middlesbrough,,,,,,0,UKOS,447842,517579,-1.261862,54.551217,BCT,MKD,OTH,,,,031,2005-07-06T00:00:00.000,2017-01-27T12:34:08.002,2,revise,active
079073046A,mbrajpm,,,Ayresome Grange Road,,,,Laycock Gardens,,Heywood Street,,,,A,,N,E0039243,Ayresome,Middlesbrough,,,,,,0,UKOS,448235,519390,-1.255491,54.567453,BCT,MKD,OTH,,,,031,2005-07-06T00:00:00.000,2017-01-27T12:38:47.348,2,revise,active
079073046B,mbrajpt,,,Ayresome Grange Road,,,,Laycock Gardens,,Heywood Street,,,,B,,S,E0039243,Ayresome,Middlesbrough,,,,,,0,UKOS,448256,519393,-1.255165,54.567478,BCT,MKD,OTH,,,,031,2005-07-06T00:00:00.000,2017-01-27T12:43:30.903,2,revise,active
079073047B,mbrajpw,,,Hutton Road,,,,Hutton Road,,Longlands Road,,,,2,,E,E0039251,Grove Hill,Middlesbrough,,,,,,0,UKOS,450611,519291,-1.218763,54.566332,BCT,MKD,OTH,,,,031,2005-07-06T00:00:00.000,2017-02-13T12:56:33.211,2,revise,inactive
079073048A,mbrajta,,,Aldi,,,,Stainton Way,,Dalby Way,,,,A,,E,N0070295,Coulby Newham,,,,,,,0,UKOS,450758,514453,-1.217322,54.522843,BCT,MKD,TIP,,,,031,2005-07-06T00:00:00.000,2017-01-27T13:00:58.837,3,revise,active
079073048B,mbrajtd,,,Aldi,,,,Stainton Way,,Dalby Way,,,,B,,W,N0070295,Coulby Newham,,,,,,,0,UKOS,450812,514433,-1.216491,54.522658,BCT,MKD,OTH,,,,031,2005-07-06T00:00:00.000,2017-01-27T13:03:10.852,3,revise,active
079073049A,mbrajtg,,,Brignell Road,,,,Teesaurus Park,,Startforth Road,,,,sw bound,,SW,E0039258,Middlesbrough,,,,,,,0,UKOS,448741,521531,-1.247311,54.586635,BCT,CUS,OTH,,,,031,2005-07-06T00:00:00.000,2017-01-20T17:08:35.780,2,revise,active
079073050A,mbrajtj,,,Viewley Hill Shopping Centre,,,,Viewley Centre,,Viewley Centre Road,,,,A,,SE,E0039253,Hemlington,,,,,,,1,UKOS,449323,514737,-1.239443,54.525537,BCT,MKD,TIP,,,,031,2005-07-06T00:00:00.000,2017-01-27T13:30:16.907,3,revise,active
079073050B,mbrajtm,,,Viewley Hill Shopping Centre,,,,Viewley Centre,,Viewley Centre Road,,,,B,,NW,E0039253,Hemlington,,,,,,,1,UKOS,449304,514743,-1.239735,54.525593,BCT,MKD,TIP,,,,031,2005-07-06T00:00:00.000,2017-01-27T13:34:05.906,3,revise,active
079073051A,mbrajtp,,,Manton Avenue,,,,Pannell Avenue,,Levick Crescent,,,,A,,SW,E0039269,Whinney Banks,Middlesbrough,,,,,,0,UKOS,447628,517523,-1.26518,54.550734,BCT,MKD,OTH,,,,031,2005-07-06T00:00:00.000,2017-01-27T13:47:46.703,4,revise,active
079073051B,mbrajtw,,,Manton Avenue,,,,Pannell Avenue,,Levick Crescent,,,,B,,NE,E0039269,Whinney Banks,Middlesbrough,,,,,,0,UKOS,447590,517518,-1.265768,54.550684,BCT,MKD,OTH,,,,031,2005-07-06T00:00:00.000,2017-01-27T13:56:03.883,2,revise,active
079073052A,mbrajwa,,,Endsleigh Drive,,,,Croft Avenue,,Levick Crescent,,,,A,,NE,E0039269,Whinney Banks,Middlesbrough,,,,,,0,UKOS,447483,517429,-1.267436,54.549894,BCT,MKD,OTH,,,,031,2005-07-06T00:00:00.000,2017-01-27T14:05:23.088,2,revise,active
079073053A,mbrajwd,,,Downside Road,,,,Mandale Road,,Levick Crescent,,,,A,,E,E0039269,Whinney Banks,Middlesbrough,,,,,,0,UKOS,447282,517335,-1.270558,54.549077,BCT,MKD,OTH,,,,031,2005-07-06T00:00:00.000,2017-12-13T13:56:27.429,2,revise,active
079073053B,mbrajwg,,,Downside Road,,,,Mandale Road,,Levick Crescent,,,,B,,W,E0039269,Whinney Banks,Middlesbrough,,,,,,0,UKOS,447372,517354,-1.269164,54.549239,BCT,MKD,OTH,,,,031,2005-07-06T00:00:00.000,2017-12-13T13:57:09.393,2,revise,active
079073053C,mbrajwj,,,Levick Crescent,,,,Levick Crescent,,Mandale Road,,,,3,,E,E0039269,Whinney Banks,Middlesbrough,,,,,,0,UKOS,447357,517274,-1.269409,54.548513,BCT,MKD,OTH,,,,031,2005-07-06T00:00:00.000,2018-12-17T14:20:34.222,5,revise,inactive
079073053D,mbrajwm,,,Levick Crescent,,,,Levick Crescent,,Mandale Road,,,,4,,W,E0039269,Whinney Banks,Middlesbrough,,,,,,0,UKOS,447264,517267,-1.270848,54.548467,BCT,MKD,OTH,,,,031,2005-07-06T00:00:00.000,2018-12-17T14:20:44.632,4,revise,inactive
079073054A,mbrajwp,,,Lexden Avenue,,,,Lexdon Avenue,,Mandale Road,,,,A,,E,E0039242,Acklam,Middlesbrough,,,,,,0,UKOS,447556,517228,-1.26634,54.548081,BCT,MKD,OTH,,,,031,2005-07-06T00:00:00.000,2017-01-27T14:12:32.456,2,revise,active
079073054B,mbrajwt,,,Lexden Avenue,,,,Lexdon Avenue,,Mandale Road,,,,B,,W,E0039242,Acklam,Middlesbrough,,,,,,0,UKOS,447548,517219,-1.266465,54.548001,BCT,MKD,OTH,,,,031,2005-07-06T00:00:00.000,2017-01-27T14:18:59.828,2,revise,active
079073055A,mbramad,,,Cranford Gardens,,,,Heythrope Drive,,Mandale Road,,,,A,,W,E0039242,Acklam,Middlesbrough,,,,,,0,UKOS,447831,517126,-1.262106,54.547147,BCT,MKD,OTH,,,,031,2005-07-06T00:00:00.000,2017-01-27T14:36:54.275,2,revise,active
079073055B,mbramag,,,Cranford Gardens,,,,Cranford Gardens,,Mandale Road,,,,B,,E,E0039242,Acklam,Middlesbrough,,,,,,0,UKOS,447845,517140,-1.261887,54.547272,BCT,MKD,OTH,,,,031,2005-07-06T00:00:00.000,2017-01-27T15:39:12.456,3,revise,active
079073056A,mbramaj,,,The Coronation,,,,Coronation Hotel,,Acklam Road,,,,A,,S,E0039242,Acklam,Middlesbrough,,,,,,0,UKOS,448010,517187,-1.259329,54.54767,BCT,MKD,TIP,,,,031,2005-07-06T00:00:00.000,2017-01-27T15:49:04.685,2,revise,active
079073056B,mbramam,,,The Coronation,,,,Coronation Hotel,,Acklam Road,,,,B,,S,E0039242,Acklam,Middlesbrough,,,,,,0,UKOS,448016,517169,-1.259239,54.547516,BCT,MKD,TIP,,,,031,2005-07-06T00:00:00.000,2017-01-27T15:51:49.633,2,revise,active
079073056C,mbramap,,,The Coronation,,,,Coronation Hotel,,Acklam Road,,,,C,,N,E0039242,Acklam,Middlesbrough,,,,,,0,UKOS,448007,517115,-1.259387,54.547032,BCT,MKD,TIP,,,,031,2005-07-06T00:00:00.000,2017-01-27T15:54:53.585,2,revise,active
079073057A,mbramat,,,Lodore Grove,,,,Chuch Lane,,Acklam Road,,,,A,,SE,E0039242,Acklam,Middlesbrough,,,,,,0,UKOS,448126,516802,-1.257599,54.544208,BCT,MKD,OTH,,,,031,2005-07-06T00:00:00.000,2019-05-28T12:30:06.234,3,revise,active
079073057B,mbramaw,,,Lodore Grove,,,,Lodore Grove,,Acklam Road,,,,B,,N,E0039242,Acklam,Middlesbrough,,,,,,0,UKOS,448069,516897,-1.258464,54.545067,BCT,MKD,OTH,,,,031,2005-07-06T00:00:00.000,2017-01-27T16:19:36.220,2,revise,active
079073058A,mbramda,,,Cassop Grove,,,,Cassop Grove,,Trimdon Avenue,,,,A,,SW,E0039247,Brookfield,Middlesbrough,,,,,,0,UKOS,447924,516467,-1.260775,54.541208,BCT,MKD,OTH,,,,031,2005-07-06T00:00:00.000,2017-01-27T16:28:12.399,3,revise,active
079073058B,mbramdg,,,Cassop Grove,,,,Cassop Grove,,Trimdon Avenue,,,,B,,NE,E0039247,Brookfield,Middlesbrough,,,,,,0,UKOS,447938,516530,-1.260549,54.541781,BCT,MKD,OTH,,,,031,2005-07-06T00:00:00.000,2017-01-27T16:40:40.937,2,revise,active
079073059A,mbramdj,,,Hesleden Avenue North End,,,,Blue Bell Beck,,Trimdon Avenue,,,,A,,NE,E0039247,Brookfield,Middlesbrough,,,,,,0,UKOS,447819,516330,-1.26242,54.539995,BCT,MKD,OTH,,,,031,2005-07-06T00:00:00.000,2017-01-27T16:46:34.400,2,revise,active
079073059B,mbramdm,,,Hesleden Avenue North End,,,,Blue Bell Beck,,Trimdon Avenue,,,,B,,SW,E0039247,Brookfield,Middlesbrough,,,,,,0,UKOS,447834,516300,-1.262193,54.539724,BCT,MKD,OTH,,,,031,2005-07-06T00:00:00.000,2017-01-27T16:51:34.406,3,revise,active
079073060A,mbramdp,,,Trimdon Avenue Shops,,,,Trimdon Avenue Shops,,Trimdon Avenue,,,,A,,N,E0039247,Brookfield,Middlesbrough,,,,,,0,UKOS,447820,516044,-1.262451,54.537425,BCT,MKD,TIP,,,,031,2005-07-06T00:00:00.000,2017-01-27T17:00:24.046,2,revise,active
079073060B,mbramdt,,,Trimdon Avenue Shops,,,,Trimdon Avenue Shops,,Trimdon Avenue,,,,B,,S,E0039247,Brookfield,Middlesbrough,,,,,,0,UKOS,447826,516108,-1.262348,54.538,BCT,MKD,TIP,,,,031,2005-07-06T00:00:00.000,2017-01-27T17:04:04.000,3,revise,active
079073060C,mbramdw,,,Trimdon Avenue Shops,,,,Trimdon Avenue Shops,,Earlsdon Avenue,,,,C,,W,E0039247,Brookfield,Middlesbrough,,,,,,0,UKOS,447888,516060,-1.261398,54.537563,BCT,MKD,OTH,,,,031,2005-07-06T00:00:00.000,2017-01-27T17:09:01.635,3,revise,active
079073061A,mbramga,,,Hesleden Avenue South End,,,,Primary School,,Trimdon Avenue,,,,A,,N,E0039247,Brookfield,Middlesbrough,,,,,,0,UKOS,447864,515813,-1.261809,54.535345,BCT,MKD,OTH,,,,031,2005-07-06T00:00:00.000,2017-01-27T17:12:03.109,3,revise,active
079073061B,mbramgd,,,Hesleden Avenue South End,,,,Primary School,,Trimdon Avenue,,,,B,,S,E0039247,Brookfield,Middlesbrough,,,,,,0,UKOS,447873,515831,-1.261667,54.535506,BCT,MKD,OTH,,,,031,2005-07-06T00:00:00.000,2017-01-27T17:21:17.674,4,revise,active
079073062A,mbramgj,,,St Clare's RC Primary School,,,,St Clare's School,,Trimdon Avenue,,,,A,,S,E0039247,Brookfield,Middlesbrough,,,,,,0,UKOS,447968,515536,-1.260247,54.532846,BCT,MKD,OTH,,,,031,2005-07-06T00:00:00.000,2017-01-27T17:28:22.439,2,revise,active
079073062B,mbramgm,,,St Clare's RC Primary School,,,,St Clares School,,Trimdon Avenue,,,,B,,N,E0039247,Brookfield,Middlesbrough,,,,,,0,UKOS,447891,515661,-1.261416,54.533977,BCT,MKD,OTH,,,,031,2005-07-06T00:00:00.000,2017-01-27T17:30:52.648,2,revise,active
079073063A,mbramgp,,,Recreation Centre,,,,Dallas Court,,Cass House Road,,,,A,,NE,E0039253,Hemlington,,,,,,,0,UKOS,449047,514166,-1.243801,54.520432,BCT,MKD,OTH,,,,031,2005-07-06T00:00:00.000,2018-06-15T12:33:59.607,4,revise,active
079073063B,mbramgt,,,Recreation Centre,,,,Dallas Court,,Cass House Road,,,,B,,SW,E0039253,Hemlington,,,,,,,0,UKOS,448999,514134,-1.244548,54.52015,BCT,MKD,OTH,,,,031,2005-07-06T00:00:00.000,2018-06-15T12:33:38.200,4,revise,active
079073064A,mbramgw,,,Hall Drive,,,,Acklam Road,,TRIMDON AVENUE,,,,1,,SW,E0039242,Acklam,Middlesbrough,,,,,,0,UKOS,448146,516668,-1.257307,54.543001,BCT,MKD,OTH,,,,031,2005-07-06T00:00:00.000,2018-12-17T14:21:02.812,5,revise,inactive
079073064B,mbramja,,,Hall Drive,,,,Hall Drive,,Acklam Road,,,,2,,SE,E0039242,Acklam,Middlesbrough,,,,,,0,UKOS,448244,516582,-1.255811,54.54222,BCT,MKD,OTH,,,,031,2005-07-06T00:00:00.000,2018-12-17T14:21:12.321,4,revise,inactive
079073064C,mbramjd,,,Hall Drive,,,,Acklam Road,,Hall Drive,,,,3,,W,E0039242,Acklam,Middlesbrough,,,,,,0,UKOS,448256,516627,-1.255618,54.542623,BCT,MKD,OTH,,,,031,2005-07-06T00:00:00.000,2016-11-11T15:06:58.017,2,revise,inactive
079073064D,mbramjg,,,Hall Drive,,,,Acklam Road,,Hall Drive,,,,4,,E,E0039242,Acklam,Middlesbrough,,,,,,0,UKOS,448277,516650,-1.25529,54.542819,BCT,MKD,OTH,,,,031,2005-07-06T00:00:00.000,2018-12-17T14:21:18.583,4,revise,inactive
079073064E,mbramjm,,,Hall Drive,,,,Trimdon Avenue,,Acklam Road,,,,5,,N,E0039242,Acklam,Middlesbrough,,,,,,0,UKOS,448151,516715,-1.257227,54.543424,BCT,MKD,OTH,,,,031,2005-07-06T00:00:00.000,2018-12-17T14:21:26.580,4,revise,inactive
079073065A,mbramjp,,,Staindrop Drive North,,,,St Davids School,,Acklam Road,,,,A,,NW,E0039242,Acklam,Middlesbrough,,,,,,0,UKOS,448345,516426,-1.254275,54.540808,BCT,MKD,OTH,,,,031,2005-07-06T00:00:00.000,2017-01-27T18:04:39.041,3,revise,active
079073065B,mbramjt,,,Staindrop Drive North,,,,St Davids School,,Acklam Road,,,,B,,SE,E0039242,Acklam,Middlesbrough,,,,,,0,UKOS,448348,516438,-1.254227,54.540916,BCT,MKD,OTH,,,,031,2005-07-06T00:00:00.000,2017-01-31T10:27:00.691,3,revise,active
079073066A,mbramjw,,,Staindrop Drive South,,,,Staindrop Drive,,Acklam Road,,,,A,,NW,E0039242,Acklam,Middlesbrough,,,,,,0,UKOS,448544,516229,-1.251232,54.539019,BCT,MKD,OTH,,,,031,2005-07-06T00:00:00.000,2017-01-31T10:54:52.980,3,revise,active
079073066B,mbrampa,,,Staindrop Drive South,,,,Staindrop Drive,,Acklam Road,,,,B,,SE,E0039242,Acklam,Middlesbrough,,,,,,0,UKOS,448544,516244,-1.25123,54.539154,BCT,MKD,OTH,,,,031,2005-07-06T00:00:00.000,2017-01-31T10:58:35.416,3,revise,active
079073067A,mbrampd,,,Teesside Crematorium,,,,Malvern Drive,,Acklam Road,,,,A,,NW,E0039247,Brookfield,Middlesbrough,,,,,,0,UKOS,448828,515940,-1.246891,54.536395,BCT,MKD,TIP,,,,031,2005-07-06T00:00:00.000,2017-01-31T11:10:52.688,3,revise,active
079073067B,mbrampg,,,Teesside Crematorium,,,,Malvern Drive,,Acklam Road,,,,B,,SE,E0039247,Brookfield,Middlesbrough,,,,,,0,UKOS,448966,515841,-1.244775,54.535492,BCT,MKD,TIP,,,,031,2005-07-06T00:00:00.000,2017-01-31T11:31:14.005,3,revise,active
079073067C,mbrampj,,,Teesside Crematorium,,,,Acklam Road,,Malvern Drive,,,,C,,SW,E0039247,Brookfield,Middlesbrough,,,,,,0,UKOS,448859,515873,-1.246423,54.53579,BCT,MKD,OTH,,,,031,2005-07-06T00:00:00.000,2017-01-31T12:00:03.891,3,revise,active
079073068A,mbrampm,,,Shoreswood Walk,,,,The Beck,,Malvern Drive,,,,A,,SW,E0039247,Brookfield,Middlesbrough,,,,,,0,UKOS,448622,515708,-1.250113,54.53433,BCT,MKD,OTH,,,,031,2005-07-06T00:00:00.000,2017-01-31T12:04:06.464,4,revise,active
079073068B,mbrampt,,,Shoreswood Walk,,,,The Beck,,Malvern Drive,,,,B,,NE,E0039247,Brookfield,Middlesbrough,,,,,,0,UKOS,448621,515725,-1.250125,54.534483,BCT,MKD,OTH,,,,031,2005-07-06T00:00:00.000,2017-01-31T12:07:48.839,4,revise,active
079073069A,mbrampw,,,St Margaret's Church,,,,Church,,The Oval,,,,A,,N,E0039247,Brookfield,Middlesbrough,,,,,,0,UKOS,448504,515452,-1.251978,54.532041,BCT,MKD,OTH,,,,031,2005-07-06T00:00:00.000,2017-01-31T12:13:09.330,2,revise,active
079073069B,mbramta,,,St Margaret's Church,,,,Church,,The Oval,,,,B,,S,E0039247,Brookfield,Middlesbrough,,,,,,0,UKOS,448454,515451,-1.252751,54.532028,BCT,MKD,OTH,,,,031,2005-07-06T00:00:00.000,2017-01-31T12:23:57.889,2,revise,active
079073070A,mbramtd,,,Lincombe Drive,,,,Lincombe Drive,,Low Lane,,,,A,,NE,E0039247,Brookfield,Middlesbrough,,,,,,0,UKOS,448504,515151,-1.252028,54.529336,BCT,MKD,OTH,,,,031,2005-07-06T00:00:00.000,2017-01-31T12:31:27.587,2,revise,active
079073070B,mbramtg,,,Lincombe Drive,,,,Lincombe Drive,,Low Lane,,,,B,,SW,E0039247,Brookfield,Middlesbrough,,,,,,0,UKOS,448447,515099,-1.252917,54.528874,BCT,MKD,OTH,,,,031,2005-07-06T00:00:00.000,2017-01-31T12:34:25.922,2,revise,active
079073071A,mbramtj,,,Sporting Lodge Inns,,,,Low Lane,,STRAIT LANE,,,,A,,SE,E0053439,Stainton,,,,,,,0,UKOS,447716,514528,-1.26431,54.523808,BCT,MKD,OTH,,,,031,2005-07-06T00:00:00.000,2021-03-02T13:31:42.275,6,revise,active
079073071B,mbramtm,,,Sporting Lodge Inns,,,,Low Lane,,Strait Lane,,,,B,,NW,E0053439,Stainton,,,,,,,0,UKOS,447690,514534,-1.264704,54.523869,BCT,MKD,OTH,,,,031,2005-07-06T00:00:00.000,2017-01-31T12:39:37.641,3,revise,active
079073072A,mbramtp,,,Greenacres,,,,Green Acres,,Strait Lane,,,,A,,SE,E0053439,Stainton,,,,,,,0,UKOS,447941,514305,-1.260864,54.521787,BCT,MKD,OTH,,,,031,2005-07-06T00:00:00.000,2017-01-31T12:44:39.900,3,revise,active
079073072B,mbramtw,,,Greenacres,,,,Green Acres,,Strait Lane,,,,B,,NW,E0053439,Stainton,,,,,,,0,UKOS,447930,514295,-1.261035,54.521698,BCT,MKD,OTH,,,,031,2005-07-06T00:00:00.000,2017-01-31T12:52:12.313,2,revise,active
079073073A,mbramwa,,,The Stainton,,,,Meldyke Lane,,MELDYKE LANE,,,,A,,S,E0053439,Stainton,,,,,,,0,UKOS,448032,514148,-1.259486,54.520367,BCT,MKD,OTH,,,,031,2005-07-06T00:00:00.000,2018-12-17T14:23:34.332,7,revise,inactive
079073073B,mbramwd,,,Marwood Wynd,,,,Church Close,,Hemlington Road,,,,B,,W,E0053439,Stainton,,,,,,,0,UKOS,448055,514065,-1.259141,54.51962,BCT,MKD,OTH,,,,031,2005-07-06T00:00:00.000,2018-12-17T14:23:55.872,6,revise,inactive
079073073C,mbramwg,,,Marwood Wynd,,,,Holly Lane,,Hemlington Road,,,,A,,E,E0053439,Stainton,,,,,,,0,UKOS,448172,514060,-1.257335,54.519564,BCT,MKD,OTH,,,,031,2005-07-06T00:00:00.000,2018-12-17T14:24:02.691,6,revise,inactive
079073073D,mbramwj,,,The Stainton,,,,Meldyke Lane,,Strait Lane,,,,N bound,,N,E0053439,Stainton,,,,,,,0,UKOS,448016,514149,-1.25973,54.520378,BCT,CUS,OTH,,,,031,2005-07-06T00:00:00.000,2018-12-17T14:23:43.627,6,revise,inactive
079073074A,mbramwm,,,Thornton Village,,,,Thornton Close,,Thornton Road,,,,A,,NE,E0039267,Thornton,,,,,,,0,UKOS,447860,513762,-1.262203,54.516915,BCT,MKD,OTH,,,,031,2005-07-06T00:00:00.000,2020-01-14T10:43:35.133,4,revise,active
079073074B,mbramwp,,,Thornton Village,,,,Thornton Vale,,Thornton Road,,,,B,,SW,E0039267,Thornton,,,,,,,0,UKOS,447886,513760,-1.261801,54.516895,BCT,MKD,OTH,,,,031,2005-07-06T00:00:00.000,2020-01-14T10:43:45.776,4,revise,active
079073075A,mbramwt,,,Hartburn Court,,,,Hartburn Court,,Earlsdon Avenue,,,,A,,NW,E0039247,Brookfield,Middlesbrough,,,,,,0,UKOS,448046,515987,-1.258968,54.536892,BCT,MKD,OTH,,,,031,2005-07-06T00:00:00.000,2017-01-31T13:14:08.548,2,revise,active
079073075B,mbrapad,,,Hartburn Court,,,,Hartburn Court,,Earlsdon Avenue,,,,B,,SE,E0039247,Brookfield,Middlesbrough,,,,,,0,UKOS,448069,515985,-1.258613,54.536872,BCT,MKD,OTH,,,,031,2005-07-06T00:00:00.000,2017-01-31T13:15:57.054,2,revise,active
079073076A,mbrapag,,,Carmel Gardens,,,,Carmel Gardens,,Low Lane,,,,A,,SW,E0039247,Brookfield,Middlesbrough,,,,,,0,UKOS,448737,515240,-1.248413,54.530113,BCT,MKD,OTH,,,,031,2005-07-06T00:00:00.000,2017-01-31T13:19:58.964,3,revise,active
079073076B,mbrapaj,,,Carmel Gardens,,,,Pineda Close,,Low Lane,,,,B,,NE,E0039247,Brookfield,Middlesbrough,,,,,,0,UKOS,448860,515319,-1.246499,54.530811,BCT,MKD,OTH,,,,031,2005-07-06T00:00:00.000,2017-01-31T13:23:42.913,3,revise,active
079073077A,mbrapam,,,Fawcett Avenue,,,,Cedarwood Glade,,HEMLINGTON ROAD,,,,A,,W,E0053439,Stainton,,,,,,,0,UKOS,448386,514071,-1.254021,54.519635,BCT,MKD,OTH,,,,031,2005-07-06T00:00:00.000,2022-02-23T16:12:42.949,4,revise,active
079073077B,mbrapap,,,Fawcett Avenue,,,,Vernon Court,,Hemlington Road,,,,B,,E,E0053439,Stainton,,,,,,,0,UKOS,448338,514087,-1.254766,54.519791,BCT,MKD,OTH,,,,031,2005-07-06T00:00:00.000,2017-01-31T13:36:08.278,3,revise,active
079073078A,mbrapat,,,Mardale,,,,Fordyce Road,,Cass House Road,,,,A,,SW,E0039253,Hemlington,,,,,,,0,UKOS,448824,514084,-1.24726,54.519717,BCT,MKD,OTH,,,,031,2005-07-06T00:00:00.000,2017-12-13T16:59:14.332,3,revise,active
079073078B,mbrapaw,,,Mardale,,,,Bowling Green,,Cass House Road,,,,B,,NE,E0039253,Hemlington,,,,,,,0,UKOS,448811,514091,-1.247459,54.519781,BCT,MKD,OTH,,,,031,2005-07-06T00:00:00.000,2017-12-13T17:01:49.060,3,revise,active
079073078C,mbrapda,,,Cass House Road End,,,,Cass House Road,,Hemlington Road,,,,3,,E,E0039253,Hemlington,,,,,,,0,UKOS,448671,513940,-1.249647,54.518438,BCT,MKD,OTH,,,,031,2005-07-06T00:00:00.000,2018-12-17T14:24:20.002,6,revise,inactive
079073078D,mbrapdg,,,Cass House Road End,,,,Hemlington Road,,Hemlington Road,,,,4,,NW,E0039253,Hemlington,,,,,,,0,UKOS,448620,513942,-1.250434,54.518461,BCT,MKD,OTH,,,,031,2005-07-06T00:00:00.000,2018-12-17T14:24:33.116,7,revise,inactive
079073079A,mbrapdj,,,Dodford Road,,,,Earls Court Road,,Cass House Road,,,,A,,NE,E0039253,Hemlington,,,,,,,0,UKOS,449267,514251,-1.240389,54.521175,BCT,MKD,OTH,,,,031,2005-07-06T00:00:00.000,2017-01-31T13:40:46.857,4,revise,active
079073079B,mbrapdm,,,Dodford Road,,,,Dodford Road,,Cass House Road,,,,B,,SW,E0039253,Hemlington,,,,,,,0,UKOS,449235,514201,-1.240892,54.520729,BCT,MKD,OTH,,,,031,2005-07-06T00:00:00.000,2017-01-31T13:53:17.676,3,revise,active
079073080A,mbrapdp,,,Elmstone Gardens,,,,Earls Court Road,,Cass House Road,,,,A,,N,E0039253,Hemlington,,,,,,,0,UKOS,449360,514462,-1.238917,54.523062,BCT,MKD,OTH,,,,031,2005-07-06T00:00:00.000,2017-01-31T14:10:46.888,2,revise,active
079073080B,mbrapdt,,,Elmstone Gardens,,,,Earls Court Road,,Cass House Road,,,,B,,S,E0039253,Hemlington,,,,,,,0,UKOS,449339,514328,-1.239268,54.521853,BCT,MKD,OTH,,,,031,2005-07-06T00:00:00.000,2023-06-28T13:19:24.238,5,revise,active
079073081A,mbrapdw,,,Viewley Hill Academy,,,,Viewley Hill School,,Cass House Road,,,,A,,N,E0039253,Hemlington,,,,,,,0,UKOS,449395,514618,-1.23835,54.52446,BCT,MKD,OTH,,,,031,2005-07-06T00:00:00.000,2017-01-31T14:28:07.454,2,revise,active
079073081B,mbrapga,,,Viewley Hill Academy,,,,Viewley Hill School,,Cass House Road,,,,B,,S,E0039253,Hemlington,,,,,,,0,UKOS,449404,514565,-1.23822,54.523983,BCT,MKD,OTH,,,,031,2005-07-06T00:00:00.000,2017-01-31T14:32:53.537,3,revise,active
079073082A,mbrapgd,,,All Nations Church,,,,Aviemore Road,,Cass House Road,,,,A,,S,E0039253,Hemlington,,,,,,,0,UKOS,449445,514750,-1.237556,54.525642,BCT,MKD,OTH,,,,031,2005-07-06T00:00:00.000,2017-12-14T10:43:08.106,3,revise,active
079073082B,mbrapgj,,,Viewley Hill Roundabout,,,,Viewley Centre Road,,Hemlington Hall Road,,,,2,,NW,E0039253,Hemlington,,,,,,,0,UKOS,449357,514868,-1.238896,54.526711,BCT,MKD,OTH,,,,031,2005-07-06T00:00:00.000,2018-12-17T14:26:37.116,5,revise,inactive
079073082C,mbrapgm,,,Viewley Hill Roundabout,,,,Viewley Centre Road,,Hemlington Hall Road,,,,3,,E,E0039253,Hemlington,,,,,,,0,UKOS,449281,514925,-1.24006,54.52723,BCT,MKD,OTH,,,,031,2005-07-06T00:00:00.000,2018-12-17T14:26:47.025,4,revise,inactive
079073083A,mbrapgp,,,Viewley Hill Avenue,,,,Cass House Road,,Viewley Hill Avenue,,,,A,,W,E0039253,Hemlington,,,,,,,0,UKOS,449681,514834,-1.233896,54.526374,BCT,MKD,OTH,,,,031,2005-07-06T00:00:00.000,2017-01-31T14:43:59.704,2,revise,active
079073083B,mbrapgt,,,Viewley Hill Avenue,,,,Cass House Road,,Viewley Hill Avenue,,,,B,,NE,E0039253,Hemlington,,,,,,,0,UKOS,449635,514832,-1.234607,54.52636,BCT,MKD,OTH,,,,031,2005-07-06T00:00:00.000,2017-01-31T14:51:02.325,3,revise,active
079073084A,mbrapgw,,,Hemlington Lane Subway,,,,Subway,,Hemlington Lane,,,,A,,NW,E0039253,Hemlington,,,,,,,0,UKOS,449894,514738,-1.230621,54.52549,BCT,MKD,OTH,,,,031,2005-07-06T00:00:00.000,2017-01-31T15:05:04.575,3,revise,active
079073084B,mbrapja,,,Hemlington Lane Subway,,,,Subway,,Hemlington Lane,,,,B,,SE,E0039253,Hemlington,,,,,,,0,UKOS,449982,514667,-1.229274,54.524843,BCT,MKD,OTH,,,,031,2005-07-06T00:00:00.000,2017-01-31T15:08:04.566,3,revise,active
079073085A,mbrapjd,,,Brabourn Gardens,,,,Hemlington Lane,,Stainton Way,,,,A,,NE,E0039253,Hemlington,,,,,,,0,UKOS,450013,514348,-1.228849,54.521974,BCT,MKD,OTH,,,,031,2005-07-06T00:00:00.000,2017-12-14T11:25:09.622,2,revise,active
079073085B,mbrapjg,,,Brabourn Gardens,,,,Hemlington Lane,,Stainton Way,,,,B,,SW,E0039253,Hemlington,,,,,,,0,UKOS,449997,514314,-1.229102,54.52167,BCT,MKD,OTH,,,,031,2005-07-06T00:00:00.000,2017-12-14T11:27:18.602,3,revise,active
079073085C,mbrapjm,,,The Gables,,,,Stainton Way,,Stokesley Road,,,,3,,SE,E0039253,Hemlington,,,,,,,0,UKOS,450226,514311,-1.225565,54.52162,BCT,MKD,OTH,,,,031,2005-07-06T00:00:00.000,2018-12-17T14:27:15.371,4,revise,inactive
079073085D,mbrapjp,,,The Gables,,,,Stainton Way,,Stokesley Road,,,,4,,NW,E0039253,Hemlington,,,,,,,0,UKOS,450210,514302,-1.225813,54.521541,BCT,MKD,OTH,,,,031,2005-07-06T00:00:00.000,2018-12-17T14:27:43.737,4,revise,inactive
079073086A,mbrapjt,,,Aviemore Road,,,,Aviemore Road,,Stainton Way,,,,A,,NE,E0039253,Hemlington,,,,,,,0,UKOS,449754,514232,-1.232869,54.520957,BCT,MKD,OTH,,,,031,2005-07-06T00:00:00.000,2017-01-31T15:47:33.731,2,revise,active
079073086B,mbrapjw,,,Aviemore Road,,,,Aviemore Road,,Stainton Way,,,,B,,SW,E0039253,Hemlington,,,,,,,0,UKOS,449703,514189,-1.233664,54.520575,BCT,MKD,OTH,,,,031,2005-07-06T00:00:00.000,2017-01-31T15:52:32.399,3,revise,active
079073088A,mbrapma,,,Ellis Gardens,,,,Riding Centre,,Stainton Way,,,,A,,NE,E0039253,Hemlington,,,,,,,0,UKOS,449356,514027,-1.239051,54.519153,BCT,MKD,OTH,,,,031,2005-07-06T00:00:00.000,2017-01-31T16:05:48.749,2,revise,active
079073088B,mbrapmd,,,Ellis Gardens,,,,Riding Centre,,STAINTON WAY,,,,B,,SW,E0039253,Hemlington,,,,,,,0,UKOS,449395,514036,-1.238448,54.519227,BCT,MKD,OTH,,,,031,2005-07-06T00:00:00.000,2017-01-31T16:13:48.527,3,revise,active
079073089A,mbrapmg,,,Larchfield Community,,,,Larchfield Community Centre,,Stokesley Road,,,,Opp,,S,N0070295,Coulby Newham,,,,,,,0,UKOS,450592,513486,-1.220052,54.51417,BCT,CUS,OTH,,,,031,2005-07-06T00:00:00.000,2011-01-31T10:34:05.000,4,revise,active
079073089B,mbrapmj,,,Larchfield Community,,,,Larchfield Community Centre,,Stokesley Road,,,,Entrance,,N,N0070295,Coulby Newham,,,,,,,0,UKOS,450578,513478,-1.22027,54.5141,BCT,CUS,OTH,,,,031,2005-07-06T00:00:00.000,2010-06-25T00:00:00.000,2,revise,active
079073090A,mbrapmp,,,Newham Hall,,,,Bromley Lane,,Stokesley Road,,,,SE bound,,SE,N0070295,Coulby Newham,,,,,,,0,UKOS,451436,512925,-1.207114,54.509045,BCT,CUS,OTH,,,,031,2005-07-06T00:00:00.000,2010-08-27T00:00:00.000,2,revise,active
079073090B,mbrapmt,,,Newham Hall,,,,Bromley Lane,,Stokesley Road,,,,NW bound,,NW,N0070295,Coulby Newham,,,,,,,0,UKOS,451426,512927,-1.207268,54.509064,BCT,CUS,OTH,,,,031,2005-07-06T00:00:00.000,2010-08-27T00:00:00.000,2,revise,active
079073091A,mbrapmw,,,AV Dawson,,,,Forty Foot Road,,Riverside Park Road,,,,NW bound,,NW,E0039258,Middlesbrough,,,,,,,0,UKOS,449103,521443,-1.241725,54.585818,BCT,CUS,OTH,,,,031,2005-07-06T00:00:00.000,2017-02-13T13:01:49.118,6,revise,active
079073091B,mbrapta,,,AV Dawson,,,,Forty Foot Road,,Riverside Park Road,,,,B,,SE,E0039258,Middlesbrough,,,,,,,0,UKOS,449120,521454,-1.24146,54.585907,BCT,MKD,OTH,,,,031,2005-07-06T00:00:00.000,2017-01-31T16:32:34.518,9,revise,active
079073092A,mbraptd,,,The Blue Bell - Acklam Road,,,,Blue Bell Hotel,,Acklam Road,,,,A,,SE,E0039247,Brookfield,Middlesbrough,,,,,,0,UKOS,449167,515580,-1.241712,54.533127,BCT,MKD,TIP,,,,031,2005-07-06T00:00:00.000,2017-01-31T16:43:46.572,2,revise,active
079073092B,mbraptg,,,The Blue Bell - Acklam Road,,,,Blue Bell Hotel,,MEDINA GARDENS,,,,B,,NW,E0039247,Brookfield,Middlesbrough,,,,,,0,UKOS,449132,515595,-1.242256,54.533258,BCT,MKD,TIP,,,,031,2005-07-06T00:00:00.000,2017-01-31T16:48:46.912,2,revise,active
079073093A,mbraptj,,,The Blue Bell - Ladgate Lane,,,,Hemlington Lane,,Ladgate Lane,,,,A,,E,E0039247,Brookfield,Middlesbrough,,,,,,0,UKOS,449367,515532,-1.23863,54.532676,BCT,MKD,OTH,,,,031,2005-07-06T00:00:00.000,2017-01-31T17:03:36.970,4,revise,active
079073093B,mbraptm,,,The Blue Bell - Ladgate Lane,,,,Hemlington Lane,,Ladgate Lane,,,,B,,W,E0039247,Brookfield,Middlesbrough,,,,,,0,UKOS,449379,515507,-1.238449,54.532451,BCT,MKD,OTH,,,,031,2005-07-06T00:00:00.000,2017-01-31T17:09:23.334,4,revise,active
079073094A,mbraptp,,,Coulby Manor Footpath,,,,Coulby Manor,,Ladgate Lane,,,,A,,E,N0070295,Coulby Newham,,,,,,,0,UKOS,449911,515637,-1.230207,54.533567,BCT,MKD,OTH,,,,031,2005-07-06T00:00:00.000,2017-01-31T17:21:34.854,2,revise,active
079073094B,mbraptw,,,Coulby Manor Footpath,,,,Coulby Manor,,Ladgate Lane,,,,B,,W,N0070295,Coulby Newham,,,,,,,0,UKOS,449913,515631,-1.230177,54.533513,BCT,MKD,OTH,,,,031,2005-07-06T00:00:00.000,2017-01-31T17:25:12.595,2,revise,active
079073095A,mbrapwa,,,Wayfaring Road,,,,Police HQ,,LADGATE LANE,,,,A,,NE,E0039268,Marton Manor,Middlesbrough,,,,,,0,UKOS,450191,515834,-1.225853,54.535308,BCT,MKD,OTH,,,,031,2005-07-06T00:00:00.000,2022-11-17T14:28:59.741,4,revise,active
079073095B,mbrapwd,,,Wayfaring Road,,,,Police HQ,,LADGATE LANE,,,,B,,SW,E0039268,Marton Manor,Middlesbrough,,,,,,0,UKOS,450211,515842,-1.22554,54.535377,BCT,MKD,OTH,,,,031,2005-07-06T00:00:00.000,2022-11-17T14:29:42.307,3,revise,active
079073096A,mbrapwg,,,Phoenix Park,,,,Phoenix Park,,Hemlington Hall Road,,,,A,,E,E0039253,Hemlington,,,,,,,0,UKOS,448986,515089,-1.244591,54.528724,BCT,MKD,OTH,,,,031,2005-07-06T00:00:00.000,2017-01-31T17:43:09.001,2,revise,active
079073096B,mbrapwj,,,Phoenix Park,,,,Phoenix Park,,Hemlington Hall Road,,,,B,,W,E0039253,Hemlington,,,,,,,0,UKOS,448928,515065,-1.245491,54.528522,BCT,MKD,OTH,,,,031,2005-07-06T00:00:00.000,2017-01-31T17:54:21.292,3,revise,active
079073097A,mbrapwm,,,Northleach Drive,,,,Northleach Drive,,Hemlington Hall Road,,,,A,,NE,E0039253,Hemlington,,,,,,,0,UKOS,448765,514998,-1.24802,54.527936,BCT,MKD,OTH,,,,031,2005-07-06T00:00:00.000,2017-01-31T17:56:45.598,3,revise,active
079073097B,mbrapwp,,,Northleach Drive,,,,Northleach Drive,,Hemlington Hall Road,,,,B,,SW,E0039253,Hemlington,,,,,,,0,UKOS,448754,514945,-1.248199,54.527461,BCT,MKD,OTH,,,,031,2005-07-06T00:00:00.000,2017-01-31T18:31:13.032,2,revise,active
079073098A,mbrapwt,,,Mowbray Drive,,,,Nuneaton Road,,Hemlington Hall Road,,,,A,,E,E0039253,Hemlington,,,,,,,0,UKOS,448497,514795,-1.252194,54.526138,BCT,MKD,OTH,,,,031,2005-07-06T00:00:00.000,2017-01-31T18:49:49.548,2,revise,active
079073098B,mbratad,,,Mowbray Drive,,,,Nuneaton Road,,Hemlington Hall Road,,,,B,,W,E0039253,Hemlington,,,,,,,0,UKOS,448541,514785,-1.251516,54.526043,BCT,MKD,OTH,,,,031,2005-07-06T00:00:00.000,2017-01-31T18:55:18.012,2,revise,active
079073099A,mbratag,,,Stainton Way West Footbridge,,,,Footbridge,,Stainton Way,,,,A,,NW,E0053439,Stainton,,,,,,,0,UKOS,448311,514399,-1.255132,54.522597,BCT,MKD,OTH,,,,031,2005-07-06T00:00:00.000,2017-02-01T09:55:20.514,4,revise,active
079073099B,mbrataj,,,Stainton Way West Footbridge,,,,Footbridge,,Stainton Way,,,,B,,SE,E0053439,Stainton,,,,,,,0,UKOS,448366,514368,-1.254288,54.522313,BCT,MKD,OTH,,,,031,2005-07-06T00:00:00.000,2017-02-01T10:03:09.244,5,revise,active
079073101A,mbratam,,,Nunthorpe Hall,,,,Nunthorpe Hall,,West Side,,,,A,,N,E0053438,Nunthorpe,,,,,,,0,UKOS,454070,513159,-1.166396,54.510874,BCT,MKD,TIP,,,,031,2005-07-06T00:00:00.000,2020-05-04T10:16:34.385,5,revise,active
079073101B,mbratap,,,Nunthorpe Hall,,,,Nunthorpe Hall,,West Side,,,,B,,S,E0053438,Nunthorpe,,,,,,,0,UKOS,454075,513212,-1.166309,54.51135,BCT,MKD,TIP,,,,031,2005-07-06T00:00:00.000,2020-05-04T10:16:24.805,4,revise,active
079073102A,mbratat,,,Church Lane,,,,Church Lane,,Stokesley Road,,,,A,,NW,E0053438,Nunthorpe,,,,,,,0,UKOS,453888,513848,-1.169081,54.517084,BCT,MKD,TIP,,,,031,2005-07-06T00:00:00.000,2017-02-01T10:54:38.972,2,revise,active
079073102B,mbrataw,,,Church Lane,,,,Church Lane,,Stokesley Road,,,,B,,SE,E0053438,Nunthorpe,,,,,,,0,UKOS,453849,513908,-1.169672,54.517628,BCT,MKD,TIP,,,,031,2005-07-06T00:00:00.000,2017-02-01T11:05:18.339,2,revise,active
079073103A,mbratda,,,The Paddock,,,,Grey Towers Drive,,Stokesley Road,,,,A,,SE,E0053438,Nunthorpe,,,,,,,0,UKOS,453688,514088,-1.172126,54.519262,BCT,MKD,OTH,,,,031,2005-07-06T00:00:00.000,2017-02-01T11:17:48.202,3,revise,active
079073103B,mbratdg,,,The Paddock,,,,Grey Towers Drive,,Stokesley Road,,,,B,,NW,E0053438,Nunthorpe,,,,,,,0,UKOS,453664,514088,-1.172497,54.519265,BCT,MKD,OTH,,,,031,2005-07-06T00:00:00.000,2017-02-01T11:22:28.210,2,revise,active
079073104A,mbratdj,,,Marton Moor Corner,,,,Stokesley Road,,Guisborough Road,,,,A,,E,E0053438,Nunthorpe,,,,,,,0,UKOS,453448,514495,-1.17576,54.522945,BCT,MKD,OTH,,,,031,2005-07-06T00:00:00.000,2017-02-01T11:28:12.058,2,revise,active
079073104B,mbratdm,,,Marton Moor Corner,,,,Stokesley Road,,Guisborough Road,,,,B,,W,E0053438,Nunthorpe,,,,,,,0,UKOS,453407,514469,-1.176398,54.522716,BCT,MKD,OTH,,,,031,2005-07-06T00:00:00.000,2017-02-01T11:40:23.206,3,revise,active
079073105A,mbratdp,,,Recreation Club,,,,The Avenue,,Guisborough Road,,,,A,,NE,E0053438,Nunthorpe,,,,,,,0,UKOS,453704,514716,-1.171765,54.524904,BCT,MKD,OTH,,,,031,2005-07-06T00:00:00.000,2017-02-01T11:47:52.866,2,revise,active
079073105B,mbratdt,,,Recreation Club,,,,The Avenue,,Guisborough Road,,,,B,,SW,E0053438,Nunthorpe,,,,,,,0,UKOS,453681,514654,-1.172132,54.524349,BCT,MKD,OTH,,,,031,2005-07-06T00:00:00.000,2017-02-01T11:57:18.297,3,revise,active
079073106A,mbratdw,,,Dixons Bank Top,,,,Castle Lane,,Dixons Bank,,,,A,,SE,E0053438,Nunthorpe,,,,,,,0,UKOS,452977,514418,-1.18305,54.522302,BCT,MKD,TIP,,,,031,2005-07-06T00:00:00.000,2017-02-01T12:09:36.982,2,revise,active
079073106B,mbratga,,,Dixons Bank Top,,,,Castle Lane,,Dixons Bank,,,,B,,NW,E0053438,Nunthorpe,,,,,,,0,UKOS,452983,514382,-1.182963,54.521978,BCT,MKD,TIP,,,,031,2005-07-06T00:00:00.000,2017-02-01T12:14:51.273,2,revise,active
079073107A,mbrdwgw,,,Southern Cross,,,,Stainton Way,,Dixons Bank,,,,A,,SE,E0039255,Marton,,,,,,,0,UKOS,452334,514935,-1.192891,54.527015,BCT,MKD,TIP,,,,031,2005-07-06T00:00:00.000,2017-02-01T12:20:21.247,3,revise,active
079073107B,mbrdwja,,,Southern Cross,,,,Stainton Way,,Dixons Bank,,,,B,,NW,E0039255,Marton,,,,,,,0,UKOS,452326,514918,-1.193017,54.526863,BCT,MKD,TIP,,,,031,2005-07-06T00:00:00.000,2017-02-01T12:38:55.110,3,revise,active
079073107C,,,,Shevington Road,,,,Dixons Bank,,Stainton Way,,,,3,,SW,E0039255,Marton,,,,,,,0,UKOS,452472,514914,-1.190763,54.526812,BCT,MKD,TIP,,,,031,2005-07-06T00:00:00.000,2007-06-15T00:00:00.000,1,revise,inactive
079073107D,,,,Shevington Road,,,,Dixons Bank,,Stainton Way,,,,4,,NE,E0039255,Marton,,,,,,,0,UKOS,452461,514962,-1.190924,54.527244,BCT,MKD,TIP,,,,031,2005-07-06T00:00:00.000,2012-05-23T11:11:33.000,2,revise,inactive
079073107E,,,,Southern Cross,,,,Stainton Way,,Dixons Bank,,,,5,,SE,E0039255,Marton,,,,,,,0,UKOS,452338,514931,-1.19283,54.526978,BCT,MKD,TIP,,,,031,2005-07-06T00:00:00.000,2011-03-08T09:22:31.000,2,revise,inactive
079073107F,,,,Southern Cross,,,,Stainton Way,,Dixons Bank,,,,6,,NW,E0039255,Marton,,,,,,,0,UKOS,452328,514921,-1.192986,54.526889,BCT,MKD,TIP,,,,031,2005-07-06T00:00:00.000,2007-06-15T00:00:00.000,1,revise,inactive
079073108A,mbratja,,,Florence Street,,,,Snowdon Road,,North Road,,,,A,,E,E0039258,Middlesbrough,,,,,,,0,UKOS,449050,520759,-1.242659,54.579677,BCT,MKD,OTH,,,,031,2005-07-06T00:00:00.000,2017-02-01T12:45:54.155,2,revise,active
079073108B,mbratjd,,,Florence Street,,,,Snowdon Road,,North Road,,,,B,,W,E0039258,Middlesbrough,,,,,,,0,UKOS,449080,520747,-1.242197,54.579566,BCT,MKD,OTH,,,,031,2005-07-06T00:00:00.000,2017-02-01T12:52:41.742,2,revise,active
079073109A,mbratjg,,,Cedar Road,,,,Cedar Road,,Cypress Road,,,,A,,N,E0039255,Marton,,,,,,,0,UKOS,452788,515592,-1.185759,54.532871,BCT,MKD,TIP,,,,031,2005-07-06T00:00:00.000,2017-02-01T12:59:15.893,2,revise,active
079073110A,mbratjm,,,Birchwood Road,,,,Birchwood Road,,Cypress Road,,,,A,,NW,E0039255,Marton,,,,,,,0,UKOS,452658,515794,-1.187732,54.5347,BCT,MKD,OTH,,,,031,2005-07-06T00:00:00.000,2017-02-01T13:01:58.493,2,revise,active
079073111A,mbratjp,,,Hawthorn Crescent,,,,Hawthorn Crescent,,Cypress Road,,,,A,,NW,E0039255,Marton,,,,,,,0,UKOS,452460,515983,-1.190758,54.536419,BCT,MKD,OTH,,,,031,2005-07-06T00:00:00.000,2017-02-01T13:05:40.393,2,revise,active
079073112A,mbratjt,,,Maidstone Drive,,,,Maidstone Drive,,Cypress Road,,,,A,,SW,E0039255,Marton,,,,,,,0,UKOS,452144,515863,-1.195662,54.535373,BCT,MKD,OTH,,,,031,2005-07-06T00:00:00.000,2017-02-14T12:11:58.613,2,revise,active
079073113A,mbratjw,,,Brunton Arms,,,,Brunton Arms,,Gypsy Lane,,,,A,,N,E0039255,Marton,,,,,,,0,UKOS,452753,515411,-1.186333,54.531249,BCT,MKD,OTH,,,,031,2005-07-06T00:00:00.000,2017-02-14T12:12:22.995,2,revise,active
079073113B,mbratma,,,Brunton Arms,,,,Brunton Arms,,Gypsy Lane,,,,B,,SE,E0039255,Marton,,,,,,,0,UKOS,452772,515412,-1.186039,54.531256,BCT,MKD,OTH,,,,031,2005-07-06T00:00:00.000,2017-02-14T12:14:04.777,3,revise,active
079073114A,mbratmd,,,Community Centre,,,,Lanbourne Drive,,Cypress Road,,,,A,,SE,E0039255,Marton,,,,,,,0,UKOS,452252,515531,-1.194052,54.532379,BCT,MKD,OTH,,,,031,2005-07-06T00:00:00.000,2017-02-14T12:24:28.192,2,revise,active
079073115A,mbratmg,,,St Andrew's United Reformed Church,,,,United Reformed Church,,Cypress Road,,,,A,,E,E0039255,Marton,,,,,,,0,UKOS,452579,515449,-1.189014,54.531608,BCT,MKD,OTH,,,,031,2005-07-06T00:00:00.000,2017-02-14T13:04:44.924,4,revise,active
079073116A,mbratmj,,,Marton Shops,,,,Gypsy Lane,,Dixons Bank,,,,A,,NW,E0039255,Marton,,,,,,,1,UKOS,451942,515288,-1.198885,54.530227,BCT,MKD,TIP,,,,031,2005-07-06T00:00:00.000,2020-01-17T14:51:08.764,4,revise,active
079073116B,mbratmp,,,Marton Shops,,,,Gypsy Lane,,Dixons Bank,,,,B,,SE,E0039255,Marton,,,,,,,1,UKOS,452032,515196,-1.197511,54.529391,BCT,MKD,TIP,,,,031,2005-07-06T00:00:00.000,2020-01-17T14:51:25.678,4,revise,active
079073117A,mbratmt,,,The Marton Hotel & Country Club,,,,Marton Country Club,,Stokesley Road,,,,A,,SE,E0039255,Marton,,,,,,,0,UKOS,451593,515765,-1.204194,54.534549,BCT,MKD,TIP,,,,031,2005-07-06T00:00:00.000,2017-02-14T13:24:50.698,3,revise,active
079073117B,mbratmw,,,The Marton Hotel & Country Club,,,,Marton Country Club,,Stokesley Road,,,,B,,NW,E0039255,Marton,,,,,,,0,UKOS,451561,515783,-1.204685,54.534714,BCT,MKD,TIP,,,,031,2005-07-06T00:00:00.000,2017-02-14T13:31:52.475,3,revise,active
079073118A,mbratpa,,,Gainsborough Road East End,,,,Gainsborough Road,,Stokesley Road,,,,A,,NW,E0039255,Marton,,,,,,,0,UKOS,451329,516145,-1.208207,54.53799,BCT,MKD,TIP,,,,031,2005-07-06T00:00:00.000,2017-02-14T16:23:10.453,3,revise,active
079073118B,mbratpd,,,Gainsborough Road East End,,,,Gainsborough Road,,Stokesley Road,,,,B,,SE,E0039255,Marton,,,,,,,0,UKOS,451419,516049,-1.206833,54.53711,BCT,MKD,TIP,,,,031,2005-07-06T00:00:00.000,2017-02-14T16:33:35.428,2,revise,active
079073118C,mbratpg,,,Gainsborough Road East End,,,,Stokesley Road,,Gainsborough Road,,,,C,,SW,E0039255,Marton,,,,,,,0,UKOS,451345,516050,-1.207977,54.537135,BCT,MKD,OTH,,,,031,2005-07-06T00:00:00.000,2017-02-14T16:46:43.596,3,revise,active
079073119A,mbratpj,,,The Derby North End,,,,Ladgate Lane,,The Derby,,,,A,,W,E0039268,Marton Manor,Middlesbrough,,,,,,0,UKOS,450928,516183,-1.214398,54.538372,BCT,MKD,OTH,,,,031,2005-07-06T00:00:00.000,2017-02-14T17:00:28.555,4,revise,active
079073119B,mbratpm,,,The Derby North End,,,,Ladgate Lane,,The Derby,,,,B,,S,E0039268,Marton Manor,Middlesbrough,,,,,,0,UKOS,450988,516208,-1.213466,54.538591,BCT,MKD,OTH,,,,031,2005-07-06T00:00:00.000,2017-02-14T17:06:51.652,2,revise,active
079073120A,mbratpt,,,Weymouth Avenue,,,,Saltersgill Avenue,,Ladgate Lane,,,,A,,E,E0039268,Marton Manor,Middlesbrough,,,,,,0,UKOS,450695,516147,-1.218005,54.538072,BCT,MKD,OTH,,,,031,2005-07-06T00:00:00.000,2017-02-14T17:40:19.361,2,revise,active
079073120B,mbratpw,,,Weymouth Avenue,,,,Saltersgill Avenue,,Ladgate Lane,,,,B,,W,E0039268,Marton Manor,Middlesbrough,,,,,,0,UKOS,450722,516139,-1.217589,54.537997,BCT,MKD,OTH,,,,031,2005-07-06T00:00:00.000,2017-02-14T18:09:52.596,2,revise,active
079073121A,mbratwa,,,Pensby Avenue,,,,Morpeth Avenue,,Broadwell Road,,,,A,,SW,N0070293,Easterside,Middlesbrough,,,,,,0,UKOS,450839,516357,-1.215743,54.539936,BCT,MKD,OTH,,,,031,2005-07-06T00:00:00.000,2017-02-14T18:15:48.971,2,revise,active
079073121B,mbratwd,,,Pensby Avenue,,,,Pensby Avenue,,Broadwell Road,,,,B,,NE,N0070293,Easterside,Middlesbrough,,,,,,0,UKOS,450779,516344,-1.216673,54.539834,BCT,MKD,OTH,,,,031,2005-07-06T00:00:00.000,2017-02-14T18:17:44.188,2,revise,active
079073122A,mbratwg,,,St Agnes' Church,,,,Darnton Drive,,Broadwell Road,,,,A,,S,N0070293,Easterside,Middlesbrough,,,,,,0,UKOS,450744,516657,-1.21716,54.54265,BCT,MKD,TIP,,,,031,2005-07-06T00:00:00.000,2017-02-15T09:52:16.580,3,revise,active
079073122B,mbratwj,,,St Agnes' Church,,,,Broughton Avenue,,Broadwell Road,,,,B,,N,N0070293,Easterside,Middlesbrough,,,,,,0,UKOS,450761,516596,-1.216907,54.5421,BCT,MKD,TIP,,,,031,2005-07-06T00:00:00.000,2017-02-15T09:56:52.025,3,revise,active
079073123A,mbratwm,,,Chippenham Road,,,,Chippenham Road,,Broadwell Road,,,,A,,N,N0070293,Easterside,Middlesbrough,,,,,,0,UKOS,450609,516934,-1.219199,54.545144,BCT,MKD,OTH,,,,031,2005-07-06T00:00:00.000,2017-02-15T10:05:10.710,2,revise,active
079073123B,mbratwp,,,Chippenham Road,,,,Chippenham Road,,Broadwell Road,,,,B,,S,N0070293,Easterside,Middlesbrough,,,,,,0,UKOS,450649,516850,-1.218595,54.544394,BCT,MKD,OTH,,,,031,2005-07-06T00:00:00.000,2017-02-15T10:14:54.171,2,revise,active
079073124A,mbratwt,,,Marton Crossroads North,,,,Ladgate Lane,,Marton Road,,,,A,,SE,E0039255,Marton,,,,,,,0,UKOS,451109,516558,-1.211536,54.541724,BCT,MKD,TIP,,,,031,2005-07-06T00:00:00.000,2017-12-14T12:30:16.359,2,revise,active
079073124B,mbrawad,,,Marton Crossroads North,,,,Ladgate Lane,,Marton Road,,,,B,,NW,E0039255,Marton,,,,,,,0,UKOS,451106,516522,-1.211588,54.541392,BCT,MKD,TIP,,,,031,2005-07-06T00:00:00.000,2017-12-14T12:30:50.330,2,revise,active
079073124C,mbrawag,,,Crossroads,,,,Marton Road,,Ladgate Lane,,,,3,,SW,E0039255,Marton,,,,,,,0,UKOS,451372,516583,-1.207467,54.541922,BCT,MKD,OTH,,,,031,2005-07-06T00:00:00.000,2018-12-17T14:30:22.071,6,revise,inactive
079073124D,mbrawaj,,,Crossroads,,,,Marton Road,,Ladgate Lane,,,,4,,NE,E0039255,Marton,,,,,,,0,UKOS,451274,516534,-1.20899,54.541491,BCT,MKD,OTH,,,,031,2005-07-06T00:00:00.000,2018-12-17T14:31:08.314,4,revise,inactive
079073125A,mbrawam,,,Broughton Avenue,,,,Prissick School Base,,Marton Road,,,,A,,NW,N0070293,Easterside,Middlesbrough,,,,,,0,UKOS,450946,516878,-1.214,54.544607,BCT,MKD,TIP,,,,031,2005-07-06T00:00:00.000,2017-02-15T10:20:35.256,2,revise,active
079073125B,mbrawap,,,Broughton Avenue,,,,Prissick School Base,,Marton Road,,,,B,,SE,N0070293,Easterside,Middlesbrough,,,,,,0,UKOS,451005,516785,-1.213104,54.543774,BCT,MKD,TIP,,,,031,2005-07-06T00:00:00.000,2017-02-15T10:27:17.948,3,revise,active
079073125C,mbrdwtd,,,Broughton Avenue,,,,Broughton Avenue,,Marton Road,,,,C,,SE,N0070293,Easterside,Middlesbrough,,,,,,0,UKOS,451013,516765,-1.212983,54.543593,BCT,MKD,TIP,,,,031,2010-11-16T12:49:39.000,2017-02-15T10:30:42.723,1,revise,active
079073126A,mbrawat,,,Broadwell Road North End,,,,Broadwell Road,,Marton Road,,,,A,,SE,N0070293,Easterside,Middlesbrough,,,,,,0,UKOS,450819,517193,-1.215908,54.547459,BCT,MKD,TIP,,,,031,2005-07-06T00:00:00.000,2017-12-15T09:42:26.886,2,revise,active
079073126B,mbrawaw,,,Broadwell Road North End,,,,Broadwell Road,,Marton Road,,,,B,,NW,N0070293,Easterside,Middlesbrough,,,,,,0,UKOS,450753,517297,-1.21691,54.5484,BCT,MKD,TIP,,,,031,2005-07-06T00:00:00.000,2017-12-15T09:42:55.822,2,revise,active
079073126C,mbrawda,,,Broadwell Road,,,,Aldergrove Drive,,Broadwell Road,,,,3,,S,N0070293,Easterside,Middlesbrough,,,,,,0,UKOS,450696,517152,-1.217816,54.547103,BCT,MKD,OTH,,,,031,2005-07-06T00:00:00.000,2018-12-17T14:31:23.955,4,revise,inactive
079073126D,mbrawdg,,,Broadwell Road,,,,Marton Road,,Broadwell Road,,,,4,,NE,N0070293,Easterside,Middlesbrough,,,,,,0,UKOS,450745,517219,-1.217048,54.5477,BCT,MKD,OTH,,,,031,2005-07-06T00:00:00.000,2018-12-17T14:31:35.242,4,revise,inactive
079073127A,mbrawdj,,,James Cook Hospital South,,,,James Cook Uni Hospital,,Marton Road,,,,A,,NW,N0070298,James Cook Hospital,Middlesbrough,,,,,,0,UKOS,450657,517552,-1.218351,54.550701,BCT,MKD,TIP,,,,031,2005-07-06T00:00:00.000,2018-06-25T11:55:48.509,4,revise,active
079073127B,mbrawdm,,,James Cook Hospital South,,,,James Cook Uni Hospital,,Marton Road,,,,B,,SE,N0070298,James Cook Hospital,Middlesbrough,,,,,,0,UKOS,450739,517386,-1.217112,54.549201,BCT,MKD,TIP,,,,031,2005-07-06T00:00:00.000,2018-06-25T11:56:06.742,4,revise,active
079073128A,mbrawdp,,,Marton Way Hotel,,,,Marton Road,,Marton Way,,,,1,,W,N0070298,James Cook Hospital,Middlesbrough,,,,,,0,UKOS,450544,517682,-1.220075,54.551872,BCT,MKD,OTH,,,,031,2005-07-06T00:00:00.000,2018-12-17T14:31:49.453,4,revise,inactive
079073128B,mbrawdt,,,Marton Way,,,,Marton Way,,Marton Road,,,,2,,NW,N0070298,James Cook Hospital,Middlesbrough,,,,,,0,UKOS,450584,517770,-1.219442,54.552667,BCT,MKD,TIP,,,,031,2005-07-06T00:00:00.000,2018-12-17T14:32:05.965,5,revise,inactive
079073128C,mbrawdw,,,Marton Way,,,,Marton Way,,Marton Road,,,,3,,SE,N0070298,James Cook Hospital,Middlesbrough,,,,,,0,UKOS,450643,517653,-1.21855,54.55161,BCT,MKD,TIP,,,,031,2005-07-06T00:00:00.000,2018-12-17T14:32:14.587,5,revise,inactive
079073128D,mbrawga,,,Marton Way Hotel,,,,Marton Road,,Marton Way,,,,4,,E,N0070298,James Cook Hospital,Middlesbrough,,,,,,0,UKOS,450545,517704,-1.220056,54.552078,BCT,MKD,OTH,,,,031,2005-07-06T00:00:00.000,2018-12-17T14:32:22.164,4,revise,inactive
079073128E,mbrawgd,,,James Cook Hospital,,,,St Lukes Hospital,,James Cook Uni Hospital,,,,SE bound,,SE,N0070298,James Cook Hospital,Middlesbrough,,,,,,0,UKOS,450791,517848,-1.216228,54.553339,BCT,CUS,OTH,,,,031,2005-07-06T00:00:00.000,2018-12-17T14:32:33.641,6,revise,inactive
079073128F,mbrawgj,,,James Cook Uni Hospital,,,,St Lukes Hospital,,James Cook Uni Hospital,,,,6,,S,N0070298,James Cook Hospital,Middlesbrough,,,,,,0,UKOS,450767,517875,-1.216595,54.553584,BCT,MKD,OTH,,,,031,2005-07-06T00:00:00.000,2007-06-15T00:00:00.000,1,revise,inactive
079073129A,mbrawgm,,,Roseberry Park,,,,Roseberry Park,,Marton Road,,,,A,,SE,N0070298,James Cook Hospital,Middlesbrough,,,,,,0,UKOS,450521,517951,-1.220385,54.5543,BCT,MKD,TIP,,,,031,2005-07-06T00:00:00.000,2017-12-15T11:11:12.208,3,revise,active
079073129B,mbrawgp,,,Regent Road,,,,Regent Road,,Marton Road,,,,2,,NW,N0070298,James Cook Hospital,Middlesbrough,,,,,,0,UKOS,450447,518076,-1.221507,54.555422,BCT,MKD,TIP,,,,031,2005-07-06T00:00:00.000,2018-12-17T14:32:57.429,4,revise,inactive
079073130A,mbrawgt,,,Belle Vue,,,,Marton Burn Road,,Marton Road,,,,1,,SE,E0039251,Grove Hill,Middlesbrough,,,,,,0,UKOS,450421,518164,-1.221894,54.556224,BCT,MKD,TIP,,,,031,2005-07-06T00:00:00.000,2018-12-17T14:33:35.384,4,revise,inactive
079073130B,mbrawgw,,,Belle Vue,,,,Farndale Road,,Marton Road,,,,2,,N,E0039251,Grove Hill,Middlesbrough,,,,,,0,UKOS,450348,518350,-1.222991,54.557894,BCT,MKD,TIP,,,,031,2005-07-06T00:00:00.000,2018-12-17T14:33:44.202,4,revise,inactive
079073130C,mbrawja,,,Belle Vue,,,,Marton Burn Road,,Marton Road,,,,3,,SE,E0039251,Grove Hill,Middlesbrough,,,,,,0,UKOS,450375,518267,-1.222588,54.557154,BCT,MKD,OTH,,,,031,2005-07-06T00:00:00.000,2018-12-17T14:33:51.828,4,revise,inactive
079073131A,mbrawjd,,,Bretby Close,,,,Grassington Road,,Cavendish Road,,,,A,,S,E0039244,Beechwood,Middlesbrough,,,,,,0,UKOS,450441,517832,-1.221642,54.55323,BCT,MKD,OTH,,,,031,2005-07-06T00:00:00.000,2017-02-15T10:59:52.402,2,revise,active
079073131B,mbrawjg,,,Bretby Close,,,,Cavendish Road,,Grassington Road,,,,B,,SW,E0039244,Beechwood,Middlesbrough,,,,,,0,UKOS,450390,517824,-1.222432,54.553172,BCT,MKD,OTH,,,,031,2005-07-06T00:00:00.000,2017-02-15T11:18:04.255,2,revise,active
079073132A,mbrawjm,,,Embsay Close,,,,Pemberton Crescent,,GRASSINGTON ROAD,,,,A,,NE,E0039244,Beechwood,Middlesbrough,,,,,,0,UKOS,450272,517785,-1.224262,54.552833,BCT,MKD,OTH,,,,031,2005-07-06T00:00:00.000,2017-02-15T11:24:00.242,2,revise,active
079073132B,mbrawjp,,,Embsay Close,,,,Pemberton Crescent,,GRASSINGTON ROAD,,,,B,,SW,E0039244,Beechwood,Middlesbrough,,,,,,0,UKOS,450255,517762,-1.224527,54.552626,BCT,MKD,OTH,,,,031,2005-07-06T00:00:00.000,2017-02-15T11:26:59.212,2,revise,active
079073133A,mbrawjt,,,Rylstone Court,,,,Deepdale Avenue,,Grassington Road,,,,A,,NE,E0039244,Beechwood,Middlesbrough,,,,,,0,UKOS,450122,517638,-1.226606,54.551527,BCT,MKD,OTH,,,,031,2005-07-06T00:00:00.000,2017-02-15T11:49:58.582,3,revise,active
079073133B,mbrawjw,,,Rylstone Court,,,,Deepdale Avenue,,Grassington Road,,,,B,,W,E0039244,Beechwood,Middlesbrough,,,,,,0,UKOS,450082,517575,-1.227235,54.550965,BCT,MKD,OTH,,,,031,2005-07-06T00:00:00.000,2017-02-15T12:34:53.422,2,revise,active
079073134A,mbrawma,,,Tranter Road,,,,Fremantle Crescent,,Tranter Road,,,,A,,N,E0039244,Beechwood,Middlesbrough,,,,,,0,UKOS,449991,517385,-1.228674,54.549266,BCT,MKD,OTH,,,,031,2005-07-06T00:00:00.000,2020-05-04T11:01:29.360,4,revise,active
079073134B,mbrawmd,,,Tranter Road,,,,Brereton Road,,Fremantle Crescent,,,,B,,SW,E0039244,Beechwood,Middlesbrough,,,,,,0,UKOS,450009,517440,-1.228387,54.549759,BCT,MKD,OTH,,,,031,2005-07-06T00:00:00.000,2017-02-15T12:43:47.176,3,revise,active
079073135A,mbrawmg,,,Hoylake Road,,,,Sunningdale Road,,Saltersgill Avenue,,,,A,,S,N0070292,Saltersgill,Middlesbrough,,,,,,0,UKOS,449807,517214,-1.231547,54.547748,BCT,MKD,OTH,,,,031,2005-07-06T00:00:00.000,2017-02-15T13:02:58.440,2,revise,active
079073135B,mbrawmj,,,Hoylake Road,,,,Saltersgill Avenue,,Sunningdale Road,,,,B,,W,N0070292,Saltersgill,Middlesbrough,,,,,,0,UKOS,449854,517192,-1.230825,54.547537,BCT,MKD,OTH,,,,031,2005-07-06T00:00:00.000,2017-02-15T13:08:41.574,2,revise,active
079073136A,mbrawmp,,,The Saltersgill,,,,The Saltersgill,,Saltersgill Avenue,,,,A,,S,N0070292,Saltersgill,Middlesbrough,,,,,,0,UKOS,449703,517491,-1.233108,54.550247,BCT,MKD,TIP,,,,031,2005-07-06T00:00:00.000,2017-02-15T13:34:35.279,2,revise,active
079073136B,mbrawmt,,,The Saltersgill,,,,The Saltersgill,,Saltersgill Avenue,,,,B,,N,N0070292,Saltersgill,Middlesbrough,,,,,,0,UKOS,449726,517404,-1.232767,54.549463,BCT,MKD,TIP,,,,031,2005-07-06T00:00:00.000,2017-02-15T13:37:11.844,2,revise,active
079073137A,mbrawmw,,,Hawnby Road,,,,Tollesby Road,,EMERSON AVENUE,,,,A,,E,E0039254,Linthorpe,Middlesbrough,,,,,,0,UKOS,449153,517752,-1.241571,54.552644,BCT,MKD,OTH,,,,031,2005-07-06T00:00:00.000,2023-01-03T10:15:17.297,3,revise,active
079073137B,mbrawpa,,,Hawnby Road,,,,Emerson Avenue,,Emerson Avenue,,,,B,,W,E0039254,Linthorpe,Middlesbrough,,,,,,0,UKOS,449074,517737,-1.242791,54.552519,BCT,MKD,OTH,,,,031,2005-07-06T00:00:00.000,2017-02-15T14:29:21.391,3,revise,active
079073137C,mbrawpd,,,Hawnby Road,,,,Emerson Avenue,,Tollesby Road,,,,C,,S,E0039254,Linthorpe,Middlesbrough,,,,,,0,UKOS,449107,517700,-1.242287,54.552183,BCT,MKD,OTH,,,,031,2005-07-06T00:00:00.000,2017-02-15T14:34:26.688,3,revise,active
079073138A,mbrawpg,,,Gainford Avenue,,,,Gainford Avenue,,EMERSON AVENUE,,,,A,,E,E0039254,Linthorpe,Middlesbrough,,,,,,0,UKOS,449340,517750,-1.238677,54.552604,BCT,MKD,OTH,,,,031,2005-07-06T00:00:00.000,2023-01-03T10:16:42.596,3,revise,active
079073138B,mbrawpj,,,Gainford Avenue,,,,Gainford Avenue,,EMERSON AVENUE,,,,B,,W,E0039254,Linthorpe,Middlesbrough,,,,,,0,UKOS,449324,517739,-1.238928,54.552506,BCT,MKD,OTH,,,,031,2005-07-06T00:00:00.000,2023-01-03T10:17:13.527,4,revise,active
079073139A,mbrawpm,,,Evergreen Walk,,,,The Vale,,KEITH ROAD,,,,A,,W,N0070292,Saltersgill,Middlesbrough,,,,,,0,UKOS,449724,517817,-1.232733,54.553168,BCT,MKD,OTH,,,,031,2005-07-06T00:00:00.000,2020-09-14T08:26:10.602,4,revise,active
079073139B,mbrawpt,,,Evergreen Walk,,,,The Vale,,KEITH ROAD,,,,B,,E,N0070292,Saltersgill,Middlesbrough,,,,,,0,UKOS,449686,517810,-1.233313,54.553111,BCT,MKD,OTH,,,,031,2005-07-06T00:00:00.000,2020-09-14T08:23:52.506,3,revise,active
079073139C,mbrawpw,,,St Chads,,,,Keith Road,,The Vale,,,,3,,N,N0070292,Saltersgill,Middlesbrough,,,,,,0,UKOS,449619,517849,-1.234347,54.553464,BCT,MKD,OTH,,,,031,2005-07-06T00:00:00.000,2018-12-17T14:34:30.468,4,revise,inactive
079073139D,mbrawta,,,St Chads,,,,Maple Avenue,,The Vale,,,,4,,S,N0070292,Saltersgill,Middlesbrough,,,,,,0,UKOS,449638,517826,-1.234057,54.553264,BCT,MKD,OTH,,,,031,2005-07-06T00:00:00.000,2018-12-17T14:34:41.993,5,revise,inactive
079073139E,mbrawtd,,,St Chads,,,,Pinewood Avenue,,Saltersgill Avenue,,,,5,,S,N0070292,Saltersgill,Middlesbrough,,,,,,0,UKOS,449637,517712,-1.234092,54.552231,BCT,MKD,OTH,,,,031,2005-07-06T00:00:00.000,2018-12-17T14:34:50.847,5,revise,inactive
079073139F,mbrawtg,,,St Chads,,,,Pinewood Avenue,,Saltersgill Avenue,,,,6,,N,N0070292,Saltersgill,Middlesbrough,,,,,,0,UKOS,449622,517711,-1.234323,54.552232,BCT,MKD,OTH,,,,031,2005-07-06T00:00:00.000,2018-12-17T14:35:00.526,4,revise,inactive
079073140A,mbrawtj,,,Deepdale Avenue,,,,Deepdale Avenue,,KEITH ROAD,,,,A,,SW,E0039244,Beechwood,Middlesbrough,,,,,,0,UKOS,449936,517921,-1.229427,54.554082,BCT,MKD,OTH,,,,031,2005-07-06T00:00:00.000,2020-09-14T08:27:56.997,4,revise,active
079073140B,mbrawtm,,,Deepdale Avenue,,,,Deepdale Avenue,,KEITH ROAD,,,,B,,E,E0039244,Beechwood,Middlesbrough,,,,,,0,UKOS,449950,517942,-1.22922,54.554268,BCT,MKD,OTH,,,,031,2005-07-06T00:00:00.000,2020-09-14T08:27:22.987,3,revise,active
079073141A,mbrawtp,,,Lambton Road,,,,Keith Road,,MARTON BURN ROAD,,,,A,,E,E0039251,Grove Hill,Middlesbrough,,,,,,0,UKOS,450273,518154,-1.22419,54.556141,BCT,MKD,TIP,,,,031,2005-07-06T00:00:00.000,2020-09-14T08:37:49.072,3,revise,active
079073141B,mbrawtw,,,Lambton Road,,,,Marton Burn Road,,Keith Road,,,,B,,SW,E0039251,Grove Hill,Middlesbrough,,,,,,0,UKOS,450151,518064,-1.226086,54.555352,BCT,MKD,OTH,,,,031,2005-07-06T00:00:00.000,2017-02-16T11:00:33.567,2,revise,active
079073141C,mbrdada,,,Keith Road,,,,Marton Burn Road,,Keith Road,,,,NE bound,,NE,E0039251,Grove Hill,Middlesbrough,,,,,,0,UKOS,450139,518080,-1.226268,54.555497,BCT,CUS,OTH,,,,031,2005-07-06T00:00:00.000,2017-02-13T12:58:23.027,3,revise,inactive
079073142A,mbrdadg,,,Castle Way,,,,Deepdale Avenue,,Marton Burn Road,,,,A,,E,E0039251,Grove Hill,Middlesbrough,,,,,,0,UKOS,449924,518148,-1.229581,54.556129,BCT,MKD,TIP,,,,031,2005-07-06T00:00:00.000,2020-05-04T11:02:55.085,3,revise,active
079073142B,mbrdadj,,,Castle Way,,,,Deepdale Avenue,,Marton Burn Road,,,,B,,W,E0039251,Grove Hill,Middlesbrough,,,,,,0,UKOS,450068,518098,-1.227363,54.555666,BCT,MKD,TIP,,,,031,2005-07-06T00:00:00.000,2017-02-16T11:43:56.794,2,revise,active
079073143A,mbrdadm,,,Eastbourne Road Shops,,,,Palladium Shops,,Marton Burn Road,,,,A,,NW,E0039254,Linthorpe,Middlesbrough,,,,,,0,UKOS,449738,518225,-1.232444,54.556831,BCT,MKD,TIP,,,,031,2005-07-06T00:00:00.000,2017-12-15T17:39:14.425,2,revise,active
079073143B,mbrdadp,,,Eastbourne Road Shops,,,,Palladium Shops,,Marton Burn Road,,,,B,,SE,E0039254,Linthorpe,Middlesbrough,,,,,,0,UKOS,449735,518257,-1.232484,54.557127,BCT,MKD,TIP,,,,031,2005-07-06T00:00:00.000,2017-12-15T17:41:28.818,2,revise,active
079073143C,mbrdadt,,,Eastbourne Road Roundabout,,,,Eastbourne Roundabout,,Valley Road,,,,3,,SW,E0039254,Linthorpe,Middlesbrough,,,,,,0,UKOS,449737,518342,-1.232439,54.557891,BCT,MKD,TIP,,,,031,2005-07-06T00:00:00.000,2018-12-17T14:35:14.796,4,revise,inactive
079073144A,mbrdadw,,,Mulgrave Road,,,,St Edwards Rc School,,Eastbourne Road,,,,A,,E,E0039254,Linthorpe,Middlesbrough,,,,,,0,UKOS,449484,518293,-1.236359,54.557475,BCT,MKD,TIP,,,,031,2005-07-06T00:00:00.000,2017-02-16T11:59:44.747,2,revise,active
079073144B,mbrdaga,,,Mulgrave Road,,,,St Edwards RC School,,Eastbourne Road,,,,B,,W,E0039254,Linthorpe,Middlesbrough,,,,,,0,UKOS,449451,518278,-1.236872,54.557344,BCT,MKD,TIP,,,,031,2005-07-06T00:00:00.000,2017-02-16T12:02:09.923,3,revise,active
079073145A,mbrdagd,,,Conservative Club,,,,Middlesbrough Theatre,,Orchard Road,,,,A,,E,E0039254,Linthorpe,Middlesbrough,,,,,,0,UKOS,449125,518070,-1.241947,54.555506,BCT,MKD,OTH,,,,031,2005-07-06T00:00:00.000,2017-02-16T12:06:31.627,4,revise,active
079073145B,mbrdagj,,,Conservative Club,,,,Phillips Avenue,,Orchard Road,,,,B,,W,E0039254,Linthorpe,Middlesbrough,,,,,,0,UKOS,449153,518056,-1.241516,54.555378,BCT,MKD,OTH,,,,031,2005-07-06T00:00:00.000,2017-02-16T12:14:31.087,2,revise,active
079073146A,mbrdagm,,,The Vale North End,,,,The Vale,,The Vale,,,,A,,NE,E0039254,Linthorpe,Middlesbrough,,,,,,0,UKOS,449701,518160,-1.233027,54.556259,BCT,MKD,OTH,,,,031,2005-07-06T00:00:00.000,2020-05-04T11:10:06.265,3,revise,active
079073146B,mbrdagp,,,The Vale North End,,,,The Vale,,The Vale,,,,B,,SW,E0039254,Linthorpe,Middlesbrough,,,,,,0,UKOS,449676,518115,-1.233421,54.555857,BCT,MKD,OTH,,,,031,2005-07-06T00:00:00.000,2020-05-04T11:09:40.774,3,revise,active
079073147A,mbrdagt,,,Sunnyside,,,,Manor Farm Way,,Newham Way,,,,A,,NE,N0070295,Coulby Newham,,,,,,,0,UKOS,449919,515013,-1.230188,54.527959,BCT,MKD,OTH,,,,031,2005-07-06T00:00:00.000,2017-02-16T15:32:22.782,3,revise,active
079073147B,mbrdagw,,,Sunnyside,,,,Manor Farm Way,,Newham Way,,,,B,,SW,N0070295,Coulby Newham,,,,,,,0,UKOS,449870,514963,-1.230954,54.527514,BCT,MKD,OTH,,,,031,2005-07-06T00:00:00.000,2017-02-16T15:38:31.334,3,revise,active
079073148A,mbrdaja,,,Runnymede,,,,Egton Av Crossroads,,Mallowdale,,,,A,,SE,E0053438,Nunthorpe,,,,,,,0,UKOS,452974,514683,-1.183048,54.524684,BCT,MKD,OTH,,,,031,2005-07-06T00:00:00.000,2017-02-16T16:03:27.521,2,revise,active
079073148B,mbrdajd,,,Runnymede,,,,Egton Av Crossroads,,Mallowdale,,,,B,,NW,E0053438,Nunthorpe,,,,,,,0,UKOS,453059,514600,-1.18175,54.523929,BCT,MKD,OTH,,,,031,2005-07-06T00:00:00.000,2017-02-16T16:22:52.631,2,revise,active
079073149A,mbrdajg,,,Tirril Way,,,,Cookgate,,Mallowdale,,,,A,,NW,E0053438,Nunthorpe,,,,,,,0,UKOS,452732,514838,-1.186759,54.526102,BCT,MKD,OTH,,,,031,2005-07-06T00:00:00.000,2017-02-16T16:31:57.409,2,revise,active
079073149B,mbrdajm,,,Tirril Way,,,,Cookgate,,Mallowdale,,,,B,,SE,E0053438,Nunthorpe,,,,,,,0,UKOS,452696,514912,-1.187302,54.526771,BCT,MKD,OTH,,,,031,2005-07-06T00:00:00.000,2017-02-16T17:13:23.848,2,revise,active
079073150A,mbrdajp,,,Coulby Manor Way,,,,Coulby Manor Way,,Newham Way,,,,A,,E,N0070295,Coulby Newham,,,,,,,0,UKOS,450165,515121,-1.226369,54.528905,BCT,MKD,OTH,,,,031,2005-07-06T00:00:00.000,2017-02-16T17:24:50.139,2,revise,active
079073150B,mbrdajt,,,Coulby Manor Way,,,,Manor Farm Way,,Newham Way,,,,B,,W,N0070295,Coulby Newham,,,,,,,0,UKOS,450106,515075,-1.227289,54.528497,BCT,MKD,OTH,,,,031,2005-07-06T00:00:00.000,2017-02-16T17:32:39.677,3,revise,active
079073151A,mbrdajw,,,Outwood Academy,,,,Kings Manor School,,Hall Drive,,,,A,,W,E0039242,Acklam,Middlesbrough,,,,,,0,UKOS,448841,516781,-1.246551,54.543951,BCT,MKD,OTH,,,,031,2005-07-06T00:00:00.000,2017-02-16T17:57:02.628,3,revise,active
079073151B,mbrdama,,,Outwood Academy,,,,Kings Manor School,,Hall Drive,,,,B,,E,E0039242,Acklam,Middlesbrough,,,,,,0,UKOS,448904,516815,-1.245572,54.54425,BCT,MKD,OTH,,,,031,2005-07-06T00:00:00.000,2017-02-16T18:13:09.094,3,revise,active
079073152A,mbrdamd,,,Swainby Close,,,,Hall Drive,,RIEVAULX DRIVE,,,,A,,S,E0039242,Acklam,Middlesbrough,,,,,,0,UKOS,449182,516935,-1.241249,54.5453,BCT,MKD,TIP,,,,031,2005-07-06T00:00:00.000,2017-02-16T18:16:53.063,3,revise,active
079073152B,mbrdamg,,,Swainby Close,,,,Hall Drive,,RIEVAULX DRIVE,,,,B,,N,E0039242,Acklam,Middlesbrough,,,,,,0,UKOS,449165,516963,-1.241518,54.54555,BCT,MKD,TIP,,,,031,2005-07-06T00:00:00.000,2017-02-16T18:22:35.595,3,revise,active
079073153A,mbrdamj,,,Glaisdale Avenue,,,,Glaisdale Avenue,,Tollesby Road,,,,A,,N,E0039242,Acklam,Middlesbrough,,,,,,0,UKOS,449144,517328,-1.241777,54.548837,BCT,MKD,OTH,,,,031,2005-07-06T00:00:00.000,2017-02-17T10:14:38.358,2,revise,active
079073153B,mbrdamp,,,Glaisdale Avenue,,,,Glaisdale Avenue,,Tollesby Road,,,,B,,S,E0039242,Acklam,Middlesbrough,,,,,,0,UKOS,449155,517330,-1.241606,54.548854,BCT,MKD,OTH,,,,031,2005-07-06T00:00:00.000,2017-02-17T10:39:03.319,2,revise,active
079073154A,mbrdamt,,,Grange Farm,,,,Country Farm,,Newham Way,,,,A,,E,N0070295,Coulby Newham,,,,,,,0,UKOS,450538,515110,-1.220608,54.528769,BCT,MKD,OTH,,,,031,2005-07-06T00:00:00.000,2017-02-17T11:02:59.383,3,revise,active
079073154B,mbrdamw,,,Grange Farm,,,,Newham Grange Country Farm,,Newham Way,,,,B,,W,N0070295,Coulby Newham,,,,,,,0,UKOS,450440,515095,-1.222125,54.528644,BCT,MKD,OTH,,,,031,2005-07-06T00:00:00.000,2017-02-17T11:23:12.395,4,revise,active
079073155A,mbrdapa,,,Marton Grove Road,,,,Marton Grove Road,,Valley Road,,,,A,,N,E0039254,Linthorpe,Middlesbrough,,,,,,0,UKOS,449791,518584,-1.231563,54.56006,BCT,MKD,OTH,,,,031,2005-07-06T00:00:00.000,2017-02-17T11:57:42.503,2,revise,active
079073155B,mbrdapd,,,Marton Grove Road,,,,Marton Grove Road,,Valley Road,,,,B,,S,E0039254,Linthorpe,Middlesbrough,,,,,,0,UKOS,449813,518604,-1.23122,54.560238,BCT,MKD,OTH,,,,031,2005-07-06T00:00:00.000,2017-02-17T12:06:57.171,2,revise,active
079073156A,mbrdapg,,,Cumberland Road,,,,Park Road South,,Valley Road,,,,A,,S,E0039254,Linthorpe,Middlesbrough,,,,,,0,UKOS,449852,518859,-1.230574,54.562517,BCT,MKD,OTH,,,,031,2005-07-06T00:00:00.000,2017-02-17T12:23:45.873,2,revise,active
079073156B,mbrdapj,,,Cumberland Road,,,,Park Road South,,Valley Road,,,,B,,N,E0039254,Linthorpe,Middlesbrough,,,,,,0,UKOS,449837,518865,-1.230805,54.562581,BCT,MKD,OTH,,,,031,2005-07-06T00:00:00.000,2017-02-17T12:31:04.012,2,revise,active
079073157A,mbrdapm,,,Robertswood,,,,Fire Station,,Park Road South,,,,A,,W,E0039254,Linthorpe,Middlesbrough,,,,,,0,UKOS,449434,518874,-1.237035,54.562701,BCT,MKD,OTH,,,,031,2005-07-06T00:00:00.000,2017-02-17T12:46:18.713,4,revise,active
079073157B,mbrdapt,,,Robertswood,,,,Fire Station,,Park Road South,,,,B,,E,E0039254,Linthorpe,Middlesbrough,,,,,,0,UKOS,449403,518890,-1.237511,54.562848,BCT,MKD,OTH,,,,031,2005-07-06T00:00:00.000,2017-02-17T12:51:56.062,3,revise,active
079073158A,mbrdapw,,,Linthorpe Village,,,,Chipchase Road,,Linthorpe Road,,,,A,,N,E0039254,Linthorpe,Middlesbrough,,,,,,1,UKOS,449065,518697,-1.24277,54.561138,BCT,MKD,TIP,,,,031,2005-07-06T00:00:00.000,2018-06-25T11:54:57.164,4,revise,active
079073158B,mbrdata,,,Linthorpe Village,,,,Stonehouse Street,,Linthorpe Road,,,,B,,S,E0039254,Linthorpe,Middlesbrough,,,,,,1,UKOS,449073,518644,-1.242655,54.560661,BCT,MKD,TIP,,,,031,2005-07-06T00:00:00.000,2018-06-25T11:55:08.978,3,revise,active
079073159A,mbrdatd,,,Lancaster Road,,,,Lancaster Road,,The Avenue,,,,A,,NW,E0039254,Linthorpe,Middlesbrough,,,,,,0,UKOS,449205,518327,-1.240667,54.557808,BCT,MKD,TIP,,,,031,2005-07-06T00:00:00.000,2017-02-17T13:20:06.659,2,revise,active
079073159B,mbrdatg,,,Lancaster Road,,,,Lancaster Road,,The Avenue,,,,B,,SE,E0039254,Linthorpe,Middlesbrough,,,,,,0,UKOS,449165,518374,-1.241278,54.558234,BCT,MKD,TIP,,,,031,2005-07-06T00:00:00.000,2017-02-17T13:28:50.319,2,revise,active
079073160A,mbrdatj,,,Cornfield Road,,,,Cornfield Road,,The Crescent,,,,A,,W,E0039254,Linthorpe,Middlesbrough,,,,,,0,UKOS,448962,518267,-1.244434,54.557284,BCT,MKD,OTH,,,,031,2005-07-06T00:00:00.000,2017-02-17T13:39:53.713,2,revise,active
079073160B,mbrdatm,,,Cornfield Road,,,,Cornfield Road,,The Crescent,,,,B,,E,E0039254,Linthorpe,Middlesbrough,,,,,,0,UKOS,448946,518275,-1.24468,54.557366,BCT,MKD,OTH,,,,031,2005-07-06T00:00:00.000,2017-02-17T13:48:03.741,2,revise,active
079073161A,mbrdatp,,,Priory Social Club,,,,Bishopton Road,,Marton Road,,,,A,,S,E0039251,Grove Hill,Middlesbrough,,,,,,0,UKOS,450349,518530,-1.222945,54.55952,BCT,MKD,TIP,,,,031,2005-07-06T00:00:00.000,2017-02-17T14:10:14.360,2,revise,active
079073161B,mbrdatw,,,Priory Social Club,,,,Bishopton Road,,Marton Road,,,,B,,N,E0039251,Grove Hill,Middlesbrough,,,,,,0,UKOS,450322,518564,-1.223357,54.559828,BCT,MKD,TIP,,,,031,2005-07-06T00:00:00.000,2017-02-17T14:25:25.316,2,revise,active
079073162B,mbrdawa,,,The Highfield,,,,Grove Road,,Marton Road,,,,B,,S,E0039251,Grove Hill,Middlesbrough,,,,,,0,UKOS,450286,518768,-1.223878,54.561665,BCT,MKD,TIP,,,,031,2005-07-06T00:00:00.000,2017-12-15T17:50:38.894,2,revise,active
079073162C,mbrdawd,,,Highfield Hotel,,,,Grove Hill,,Marton Road,,,,3,,N,E0039251,Grove Hill,Middlesbrough,,,,,,0,UKOS,450257,518816,-1.224319,54.562099,BCT,MKD,TIP,,,,031,2005-07-06T00:00:00.000,2018-12-17T14:35:29.108,5,revise,inactive
079073163A,mbrdawg,,,Park Lane,,,,Clairville Road,,Park Vale Road,,,,A,,NE,E0039258,Middlesbrough,,,,,,,0,UKOS,450035,519364,-1.227658,54.567045,BCT,MKD,OTH,,,,031,2005-07-06T00:00:00.000,2017-02-17T16:22:12.175,2,revise,active
079073163B,mbrdawj,,,Park Lane,,,,Clairville Road,,Park Vale Road,,,,B,,SW,E0039258,Middlesbrough,,,,,,,0,UKOS,450077,519411,-1.227001,54.567455,BCT,MKD,OTH,,,,031,2005-07-06T00:00:00.000,2017-02-17T17:05:49.317,3,revise,active
079073164A,mbrdawm,,,Abingdon Road,,,,Abingdon Road,,Waterloo Road,,,,E bound,,E,E0039258,Middlesbrough,,,,,,,0,UKOS,449940,519507,-1.229103,54.568331,BCT,CUS,OTH,,,,031,2005-07-06T00:00:00.000,2017-02-13T13:02:55.889,2,revise,active
079073164B,mbrdawp,,,Abingdon Road,,,,Abingdon Road,,WATERLOO ROAD,,,,W bound,,W,E0039258,Middlesbrough,,,,,,,0,UKOS,449934,519499,-1.229198,54.56826,BCT,CUS,OTH,,,,031,2005-07-06T00:00:00.000,2017-02-13T13:03:14.711,2,revise,active
079073165A,mbrdawt,,,Saxonfield,,,,West Beck Way,,Newham Way,,,,A,,SE,N0070295,Coulby Newham,,,,,,,0,UKOS,450859,515000,-1.215668,54.527749,BCT,MKD,OTH,,,,031,2005-07-06T00:00:00.000,2017-02-17T17:48:14.262,2,revise,active
079073165B,mbrdgad,,,Saxonfield,,,,West Beck Way,,Newham Way,,,,B,,W,N0070295,Coulby Newham,,,,,,,0,UKOS,450756,515063,-1.217248,54.528325,BCT,MKD,OTH,,,,031,2005-07-06T00:00:00.000,2017-02-17T17:51:42.656,2,revise,active
079073166A,mbrdgag,,,Christadelphian Hall,,,,Abingdon Road,,Southfield Road,,,,A,,E,E0039258,Middlesbrough,,,,,,,0,UKOS,449882,519722,-1.229964,54.570269,BCT,MKD,OTH,,,,031,2005-07-06T00:00:00.000,2017-02-17T18:47:56.124,3,revise,active
079073166B,mbrdgaj,,,Christadelphian Hall,,,,Roscoe Street,,Southfield Road,,,,B,,W,E0039258,Middlesbrough,,,,,,,0,UKOS,450066,519680,-1.227125,54.569873,BCT,MKD,OTH,,,,031,2005-07-06T00:00:00.000,2017-02-17T18:52:17.127,3,revise,active
079073167A,mbrdgam,,,Woodlands Road,,,,Mosque,,Southfield Road,,,,1,,E,E0039258,Middlesbrough,,,,,,,0,UKOS,449672,519746,-1.233208,54.570505,BCT,MKD,OTH,,,,031,2005-07-06T00:00:00.000,2017-02-13T12:59:47.509,3,revise,inactive
079073167B,mbrdgap,,,Woodlands Road,,,,Woodlands Road,,Southfield Road,,,,N bound,,N,E0039258,Middlesbrough,,,,,,,0,UKOS,449676,519687,-1.233156,54.569983,BCT,CUS,OTH,,,,031,2005-07-06T00:00:00.000,2018-12-17T14:36:36.704,7,revise,inactive
079073167C,mbrdgat,,,Woodlands Road,,,,Clarendon Road,,Woodlands Road,,,,N bound,,N,E0039258,Middlesbrough,,,,,,,0,UKOS,449685,519779,-1.233001,54.570809,BCT,CUS,OTH,,,,031,2005-07-06T00:00:00.000,2018-12-17T14:36:45.167,5,revise,inactive
079073168A,mbrdgaw,,,Myrtle Street,,,,Abingdon Road,,Borough Road,,,,A,,E,E0039258,Middlesbrough,,,,,,,0,UKOS,449916,519960,-1.229398,54.572404,BCT,MKD,OTH,,,,031,2005-07-06T00:00:00.000,2017-02-21T09:53:17.409,2,revise,active
079073168B,mbrdgda,,,Myrtle Street,,,,Abingdon Road,,Borough Road,,,,B,,W,E0039258,Middlesbrough,,,,,,,0,UKOS,449896,519948,-1.229709,54.572298,BCT,MKD,OTH,,,,031,2005-07-06T00:00:00.000,2017-02-21T10:16:19.438,2,revise,active
079073169A,mbrdgdg,,,Teesside University,,,,University,,Borough Road,,,,A,,E,N0070314,Teesside University,Middlesbrough,,,,,,0,UKOS,449567,520006,-1.234788,54.57286,BCT,MKD,OTH,,,,031,2005-07-06T00:00:00.000,2017-02-21T10:24:58.195,2,revise,active
079073169B,mbragdj,,,Teesside University,,,,University,,BOROUGH ROAD,,,,B,,W,N0070314,Teesside University,Middlesbrough,,,,,,0,UKOS,449575,519988,-1.234675,54.572696,BCT,MKD,OTH,,,,031,2005-07-06T00:00:00.000,2017-02-21T10:30:49.524,3,revise,active
079073170A,mbrdgdm,,,Transporter Bridge,,,,Transporter,,Ferry Road,,,,A,,W,E0039258,Middlesbrough,,,,,,,0,UKOS,449861,521196,-1.230039,54.583516,BCT,MKD,TIP,,,,031,2005-07-06T00:00:00.000,2017-02-21T10:48:26.193,3,revise,active
079073170B,mbrgamp,,,Transporter Bridge,,,,Ferry Road,,Vulcan Street,,,,B,,SE,E0039258,Middlesbrough,,,,,,,0,UKOS,449849,521162,-1.230231,54.583212,BCT,MKD,OTH,,,,031,2012-09-13T11:13:31.000,2017-02-21T10:51:37.268,2,revise,active
079073171A,mbrdgdp,,,The Captain Cook,,,,The Captain Cook,,Durham Street,,,,A,,SW,E0039258,Middlesbrough,,,,,,,0,UKOS,449732,521054,-1.232059,54.582253,BCT,MKD,OTH,,,,031,2005-07-06T00:00:00.000,2017-02-21T10:58:41.425,2,revise,active
079073171B,mbrdgdt,,,The Captain Cook,,,,The Captain Cook,,Durham Street,,,,B,,NE,E0039258,Middlesbrough,,,,,,,0,UKOS,449727,521069,-1.232134,54.582388,BCT,MKD,OTH,,,,031,2005-07-06T00:00:00.000,2017-02-21T11:15:01.682,2,revise,active
079073172A,mbrdgdw,,,Cleveland Street,,,,Lower East Street,,Cleveland Street,,,,A,,SW,E0039258,Middlesbrough,,,,,,,0,UKOS,449681,520956,-1.232864,54.581377,BCT,MKD,OTH,,,,031,2005-07-06T00:00:00.000,2017-02-21T11:43:36.259,4,revise,active
079073172B,mbrdgja,,,Cleveland Street,,,,Gosford Street,,Cleveland Street,,,,B,,NE,E0039258,Middlesbrough,,,,,,,0,UKOS,449610,520862,-1.233978,54.580548,BCT,MKD,OTH,,,,031,2005-07-06T00:00:00.000,2017-02-21T11:47:04.036,4,revise,active
079073173A,mbrdgjd,,,Willowbank,,,,Beechfields,,Coulby Farm Way,,,,A,,E,N0070295,Coulby Newham,,,,,,,0,UKOS,450893,514114,-1.215295,54.519784,BCT,MKD,OTH,,,,031,2005-07-06T00:00:00.000,2017-02-21T11:59:29.822,2,revise,active
079073173B,mbrdgjg,,,Willowbank,,,,Beechfield,,Coulby Farm Way,,,,B,,W,N0070295,Coulby Newham,,,,,,,0,UKOS,450804,514121,-1.216669,54.519855,BCT,MKD,OTH,,,,031,2005-07-06T00:00:00.000,2017-02-21T12:14:48.157,6,revise,active
079073174A,mbrdgjm,,,Woodlea,,,,Crossfields,,Coulby Farm Way,,,,A,,NE,N0070295,Coulby Newham,,,,,,,0,UKOS,450612,514075,-1.219642,54.519461,BCT,MKD,OTH,,,,031,2005-07-06T00:00:00.000,2017-02-21T12:19:49.525,3,revise,active
079073174B,mbrdgjp,,,Woodlea,,,,Crossfields,,Coulby Farm Way,,,,B,,S,N0070295,Coulby Newham,,,,,,,0,UKOS,450610,514007,-1.219685,54.51885,BCT,MKD,OTH,,,,031,2005-07-06T00:00:00.000,2017-02-21T12:26:22.585,3,revise,active
079073175A,mbrdgjt,,,Law Courts,,,,Law Courts,,Corporation Road,,,,D,,W,E0039258,Middlesbrough,,,,,,,0,UKOS,449785,520350,-1.231358,54.57593,BCT,MKD,OTH,,,,031,2005-07-06T00:00:00.000,2017-12-18T17:23:06.789,3,revise,active
079073176A,mbrdgjw,,,St John's Church,,,,St John's Church,,Marton Road,,,,A,,S,E0039258,Middlesbrough,,,,,,,0,UKOS,450103,520148,-1.226474,54.574075,BCT,MKD,OTH,,,,031,2005-07-06T00:00:00.000,2017-12-18T17:37:14.408,2,revise,active
079073176D,mbrdgma,,,St John's Church,,,,St John's Church,,Marton Road,,,,4,,N,E0039258,Middlesbrough,,,,,,,0,UKOS,450072,520192,-1.226945,54.574482,BCT,MKD,OTH,,,,031,2005-07-06T00:00:00.000,2018-12-17T14:41:17.397,4,revise,inactive
079073177A,mbrdgmd,,,Breckon Hill Road,,,,Breckon Hill Road,,Marton Road,,,,A,,S,E0039258,Middlesbrough,,,,,,,0,UKOS,450251,519567,-1.224283,54.568848,BCT,MKD,OTH,,,,031,2005-07-06T00:00:00.000,2017-02-21T12:33:35.213,2,revise,active
079073177B,mbrdgmg,,,Breckon Hill Road,,,,Stamford Street,,Marton Road,,,,B,,N,E0039258,Middlesbrough,,,,,,,0,UKOS,450224,519610,-1.224694,54.569237,BCT,MKD,OTH,,,,031,2005-07-06T00:00:00.000,2017-02-21T12:43:29.818,2,revise,active
079073178A,mbrdgmj,,,Longlands,,,,Marton Road,,Longlands Road,,,,1,,W,E0039251,Grove Hill,Middlesbrough,,,,,,0,UKOS,450479,519248,-1.220812,54.565959,BCT,MKD,OTH,,,,031,2005-07-06T00:00:00.000,2018-12-17T14:41:31.589,4,revise,inactive
079073178B,mbrdgmp,,,Longlands,,,,Longlands Road,,MARTON ROAD,,,,2,,N,E0039251,Grove Hill,Middlesbrough,,,,,,0,UKOS,450292,519337,-1.223694,54.566777,BCT,MKD,TIP,,,,031,2005-07-06T00:00:00.000,2018-12-17T14:42:02.003,4,revise,inactive
079073178C,mbrdgmt,,,Longlands,,,,Longlands Road,,Marton Road,,,,3,,S,E0039251,Grove Hill,Middlesbrough,,,,,,0,UKOS,450332,519254,-1.223084,54.566019,BCT,MKD,TIP,,,,031,2005-07-06T00:00:00.000,2018-12-17T14:42:15.110,4,revise,inactive
079073178E,mbrdgmw,,,Longlands,,,,Marton Road,,Longlands Road,,,,5,,E,E0039251,Grove Hill,Middlesbrough,,,,,,0,UKOS,450468,519258,-1.22098,54.56605,BCT,MKD,OTH,,,,031,2005-07-06T00:00:00.000,2018-12-17T14:41:41.221,4,revise,inactive
079073179A,mbrdgpa,,,Market Place,,,,Market Place,,Kings Road,,,,A,,SE,E0039261,North Ormesby,Middlesbrough,,,,,,1,UKOS,450893,519777,-1.214318,54.570671,BCT,MKD,TIP,,,,031,2005-07-06T00:00:00.000,2020-05-04T11:25:45.153,6,revise,active
079073179B,mbrdgpd,,,Market Place,,,,Market Place,,Kings Road,,,,B,,NW,E0039261,North Ormesby,Middlesbrough,,,,,,1,UKOS,450875,519780,-1.214596,54.5707,BCT,MKD,TIP,,,,031,2005-07-06T00:00:00.000,2020-05-04T11:25:54.936,4,revise,active
079073179C,mbrdgpg,,,Market Place,,,,Market Place,,Kings Road,,,,C,,NW,E0039261,North Ormesby,Middlesbrough,,,,,,1,UKOS,450864,519796,-1.214764,54.570836,BCT,MKD,TIP,,,,031,2005-07-06T00:00:00.000,2020-05-04T11:26:03.502,4,revise,active
079073179D,mbrdgpj,,,Market Place,,,,Market Place,,Kings Road,,,,D,,NW,E0039261,North Ormesby,Middlesbrough,,,,,,1,UKOS,450856,519811,-1.214885,54.570972,BCT,MKD,TIP,,,,031,2005-07-06T00:00:00.000,2020-05-04T11:26:20.551,5,revise,active
079073179E,mbrdgpm,,,Market Place,,,,Market Place,,Kings Road,,,,Stand E,,SE,E0039261,North Ormesby,Middlesbrough,,,,,,1,UKOS,450872,519810,-1.214637,54.570961,BCT,MKD,TIP,,,,031,2005-07-06T00:00:00.000,2020-05-04T11:26:32.924,6,revise,active
079073179F,mbrdgpt,,,Market Place,,,,Market Place,,Kings Road,,,,F,,SE,E0039261,North Ormesby,Middlesbrough,,,,,,1,UKOS,450883,519796,-1.21447,54.570834,BCT,MKD,TIP,,,,031,2005-07-06T00:00:00.000,2020-05-04T11:26:41.552,5,revise,active
079073180A,mbrdgpw,,,Working Mens Club,,,,Police Station,,King's Road,,,,A,,SE,E0039261,North Ormesby,Middlesbrough,,,,,,0,UKOS,451113,519586,-1.210949,54.568924,BCT,MKD,OTH,,,,031,2005-07-06T00:00:00.000,2017-02-22T11:51:45.614,3,revise,active
079073180B,mbrdgta,,,Working Mens Club,,,,Beaumont Road,,King's Road,,,,B,,NW,E0039261,North Ormesby,Middlesbrough,,,,,,0,UKOS,451066,519636,-1.211667,54.569378,BCT,MKD,OTH,,,,031,2005-07-06T00:00:00.000,2017-02-22T11:57:37.098,3,revise,active
079073181A,mbrdgtd,,,Gala Bingo,,,,Opposite Club,,Longlands Road,,,,A,,W,E0039261,North Ormesby,Middlesbrough,,,,,,0,UKOS,451123,519325,-1.210839,54.566586,BCT,MKD,OTH,,,,031,2005-07-06T00:00:00.000,2017-12-19T09:22:57.425,2,revise,active
079073181B,mbrdgtg,,,Buccaneer,,,,Primary School,,Longlands Road,,,,2,,E,E0039261,North Ormesby,Middlesbrough,,,,,,0,UKOS,451300,519412,-1.208087,54.56735,BCT,MKD,TIP,,,,031,2005-07-06T00:00:00.000,2018-12-17T14:42:29.534,4,revise,inactive
079073181C,mbrdgtj,,,Buccaneer,,,,Cemetery,,Longlands Road,,,,3,,W,E0039261,North Ormesby,Middlesbrough,,,,,,0,UKOS,451311,519387,-1.207922,54.567116,BCT,MKD,OTH,,,,031,2005-07-06T00:00:00.000,2018-12-17T14:42:40.486,4,revise,inactive
079073181D,mbrdgtm,,,Buccaneer,,,,Henry Street,,King's Road,,,,4,,S,E0039261,North Ormesby,Middlesbrough,,,,,,0,UKOS,451195,519425,-1.209709,54.567469,BCT,MKD,TIP,,,,031,2005-07-06T00:00:00.000,2018-12-17T14:42:50.632,6,revise,inactive
079073181E,mbrdgtp,,,Buccaneer,,,,Club,,King's Road,,,,5,,N,E0039261,North Ormesby,Middlesbrough,,,,,,0,UKOS,451180,519411,-1.209943,54.567345,BCT,MKD,OTH,,,,031,2005-07-06T00:00:00.000,2018-12-17T14:43:00.578,5,revise,inactive
079073181F,mbrdgtw,,,Buccaneer,,,,Millfield Road,,King's Road,,,,6,,N,E0039261,North Ormesby,Middlesbrough,,,,,,0,UKOS,451175,519431,-1.210017,54.567525,BCT,MKD,OTH,,,,031,2005-07-06T00:00:00.000,2018-12-17T14:43:10.941,5,revise,inactive
079073181G,mbrdgwa,,,Buccaneer,,,,Cemetery,,Ormesby Road,,,,7,,S,E0039261,North Ormesby,Middlesbrough,,,,,,0,UKOS,451252,519315,-1.208846,54.566475,BCT,MKD,OTH,,,,031,2005-07-06T00:00:00.000,2018-12-17T14:38:25.780,4,revise,inactive
079073181H,mbrdgwd,,,Buccaneer,,,,Cemetery,,Ormesby Road,,,,8,,S,E0039261,North Ormesby,Middlesbrough,,,,,,0,UKOS,451293,519241,-1.208225,54.565814,BCT,MKD,OTH,,,,031,2005-07-06T00:00:00.000,2018-12-17T14:38:35.884,4,revise,inactive
079073182A,mbrdgwg,,,Lavender Road,,,,Lavender Road,,Ingram Road,,,,A,,NE,E0039245,Berwick Hills,Middlesbrough,,,,,,0,UKOS,451149,519203,-1.210459,54.565479,BCT,MKD,OTH,,,,031,2005-07-06T00:00:00.000,2017-02-22T12:15:08.422,2,revise,active
079073183A,mbrdgwj,,,Greenhow Road,,,,Greenhow Road,,Ingram Road,,,,A,,N,E0039245,Berwick Hills,Middlesbrough,,,,,,0,UKOS,451058,518942,-1.211911,54.563151,BCT,MKD,OTH,,,,031,2005-07-06T00:00:00.000,2017-02-22T12:30:34.889,2,revise,active
079073183B,mbrdgwm,,,Greenhow Road,,,,Greenhow Road,,Ingram Road,,,,B,,S,E0039245,Berwick Hills,Middlesbrough,,,,,,0,UKOS,451067,518920,-1.211776,54.562944,BCT,MKD,OTH,,,,031,2005-07-06T00:00:00.000,2017-02-22T12:42:03.670,3,revise,active
079073184A,mbrdgwp,,,Newcastle House,,,,Berwick Hills Primary Sch,,Ingram Road,,,,A,,N,E0039245,Berwick Hills,Middlesbrough,,,,,,0,UKOS,451050,518693,-1.212078,54.560906,BCT,MKD,OTH,,,,031,2005-07-06T00:00:00.000,2017-02-22T12:44:55.076,2,revise,active
079073184B,mbrdgwt,,,Newcastle House,,,,Berwick Hills Primary Sch,,Ingram Road,,,,B,,S,E0039245,Berwick Hills,Middlesbrough,,,,,,0,UKOS,451071,518653,-1.21176,54.560553,BCT,MKD,OTH,,,,031,2005-07-06T00:00:00.000,2017-02-22T13:05:51.075,2,revise,active
079073185A,mbrdjad,,,Crossfell Road West End,,,,Crossfell Road,,Ingram Road,,,,A,,S,E0039245,Berwick Hills,Middlesbrough,,,,,,0,UKOS,451179,518420,-1.210131,54.55844,BCT,MKD,OTH,,,,031,2005-07-06T00:00:00.000,2017-02-22T13:33:24.419,3,revise,active
079073185B,mbrdjag,,,Crossfell Road West End,,,,Crossfell Road,,Overdale Road,,,,B,,N,E0039245,Berwick Hills,Middlesbrough,,,,,,0,UKOS,451100,518358,-1.211363,54.557899,BCT,MKD,OTH,,,,031,2005-07-06T00:00:00.000,2017-02-22T13:42:32.578,2,revise,active
079073186A,mbrdjaj,,,Kentmere Road,,,,Kirkstone Road,,Overdale Road,,,,A,,NW,E0039245,Berwick Hills,Middlesbrough,,,,,,0,UKOS,451189,518156,-1.210022,54.556075,BCT,MKD,OTH,,,,031,2005-07-06T00:00:00.000,2017-02-22T14:28:18.335,2,revise,active
079073186B,mbrdjam,,,Kentmere Road,,,,Kirkstone Road,,Overdale Road,,,,B,,SE,E0039245,Berwick Hills,Middlesbrough,,,,,,0,UKOS,451226,518128,-1.209455,54.55582,BCT,MKD,OTH,,,,031,2005-07-06T00:00:00.000,2017-02-22T14:36:17.685,2,revise,active
079073187A,mbrdjap,,,Langridge Crescent,,,,Rossett Walk,,Overdale Road,,,,A,,NW,E0039245,Berwick Hills,Middlesbrough,,,,,,0,UKOS,451299,517999,-1.208349,54.554653,BCT,MKD,OTH,,,,031,2005-07-06T00:00:00.000,2017-02-22T14:46:10.681,2,revise,active
079073187B,mbrdjat,,,Langridge Crescent,,,,Rossett Walk,,Overdale Road,,,,B,,SE,E0039245,Berwick Hills,Middlesbrough,,,,,,0,UKOS,451361,517944,-1.2074,54.554153,BCT,MKD,OTH,,,,031,2005-07-06T00:00:00.000,2017-02-22T15:13:58.942,2,revise,active
079073188A,mbrdjaw,,,Evesham Road,,,,Evesham Road,,Overdale Road,,,,A,,NW,E0039264,Park End,Middlesbrough,,,,,,0,UKOS,451539,517767,-1.204679,54.552544,BCT,MKD,OTH,,,,031,2005-07-06T00:00:00.000,2017-02-22T15:34:46.146,3,revise,active
079073188B,mbrdjda,,,Evesham Road,,,,Evesham Road,,Overdale Road,,,,B,,SE,E0039264,Park End,Middlesbrough,,,,,,0,UKOS,451622,517738,-1.203401,54.552275,BCT,MKD,OTH,,,,031,2005-07-06T00:00:00.000,2017-02-22T16:24:55.539,3,revise,active
079073189A,mbrdjdg,,,Frampton Green,,,,Sandringham Road,,Overdale Road,,,,A,,NW,E0039264,Park End,Middlesbrough,,,,,,0,UKOS,451876,517569,-1.199504,54.550722,BCT,MKD,OTH,,,,031,2005-07-06T00:00:00.000,2017-02-22T16:42:45.337,2,revise,active
079073189B,mbrdjdj,,,Frampton Green,,,,Sandringham Road,,Overdale Road,,,,B,,SE,E0039264,Park End,Middlesbrough,,,,,,0,UKOS,451934,517534,-1.198613,54.55041,BCT,MKD,OTH,,,,031,2005-07-06T00:00:00.000,2017-02-22T17:03:38.375,2,revise,active
079073190A,mbrdjdm,,,Runnymede Green,,,,Royston Avenue,,Overdale Road,,,,A,,NW,E0039264,Park End,Middlesbrough,,,,,,0,UKOS,452111,517315,-1.195916,54.548424,BCT,MKD,OTH,,,,031,2005-07-06T00:00:00.000,2017-02-22T17:18:02.751,3,revise,active
079073190B,mbrdjdp,,,Runnymede Green,,,,Royston Avenue,,Overdale Road,,,,B,,SE,E0039264,Park End,Middlesbrough,,,,,,0,UKOS,452118,517323,-1.195806,54.548495,BCT,MKD,OTH,,,,031,2005-07-06T00:00:00.000,2017-02-22T17:26:17.618,4,revise,active
079073191A,mbrdjdt,,,The Ladle,,,,The Ladle,,Ladgate Lane,,,,A,,SW,E0039255,Marton,,,,,,,0,UKOS,451625,516738,-1.203529,54.543289,BCT,MKD,OTH,,,,031,2005-07-06T00:00:00.000,2017-02-22T17:31:31.559,2,revise,active
079073192A,mbrdjdw,,,Marton Station,,,,Marton Station,,Ladgate Lane,,,,A,,NE,E0039255,Marton,,,,,,,0,UKOS,451775,516844,-1.201192,54.544226,BCT,MKD,OTH,,,,031,2005-07-06T00:00:00.000,2017-02-22T17:36:43.225,2,revise,active
079073192B,mbrdjga,,,Marton Station,,,,Marton Station,,Ladgate Lane,,,,B,,SW,E0039255,Marton,,,,,,,0,UKOS,451819,516847,-1.200512,54.54424,BCT,MKD,OTH,,,,031,2005-07-06T00:00:00.000,2017-02-22T17:38:53.891,3,revise,active
079073193A,mbrdjgd,,,Parkside,,,,Overdale Road,,Ladgate Lane,,,,A,,SW,E0039264,Park End,Middlesbrough,,,,,,0,UKOS,452221,517023,-1.194267,54.545789,BCT,MKD,OTH,,,,031,2005-07-06T00:00:00.000,2017-12-19T10:21:13.574,4,revise,active
079073193B,mbrdjgj,,,Parkside,,,,Overdale Road,,Ladgate Lane,,,,B,,NE,E0039264,Park End,Middlesbrough,,,,,,0,UKOS,452356,517199,-1.19215,54.547348,BCT,MKD,OTH,,,,031,2005-07-06T00:00:00.000,2017-12-19T11:46:07.758,3,revise,active
079073193C,mbrdjgm,,,Overdale Road End,,,,Ladgate Lane,,Overdale Road,,,,3,,SE,E0039264,Park End,Middlesbrough,,,,,,0,UKOS,452228,517181,-1.194131,54.547208,BCT,MKD,OTH,,,,031,2005-07-06T00:00:00.000,2018-12-17T14:43:23.250,6,revise,inactive
079073194A,mbrdjgp,,,The Crescent,,,,Ormesby Road,,Ladgate Lane,,,,A,,W,E0041558,Ormesby,,,,,,,0,UKOS,452707,517363,-1.1866890,54.5487885,BCT,MKD,OTH,,,,031,2005-07-06T00:00:00.000,2020-01-30T09:19:07.698,5,revise,active
079073194B,mbrdjgt,,,The Crescent,,,,The Crescent,,Ladgate Lane,,,,B,,E,E0041558,Ormesby,,,,,,,0,UKOS,452803,517418,-1.1851952,54.5492727,BCT,MKD,OTH,,,,031,2005-07-06T00:00:00.000,2020-01-30T09:19:19.564,4,revise,active
079073195A,mbrdjgw,,,Priestfields Shops,,,,Balmoral Road,,Ormesby Road,,,,A,,N,E0039264,Park End,Middlesbrough,,,,,,0,UKOS,452437,517439,-1.190855,54.549505,BCT,MKD,TIP,,,,031,2005-07-06T00:00:00.000,2021-04-09T18:58:40.242,4,revise,active
079073195B,mbrdjma,,,Priestfields Shops,,,,Balmoral Road,,Ormesby Road,,,,B,,S,E0039264,Park End,Middlesbrough,,,,,,0,UKOS,452443,517459,-1.190758,54.549684,BCT,MKD,TIP,,,,031,2005-07-06T00:00:00.000,2021-04-09T18:59:53.774,3,revise,active
079073196A,mbrdjmd,,,Primary School,,,,Marton Manor Primary Sch,,The Derby,,,,A,,NW,E0039268,Marton Manor,Middlesbrough,,,,,,0,UKOS,451109,515863,-1.211656,54.535478,BCT,MKD,OTH,,,,031,2005-07-06T00:00:00.000,2017-02-23T10:54:03.933,2,revise,active
079073196B,mbrdjmg,,,Primary School,,,,Marton Manor Primary Sch,,The Derby,,,,B,,S,E0039268,Marton Manor,Middlesbrough,,,,,,0,UKOS,451103,515857,-1.21175,54.535425,BCT,MKD,OTH,,,,031,2005-07-06T00:00:00.000,2017-02-23T11:34:04.148,2,revise,active
079073196C,mbrdjmj,,,Primary School,,,,Marton Manor Primary Sch,,The Derby,,,,C,,SE,E0039268,Marton Manor,Middlesbrough,,,,,,0,UKOS,451101,515894,-1.211774,54.535758,BCT,MKD,OTH,,,,031,2005-07-06T00:00:00.000,2017-02-23T11:35:16.128,2,revise,active
079073197A,mbrdjmp,,,Apple Tree,,,,Nimbus Close,,Gainsborough Road,,,,A,,NE,E0039268,Marton Manor,Middlesbrough,,,,,,0,UKOS,451270,515800,-1.209179,54.534896,BCT,MKD,TIP,,,,031,2005-07-06T00:00:00.000,2017-02-23T11:42:19.732,2,revise,active
079073197B,mbrdjmt,,,Apple Tree,,,,Nimbus Close,,Gainsborough Road,,,,B,,SW,E0039268,Marton Manor,Middlesbrough,,,,,,0,UKOS,451269,515775,-1.209199,54.534663,BCT,MKD,TIP,,,,031,2005-07-06T00:00:00.000,2017-02-23T12:07:06.163,2,revise,active
079073198A,mbrdjmw,,,Tesco Extra,,,,Gunnergate Park,,Newham Way,,,,A,,S,N0070295,Coulby Newham,,,,,,,0,UKOS,451002,514776,-1.213497,54.525721,BCT,MKD,OTH,,,,031,2005-07-06T00:00:00.000,2017-02-23T12:35:28.104,2,revise,active
079073198B,mbrdjpa,,,Tesco Extra,,,,Gunnergate Park,,NEWHAM WAY,,,,B,,N,N0070295,Coulby Newham,,,,,,,0,UKOS,450998,514753,-1.213561,54.525512,BCT,MKD,OTH,,,,031,2005-07-06T00:00:00.000,2017-02-23T12:45:10.056,2,revise,active
079073199A,mbrdjpd,,,Gunnergate Lane West End,,,,Gunnergate Lane,,NEWHAM WAY,,,,A,,N,N0070295,Coulby Newham,,,,,,,0,UKOS,451081,514520,-1.212314,54.523413,BCT,MKD,OTH,,,,031,2005-07-06T00:00:00.000,2017-02-23T13:05:43.249,2,revise,active
079073199B,mbrdjpg,,,Gunnergate Lane West End,,,,Gunnergate Lane,,NEWHAM WAY,,,,B,,S,N0070295,Coulby Newham,,,,,,,0,UKOS,451090,514588,-1.212169,54.524015,BCT,MKD,OTH,,,,031,2005-07-06T00:00:00.000,2017-02-23T13:18:54.978,2,revise,active
079073200A,mbrdjpj,,,Lingfield Way,,,,Bonnygrove Way,,Lingfield Way,,,,A,,N,N0070295,Coulby Newham,,,,,,,0,UKOS,451066,514165,-1.212614,54.520225,BCT,MKD,OTH,,,,031,2005-07-06T00:00:00.000,2017-02-23T13:59:25.848,4,revise,active
079073200B,mbrdjpm,,,Lingfield Way,,,,Bonnygrove Way,,Lingfield Way,,,,B,,S,N0070295,Coulby Newham,,,,,,,0,UKOS,451091,514148,-1.212231,54.520069,BCT,MKD,OTH,,,,031,2005-07-06T00:00:00.000,2017-02-23T14:16:09.582,4,revise,active
079073201A,mbrdjpt,,,Croxden Grove,,,,Ordsall Green,,Ormesby Road,,,,A,,SE,E0039264,Park End,Middlesbrough,,,,,,0,UKOS,452364,517647,-1.191946,54.551381,BCT,MKD,TIP,,,,031,2005-07-06T00:00:00.000,2017-02-23T14:45:07.963,3,revise,active
079073201B,mbrdjpw,,,Croxden Grove,,,,Ordsall Green,,Ormesby Road,,,,B,,NW,E0039264,Park End,Middlesbrough,,,,,,0,UKOS,452316,517707,-1.192678,54.551917,BCT,MKD,TIP,,,,031,2005-07-06T00:00:00.000,2017-02-23T15:05:23.427,3,revise,active
079073202A,mbrdjta,,,Sandringham Road,,,,Southlands Leisure Centre,,Ormesby Road,,,,A,,SE,E0039264,Park End,Middlesbrough,,,,,,0,UKOS,452221,517830,-1.194125,54.553032,BCT,MKD,TIP,,,,031,2005-07-06T00:00:00.000,2017-02-23T15:10:04.729,2,revise,active
079073202B,mbrdjtd,,,Sandringham Road,,,,Southlands Leisure Centre,,Ormesby Road,,,,B,,NW,E0039264,Park End,Middlesbrough,,,,,,0,UKOS,452108,517902,-1.195859,54.553699,BCT,MKD,TIP,,,,031,2005-07-06T00:00:00.000,2017-02-23T16:13:16.663,3,revise,active
079073203A,mbrdjtg,,,Kelvin Grove,,,,Unity City Academy,,Ormesby Road,,,,A,,SE,E0039264,Park End,Middlesbrough,,,,,,0,UKOS,452006,518043,-1.197411,54.554968,BCT,MKD,TIP,,,,031,2005-07-06T00:00:00.000,2020-05-04T11:30:30.251,3,revise,active
079073203B,mbrdjtj,,,Kelvin Grove,,,,Unity City Academy,,Ormesby Road,,,,B,,NW,E0039264,Park End,Middlesbrough,,,,,,0,UKOS,451956,518104,-1.198173,54.55553,BCT,MKD,TIP,,,,031,2005-07-06T00:00:00.000,2020-05-04T11:30:40.580,3,revise,active
079073204A,mbrdjtm,,,Ormesby Grange Care Home,,,,TAD Centre,,Ormesby Road,,,,A,,S,E0039245,Berwick Hills,Middlesbrough,,,,,,0,UKOS,451889,518337,-1.199168,54.557622,BCT,MKD,TIP,,,,031,2005-07-06T00:00:00.000,2017-02-24T12:50:39.837,3,revise,active
079073204B,mbrdjtp,,,Ormesby Grange Care Home,,,,TAD Centre,,Ormesby Road,,,,B,,N,E0039245,Berwick Hills,Middlesbrough,,,,,,0,UKOS,451816,518445,-1.200278,54.5586,BCT,MKD,TIP,,,,031,2005-07-06T00:00:00.000,2017-02-24T12:55:55.731,2,revise,active
079073205A,mbrdjtw,,,Eltisley Green,,,,Elvington Green,,Homerton Road,,,,A,,NE,E0039263,Pallister,Middlesbrough,,,,,,0,UKOS,452291,518999,-1.192835,54.563538,BCT,MKD,OTH,,,,031,2005-07-06T00:00:00.000,2017-02-24T14:27:11.888,2,revise,active
079073205B,mbrdjwa,,,Eltisley Green,,,,Elvington Green,,Homerton Road,,,,B,,SW,E0039263,Pallister,Middlesbrough,,,,,,0,UKOS,452276,518972,-1.193072,54.563288,BCT,MKD,OTH,,,,031,2005-07-06T00:00:00.000,2017-02-24T14:50:47.716,2,revise,active
079073206A,mbrdjwd,,,Middlebeck Social Club,,,,Charlbury Road,,Homerton Road,,,,A,,W,E0039263,Pallister,Middlesbrough,,,,,,0,UKOS,451965,518892,-1.197895,54.56261,BCT,MKD,OTH,,,,031,2005-07-06T00:00:00.000,2017-02-24T15:16:50.026,3,revise,active
079073206B,mbrdjwg,,,Middlebeck Social Club,,,,Charlbury Road,,Homerton Road,,,,B,,E,E0039263,Pallister,Middlesbrough,,,,,,0,UKOS,452042,518907,-1.196702,54.562728,BCT,MKD,OTH,,,,031,2005-07-06T00:00:00.000,2017-02-24T15:33:08.989,2,revise,active
079073207A,mbrdjwj,,,Garsdale Green,,,,Berwick Hills Centre,,Ormesby Road,,,,A,,SE,E0039245,Berwick Hills,Middlesbrough,,,,,,0,UKOS,451704,518682,-1.201968,54.560741,BCT,MKD,TIP,,,,031,2005-07-06T00:00:00.000,2018-10-19T11:44:33.027,5,revise,active
079073207B,mbrdjwm,,,Parklands,,,,Berwick Hills Centre,,Homerton Road,,,,2,,NE,E0039245,Berwick Hills,Middlesbrough,,,,,,0,UKOS,451697,518786,-1.202058,54.561676,BCT,MKD,TIP,,,,031,2005-07-06T00:00:00.000,2018-12-17T14:37:04.591,4,revise,inactive
079073207C,mbrdjwp,,,Norfolk Place Shops,,,,Berwick Hills Centre,,Ormesby Road,,,,3,,NW,E0039245,Berwick Hills,Middlesbrough,,,,,,0,UKOS,451505,518831,-1.205019,54.5621,BCT,MKD,TIP,,,,031,2005-07-06T00:00:00.000,2018-12-17T14:37:13.979,5,revise,inactive
079073207D,mbrdjwt,,,Morrisons,,,,Berwick Hills Centre,,Berwick Hills Centre,,,,4,,NE,E0039245,Berwick Hills,Middlesbrough,,,,,,0,UKOS,451628,518685,-1.203142,54.560784,BCT,MKD,TIP,,,,031,2005-07-06T00:00:00.000,2018-12-17T14:37:24.774,6,revise,inactive
079073207E,mbrdmad,,,Morrisons,,,,Berwick Hills Centre,,Berwick Hills Centre,,,,5,,N,E0039245,Berwick Hills,Middlesbrough,,,,,,0,UKOS,451626,518660,-1.203178,54.560551,BCT,MKD,TIP,,,,031,2005-07-06T00:00:00.000,2018-12-17T14:37:57.138,7,revise,inactive
079073208A,mbrdmag,,,Dixon Grove,,,,Cranmore Road,,Ormesby Road,,,,A,,S,E0039245,Berwick Hills,Middlesbrough,,,,,,0,UKOS,451396,519070,-1.206662,54.564267,BCT,MKD,TIP,,,,031,2005-07-06T00:00:00.000,2017-12-18T16:19:39.814,2,revise,active
079073208B,mbrdmaj,,,Bailey Grove,,,,Cranmore Road,,ORMESBY ROAD,,,,2,,N,E0039245,Berwick Hills,Middlesbrough,,,,,,0,UKOS,451311,519176,-1.207956,54.565227,BCT,MKD,TIP,,,,031,2005-07-06T00:00:00.000,2018-12-17T14:38:49.732,5,revise,inactive
079073209A,mbrdmam,,,Bordesley Green,,,,Cranmore Road Club,,Cranmore Road,,,,A,,E,E0039263,Pallister,Middlesbrough,,,,,,0,UKOS,451691,519292,-1.202061,54.566232,BCT,MKD,OTH,,,,031,2005-07-06T00:00:00.000,2017-02-24T16:20:23.895,3,revise,active
079073209B,mbrdmap,,,Bordesley Green,,,,Cranmore Road Club,,Cranmore Road,,,,B,,W,E0039263,Pallister,Middlesbrough,,,,,,0,UKOS,451674,519263,-1.202329,54.565973,BCT,MKD,OTH,,,,031,2005-07-06T00:00:00.000,2017-02-24T16:21:02.062,2,revise,active
079073210A,mbrdmat,,,Charlbury Road,,,,Charlbury Road,,Cranmore Road,,,,A,,W,E0039263,Pallister,Middlesbrough,,,,,,0,UKOS,451893,519311,-1.198934,54.566382,BCT,MKD,OTH,,,,031,2005-07-06T00:00:00.000,2017-02-24T16:42:27.804,2,revise,active
079073210B,mbrdmaw,,,Charlbury Road,,,,Charlbury Road,,Cranmore Road,,,,B,,E,E0039263,Pallister,Middlesbrough,,,,,,0,UKOS,451947,519341,-1.198094,54.566638,BCT,MKD,OTH,,,,031,2005-07-06T00:00:00.000,2017-02-24T16:46:26.514,2,revise,active
079073211A,mbrdmda,,,Cranmore Road,,,,Cranmore Road,,Cargo Fleet Lane,,,,1,,SE,E0039246,Brambles Farm,Middlesbrough,,,,,,0,UKOS,452057,519368,-1.196388,54.566869,BCT,MKD,OTH,,,,031,2005-07-06T00:00:00.000,2012-05-22T17:24:43.000,2,revise,inactive
079073211C,mbrdmdg,,,Cranmore Road,,,,Cargo Fleet Road,,Cranmore Road,,,,3,,W,E0039246,Brambles Farm,Middlesbrough,,,,,,0,UKOS,452015,519339,-1.197043,54.566613,BCT,MKD,OTH,,,,031,2005-07-06T00:00:00.000,2018-12-17T14:43:37.005,4,revise,inactive
079073212A,mbrdmdj,,,Kestrel Avenue,,,,Brambles Farm Hotel,,Longlands Road,,,,A,,E,E0039246,Brambles Farm,Middlesbrough,,,,,,0,UKOS,452012,519622,-1.197039,54.569156,BCT,MKD,OTH,,,,031,2005-07-06T00:00:00.000,2017-12-19T14:27:17.498,2,revise,active
079073212B,mbrdmdm,,,Kestrel Avenue,,,,Brambles Farm Hotel,,Longlands Road,,,,B,,W,E0039246,Brambles Farm,Middlesbrough,,,,,,0,UKOS,452005,519598,-1.197152,54.568941,BCT,MKD,OTH,,,,031,2005-07-06T00:00:00.000,2017-12-19T14:30:56.548,2,revise,active
079073212C,mbrdmdp,,,Brambles Farm Hotel,,,,Brambles Farm Hotel,,Cargo Fleet Lane,,,,3,,S,E0039246,Brambles Farm,Middlesbrough,,,,,,0,UKOS,451959,519528,-1.197876,54.568317,BCT,MKD,TIP,,,,031,2005-07-06T00:00:00.000,2018-12-17T14:43:53.597,4,revise,inactive
079073212D,mbrdmdt,,,Brambles Farm,,,,Brambles Farm Hotel,,Cargo Fleet Lane,,,,4,,N,E0039246,Brambles Farm,Middlesbrough,,,,,,0,UKOS,452022,519388,-1.196926,54.567061,BCT,MKD,TIP,,,,031,2005-07-06T00:00:00.000,2018-12-17T14:44:03.111,6,revise,inactive
079073216A,mbrdmdw,,,Marshall Court,,,,Cranfield Avenue,,MARSHALL AVENUE,,,,A,,W,E0039246,Brambles Farm,Middlesbrough,,,,,,0,UKOS,452645,519533,-1.187266,54.568292,BCT,MKD,OTH,,,,031,2005-07-06T00:00:00.000,2017-02-24T16:54:05.053,2,revise,active
079073216B,mbrdmga,,,Marshall Court,,,,Marshall Avenue,,Cranfield Avenue,,,,B,,SE,E0039246,Brambles Farm,Middlesbrough,,,,,,0,UKOS,452708,519524,-1.186288,54.568207,BCT,MKD,OTH,,,,031,2005-07-06T00:00:00.000,2020-05-04T11:36:01.318,5,revise,active
079073217A,mbrdmgd,,,Matford Avenue,,,,Ferndale Avenue,,Marshall Avenue,,,,A,,W,E0039246,Brambles Farm,Middlesbrough,,,,,,0,UKOS,452454,519479,-1.190229,54.567834,BCT,MKD,OTH,,,,031,2005-07-06T00:00:00.000,2017-02-24T17:07:39.148,2,revise,active
079073217B,mbrdmgj,,,Matford Avenue,,,,Ferndale Avenue,,Marshall Avenue,,,,B,,E,E0039246,Brambles Farm,Middlesbrough,,,,,,0,UKOS,452493,519514,-1.18962,54.568136,BCT,MKD,OTH,,,,031,2005-07-06T00:00:00.000,2017-02-24T17:14:07.145,2,revise,active
079073218A,mbrdmgm,,,Marshall Avenue Post Office,,,,Kedward Avenue,,Marshall Avenue,,,,A,,SW,E0039246,Brambles Farm,Middlesbrough,,,,,,0,UKOS,452273,519412,-1.19304,54.567251,BCT,MKD,OTH,,,,031,2005-07-06T00:00:00.000,2017-02-24T17:18:49.090,2,revise,active
079073218B,mbrdmgp,,,Marshall Avenue Post Office,,,,Kedward Avenue,,Marshall Avenue,,,,B,,NE,E0039246,Brambles Farm,Middlesbrough,,,,,,0,UKOS,452288,519442,-1.192803,54.567519,BCT,MKD,OTH,,,,031,2005-07-06T00:00:00.000,2017-02-24T18:26:13.105,2,revise,active
079073219A,mbrdmgt,,,Corpus Christi RC Primary School,,,,College Road,,Cargo Fleet Lane,,,,A,,SE,E0039263,Pallister,Middlesbrough,,,,,,0,UKOS,452327,519132,-1.192255,54.564729,BCT,MKD,TIP,,,,031,2005-07-06T00:00:00.000,2017-02-28T10:42:35.527,5,revise,active
079073219B,mbrdmgw,,,Corpus Christi RC Primary School,,,,College Road,,Cargo Fleet Lane,,,,B,,NW,E0039263,Pallister,Middlesbrough,,,,,,0,UKOS,452312,519127,-1.192487,54.564686,BCT,MKD,TIP,,,,031,2005-07-06T00:00:00.000,2017-02-28T11:25:44.701,3,revise,active
079073220A,mbrdmja,,,Hatherley Court,,,,Hatherley Court,,College Road,,,,A,,SW,N0070294,Thorntree,Middlesbrough,,,,,,0,UKOS,452551,519179,-1.1887766,54.5651235,BCT,MKD,OTH,,,,031,2005-07-06T00:00:00.000,2017-02-28T11:47:20.819,4,revise,active
079073220B,mbrdmjd,,,Hatherley Court,,,,Hatherley Court,,College Road,,,,B,,NE,N0070294,Thorntree,Middlesbrough,,,,,,0,UKOS,452599,519227,-1.1880258,54.5655499,BCT,MKD,OTH,,,,031,2005-07-06T00:00:00.000,2017-02-28T11:54:49.013,3,revise,active
079073221A,mbrdmjg,,,Beresford Buildings,,,,Barrington Crescent,,The Greenway,,,,A,,NW,N0070294,Thorntree,Middlesbrough,,,,,,0,UKOS,452866,519264,-1.183896,54.565851,BCT,MKD,OTH,,,,031,2005-07-06T00:00:00.000,2017-02-28T11:59:36.296,3,revise,active
079073221B,mbrdmjm,,,Beresford Buildings,,,,Spencerfield Crescent,,The Greenway,,,,B,,SE,N0070294,Thorntree,Middlesbrough,,,,,,0,UKOS,452914,519243,-1.183158,54.565657,BCT,MKD,OTH,,,,031,2005-07-06T00:00:00.000,2017-02-28T12:16:32.246,3,revise,active
079073222A,mbrdmjp,,,Loxley Road,,,,Spencerfield Crescent,,The Greenway,,,,A,,N,N0070294,Thorntree,Middlesbrough,,,,,,0,UKOS,453049,518997,-1.181114,54.563441,BCT,MKD,OTH,,,,031,2005-07-06T00:00:00.000,2017-02-28T12:47:35.569,2,revise,active
079073222B,mbrdmjt,,,Loxley Road,,,,Spencerfield Crescent,,The Greenway,,,,B,,S,N0070294,Thorntree,Middlesbrough,,,,,,0,UKOS,453082,518975,-1.180608,54.56324,BCT,MKD,OTH,,,,031,2005-07-06T00:00:00.000,2017-02-28T13:00:58.882,2,revise,active
079073223A,mbrdmjw,,,Primary School,,,,Roworth Road,,The Greenway,,,,A,,N,N0070294,Thorntree,Middlesbrough,,,,,,0,UKOS,453117,518640,-1.180127,54.560226,BCT,MKD,OTH,,,,031,2005-07-06T00:00:00.000,2017-02-28T13:08:37.471,2,revise,active
079073223B,mbrdmpa,,,Primary School,,,,Roworth Road,,The Greenway,,,,B,,S,N0070294,Thorntree,Middlesbrough,,,,,,0,UKOS,453131,518788,-1.179884,54.561546,BCT,MKD,OTH,,,,031,2005-07-06T00:00:00.000,2017-02-28T13:12:06.466,2,revise,active
079073224A,mbrdmpd,,,Shrewsbury Road,,,,Shrewsbury Road End,,The Greenway,,,,A,,SW,N0070294,Thorntree,Middlesbrough,,,,,,0,UKOS,453119,518455,-1.18013,54.558555,BCT,MKD,OTH,,,,031,2005-07-06T00:00:00.000,2017-02-28T13:28:43.317,3,revise,active
079073224B,mbrdmpg,,,Shrewsbury Road,,,,Kenmore Road End,,The Greenway,,,,B,,NE,N0070294,Thorntree,Middlesbrough,,,,,,0,UKOS,453025,518394,-1.181594,54.558025,BCT,MKD,OTH,,,,031,2005-07-06T00:00:00.000,2017-02-28T13:38:58.143,4,revise,active
079073225A,mbrdmpj,,,Durnford Road,,,,Kenmore Road,,The Greenway,,,,A,,NE,N0070294,Thorntree,Middlesbrough,,,,,,0,UKOS,452904,518335,-1.183475,54.557499,BCT,MKD,OTH,,,,031,2005-07-06T00:00:00.000,2017-02-28T14:34:43.264,2,revise,active
079073225B,mbrdmpm,,,Durnford Road,,,,Kenmore Road,,The Greenway,,,,B,,SW,N0070294,Thorntree,Middlesbrough,,,,,,0,UKOS,452872,518298,-1.183977,54.55717,BCT,MKD,OTH,,,,031,2005-07-06T00:00:00.000,2017-02-28T14:41:37.574,5,revise,active
079073227A,mbrdmpt,,,Kenmore Road,,,,Burwell Road,,Kenmore Road,,,,A,,SE,N0070291,Netherfields,Middlesbrough,,,,,,0,UKOS,453066,518248,-1.180986,54.556709,BCT,MKD,OTH,,,,031,2005-07-06T00:00:00.000,2017-02-28T14:45:10.731,3,revise,active
079073227B,mbrdmpw,,,Kenmore Road,,,,Burwell Road,,Kenmore Road,,,,B,,NW,N0070291,Netherfields,Middlesbrough,,,,,,0,UKOS,453031,518271,-1.181523,54.556919,BCT,MKD,OTH,,,,031,2005-07-06T00:00:00.000,2017-02-28T14:57:19.714,3,revise,active
079073228A,mbrdmta,,,Grasby Close,,,,Glentworth Avenue,,Fulbeck Road,,,,A,,E,N0070291,Netherfields,Middlesbrough,,,,,,0,UKOS,453208,518189,-1.178801,54.556164,BCT,MKD,OTH,,,,031,2005-07-06T00:00:00.000,2017-02-28T15:11:05.615,2,revise,active
079073228B,mbrdmtd,,,Grasby Close,,,,Grasby Close,,Fulbeck Road,,,,B,,W,N0070291,Netherfields,Middlesbrough,,,,,,0,UKOS,453136,518164,-1.179919,54.555947,BCT,MKD,OTH,,,,031,2005-07-06T00:00:00.000,2017-02-28T15:33:38.018,3,revise,active
079073229A,mbrdmtg,,,Fleet Close,,,,Tothill Avenue,,Fulbeck Road,,,,A,,S,N0070291,Netherfields,Middlesbrough,,,,,,0,UKOS,453394,517963,-1.175967,54.554105,BCT,MKD,OTH,,,,031,2005-07-06T00:00:00.000,2017-02-28T16:13:45.622,2,revise,active
079073229B,mbrdmtj,,,Fleet Close,,,,Tothill Avenue,,Fulbeck Road,,,,B,,N,N0070291,Netherfields,Middlesbrough,,,,,,0,UKOS,453331,518108,-1.176914,54.555423,BCT,MKD,OTH,,,,031,2005-07-06T00:00:00.000,2017-02-28T16:19:41.688,3,revise,active
079073230A,mbrdmtm,,,The Vaughan Shopping Centre,,,,Middlesbrough Grange Care Home,,Fulbeck Road,,,,A,,NW,N0070291,Netherfields,Middlesbrough,,,,,,0,UKOS,453173,517911,-1.179393,54.553661,BCT,MKD,OTH,,,,031,2005-07-06T00:00:00.000,2017-03-01T10:04:27.917,6,revise,active
079073230B,mbrdmtp,,,The Vaughan Shopping Centre,,,,Middlesbrough Grange Care Home,,Fulbeck Road,,,,B,,SE,N0070291,Netherfields,Middlesbrough,,,,,,0,UKOS,453202,517944,-1.178938,54.553963,BCT,MKD,OTH,,,,031,2005-07-06T00:00:00.000,2017-03-01T10:11:50.618,5,revise,active
079073230C,mbrdmtw,,,The Vaughan Shopping Centre,,,,Middlesbrough Grange Care Home,,Fulbeck Road,,,,C,,SE,N0070291,Netherfields,Middlesbrough,,,,,,0,UKOS,453172,517935,-1.179404,54.553885,BCT,MKD,OTH,,,,031,2005-07-06T00:00:00.000,2017-03-01T10:29:05.647,5,revise,active
079073231A,mbrdmwa,,,Roundabout - High Street,,,,Cargo Fleet Lane,,High Street,,,,A,,E,E0041558,Ormesby,,,,,,,0,UKOS,453028,517470,-1.1817077,54.5497165,BCT,MKD,TIP,,,,031,2005-07-06T00:00:00.000,2018-05-08T11:09:33.823,5,revise,active
079073231C,mbrdmwd,,,Crossroads,,,,High Street,,Cargo Fleet Lane,,,,3,,S,E0041558,Ormesby,,,,,,,0,UKOS,453105,517623,-1.1804899,54.5510834,BCT,MKD,TIP,,,,031,2005-07-06T00:00:00.000,2018-12-17T14:44:20.606,6,revise,inactive
079073231D,mbrdmwg,,,Crossroads,,,,High Street,,Cargo Fleet Lane,,,,4,,N,E0041558,Ormesby,,,,,,,0,UKOS,453106,517583,-1.1804816,54.5507238,BCT,MKD,TIP,,,,031,2005-07-06T00:00:00.000,2018-12-17T14:44:32.389,6,revise,inactive
079073232A,mbrdmwj,,,Leamington Grove,,,,Somerville Avenue,,Cargo Fleet Lane,,,,A,,SE,N0070291,Netherfields,Middlesbrough,,,,,,0,UKOS,453015,517809,-1.181854,54.552761,BCT,MKD,TIP,,,,031,2005-07-06T00:00:00.000,2017-03-01T10:39:21.072,3,revise,active
079073232B,mbrdmwm,,,Leamington Grove,,,,Fulbeck Road,,Cargo Fleet Lane,,,,B,,NW,N0070291,Netherfields,Middlesbrough,,,,,,0,UKOS,452964,517864,-1.182632,54.553269,BCT,MKD,TIP,,,,031,2005-07-06T00:00:00.000,2017-03-01T10:59:24.069,3,revise,active
079073233A,mbrdmwp,,,The Greenway South End,,,,The Greenway,,Cargo Fleet Lane,,,,A,,SE,N0070294,Thorntree,Middlesbrough,,,,,,0,UKOS,452726,518139,-1.186262,54.555765,BCT,MKD,TIP,,,,031,2005-07-06T00:00:00.000,2017-03-01T11:19:44.162,2,revise,active
079073233B,mbrdmwt,,,The Greenway South End,,,,Cargo Fleet Lane,,Cargo Fleet Lane,,,,B,,NW,N0070294,Thorntree,Middlesbrough,,,,,,0,UKOS,452636,518245,-1.187635,54.556727,BCT,MKD,TIP,,,,031,2005-07-06T00:00:00.000,2017-03-01T11:23:47.310,2,revise,active
079073233C,mbrdpad,,,The Greenway South End,,,,Cargo Fleet Lane,,The Greenway,,,,C,,NE,N0070294,Thorntree,Middlesbrough,,,,,,0,UKOS,452731,518242,-1.186166,54.55669,BCT,MKD,OTH,,,,031,2005-07-06T00:00:00.000,2017-03-01T11:26:07.932,2,revise,active
079073234A,mbrdpag,,,Fleet House,,,,RC School,,Cargo Fleet Lane,,,,A,,S,N0070294,Thorntree,Middlesbrough,,,,,,0,UKOS,452511,518551,-1.189513,54.559481,BCT,MKD,TIP,,,,031,2005-07-06T00:00:00.000,2018-03-19T14:31:59.316,2,revise,active
079073234B,mbrdpaj,,,Ruth Avenue,,,,Ruth Avenue,,Cargo Fleet Lane,,,,2,,N,N0070294,Thorntree,Middlesbrough,,,,,,0,UKOS,452464,518689,-1.190215,54.560734,BCT,MKD,TIP,,,,031,2005-07-06T00:00:00.000,2018-12-17T14:44:45.844,4,revise,inactive
079073235A,mbrdpam,,,Cherwell Terrace,,,,TA Centre,,Longlands Road,,,,A,,W,E0039246,Brambles Farm,Middlesbrough,,,,,,0,UKOS,452562,519722,-1.188516,54.569998,BCT,MKD,OTH,,,,031,2005-07-06T00:00:00.000,2020-05-04T11:45:07.049,3,revise,active
079073235B,mbrdpap,,,Cherwell Terrace,,,,TA Centre,,Longlands Road,,,,B,,E,E0039246,Brambles Farm,Middlesbrough,,,,,,0,UKOS,452570,519745,-1.188388,54.570204,BCT,MKD,OTH,,,,031,2005-07-06T00:00:00.000,2020-05-04T11:45:22.403,3,revise,active
079073238A,mbrdpat,,,Queensway,,,,Westerly Road,,South Bank Road,,,,A,,E,E0039248,Cargo Fleet,Middlesbrough,,,,,,0,UKOS,452005,520135,-1.197057,54.573775,BCT,MKD,OTH,,,,031,2005-07-06T00:00:00.000,2017-03-01T12:40:43.602,2,revise,active
079073238B,mbrdpaw,,,Queensway,,,,Westerly Road,,South Bank Road,,,,B,,W,E0039248,Cargo Fleet,Middlesbrough,,,,,,0,UKOS,452133,520155,-1.195074,54.573933,BCT,MKD,OTH,,,,031,2005-07-06T00:00:00.000,2017-03-01T12:42:04.735,2,revise,active
079073239A,mbrdpda,,,Pine Street,,,,Abattoir,,South Bank Road,,,,A,,E,E0039248,Cargo Fleet,Middlesbrough,,,,,,0,UKOS,451795,520127,-1.200307,54.573716,BCT,MKD,OTH,,,,031,2005-07-06T00:00:00.000,2017-03-01T12:58:42.263,5,revise,active
079073239B,mbrdpdg,,,Pine Street,,,,Abattoir,,SOUTH BANK ROAD,,,,B,,W,E0039248,Cargo Fleet,Middlesbrough,,,,,,0,UKOS,451964,520113,-1.197695,54.573577,BCT,MKD,OTH,,,,031,2005-07-06T00:00:00.000,2017-03-01T13:06:59.286,5,revise,active
079073242A,mbrdpdj,,,West Terrace,,,,Middlehaven Interchange,,Borough Road,,,,A,,SW,E0039261,North Ormesby,Middlesbrough,,,,,,0,UKOS,450755,519962,-1.216421,54.572347,BCT,MKD,OTH,,,,031,2005-07-06T00:00:00.000,2017-03-02T10:08:25.582,3,revise,active
079073242B,mbrdpdm,,,West Terrace,,,,Middlehaven Interchange,,Borough Road,,,,B,,NE,E0039261,North Ormesby,Middlesbrough,,,,,,0,UKOS,450705,519985,-1.21719,54.572559,BCT,MKD,OTH,,,,031,2005-07-06T00:00:00.000,2017-03-02T10:32:45.021,3,revise,active
079073243A,mbrdpdp,,,Elstone Road,,,,Douglas Street,,Borough Road,,,,A,,W,E0039258,Middlesbrough,,,,,,,0,UKOS,450309,519897,-1.22333,54.571799,BCT,MKD,OTH,,,,031,2005-07-06T00:00:00.000,2017-03-02T10:46:13.925,4,revise,active
079073243B,mbrdpdt,,,Elstone Road,,,,Douglas Street,,Borough Road,,,,B,,E,E0039258,Middlesbrough,,,,,,,0,UKOS,450305,519915,-1.223389,54.571961,BCT,MKD,OTH,,,,031,2005-07-06T00:00:00.000,2017-03-02T11:00:59.330,3,revise,active
079073244B,mbrdwtp,,,Longhirst,,,,Longhirst,,GUNNERGATE LANE,,,,B,,S,N0070295,Coulby Newham,,,,,,,0,UKOS,451230,514453,-1.21003,54.522795,BCT,MKD,OTH,,,,031,2011-10-14T14:59:41.000,2018-03-19T15:10:57.436,3,revise,active
079073244C,mbrdpdw,,,Longhirst,,,,Longhirst,,Gunnergate Lane,,,,3,,N,N0070295,Coulby Newham,,,,,,,0,UKOS,451215,514423,-1.210268,54.522528,BCT,MKD,OTH,,,,031,2005-07-06T00:00:00.000,2018-12-17T14:45:13.721,6,revise,inactive
079073245A,mbrdpga,,,Parkway Shopping Centre,,,,Parkway Centre,,Dalby Way,,,,A,,E,N0070295,Coulby Newham,,,,,,,0,UKOS,450957,514632,-1.214217,54.524432,BCT,MKD,OTH,,,,031,2005-07-06T00:00:00.000,2017-03-02T11:19:42.550,3,revise,active
079073245B,mbrdpgd,,,Parkway Shopping Centre,,,,Parkway Centre,,Dalby Way,,,,B,,E,N0070295,Coulby Newham,,,,,,,0,UKOS,450986,514634,-1.213769,54.524447,BCT,MKD,TIP,,,,031,2005-07-06T00:00:00.000,2017-03-02T11:29:59.303,4,revise,active
079073245C,mbrdpgj,,,Parkway Shopping Centre,,,,Parkway Centre,,Dalby Way,,,,C,,W,N0070295,Coulby Newham,,,,,,,0,UKOS,450979,514617,-1.21388,54.524295,BCT,MKD,OTH,,,,031,2005-07-06T00:00:00.000,2017-03-02T11:36:22.849,3,revise,active
079073246A,mbrdpgm,,,Fiske Court,,,,Duddon Sands,,Baldoon Sands,,,,A,,W,E0039247,Brookfield,Middlesbrough,,,,,,0,UKOS,447975,515407,-1.260159,54.531687,BCT,MKD,OTH,,,,031,2005-07-06T00:00:00.000,2017-03-02T11:41:37.858,3,revise,active
079073247A,mbrdpgp,,,Gore Sands,,,,Gore Sands,,Baldoon Sands,,,,A,,NW,E0039247,Brookfield,Middlesbrough,,,,,,0,UKOS,447534,515491,-1.26696,54.532483,BCT,MKD,OTH,,,,031,2005-07-06T00:00:00.000,2017-03-02T11:47:26.298,3,revise,active
079073248A,mbrdpgt,,,Brackenthwaite,,,,Brackenthwaite Sands,,Baldoon Sands,,,,A,,S,E0039247,Brookfield,Middlesbrough,,,,,,0,UKOS,447722,515617,-1.264035,54.533589,BCT,MKD,OTH,,,,031,2005-07-06T00:00:00.000,2017-03-02T11:54:54.920,3,revise,active
079073249A,mbrdpgw,,,The Coulby Farm,,,,The Garth,,Coulby Farm Way,,,,A,,S,N0070295,Coulby Newham,,,,,,,0,UKOS,450695,513813,-1.218405,54.517099,BCT,MKD,OTH,,,,031,2005-07-06T00:00:00.000,2017-03-02T12:08:07.067,3,revise,active
079073249B,mbrdpja,,,The Coulby Farm,,,,The Garth,,Coulby Farm Way,,,,B,,N,N0070295,Coulby Newham,,,,,,,0,UKOS,450666,513819,-1.218852,54.517155,BCT,MKD,OTH,,,,031,2005-07-06T00:00:00.000,2017-03-02T13:23:19.687,3,revise,active
079073250A,mbrdpjd,,,Ruth Avenue,,,,Cobblewood Crescent,,Cargo Fleet Lane,,,,A,,S,N0070294,Thorntree,Middlesbrough,,,,,,0,UKOS,452462,518805,-1.190225,54.561777,BCT,MKD,TIP,,,,031,2005-07-06T00:00:00.000,2018-12-17T14:44:59.434,6,revise,inactive
079073251A,mbrdpjg,,,Richmond Street,,,,Richmond Street,,Snowdon Road,,,,NE bound,,NE,E0039258,Middlesbrough,,,,,,,0,UKOS,449220,521008,-1.239987,54.581898,BCT,CUS,OTH,,,,031,2005-07-06T00:00:00.000,2017-02-13T14:08:06.923,2,revise,active
079073251B,mbrdpjm,,,Richmond Street,,,,Richmond Street,,Snowdon Road,,,,SW bound,,SW,E0039258,Middlesbrough,,,,,,,0,UKOS,449229,520974,-1.239854,54.581583,BCT,CUS,OTH,,,,031,2005-07-06T00:00:00.000,2017-02-13T14:08:30.168,3,revise,active
079073252A,mbrdpjp,,,Mickleton Road,,,,Startforth Road,,Mickleton Road,,,,A,,NW,E0039258,Middlesbrough,,,,,,,0,UKOS,448518,521504,-1.250766,54.586414,BCT,MKD,OTH,,,,031,2005-07-06T00:00:00.000,2017-03-02T14:42:04.926,3,revise,active
079073252B,mbrdpjt,,,Mickleton Road,,,,Mickleton Road,,Mickleton Road,,,,SE bound,,SE,E0039258,Middlesbrough,,,,,,,0,UKOS,448526,521523,-1.250639,54.586584,BCT,CUS,OTH,,,,031,2005-07-06T00:00:00.000,2020-05-04T11:47:36.087,5,revise,active
079073253A,mbrdpjw,,,Jack Simon Way,,,,Stainton Lane Roundabout,,LOW LANE,,,,A,,N,E0039247,Brookfield,Middlesbrough,,,,,,0,UKOS,448058,515096,-1.258921,54.528877,BCT,MKD,OTH,,,,031,2005-07-06T00:00:00.000,2016-11-11T14:09:58.473,3,revise,active
079073253B,mbrdpma,,,Jack Simon Way,,,,Stainton Lane Roundabout,,Low Lane,,,,B,,S,E0039247,Brookfield,Middlesbrough,,,,,,0,UKOS,448075,515042,-1.258674,54.528397,BCT,MKD,OTH,,,,031,2005-07-06T00:00:00.000,2016-11-11T14:09:48.955,3,revise,active
079073254A,mbrdpmd,,,Whorlton Road,,,,Dinosaur Park,,Riverside Park Road,,,,A,,E,E0039258,Middlesbrough,,,,,,,0,UKOS,448641,521748,-1.248823,54.588595,BCT,MKD,TIP,,,,031,2005-07-06T00:00:00.000,2017-03-02T17:15:53.198,6,revise,active
079073254B,mbrdpmg,,,Forest Grove,,,,Forest Grove,,Riverside Park Road,,,,W bound,,W,E0039258,Middlesbrough,,,,,,,0,UKOS,448590,521710,-1.249618,54.588258,BCT,CUS,TIP,,,,031,2005-07-06T00:00:00.000,2012-08-29T14:02:56.000,3,revise,inactive
079073255A,mbrdpmj,,,Eggleston Court,,,,Stephenson House,,Startforth Road,,,,W bound,,W,E0039258,Middlesbrough,,,,,,,0,UKOS,448352,521298,-1.253368,54.584579,BCT,CUS,OTH,,,,031,2005-07-06T00:00:00.000,2017-02-13T14:09:08.513,2,revise,active
079073255B,mbrdpmp,,,Eggleston Court,,,,Stephenson House,,Startforth Road,,,,B,,E,E0039258,Middlesbrough,,,,,,,0,UKOS,448383,521306,-1.252887,54.584648,BCT,MKD,OTH,,,,031,2005-07-06T00:00:00.000,2017-03-03T11:30:15.730,3,revise,active
079073256A,mbrdpmt,,,Southwood,,,,Southwood,,Coulby Farm Way,,,,A,,W,N0070295,Coulby Newham,,,,,,,0,UKOS,450869,513521,-1.215768,54.514457,BCT,MKD,TIP,,,,031,2005-07-06T00:00:00.000,2017-03-03T11:50:37.390,3,revise,active
079073257A,mbrdpmw,,,Hollowfield,,,,Hollowfield Crossroads,,Manor Farm Way,,,,A,,S,N0070295,Coulby Newham,,,,,,,0,UKOS,450351,514956,-1.223524,54.527404,BCT,MKD,OTH,,,,031,2005-07-06T00:00:00.000,2017-03-03T11:58:38.836,4,revise,active
079073257B,mbrdpta,,,Hollowfield,,,,Hollowfield Crossroads,,Manor Farm Way,,,,B,,N,N0070295,Coulby Newham,,,,,,,0,UKOS,450331,514959,-1.223832,54.527433,BCT,MKD,OTH,,,,031,2005-07-06T00:00:00.000,2017-03-03T12:07:07.933,4,revise,active
079073258A,mbrdptd,,,Sunnyside Academy,,,,Sunnyside,,Manor Farm Way,,,,A,,W,N0070295,Coulby Newham,,,,,,,0,UKOS,450137,514874,-1.226844,54.526688,BCT,MKD,OTH,,,,031,2005-07-06T00:00:00.000,2017-03-03T12:14:19.892,3,revise,active
079073258B,mbrdptg,,,Sunnyside Academy,,,,Sunnyside,,Manor Farm Way,,,,B,,E,N0070295,Coulby Newham,,,,,,,0,UKOS,450141,514889,-1.22678,54.526823,BCT,MKD,OTH,,,,031,2005-07-06T00:00:00.000,2017-03-03T12:21:06.762,2,revise,active
079073260A,mbrdptj,,,Cedar Drive,,,,Cedar Drive,,Seamer Road,,,,S bound,,S,E0039267,Thornton,,,,,,,0,UKOS,447941,513626,-1.260974,54.515686,BCT,CUS,OTH,,,,031,2005-07-06T00:00:00.000,2011-01-31T10:39:48.000,3,revise,active
079073260B,mbrdptm,,,Cedar Drive,,,,Cedar Drive,,Seamer Road,,,,N bound,,N,E0039267,Thornton,,,,,,,0,UKOS,447917,513626,-1.261344,54.515688,BCT,CUS,OTH,,,,031,2005-07-06T00:00:00.000,2011-01-31T10:39:40.000,3,revise,active
079073261A,mbrdptp,,,St Austell Close,,,,Briscoe Way,,Hemlington Hall Road,,,,A,,NE,E0039253,Hemlington,,,,,,,0,UKOS,448256,514694,-1.255934,54.525253,BCT,MKD,OTH,,,,031,2005-07-06T00:00:00.000,2017-03-03T12:37:31.209,2,revise,active
079073261B,mbrdptw,,,St Austell Close,,,,Briscoe Way,,Hemlington Hall Road,,,,B,,SW,E0039253,Hemlington,,,,,,,0,UKOS,448251,514666,-1.256016,54.525002,BCT,MKD,OTH,,,,031,2005-07-06T00:00:00.000,2017-03-03T15:31:28.139,2,revise,active
079073262A,mbrdpwa,,,Marton Crossroads West,,,,Tudor Lodge,,Ladgate Lane,,,,A,,NE,E0039268,Marton Manor,Middlesbrough,,,,,,0,UKOS,451103,516406,-1.211655,54.540358,BCT,MKD,OTH,,,,031,2005-07-06T00:00:00.000,2017-03-03T15:50:44.435,2,revise,active
079073262B,mbrdpwd,,,Marton Crossroads West,,,,Tudor Lodge,,Ladgate Lane,,,,B,,SW,E0039268,Marton Manor,Middlesbrough,,,,,,0,UKOS,451065,516346,-1.212252,54.539823,BCT,MKD,OTH,,,,031,2005-07-06T00:00:00.000,2017-03-03T16:12:24.390,3,revise,active
079073263A,mbrdpwg,,,Newlands Medical Centre,,,,Stamford Street,,MARTON ROAD,,,,A,,S,E0039258,Middlesbrough,,,,,,,0,UKOS,450184,519811,-1.225277,54.571044,BCT,MKD,OTH,,,,031,2005-07-06T00:00:00.000,2017-03-03T16:18:09.373,3,revise,active
079073263B,mbrdpwj,,,Newlands Medical Centre,,,,Stamford Street,,MARTON ROAD,,,,B,,N,E0039258,Middlesbrough,,,,,,,0,UKOS,450159,519864,-1.225654,54.57152,BCT,MKD,OTH,,,,031,2005-07-06T00:00:00.000,2017-03-03T16:35:50.316,3,revise,active
079073264A,mbrdpwm,,,Metz Bridge Court,,,,Caravan Site,,Riverside Park Road,,,,A,,NW,E0039258,Middlesbrough,,,,,,,0,UKOS,448184,520531,-1.256093,54.577711,BCT,MKD,OTH,,,,031,2005-07-06T00:00:00.000,2017-03-03T16:51:41.400,5,revise,active
079073265A,mbrdpwp,,,Raleigh Court,,,,Raleigh Court,,Riverside Park Road,,,,A,,N,E0039258,Middlesbrough,,,,,,,0,UKOS,448170,520830,-1.256261,54.580391,BCT,MKD,OTH,,,,031,2005-07-06T00:00:00.000,2017-03-03T17:04:27.447,2,revise,active
079073266A,mbrdpwt,,,The Gazette,,,,Drake Court,,Riverside Park Road,,,,A,,N,E0039258,Middlesbrough,,,,,,,0,UKOS,448261,521143,-1.254802,54.583195,BCT,MKD,OTH,,,,031,2005-07-06T00:00:00.000,2017-03-03T17:08:03.085,3,revise,active
079073267A,mbrdtad,,,Cleveland Cable Company,,,,Cleveland Cable Company,,Riverside Park Road,,,,A,,S,E0039258,Middlesbrough,,,,,,,0,UKOS,448512,520520,-1.251021,54.577581,BCT,MKD,OTH,,,,031,2005-07-06T00:00:00.000,2017-03-07T10:32:06.231,5,revise,active
079073268A,mbrdtag,,,Botanic Centre End,,,,Botanic Centre,,Sandy Flatts Lane,,,,1,,S,E0039247,Brookfield,Middlesbrough,,,,,,0,UKOS,449340,515821,-1.238999,54.535276,BCT,MKD,OTH,,,,031,2005-07-06T00:00:00.000,2013-06-18T17:32:21.000,2,revise,inactive
079073269A,mbrdtaj,,,Oxford Street,,,,Oxford Street,,Ayresome Street,,,,1,,E,E0039243,Ayresome,Middlesbrough,,,,,,0,UKOS,448966,519181,-1.244221,54.565505,BCT,MKD,OTH,,,,031,2005-07-06T00:00:00.000,2013-03-18T10:46:18.000,3,revise,inactive
079073269B,mbrdtam,,,Oxford Street,,,,Oxford Street,,Ayresome Street,,,,2,,W,E0039243,Ayresome,Middlesbrough,,,,,,0,UKOS,449006,519168,-1.243604,54.565376,BCT,MKD,OTH,,,,031,2005-07-06T00:00:00.000,2013-03-18T10:47:37.000,2,revise,inactive
079073270A,mbrdtap,,,Bonny Grove,,,,Eagle Park,,Fulford Way,,,,A,,E,E0039255,Marton,,,,,,,0,UKOS,452619,514215,-1.188616,54.520515,BCT,MKD,TIP,,,,031,2005-07-06T00:00:00.000,2017-03-07T11:11:21.180,2,revise,active
079073270B,mbrdtat,,,Bonny Grove,,,,Eagle Park,,Fulford Way,,,,B,,W,E0039255,Marton,,,,,,,0,UKOS,452597,514210,-1.188957,54.520473,BCT,MKD,TIP,,,,031,2005-07-06T00:00:00.000,2017-03-07T11:21:21.193,3,revise,active
079073271A,mbrdtaw,,,The Fairway,,,,Turnberry Way,,The Fairway,,,,A,,SE,E0039255,Marton,,,,,,,0,UKOS,452276,514496,-1.193865,54.523076,BCT,MKD,OTH,,,,031,2005-07-06T00:00:00.000,2017-03-07T11:32:39.431,2,revise,active
079073271B,mbrdtda,,,The Fairway,,,,Turnberry Way,,The Fairway,,,,B,,NW,E0039255,Marton,,,,,,,0,UKOS,452270,514477,-1.193961,54.522906,BCT,MKD,TIP,,,,031,2005-07-06T00:00:00.000,2017-03-07T11:41:56.956,3,revise,active
079073272A,mbrdtdg,,,The Pastures,,,,The Pastures,,Bonnygrove Way,,,,A,,E,N0070295,Coulby Newham,,,,,,,0,UKOS,451269,514104,-1.209489,54.519656,BCT,MKD,OTH,,,,031,2005-07-06T00:00:00.000,2017-03-07T11:46:42.909,2,revise,active
079073273A,mbrdtdj,,,Dewberry,,,,Dewberry,,Bonnygrove Way,,,,A,,S,N0070295,Coulby Newham,,,,,,,0,UKOS,451520,513989,-1.205632,54.518597,BCT,MKD,TIP,,,,031,2005-07-06T00:00:00.000,2017-03-07T11:53:30.995,3,revise,active
079073274A,mbrdtdm,,,Fairwood Park,,,,Fairwood Park,,Turnberry Way,,,,A,,S,E0039255,Marton,,,,,,,0,UKOS,452164,514359,-1.195619,54.521856,BCT,MKD,OTH,,,,031,2005-07-06T00:00:00.000,2020-05-04T12:10:14.844,4,revise,active
079073274B,mbrdtdp,,,Fairwood Park,,,,Fairwood Park,,Turnberry Way,,,,B,,NE,E0039255,Marton,,,,,,,0,UKOS,452163,514380,-1.195631,54.522045,BCT,MKD,OTH,,,,031,2005-07-06T00:00:00.000,2020-05-04T12:34:39.743,4,revise,active
079073275A,mbrdtdt,,,Kedlestone Park,,,,Kedlestone Park,,Turnberry Way,,,,A,,SE,E0039255,Marton,,,,,,,0,UKOS,452243,514148,-1.194436,54.519952,BCT,MKD,OTH,,,,031,2005-07-06T00:00:00.000,2017-03-08T11:25:22.744,3,revise,active
079073275B,mbrdtdw,,,Kedlestone Park,,,,Kedlestone Park,,Turnberry Way,,,,B,,NW,E0039255,Marton,,,,,,,0,UKOS,452186,514190,-1.195309,54.520335,BCT,MKD,OTH,,,,031,2005-07-06T00:00:00.000,2017-03-08T11:35:02.418,3,revise,active
079073276A,mbrdtga,,,Astbury,,,,Astbury,,Turnberry Way,,,,A,,NE,E0039255,Marton,,,,,,,0,UKOS,452395,514056,-1.192104,54.51911,BCT,MKD,OTH,,,,031,2005-07-06T00:00:00.000,2020-05-04T12:35:20.772,3,revise,active
079073276B,mbrdtgd,,,Astbury,,,,Astbury,,Turnberry Way,,,,B,,SW,E0039255,Marton,,,,,,,0,UKOS,452424,514049,-1.191658,54.519044,BCT,MKD,OTH,,,,031,2005-07-06T00:00:00.000,2020-05-04T12:35:32.889,4,revise,active
079073277A,mbrdtgj,,,Middlesbrough House,,,,Town Hall,,Corporation Road,,,,Stand A,,E,E0039258,Middlesbrough,,,,,,,1,UKOS,449654,520385,-1.233378,54.576249,BCT,MKD,TIP,,,,031,2005-07-06T00:00:00.000,2018-03-19T16:07:10.466,4,revise,active
079073277B,mbrdtgm,,,Town Hall,,,,Town Hall,,Corporation Road,,,,Stand G,,W,E0039258,Middlesbrough,,,,,,,1,UKOS,449608,520371,-1.234092,54.576136,BCT,MKD,TIP,,,,031,2005-07-06T00:00:00.000,2018-03-19T15:20:33.499,5,revise,active
079073277C,mbrdtgp,,,Middlesbrough House,,,,Town Hall,,Corporation Road,,,,Stand C,,E,E0039258,Middlesbrough,,,,,,,1,UKOS,449683,520383,-1.23293,54.576228,BCT,MKD,TIP,,,,031,2005-07-06T00:00:00.000,2018-03-19T15:25:08.241,4,revise,active
079073277D,mbrdtgt,,,Middlesbrough House,,,,Town Hall,,Corporation Road,,,,Stand B,,E,E0039258,Middlesbrough,,,,,,,1,UKOS,449668,520382,-1.233162,54.576229,BCT,MKD,TIP,,,,031,2005-07-06T00:00:00.000,2018-03-19T15:36:27.423,5,revise,active
079073277E,mbrdtgw,,,Middlesbrough House,,,,Town Hall,,Corporation Road,,,,Stand F,,W,E0039258,Middlesbrough,,,,,,,1,UKOS,449702,520361,-1.23264,54.576037,BCT,MKD,TIP,,,,031,2005-07-06T00:00:00.000,2018-03-19T15:38:32.862,4,revise,active
079073277F,mbrdtja,,,Middlesbrough House,,,,Town Hall,,Corporation Road,,,,Stand E,,W,E0039258,Middlesbrough,,,,,,,1,UKOS,449723,520359,-1.232315,54.576017,BCT,MKD,TIP,,,,031,2005-07-06T00:00:00.000,2018-03-19T15:40:07.082,4,revise,active
079073278A,mbrdtjd,,,Town Hall,,,,Town Hall,,Albert Road,,,,Stand L,,S,E0039258,Middlesbrough,,,,,,,1,UKOS,449572,520291,-1.234663,54.575412,BCT,MKD,TIP,,,,031,2005-07-06T00:00:00.000,2018-06-25T11:50:59.934,5,revise,active
079073278B,mbrdtjg,,,Town Hall,,,,Town Hall,,Albert Road,,,,Stand K,,S,E0039258,Middlesbrough,,,,,,,1,UKOS,449573,520302,-1.234645,54.575511,BCT,MKD,TIP,,,,031,2005-07-06T00:00:00.000,2018-06-25T11:51:19.474,5,revise,active
079073278C,mbrdtjm,,,Albert Road - Cleveland Centre,,,,Town Hall,,Albert Road,,,,Stand L,,N,E0039258,Middlesbrough,,,,,,,1,UKOS,449549,520260,-1.235024,54.575136,BCT,MKD,TIP,,,,031,2005-07-06T00:00:00.000,2015-09-10T00:00:00.000,5,revise,inactive
079073278D,mbrdtjp,,,Town Hall,,,,Town Hall,,Albert Road,,,,Stand J,,S,E0039258,Middlesbrough,,,,,,,1,UKOS,449574,520312,-1.234628,54.575609,BCT,MKD,TIP,,,,031,2005-07-06T00:00:00.000,2018-06-25T11:51:40.212,5,revise,active
079073278E,mbrdtjt,,,Town Hall,,,,Town Hall,,Albert Road,,,,Stand H,,S,E0039258,Middlesbrough,,,,,,,1,UKOS,449579,520348,-1.234545,54.575932,BCT,MKD,TIP,,,,031,2005-07-06T00:00:00.000,2018-03-19T16:33:36.711,4,revise,active
079073278F,mbrdtjw,,,Centre Square,,,,Centre Square,,Albert Road,,,,Stand M,,S,E0039258,Middlesbrough,,,,,,,1,UKOS,449561,520204,-1.234847,54.57464,BCT,MKD,TIP,,,,031,2005-07-06T00:00:00.000,2018-06-25T11:50:38.183,7,revise,active
079073278G,mbrdtma,,,Centre Square,,,,Centre Square,,Albert Road,,,,Stand N,,S,E0039258,Middlesbrough,,,,,,,1,UKOS,449558,520184,-1.234897,54.574452,BCT,MKD,TIP,,,,031,2005-07-06T00:00:00.000,2018-06-25T11:50:14.980,6,revise,active
079073278J,mbrdtmd,,,Town Hall,,,,Town Hall,,Albert Road,,,,Stand T,,N,E0039258,Middlesbrough,,,,,,,1,UKOS,449549,520260,-1.235024,54.575136,BCT,MKD,TIP,,,,031,2005-07-06T00:00:00.000,2018-03-19T16:51:57.931,7,revise,active
079073278K,mbrdtmg,,,Albert Road - Cleveland Centre,,,,Town Hall,,Albert Road,,,,Stand K,,N,E0039258,Middlesbrough,,,,,,,1,UKOS,449549,520249,-1.235025,54.575037,BCT,MKD,TIP,,,,031,2005-07-06T00:00:00.000,2015-09-10T00:00:00.000,5,revise,inactive
079073279A,mbrdtmj,,,Cleveland Centre,,,,Albert Road,,Grange Road,,,,Stand O,,W,E0039258,Middlesbrough,,,,,,,1,UKOS,449474,520155,-1.236201,54.574208,BCT,MKD,TIP,,,,031,2005-07-06T00:00:00.000,2018-03-19T16:56:33.314,5,revise,active
079073279B,mbrdtmp,,,Cleveland Centre,,,,Albert Road,,Grange Road,,,,Stand P,,W,E0039258,Middlesbrough,,,,,,,1,UKOS,449457,520158,-1.236464,54.574228,BCT,MKD,TIP,,,,031,2005-07-06T00:00:00.000,2018-06-25T11:54:38.538,6,revise,active
079073279C,mbrdtmt,,,Cleveland Centre,,,,Albert Road,,Grange Road,,,,Stand Q,,W,E0039258,Middlesbrough,,,,,,,1,UKOS,449442,520159,-1.236695,54.574247,BCT,MKD,TIP,,,,031,2005-07-06T00:00:00.000,2018-06-25T11:52:20.709,6,revise,active
079073279D,mbrdtmw,,,Cleveland Centre,,,,Albert Road,,GRANGE ROAD,,,,Stand R,,E,E0039258,Middlesbrough,,,,,,,1,UKOS,449475,520174,-1.236179,54.574376,BCT,MKD,TIP,,,,031,2005-07-06T00:00:00.000,2018-03-19T17:07:45.872,5,revise,active
079073280A,mbrdtpa,,,Trinity Catholic College Sixth Form,,,,College Entrance,,Saltersgill Avenue,,,,adj,,N,N0070292,Saltersgill,Middlesbrough,,,,,,0,UKOS,449860,516989,-1.230766,54.545721,BCT,CUS,OTH,,,,031,2005-07-06T00:00:00.000,2016-03-02T14:44:32.000,5,revise,active
079073281A,mbrdtpd,,,Ash Green,,,,Ash Green,,Mount Pleasant Way,,,,A,,SW,N0070295,Coulby Newham,,,,,,,0,UKOS,451206,513764,-1.210526,54.516606,BCT,MKD,OTH,,,,031,2005-07-06T00:00:00.000,2020-05-04T12:38:16.223,7,revise,active
079073282A,mbrdtpg,,,Secondary School,,,,School Entrance,,Manor Farm Way,,,,N bound,,N,N0070295,Coulby Newham,,,,,,,0,UKOS,450535,514744,-1.220717,54.525481,BCT,CUS,OTH,,,,031,2005-07-06T00:00:00.000,2017-02-13T13:00:43.103,5,revise,inactive
079073283A,mbrdtpj,,,Cineworld Cinemas,,,,Cineworld,,Marton Road,,,,A,,NW,E0039258,Middlesbrough,,,,,,,0,UKOS,449996,520340,-1.228096,54.575811,BCT,MKD,TIP,,,,031,2005-07-06T00:00:00.000,2017-03-08T13:13:41.073,4,revise,active
079073283B,mbrdtpm,,,Cineworld Cinemas,,,,Cineworld,,Marton Road,,,,B,,S,E0039258,Middlesbrough,,,,,,,0,UKOS,450068,520267,-1.226995,54.575148,BCT,MKD,TIP,,,,031,2005-07-06T00:00:00.000,2017-03-08T13:36:12.479,3,revise,active
079073284A,mbrdtpt,,,St Thomas More School,,,,School Entrance,,ERITH GROVE,,,,NE bound,,NE,N0070293,Easterside,Middlesbrough,,,,,,0,UKOS,450680,516491,-1.218185,54.541159,BCT,CUS,OTH,,,,031,2005-07-06T00:00:00.000,2020-05-11T10:26:34.643,8,revise,active
079073285A,mbrdtpw,,,Chevin Walk,,,,Chevin Walk,,Crossfell Road,,,,A,,W,E0039245,Berwick Hills,Middlesbrough,,,,,,0,UKOS,451334,518437,-1.207731,54.558577,BCT,MKD,OTH,,,,031,2005-07-06T00:00:00.000,2017-03-08T13:52:20.012,3,revise,active
079073286A,mbrdtwa,,,Pine Hill,,,,Pine Hill,,Gunnergate Lane,,,,A,,SE,N0070295,Coulby Newham,,,,,,,0,UKOS,451380,514633,-1.207682,54.524398,BCT,MKD,OTH,,,,031,2005-07-06T00:00:00.000,2017-03-08T14:29:09.465,5,revise,active
079073286B,mbrgada,,,Pine Hill,,,,Pine Hill,,Gunnergate Lane,,,,B,,NW,N0070295,Coulby Newham,,,,,,,0,UKOS,451363,514620,-1.207947,54.524283,BCT,MKD,OTH,,,,031,2011-10-14T15:04:17.000,2018-11-28T12:12:06.215,3,revise,active
079073287A,mbrdtwd,,,Woodvale,,,,Woodvale,,Gunnergate Lane,,,,A,,SE,N0070295,Coulby Newham,,,,,,,0,UKOS,451489,514541,-1.206014,54.523561,BCT,MKD,OTH,,,,031,2005-07-06T00:00:00.000,2017-03-08T15:02:44.306,3,revise,active
079073287B,mbrdwtw,,,Woodvale,,,,Woodvale,,Gunnergate Lane,,,,NW bound,,NW,N0070295,Coulby Newham,,,,,,,0,UKOS,451480,514514,-1.206158,54.523319,BCT,MKD,OTH,,,,031,2011-10-14T15:01:46.000,2014-04-25T09:57:05.000,2,revise,active
079073288A,mbrdtwg,,,Kader Avenue,,,,Kader Avenue,,Kader Avenue,,,,SE bound,,SE,E0039242,Acklam,Middlesbrough,,,,,,0,UKOS,448019,516369,-1.259323,54.540327,BCT,HAR,OTH,,,,031,2005-07-06T00:00:00.000,2010-08-27T00:00:00.000,2,revise,active
079073288B,mbrdtwj,,,Kader Avenue,,,,Kader Avenue,,Kader Avenue,,,,NW bound,,NW,E0039242,Acklam,Middlesbrough,,,,,,0,UKOS,448011,516350,-1.25945,54.540157,BCT,HAR,OTH,,,,031,2005-07-06T00:00:00.000,2010-08-27T00:00:00.000,2,revise,active
079073288C,mbrdtwm,,,Staindrop Drive,,,,Staindrop Drive,,Staindrop Drive,,,,SE bound,,SE,E0039242,Acklam,Middlesbrough,,,,,,0,UKOS,448334,516317,-1.254463,54.53983,BCT,HAR,OTH,,,,031,2005-07-06T00:00:00.000,2010-08-27T00:00:00.000,2,revise,active
079073288D,mbrdtwp,,,Staindrop Drive,,,,Staindrop Drive,,Staindrop Drive,,,,NW bound,,NW,E0039242,Acklam,Middlesbrough,,,,,,0,UKOS,448325,516306,-1.254604,54.539732,BCT,HAR,OTH,,,,031,2005-07-06T00:00:00.000,2010-08-27T00:00:00.000,2,revise,active
079073289A,mbrdtwt,,,Gunnergate Lane,,,,Gunnergate Lane,,Gunnergate Lane,,,,NE bound,,NE,N0070295,Coulby Newham,,,,,,,0,UKOS,451480,515095,-1.206057,54.52854,BCT,HAR,OTH,,,,031,2005-07-06T00:00:00.000,2014-04-25T10:14:48.000,4,revise,inactive
079073289B,mbrdwad,,,Gunnergate Lane,,,,Gunnergate Lane,,Gunnergate Lane,,,,SW bound,,SW,N0070295,Coulby Newham,,,,,,,0,UKOS,451491,515085,-1.205889,54.528449,BCT,HAR,OTH,,,,031,2005-07-06T00:00:00.000,2014-04-25T10:15:13.000,4,revise,inactive
079073289C,mbrdwpg,,,Gunnergate Lane West End,,Gunnergate Lane,,Gunnergate Lane,,Gunnergate Lane,,,,NE bound,,NE,N0070295,Coulby Newham,,,,,,,0,UKOS,451327,514684,-1.208492,54.524862,BCT,HAR,OTH,,,,031,2010-02-01T00:00:00.000,2014-04-25T10:13:39.000,5,revise,inactive
079073289D,mbrdwpj,,,Gunnergate Lane West End,,,,Gunnergate Lane,,Gunnergate Lane,,,,SW bound,,SW,N0070295,Coulby Newham,,,,,,,0,UKOS,451338,514677,-1.208323,54.524798,BCT,HAR,OTH,,,,031,2010-02-01T00:00:00.000,2014-04-25T10:14:04.000,4,revise,inactive
079073289E,mbrdwpt,,,Gunnergate Lane East End,,Gunnergate Lane,,Gunnergate Lane,,Gunnergate Lane,,,,E bound,,E,N0070295,Coulby Newham,,,,,,,0,UKOS,451671,515182,-1.203091,54.529302,BCT,HAR,OTH,,,,031,2010-02-01T00:00:00.000,2014-04-25T10:15:39.000,4,revise,inactive
079073289F,mbrdwpm,,,Gunnergate Lane East End,,Gunnergate Lane,,Gunnergate Lane,,Gunnergate Lane,,,,W bound,,W,N0070295,Coulby Newham,,,,,,,0,UKOS,451695,515173,-1.202721,54.529219,BCT,HAR,OTH,,,,031,2010-02-01T00:00:00.000,2014-04-25T10:16:04.000,4,revise,inactive
079073290A,mbrdwag,,,Glendale Road,,,,Glendale Road,,Glendale Road,,,,NE bound,,NE,E0039242,Acklam,Middlesbrough,,,,,,0,UKOS,449409,517350,-1.237677,54.549009,BCT,HAR,OTH,,,,031,2005-07-06T00:00:00.000,2010-08-27T00:00:00.000,3,revise,active
079073290B,mbrdwaj,,,Glendale Road,,,,Glendale Road,,Glendale Road,,,,SW bound,,S,E0039242,Acklam,Middlesbrough,,,,,,0,UKOS,449426,517342,-1.237415,54.548935,BCT,HAR,OTH,,,,031,2005-07-06T00:00:00.000,2010-08-27T00:00:00.000,2,revise,active
079073291A,mbrdwam,,,Westbeck Gardens,,,,The Avenue,,THE AVENUE,,,,A,,N,E0039254,Linthorpe,Middlesbrough,,,,,,0,UKOS,449236,517876,-1.240271,54.553747,BCT,MKD,OTH,,,,031,2005-07-06T00:00:00.000,2017-02-13T11:11:25.972,3,revise,active
079073291B,mbrdwap,,,Westbeck Gardens,,,,The Avenue,,THE AVENUE,,,,B,,S,E0039254,Linthorpe,Middlesbrough,,,,,,0,UKOS,449251,517844,-1.240036,54.55346,BCT,MKD,OTH,,,,031,2005-07-06T00:00:00.000,2017-02-13T11:12:41.960,3,revise,active
079073292A,mbrdwat,,,The Avenue South End,,,,The Avenue,,The Avenue,,,,NW bound,,NW,E0053438,Nunthorpe,,,,,,,0,UKOS,453599,514805,-1.173371,54.525715,BCT,HAR,OTH,,,,031,2005-07-06T00:00:00.000,2010-09-03T00:00:00.000,6,revise,active
079073292B,mbrdwaw,,,The Avenue South End,,,,The Avenue,,The Avenue,,,,SE bound,,SE,E0053438,Nunthorpe,,,,,,,0,UKOS,453609,514814,-1.173215,54.525794,BCT,HAR,OTH,,,,031,2005-07-06T00:00:00.000,2012-04-20T15:10:30.000,7,revise,active
079073292C,mbrdwpw,,,The Avenue North End,,The Avenue,,,,The Avenue,,,,NW bound,,NW,E0053438,Nunthorpe,,,,,,,0,UKOS,453256,515151,-1.178608,54.52886,BCT,HAR,OTH,,,,031,2010-02-01T00:00:00.000,2010-09-03T00:00:00.000,3,revise,active
079073292D,mbrdwta,,,The Avenue North End,,The Avenue,,,,The Avenue,,,,SE bound,,SE,E0053438,Nunthorpe,,,,,,,0,UKOS,453270,515155,-1.178391,54.528894,BCT,HAR,OTH,,,,031,2010-02-01T00:00:00.000,2010-09-03T00:00:00.000,4,revise,active
079073293A,mbrdwda,,,Carmarthen Road,,,,Carmarthen Road,,Carmarthen Road,,,,E bound,,E,E0039264,Park End,Middlesbrough,,,,,,0,UKOS,452380,517749,-1.191681,54.552296,BCT,HAR,OTH,,,,031,2005-07-06T00:00:00.000,2010-08-27T00:00:00.000,2,revise,active
079073293B,mbrdwdg,,,Carmarthen Road,,,,Carmarthen Road,,Carmarthen Road,,,,W bound,,W,E0039264,Park End,Middlesbrough,,,,,,0,UKOS,452382,517730,-1.191653,54.552125,BCT,HAR,OTH,,,,031,2005-07-06T00:00:00.000,2010-08-27T00:00:00.000,2,revise,active
079073293C,mbrdwdj,,,Lindisfarne Road,,,,Lindisfarne Road,,Lindisfarne Road,,,,E bound,,E,E0039264,Park End,Middlesbrough,,,,,,0,UKOS,452562,517666,-1.188882,54.551523,BCT,HAR,OTH,,,,031,2005-07-06T00:00:00.000,2010-08-27T00:00:00.000,2,revise,active
079073293D,mbrdwdm,,,Lindisfarne Road,,,,Lindisfarne Road,,Lindisfarne Road,,,,W bound,,W,E0039264,Park End,Middlesbrough,,,,,,0,UKOS,452570,517648,-1.188762,54.551369,BCT,HAR,OTH,,,,031,2005-07-06T00:00:00.000,2010-08-27T00:00:00.000,2,revise,active
079073293E,mbrdwdp,,,Prescot Road,,,,Prescot Road,,Prescot Road,,,,E bound,,E,E0039264,Park End,Middlesbrough,,,,,,0,UKOS,452766,517775,-1.185709,54.55249,BCT,HAR,OTH,,,,031,2005-07-06T00:00:00.000,2010-08-27T00:00:00.000,2,revise,active
079073293F,mbrdwdt,,,Prescot Road,,,,Prescot Road,,Prescot Road,,,,W bound,,W,E0039264,Park End,Middlesbrough,,,,,,0,UKOS,452776,517760,-1.185557,54.552354,BCT,HAR,OTH,,,,031,2005-07-06T00:00:00.000,2010-08-27T00:00:00.000,2,revise,active
079073293G,mbrdwdw,,,Bournemouth Avenue,,,,Bournemouth Road,,Bournemouth Avenue,,,,NE bound,,NE,E0039264,Park End,Middlesbrough,,,,,,0,UKOS,452869,517843,-1.184104,54.55309,BCT,HAR,OTH,,,,031,2005-07-06T00:00:00.000,2020-05-04T12:45:47.126,4,revise,active
079073293H,mbrdwga,,,Bournemouth Avenue,,,,Bournemouth Road,,Bournemouth Avenue,,,,SW bound,,SW,E0039264,Park End,Middlesbrough,,,,,,0,UKOS,452881,517830,-1.183921,54.552972,BCT,HAR,OTH,,,,031,2005-07-06T00:00:00.000,2020-05-04T12:45:36.747,3,revise,active
079073294A,mbrdwgd,,,James Cook Hospital South Ent,,,,Hospital Grounds,,Hospital Grounds,,,,A,,E,N0070298,James Cook Hospital,Middlesbrough,,,,,,0,UKOS,450860,517483,-1.215225,54.550052,BCT,MKD,TIP,,,,031,2005-07-06T00:00:00.000,2018-10-19T15:57:00.396,7,revise,active
079073294B,mbrdwgj,,,James Cook Hospital South Ent,,,,Hospital Gounds,,Hospital Grounds,,,,B,,NE,N0070298,James Cook Hospital,Middlesbrough,,,,,,0,UKOS,450833,517470,-1.215644,54.549938,BCT,MKD,TIP,,,,031,2005-07-06T00:00:00.000,2018-10-19T15:57:36.953,6,revise,active
079073295A,mbrdwgm,,,Rail Station,,,,Wilson Street,,Albert Road,,,,Stand X,,N,E0039258,Middlesbrough,,,,,,,0,UKOS,449585,520555,-1.234417,54.577783,BCT,MKD,OTH,,,,031,2005-07-06T00:00:00.000,2018-03-19T17:10:38.892,3,revise,active
079073296A,mbratgd,,,Westmoor View Care Home,,,,Stainton Way,,Dixons Bank,,,,A,,NW,E0039255,Marton,,,,,,,0,UKOS,452554,514754,-1.189524,54.525365,BCT,MKD,TIP,,,,031,2005-07-06T00:00:00.000,2017-03-09T11:13:09.242,3,revise,active
079073296B,mbratgj,,,Westmoor View Care Home,,,,Stainton Way,,Dixons Bank,,,,B,,SE,E0039255,Marton,,,,,,,0,UKOS,452531,514792,-1.189873,54.525709,BCT,MKD,TIP,,,,031,2005-07-06T00:00:00.000,2017-03-09T12:24:34.234,3,revise,active
079073297A,mbrdwgp,,,Shevington Grove,,,,Dixons Bank,,STAINTON WAY,,,,A,,SW,E0039255,Marton,,,,,,,0,UKOS,452501,514945,-1.190317,54.52708,BCT,MKD,TIP,,,,031,2005-07-06T00:00:00.000,2023-01-03T10:22:05.150,4,revise,active
079073297B,mbrdwgt,,,Shevington Grove,,,,Dixons Bank,,Stainton Way,,,,B,,NE,E0039255,Marton,,,,,,,0,UKOS,452469,514956,-1.190801,54.527189,BCT,MKD,TIP,,,,031,2005-07-06T00:00:00.000,2017-03-09T12:56:28.315,3,revise,active
079073298A,mbrdwjd,,,The King's Academy,,,,School Entrance,,Stainton Way,,,,S bound,,S,N0070295,Coulby Newham,,,,,,,0,UKOS,450340,514479,-1.223775,54.523119,BCT,CUS,OTH,,,,031,2005-10-10T00:00:00.000,2013-07-02T16:04:33.000,5,revise,active
079073299A,mbrdwjm,,,Westwick Terrace,,,,Ladgate Lane,,Saltersgill Avenue,,,,A,,S,N0070293,Easterside,Middlesbrough,,,,,,0,UKOS,450761,516178,-1.216979,54.538344,BCT,MKD,OTH,,,,031,2006-06-08T00:00:00.000,2017-03-09T13:31:24.839,2,revise,active
079073300A,mbrdwjp,,,Gurney House,,,,Gurney House,,Wilson Street,,,,A,,E,E0039258,Middlesbrough,,,,,,,0,UKOS,449773,520533,-1.231513,54.577567,BCT,MKD,OTH,,,,031,2007-05-24T00:00:00.000,2017-03-09T13:44:18.181,2,revise,active
079073300B,mbrdwpd,,,Gurney House,,,,Gurney House,,Wilson Street,,,,B,,NW,E0039258,Middlesbrough,,,,,,,0,UKOS,449731,520540,-1.232161,54.577634,BCT,MKD,OTH,,,,031,2010-01-05T00:00:00.000,2017-03-09T13:51:14.998,1,revise,active
079073301A,mbrdwjt,,,Rail Station,,,,Railway Bridge,,Exchange Place,,,,Stand U,,N,E0039258,Middlesbrough,,,,,,,0,UKOS,449607,520704,-1.234052,54.57912,BCT,MKD,OTH,,,,031,2007-05-24T00:00:00.000,2020-05-04T14:02:30.002,4,revise,active
079073301B,mbrgajt,,,Rail Station,,,,Queen's Square,,Queen's Square,,,,Stand V,,S,E0039258,Middlesbrough,,,,,,,0,UKOS,449619,520792,-1.233851,54.579918,BCT,MKD,OTH,,,,031,2012-08-29T13:20:01.000,2018-03-19T17:16:18.872,3,revise,active
079073302A,mbrdwjw,,,Hudson Quay,,,,The Halyard,,Windward Way,,,,A,,E,E0057198,Middlehaven,Middlesbrough,,,,,,0,UKOS,450466,520469,-1.220804,54.576932,BCT,MKD,OTH,,,,031,2007-05-24T00:00:00.000,2017-03-09T13:57:10.945,4,revise,active
079073302B,mbrdwma,,,Hudson Quay,,,,Windward Way,,The Halyard,,,,B,,S,E0057198,Middlehaven,Middlesbrough,,,,,,0,UKOS,450545,520530,-1.219571,54.577464,BCT,MKD,OTH,,,,031,2007-05-24T00:00:00.000,2017-03-09T14:08:02.849,3,revise,active
079073303A,mbrdwmd,,,Middlesbrough College Town Centre Entrance,,,,Middlesbrough College Town Entrance,,Dock Street,,,,A,,NE,E0057198,Middlehaven,Middlesbrough,,,,,,0,UKOS,449921,520801,-1.229178,54.579961,BCT,MKD,PPT,,,,031,2009-01-05T00:00:00.000,2017-03-09T14:31:36.828,5,revise,active
079073303B,mbrdwmg,,,Middlesbrough College Town Centre Entrance,,,,Middlesbrough College,,WINWARD WAY,,,,B,,SE,E0057198,Middlehaven,Middlesbrough,,,,,,0,UKOS,449913,520653,-1.229323,54.578637,BCT,MKD,PPT,,,,031,2009-01-05T00:00:00.000,2017-03-09T14:35:26.811,12,revise,active
079073304A,mbrdwmj,,,Macmillan Academy Bus Park,,,,Macmillan Academy,,School car park,,,,A,,SW,E0039260,Newport,Middlesbrough,,,,,,0,UKOS,447654,519148,-1.26451,54.565331,BCT,MKD,OTH,,,,031,2009-07-01T00:00:00.000,2017-02-13T15:02:11.548,4,revise,active
079073305A,mbrdwmt,,,Cannon Park Way Long Stay Car Park,,,,Bulmer Way,,Cannon Park Way,,,,A,,NE,E0039260,Newport,Middlesbrough,,,,,,0,UKOS,448657,520312,-1.248812,54.575698,BCT,MKD,TIP,,,,031,2009-09-16T00:00:00.000,2017-03-09T16:54:15.627,2,revise,active
079073306A,mbrdwmw,,,Teesside University Tower Car Park,,,,University,,BOROUGH ROAD,,,,A,,W,E0039258,Middlesbrough,,,,,,,0,UKOS,449589,519956,-1.234464,54.572401,BCT,MKD,TIP,,,,031,2009-09-16T00:00:00.000,2017-03-10T11:07:16.848,3,revise,active
079073307A,mbrdwpa,,,Rail Station,,,,opp Police Station,,Bridge Street West,,,,Stand W,,W,E0039258,Middlesbrough,,,,,,,0,UKOS,449568,520742,-1.234649,54.579465,BCT,MKD,TIP,,,,031,2009-09-16T00:00:00.000,2018-03-19T17:19:45.667,3,revise,active
079073308A,mbrdwtj,,,Barberry,,Barberry,,Barberry,,Bonnygrove Way,,,,A,,SW,N0070295,Coulby Newham,,,,,,,0,UKOS,451442,513805,-1.206869,54.516952,BCT,MKD,OTH,,,,031,2011-09-05T16:38:29.000,2017-03-10T11:18:33.377,2,revise,active
079073309A,mbrdwtm,,,Lingfield Countryside Centre,,Community Centre,,Play Area,,Bonnygrove Way,,,,A,,S,N0070295,Coulby Newham,,,,,,,0,UKOS,451142,513590,-1.211539,54.51505,BCT,MKD,OTH,,,,031,2011-09-05T16:42:33.000,2017-03-10T11:37:23.445,1,revise,active
079073310A,mbrgagm,,,Startforth Road West End,,,,Startforth Road,,Riverside Park Road,,,,A,,N,E0039258,Middlesbrough,,,,,,,0,UKOS,448301,521360,-1.254147,54.585141,BCT,MKD,OTH,,,,031,2012-08-21T10:14:54.000,2017-03-10T11:43:25.278,4,revise,active
079073311A,mbrgagj,,,Brighouse Business Village,,,,Collingwood Court,,Riverside Park Road,,,,A,,NE,E0039258,Middlesbrough,,,,,,,0,UKOS,448370,521595,-1.253041,54.587246,BCT,MKD,OTH,,,,031,2012-08-21T10:17:21.000,2017-03-10T12:28:50.525,7,revise,active
079073312A,mbrgagp,,,Startforth Road North End,,,,Startforth Road,,Riverside Park Road,,,,A,,SE,E0039258,Middlesbrough,,,,,,,0,UKOS,448811,521667,-1.246206,54.587851,BCT,MKD,OTH,,,,031,2012-08-21T10:19:22.000,2017-03-10T12:42:27.376,3,revise,active
079073313A,mbrgagt,,,Vulcan Street Roundabout,,,,Snowdon Road,,Vulcan Street,,,,A,,E,E0039258,Middlesbrough,,,,,,,0,UKOS,449462,521335,-1.236189,54.584804,BCT,MKD,OTH,,,,031,2012-08-21T10:21:41.000,2017-03-10T12:48:53.758,3,revise,active
079073314A,mbrgagw,,,Myplace,,,,Myplace,,Commercial Street,,,,A,,E,E0039258,Middlesbrough,,,,,,,0,UKOS,449656,521194,-1.233211,54.583518,BCT,MKD,OTH,,,,031,2012-08-21T10:39:05.000,2017-03-10T13:00:56.375,2,revise,active
079073315A,mbrgaja,,,Commercial Street,,,,Durham Street,,Commercial Street,,,,1,,E,E0039258,Middlesbrough,,,,,,,0,UKOS,449799,521111,-1.231013,54.582767,BCT,CUS,OTH,,,,031,2012-08-21T10:40:39.000,2012-09-13T10:51:24.000,1,revise,inactive
079073316A,mbrgajd,,,Cleveland Street,,,,Lower East Street,,Cleveland Street,,,,1,,S,E0039258,Middlesbrough,,,,,,,0,UKOS,449681,520956,-1.232864,54.581377,BCT,CUS,OTH,,,,031,2012-08-21T10:43:52.000,2012-08-29T13:14:14.000,1,revise,inactive
079073317A,mbrgajg,,,Middlesbrough College Windward Way,,,,Middlesbrough College,,Windward Way,,,,1,,SE,E0057198,Middlehaven,Middlesbrough,,,,,,0,UKOS,449889,520678,-1.229694,54.578867,BCT,CUS,OTH,,,,031,2012-08-21T10:46:04.000,2012-08-29T14:42:13.000,4,revise,inactive
079073318A,mbrgajm,,,The Gateway,,,,Gray Street,,Lower East Street,,,,A,,NW,E0057198,Middlehaven,Middlesbrough,,,,,,0,UKOS,449865,520864,-1.230033,54.580541,BCT,MKD,OTH,,,,031,2012-08-21T10:52:26.000,2017-03-10T13:18:27.333,8,revise,active
079073319A,mbrgajp,,,Quay Street,,,,Riversideone,,Windward Way,,,,A,,NW,E0057198,Middlehaven,Middlesbrough,,,,,,0,UKOS,450194,520459,-1.225013,54.576869,BCT,MKD,OTH,,,,031,2012-08-21T11:08:43.000,2017-03-10T14:12:30.640,5,revise,active
079073319B,mbrgama,,,Quay Street,,,,Riversideone,,Windward Way,,,,B,,SE,E0057198,Middlehaven,Middlesbrough,,,,,,0,UKOS,450215,520476,-1.224685,54.577011,BCT,MKD,OTH,,,,031,2012-08-21T11:10:22.000,2017-03-10T16:02:33.344,5,revise,active
079073320A,mbrgajw,,,North Street,,,,North Street,,Vulcan Street,,,,A,,SE,E0039258,Middlesbrough,,,,,,,0,UKOS,449675,521255,-1.232907,54.584073,BCT,MKD,OTH,,,,031,2012-09-13T10:59:04.000,2017-03-10T16:08:05.539,2,revise,active
079073321A,mbrgamg,,,Middlesbrough College Clock Tower Entrance,,,,Middlesbrough College Clock Tower Entrance,,Commercial Street,,,,A,,NW,E0057198,Middlehaven,Middlesbrough,,,,,,0,UKOS,450103,520913,-1.226343,54.580949,BCT,MKD,OTH,,,,031,2012-09-13T11:09:12.000,2017-03-10T16:12:48.723,2,revise,active
079073321B,mbrgawa,,,Middlesbrough College Clock Tower Entrance,,,,Middlesbrough College Clock Tower Entrance,,Commercial Street,,,,B,,NW,E0057198,Middlehaven,Middlesbrough,,,,,,0,UKOS,450118,520904,-1.226113,54.580867,BCT,MKD,OTH,,,,031,2012-09-13T11:10:47.000,2017-03-10T16:57:52.503,1,revise,active
079073322A,mbrgamt,,,Garnet Street,,,,The Crown,,Linthorpe Road,,,,A,,S,E0039258,Middlesbrough,,,,,,,0,UKOS,449362,519914,-1.237974,54.572045,BCT,MKD,OTH,,,,031,2012-09-27T14:19:08.000,2022-09-09T09:21:03.866,2,revise,inactive
079073322B,mbrgapa,,,Garnet Street,,,,The Crown,,Linthorpe Road,,,,B,,S,E0039258,Middlesbrough,,,,,,,0,UKOS,449365,519933,-1.237924,54.572224,BCT,MKD,OTH,,,,031,2012-09-27T14:20:37.000,2022-09-09T09:23:53.464,2,revise,inactive
079073322D,mbrgamj,,,The Crown,,,,The Crown,,Linthorpe Road,,,,D,,N,E0039258,Middlesbrough,,,,,,,0,UKOS,449376,520056,-1.237734,54.573328,BCT,MKD,OTH,,,,031,2012-09-27T14:26:20.000,2018-12-17T14:45:33.255,3,revise,inactive
079073TX01,,,,Hill Street Taxi Rank,,,,Taxi Rank,,off Newport Road,,,,1,,,E0039258,Middlesbrough,,,,,,,0,UKOS,449304,520422,-1.238786,54.576624,TXR,,,,,,031,2005-07-06T00:00:00.000,2007-06-15T00:00:00.000,1,revise,active
079073TX02,,,,Denmark Street Taxi Rank,,,,Taxi Rank,,Sainsburys Car Park,,,,1,,,E0039258,Middlesbrough,,,,,,,0,UKOS,449072,520463,-1.242368,54.577015,TXR,,,,,,031,2005-07-06T00:00:00.000,2007-06-15T00:00:00.000,1,revise,active
079073TX03,,,,Corporation Road Taxi Rank,,,,Taxi Rank,,Theatre,,,,1,,,E0039258,Middlesbrough,,,,,,,0,UKOS,449643,520387,-1.233548,54.576268,TXR,,,,,,031,2005-07-06T00:00:00.000,2013-06-14T10:40:05.000,2,revise,active
079073TX04,,,,Grange Road Main Taxi Rank,,,,Taxi Rank,,near Job Centre,,,,1,,,E0039258,Middlesbrough,,,,,,,0,UKOS,449360,520174,-1.237961,54.57439,TXR,,,,,,031,2005-07-06T00:00:00.000,2007-06-15T00:00:00.000,1,revise,active
079073TX05,,,,Grange Road Feeder Taxi Rank,,,,Taxi Rank,,near Job Centre,,,,1,,,E0039258,Middlesbrough,,,,,,,0,UKOS,449348,520185,-1.238145,54.57449,TXR,,,,,,031,2005-07-06T00:00:00.000,2007-06-15T00:00:00.000,1,revise,active
079073TX06,,,,Rail Stn Taxi Rank,,,,Taxi Rank,,o/s entrance,,,,1,,,E0039258,Middlesbrough,,,,,,,0,UKOS,449566,520651,-1.234695,54.578656,TXR,,,,,,031,2005-07-06T00:00:00.000,2009-10-21T00:00:00.000,2,revise,active
079073TX07,,,,Bridge Street West Taxi Rank,,,,Taxi Rank,,opp Bongo Club,,,,1,,,E0039258,Middlesbrough,,,,,,,0,UKOS,449577,520744,-1.234509,54.579482,TXR,,,,,,031,2005-07-06T00:00:00.000,2007-06-15T00:00:00.000,1,revise,active
079073TX08,,,,Waterloo Road Taxi Rank,,,,Taxi Rank,,off Linthorpe Road,,,,1,,,E0039258,Middlesbrough,,,,,,,0,UKOS,449812,519524,-1.23108,54.568505,TXR,,,,,,031,2005-07-06T00:00:00.000,2007-06-15T00:00:00.000,1,revise,active
079073TX09,,,,Linthorpe Road Taxi Rank,,,,Taxi Rank,,Kwiksave,,,,1,,,E0039254,Linthorpe,Middlesbrough,,,,,,0,UKOS,449283,519646,-1.239241,54.569653,STR,,,,,,031,2005-07-06T00:00:00.000,2007-06-15T00:00:00.000,1,revise,active
079073TX10,,,,Linthorpe Village Taxi Rank,,,,Taxi Rank,,Village,,,,1,,,E0039254,Linthorpe,Middlesbrough,,,,,,0,UKOS,449080,518694,-1.242539,54.561118,TXR,,,,,,031,2005-07-06T00:00:00.000,2011-03-07T12:36:17.000,2,revise,active
079073TX11,,,,The Crescent Taxi Rank,,,,Linthorpe Hotel Taxi Rank,,The Crescent,,,,1,,,E0039254,Linthorpe,Middlesbrough,,,,,,0,UKOS,448799,518252,-1.246957,54.557173,TXR,,,,,,031,2005-07-06T00:00:00.000,2009-10-21T00:00:00.000,2,revise,active
079073TX12,,,,Ormesby Road Taxi Rank,,,,Kwiksave,,Ormesby Road,,,,1,,,E0039245,Berwick Hills,Middlesbrough,,,,,,0,UKOS,451465,518908,-1.2056183,54.5627997,TXR,,,,,,031,2005-07-06T00:00:00.000,2014-07-02T10:00:29.965,3,revise,active
079073TX13,,,,Market Place Taxi Rank,,,,Taxi Rank,,Market Place,,,,1,,,E0039261,North Ormesby,Middlesbrough,,,,,,0,UKOS,450871,519846,-1.214647,54.571285,STR,,,,,,031,2005-07-06T00:00:00.000,2010-02-01T00:00:00.000,3,revise,active
079073TX14,,,,Marton Road Taxi Rank,,,,Taxi Rank,,Exchange Square,,,,1,,,E0039258,Middlesbrough,,,,,,,0,UKOS,449678,520638,-1.232964,54.57852,STR,,,,,,031,2005-07-06T00:00:00.000,2007-06-15T00:00:00.000,1,revise,active
079073TX15,,,,Albert Street Taxi Rank,,,,Taxi Rank,,Bongo Club,,,,1,,,E0039258,Middlesbrough,,,,,,,0,UKOS,449519,520783,-1.2354,54.579847,STR,,,,,,031,2005-07-06T00:00:00.000,2007-06-15T00:00:00.000,1,revise,active
079073TX16,,,,Exchange Place Taxi Rank,,,,Taxi Rank,,o/s Viennas,,,,1,,,E0039258,Middlesbrough,,,,,,,0,UKOS,449596,520718,-1.234219,54.579247,STR,,,,,,031,2005-07-06T00:00:00.000,2007-06-15T00:00:00.000,1,revise,active
079073TX17,,,,Linthorpe Road Taxi Rank,,,,Taxi Rank,,166/168 Linthorpe Road,,,,1,,,E0039258,Middlesbrough,,,,,,,0,UKOS,449357,519887,-1.238056,54.571803,STR,,,,,,031,2005-07-06T00:00:00.000,2012-09-27T14:15:01.000,2,revise,active
079073TX18,,,,Southfield Road Taxi Rank,,,,Taxi Rank,,Star and Garter,,,,1,,,E0039258,Middlesbrough,,,,,,,0,UKOS,449549,519747,-1.23511,54.570526,STR,,,,,,031,2005-07-06T00:00:00.000,2007-06-15T00:00:00.000,1,revise,active
079073TX19,,,,Borough Road Taxi Rank,,,,Taxi Rank,,East Ocean,,,,1,,,E0039258,Middlesbrough,,,,,,,0,UKOS,449300,520029,-1.2389093,54.5730885,STR,,,,,,031,2005-07-06T00:00:00.000,2014-07-02T09:59:07.403,2,revise,active
079073TX20,,,,Newport Road Taxi Rank,,,,Taxi Rank,,Arena,,,,1,,,E0039260,Newport,Middlesbrough,,,,,,0,UKOS,448471,519926,-1.251753,54.572247,STR,,,,,,031,2005-07-06T00:00:00.000,2007-06-15T00:00:00.000,1,revise,active
0790MARTON0,,,,Marton Station,,,,Marton Rail Station,,Ladgate Lane,,,,1,,,E0039255,Marton,,,,,,,1,UKOS,451945,516850,-1.198564,54.544263,RSE,,,,,,031,2005-07-06T00:00:00.000,2018-10-18T11:16:32.738,2,revise,active
0790MDLSBRO0,,,,Middlesbrough Rail Station - main ent,,,,Middlesbrough Rail Station,,Zetland Road,,,,1,,,E0039258,Middlesbrough,,,,,,,1,UKOS,449566,520651,-1.234695,54.578656,RSE,,,,,,031,2005-07-06T00:00:00.000,2007-06-15T00:00:00.000,1,revise,active
0790MDLSBRO1,,,,Middlesbrough Rail Station,,,,Middlesbrough Rail Station,,Bridge Street West,,,,2,,,E0039258,Middlesbrough,,,,,,,1,UKOS,449577,520744,-1.234509,54.579482,RSE,,,,,,031,2005-07-06T00:00:00.000,2018-10-19T15:42:23.875,2,revise,active
0790MTS0,mbrdwtg,,,Transporter Bridge South Side,,,,Transporter Bridge South Side,,Ferry Road,,,,Entrance,,,E0039258,Middlesbrough,,,,,,,0,UKOS,449936,521208,-1.228877,54.583625,FTD,,,,,,031,2011-06-03T13:16:08.000,2011-06-03T13:16:08.000,0,new,active
079073323A,mbrgapd,,,Ford Close Riding Centre,,,,Eagle Park,,BRASS CASTLE LANE,,,,A,,NE,E0039255,Marton,,,,,,,0,UKOS,452772,514218,-1.186255,54.520521,BCT,MKD,OTH,,,,031,2013-10-25T11:48:09.000,2017-03-10T17:15:22.959,1,revise,active
079073323B,mbrgapw,,,Ford Close Riding Centre,,,,Eagle Park,,BRASS CASTLE LANE,,,,B,,SW,E0039255,Marton,,,,,,,0,UKOS,452786,514212,-1.186038,54.520469,BCT,MKD,OTH,,,,031,2013-10-25T11:50:23.000,2017-03-10T17:34:29.435,1,revise,active
079073116C,mbrgapg,,,Marton Shops,,,,The Croft,,Gunnergate Lane,,,,C,,W,E0039255,Marton,,,,,,,0,UKOS,451873,515215,-1.199964,54.529578,BCT,MKD,OTH,,,,031,2014-04-25T09:48:22.000,2020-01-17T14:51:40.122,3,revise,active
079073324A,mbrgapj,,,Tollesby Lane,,,,Tollesby Lane,,Gunnergate Lane,,,,A,,NE,N0070295,Coulby Newham,,,,,,,0,UKOS,451421,515016,-1.206982,54.527836,BCT,MKD,OTH,,,,031,2014-04-25T09:52:25.000,2017-03-10T17:44:20.553,1,revise,active
079073324B,mbrgawg,,,Tollesby Lane,,,,Tollesby Lane,,Gunnergate Lane,,,,opp,,SW,N0070295,Coulby Newham,,,,,,,0,UKOS,451433,515006,-1.206799,54.527745,BCT,CUS,OTH,,,,031,2014-04-25T09:54:05.000,2014-04-25T10:38:01.000,1,revise,active
079073325A,mbrgapm,,,Ash Hill,,,,Ash Hill,,Gunnergate Lane,,,,A,,E,N0070295,Coulby Newham,,,,,,,0,UKOS,451317,514346,-1.208705,54.521826,BCT,MKD,OTH,,,,031,2014-04-25T09:59:31.000,2017-03-10T17:55:45.848,1,revise,active
079073325B,mbrgatw,,,Ash Hill,,,,Ash Hill,,Gunnergate Lane,,,,B,,W,N0070295,Coulby Newham,,,,,,,0,UKOS,451292,514326,-1.209095,54.521649,BCT,MKD,OTH,,,,031,2014-04-25T10:01:16.000,2017-03-10T18:01:40.352,1,revise,active
079073326A,mbrgapt,,,Iron Steel & Athletic Club,,,,Lambton Road,,Park Road South,,,,A,,W,E0039251,Grove Hill,Middlesbrough,,,,,,0,UKOS,449980,518878,-1.228591,54.562675,BCT,MKD,OTH,,,,031,2015-11-13T12:16:10.000,2017-03-10T18:04:12.163,1,revise,active
079073326B,mbrgata,,,Iron Steel & Athletic Club,,,,Lambton Road,,Park Road South,,,,B,,E,E0039251,Grove Hill,Middlesbrough,,,,,,0,UKOS,450013,518897,-1.228078,54.562851,BCT,MKD,OTH,,,,031,2015-11-13T12:21:56.000,2017-03-10T18:33:16.157,1,revise,active
079073327B,mbrgatg,,,Amber Street,,,,,,BOROUGH ROAD,,,,B,,W,E0039258,Middlesbrough,,,,,,,,UKOS,449309,520020,-1.2387764,54.5730069,BCT,MKD,OTH,,,,031,2017-12-11T16:13:32.790,2017-12-11T16:13:32.790,0,new,active
079073327A,mbrgatj,,,Amber Street,,,,,,BOROUGH ROAD,,,,A,,W,E0039258,Middlesbrough,,,,,,,,UKOS,449321,520020,-1.2385909,54.5730012,BCT,MKD,OTH,,,,031,2017-12-11T16:50:09.441,2017-12-11T16:50:09.441,0,new,active
079073005C,mbrgatp,,,The Swatters Carr,,,,,,LINTHORPE ROAD,,,,C,,N,E0039258,Middlesbrough,,,,,,,,UKOS,449302,519709,-1.238931,54.570216,BCT,MKD,OTH,,,,031,2017-12-11T17:22:46.447,2022-09-09T10:23:51.743,2,revise,active
079073328B,mbrgawd,,,St Barnabas Church,,,,,,LINTHORPE ROAD,,,,B,,S,E0039254,Linthorpe,Middlesbrough,,,,,,,UKOS,449113,518870,-1.2419996,54.5626957,BCT,MKD,OTH,,,,031,2017-12-11T18:05:10.715,2017-12-11T18:05:10.715,0,new,active
079073328C,mbrgawj,,,St Barnabas Church,,,,,,PARK ROAD SOUTH,,,,C,,E,E0039254,Linthorpe,Middlesbrough,,,,,,,UKOS,449170,518889,-1.2411152,54.5628528,BCT,MKD,OTH,,,,031,2017-12-11T18:20:32.470,2017-12-11T18:20:32.470,0,new,active
079073328A,mbrgawm,,,St Barnabas Church,,,,,,LINTHORPE ROAD,,,,A,,N,E0039254,Linthorpe,Middlesbrough,,,,,,,UKOS,449109,518936,-1.2420506,54.5632811,BCT,MKD,OTH,,,,031,2017-12-11T18:25:05.042,2017-12-11T18:25:05.042,0,new,active
079073329A,mbrgawt,,,Liverton Avenue,,,,,,ACKLAM ROAD,,,,A,,NE,E0039243,Ayresome,Middlesbrough,,,,,,,UKOS,448299,519177,-1.2545364,54.5655244,BCT,MKD,OTH,,,,031,2017-12-12T10:04:55.376,2017-12-12T10:04:55.376,0,new,active
079073329B,mbrgdad,,,Liverton Avenue,,,,,,ACKLAM ROAD,,,,B,,SW,E0039243,Ayresome,Middlesbrough,,,,,,,UKOS,448301,519124,-1.2545142,54.5650480,BCT,MKD,OTH,,,,031,2017-12-12T10:13:00.027,2017-12-12T10:13:00.027,0,new,active
079073330B,mbrgdaj,,,The Acklam Garden City,,,,,,BURLAM ROAD,,,,B,,E,E0039254,Linthorpe,Middlesbrough,,,,,,,UKOS,448005,518529,-1.2591885,54.5597295,BCT,MKD,OTH,,,,031,2017-12-12T15:20:38.156,2017-12-12T15:20:38.156,0,new,active
079073330A,mbrgdam,,,The Acklam Garden City,,,,,,BURLAM ROAD,,,,A,,W,E0039254,Linthorpe,Middlesbrough,,,,,,,UKOS,448032,518510,-1.2587741,54.5595562,BCT,MKD,OTH,,,,031,2017-12-12T15:34:14.693,2017-12-12T15:34:14.693,0,new,active
079073027A,mbrgdat,,,Roseberry Court,,,,,,BURLAM ROAD,,,,A,,W,E0039254,Linthorpe,Middlesbrough,,,,,,,UKOS,448615,518620,-1.2497416,54.5604891,BCT,MKD,OTH,,,,031,2017-12-12T16:32:52.773,2017-12-12T16:32:52.773,0,new,active
079073331A,mbrgdaw,,,Yellow Rose,,,,,,ROMAN ROAD,,,,A,,NW,E0039254,Linthorpe,Middlesbrough,,,,,,,UKOS,448660,518637,-1.249041,54.560643,BCT,MKD,OTH,,,,031,2017-12-13T10:13:58.057,2020-05-04T14:12:33.335,2,revise,active
079073331B,mbrgdga,,,Yellow Rose,,,,,,ROMAN ROAD,,,,B,,S,E0039254,Linthorpe,Middlesbrough,,,,,,,UKOS,448702,518589,-1.2484015,54.5602022,BCT,MKD,OTH,,,,031,2017-12-13T10:19:49.661,2017-12-13T10:19:49.661,0,new,active
079073034B,mbrgdgj,,,Oxford Road West End,,,,,,ACKLAM ROAD,,,,B,,N,E0039269,Whinney Banks,Middlesbrough,,,,,,,UKOS,447827,518031,-1.2620215,54.5552713,BCT,MKD,OTH,,,,031,2017-12-13T10:36:08.437,2017-12-13T10:36:08.437,0,new,active
079073332B,mbrgdgm,,,Acklam Green Centre,,,,,,ACKLAM ROAD,,,,B,,S,E0039269,Whinney Banks,Middlesbrough,,,,,,,UKOS,447787,517817,-1.2626746,54.5533520,BCT,MKD,OTH,,,,031,2017-12-13T10:47:37.633,2017-12-13T10:47:37.633,0,new,active
079073332A,mbrgdgp,,,Acklam Green Centre,,,,,,ACKLAM ROAD,,,,A,,N,E0039269,Whinney Banks,Middlesbrough,,,,,,,UKOS,447754,517755,-1.2631948,54.5527980,BCT,MKD,OTH,,,,031,2017-12-13T10:50:52.324,2017-12-13T10:50:52.324,0,new,active
079073333B,mbrgdgw,,,Cherryfield Drive,,,,,,CAMBRIDGE ROAD,,,,B,,W,E0039254,Linthorpe,Middlesbrough,,,,,,,UKOS,448774,518015,-1.2473832,54.5550373,BCT,MKD,OTH,,,,031,2017-12-13T12:15:09.727,2017-12-13T12:15:09.727,0,new,active
079073333A,mbrgdja,,,Cherryfield Drive,,,,,,ORCHARD ROAD,,,,A,,E,E0039254,Linthorpe,Middlesbrough,,,,,,,UKOS,448960,518054,-1.2445011,54.5553699,BCT,MKD,OTH,,,,031,2017-12-13T12:21:00.854,2017-12-13T12:21:00.854,0,new,active
079073334A,mbrgdjg,,,Farnborough Avenue,,,,,,GREEN LANE,,,,A,,NE,E0039242,Acklam,Middlesbrough,,,,,,,UKOS,447972,517463,-1.259873,54.550159,BCT,MKD,OTH,,,,031,2017-12-13T12:46:07.538,2020-01-30T09:17:35.431,2,revise,active
079073334B,mbrgdjm,,,Farnborough Avenue,,,,,,GREEN LANE,,,,B,,W,E0039242,Acklam,Middlesbrough,,,,,,,UKOS,447982,517453,-1.2597190,54.5500708,BCT,MKD,OTH,,,,031,2017-12-13T13:45:48.452,2017-12-13T13:45:48.452,0,new,active
079073335A,mbrgdjt,,,Heythrop Drive,,,,,,MANDALE ROAD,,,,A,,E,E0039269,Whinney Banks,Middlesbrough,,,,,,,UKOS,447357,517273,-1.2694094,54.5485120,BCT,MKD,OTH,,,,031,2017-12-13T13:59:43.932,2017-12-13T13:59:43.932,0,new,active
079073335B,mbrgdjw,,,Heythrop Drive,,,,,,MANDALE ROAD,,,,B,,W,E0039269,Whinney Banks,Middlesbrough,,,,,,,UKOS,447264,517267,-1.2708480,54.5484668,BCT,MKD,OTH,,,,031,2017-12-13T14:15:57.965,2017-12-13T14:15:57.965,0,new,active
079073336A,mbrgdmd,,,Hall Drive West End,,,,,,TRIMDON AVENUE,,,,A,,SW,E0039242,Acklam,Middlesbrough,,,,,,,UKOS,448146,516668,-1.2573073,54.5430013,BCT,MKD,OTH,,,,031,2017-12-13T14:56:51.664,2017-12-13T14:56:51.664,0,new,active
079073336B,mbrgdmg,,,Hall Drive West End,,,,,,ACKLAM ROAD,,,,B,,SE,E0039242,Acklam,Middlesbrough,,,,,,,UKOS,448244,516583,-1.2558113,54.5422201,BCT,MKD,OTH,,,,031,2017-12-13T15:02:50.093,2017-12-13T15:02:50.093,0,new,active
079073336D,mbrgdmj,,,Hall Drive West End,,,,,,HALL DRIVE,,,,D,,E,E0039242,Acklam,Middlesbrough,,,,,,,UKOS,448277,516650,-1.2552903,54.5428190,BCT,MKD,OTH,,,,031,2017-12-13T15:10:44.316,2017-12-13T15:10:44.316,0,new,active
079073336C,mbrgdmp,,,Hall Drive West End,,,,,,ACKLAM ROAD,,,,C,,NW,E0039242,Acklam,Middlesbrough,,,,,,,UKOS,448151,516716,-1.2572269,54.5434241,BCT,MKD,OTH,,,,031,2017-12-13T15:13:39.201,2019-05-28T12:29:33.487,2,revise,active
079073337A,mbrgdmw,,,The Stainton,,,,,,MELDYKE LANE,,,,A,,S,E0053439,Stainton,,,,,,,,UKOS,448032,514148,-1.259487,54.520367,BCT,MKD,OTH,,,,031,2017-12-13T15:35:00.121,2017-12-13T15:35:00.121,0,new,active
079073337D,mbrgdpa,,,The Stainton,,,,,,MELDYKE LANE,,,,D,,N,E0053439,Stainton,,,,,,,,UKOS,448016,514149,-1.2597307,54.5203779,BCT,MKD,OTH,,,,031,2017-12-13T15:53:27.139,2017-12-13T16:00:55.991,1,revise,inactive
07903337B,mbrgdpd,,,The Stainton,,,,,,MELDYKE LANE,,,,N bound,,N,E0053439,Stainton,,,,,,,,UKOS,448016,514149,-1.2597307,54.5203779,BCT,CUS,OTH,,,,031,2017-12-13T16:02:31.883,2018-03-20T15:03:38.971,2,revise,inactive
079073338B,mbrgdpj,,,Marwood Wynd,,,,,,HEMLINGTON ROAD,,,,B,,W,E0053439,Stainton,,,,,,,,UKOS,448055,514065,-1.2591404,54.5196166,BCT,MKD,OTH,,,,031,2017-12-13T16:14:08.943,2017-12-13T16:14:08.943,0,new,active
079073338A,mbrgdpm,,,Marwood Wynd,,,,,,HEMLINGTON ROAD,,,,A,,E,E0053439,Stainton,,,,,,,,UKOS,448172,514060,-1.2573355,54.5195597,BCT,MKD,OTH,,,,031,2017-12-13T16:53:26.673,2017-12-13T16:53:26.673,0,new,active
079073339B,mbrgdpw,,,Stainton Lodge Care Centre,,,,,,STAINTON WAY,,,,B,,E,E0039253,Hemlington,,,,,,,,UKOS,448671,513941,-1.2496472,54.5184384,BCT,MKD,OTH,,,,031,2017-12-13T17:09:30.745,2017-12-13T17:09:30.745,0,new,active
079073339A,mbrgdta,,,Stainton Lodge Care Centre,,,,,,STAINTON WAY,,,,A,,NW,E0039253,Hemlington,,,,,,,,UKOS,448620,513943,-1.2504346,54.5184612,BCT,MKD,OTH,,,,031,2017-12-13T17:19:52.648,2017-12-13T17:19:52.648,0,new,active
079073340B,mbrgdtg,,,Southdean Close,,,,,,HEMLINGTON HALL ROAD,,,,B,,NW,E0039253,Hemlington,,,,,,,,UKOS,449357,514869,-1.2388959,54.5267112,BCT,MKD,OTH,,,,031,2017-12-14T10:50:36.952,2017-12-14T10:50:36.952,0,new,active
079073340A,mbrgdtj,,,Southdean Close,,,,,,HEMLINGTON HALL ROAD,,,,A,,E,E0039253,Hemlington,,,,,,,,UKOS,449281,514925,-1.2400606,54.5272298,BCT,MKD,OTH,,,,031,2017-12-14T10:55:34.029,2017-12-14T10:55:34.029,0,new,active
079073341A,mbrgdtp,,,The Gables,,,,,,B1365,,,,A,,SE,E0039253,Hemlington,,,,,,,,UKOS,450226,514311,-1.2255650,54.5216199,BCT,MKD,OTH,,,,031,2017-12-14T12:03:16.329,2017-12-14T12:03:16.329,0,new,active
079073341B,mbrgdtw,,,The Gables,,,,,,B1365,,,,B,,NW,E0039253,Hemlington,,,,,,,,UKOS,450210,514302,-1.2258137,54.5215406,BCT,MKD,OTH,,,,031,2017-12-14T12:08:22.896,2017-12-14T12:08:22.896,0,new,active
079073342B,mbrgdwd,,,Marton Crossroads East,,,,,,LADGATE LANE,,,,B,,SW,E0039255,Marton,,,,,,,,UKOS,451372,516584,-1.2074669,54.5419221,BCT,MKD,OTH,,,,031,2017-12-15T09:26:37.731,2017-12-15T09:26:37.731,0,new,active
079073342A,mbrgdwg,,,Marton Crossroads East,,,,,,LADGATE LANE,,,,A,,NE,E0039255,Marton,,,,,,,,UKOS,451274,516534,-1.2089901,54.5414909,BCT,MKD,OTH,,,,031,2017-12-15T09:32:10.066,2017-12-15T09:32:10.066,0,new,active
079073343B,mbrgdwp,,,Social Club,,,,,,BROADWELL ROAD,,,,B,,SW,N0070293,Easterside,Middlesbrough,,,,,,,UKOS,450696,517153,-1.2178153,54.5471031,BCT,MKD,OTH,,,,031,2017-12-15T09:53:32.306,2017-12-15T09:53:32.306,0,new,active
079073343A,mbrgdwt,,,Social Club,,,,,,BROADWELL ROAD,,,,A,,NE,N0070293,Easterside,Middlesbrough,,,,,,,UKOS,450745,517220,-1.2170480,54.5477002,BCT,MKD,OTH,,,,031,2017-12-15T09:56:04.135,2017-12-15T09:56:04.135,0,new,active
079073344A,mbrgjag,,,Premier Inn,,,,,,Marton Way,,,,A,,W,N0070298,James Cook Hospital,Middlesbrough,,,,,,,UKOS,450544,517682,-1.2200757,54.5518718,BCT,MKD,OTH,,,,031,2017-12-15T10:12:39.273,2017-12-15T10:12:39.273,0,new,active
079073344B,mbrgjaj,,,Premier Inn,,,,,,Marton Way,,,,B,,E,N0070298,James Cook Hospital,Middlesbrough,,,,,,,UKOS,450545,517705,-1.2200563,54.5520784,BCT,MKD,OTH,,,,031,2017-12-15T10:15:06.145,2017-12-15T10:15:06.145,0,new,active
079073345B,mbrgjap,,,James Cook Hospital North,,,,,,MARTON ROAD,,,,B,,NW,N0070298,James Cook Hospital,Middlesbrough,,,,,,,UKOS,450584,517770,-1.2194421,54.5526666,BCT,MKD,OTH,,,,031,2017-12-15T10:36:12.260,2018-06-25T12:00:33.181,1,revise,active
079073345A,mbrgjat,,,James Cook Hospital North,,,,,,MARTON ROAD,,,,A,,SE,N0070298,James Cook Hospital,Middlesbrough,,,,,,,UKOS,450643,517654,-1.2185501,54.5516103,BCT,MKD,OTH,,,,031,2017-12-15T10:53:44.080,2018-06-25T12:00:26.202,2,revise,active
079073346A,mbrgjda,,,Spinal Cord Injuries Centre,,,,,,Hospital Grounds,,,,SE bound,,SE,N0070298,James Cook Hospital,Middlesbrough,,,,,,,UKOS,450791,517848,-1.2162288,54.5533388,BCT,CUS,OTH,,,,031,2017-12-15T11:01:43.823,2018-12-14T16:42:53.020,1,revise,active
079073347B,mbrgjdg,,,Regent Road,,,,,,MARTON ROAD,,,,B,,NW,E0039251,Grove Hill,Middlesbrough,,,,,,,UKOS,450447,518076,-1.2215063,54.5554219,BCT,MKD,OTH,,,,031,2017-12-15T11:13:12.551,2017-12-15T11:26:19.486,1,revise,active
079073347A,mbrgjdj,,,Regent Road,,,,,,MARTON ROAD,,,,A,,SE,E0039251,Grove Hill,Middlesbrough,,,,,,,UKOS,450421,518165,-1.2218946,54.5562242,BCT,MKD,OTH,,,,031,2017-12-15T11:23:29.408,2017-12-15T11:23:29.408,0,new,active
079073348B,mbrgjdp,,,Belle Vue Shops,,,,,,MARTON ROAD,,,,B,,N,E0039251,Grove Hill,Middlesbrough,,,,,,,UKOS,450348,518350,-1.2229916,54.5578939,BCT,MKD,OTH,,,,031,2017-12-15T17:01:48.108,2017-12-15T17:01:48.108,0,new,active
079073348A,mbrgjdt,,,Belle Vue Shops,,,,,,MARTON ROAD,,,,A,,S,E0039251,Grove Hill,Middlesbrough,,,,,,,UKOS,450375,518268,-1.2225882,54.5571543,BCT,MKD,OTH,,,,031,2017-12-15T17:06:43.926,2017-12-15T17:06:43.926,0,new,active
079073349A,mbrgjga,,,The Vale South End,,,,,,THE VALE,,,,A,,N,N0070292,Saltersgill,Middlesbrough,,,,,,,UKOS,449619,517849,-1.2343472,54.5534637,BCT,MKD,OTH,,,,031,2017-12-15T17:18:02.271,2017-12-15T17:18:02.271,0,new,active
079073349B,mbrgjgd,,,The Vale South End,,,,,,The Vale,,,,B,,S,N0070292,Saltersgill,Middlesbrough,,,,,,,UKOS,449638,517827,-1.2340572,54.5532642,BCT,MKD,OTH,,,,031,2017-12-15T17:20:56.672,2017-12-15T17:20:56.672,0,new,active
079073350A,mbrgjgm,,,St Chad's Church,,,,,,Hollyhurst Avenue,,,,A,,S,N0070292,Saltersgill,Middlesbrough,,,,,,,UKOS,449637,517712,-1.2340920,54.5522309,BCT,MKD,OTH,,,,031,2017-12-15T17:27:21.716,2020-05-04T14:15:50.797,1,revise,active
079073350B,mbrgjgp,,,St Chad's Church,,,,,,HOLLYHURST AVENUE,,,,B,,N,N0070292,Saltersgill,Middlesbrough,,,,,,,UKOS,449622,517711,-1.234322,54.552232,BCT,MKD,OTH,,,,031,2017-12-15T17:30:02.619,2017-12-15T17:30:02.619,0,new,active
079073351A,mbrgjgw,,,Bishopton Road,,,,,,VALLEY ROAD,,,,A,,SW,E0039254,Linthorpe,Middlesbrough,,,,,,,UKOS,449737,518343,-1.2324397,54.5578912,BCT,MKD,OTH,,,,031,2017-12-15T17:46:11.297,2017-12-15T17:46:11.297,0,new,active
079073162A,mbrgjma,,,The Highfield,,,,,,MARTON ROAD,,,,A,,N,E0039251,Grove Hill,Middlesbrough,,,,,,,UKOS,450257,518817,-1.2243190,54.5620993,BCT,MKD,OTH,,,,031,2017-12-15T17:49:50.220,2017-12-15T17:49:50.220,0,new,active
079073352A,mbrgjmd,,,Europa,,,,,,WOODLANDS ROAD,,,,A,,N,N0070314,Teesside University,Middlesbrough,,,,,,,UKOS,449676,519688,-1.2331561,54.5699832,BCT,CUS,OTH,,,,031,2017-12-15T17:57:17.178,2017-12-15T17:57:17.178,0,new,active
079073353A,mbrgjmg,,,Athena,,,,,,WOODLANDS ROAD,,,,A,,N,N0070314,Teesside University,Middlesbrough,,,,,,,UKOS,449685,519780,-1.2330014,54.5708091,BCT,CUS,OTH,,,,031,2017-12-15T18:00:18.380,2018-12-14T16:53:46.860,1,revise,active
079073354A,mbrgjmj,,,Parklands Close,,,,,,HOMERTON ROAD,,,,A,,NE,E0039245,Berwick Hills,Middlesbrough,,,,,,,UKOS,451697,518786,-1.2020581,54.5616760,BCT,MKD,OTH,,,,031,2017-12-18T15:16:08.815,2017-12-18T15:16:08.815,0,new,active
079073355A,mbrgjmp,,,Norfolk Place Shopping Centre,,,,,,ORMESBY ROAD,,,,A,,NW,E0039245,Berwick Hills,Middlesbrough,,,,,,,UKOS,451505,518831,-1.2050190,54.5620999,BCT,MKD,OTH,,,,031,2017-12-18T15:22:09.188,2017-12-18T15:22:09.188,0,new,active
079073356B,mbrgjmt,,,Morrisons,,,,,,Berwick Hills Centre,,,,B,,NE,E0039245,Berwick Hills,Middlesbrough,,,,,,,UKOS,451628,518686,-1.2031425,54.5607844,BCT,MKD,OTH,,,,031,2017-12-18T16:02:20.686,2017-12-18T16:02:20.686,0,new,active
079073356A,mbrgjmw,,,Morrisons,,,,,,Berwick Hills Centre,,,,A,,N,E0039245,Berwick Hills,Middlesbrough,,,,,,,UKOS,451626,518660,-1.2031780,54.5605510,BCT,MKD,OTH,,,,031,2017-12-18T16:06:41.249,2017-12-18T16:06:41.249,0,new,active
079073357B,mbrgjpd,,,Dionysia Road,,,,,,ORMESBY ROAD,,,,B,,NW,E0039245,Berwick Hills,Middlesbrough,,,,,,,UKOS,451311,519176,-1.2079555,54.5652268,BCT,MKD,OTH,,,,031,2017-12-18T16:28:32.289,2017-12-18T16:28:32.289,0,new,active
079073357C,mbrgjpg,,,Dionysia Road,,,,,,ORMESBY ROAD,,,,C,,S,E0039245,Berwick Hills,Middlesbrough,,,,,,,UKOS,451252,519315,-1.2088454,54.5664747,BCT,MKD,OTH,,,,031,2017-12-18T16:37:18.782,2017-12-18T16:37:18.782,0,new,active
079073357A,mbrgjpj,,,Dionysia Road,,,,,,ORMESBY ROAD,,,,A,,S,E0039245,Berwick Hills,Middlesbrough,,,,,,,UKOS,451293,519241,-1.2082256,54.5658137,BCT,MKD,OTH,,,,031,2017-12-18T16:58:15.298,2017-12-18T16:58:15.298,0,new,active
079073176B,mbrgjpt,,,St John's Church,,,,,,MARTON ROAD,,,,B,,N,E0039258,Middlesbrough,,,,,,,,UKOS,450072,520193,-1.2269443,54.5744821,BCT,MKD,OTH,,,,031,2017-12-18T17:34:14.172,2017-12-18T17:34:14.172,0,new,active
079073358A,mbrgjpw,,,Roseberry Road,,,,,,LONGLANDS ROAD,,,,A,,W,E0039251,Grove Hill,Middlesbrough,,,,,,,UKOS,450479,519249,-1.2208123,54.5659591,BCT,MKD,OTH,,,,031,2017-12-18T17:43:13.794,2017-12-18T17:43:13.794,0,new,active
079073358B,mbrgjta,,,Roseberry Road,,,,,,LONGLANDS ROAD,,,,B,,E,E0039251,Grove Hill,Middlesbrough,,,,,,,UKOS,450468,519259,-1.2209807,54.5660501,BCT,MKD,OTH,,,,031,2017-12-18T17:45:47.429,2017-12-18T17:45:47.429,0,new,active
079073359B,mbrgjtd,,,Longlands Hotel,,,,,,MARTON ROAD,,,,B,,N,E0039251,Grove Hill,Middlesbrough,,,,,,,UKOS,450292,519337,-1.2236936,54.5667766,BCT,MKD,OTH,,,,031,2017-12-18T17:49:21.179,2017-12-18T17:49:21.179,0,new,active
079073359A,mbrgjtg,,,Longlands Hotel,,,,,,MARTON ROAD,,,,A,,S,E0039251,Grove Hill,Middlesbrough,,,,,,,UKOS,450332,519254,-1.2230847,54.5660187,BCT,MKD,OTH,,,,031,2017-12-18T17:54:18.890,2017-12-18T17:54:18.890,0,new,active
079073360B,mbrgjtp,,,White Street,,,,,,Longlands Road,,,,B,,E,E0039261,North Ormesby,Middlesbrough,,,,,,,UKOS,451300,519413,-1.2080876,54.5673504,BCT,MKD,OTH,,,,031,2017-12-19T09:28:34.993,2017-12-19T09:28:34.993,0,new,active
079073360A,mbrgjtw,,,White Street,,,,,,LONGLANDS ROAD,,,,A,,W,E0039261,North Ormesby,Middlesbrough,,,,,,,UKOS,451311,519387,-1.2079220,54.5671157,BCT,MKD,OTH,,,,031,2017-12-19T09:32:44.955,2017-12-19T09:32:44.955,0,new,active
079073361C,mbrgjwd,,,The Buccaneer,,,,,,KINGS ROAD,,,,C,,SE,E0039261,North Ormesby,Middlesbrough,,,,,,,UKOS,451195,519425,-1.2097093,54.5674689,BCT,MKD,OTH,,,,031,2017-12-19T09:57:34.983,2020-05-04T14:17:07.057,2,revise,active
079073361B,mbrgjwg,,,The Buccaneer,,,,,,KINGS ROAD,,,,B,,NW,E0039261,North Ormesby,Middlesbrough,,,,,,,UKOS,451180,519411,-1.2099437,54.5673455,BCT,MKD,OTH,,,,031,2017-12-19T10:05:03.842,2020-05-04T14:16:56.128,2,revise,active
079073361A,mbrgjwj,,,The Buccaneer,,,,,,KINGS ROAD,,,,A,,NW,E0039261,North Ormesby,Middlesbrough,,,,,,,UKOS,451175,519431,-1.2100175,54.5675248,BCT,MKD,OTH,,,,031,2017-12-19T10:12:14.848,2024-03-08T09:42:42.809,2,revise,inactive
079073362A,mbrgjwp,,,Penistone Road,,,,,,OVERDALE ROAD,,,,A,,SE,E0039264,Park End,Middlesbrough,,,,,,,UKOS,452228,517182,-1.1941315,54.5472083,BCT,MKD,OTH,,,,031,2017-12-19T14:12:31.973,2017-12-19T14:12:31.973,0,new,active
079073363A,mbrgjwt,,,Cotswold Avenue,,,,,,CRANMORE ROAD,,,,A,,W,E0039263,Pallister,Middlesbrough,,,,,,,UKOS,452015,519339,-1.197043,54.566613,BCT,MKD,OTH,,,,031,2017-12-19T14:24:35.076,2020-02-07T10:50:29.609,1,revise,active
079073364A,mbrgmad,,,Northfleet Avenue,,,,,,CARGO FLEET LANE,,,,A,,SE,E0039246,Brambles Farm,Middlesbrough,,,,,,,UKOS,451959,519528,-1.1978760,54.5683167,BCT,MKD,OTH,,,,031,2017-12-19T14:58:09.230,2017-12-19T14:58:09.230,0,new,active
079073364B,mbrgmag,,,Northfleet Avenue,,,,,,CARGO FLEET LANE,,,,B,,NW,E0039246,Brambles Farm,Middlesbrough,,,,,,,UKOS,452022,519389,-1.1969263,54.5670612,BCT,MKD,OTH,,,,031,2017-12-19T17:51:56.069,2017-12-19T17:51:56.069,0,new,active
079073366B,mbrgmap,,,Ruth Avenue,,,,,,CARGO FLEET LANE,,,,B,,N,N0070294,Thorntree,Middlesbrough,,,,,,,UKOS,452464,518689,-1.1902154,54.5607337,BCT,MKD,TIP,,,,031,2018-03-19T14:39:37.280,2018-03-19T14:39:37.280,0,new,active
079073366A,mbrgmat,,,Ruth Avenue,,,,,,CARGO FLEET LANE,,,,A,,S,N0070294,Thorntree,Middlesbrough,,,,,,,UKOS,452462,518806,-1.1902256,54.5617772,BCT,MKD,TIP,,,,031,2018-03-19T14:41:58.685,2018-03-19T14:41:58.685,0,new,active
079073244A,mbrgmda,,,Longhirst,,,,,,GUNNERGATE LANE,,,,A,,N,N0070295,Coulby Newham,,,,,,,,UKOS,451215,514424,-1.2102680,54.5225285,BCT,MKD,OTH,,,,031,2018-03-19T14:57:38.150,2018-03-19T14:57:38.150,0,new,active
079073367A,mbrgmdg,,,Baker Street,,,,,,LINTHORPE ROAD,,,,A,,N,E0039258,Middlesbrough,,,,,,,,UKOS,449376,520057,-1.2377340,54.5733283,BCT,MKD,OTH,,,,031,2018-03-19T17:37:40.257,2018-03-19T17:37:40.257,0,new,active
079073279E,mbrgmdj,,,Cleveland Centre,,,,,,GRANGE ROAD,,,,Stand S,,E,E0039258,Middlesbrough,,,,,,,,UKOS,449485,520173,-1.2360316,54.5743632,BCT,MKD,TIP,,,,031,2018-03-19T17:55:38.879,2018-03-19T17:55:38.879,0,new,active
079073337B,mbrgmdw,,,The Stainton,,,,,,MELDYKE LANE,,,,N bound,,N,E0053439,Stainton,,,,,,,,UKOS,448016,514149,-1.2597307,54.5203779,BCT,MKD,OTH,,,,031,2018-03-20T15:05:20.337,2018-03-20T15:05:20.337,0,new,active
079073365A,mbrgmga,,,Roundabout - Cargo Fleet Lane,,,,,,CARGO FLEET LANE,,,,A,,S,E0041558,Ormesby,,,,,,,,UKOS,453105,517623,-1.1804900,54.5510836,BCT,MKD,TIP,,,,031,2018-03-20T17:22:31.351,2018-03-20T17:23:41.730,1,revise,active
079073365B,mbrgmgd,,,Roundabout - Cargo Fleet Lane,,,,,,CARGO FLEET LANE,,,,B,,N,E0041558,Ormesby,,,,,,,,UKOS,453106,517583,-1.1804818,54.5507241,BCT,MKD,TIP,,,,031,2018-03-20T17:38:17.763,2018-03-20T17:38:53.862,1,revise,active
0790JAMCOK0,,,,James Cook Rail Station,,,,,,LINBY AVENUE,,,,,,,N0070298,James Cook Hospital,Middlesbrough,,,,,,,UKOS,451309,517677,-1.2082550,54.5517509,RSE,,,,,,031,2018-06-15T16:30:31.142,2018-06-15T16:32:22.197,1,revise,active
079073368A,mbrgatm,,,Barrass Grove,,,,,,CRANFIELD AVENUE,,,,A,,N,E0039246,Brambles Farm,Middlesbrough,,,,,,,UKOS,452717,519470,-1.1861655,54.5677224,BCT,MKD,OTH,,,,031,2019-02-05T14:32:20.794,2019-02-05T14:32:20.794,0,new,active
079073368B,mbrgdag,,,Barrass Grove,,,,,,CRANFIELD AVENUE,,,,B,,SE,E0039246,Brambles Farm,Middlesbrough,,,,,,,UKOS,452753,519414,-1.1856109,54.5672116,BCT,MKD,OTH,,,,031,2019-02-05T14:35:01.076,2019-02-05T14:38:15.667,1,revise,active
079073369A,mbrgdgt,,,Brentnall Street,,,,,,BRENTNALL STREET,,,,A,,N,E0039258,Middlesbrough,,,,,,,,UKOS,449147,520304,-1.2412302,54.5755750,BCT,MKD,OTH,,,,031,2020-06-09T10:18:09.743,2020-06-09T10:18:09.743,0,new,active
079073370A,mbrgtgw,,,Ironmasters Road,,,,,,Ironmasters Road,,,,A,,NE,E0039258,Middlesbrough,,,,,,,,UKOS,448147,520164,-1.2567238,54.5744141,BCT,MKD,OTH,,,,031,2022-04-05T14:03:47.938,2022-04-05T14:03:47.938,0,new,active
079073371A,mbrgtja,,,Copper Beech Lane,,,,,,LADGATE LANE,,,,A,,SW,E0039268,Marton Manor,Middlesbrough,,,,,,,UKOS,450099,515748,-1.2272763,54.5345445,BCT,MKD,OTH,,,,031,2023-01-05T11:57:59.845,2023-01-05T11:57:59.845,0,new,active
