ATCOCode,NaptanCode,PlateCode,CleardownCode,CommonName,CommonNameLang,ShortCommonName,ShortCommonNameLang,Landmark,LandmarkLang,Street,StreetLang,Crossing,CrossingLang,Indicator,IndicatorLang,Bearing,NptgLocalityCode,LocalityName,ParentLocalityName,GrandParentLocalityName,Town,TownLang,Suburb,SuburbLang,LocalityCentre,GridType,Easting,Northing,Longitude,Latitude,StopType,BusStopType,TimingStatus,DefaultWaitTime,Notes,NotesLang,AdministrativeAreaCode,CreationDateTime,ModificationDateTime,RevisionNumber,Modification,Status
1280BRANKSM0,,,,Branksome Rail Station,,,,,,,,,,Entrance,,,E0040676,Branksome Park,Poole,,,,,,false,UKOS,405751,91941,-1.91989,50.72706,RSE,,,,,,043,2019-01-29T00:00:00,2019-01-29T10:39:42,5,new,active
1280HMWTHY0,,,,Hamworthy Rail Station,,,,,,,,,,Entrance,,,N0060763,Hamworthy,Poole,,,,,,false,UKOS,398730,91730,-2.01936,50.72519,RSE,,,,,,043,2015-11-13T00:00:00,2015-11-13T09:44:06,1,new,active
1280POOLE0,,,,Poole Rail Station,,,,,,,,,,Entrance,,,E0057224,Poole,,,,,,,false,UKOS,401266,91084,-1.98343,50.71938,RSE,,,,,,043,2015-11-13T00:00:00,2015-11-13T09:47:27,1,new,active
1280PSTONE0,,,,Parkstone (Dorset) Rail Station,,,,,,,,,,Entrance,,,E0040701,Parkstone,Poole,,,,,,false,UKOS,403751,91487,-1.94823,50.723,RSE,,,,,,043,2016-06-15T00:00:00,2016-06-15T12:43:58,5,new,active
1280BSI0,,,,Brownsea Island Ferry Landing,,,,,,,,,,Entrance,,,E0040706,Sandbanks,Poole,,,,,,false,UKOS,403180,87671,-1.95635,50.68868,FTD,,,,,,043,2011-03-09T00:00:00,2011-03-09T15:52:17,0,new,active
1280POP0,,,,Poole Quay Ferry Landing,,,,,,,,,,Entrance,,,E0057224,Poole,,,,,,,false,UKOS,401125,90250,-1.98543,50.71188,FTD,,,,,,043,2011-03-09T00:00:00,2011-03-09T15:52:17,0,new,active
1280POV0,,,,Poole Ferry Terminal,,,,,,,,,,Entrance,,,E0040696,Lower Hamworthy,Poole,,,,,,false,UKOS,400573,89892,-1.99325,50.70866,FTD,,,,,,043,2011-03-09T00:00:00,2011-03-09T15:52:17,0,new,active
1280SWD0,,,,Sandbanks Ferry Terminal,,,,,,,,,,Entrance,,,E0040706,Sandbanks,Poole,,,,,,false,UKOS,403716,87063,-1.94876,50.68321,FTD,,,,,,043,2010-11-26T00:00:00,2010-11-26T16:27:09,0,new,active
1280POA05890,plejmwt,,,Windsor Road,,,,,,Alton Road,,,,SE-bound,,SE,E0040701,Parkstone,Poole,,,,,,false,UKOS,403854,91339,-1.94677,50.72166,BCT,MKD,OTH,,,,043,2006-03-01T00:00:00,2015-04-25T12:19:07,0,new,active
1280POA05891,plejpad,,,Warwick Road,,,,,,Corfe View Road,,,,SE-bound,,SE,E0040701,Parkstone,Poole,,,,,,false,UKOS,404040,91159,-1.94413,50.72004,BCT,MKD,OTH,,,,043,2006-03-01T00:00:00,2015-04-25T12:19:07,0,new,active
1280POA05892,plejpag,,,The Breeze,,,,,,Durrant Road,,,,NE-bound,,NE,E0040676,Branksome Park,Poole,,,,,,false,UKOS,404178,91117,-1.94218,50.71967,BCT,MKD,OTH,,,,043,2006-03-01T00:00:00,2015-04-25T12:19:07,0,new,active
1280POA05893,plejpaj,,,Alton Road East,,,,,,St Osmunds Road,,,,N-bound,,N,E0040676,Branksome Park,Poole,,,,,,false,UKOS,404675,90772,-1.93514,50.71656,BCT,MKD,OTH,,,,043,2006-03-01T00:00:00,2015-04-25T12:19:07,0,new,active
1280POA05894,plejpam,,,Durrant Road,,,,,,Sandecotes Road,,,,S-bound,,S,E0040676,Branksome Park,Poole,,,,,,false,UKOS,404326,91171,-1.94008,50.72015,BCT,MKD,OTH,,,,043,2006-03-13T00:00:00,2020-02-25T08:31:54,0,new,active
1280POA05895,plejpap,,,Milton Road,,,,,,Kings Avenue,,,,E-bound,,E,E0040676,Branksome Park,Poole,,,,,,false,UKOS,404661,90968,-1.93534,50.71832,BCT,MKD,OTH,,,,043,2006-03-01T00:00:00,2015-04-25T12:19:07,0,new,active
1280POA11387,pleapta,,,Montacute School,,,,,,Canford Heath Road,,,,E-bound,,E,N0060769,Canford Heath,Poole,,,,,,false,UKOS,401504,94492,-1.98005,50.75003,BCT,MKD,OTH,,,,043,2003-06-12T00:00:00,2023-02-02T09:43:42,37,new,active
1280POA11388,pleaptg,,,Montacute School,,,,,,Canford Heath Road,,,,opp,,W,N0060769,Canford Heath,Poole,,,,,,false,UKOS,401518,94476,-1.97985,50.74988,BCT,MKD,OTH,,,,043,2003-06-12T00:00:00,2023-02-02T09:44:12,37,new,active
1280POA11391,pleatwm,,,Sandhills Close,,,,,,Tollerford Road,,,,opp,,N,N0060769,Canford Heath,Poole,,,,,,false,UKOS,401805,94823,-1.97578,50.753,BCT,MKD,OTH,,,,043,2006-03-01T00:00:00,2015-04-25T12:19:07,0,new,active
1280POA11392,pleawaj,,,Sandhills Close,,,,,,Tollerford Road,,,,S-bound,,S,N0060769,Canford Heath,Poole,,,,,,false,UKOS,401821,94857,-1.97555,50.75331,BCT,MKD,OTH,,,,043,2006-03-01T00:00:00,2020-02-25T08:31:54,0,new,active
1280POA11832,plejdwa,,,Burton Road,,,,,,Lindsay Road,,,,opp,,E,E0040675,Branksome,Poole,,,,,,false,UKOS,406462,91557,-1.90982,50.7236,BCT,MKD,OTH,,,,043,2006-03-07T00:00:00,2020-02-25T08:31:52,0,new,active
1280POA11833,plejdtw,,,Burton Road,,,,,,Lindsay Road,,,,W-bound,,W,E0040675,Branksome,Poole,,,,,,false,UKOS,406458,91548,-1.90988,50.72352,BCT,MKD,OTH,,,,043,2009-06-10T00:00:00,2020-02-25T08:31:54,0,new,active
1280POA11854,plegjta,,,Parkstone Hotel,,,,,,Station Road,,,,W-bound,,W,E0040701,Parkstone,Poole,,,,,,false,UKOS,403725,91513,-1.94859,50.72323,BCT,MKD,OTH,,,,043,2007-06-21T00:00:00,2016-06-15T12:49:08,3,new,active
1280POA11855,plegjtd,,,Parkstone Railway Station,,,,,,Station Road,,,,opp,,E,E0040701,Parkstone,Poole,,,,,,false,UKOS,403718,91517,-1.94869,50.72327,BCT,MKD,OTH,,,,043,2007-06-21T00:00:00,2016-06-15T12:49:34,6,new,active
1280POA11856,plegmgd,,,Gulliver Close,,,,,,Lilliput Road,,,,opp,,E,E0040693,Lilliput,Poole,,,,,,false,UKOS,404155,89797,-1.94252,50.70779,BCT,MKD,OTH,,,,043,2006-03-07T00:00:00,2014-11-21T11:16:22,1,new,active
1280POA11857,plegmjd,,,Gulliver Close,,,,,,Lilliput Road,,,,W-bound,,W,E0040693,Lilliput,Poole,,,,,,false,UKOS,404185,89788,-1.9421,50.70771,BCT,MKD,OTH,,,,043,2006-03-07T00:00:00,2014-11-21T11:20:29,11,new,active
1280POA11859,plegmwm,,,Holy Angels Church,,,,,,Lilliput Road,,,,opp,,W,E0040693,Lilliput,Poole,,,,,,false,UKOS,404411,89797,-1.9389,50.70779,BCT,MKD,OTH,,,,043,2007-06-21T00:00:00,2020-08-06T12:11:03,9,new,active
1280POA11858,plegmtm,,,Holy Angels Church,,,,,,Lilliput Road,,,,E-bound,,E,E0040693,Lilliput,Poole,,,,,,false,UKOS,404400,89810,-1.93905,50.70791,BCT,MKD,OTH,,,,043,2007-06-21T00:00:00,2020-02-25T08:31:54,0,new,active
1280POA11850,plegmtj,,,Woodside Road,,,,,,Woodside Road,,,,E-bound,,E,E0040701,Parkstone,Poole,,,,,,false,UKOS,404334,91391,-1.93997,50.72213,BCT,MKD,OTH,,,,043,2003-06-12T00:00:00,2014-10-24T11:56:36,16,new,active
1280POA11849,plegpap,,,Woodside Road,,,,,,Woodside Road,,,,W-bound,,W,E0040701,Parkstone,Poole,,,,,,false,UKOS,404393,91392,-1.93913,50.72214,BCT,MKD,OTH,,,,043,2003-06-12T00:00:00,2014-10-24T11:56:54,13,new,active
1280POA11843,plegmwt,,,St Dunstan Church,,,,,,Richmond Road,,,,N-bound,,N,E0040701,Parkstone,Poole,,,,,,false,UKOS,404388,91757,-1.9392,50.72542,BCT,MKD,OTH,,,,043,2006-03-01T00:00:00,2023-09-07T11:59:57,50,new,active
1280POA11842,plegpat,,,St Dunstans Church,,,,,,Richmond Road,,,,S-bound,,S,E0040701,Parkstone,Poole,,,,,,false,UKOS,404396,91748,-1.93909,50.72534,BCT,MKD,OTH,,,,043,2006-03-01T00:00:00,2019-05-08T09:20:08,14,new,active
1280POA11844,plegpad,,,Courthill Road,,,,,,Richmond Road,,,,S-bound,,S,E0040701,Parkstone,Poole,,,,,,false,UKOS,404383,91902,-1.93927,50.72672,BCT,MKD,OTH,,,,043,2006-03-01T00:00:00,2017-02-06T14:04:39,11,new,active
1280POA11845,plegmwj,,,Langdon Road,,,,,,Richmond Road,,,,N-bound,,N,E0040701,Parkstone,Poole,,,,,,false,UKOS,404376,91880,-1.93937,50.72653,BCT,MKD,OTH,,,,043,2006-03-01T00:00:00,2015-03-04T10:49:47,8,new,active
1280POA11847,plegmpg,,,Salisbury Road,,,,,,Salisbury Road,,,,N-bound,,N,E0040701,Parkstone,Poole,,,,,,false,UKOS,404292,92123,-1.94055,50.72871,BCT,MKD,OTH,,,,043,2006-03-07T00:00:00,2015-07-29T16:10:01,6,new,active
1280POA11806,pleapwg,,,Bus Station,,,,,,Poole Bus Station,,,,Stand A,,,E0057224,Poole,,,,,,,false,UKOS,401583,90938,-1.97894,50.71807,BCS,,,,,,043,2009-11-09T00:00:00,2015-11-17T11:53:29,22,new,active
1280POA11807,pleapwt,,,Bus Station,,,,,,Poole Bus Station,,,,Stand B,,,E0057224,Poole,,,,,,,false,UKOS,401590,90936,-1.97884,50.71805,BCS,,,,,,043,2007-06-21T00:00:00,2015-11-17T11:53:52,9,new,active
1280POA11809,pleataj,,,Bus Station,,,,,,Poole Bus Station,,,,Stand C,,,E0057224,Poole,,,,,,,false,UKOS,401595,90932,-1.97877,50.71801,BCS,,,,,,043,2007-06-21T00:00:00,2015-11-06T07:46:11,12,new,active
1280POA11810,pleatat,,,Bus Station,,,,,,Poole Bus Station,,,,Stand D,,,E0057224,Poole,,,,,,,false,UKOS,401603,90929,-1.97866,50.71799,BCS,,,,,,043,2007-06-21T00:00:00,2015-11-06T07:46:21,13,new,active
1280POA11811,pleatda,,,Bus Station,,,,,,Poole Bus Station,,,,Stand E,,,E0057224,Poole,,,,,,,false,UKOS,401615,90929,-1.97849,50.71799,BCS,,,,,,043,2007-06-21T00:00:00,2015-10-15T15:27:28,15,new,active
1280POA11812,pleatdg,,,Bus Station,,,,,,Poole Bus Station,,,,Stand F,,,E0057224,Poole,,,,,,,false,UKOS,401618,90927,-1.97845,50.71797,BCS,,,,,,043,2007-06-21T00:00:00,2015-10-15T15:27:56,6,new,active
1280POA11813,pleatdm,,,Bus Station,,,,,,Poole Bus Station,,,,Stand G,,,E0057224,Poole,,,,,,,false,UKOS,401623,90926,-1.97837,50.71796,BCS,,,,,,043,2009-06-05T00:00:00,2015-10-15T15:28:24,6,new,active
1280POA11814,pleatdp,,,Bus Station,,,,,,Poole Bus Station,,,,Stand H,,,E0057224,Poole,,,,,,,false,UKOS,401630,90924,-1.97828,50.71794,BCS,,,,,,043,2007-06-21T00:00:00,2015-10-15T15:28:50,7,new,active
1280POA11816,pleatga,,,Bus Station,,,,,,Poole Bus Station,,,,Stand J,,,E0057224,Poole,,,,,,,false,UKOS,401638,90923,-1.97816,50.71793,BCS,,,,,,043,2007-06-21T00:00:00,2015-10-15T15:29:13,6,new,active
1280POA11817,pleatgd,,,Bus Station,,,,,,Poole Bus Station,,,,Stand K,,,E0057224,Poole,,,,,,,false,UKOS,401644,90922,-1.97808,50.71792,BCS,,,,,,043,2007-06-21T00:00:00,2015-10-15T15:29:39,6,new,active
1280POA11818,pleatgm,,,Bus Station,,,,,,Poole Bus Station,,,,Stand L,,,E0057224,Poole,,,,,,,false,UKOS,401651,90922,-1.97798,50.71792,BCS,,,,,,043,2007-06-21T00:00:00,2015-10-15T15:29:56,6,new,active
1280POA11819,pleatgp,,,Bus Station,,,,,,Poole Bus Station,,,,Stand M,,,E0057224,Poole,,,,,,,false,UKOS,401657,90922,-1.97789,50.71792,BCS,,,,,,043,2007-06-21T00:00:00,2015-10-15T15:30:12,12,new,active
1280POA11820,pleatgw,,,Bus Station,,,,,,Poole Bus Station,,,,Stand N,,,E0057224,Poole,,,,,,,false,UKOS,401663,90920,-1.97781,50.71791,BCS,,,,,,043,2007-06-21T00:00:00,2015-11-02T11:14:02,11,new,active
1280POA11821,pleatjd,,,Bus Station,,,,,,Poole Bus Station,,,,Stand O,,,E0057224,Poole,,,,,,,false,UKOS,401668,90921,-1.97774,50.71791,BCS,,,,,,043,2007-06-21T00:00:00,2015-11-17T11:53:08,17,new,active
1280POA90860,plejwjp,,,Bus Station,,,,,,Poole Bus Station,,,,Stand AA,,,E0057224,Poole,,,,,,,false,UKOS,401578,90945,-1.97901,50.71813,BCS,,,,,,043,2020-05-13T00:00:00,2020-05-13T12:59:13,37,new,active
1280POA11799,plegjgw,,,Doulton Gardens,,,,,,Pottery Road,,,,SE-bound,,SE,E0040701,Parkstone,Poole,,,,,,false,UKOS,403615,90826,-1.95016,50.71705,BCT,MKD,OTH,,,,043,2007-06-21T00:00:00,2014-11-21T11:53:25,10,new,active
1280POA11800,plegjmd,,,Doulton Gardens,,,,,,Pottery Road,,,,NW-bound,,NW,E0040701,Parkstone,Poole,,,,,,false,UKOS,403630,90804,-1.94995,50.71685,BCT,MKD,OTH,,,,043,2007-06-21T00:00:00,2014-11-21T11:52:58,12,new,active
1280POA11802,plegjtm,,,Conifer Avenue,,,,,,Pottery Road,,,,N-bound,,N,E0040701,Parkstone,Poole,,,,,,false,UKOS,403805,90701,-1.94747,50.71593,BCT,MKD,OTH,,,,043,2006-03-08T00:00:00,2020-02-25T08:31:53,0,new,active
1280POA11801,plegjtp,,,Conifer Avenue,,,,,,Pottery Road,,,,S-bound,,S,E0040701,Parkstone,Poole,,,,,,false,UKOS,403815,90725,-1.94733,50.71614,BCT,MKD,OTH,,,,043,2006-03-01T00:00:00,2020-02-25T08:31:53,0,new,active
1280POA11803,plegjma,,,Parkstone Cemetery,,,,,,Elgin Road,,,,opp,,W,E0040693,Lilliput,Poole,,,,,,false,UKOS,403626,90452,-1.95001,50.71369,BCT,MKD,OTH,,,,043,2007-06-21T00:00:00,2015-04-25T12:19:10,0,new,active
1280POA11804,plegjgm,,,Parkstone Cemetery,,,,,,Elgin Road,,,,E-bound,,E,E0040693,Lilliput,Poole,,,,,,false,UKOS,403595,90453,-1.95045,50.7137,BCT,MKD,OTH,,,,043,2007-06-21T00:00:00,2020-01-07T13:50:03,0,new,active
1280POA11822,pleamdg,,,Dee Way,,,,,,West Quay Road,,,,N-bound,,N,E0057224,Poole,,,,,,,false,UKOS,400681,90438,-1.99172,50.71357,BCT,MKD,OTH,,,,043,2006-03-03T00:00:00,2020-02-25T08:31:53,0,new,active
1280POA11827,plejawg,,,Tesco,,,,,,Poole Road,,,,W-bound,,W,E0040675,Branksome,Poole,,,,,,false,UKOS,405925,91843,-1.91742,50.72618,BCT,MKD,OTH,,,,043,2005-11-09T00:00:00,2021-07-07T13:30:46,0,new,active
1280POA11824,plejdjd,,,Tesco,,,,,,Poole Road,,,,E-bound,,E,E0040675,Branksome,Poole,,,,,,false,UKOS,406073,91805,-1.91533,50.72584,BCT,MKD,OTH,,,,043,2005-11-09T00:00:00,2021-07-07T13:30:46,0,new,active
1280POA11825,plejdtg,,,Eagle Road,,,,,,Poole Road,,,,E-bound,,E,E0040675,Branksome,Poole,,,,,,false,UKOS,406428,91682,-1.9103,50.72473,BCT,MKD,OTH,,,,043,2005-11-09T00:00:00,2021-07-07T13:30:46,0,new,active
1280POA11826,plejdpm,,,Eagle Road,,,,,,Poole Road,,,,opp,,W,E0040675,Branksome,Poole,,,,,,false,UKOS,406487,91647,-1.90946,50.72441,BCT,MKD,OTH,,,,043,2006-05-16T00:00:00,2014-11-20T14:36:12,4,new,active
1280POA11112,pleagag,,,Dorset House,,,,,,Coles Avenue,,,,opp,,E,E0040692,Lake,Poole,,,,,,false,UKOS,399300,90684,-2.01128,50.71578,BCT,MKD,OTH,,,,043,2006-03-07T00:00:00,2020-02-25T08:31:52,0,new,active
1280POA11111,pleadwd,,,Dorset House,,,,,,Coles Avenue,,,,adj,,W,E0040692,Lake,Poole,,,,,,false,UKOS,399258,90655,-2.01187,50.71552,BCT,MKD,OTH,,,,043,2007-06-21T00:00:00,2020-02-25T08:31:52,0,new,active
1280POA11113,pleadpw,,,Lakeside,,,,,,Coles Avenue,,,,E-bound,,E,E0040692,Lake,Poole,,,,,,false,UKOS,399137,90615,-2.01359,50.71516,BCT,MKD,OTH,,,,043,2006-03-07T00:00:00,2020-02-25T08:31:53,0,new,active
1280POA11114,pleadpg,,,Lakeside,,,,,,Lake Road,,,,N-bound,,N,E0040692,Lake,Poole,,,,,,false,UKOS,399078,90647,-2.01442,50.71545,BCT,MKD,OTH,,,,043,2007-06-21T00:00:00,2019-07-25T11:32:22,12,new,active
1280POA11116,pleadta,,,Hamworthy Labour Club,,,,,,Lake Road,,,,S-bound,,S,E0040692,Lake,Poole,,,,,,false,UKOS,399141,90814,-2.01353,50.71695,BCT,MKD,OTH,,,,043,2006-03-03T00:00:00,2020-02-25T08:31:53,0,new,active
1280POA11117,pleadpt,,,Hamworthy Labour Club,,,,,,Lake Road,,,,N-bound,,N,E0040692,Lake,Poole,,,,,,false,UKOS,399136,90871,-2.0136,50.71747,BCT,MKD,OTH,,,,043,2007-06-21T00:00:00,2019-07-25T11:35:00,12,new,active
1280POA11118,pleadtg,,,Hamilton Road,,,,,,Lake Road,,,,S-bound,,S,E0040692,Lake,Poole,,,,,,false,UKOS,399155,90963,-2.01333,50.71829,BCT,MKD,OTH,,,,043,2006-03-08T00:00:00,2020-02-25T08:31:53,0,new,active
1280POA11119,pleadtd,,,Hamilton Road,,,,,,Lake Road,,,,N-bound,,N,E0040692,Lake,Poole,,,,,,false,UKOS,399150,90977,-2.0134,50.71842,BCT,MKD,OTH,,,,043,2006-03-06T00:00:00,2015-12-03T12:50:38,23,new,active
1280POA11104,pleadga,,,Marines Camp,,,,,,Napier Road,,,,E-bound,,E,N0060763,Hamworthy,Poole,,,,,,false,UKOS,398164,91066,-2.02737,50.71922,BCT,MKD,OTH,,,,043,2006-01-26T00:00:00,2020-01-07T13:50:03,0,new,active
1280POA05868,plejmwd,,,Marines Camp,,,,,,Napier Road,,,,W-bound,,W,N0060763,Hamworthy,Poole,,,,,,false,UKOS,398207,91042,-2.02676,50.719,BCT,CUS,OTH,,,,043,2007-04-05T00:00:00,2017-04-12T12:12:21,7,new,active
1280POA11099,pleadmd,,,Lake Drive,,,,,,Napier Road,,,,W-bound,,W,E0040692,Lake,Poole,,,,,,false,UKOS,398734,90502,-2.0193,50.71415,BCT,MKD,OTH,,,,043,2006-05-23T00:00:00,2020-08-06T12:17:35,9,new,active
1280POA11105,pleadmp,,,Lake Drive,,,,,,Lake Drive,,,,E-bound,,E,E0040692,Lake,Poole,,,,,,false,UKOS,398836,90527,-2.01785,50.71437,BCT,MKD,OTH,,,,043,2007-06-21T00:00:00,2020-01-07T13:50:03,0,new,active
1280POZ00730,pleadpa,,,The Yachtsman,,,,,,Lake Road,,,,NE-bound,,NE,E0040692,Lake,Poole,,,,,,false,UKOS,399010,90494,-2.01539,50.71408,BCT,CUS,OTH,,,,043,2006-01-25T00:00:00,2020-01-07T13:50:03,0,new,active
1280POA11107,pleadpd,,,The Yachtsman,,,,,,Lake Road,,,,S-bound,,S,E0040692,Lake,Poole,,,,,,false,UKOS,399013,90482,-2.01534,50.71397,BCT,MKD,OTH,,,,043,2007-06-21T00:00:00,2020-01-07T13:50:03,0,new,active
1280POA11109,pleagjg,,,Hamworthy Liberal Club,,,,,,Blandford Road,,,,NW-bound,,NW,E0040692,Lake,Poole,,,,,,false,UKOS,399597,90711,-2.00707,50.71603,BCT,MKD,OTH,,,,043,2007-06-21T00:00:00,2020-08-20T10:43:26,2,new,active
1280POA11110,pleagjm,,,Hamworthy Co-op,,,,,,Blandford Road,,,,SE-bound,,SE,E0040692,Lake,Poole,,,,,,false,UKOS,399597,90740,-2.00707,50.71629,BCT,MKD,OTH,,,,043,2006-03-03T00:00:00,2020-02-25T08:31:53,0,new,active
1280POA11128,pleadjp,,,Rice Gardens,,,,,,Turlin Road,,,,SW-bound,,SW,E0040710,Turlin Moor,Poole,,,,,,false,UKOS,398653,91864,-2.02045,50.72639,BCT,MKD,OTH,,,,043,2006-03-07T00:00:00,2020-02-25T08:31:53,0,new,active
1280POA11129,pleadjm,,,Rice Gardens,,,,,,Turlin Road,,,,NE-bound,,NE,E0040710,Turlin Moor,Poole,,,,,,false,UKOS,398635,91863,-2.0207,50.72639,BCT,MKD,OTH,,,,043,2007-06-21T00:00:00,2020-02-20T10:07:13,9,new,active
1280POA11130,pleadgj,,,Maryland Road,,,,,,Turlin Road,,,,W-bound,,W,E0040710,Turlin Moor,Poole,,,,,,false,UKOS,398398,91771,-2.02406,50.72556,BCT,MKD,OTH,,,,043,2006-03-07T00:00:00,2020-02-25T08:31:53,0,new,active
1280POA11131,pleadgm,,,Maryland Road,,,,,,Turlin Road,,,,opp,,E,E0040710,Turlin Moor,Poole,,,,,,false,UKOS,398473,91785,-2.023,50.72568,BCT,MKD,OTH,,,,043,2007-06-21T00:00:00,2015-04-25T12:19:10,0,new,active
1280POA11134,pleadaw,,,Shops,,,,,,Turlin Road,,,,E-bound,,E,E0040710,Turlin Moor,Poole,,,,,,false,UKOS,398086,91753,-2.02848,50.7254,BCT,MKD,OTH,,,,043,2007-06-21T00:00:00,2020-02-20T10:03:16,9,new,active
1280POA11133,pleadgd,,,Shops,,,,,,Turlin Road,,,,W-bound,,W,E0040710,Turlin Moor,Poole,,,,,,false,UKOS,398178,91762,-2.02718,50.72548,BCT,MKD,OTH,,,,043,2006-01-26T00:00:00,2020-02-25T08:31:53,0,new,active
1280POA11120,pleagad,,,Red Lion,,,,,,Blandford Road,,,,N-bound,,N,N0060763,Hamworthy,Poole,,,,,,false,UKOS,399286,91352,-2.01148,50.72179,BCT,MKD,OTH,,,,043,2006-01-26T00:00:00,2020-02-25T08:31:53,0,new,active
1280POA11194,pleagaj,,,Red Lion,,,,,,Blandford Road,,,,S-bound,,S,N0060763,Hamworthy,Poole,,,,,,false,UKOS,399311,91325,-2.01112,50.72155,BCT,MKD,OTH,,,,043,2006-01-25T00:00:00,2020-02-25T08:31:53,0,new,active
1280POA11122,pleadpj,,,Dawkins Road,,,,,,Blandford Road,,,,SE-bound,,SE,N0060763,Hamworthy,Poole,,,,,,false,UKOS,399134,91526,-2.01363,50.72336,BCT,MKD,OTH,,,,043,2006-01-26T00:00:00,2020-02-25T08:31:54,0,new,active
1280POA11121,pleadpm,,,Dawkins Road,,,,,,Blandford Road,,,,NW-bound,,NW,N0060763,Hamworthy,Poole,,,,,,false,UKOS,399139,91503,-2.01356,50.72315,BCT,MKD,OTH,,,,043,2006-01-26T00:00:00,2020-02-25T08:31:54,0,new,active
1280POA11125,pleadmt,,,Fire Station,,,,,,Blandford Road,,,,SE-bound,,SE,N0060763,Hamworthy,Poole,,,,,,false,UKOS,398974,91775,-2.0159,50.7256,BCT,MKD,OTH,,,,043,2006-01-26T00:00:00,2020-02-25T08:31:54,0,new,active
1280POA11124,pleadmw,,,Fire Station,,,,,,Blandford Road,,,,NW-bound,,NW,N0060763,Hamworthy,Poole,,,,,,false,UKOS,398987,91733,-2.01572,50.72522,BCT,MKD,OTH,,,,043,2006-01-26T00:00:00,2020-02-25T08:31:54,0,new,active
1280POA11103,pleadam,,,Rockley Park,,,,,,,,,,SW-bound,,SW,N0060761,Rockley Park,,,,,,,false,UKOS,398016,91094,-2.02947,50.71947,BCT,MKD,OTH,,,,043,2007-06-21T00:00:00,2022-12-19T15:42:31,18,new,active
1280POA11085,pleamgt,,,Queen Mary,,,,,,West Street,,,,S-bound,,S,E0057224,Poole,,,,,,,false,UKOS,400860,90563,-1.98918,50.7147,BCT,MKD,OTH,,,,043,2006-03-03T00:00:00,2020-08-20T10:42:11,2,new,active
1280POA11086,pleamdj,,,Lifeboat Station,,,,,,The Quay,,,,E-bound,,E,E0057224,Poole,,,,,,,false,UKOS,400740,90311,-1.99088,50.71243,BCT,MKD,OTH,,,,043,2006-03-03T00:00:00,2015-04-25T12:19:10,0,new,active
1280POA11087,pleampw,,,The Portsmouth Hoy,,,,,,The Quay,,,,E-bound,,E,E0057224,Poole,,,,,,,false,UKOS,400975,90284,-1.98755,50.71219,BCT,MKD,OTH,,,,043,2009-05-21T00:00:00,2015-08-10T16:11:28,15,new,active
1280POA11088,pleamjg,,,Link House,,,,,,West Street,,,,NE-bound,,NE,E0057224,Poole,,,,,,,false,UKOS,400941,90714,-1.98804,50.71605,BCT,MKD,OTH,,,,043,2006-01-25T00:00:00,2015-04-25T12:19:10,0,new,active
1280POA11199,pleapdp,,,Poole Railway Station,,,,,,Vanguard Road,,,,S-bound,,S,E0057224,Poole,,,,,,,false,UKOS,401234,91009,-1.98388,50.71871,BCT,MKD,OTH,,,,043,2008-12-03T00:00:00,2020-02-25T08:31:54,0,new,active
1280POA11089,pleapgp,,,Poole Railway Station,,,,,,,,,,N-bound,,N,E0057224,Poole,,,,,,,false,UKOS,401260,91061,-1.98352,50.71917,BCT,MKD,OTH,,,,043,2007-06-21T00:00:00,2023-03-01T12:30:26,31,new,active
1280POA11239,pleapdj,,,Poole Railway Station,,,,,,Holes Bay Road,,,,N-bound,,N,E0057224,Poole,,,,,,,false,UKOS,401212,91082,-1.9842,50.71936,BCT,MKD,OTH,,,,043,2007-06-21T00:00:00,2015-10-22T10:41:57,4,new,active
1280POA11075,pleatpj,,,Labrador Drive,,,,,,Labrador Drive,,,,E-bound,,E,E0057224,Poole,,,,,,,false,UKOS,401772,90273,-1.97627,50.71209,BCT,MKD,OTH,,,,043,2007-06-21T00:00:00,2016-04-04T15:26:53,4,new,active
1280POA11076,pleawga,,,Harbourside Park,,,,,,Labrador Drive,,,,NE-bound,,NE,E0057224,Poole,,,,,,,false,UKOS,401945,90291,-1.97382,50.71225,BCT,MKD,OTH,,,,043,2006-03-03T00:00:00,2025-04-07T09:31:43,41,new,active
1280POA11077,pleawmd,,,Harbourside Car Park,,,,,,Catalina Drive,,,,opp,,N,E0057224,Poole,,,,,,,false,UKOS,402049,90464,-1.97234,50.7138,BCT,MKD,OTH,,,,043,2006-03-03T00:00:00,2025-04-07T09:35:32,37,new,active
1280POA11078,pleawjt,,,Waldren Close,,,,,,Newfoundland Drive,,,,W-bound,,W,E0057224,Poole,,,,,,,false,UKOS,402031,90620,-1.9726,50.71521,BCT,MKD,OTH,,,,043,2006-03-08T00:00:00,2020-02-25T08:31:54,0,new,active
1280POA11079,pleawda,,,Taverner Close,,,,,,Newfoundland Drive,,,,S-bound,,S,E0057224,Poole,,,,,,,false,UKOS,401848,90507,-1.97519,50.71419,BCT,MKD,OTH,,,,043,2008-07-30T00:00:00,2020-02-25T08:31:54,0,new,active
1280POA11080,pleamtm,,,Old Orchard,,,,,,Old Orchard,,,,NW-bound,,NW,E0057224,Poole,,,,,,,false,UKOS,401104,90440,-1.98573,50.71359,BCT,MKD,OTH,,,,043,2006-03-07T00:00:00,2020-02-25T08:31:54,0,new,active
1280POA11081,pleamtp,,,Old Orchard,,,,,,Old Orchard,,,,SE-bound,,SE,E0057224,Poole,,,,,,,false,UKOS,401114,90446,-1.98559,50.71364,BCT,MKD,OTH,,,,043,2006-03-07T00:00:00,2020-02-25T08:31:54,0,new,active
1280POA11097,pleadtm,,,Purbeck Avenue,,,,,,Lulworth Avenue,,,,W-bound,,W,E0040692,Lake,Poole,,,,,,false,UKOS,399235,90365,-2.0122,50.71292,BCT,MKD,OTH,,,,043,2006-03-07T00:00:00,2020-01-07T13:50:03,0,new,active
1280POA11098,pleadtp,,,Purbeck Avenue,,,,,,Lulworth Avenue,,,,opp,,E,E0040692,Lake,Poole,,,,,,false,UKOS,399240,90372,-2.01213,50.71298,BCT,MKD,OTH,,,,043,2006-03-07T00:00:00,2020-01-07T13:50:01,0,new,active
1280POA11100,pleadjd,,,Napier Road Top,,,,,,Napier Road,,,,NW-bound,,NW,N0060763,Hamworthy,Poole,,,,,,false,UKOS,398564,90627,-2.0217,50.71527,BCT,MKD,OTH,,,,043,2006-05-23T00:00:00,2020-01-07T13:50:03,0,new,active
1280POA11101,pleadja,,,Napier Road Top,,,,,,Napier Road,,,,SE-bound,,SE,N0060763,Hamworthy,Poole,,,,,,false,UKOS,398541,90657,-2.02203,50.71554,BCT,MKD,OTH,,,,043,2006-05-23T00:00:00,2020-01-07T13:50:03,0,new,active
1280POA11102,pleadat,,,Rockley Park set down only,,,,,,,,,,W-bound,,W,N0060761,Rockley Park,,,,,,,false,UKOS,398036,91067,-2.02919,50.71923,BCT,MKD,OTH,,,,043,2007-04-05T00:00:00,2024-05-02T08:51:37,35,delete,inactive
1280POA11095,pleagjw,,,Hamworthy Park,,,,,,Lulworth Avenue,,,,W-bound,,W,E0040692,Lake,Poole,,,,,,false,UKOS,399608,90255,-2.00692,50.71193,BCT,MKD,OTH,,,,043,2006-03-07T00:00:00,2020-01-07T13:50:03,0,new,active
1280POA11096,pleagma,,,Hamworthy Park,,,,,,Lulworth Avenue,,,,opp,,E,E0040692,Lake,Poole,,,,,,false,UKOS,399616,90261,-2.0068,50.71198,BCT,MKD,OTH,,,,043,2006-03-07T00:00:00,2020-01-07T13:50:01,0,new,active
1280POA11090,pleajwp,,,Condor and Brittany Ferry,,,,,,New Harbour Road South,,,,opp,,N,E0057224,Poole,,,,,,,false,UKOS,400566,89928,-1.99335,50.70899,BCT,MKD,OTH,,,,043,2003-06-12T00:00:00,2015-04-25T12:19:10,0,new,active
1280POA11091,pleajtw,,,Carters Quay,,,,,,Blandford Road,,,,SE-bound,,SE,E0040696,Lower Hamworthy,Poole,,,,,,false,UKOS,400393,90245,-1.9958,50.71184,BCT,MKD,OTH,,,,043,2007-06-21T00:00:00,2019-07-25T11:26:35,14,new,active
1280POA11092,pleajtg,,,Carters Quay,,,,,,Blandford Road,,,,opp,,W,E0040696,Lower Hamworthy,Poole,,,,,,false,UKOS,400338,90259,-1.99658,50.71196,BCT,MKD,OTH,,,,043,2006-01-25T00:00:00,2019-07-25T11:26:57,11,new,active
1280POA11094,pleagtg,,,Ashmore Crescent,,,,,,Ashmore Avenue,,,,S-bound,,S,E0040692,Lake,Poole,,,,,,false,UKOS,399782,90457,-2.00445,50.71374,BCT,MKD,OTH,,,,043,2007-06-21T00:00:00,2022-11-29T13:44:56,6,new,active
1280POA11195,pleagdp,,,Burngate Road,,,,,,Blandford Road,,,,opp,,SE,E0040692,Lake,Poole,,,,,,false,UKOS,399459,90982,-2.00903,50.71846,BCT,MKD,OTH,,,,043,2006-03-07T00:00:00,2020-02-25T08:31:52,0,new,active
1280POA11196,pleagdg,,,The Rectory,,,,,,Blandford Road,,,,NW-bound,,NW,E0040692,Lake,Poole,,,,,,false,UKOS,399435,90996,-2.00937,50.71859,BCT,MKD,OTH,,,,043,2007-06-21T00:00:00,2020-02-25T08:31:54,0,new,active
1280POA11197,pleagwd,,,Ashmore Avenue,,,,,,Blandford Road,,,,E-bound,,E,E0040696,Lower Hamworthy,Poole,,,,,,false,UKOS,399853,90511,-2.00345,50.71423,BCT,MKD,OTH,,,,043,2006-03-07T00:00:00,2019-07-25T11:29:01,11,new,active
1280POA90823,plejtpm,,,Ashmore Avenue,,,,,,Blandford Road,,,,W-bound,,W,E0040696,Lower Hamworthy,Poole,,,,,,false,UKOS,399874,90485,-2.00315,50.714,BCT,CUS,OTH,,,,043,2019-07-25T00:00:00,2019-07-25T11:30:12,15,new,active
1280POA11198,pleajdp,,,Ivor Road,,,,,,Blandford Road,,,,SE-bound,,SE,E0040696,Lower Hamworthy,Poole,,,,,,false,UKOS,400126,90376,-1.99958,50.71302,BCT,MKD,OTH,,,,043,2009-06-05T00:00:00,2020-02-25T08:31:54,0,new,active
1280POA11193,pleadjt,,,Willow Close,,,,,,Blandford Road,,,,SE-bound,,SE,E0040710,Turlin Moor,Poole,,,,,,false,UKOS,398655,92272,-2.02042,50.73006,BCT,MKD,OTH,,,,043,2006-03-07T00:00:00,2015-12-11T14:53:35,14,new,active
1280POA11179,pleagja,,,Swift Close,,,,,,Northmead Drive,,,,NW-bound,,NW,E0040683,Creekmoor,Poole,,,,,,false,UKOS,399553,93697,-2.0077,50.74288,BCT,MKD,OTH,,,,043,2006-01-26T00:00:00,2017-06-27T11:42:38,12,new,active
1280POA11180,pleagjd,,,Swift Close,,,,,,Northmead Drive,,,,SE-bound,,SE,E0040683,Creekmoor,Poole,,,,,,false,UKOS,399595,93682,-2.00711,50.74275,BCT,MKD,OTH,,,,043,2006-01-26T00:00:00,2020-02-25T08:31:54,0,new,active
1280POA11181,pleagdj,,,Grebe Close,,,,,,Woodpecker Drive,,,,SW-bound,,SW,E0040683,Creekmoor,Poole,,,,,,false,UKOS,399439,93653,-2.00932,50.74248,BCT,MKD,OTH,,,,043,2006-01-26T00:00:00,2020-02-25T08:31:54,0,new,active
1280POA11182,pleagaw,,,Grebe Close,,,,,,Woodpecker Drive,,,,opp,,E,E0040683,Creekmoor,Poole,,,,,,false,UKOS,399433,93661,-2.0094,50.74256,BCT,MKD,OTH,,,,043,2006-03-08T00:00:00,2015-04-25T12:19:10,0,new,active
1280POA11191,pleadgw,,,Sandy Lane,,,,,,Blandford Road,,,,SE-bound,,SE,E0040710,Turlin Moor,Poole,,,,,,false,UKOS,398499,92517,-2.02263,50.73227,BCT,MKD,OTH,,,,043,2005-10-21T00:00:00,2020-02-25T08:31:54,0,new,active
1280POA11142,pleadjg,,,Sandy Lane,,,,,,Blandford Road,,,,NW-bound,,NW,E0040710,Turlin Moor,Poole,,,,,,false,UKOS,398586,92362,-2.0214,50.73087,BCT,MKD,OTH,,,,043,2005-10-21T00:00:00,2020-02-25T08:31:54,0,new,active
1280POA11192,pleadgp,,,Old Bound Road,,,,,,Blandford Road,,,,N-bound,,N,E0040710,Turlin Moor,Poole,,,,,,false,UKOS,398478,92528,-2.02293,50.73237,BCT,MKD,OTH,,,,043,2005-10-21T00:00:00,2020-02-25T08:31:54,0,new,active
1280POA11209,pleapap,,,Rectory Road,,,,,,Stanley Green Road,,,,NE-bound,,NE,N0073123,Stanley Green,Poole,,,,,,false,UKOS,401169,92463,-1.9848,50.73178,BCT,MKD,OTH,,,,043,2006-01-26T00:00:00,2023-10-11T07:20:21,37,new,active
1280POA11210,pleapat,,,Rectory Road,,,,,,Rectory Road,,,,SE-bound,,SE,N0073123,Stanley Green,Poole,,,,,,false,UKOS,401181,92521,-1.98463,50.7323,BCT,MKD,OTH,,,,043,2006-01-26T00:00:00,2023-10-11T07:20:46,31,new,active
1280POA11212,pleapad,,,Preston Road,,,,,,Christopher Crescent,,,,NW-bound,,NW,N0073123,Stanley Green,Poole,,,,,,false,UKOS,401142,92645,-1.98518,50.73342,BCT,MKD,OTH,,,,043,2007-04-05T00:00:00,2023-10-11T07:24:21,37,new,active
1280POA11211,pleamwg,,,Preston Road,,,,,,Christopher Crescent,,,,SE-bound,,SE,N0073123,Stanley Green,Poole,,,,,,false,UKOS,401121,92672,-1.98548,50.73366,BCT,MKD,OTH,,,,043,2007-04-05T00:00:00,2023-10-11T07:24:56,37,new,active
1280POA11213,pleamta,,,Fleets Lane,,,,,,Christopher Crescent,,,,opp,,S,N0073123,Stanley Green,Poole,,,,,,false,UKOS,401054,92823,-1.98643,50.73502,BCT,MKD,OTH,,,,043,2006-03-07T00:00:00,2015-04-25T12:19:10,0,new,active
1280POA11214,pleampm,,,Fleets Lane,,,,,,Christopher Crescent,,,,N-bound,,N,N0073123,Stanley Green,Poole,,,,,,false,UKOS,401048,92783,-1.98651,50.73466,BCT,MKD,OTH,,,,043,2006-03-07T00:00:00,2020-02-25T08:31:54,0,new,active
1280POA90848,plejwdw,,,Fleets Lane,,,,,,Christopher Crescent,,,,S-bound,,S,N0073123,Stanley Green,Poole,,,,,,false,UKOS,401057,92784,-1.98639,50.73467,BCT,MKD,OTH,,,,043,2017-06-27T00:00:00,2020-08-26T16:41:59,71,new,active
1280POA11208,pleampj,,,Palmer Road,,,,,,Stanley Green Road,,,,opp,,N,N0073123,Stanley Green,Poole,,,,,,false,UKOS,401036,92247,-1.98669,50.72984,BCT,MKD,OTH,,,,043,2007-06-20T00:00:00,2020-02-25T08:31:52,0,new,active
1280POA11207,pleampt,,,Palmer Road,,,,,,Stanley Green Road,,,,S-bound,,S,N0073123,Stanley Green,Poole,,,,,,false,UKOS,401050,92189,-1.98649,50.72932,BCT,MKD,OTH,,,,043,2006-01-26T00:00:00,2020-02-25T08:31:54,0,new,active
1280POA11201,pleapdt,,,West View Road,,,,,,Sterte Road,,,,SE-bound,,SE,E0040708,Sterte,Poole,,,,,,false,UKOS,401245,91456,-1.98373,50.72273,BCT,MKD,OTH,,,,043,2007-06-21T00:00:00,2025-09-19T12:56:10,37,new,active
1280POA11200,pleapdw,,,West View Road,,,,,,Sterte Road,,,,NW-bound,,NW,E0040708,Sterte,Poole,,,,,,false,UKOS,401221,91489,-1.98407,50.72302,BCT,MKD,OTH,,,,043,2007-06-21T00:00:00,2023-10-10T21:08:43,37,new,active
1280POA11202,pleamtj,,,Sterte Shops,,,,,,Sterte Road,,,,N-bound,,N,E0040708,Sterte,Poole,,,,,,false,UKOS,401105,91728,-1.98571,50.72517,BCT,MKD,OTH,,,,043,2006-01-26T00:00:00,2023-10-11T08:12:50,37,new,active
1280POA11204,pleamwa,,,Sterte Shops,,,,,,Sterte Road,,,,S-bound,,S,E0040708,Sterte,Poole,,,,,,false,UKOS,401119,91715,-1.98551,50.72506,BCT,MKD,OTH,,,,043,2007-06-21T00:00:00,2023-10-11T08:12:08,37,new,active
1280POA11205,pleapam,,,Tatnam Road,,,,,,Stanley Green Road,,,,S-bound,,S,N0073123,Stanley Green,Poole,,,,,,false,UKOS,401160,92007,-1.98493,50.72768,BCT,MKD,OTH,,,,043,2009-06-05T00:00:00,2020-02-25T08:31:54,0,new,active
1280POA11206,pleapag,,,Tatnam Road,,,,,,Stanley Green Road,,,,opp,,N,N0073123,Stanley Green,Poole,,,,,,false,UKOS,401148,92006,-1.9851,50.72767,BCT,MKD,OTH,,,,043,2009-06-05T00:00:00,2020-02-25T08:31:52,0,new,active
1280POA11178,pleagpw,,,Medical Centre,,,,,,Northmead Drive,,,,opp,,SE,E0040683,Creekmoor,Poole,,,,,,false,UKOS,399750,93555,-2.00491,50.7416,BCT,MKD,OTH,,,,043,2006-03-08T00:00:00,2015-04-25T12:19:11,0,new,active
1280POA11177,pleagpj,,,Medical Centre,,,,,,Northmead Drive,,,,NW-bound,,NW,E0040683,Creekmoor,Poole,,,,,,false,UKOS,399702,93591,-2.00559,50.74193,BCT,MKD,OTH,,,,043,2007-06-08T00:00:00,2020-02-20T10:28:38,9,new,active
1280POA11157,pleadtj,,,Woodpecker Drive,,,,,,Longmeadow Lane,,,,N-bound,,N,E0040683,Creekmoor,Poole,,,,,,false,UKOS,399233,93695,-2.01224,50.74286,BCT,MKD,OTH,,,,043,2006-03-07T00:00:00,2020-01-07T13:50:03,0,new,active
1280POA11158,pleadtw,,,Woodpecker Drive,,,,,,Longmeadow Lane,,,,S-bound,,S,E0040683,Creekmoor,Poole,,,,,,false,UKOS,399243,93706,-2.01209,50.74296,BCT,MKD,OTH,,,,043,2006-01-26T00:00:00,2020-01-07T13:50:03,0,new,active
1280POA11159,pleadwm,,,Meadowsweet Road,,,,,,Longmeadow Lane,,,,N-bound,,N,E0040683,Creekmoor,Poole,,,,,,false,UKOS,399263,93969,-2.01181,50.74533,BCT,MKD,OTH,,,,043,2006-03-07T00:00:00,2020-01-07T13:50:03,0,new,active
1280POA11160,pleadwt,,,Meadowsweet Road,,,,,,Longmeadow Lane,,,,SW-bound,,SW,E0040683,Creekmoor,Poole,,,,,,false,UKOS,399274,93986,-2.01166,50.74548,BCT,MKD,OTH,,,,043,2006-03-09T00:00:00,2020-01-07T13:50:03,0,new,active
1280POA11162,pleagjt,,,Honeysuckle Lane,,,,,,Beechbank Avenue,,,,NE-bound,,NE,E0040683,Creekmoor,Poole,,,,,,false,UKOS,399607,94242,-2.00694,50.74778,BCT,MKD,OTH,,,,043,2006-03-07T00:00:00,2020-01-07T13:50:03,0,new,active
1280POA11163,pleagmt,,,Honeysuckle Lane,,,,,,Beechbank Avenue,,,,SW-bound,,SW,E0040683,Creekmoor,Poole,,,,,,false,UKOS,399646,94276,-2.00638,50.74809,BCT,MKD,OTH,,,,043,2006-01-26T00:00:00,2020-01-07T13:50:03,0,new,active
1280POA11136,pleadap,,,Foreland Road,,,,,,Foreland Road,,,,S-bound,,S,E0040710,Turlin Moor,Poole,,,,,,false,UKOS,398008,91651,-2.02959,50.72448,BCT,MKD,OTH,,,,043,2006-01-25T00:00:00,2020-02-25T08:31:54,0,new,active
1280POA11137,pleadaj,,,Egmont Road,,,,,,Egmont Road,,,,W-bound,,W,E0040710,Turlin Moor,Poole,,,,,,false,UKOS,397980,91524,-2.02998,50.72334,BCT,MKD,OTH,,,,043,2006-01-25T00:00:00,2020-02-25T08:31:54,0,new,active
1280POA11139,pleadag,,,Egmont Road Substation,,,,,,Egmont Road,,,,NW-bound,,NW,E0040710,Turlin Moor,Poole,,,,,,false,UKOS,397779,91525,-2.03283,50.72334,BCT,MKD,OTH,,,,043,2006-01-25T00:00:00,2021-02-17T11:19:38,8,new,active
1280POA11141,pleadad,,,Peverell Road,,,,,,Egmont Road,,,,E-bound,,E,E0040710,Turlin Moor,Poole,,,,,,false,UKOS,397833,91657,-2.03206,50.72453,BCT,MKD,OTH,,,,043,2006-01-25T00:00:00,2020-02-25T08:31:54,0,new,active
1280POA11171,pleajpw,,,Petersham Road,,,,,,Creekmoor Lane,,,,opp,,S,E0040683,Creekmoor,Poole,,,,,,false,UKOS,400347,93428,-1.99645,50.74046,BCT,MKD,OTH,,,,043,2006-05-16T00:00:00,2015-04-25T12:19:11,0,new,active
1280POA11172,pleajpm,,,Petersham Road,,,,,,Creekmoor Lane,,,,N-bound,,N,E0040683,Creekmoor,Poole,,,,,,false,UKOS,400329,93449,-1.9967,50.74065,BCT,MKD,OTH,,,,043,2006-01-26T00:00:00,2020-02-25T08:31:54,0,new,active
1280POA11173,pleajgd,,,Millfield,,,,,,Northmead Drive,,,,W-bound,,W,E0040683,Creekmoor,Poole,,,,,,false,UKOS,400176,93370,-1.99887,50.73994,BCT,MKD,OTH,,,,043,2006-01-26T00:00:00,2020-02-25T08:31:54,0,new,active
1280POA11174,pleajmd,,,Millfield,,,,,,Northmead Drive,,,,opp,,E,E0040683,Creekmoor,Poole,,,,,,false,UKOS,400213,93379,-1.99835,50.74002,BCT,MKD,OTH,,,,043,2006-01-26T00:00:00,2015-04-25T12:19:11,0,new,active
1280POA11176,pleajad,,,Oakmead Road,,,,,,Northmead Drive,,,,opp,,W,E0040683,Creekmoor,Poole,,,,,,false,UKOS,399953,93418,-2.00203,50.74037,BCT,MKD,OTH,,,,043,2006-01-26T00:00:00,2015-04-25T12:19:11,0,new,active
1280POA11175,pleajag,,,Oakmead Road,,,,,,Northmead Drive,,,,E-bound,,E,E0040683,Creekmoor,Poole,,,,,,false,UKOS,400025,93405,-2.00101,50.74025,BCT,MKD,OTH,,,,043,2006-01-26T00:00:00,2020-02-25T08:31:54,0,new,active
1280POA11164,pleagtp,,,Primrose Gardens,,,,,,Creekmoor Lane,,,,E-bound,,E,E0040683,Creekmoor,Poole,,,,,,false,UKOS,399848,94242,-2.00352,50.74778,BCT,MKD,OTH,,,,043,2006-01-26T00:00:00,2020-01-07T13:50:03,0,new,active
1280POA11165,pleagwt,,,Clover Drive,,,,,,Creekmoor Lane,,,,NW-bound,,NW,E0040683,Creekmoor,Poole,,,,,,false,UKOS,399944,94167,-2.00216,50.74711,BCT,MKD,OTH,,,,043,2006-01-26T00:00:00,2020-01-07T13:50:03,0,new,active
1280POA11167,pleajaj,,,Tarn Drive,,,,,,Creekmoor Lane,,,,N-bound,,N,E0040683,Creekmoor,Poole,,,,,,false,UKOS,400035,94045,-2.00087,50.74601,BCT,MKD,OTH,,,,043,2006-01-26T00:00:00,2020-08-05T16:10:24,8,new,active
1280POA11166,pleajam,,,Tarn Drive,,,,,,Creekmoor Lane,,,,S-bound,,S,E0040683,Creekmoor,Poole,,,,,,false,UKOS,400037,94060,-2.00084,50.74614,BCT,MKD,OTH,,,,043,2006-01-26T00:00:00,2020-08-05T16:10:49,8,new,active
1280POA11168,pleajdj,,,Borley Road,,,,,,Creekmoor Lane,,,,N-bound,,N,E0040683,Creekmoor,Poole,,,,,,false,UKOS,400096,93830,-2,50.74408,BCT,MKD,OTH,,,,043,2006-01-26T00:00:00,2020-02-25T08:31:54,0,new,active
1280POA11170,pleajdw,,,Borley Road,,,,,,Creekmoor Lane,,,,SE-bound,,SE,E0040683,Creekmoor,Poole,,,,,,false,UKOS,400144,93764,-1.99932,50.74348,BCT,MKD,OTH,,,,043,2006-01-26T00:00:00,2020-02-25T08:31:54,0,new,active
1280POA11071,pleapgd,,,Nelson Court,,,,,,Lagland Street,,,,SW-bound,,SW,E0057224,Poole,,,,,,,false,UKOS,401246,90555,-1.98372,50.71462,BCT,MKD,OTH,,,,043,2007-06-21T00:00:00,2020-02-25T08:31:54,0,new,active
1280POA11070,pleapgm,,,Nelson Court,,,,,,Lagland Street,,,,NE-bound,,NE,E0057224,Poole,,,,,,,false,UKOS,401284,90614,-1.98318,50.71515,BCT,MKD,OTH,,,,043,2006-03-03T00:00:00,2025-09-19T13:02:34,9,new,active
1280POA05360,plejpwm,,,Barters Lane,,,,,,Clarendon Road,,,,SW-bound,,SW,E0040677,Broadstone,Poole,,,,,,false,UKOS,399660,95544,-2.00619,50.75949,BCT,MKD,OTH,,,,043,2007-10-01T00:00:00,2021-07-07T13:30:46,0,new,active
1280POA11288,pleagmd,,,Barters Lane,,,,,,Barters Lane,,,,NW-bound,,NW,E0040677,Broadstone,Poole,,,,,,false,UKOS,399626,95502,-2.00667,50.75911,BCT,MKD,OTH,,,,043,2006-05-23T00:00:00,2015-04-25T12:19:11,0,new,active
1280POA05372,plejpwt,,,Wilts and Dorset Depot,,,,,,Kingland Crescent,,,,E-bound,,E,E0057224,Poole,,,,,,,false,UKOS,401593,90801,-1.9788,50.71684,BCT,CUS,OTH,,,,043,2007-10-24T00:00:00,2015-04-25T12:19:11,0,new,active
1280POA05708,plejtap,,,The Circle,,,,,,Cliff Drive,,,,S-bound,,S,E0040678,Canford Cliffs,Poole,,,,,,false,UKOS,405578,89228,-1.92238,50.70267,BCT,MKD,OTH,,,,043,2008-06-01T00:00:00,2020-01-07T13:50:03,0,new,active
1280POA05707,plejtam,,,The Circle,,,,,,Cliff Drive,,,,N-bound,,N,E0040678,Canford Cliffs,Poole,,,,,,false,UKOS,405568,89224,-1.92252,50.70263,BCT,MKD,OTH,,,,043,2008-06-01T00:00:00,2020-01-07T13:50:03,0,new,active
1280POA05353,plejpwj,,,Willett Arms,,,,,,Oakley Lane,,,,E-bound,,E,E0040700,Oakley,Poole,,,,,,false,UKOS,401778,98646,-1.97614,50.78738,BCT,CUS,OTH,,,,043,2007-07-10T00:00:00,2020-02-25T08:31:53,0,new,active
1280DOY38864,pleagpt,,,Corfe Hills School,,,,,,,,,,N-bound,,N,E0040677,Broadstone,Poole,,,,,,false,UKOS,399737,96603,-2.0051,50.76901,BCT,MKD,OTH,,,,043,2005-10-21T00:00:00,2014-10-13T10:37:12,5,new,active
1280DOZ04911,plejmda,,,Corfe Hills School,,,,,,Higher Blandford Road,,,,opp,,SE,E0040677,Broadstone,Poole,,,,,,false,UKOS,399766,96713,-2.00468,50.77,BCT,CUS,OTH,,,,043,2005-10-21T00:00:00,2015-04-25T12:19:07,0,new,active
1280DOZ04910,plejmaw,,,Corfe Hills School,,,,,,Higher Blandford Road,,,,NW-bound,,NW,E0040677,Broadstone,Poole,,,,,,false,UKOS,399796,96664,-2.00426,50.76956,BCT,CUS,OTH,,,,043,2005-10-21T00:00:00,2015-04-25T12:19:07,0,new,active
1280POA05345,plejpwa,,,Ashdown School,,,,,,Adastral Road,,,,NW-bound,,NW,N0060769,Canford Heath,Poole,,,,,,false,UKOS,402452,94435,-1.96661,50.74951,BCT,MKD,OTH,,,,043,2007-06-08T00:00:00,2020-08-20T10:30:51,2,new,active
1280POA05344,plejptw,,,Ashdown School,,,,,,Adastral Road,,,,SE-bound,,SE,N0060769,Canford Heath,Poole,,,,,,false,UKOS,402462,94451,-1.96647,50.74966,BCT,MKD,OTH,,,,043,2007-06-08T00:00:00,2020-02-25T08:31:53,0,new,active
1280POA05346,plejpwd,,,Lansdell Court,,,,,,Birds Hill Road,,,,N-bound,,N,E0057224,Poole,,,,,,,false,UKOS,402387,91332,-1.96755,50.72161,BCT,MKD,OTH,,,,043,2007-06-20T00:00:00,2015-06-26T14:32:10,6,new,active
1280POA05347,plejpwg,,,Churchfield Court,,,,,,Parkstone Road,,,,E-bound,,E,E0057224,Poole,,,,,,,false,UKOS,402124,91203,-1.97128,50.72045,BCT,MKD,OTH,,,,043,2007-06-20T00:00:00,2015-06-26T14:44:29,6,new,active
1280POA05782,plejtgm,,,Cotes Avenue,,,,,,North Road,,,,N-bound,,N,E0040701,Parkstone,Poole,,,,,,false,UKOS,403321,92053,-1.95431,50.72809,BCT,MKD,OTH,,,,043,2008-10-06T00:00:00,2020-02-25T08:31:54,0,new,active
1280POA05783,plejtgp,,,Cotes Avenue,,,,,,North Road,,,,S-bound,,S,E0040701,Parkstone,Poole,,,,,,false,UKOS,403311,92006,-1.95445,50.72766,BCT,MKD,OTH,,,,043,2008-10-06T00:00:00,2020-02-25T08:31:54,0,new,active
1280POA05727,plejtdj,,,Shapwick Road,,,,,,Norton Way,,,,NE-bound,,NE,E0040696,Lower Hamworthy,Poole,,,,,,false,UKOS,400324,90197,-1.99678,50.71141,BCT,MKD,OTH,,,,043,2010-09-07T00:00:00,2020-08-20T10:34:44,10,new,active
1280POA05705,plejtag,,,De Mauley Road,,,,,,Haven Road,,,,NE-bound,,NE,E0040678,Canford Cliffs,Poole,,,,,,false,UKOS,405451,89447,-1.92417,50.70464,BCT,MKD,OTH,,,,043,2009-06-05T00:00:00,2024-03-13T15:33:01,49,new,active
1280POA05709,plejtat,,,De Mauley Road,,,,,,Haven Road,,,,SW-bound,,SW,E0040678,Canford Cliffs,Poole,,,,,,false,UKOS,405451,89436,-1.92417,50.70454,BCT,MKD,OTH,,,,043,2009-06-05T00:00:00,2024-03-13T15:34:03,41,new,active
1280BOB20040,plegtag,,,Runnymede Avenue Top,,,,,,Runnymede Avenue,,,,NW-bound,,NW,N0060766,Bearwood,Poole,,,,,,false,UKOS,404763,96843,-1.93382,50.77115,BCT,MKD,OTH,,,,043,2006-05-16T00:00:00,2018-04-13T16:23:24,4,new,active
1280BOB20041,plegtam,,,Runnymede Avenue Top,,,,,,Runnymede Avenue,,,,SE-bound,,SE,N0060766,Bearwood,Poole,,,,,,false,UKOS,404769,96850,-1.93374,50.77122,BCT,MKD,OTH,,,,043,2006-03-07T00:00:00,2018-04-13T16:23:32,3,new,active
1280BOB20042,plegptg,,,Viscount Walk,,,,,,King John Avenue,,,,S-bound,,S,N0060766,Bearwood,Poole,,,,,,false,UKOS,404649,96574,-1.93544,50.76873,BCT,MKD,OTH,,,,043,2006-05-16T00:00:00,2020-02-25T08:31:54,0,new,active
1280BOB20043,plegpmp,,,Viscounts Walk,,,,,,King John Avenue,,,,N-bound,,N,N0060766,Bearwood,Poole,,,,,,false,UKOS,404639,96585,-1.93558,50.76883,BCT,MKD,OTH,,,,043,2006-03-07T00:00:00,2020-02-25T08:31:53,0,new,active
1280BOB20044,plegpwd,,,King John Avenue,,,,,,King John Avenue,,,,o/s 74,,W,N0060766,Bearwood,Poole,,,,,,false,UKOS,404728,96476,-1.93432,50.76785,BCT,MKD,OTH,,,,043,2006-03-09T00:00:00,2020-02-25T08:31:53,0,new,active
1280BOB20045,plegtda,,,King John Avenue,,,,,,King John Avenue,,,,E-bound,,E,N0060766,Bearwood,Poole,,,,,,false,UKOS,404783,96493,-1.93354,50.768,BCT,MKD,OTH,,,,043,2006-05-16T00:00:00,2020-08-20T09:50:41,24,new,active
1280BOB20038,plegwat,,,Knights Road,,,,,,Runnymede Avenue,,,,NW-bound,,NW,N0060766,Bearwood,Poole,,,,,,false,UKOS,405069,96664,-1.92948,50.76954,BCT,MKD,OTH,,,,043,2006-05-16T00:00:00,2020-02-25T08:31:53,0,new,active
1280BOB20039,plegwaw,,,Knights Road,,,,,,Runnymede Avenue,,,,SE-bound,,SE,N0060766,Bearwood,Poole,,,,,,false,UKOS,405073,96675,-1.92943,50.76964,BCT,MKD,OTH,,,,043,2006-05-16T00:00:00,2020-02-25T08:31:53,0,new,active
1280BOB20037,plegwgj,,,Knights Road,,,,,,Knights Road,,,,N-bound,,N,N0060766,Bearwood,Poole,,,,,,false,UKOS,405093,96632,-1.92914,50.76925,BCT,MKD,OTH,,,,043,2006-05-16T00:00:00,2015-04-25T12:19:07,0,new,active
1280BOB20034,plegwga,,,Fitzwilliam Close,,,,,,Knights Road,,,,E-bound,,E,N0060766,Bearwood,Poole,,,,,,false,UKOS,405086,96027,-1.92925,50.76381,BCT,MKD,OTH,,,,043,2007-06-08T00:00:00,2020-01-07T12:10:33,10,new,active
1280BOB20033,plegwdm,,,Fitzwilliam Close,,,,,,Knights Road,,,,o/s 148,,W,N0060766,Bearwood,Poole,,,,,,false,UKOS,405084,96015,-1.92928,50.7637,BCT,MKD,OTH,,,,043,2007-06-08T00:00:00,2020-01-07T12:11:21,8,new,active
1280POA11385,pleapmp,,,Poole Grammar School,,,,,,Gravel Hill,,,,S-bound,,S,E0040687,Gravel Hill,,,,,,,false,UKOS,401378,95027,-1.98183,50.75484,BCT,MKD,OTH,,,,043,2003-06-12T00:00:00,2020-01-07T13:50:03,0,new,active
1280POA11386,pleapmj,,,Poole Grammar School,,,,,,Gravel Hill,,,,opp,,N,E0040687,Gravel Hill,,,,,,,false,UKOS,401382,95116,-1.98177,50.75564,BCT,MKD,OTH,,,,043,2003-06-12T00:00:00,2020-08-20T11:12:09,2,new,active
1280POA11381,pleatjw,,,Canford Bridge,,,,,,Oakley Hill,,,,S-bound,,S,E0040700,Oakley,Poole,,,,,,false,UKOS,401690,99042,-1.97739,50.79094,BCT,MKD,OTH,,,,043,2009-06-05T00:00:00,2023-04-17T08:53:27,0,new,active
1280POA11382,pleatjp,,,Canford Bridge,,,,,,Oakley Hill,,,,N-bound,,N,E0040700,Oakley,Poole,,,,,,false,UKOS,401685,98999,-1.97746,50.79056,BCT,MKD,OTH,,,,043,2003-06-12T00:00:00,2023-04-17T09:11:19,0,new,active
1280POA11400,pleatdt,,,Holnest Road,,,,,,Stinsford Road,,,,NW-bound,,NW,N0060769,Canford Heath,Poole,,,,,,false,UKOS,401629,94302,-1.97828,50.74832,BCT,MKD,OTH,,,,043,2006-03-06T00:00:00,2015-04-25T12:19:07,0,new,active
1280POA11403,pleapwa,,,Police Station,,,,,,Wimborne Road,,,,N-bound,,N,E0057224,Poole,,,,,,,false,UKOS,401572,91457,-1.97909,50.72273,BCT,MKD,OTH,,,,043,2006-01-26T00:00:00,2015-06-26T12:23:53,11,new,active
1280POA11404,pleatma,,,Tatnam Road,,,,,,Wimborne Road,,,,N-bound,,N,E0057224,Poole,,,,,,,false,UKOS,401703,91792,-1.97724,50.72575,BCT,MKD,OTH,,,,043,2007-06-21T00:00:00,2024-03-01T18:30:44,12,new,active
1280POA11412,pleatjm,,,Tatnam Road,,,,,,Wimborne Road,,,,S-bound,,S,E0057224,Poole,,,,,,,false,UKOS,401683,91657,-1.97752,50.72453,BCT,MKD,OTH,,,,043,2007-06-21T00:00:00,2015-06-26T12:22:49,10,new,active
1280POA11399,pleatwd,,,Cowley Road,,,,,,Cowley Road,,,,NE-bound,,NE,N0060769,Canford Heath,Poole,,,,,,false,UKOS,401780,93889,-1.97614,50.7446,BCT,MKD,OTH,,,,043,2003-06-12T00:00:00,2015-04-25T12:19:07,0,new,active
1280POA11393,pleawap,,,Steeple Close,,,,,,Tollerford Road,,,,opp,,N,N0060769,Canford Heath,Poole,,,,,,false,UKOS,401828,95151,-1.97545,50.75595,BCT,MKD,OTH,,,,043,2006-03-06T00:00:00,2015-04-25T12:19:07,0,new,active
1280POA11394,pleatgt,,,Thorn Road,,,,,,Edgarton Road,,,,S-bound,,S,N0060769,Canford Heath,Poole,,,,,,false,UKOS,401661,95194,-1.97782,50.75634,BCT,MKD,OTH,,,,043,2006-03-06T00:00:00,2020-02-25T08:31:54,0,new,active
1280POA11395,pleatpt,,,Edgarton Road,,,,,,Edgarton Road,,,,E-bound,,E,N0060769,Canford Heath,Poole,,,,,,false,UKOS,401764,95048,-1.97636,50.75503,BCT,MKD,OTH,,,,043,2006-03-06T00:00:00,2020-02-25T08:31:54,0,new,active
1280POA11396,pleatmj,,,Ryall Drive,,,,,,Stinsford Road,,,,SE-bound,,SE,N0060769,Canford Heath,Poole,,,,,,false,UKOS,401710,94251,-1.97713,50.74786,BCT,MKD,OTH,,,,043,2006-03-06T00:00:00,2020-08-20T11:13:56,2,new,active
1280POA11397,pleatjg,,,Witney Road,,,,,,Stinsford Road,,,,S-bound,,S,N0060769,Canford Heath,Poole,,,,,,false,UKOS,401669,94022,-1.97771,50.7458,BCT,MKD,OTH,,,,043,2006-03-06T00:00:00,2015-04-25T12:19:07,0,new,active
1280POA11398,pleatad,,,Hatch Pond Road,,,,,,Hatch Pond Road,,,,SE-bound,,SE,N0060769,Canford Heath,Poole,,,,,,false,UKOS,401594,93754,-1.97877,50.74339,BCT,MKD,OTH,,,,043,2009-06-05T00:00:00,2015-04-25T12:19:07,0,new,active
1280POA11380,pleatmd,,,Oakley Road,,,,,,Oakley Hill,,,,opp,,N,E0040700,Oakley,Poole,,,,,,false,UKOS,401699,98794,-1.97726,50.78871,BCT,MKD,OTH,,,,043,2006-03-07T00:00:00,2020-02-25T08:31:52,0,new,active
1280POA11379,pleatmp,,,Oakley Road,,,,,,Oakley Hill,,,,S-bound,,S,E0040700,Oakley,Poole,,,,,,false,UKOS,401711,98776,-1.97709,50.78855,BCT,MKD,OTH,,,,043,2009-06-05T00:00:00,2020-02-25T08:31:54,0,new,active
1280POA11358,pleawaw,,,De Montfort Road,,,,,,Merley Gardens,,,,opp,,E,E0040697,Merley,Poole,,,,,,false,UKOS,401844,98113,-1.97521,50.78259,BCT,MKD,OTH,,,,043,2006-03-07T00:00:00,2015-04-25T12:19:07,0,new,active
1280POA11357,pleawad,,,De Montfort Road,,,,,,Merley Gardens,,,,W-bound,,W,E0040697,Merley,Poole,,,,,,false,UKOS,401814,98092,-1.97564,50.7824,BCT,MKD,OTH,,,,043,2006-03-07T00:00:00,2020-08-05T16:43:34,10,new,active
1280POA11359,pleawtj,,,Huntingdon Drive,,,,,,Merley Gardens,,,,opp,,E,E0040697,Merley,Poole,,,,,,false,UKOS,402188,98163,-1.97033,50.78304,BCT,MKD,OTH,,,,043,2006-03-07T00:00:00,2015-04-25T12:19:07,0,new,active
1280POA11360,plegadg,,,Huntingdon Drive,,,,,,Merley Gardens,,,,W-bound,,W,E0040697,Merley,Poole,,,,,,false,UKOS,402220,98160,-1.96988,50.78301,BCT,MKD,OTH,,,,043,2006-03-07T00:00:00,2020-02-25T08:31:54,0,new,active
1280POA11361,plegaja,,,Selkirk Close,,,,,,Merley Lane,,,,E-bound,,E,E0040697,Merley,Poole,,,,,,false,UKOS,402381,98217,-1.96759,50.78352,BCT,MKD,OTH,,,,043,2007-06-08T00:00:00,2020-08-05T16:40:18,9,new,active
1280POA11362,plegajp,,,Selkirk Close,,,,,,Merley Lane,,,,W-bound,,W,E0040697,Merley,Poole,,,,,,false,UKOS,402414,98197,-1.96712,50.78334,BCT,MKD,OTH,,,,043,2006-03-08T00:00:00,2020-02-25T08:31:54,0,new,active
1280POA11350,pleapwm,,,Poole Crematorium,,,,,,Gravel Hill,,,,opp,,N,E0040677,Broadstone,Poole,,,,,,false,UKOS,401587,96273,-1.97886,50.76604,BCT,MKD,OTH,,,,043,2006-03-07T00:00:00,2020-02-25T08:31:52,0,new,active
1280POA11349,pleatam,,,Poole Crematorium,,,,,,Gravel Hill,,,,S-bound,,S,E0040677,Broadstone,Poole,,,,,,false,UKOS,401600,96336,-1.97868,50.76661,BCT,MKD,OTH,,,,043,2006-05-23T00:00:00,2020-08-05T16:36:39,9,new,active
1280POA11353,pleawdp,,,Rempstone Road,,,,,,Rempstone Road,,,,S-bound,,S,E0040697,Merley,Poole,,,,,,false,UKOS,401896,97762,-1.97447,50.77943,BCT,MKD,OTH,,,,043,2009-06-05T00:00:00,2020-02-25T08:31:54,0,new,active
1280POA11354,pleawdm,,,Rempstone Road,,,,,,Rempstone Road,,,,N-bound,,N,E0040697,Merley,Poole,,,,,,false,UKOS,401887,97761,-1.9746,50.77942,BCT,MKD,OTH,,,,043,2006-03-09T00:00:00,2020-02-25T08:31:54,0,new,active
1280POA11356,pleawam,,,Mimosa Avenue,,,,,,Rempstone Road,,,,opp,,N,E0040697,Merley,Poole,,,,,,false,UKOS,401822,97954,-1.97552,50.78116,BCT,MKD,OTH,,,,043,2006-03-07T00:00:00,2015-04-25T12:19:07,0,new,active
1280POA11355,pleawdg,,,Mimosa Avenue,,,,,,Rempstone Road,,,,S-bound,,S,E0040697,Merley,Poole,,,,,,false,UKOS,401851,97903,-1.97511,50.7807,BCT,MKD,OTH,,,,043,2009-06-05T00:00:00,2020-02-25T08:31:54,0,new,active
1280POA11373,plegagd,,,The Lantern Church,,,,,,Sopwith Crescent,,,,SW-bound,,SW,E0040697,Merley,Poole,,,,,,false,UKOS,402268,98443,-1.96919,50.78556,BCT,MKD,OTH,,,,043,2003-06-12T00:00:00,2022-04-06T12:06:54,6,new,active
1280POA11374,plegaga,,,The Lantern Church,,,,,,Sopwith Crescent,,,,NE-bound,,NE,E0040697,Merley,Poole,,,,,,false,UKOS,402264,98455,-1.96925,50.78566,BCT,MKD,OTH,,,,043,2007-06-08T00:00:00,2022-04-06T12:07:16,6,new,active
1280POA11370,plegama,,,Chichester Walk,,,,,,Sopwith Crescent,,,,E-bound,,E,E0040697,Merley,Poole,,,,,,false,UKOS,402435,98550,-1.96682,50.78652,BCT,MKD,OTH,,,,043,2007-06-08T00:00:00,2022-04-13T12:59:40,6,new,active
1280POA11369,plegamj,,,Chichester Walk,,,,,,Sopwith Crescent,,,,W-bound,,W,E0040697,Merley,Poole,,,,,,false,UKOS,402467,98543,-1.96637,50.78645,BCT,MKD,OTH,,,,043,2007-06-08T00:00:00,2022-04-13T12:59:20,6,new,active
1280POA11375,pleawmg,,,Merley First School,,,,,,Oakley Straight,,,,N-bound,,N,E0040700,Oakley,Poole,,,,,,false,UKOS,402050,98433,-1.97229,50.78547,BCT,MKD,OTH,,,,043,2007-06-08T00:00:00,2022-04-13T14:56:58,16,new,active
1280POA11376,pleawmw,,,Merley First School,,,,,,Oakley Straight,,,,opp,,S,E0040700,Oakley,Poole,,,,,,false,UKOS,402083,98524,-1.97182,50.78628,BCT,MKD,OTH,,,,043,2006-03-07T00:00:00,2022-04-13T14:56:39,6,new,active
1280POA11377,pleawjg,,,Oakley House,,,,,,Oakley Lane,,,,E-bound,,E,E0040700,Oakley,Poole,,,,,,false,UKOS,402006,98605,-1.97291,50.78701,BCT,MKD,OTH,,,,043,2003-06-12T00:00:00,2020-02-25T08:31:53,0,new,active
1280POA11378,pleawjw,,,Oakley House,,,,,,Oakley Lane,,,,opp,,W,E0040700,Oakley,Poole,,,,,,false,UKOS,402037,98590,-1.97247,50.78688,BCT,MKD,OTH,,,,043,2003-06-12T00:00:00,2020-02-25T08:31:52,0,new,active
1280POA11363,plegawj,,,Cockerell Close,,,,,,Sopwith Crescent,,,,N-bound,,N,E0040697,Merley,Poole,,,,,,false,UKOS,402690,98150,-1.96321,50.78292,BCT,MKD,OTH,,,,043,2006-03-07T00:00:00,2019-10-08T15:57:07,12,new,active
1280POA11364,plegdad,,,Cockerell Close,,,,,,Sopwith Crescent,,,,opp,,SW,E0040697,Merley,Poole,,,,,,false,UKOS,402704,98196,-1.96301,50.78333,BCT,MKD,OTH,,,,043,2006-03-07T00:00:00,2015-04-25T12:19:07,0,new,active
1280POA11366,plegdgw,,,Brabazon Road,,,,,,Sopwith Crescent,,,,opp,,N,E0040697,Merley,Poole,,,,,,false,UKOS,402813,98363,-1.96146,50.78483,BCT,MKD,OTH,,,,043,2006-03-08T00:00:00,2015-04-25T12:19:07,0,new,active
1280POA11365,plegdjg,,,Brabazon Road,,,,,,Sopwith Crescent,,,,S-bound,,S,E0040697,Merley,Poole,,,,,,false,UKOS,402821,98338,-1.96135,50.78461,BCT,MKD,OTH,,,,043,2006-03-08T00:00:00,2020-02-25T08:31:53,0,new,active
1280POA11368,plegapg,,,De Haviland Close,,,,,,Sopwith Crescent,,,,opp,,E,E0040697,Merley,Poole,,,,,,false,UKOS,402672,98539,-1.96346,50.78642,BCT,MKD,OTH,,,,043,2006-05-11T00:00:00,2022-04-13T13:01:29,7,new,active
1280POA11367,plegapm,,,De Haviland Close,,,,,,Sopwith Crescent,,,,W-bound,,W,E0040697,Merley,Poole,,,,,,false,UKOS,402685,98527,-1.96328,50.78631,BCT,MKD,OTH,,,,043,2006-03-07T00:00:00,2022-04-13T13:01:10,6,new,active
1280POA11444,pleawjp,,,Nurses Home,,,,,,Mount Pleasant Road,,,,SW-bound,,SW,E0057224,Poole,,,,,,,false,UKOS,402014,91108,-1.97283,50.7196,BCT,MKD,OTH,,,,043,2007-06-21T00:00:00,2015-06-26T14:25:42,6,new,active
1280POA11426,pleawgj,,,Nurses Home,,,,,,Parkstone Road,,,,E-bound,,E,E0057224,Poole,,,,,,,false,UKOS,401963,91195,-1.97356,50.72038,BCT,MKD,OTH,,,,043,2007-06-21T00:00:00,2020-08-20T11:31:58,9,new,active
1280POA90845,plejwdm,,,Nurses Home,,,,,,Parkstone Road,,,,W-bound,,W,E0057224,Poole,,,,,,,false,UKOS,401888,91164,-1.97462,50.7201,BCT,MKD,OTH,,,,043,2017-04-24T00:00:00,2020-08-26T16:37:48,71,new,active
1280POA11445,plegawm,,,Ocean Academy,,,,,,Constitution Hill Road,,,,NE-bound,,NE,E0040701,Parkstone,Poole,,,,,,false,UKOS,402693,91949,-1.96321,50.72716,BCT,MKD,OTH,,,,043,2007-11-02T00:00:00,2017-10-04T11:37:03,16,new,active
1280POA11447,plegawd,,,Ocean Academy,,,,,,Constitution Hill Road,,,,opp,,SW,E0040701,Parkstone,Poole,,,,,,false,UKOS,402671,91917,-1.96352,50.72687,BCT,MKD,OTH,,,,043,2007-11-02T00:00:00,2017-10-04T11:37:43,14,new,active
1280POA11449,plegdjt,,,Hatherden Avenue,,,,,,Constitution Hill Road,,,,SW-bound,,SW,E0040701,Parkstone,Poole,,,,,,false,UKOS,402893,92085,-1.96038,50.72838,BCT,MKD,OTH,,,,043,2008-12-09T00:00:00,2019-12-18T14:38:31,14,new,active
1280POA11448,plegdjw,,,Hatherden Avenue,,,,,,Constitution Hill Road,,,,NE-bound,,NE,E0040701,Parkstone,Poole,,,,,,false,UKOS,402896,92097,-1.96033,50.72849,BCT,MKD,OTH,,,,043,2008-12-09T00:00:00,2019-12-18T14:37:57,14,new,active
1280POA11451,plegdpa,,,Felton Road,,,,,,Constitution Hill Road,,,,NE-bound,,NE,E0040701,Parkstone,Poole,,,,,,false,UKOS,403061,92229,-1.95799,50.72967,BCT,MKD,OTH,,,,043,2006-05-16T00:00:00,2015-03-05T11:11:56,6,new,active
1280POA11450,plegdmt,,,Felton Road,,,,,,Constitution Hill Road,,,,SW-bound,,SW,E0040701,Parkstone,Poole,,,,,,false,UKOS,403044,92201,-1.95824,50.72942,BCT,MKD,OTH,,,,043,2006-05-16T00:00:00,2015-03-05T11:12:10,6,new,active
1280POA11437,pleawdw,,,Pound Lane,,,,,,Fernside Road,,,,SE-bound,,SE,N0060764,Oakdale,Poole,,,,,,false,UKOS,401924,92096,-1.9741,50.72848,BCT,MKD,OTH,,,,043,2006-01-26T00:00:00,2015-06-26T12:14:12,7,new,active
1280POA11434,pleawgw,,,Pound Lane,,,,,,Fernside Road,,,,NW-bound,,NW,N0060764,Oakdale,Poole,,,,,,false,UKOS,401996,91975,-1.97309,50.72739,BCT,MKD,OTH,,,,043,2006-03-07T00:00:00,2022-12-09T14:37:48,15,new,active
1280POA11440,plegdgj,,,The College,,,,,,North Road,,,,NE-bound,,NE,E0040701,Parkstone,Poole,,,,,,false,UKOS,402783,91565,-1.96194,50.7237,BCT,MKD,OTH,,,,043,2005-11-09T00:00:00,2020-02-25T08:31:53,0,new,active
1280POA11439,plegdaw,,,The College,,,,,,,,,,E-bound,,E,E0040701,Parkstone,Poole,,,,,,false,UKOS,402758,91547,-1.96229,50.72354,BCT,MKD,OTH,,,,043,2003-06-12T00:00:00,2017-10-06T11:30:24,5,new,active
1280POA90816,plejtmp,,,The College,,,,,,,,,,W-bound,,W,E0040701,Parkstone,Poole,,,,,,false,UKOS,402760,91539,-1.96226,50.72347,BCT,MKD,OTH,,,,043,2010-07-07T00:00:00,2017-10-06T11:36:13,8,new,active
1280POA11459,plegdpw,,,Haymoor Road,,,,,,Ringwood Road,,,,E-bound,,E,E0040699,Newtown,Poole,,,,,,false,UKOS,403189,92703,-1.95618,50.73393,BCT,MKD,OTH,,,,043,2006-05-16T00:00:00,2020-08-20T11:56:39,13,new,active
1280POA11458,plegdtd,,,Haymoor Road,,,,,,Ringwood Road,,,,W-bound,,W,E0040699,Newtown,Poole,,,,,,false,UKOS,403219,92686,-1.95575,50.73378,BCT,MKD,OTH,,,,043,2006-01-26T00:00:00,2018-05-02T15:45:35,10,new,active
1280POA11461,plegdmd,,,Dale Road,,,,,,Ringwood Road,,,,NE-bound,,NE,E0040699,Newtown,Poole,,,,,,false,UKOS,402927,92640,-1.95989,50.73337,BCT,MKD,OTH,,,,043,2006-05-16T00:00:00,2015-03-04T09:57:44,6,new,active
1280POA11460,plegdma,,,Dale Road,,,,,,Ringwood Road,,,,SW-bound,,SW,E0040699,Newtown,Poole,,,,,,false,UKOS,402912,92605,-1.9601,50.73305,BCT,MKD,OTH,,,,043,2006-05-16T00:00:00,2015-03-04T09:58:00,6,new,active
1280POA11463,plegdga,,,Parkstone Heights,,,,,,Ringwood Road,,,,NE-bound,,NE,E0040699,Newtown,Poole,,,,,,false,UKOS,402780,92498,-1.96197,50.73209,BCT,MKD,OTH,,,,043,2007-06-20T00:00:00,2015-03-04T10:39:41,6,new,active
1280POA11462,plegdgm,,,Parkstone Heights,,,,,,Ringwood Road,,,,SW-bound,,SW,E0040699,Newtown,Poole,,,,,,false,UKOS,402794,92492,-1.96178,50.73204,BCT,MKD,OTH,,,,043,2007-06-20T00:00:00,2015-03-04T10:40:16,6,new,active
1280POA11457,plegjdj,,,Liberal Hall,,,,,,Ringwood Road,,,,SW-bound,,SW,E0040699,Newtown,Poole,,,,,,false,UKOS,403455,92768,-1.95241,50.73452,BCT,MKD,OTH,,,,043,2006-05-16T00:00:00,2021-07-07T13:30:46,0,new,active
1280POA11456,plegjdm,,,Liberal Hall,,,,,,Ringwood Road,,,,NE-bound,,NE,E0040699,Newtown,Poole,,,,,,false,UKOS,403467,92794,-1.95224,50.73475,BCT,MKD,OTH,,,,043,2006-05-16T00:00:00,2021-07-07T13:30:46,0,new,active
1280POA11452,plegjag,,,Sea View,,,,,,,,,,Stop C,,W,E0040701,Parkstone,Poole,,,,,,false,UKOS,403419,92374,-1.95292,50.73097,BCT,MKD,OTH,,,,043,2006-05-16T00:00:00,2016-12-15T11:19:56,6,new,active
1280POA11453,plegjaj,,,Sea View,,,,,,Constitution Hill Road,,,,Stop D,,SW,E0040701,Parkstone,Poole,,,,,,false,UKOS,403393,92363,-1.95329,50.73087,BCT,MKD,OTH,,,,043,2006-05-16T00:00:00,2020-08-20T11:47:14,7,new,active
1280POA90827,plejtwd,,,Sea View,,,,,,Constitution Hill Road,,,,Stop A,,N,E0040701,Parkstone,Poole,,,,,,false,UKOS,403382,92367,-1.95345,50.73091,BCT,MKD,OTH,,,,043,2020-08-20T00:00:00,2020-08-20T11:49:50,9,new,active
1280POA90828,plejtwg,,,Sea View,,,,,,Ashley Road,,,,Stop B,,E,E0040701,Parkstone,Poole,,,,,,false,UKOS,403429,92382,-1.95278,50.73105,BCT,MKD,OTH,,,,043,2020-08-20T00:00:00,2020-08-20T11:50:53,13,new,active
1280POA11454,plegjdw,,,Grove Road,,,,,,Sea View Road,,,,S-bound,,S,E0040699,Newtown,Poole,,,,,,false,UKOS,403501,92680,-1.95176,50.73372,BCT,MKD,OTH,,,,043,2006-01-26T00:00:00,2021-07-07T13:30:46,0,new,active
1280POA11455,plegjdt,,,Grove Road,,,,,,Sea View Road,,,,N-bound,,N,E0040699,Newtown,Poole,,,,,,false,UKOS,403497,92703,-1.95181,50.73393,BCT,MKD,OTH,,,,043,2006-01-26T00:00:00,2021-07-07T13:30:46,0,new,active
1280POA11436,pleawat,,,New Inn,,,,,,Fernside Road,,,,SE-bound,,SE,N0060764,Oakdale,Poole,,,,,,false,UKOS,401837,92212,-1.97534,50.72952,BCT,MKD,OTH,,,,043,2007-06-20T00:00:00,2015-06-26T11:54:06,7,new,active
1280POA11408,pleatwg,,,New Inn,,,,,,Wimborne Road,,,,S-bound,,S,N0060764,Oakdale,Poole,,,,,,false,UKOS,401780,92232,-1.97614,50.7297,BCT,MKD,OTH,,,,043,2007-06-20T00:00:00,2015-06-26T11:53:48,7,new,active
1280POA11407,pleatpw,,,New Inn,,,,,,Wimborne Road,,,,N-bound,,N,N0060764,Oakdale,Poole,,,,,,false,UKOS,401768,92218,-1.97631,50.72958,BCT,MKD,OTH,,,,043,2007-06-20T00:00:00,2015-06-26T11:53:16,7,new,active
1280POA11435,pleatwt,,,New Inn,,,,,,Fernside Road,,,,NW-bound,,NW,N0060764,Oakdale,Poole,,,,,,false,UKOS,401812,92232,-1.97569,50.7297,BCT,MKD,OTH,,,,043,2007-06-20T00:00:00,2015-06-26T11:53:31,7,new,active
1280POA11401,pleaptd,,,Barclays,,,,,,Wimborne Road,,,,N-bound,,N,E0057224,Poole,,,,,,,false,UKOS,401512,91197,-1.97995,50.7204,BCT,MKD,OTH,,,,043,2006-01-18T00:00:00,2020-02-25T08:31:54,0,new,active
1280POA11402,pleaptj,,,Barclays set down only,,,,,,Wimborne Road,,,,S-bound,,S,E0057224,Poole,,,,,,,false,UKOS,401532,91139,-1.97966,50.71988,BCT,MKD,OTH,,,,043,2007-04-05T00:00:00,2020-02-25T08:31:54,0,new,active
1280POA11415,pleapwp,,,The George,,,,,,High Street North,,,,NE-bound,,NE,E0057224,Poole,,,,,,,false,UKOS,401587,91111,-1.97888,50.71962,BCT,MKD,OTH,,,,043,2006-05-16T00:00:00,2015-06-26T12:44:35,6,new,active
1280POA11416,pleatap,,,The George,,,,,,High Street North,,,,SW-bound,,SW,E0057224,Poole,,,,,,,false,UKOS,401601,91103,-1.97869,50.71955,BCT,MKD,OTH,,,,043,2006-05-16T00:00:00,2020-08-20T11:30:04,13,new,active
1280POA11417,pleawdj,,,Longfleet Road Garage,,,,,,Longfleet Road,,,,NE-bound,,NE,E0057224,Poole,,,,,,,false,UKOS,401857,91313,-1.97506,50.72144,BCT,MKD,OTH,,,,043,2006-05-16T00:00:00,2015-06-26T12:49:23,6,new,active
1280POA11418,pleawag,,,Longfleet Road Garage,,,,,,Longfleet Road,,,,SW-bound,,SW,E0057224,Poole,,,,,,,false,UKOS,401821,91267,-1.97557,50.72103,BCT,MKD,OTH,,,,043,2006-05-16T00:00:00,2015-06-26T12:49:35,4,new,active
1280POA11425,pleawgd,,,Poole Hospital,,,,,,Longfleet Road,,,,SW-bound,,SW,E0057224,Poole,,,,,,,false,UKOS,401945,91369,-1.97381,50.72194,BCT,MKD,OTH,,,,043,2006-05-16T00:00:00,2015-06-26T12:52:14,8,new,active
1280POA11419,pleawma,,,Poole Hospital,,,,,,Longfleet Road,,,,NE-bound,,NE,E0057224,Poole,,,,,,,false,UKOS,402046,91458,-1.97238,50.72274,BCT,MKD,OTH,,,,043,2006-05-16T00:00:00,2015-06-26T12:52:02,6,new,active
1280POA11405,pleatpd,,,Sandbourne Road,,,,,,Wimborne Road,,,,N-bound,,N,N0060764,Oakdale,Poole,,,,,,false,UKOS,401754,92035,-1.97651,50.72793,BCT,MKD,OTH,,,,043,2009-06-05T00:00:00,2025-09-19T12:37:55,42,new,active
1280POA11406,pleatpg,,,Sandbourne Road,,,,,,Wimborne Road,,,,S-bound,,S,N0060764,Oakdale,Poole,,,,,,false,UKOS,401753,91978,-1.97653,50.72742,BCT,MKD,OTH,,,,043,2006-01-26T00:00:00,2025-09-19T12:45:57,7,new,active
1280POA11409,pleatag,,,Service Station,,,,,,Wimborne Road,,,,NW-bound,,NW,N0060764,Oakdale,Poole,,,,,,false,UKOS,401598,92670,-1.97872,50.73364,BCT,MKD,OTH,,,,043,2007-06-20T00:00:00,2017-05-09T16:08:01,11,new,active
1280POA11410,pleapmw,,,Heath Avenue,,,,,,Wimborne Road,,,,NW-bound,,NW,N0073123,Stanley Green,Poole,,,,,,false,UKOS,401474,92865,-1.98048,50.7354,BCT,MKD,OTH,,,,043,2006-01-26T00:00:00,2020-02-25T08:31:53,0,new,active
1280POA11429,plegata,,,Fernside Avenue,,,,,,Fernside Road,,,,opp,,NW,E0040701,Parkstone,Poole,,,,,,false,UKOS,402611,91597,-1.96437,50.72399,BCT,MKD,OTH,,,,043,2006-03-07T00:00:00,2015-06-26T14:37:32,6,new,active
1280POA11432,plegadj,,,Harbour Hill Road,,,,,,Fernside Road,,,,SE-bound,,SE,N0060764,Oakdale,Poole,,,,,,false,UKOS,402227,91906,-1.96981,50.72677,BCT,MKD,OTH,,,,043,2006-03-07T00:00:00,2015-06-26T12:56:21,6,new,active
1280POA11431,pleawtw,,,Harbour Hill Road,,,,,,Fernside Road,,,,NW-bound,,NW,N0060764,Oakdale,Poole,,,,,,false,UKOS,402215,91899,-1.96998,50.72671,BCT,MKD,OTH,,,,043,2006-03-07T00:00:00,2015-06-26T12:56:10,6,new,active
1280POA11442,plegdat,,,Park Gates,,,,,,Sandbanks Road,,,,NW-bound,,NW,E0040701,Parkstone,Poole,,,,,,false,UKOS,402749,91398,-1.96242,50.7222,BCT,MKD,OTH,,,,043,2009-06-05T00:00:00,2023-06-05T15:31:40,53,new,active
1280POA11428,plegatg,,,Park Gates,,,,,,Parkstone Road,,,,NE-bound,,NE,E0040701,Parkstone,Poole,,,,,,false,UKOS,402623,91449,-1.96421,50.72266,BCT,MKD,OTH,,,,043,2007-06-21T00:00:00,2015-06-26T14:42:57,2,new,active
1280POA11421,pleawtm,,,Garland Road,,,,,,Longfleet Road,,,,NE-bound,,NE,E0057224,Poole,,,,,,,false,UKOS,402202,91578,-1.97017,50.72382,BCT,MKD,OTH,,,,043,2007-11-02T00:00:00,2015-06-26T14:24:13,6,new,active
1280POA11424,pleawpw,,,Garland Road,,,,,,Longfleet Road,,,,SW-bound,,SW,E0057224,Poole,,,,,,,false,UKOS,402152,91523,-1.97088,50.72333,BCT,MKD,OTH,,,,043,2006-05-16T00:00:00,2025-09-19T12:59:56,15,new,active
1280BOB20035,plegtmw,,,King Richard Drive,,,,,,Knights Road,,,,NE-bound,,NE,N0060766,Bearwood,Poole,,,,,,false,UKOS,404955,96201,-1.93111,50.76538,BCT,MKD,OTH,,,,043,2006-03-07T00:00:00,2020-02-25T08:31:53,0,new,active
1280BOB20036,plegtmg,,,King Richard Drive,,,,,,Knights Road,,,,SW-bound,,SW,N0060766,Bearwood,Poole,,,,,,false,UKOS,404948,96172,-1.93121,50.76512,BCT,MKD,OTH,,,,043,2005-10-28T00:00:00,2020-01-07T11:38:09,9,new,active
1280DOB20944,plejgtd,,,St Marks Church,,,,,,Wallisdown Road,,,,W-bound,,W,N0060767,Talbot Heath,Poole,,,,,,false,UKOS,407105,93892,-1.90067,50.74459,BCT,MKD,OTH,,,,043,2006-12-18T00:00:00,2021-07-07T13:30:46,0,new,active
1280DOB20945,plejgwt,,,Bournemouth University,,,,,,Fern Barrow,,,,Stop G,,S,N0060767,Talbot Heath,Poole,,,,,,false,UKOS,407245,93705,-1.89868,50.74291,BCT,MKD,OTH,,,,043,2006-05-16T00:00:00,2017-10-19T12:40:29,12,new,active
1280DOB20943,plejgwj,,,Bournemouth University,,,,,,Wallisdown Road,,,,Stop J,,SE,N0060767,Talbot Heath,Poole,,,,,,false,UKOS,407199,93863,-1.89933,50.74433,BCT,MKD,OTH,,,,043,2009-06-05T00:00:00,2017-10-19T12:31:11,17,new,active
1280DOB20955,plejmag,,,Bournemouth University,,,,,,A3049,,,,Stop K,,W,N0060767,Talbot Heath,Poole,,,,,,false,UKOS,407395,93808,-1.89656,50.74383,BCT,MKD,OTH,,,,043,2006-05-16T00:00:00,2017-10-19T12:31:31,30,new,active
1280POA90830,plejtwm,,,Bournemouth University,,,,,,Fern Barrow,,,,Stop H,,N,N0060767,Talbot Heath,Poole,,,,,,false,UKOS,407231,93725,-1.89888,50.74309,BCT,MKD,OTH,,,,043,2014-08-15T00:00:00,2017-10-19T12:30:41,111,new,active
1280POA90849,plejwga,,,Bournemouth University,,,,,,,,,,Stand A,,,N0060767,Talbot Heath,Poole,,,,,,false,UKOS,407261,93681,-1.89846,50.74269,BCS,,,,,,043,2017-10-20T00:00:00,2017-10-20T11:02:26,84,new,active
1280POA90850,plejwgd,,,Bournemouth University,,,,,,,,,,Stand B,,,N0060767,Talbot Heath,Poole,,,,,,false,UKOS,407263,93700,-1.89843,50.74286,BCS,,,,,,043,2017-10-20T00:00:00,2017-10-20T11:03:08,80,new,active
1280POA90851,plejwgj,,,Bournemouth University,,,,,,,,,,Stand C,,,N0060767,Talbot Heath,Poole,,,,,,false,UKOS,407268,93719,-1.89836,50.74303,BCS,,,,,,043,2017-10-20T00:00:00,2017-10-20T11:07:25,76,new,active
1280POA90852,plejwgm,,,Bournemouth University,,,,,,,,,,Stand D,,,N0060767,Talbot Heath,Poole,,,,,,false,UKOS,407283,93716,-1.89815,50.74301,BCS,,,,,,043,2017-10-20T00:00:00,2017-10-20T11:25:03,76,new,active
1280POA90853,plejwgp,,,Bournemouth University,,,,,,,,,,Stand E,,,N0060767,Talbot Heath,Poole,,,,,,false,UKOS,407279,93698,-1.8982,50.74285,BCS,,,,,,043,2017-10-20T00:00:00,2017-10-20T11:29:05,80,new,active
1280POA90854,plejwgt,,,Bournemouth University,,,,,,,,,,Stand F,,,N0060767,Talbot Heath,Poole,,,,,,false,UKOS,407273,93677,-1.89829,50.74266,BCS,,,,,,043,2017-10-20T00:00:00,2017-10-24T08:32:54,76,new,active
1280DOB20949,plejgpw,,,Valley View,,,,,,Fern Barrow,,,,NW-bound,,NW,N0060767,Talbot Heath,Poole,,,,,,false,UKOS,406913,93417,-1.9034,50.74032,BCT,MKD,OTH,,,,043,2006-03-01T00:00:00,2020-08-20T10:27:32,10,new,active
1280DOB20952,plejgpa,,,Mickleham Close,,,,,,Fern Barrow,,,,NE-bound,,NE,N0060767,Talbot Heath,Poole,,,,,,false,UKOS,406898,93668,-1.9036,50.74258,BCT,MKD,OTH,,,,043,2006-05-16T00:00:00,2021-07-07T13:30:46,0,new,active
1280DOB20954,plejgtp,,,Marianne Road,,,,,,Fern Barrow,,,,E-bound,,E,N0060767,Talbot Heath,Poole,,,,,,false,UKOS,407137,93689,-1.90022,50.74277,BCT,MKD,OTH,,,,043,2006-05-16T00:00:00,2021-07-07T13:30:46,0,new,active
1280BOB20047,plegtwd,,,Co-op Store,,,,,,King John Avenue,,,,SE-bound,,SE,N0060766,Bearwood,Poole,,,,,,false,UKOS,405010,96432,-1.93032,50.76745,BCT,MKD,OTH,,,,043,2009-06-05T00:00:00,2020-08-20T09:52:44,16,new,active
1280BOB20046,plegtpj,,,Co-op Store,,,,,,King John Avenue,,,,W-bound,,W,N0060766,Bearwood,Poole,,,,,,false,UKOS,404974,96431,-1.93083,50.76745,BCT,MKD,OTH,,,,043,2007-12-05T00:00:00,2020-02-25T08:31:53,0,new,active
1280BOB20511,plejgjw,,,St Johns Church,,,,,,Surrey Road,,,,NW-bound,,NW,E0040675,Branksome,Poole,,,,,,false,UKOS,406809,92013,-1.90489,50.7277,BCT,MKD,OTH,,,,043,2006-05-16T00:00:00,2021-07-07T13:30:46,0,new,active
1280BOB20510,plejgmg,,,St Johns Church,,,,,,Surrey Road,,,,SE-bound,,SE,E0040675,Branksome,Poole,,,,,,false,UKOS,406803,92035,-1.90498,50.7279,BCT,MKD,OTH,,,,043,2006-05-16T00:00:00,2021-07-07T13:30:46,0,new,active
1280POA05959,plejpjg,,,Broadstone Middle School,,,,,,Dunyeats Road,,,,E-bound,,E,E0040677,Broadstone,Poole,,,,,,false,UKOS,401185,96016,-1.98456,50.76373,BCT,CUS,OTH,,,,043,2006-08-02T00:00:00,2020-02-25T08:31:53,0,new,active
1280POA05965,plejpjt,,,Floral Farm,,,,,,Oakley Lane,,,,W-bound,,W,E0040679,Canford Magna,Poole,,,,,,false,UKOS,402907,98682,-1.96013,50.7877,BCT,MKD,OTH,,,,043,2006-08-15T00:00:00,2020-02-25T08:31:53,0,new,active
1280POA05966,plejpjw,,,Floral Farm,,,,,,Oakley Lane,,,,E-bound,,E,E0040679,Canford Magna,Poole,,,,,,false,UKOS,402909,98694,-1.9601,50.78781,BCT,CUS,OTH,,,,043,2006-08-15T00:00:00,2020-02-25T08:31:53,0,new,active
1280POA05924,plejpdw,,,Barn Road,,,,,,Barn Road,,,,W-bound,,W,E0040677,Broadstone,Poole,,,,,,false,UKOS,400887,95110,-1.98879,50.75559,BCT,MKD,OTH,,,,043,2006-06-12T00:00:00,2024-07-31T16:24:34,0,new,active
1280POA05923,plejpdt,,,Barn Road,,,,,,Barn Road,,,,E-bound,,E,E0040677,Broadstone,Poole,,,,,,false,UKOS,400923,95113,-1.98828,50.75561,BCT,MKD,OTH,,,,043,2006-06-12T00:00:00,2024-07-31T16:22:52,0,new,active
1280POA05973,plejpmt,,,Greenhayes,,,,,,Fontmell Road,,,,N-bound,,N,E0040687,Gravel Hill,,,,,,,false,UKOS,401138,94877,-1.98523,50.75349,BCT,CUS,OTH,,,,043,2006-08-30T00:00:00,2014-05-30T11:49:26,16,new,active
1280POA05925,plejpga,,,Greenhayes,,,,,,Fontmell Road,,,,S-bound,,S,E0040687,Gravel Hill,,,,,,,false,UKOS,401149,94879,-1.98508,50.75351,BCT,MKD,OTH,,,,043,2006-08-30T00:00:00,2014-05-30T11:48:19,1,new,active
1280POA05974,plejpmw,,,Steepleton Road,,,,,,Steepleton Road,,,,o/s 3,,E,E0040687,Gravel Hill,,,,,,,false,UKOS,401201,94995,-1.98434,50.75455,BCT,MKD,OTH,,,,043,2006-09-11T00:00:00,2020-02-25T08:31:53,0,new,active
1280POA05926,plejpgd,,,Steepleton Road,,,,,,Steepleton Road,,,,W-bound,,W,E0040687,Gravel Hill,,,,,,,false,UKOS,401210,94987,-1.98421,50.75448,BCT,MKD,OTH,,,,043,2007-02-07T00:00:00,2020-02-25T08:31:53,0,new,active
1280POA05972,plejpmp,,,Whitchurch Avenue,,,,,,Whitchurch Avenue,,,,o/s 70,,N,E0040687,Gravel Hill,,,,,,,false,UKOS,401149,95396,-1.98508,50.75816,BCT,MKD,OTH,,,,043,2006-09-11T00:00:00,2020-02-25T08:31:53,0,new,active
1280POA05976,plejptd,,,Fontmell Road,,,,,,Fontmell Road,,,,S-bound,,S,E0040687,Gravel Hill,,,,,,,false,UKOS,401166,95135,-1.98484,50.75581,BCT,MKD,OTH,,,,043,2006-09-11T00:00:00,2022-04-06T11:55:42,10,new,active
1280POA05977,plejptg,,,Fontmell Road,,,,,,Fontmell Road,,,,o/s 67,,N,E0040687,Gravel Hill,,,,,,,false,UKOS,401154,95170,-1.98501,50.75613,BCT,MKD,OTH,,,,043,2006-09-11T00:00:00,2022-04-06T11:56:03,10,new,active
1280POA11068,pleapjg,,,The Lord Wimborne,,,,,,Lagland Street,,,,S-bound,,S,E0057224,Poole,,,,,,,false,UKOS,401324,90754,-1.98261,50.71641,BCT,MKD,OTH,,,,043,2007-06-21T00:00:00,2025-04-16T14:12:04,40,new,active
1280POA05975,plejpta,,,Whitchurch Avenue,,,,,,Whitchurch Avenue,,,,o/s 11,,N,E0040687,Gravel Hill,,,,,,,false,UKOS,401339,95355,-1.98238,50.75779,BCT,MKD,OTH,,,,043,2006-09-11T00:00:00,2020-02-25T08:31:53,0,new,active
1280POA05969,plejpmd,,,Badbury Close,,,,,,,,,,S-bound,,S,E0040687,Gravel Hill,,,,,,,false,UKOS,401346,95406,-1.98228,50.75825,BCT,MKD,OTH,,,,043,2006-08-30T00:00:00,2016-11-04T11:04:24,1,new,active
1280POA05970,plejpmg,,,Westcroft Park,,,,,,Whitchurch Avenue,,,,E-bound,,E,E0040687,Gravel Hill,,,,,,,false,UKOS,401273,95468,-1.98332,50.75881,BCT,MKD,OTH,,,,043,2007-02-07T00:00:00,2021-03-03T12:22:48,8,new,active
1280POA90824,plejtpt,,,Westcroft Park,,,,,,Whitchurch Avenue,,,,W-bound,,W,E0040687,Gravel Hill,,,,,,,false,UKOS,401272,95463,-1.98333,50.75876,BCT,CUS,OTH,,,,043,2021-03-03T00:00:00,2021-03-03T12:23:13,11,new,active
1280POA05971,plejpmj,,,Fontmell Road Green,,,,,,Fontmell Road,,,,S-bound,,S,E0040687,Gravel Hill,,,,,,,false,UKOS,401151,95330,-1.98505,50.75756,BCT,MKD,OTH,,,,043,2006-09-11T00:00:00,2022-04-06T11:57:44,6,new,active
1280POA90829,plejtwj,,,Fontmell Road Green,,,,,,Fontmell Road,,,,N-bound,,N,E0040687,Gravel Hill,,,,,,,false,UKOS,401142,95301,-1.98518,50.7573,BCT,MKD,OTH,,,,043,2018-06-18T00:00:00,2022-04-06T11:58:41,8,new,active
1280POA05816,plejtjp,,,Lord Nelson,,,,,,The Quay,,,,E-bound,,E,E0057224,Poole,,,,,,,false,UKOS,401091,90275,-1.98591,50.71211,BCT,MKD,OTH,,,,043,2009-07-23T00:00:00,2017-06-27T09:42:58,5,new,active
1280POA05818,plejtjw,,,Seldown Coach Station,,,,,,,,,,Stop S3,,,E0057224,Poole,,,,,,,false,UKOS,401715,90815,-1.97707,50.71696,BCS,,,,,,043,2009-09-22T00:00:00,2020-05-13T15:36:30,17,new,active
1280POA05817,plejtjt,,,Seldown Coach Station,,,,,,,,,,Stop S2,,,E0057224,Poole,,,,,,,false,UKOS,401717,90838,-1.97704,50.71717,BCS,,,,,,043,2009-09-22T00:00:00,2020-05-13T15:36:03,17,new,active
1280POA05802,plejtgw,,,Seldown Coach Station,,,,,,,,,,Stop S1,,,E0057224,Poole,,,,,,,false,UKOS,401722,90864,-1.97697,50.7174,BCS,,,,,,043,2009-09-22T00:00:00,2020-05-13T15:35:41,22,new,active
1280POA05888,plejmwm,,,Boro Court,,,,,,Kingsbridge Road,,,,W-bound,,W,E0040701,Parkstone,Poole,,,,,,false,UKOS,404153,91332,-1.94253,50.7216,BCT,MKD,OTH,,,,043,2006-03-01T00:00:00,2015-04-25T12:19:07,0,new,active
1280POA05812,plejtjg,,,Boro Court,,,,,,Kingsbridge Road,,,,E-bound,,E,E0040701,Parkstone,Poole,,,,,,false,UKOS,404147,91341,-1.94262,50.72168,BCT,CUS,OTH,,,,043,2009-07-23T00:00:00,2020-02-25T08:31:54,0,new,active
1280POA05889,plejmwp,,,Sandringham Road,,,,,,Osborne Road,,,,NW-bound,,NW,E0040701,Parkstone,Poole,,,,,,false,UKOS,403891,91441,-1.94624,50.72258,BCT,MKD,OTH,,,,043,2006-03-01T00:00:00,2015-04-25T12:19:07,0,new,active
1280POA05811,plejtjd,,,Sandringham Road,,,,,,Osborne Road,,,,E-bound,,E,E0040701,Parkstone,Poole,,,,,,false,UKOS,403914,91440,-1.94592,50.72257,BCT,CUS,OTH,,,,043,2009-07-23T00:00:00,2020-02-25T08:31:54,0,new,active
1280POA05815,plejtjm,,,Poole Museum,,,,,,Lower High Street,,,,S-bound,,S,E0057224,Poole,,,,,,,false,UKOS,400910,90308,-1.98848,50.7124,BCT,MKD,OTH,,,,043,2009-04-07T00:00:00,2020-02-25T08:31:54,0,new,active
1280POA11443,plegagw,,,Birds Hill Road,,,,,,Parkstone Road,,,,W-bound,,W,E0057224,Poole,,,,,,,false,UKOS,402352,91257,-1.96805,50.72093,BCT,MKD,OTH,,,,043,2007-06-21T00:00:00,2020-08-06T11:13:29,15,new,active
1280POA11427,plegamd,,,Birds Hill Road,,,,,,Parkstone Road,,,,NE-bound,,NE,E0057224,Poole,,,,,,,false,UKOS,402445,91328,-1.96673,50.72157,BCT,MKD,OTH,,,,043,2006-03-07T00:00:00,2015-06-26T14:33:16,6,new,active
1280POA11250,pleamda,,,Plumer Road,,,,,,Kitchener Crescent,,,,S-bound,,S,E0040712,Waterloo Estate,Poole,,,,,,false,UKOS,400639,94205,-1.99231,50.74745,BCT,MKD,OTH,,,,043,2005-12-19T00:00:00,2021-07-07T13:30:46,0,new,active
1280POA11251,pleamaw,,,Plumer Road,,,,,,Kitchener Crescent,,,,N-bound,,N,E0040712,Waterloo Estate,Poole,,,,,,false,UKOS,400633,94223,-1.99239,50.74761,BCT,MKD,OTH,,,,043,2005-12-19T00:00:00,2021-07-07T13:30:46,0,new,active
1280POA11252,pleamdt,,,Milne Road Shops,,,,,,Milne Road,,,,W-bound,,W,E0040712,Waterloo Estate,Poole,,,,,,false,UKOS,400783,94389,-1.99027,50.7491,BCT,MKD,OTH,,,,043,2005-12-19T00:00:00,2021-07-07T13:30:46,0,new,active
1280POA11253,pleamdw,,,Milne Road Shops,,,,,,Milne Road,,,,E-bound,,E,E0040712,Waterloo Estate,Poole,,,,,,false,UKOS,400785,94398,-1.99024,50.74918,BCT,MKD,OTH,,,,043,2006-03-08T00:00:00,2020-08-05T16:25:01,9,new,active
1280POA11255,pleamjd,,,Methuen Road,,,,,,Kitchener Crescent,,,,NW-bound,,NW,E0040712,Waterloo Estate,Poole,,,,,,false,UKOS,400915,94609,-1.9884,50.75108,BCT,MKD,OTH,,,,043,2006-04-27T00:00:00,2021-07-07T13:30:46,0,new,active
1280POA11254,pleamjm,,,Methuen Road,,,,,,Kitchener Crescent,,,,S-bound,,S,E0040712,Waterloo Estate,Poole,,,,,,false,UKOS,400956,94559,-1.98781,50.75063,BCT,MKD,OTH,,,,043,2006-07-18T00:00:00,2021-07-07T13:30:46,0,new,active
1280POA11256,pleampd,,,Chetwode Way,,,,,,Lower Blandford Road,,,,NW-bound,,NW,E0040712,Waterloo Estate,Poole,,,,,,false,UKOS,401010,94783,-1.98705,50.75265,BCT,MKD,OTH,,,,043,2006-07-18T00:00:00,2015-04-25T12:19:07,0,new,active
1280POA11243,pleamja,,,French Road,,,,,,Sopers Lane,,,,W-bound,,W,E0040712,Waterloo Estate,Poole,,,,,,false,UKOS,400898,94144,-1.98864,50.7469,BCT,MKD,OTH,,,,043,2006-03-01T00:00:00,2021-07-07T13:30:46,0,new,active
1280POA11244,pleamga,,,French Road,,,,,,Sopers Lane,,,,opp,,E,E0040712,Waterloo Estate,Poole,,,,,,false,UKOS,400792,94139,-1.99014,50.74685,BCT,MKD,OTH,,,,043,2003-06-12T00:00:00,2023-02-02T09:58:01,38,new,active
1280POA11248,pleajgw,,,Rugby Road,,,,,,Sopers Lane,,,,E-bound,,E,E0040712,Waterloo Estate,Poole,,,,,,false,UKOS,400208,94222,-1.99842,50.7476,BCT,MKD,OTH,,,,043,2003-06-12T00:00:00,2020-08-05T16:16:19,10,new,active
1280POA11247,pleajgm,,,Rugby Road,,,,,,Sopers Lane,,,,opp 92,,W,E0040712,Waterloo Estate,Poole,,,,,,false,UKOS,400195,94216,-1.9986,50.74755,BCT,MKD,OTH,,,,043,2003-06-12T00:00:00,2020-08-05T16:21:30,8,new,active
1280POA11249,pleajap,,,Keighley Avenue,,,,,,York Road,,,,N-bound,,N,E0040712,Waterloo Estate,Poole,,,,,,false,UKOS,400051,94203,-2.00064,50.74743,BCT,MKD,OTH,,,,043,2006-03-01T00:00:00,2020-02-25T08:31:54,0,new,active
1280POZ00745,plejmat,,,Keighley Avenue,,,,,,York Road,,,,S-bound,,S,E0040712,Waterloo Estate,Poole,,,,,,false,UKOS,400056,94193,-2.00057,50.74734,BCT,MKD,OTH,,,,043,2007-02-07T00:00:00,2020-08-05T16:14:16,9,new,active
1280POA11268,pleamtw,,,Darbys Corner,,,,,,Lower Blandford Road,,,,NW-bound,,NW,E0040712,Waterloo Estate,Poole,,,,,,false,UKOS,401119,94610,-1.9855,50.75109,BCT,MKD,OTH,,,,043,2006-05-23T00:00:00,2020-02-25T08:31:54,0,new,active
1280POA11264,pleamwp,,,Darbys Corner,,,,,,Lower Blandford Road,,,,SE-bound,,SE,E0040712,Waterloo Estate,Poole,,,,,,false,UKOS,401133,94610,-1.98531,50.75109,BCT,MKD,OTH,,,,043,2006-05-23T00:00:00,2020-02-25T08:31:54,0,new,active
1280POA11265,pleapda,,,Sopers Lane,,,,,,Waterloo Road,,,,S-bound,,S,E0040712,Waterloo Estate,Poole,,,,,,false,UKOS,401188,94118,-1.98453,50.74667,BCT,MKD,OTH,,,,043,2006-03-01T00:00:00,2020-02-25T08:31:54,0,new,active
1280POA11242,pleamwm,,,Sopers Lane,,,,,,Sopers Lane,,,,W-bound,,W,E0040712,Waterloo Estate,Poole,,,,,,false,UKOS,401131,94164,-1.98533,50.74708,BCT,MKD,OTH,,,,043,2003-06-12T00:00:00,2021-07-07T13:30:46,0,new,active
1280POA11267,pleapdg,,,Sopers Lane,,,,,,Waterloo Road,,,,N-bound,,N,E0040712,Waterloo Estate,Poole,,,,,,false,UKOS,401197,94231,-1.9844,50.74768,BCT,MKD,OTH,,,,043,2003-06-12T00:00:00,2021-03-03T12:11:55,9,new,active
1280POA11266,pleamwj,,,Hatch Pond Road,,,,,,Waterloo Road,,,,S-bound,,S,E0040712,Waterloo Estate,Poole,,,,,,false,UKOS,401129,93778,-1.98536,50.74361,BCT,MKD,OTH,,,,043,2006-03-06T00:00:00,2020-08-20T10:48:12,3,new,active
1280POA11241,pleampg,,,Hatch Pond Road,,,,,,Waterloo Road,,,,opp,,N,E0040712,Waterloo Estate,Poole,,,,,,false,UKOS,401034,93612,-1.98671,50.74212,BCT,MKD,OTH,,,,043,2003-06-12T00:00:00,2022-12-09T14:46:33,8,new,active
1280POA11270,pleamag,,,Hillbourne First School,,,,,,Kitchener Crescent,,,,N-bound,,N,E0040712,Waterloo Estate,Poole,,,,,,false,UKOS,400590,94518,-1.993,50.75026,BCT,MKD,OTH,,,,043,2007-03-16T00:00:00,2015-04-25T12:19:08,0,new,active
1280POA11269,pleamam,,,Hillbourne First School,,,,,,Kitchener Crescent,,,,S-bound,,S,E0040712,Waterloo Estate,Poole,,,,,,false,UKOS,400604,94479,-1.9928,50.74991,BCT,MKD,OTH,,,,043,2007-03-16T00:00:00,2015-04-25T12:19:08,0,new,active
1280POA11263,pleamjp,,,Okeford Road,,,,,,Lower Blandford Road,,,,SE-bound,,SE,E0040712,Waterloo Estate,Poole,,,,,,false,UKOS,400972,94865,-1.98759,50.75338,BCT,MKD,OTH,,,,043,2006-07-18T00:00:00,2015-04-25T12:19:08,0,new,active
1280POA11257,pleamdm,,,Broadstone Football Club,,,,,,Lower Blandford Road,,,,opp,,NW,E0040677,Broadstone,Poole,,,,,,false,UKOS,400759,95176,-1.99061,50.75618,BCT,MKD,OTH,,,,043,2006-03-07T00:00:00,2021-03-03T12:28:23,8,new,active
1280POA11262,pleamdp,,,Broadstone Football Club,,,,,,Lower Blandford Road,,,,SE-bound,,SE,E0040677,Broadstone,Poole,,,,,,false,UKOS,400791,95141,-1.99015,50.75587,BCT,MKD,OTH,,,,043,2006-07-18T00:00:00,2021-03-03T12:28:46,13,new,active
1280POA11258,pleamat,,,Wallace Road,,,,,,Lower Blandford Road,,,,NW-bound,,NW,E0040677,Broadstone,Poole,,,,,,false,UKOS,400632,95372,-1.99241,50.75794,BCT,MKD,OTH,,,,043,2007-06-08T00:00:00,2021-03-03T12:35:32,9,new,active
1280POA11259,pleamap,,,Wallace Road,,,,,,Lower Blandford Road,,,,opp,,SE,E0040677,Broadstone,Poole,,,,,,false,UKOS,400616,95413,-1.99263,50.75831,BCT,MKD,OTH,,,,043,2009-06-05T00:00:00,2020-02-25T08:31:52,0,new,active
1280POA11261,pleajwd,,,Broadway,,,,,,Lower Blandford Road,,,,SE-bound,,SE,E0040677,Broadstone,Poole,,,,,,false,UKOS,400496,95603,-1.99433,50.76002,BCT,MKD,OTH,,,,043,2006-03-07T00:00:00,2020-08-05T15:19:24,17,new,active
1280POA11260,pleajwa,,,Broadway,,,,,,Lower Blandford Road,,,,NW-bound,,NW,E0040677,Broadstone,Poole,,,,,,false,UKOS,400455,95649,-1.99491,50.76043,BCT,MKD,OTH,,,,043,2006-03-07T00:00:00,2020-08-05T15:18:57,8,new,active
1280POA11221,pleamaj,,,Pergin Crescent,,,,,,Upton Road,,,,E-bound,,E,E0040683,Creekmoor,Poole,,,,,,false,UKOS,400595,93190,-1.99293,50.73832,BCT,MKD,OTH,,,,043,2006-01-26T00:00:00,2019-07-25T11:46:09,11,new,active
1280POA11222,pleajwm,,,Pergin Crescent,,,,,,Upton Road,,,,W-bound,,W,E0040683,Creekmoor,Poole,,,,,,false,UKOS,400544,93164,-1.99366,50.73809,BCT,MKD,OTH,,,,043,2006-01-26T00:00:00,2019-07-25T11:46:29,11,new,active
1280POA11223,pleajta,,,Creekmoor Lane Roundabout,,,,,,Creekmoor Lane,,,,SW-bound,,SW,E0040683,Creekmoor,Poole,,,,,,false,UKOS,400340,93208,-1.99655,50.73848,BCT,MKD,OTH,,,,043,2007-11-02T00:00:00,2020-02-25T08:31:54,0,new,active
1280POA11224,pleajtd,,,Creekmoor Lane Roundabout,,,,,,Creekmoor Lane,,,,NE-bound,,NE,E0040683,Creekmoor,Poole,,,,,,false,UKOS,400350,93244,-1.99641,50.73881,BCT,MKD,OTH,,,,043,2009-06-05T00:00:00,2020-02-25T08:31:54,0,new,active
1280POA11225,pleaptp,,,Heath Avenue,,,,,,Wimborne Road,,,,SE-bound,,SE,N0060764,Oakdale,Poole,,,,,,false,UKOS,401565,92747,-1.97919,50.73434,BCT,MKD,OTH,,,,043,2007-11-02T00:00:00,2020-02-25T08:31:54,0,new,active
1280POA11226,pleapwj,,,Vicarage Road,,,,,,Vicarage Road,,,,W-bound,,W,N0060764,Oakdale,Poole,,,,,,false,UKOS,401582,92575,-1.97895,50.73279,BCT,MKD,OTH,,,,043,2006-01-26T00:00:00,2015-04-25T12:19:08,0,new,active
1280POA11220,pleapaj,,,The Fleetsbridge,,,,,,Wimborne Road,,,,SE-bound,,SE,N0073123,Stanley Green,Poole,,,,,,false,UKOS,401150,93122,-1.98507,50.73771,BCT,MKD,OTH,,,,043,2007-06-08T00:00:00,2020-02-25T08:31:54,0,new,active
1280POA11219,pleamtd,,,The Fleetsbridge,,,,,,Wimborne Road,,,,opp,,NW,N0073123,Stanley Green,Poole,,,,,,false,UKOS,401055,93155,-1.98641,50.73801,BCT,MKD,OTH,,,,043,2007-06-08T00:00:00,2020-02-25T08:31:52,0,new,active
1280POA11215,pleamwt,,,Christopher Crescent,,,,,,Christopher Crescent,,,,SE-bound,,SE,N0073123,Stanley Green,Poole,,,,,,false,UKOS,401141,92935,-1.9852,50.73603,BCT,MKD,OTH,,,,043,2007-06-20T00:00:00,2023-10-11T07:31:50,37,new,active
1280POA11216,pleamwd,,,Christopher Crescent,,,,,,Christopher Crescent,,,,W-bound,,W,N0073123,Stanley Green,Poole,,,,,,false,UKOS,401119,92928,-1.98551,50.73596,BCT,MKD,OTH,,,,043,2007-04-05T00:00:00,2015-04-25T12:19:08,0,new,active
1280POA11218,pleapjt,,,Chorley Close,,,,,,Christopher Crescent,,,,W-bound,,W,N0073123,Stanley Green,Poole,,,,,,false,UKOS,401333,92857,-1.98248,50.73533,BCT,MKD,OTH,,,,043,2007-04-05T00:00:00,2023-10-11T07:29:21,37,new,active
1280POA11217,pleapma,,,Chorley Close,,,,,,Christopher Crescent,,,,E-bound,,E,N0073123,Stanley Green,Poole,,,,,,false,UKOS,401352,92862,-1.98221,50.73537,BCT,MKD,OTH,,,,043,2007-04-05T00:00:00,2023-10-11T07:28:50,37,new,active
1280POA11236,pleawtd,,,Kingsbere Road,,,,,,Kingsbere Road,,,,S-bound,,S,N0060764,Oakdale,Poole,,,,,,false,UKOS,402204,92241,-1.97014,50.72978,BCT,MKD,OTH,,,,043,2006-01-26T00:00:00,2015-03-05T11:30:12,6,new,active
1280POA11235,pleawta,,,Kingsbere Road,,,,,,Kingsbere Road,,,,N-bound,,N,N0060764,Oakdale,Poole,,,,,,false,UKOS,402211,92254,-1.97004,50.7299,BCT,MKD,OTH,,,,043,2006-01-26T00:00:00,2015-03-05T11:29:57,6,new,active
1280POA11240,pleamgw,,,Tesco Superstore,,,,,,,,,,W-bound,,W,E0040712,Waterloo Estate,Poole,,,,,,false,UKOS,400877,93441,-1.98894,50.74058,BCT,MKD,OTH,,,,043,2009-06-05T00:00:00,2016-11-04T11:03:17,6,new,active
1280POA11411,pleatjt,,,Library,,,,,,Wimborne Road,,,,S-bound,,S,N0060764,Oakdale,Poole,,,,,,false,UKOS,401689,92507,-1.97743,50.73218,BCT,MKD,OTH,,,,043,2007-06-20T00:00:00,2024-04-09T08:39:28,38,new,active
1280POA11230,pleatmg,,,Library,,,,,,Dorchester Road,,,,E-bound,,E,N0060764,Oakdale,Poole,,,,,,false,UKOS,401700,92590,-1.97728,50.73292,BCT,MKD,OTH,,,,043,2006-01-26T00:00:00,2020-02-25T08:31:54,0,new,active
1280POA11233,plegada,,,Hennings Park Road,,,,,,Dorchester Road,,,,SE-bound,,SE,N0060764,Oakdale,Poole,,,,,,false,UKOS,402218,92568,-1.96994,50.73272,BCT,MKD,OTH,,,,043,2006-01-26T00:00:00,2015-03-05T11:27:58,6,new,active
1280POA11234,plegadt,,,Hennings Park Road,,,,,,Dorchester Road,,,,W-bound,,W,N0060764,Oakdale,Poole,,,,,,false,UKOS,402237,92534,-1.96967,50.73242,BCT,MKD,OTH,,,,043,2006-01-26T00:00:00,2015-03-05T11:28:13,6,new,active
1280POA11308,pleajdg,,,Springdale Road Corner,,,,,,Springdale Road,,,,NE-bound,,NE,E0040677,Broadstone,Poole,,,,,,false,UKOS,400090,96087,-2.00009,50.76437,BCT,MKD,OTH,,,,043,2007-06-08T00:00:00,2020-08-05T15:21:38,8,new,active
1280POA11307,pleajdt,,,Springdale Road Corner,,,,,,Springdale Road,,,,SW-bound,,SW,E0040677,Broadstone,Poole,,,,,,false,UKOS,400129,96097,-1.99954,50.76446,BCT,MKD,OTH,,,,043,2007-06-08T00:00:00,2020-08-05T15:22:14,8,new,active
1280POA11309,pleagwa,,,Abbotsbury Road,,,,,,Springdale Road,,,,opp,,SW,E0040677,Broadstone,Poole,,,,,,false,UKOS,399852,95941,-2.00346,50.76306,BCT,MKD,OTH,,,,043,2006-03-07T00:00:00,2021-07-07T13:30:44,0,new,active
1280POA11311,pleagtw,,,Abbotsbury Road,,,,,,Springdale Road,,,,NE-bound,,NE,E0040677,Broadstone,Poole,,,,,,false,UKOS,399850,95951,-2.00349,50.76315,BCT,MKD,OTH,,,,043,2006-03-07T00:00:00,2015-04-25T12:19:08,0,new,active
1280POA11312,pleagpg,,,Cheam Road,,,,,,Lewesdon Drive,,,,opp,,S,E0040677,Broadstone,Poole,,,,,,false,UKOS,399680,95695,-2.0059,50.76085,BCT,MKD,OTH,,,,043,2003-06-12T00:00:00,2024-07-04T13:25:16,37,new,active
1280POA11313,pleagpd,,,Cheam Road,,,,,,Lewesdon Drive,,,,opp,,N,E0040677,Broadstone,Poole,,,,,,false,UKOS,399660,95672,-2.00619,50.76064,BCT,MKD,OTH,,,,043,2006-07-18T00:00:00,2015-04-25T12:19:08,0,new,active
1280POA11316,pleagdw,,,Springdale School,,,,,,Springdale Road,,,,W-bound,,W,E0040677,Broadstone,Poole,,,,,,false,UKOS,399533,95789,-2.00799,50.76169,BCT,MKD,OTH,,,,043,2003-06-12T00:00:00,2015-04-25T12:19:08,0,new,active
1280POA11300,pleajaw,,,Lytchett Drive,,,,,,West Way,,,,SW-bound,,SW,E0040677,Broadstone,Poole,,,,,,false,UKOS,400076,95286,-2.00029,50.75717,BCT,MKD,OTH,,,,043,2006-05-23T00:00:00,2015-04-25T12:19:08,0,new,active
1280POA11301,pleajat,,,Lytchett Drive,,,,,,West Way,,,,opp,,NE,E0040677,Broadstone,Poole,,,,,,false,UKOS,400069,95292,-2.00039,50.75722,BCT,MKD,OTH,,,,043,2006-03-07T00:00:00,2021-07-07T13:30:44,0,new,active
1280POA11302,pleajga,,,West Way,,,,,,West Way,,,,S-bound,,S,E0040677,Broadstone,Poole,,,,,,false,UKOS,400170,95516,-1.99896,50.75924,BCT,MKD,OTH,,,,043,2003-06-12T00:00:00,2015-04-25T12:19:08,0,new,active
1280POA11303,pleajgj,,,Upton Way,,,,,,West Way,,,,N-bound,,N,E0040677,Broadstone,Poole,,,,,,false,UKOS,400186,95582,-1.99873,50.75983,BCT,MKD,OTH,,,,043,2006-03-07T00:00:00,2021-07-07T13:30:46,0,new,active
1280POA11306,pleajpg,,,United Reformed Church,,,,,,Higher Blandford Road,,,,NW-bound,,NW,E0040677,Broadstone,Poole,,,,,,false,UKOS,400283,95933,-1.99735,50.76299,BCT,MKD,OTH,,,,043,2007-06-08T00:00:00,2014-10-24T11:48:28,8,new,active
1280POZ00728,pleajpd,,,United Reformed Church,,,,,,Higher Blandford Road,,,,SE-bound,,SE,E0040677,Broadstone,Poole,,,,,,false,UKOS,400278,95959,-1.99742,50.76322,BCT,MKD,OTH,,,,043,2007-06-08T00:00:00,2020-08-05T15:29:01,9,new,active
1280POA11343,pleajwg,,,St. Johns Church,,,,,,Dunyeats Road,,,,W-bound,,W,E0040677,Broadstone,Poole,,,,,,false,UKOS,400514,95855,-1.99408,50.76229,BCT,MKD,OTH,,,,043,2007-03-20T00:00:00,2020-02-25T08:31:53,0,new,active
1280POA11344,pleajwj,,,St. Johns Church,,,,,,Dunyeats Road,,,,opp,,E,E0040677,Broadstone,Poole,,,,,,false,UKOS,400518,95867,-1.99402,50.76239,BCT,MKD,OTH,,,,043,2007-03-20T00:00:00,2020-02-25T08:31:52,0,new,active
1280POA11345,pleamgd,,,Lower Golflinks Road,,,,,,Dunyeats Road,,,,E-bound,,E,E0040677,Broadstone,Poole,,,,,,false,UKOS,400793,95924,-1.99012,50.76291,BCT,MKD,OTH,,,,043,2007-06-08T00:00:00,2020-02-25T08:31:53,0,new,active
1280POA11346,pleamgj,,,Lower Golflinks Road,,,,,,Dunyeats Road,,,,opp,,W,E0040677,Broadstone,Poole,,,,,,false,UKOS,400843,95924,-1.98941,50.76291,BCT,MKD,OTH,,,,043,2007-06-08T00:00:00,2020-02-25T08:31:52,0,new,active
1280POA11347,pleapgt,,,Broadstone Cemetery,,,,,,Dunyeats Road,,,,E-bound,,E,E0040677,Broadstone,Poole,,,,,,false,UKOS,401284,96034,-1.98316,50.76389,BCT,MKD,OTH,,,,043,2007-06-08T00:00:00,2020-02-25T08:31:53,0,new,active
1280POA11348,pleapgj,,,Broadstone Cemetery,,,,,,Dunyeats Road,,,,opp,,W,E0040677,Broadstone,Poole,,,,,,false,UKOS,401251,96024,-1.98363,50.76381,BCT,MKD,OTH,,,,043,2007-06-08T00:00:00,2020-02-25T08:31:52,0,new,active
1280POA11323,pleagam,,,Roman Road,,,,,,Highfield Road,,,,opp,,E,E0040677,Broadstone,Poole,,,,,,false,UKOS,399337,96471,-2.01077,50.76783,BCT,MKD,OTH,,,,043,2006-03-07T00:00:00,2020-02-25T08:31:52,0,new,active
1280POA11318,pleagwm,,,Springdale Avenue,,,,,,Springdale Avenue,,,,NW-bound,,NW,E0040677,Broadstone,Poole,,,,,,false,UKOS,399900,96016,-2.00278,50.76373,BCT,MKD,OTH,,,,043,2009-06-05T00:00:00,2020-02-25T08:31:53,0,new,active
1280POA11317,pleagwp,,,Springdale Avenue,,,,,,Springdale Avenue,,,,SE-bound,,SE,E0040677,Broadstone,Poole,,,,,,false,UKOS,399907,96023,-2.00268,50.7638,BCT,MKD,OTH,,,,043,2009-06-05T00:00:00,2020-02-25T08:31:53,0,new,active
1280POA11319,pleagtj,,,Anvil Crescent,,,,,,Lancaster Drive,,,,NW-bound,,NW,E0040677,Broadstone,Poole,,,,,,false,UKOS,399798,96173,-2.00423,50.76515,BCT,MKD,OTH,,,,043,2006-03-07T00:00:00,2020-08-05T15:33:23,10,new,active
1280POA11320,pleagtd,,,Anvil Crescent,,,,,,Lancaster Drive,,,,opp,,SE,E0040677,Broadstone,Poole,,,,,,false,UKOS,399776,96216,-2.00454,50.76553,BCT,MKD,OTH,,,,043,2006-03-07T00:00:00,2020-02-25T08:31:52,0,new,active
1280POA11322,pleagmg,,,Lancaster Close,,,,,,Lancaster Drive,,,,NW-bound,,NW,E0040677,Broadstone,Poole,,,,,,false,UKOS,399639,96320,-2.00648,50.76647,BCT,MKD,OTH,,,,043,2003-06-12T00:00:00,2020-08-05T15:35:24,8,new,active
1280POA11321,pleagmp,,,Lancaster Close,,,,,,Lancaster Drive,,,,SE-bound,,SE,E0040677,Broadstone,Poole,,,,,,false,UKOS,399642,96328,-2.00644,50.76654,BCT,MKD,OTH,,,,043,2009-06-05T00:00:00,2020-08-05T15:35:57,8,new,active
1280POA11277,pleajmg,,,Beech Wood Close,,,,,,York Road,,,,S-bound,,S,E0040690,Hillbourne Estate,Poole,,,,,,false,UKOS,400218,95169,-1.99828,50.75612,BCT,MKD,OTH,,,,043,2007-09-26T00:00:00,2014-12-19T15:16:36,13,new,active
1280POA11278,pleajgp,,,Beech Wood Close,,,,,,York Road,,,,N-bound,,N,E0040690,Hillbourne Estate,Poole,,,,,,false,UKOS,400198,95232,-1.99856,50.75668,BCT,MKD,OTH,,,,043,2006-07-18T00:00:00,2014-12-19T15:17:18,12,new,active
1280POA11279,pleajpj,,,Selby Close,,,,,,York Road,,,,SW-bound,,SW,E0040677,Broadstone,Poole,,,,,,false,UKOS,400328,95450,-1.99672,50.75864,BCT,MKD,OTH,,,,043,2006-03-07T00:00:00,2021-07-07T13:30:46,0,new,active
1280POA11280,pleajpt,,,Selby Close,,,,,,York Road,,,,N-bound,,N,E0040677,Broadstone,Poole,,,,,,false,UKOS,400331,95489,-1.99667,50.759,BCT,MKD,OTH,,,,043,2007-06-08T00:00:00,2020-08-05T16:31:06,10,new,active
1280POA11281,pleajma,,,Ascot Road,,,,,,Clarendon Road,,,,opp,,W,E0040677,Broadstone,Poole,,,,,,false,UKOS,400213,95765,-1.99835,50.76148,BCT,MKD,OTH,,,,043,2006-03-07T00:00:00,2015-04-25T12:19:08,0,new,active
1280POZ00738,pleajgt,,,Ascot Road,,,,,,Clarendon Road,,,,E-bound,,E,E0040677,Broadstone,Poole,,,,,,false,UKOS,400208,95773,-1.99842,50.76155,BCT,MKD,OTH,,,,043,2003-06-12T00:00:00,2015-04-25T12:19:24,0,new,active
1280POA11275,pleajmp,,,Mission Road,,,,,,York Road,,,,N-bound,,N,E0040690,Hillbourne Estate,Poole,,,,,,false,UKOS,400254,94969,-1.99776,50.75432,BCT,MKD,OTH,,,,043,2006-07-18T00:00:00,2021-07-07T13:30:46,0,new,active
1280POA11276,pleajpa,,,Mission Road,,,,,,York Road,,,,opp,,S,E0040690,Hillbourne Estate,Poole,,,,,,false,UKOS,400262,94977,-1.99765,50.75439,BCT,MKD,OTH,,,,043,2006-03-07T00:00:00,2015-04-25T12:19:08,0,new,active
1280POA11271,pleajwt,,,Hillbourne Middle School,,,,,,Kitchener Crescent,,,,N-bound,,N,E0040712,Waterloo Estate,Poole,,,,,,false,UKOS,400473,94685,-1.99466,50.75176,BCT,MKD,OTH,,,,043,2007-03-16T00:00:00,2016-06-15T12:33:17,4,new,active
1280POA11272,pleamad,,,Hillbourne Middle School,,,,,,Kitchener Crescent,,,,S-bound,,S,E0040712,Waterloo Estate,Poole,,,,,,false,UKOS,400471,94659,-1.99469,50.75153,BCT,MKD,OTH,,,,043,2007-03-16T00:00:00,2016-06-15T12:33:25,4,new,active
1280POA11273,pleajtj,,,St Anthony's Church,,,,,,Hillbourne Road,,,,W-bound,,W,E0040690,Hillbourne Estate,Poole,,,,,,false,UKOS,400358,94746,-1.99629,50.75231,BCT,MKD,OTH,,,,043,2006-07-18T00:00:00,2025-11-24T13:14:58,35,new,active
1280POA11274,pleajtm,,,St Anthony's Church,,,,,,Hillbourne Road,,,,opp,,E,E0040690,Hillbourne Estate,Poole,,,,,,false,UKOS,400328,94750,-1.99672,50.75235,BCT,MKD,OTH,,,,043,2006-07-18T00:00:00,2025-11-24T13:14:30,35,new,active
1280POA11295,pleagat,,,Mallow Close,,,,,,West Way,,,,NE-bound,,NE,E0040677,Broadstone,Poole,,,,,,false,UKOS,399413,94978,-2.00969,50.7544,BCT,MKD,OTH,,,,043,2009-06-05T00:00:00,2021-07-07T13:30:46,0,new,active
1280POA11294,pleagap,,,Mallow Close,,,,,,West Way,,,,opp,,SW,E0040677,Broadstone,Poole,,,,,,false,UKOS,399387,94953,-2.01006,50.75417,BCT,MKD,OTH,,,,043,2007-06-08T00:00:00,2015-04-25T12:19:08,0,new,active
1280POA11296,pleagjp,,,Bryony Close,,,,,,West Way,,,,E-bound,,E,E0040677,Broadstone,Poole,,,,,,false,UKOS,399631,95067,-2.0066,50.7552,BCT,MKD,OTH,,,,043,2007-06-08T00:00:00,2023-02-02T09:47:54,38,new,active
1280POA11297,pleagmj,,,Bryony Close,,,,,,West Way,,,,W-bound,,W,E0040677,Broadstone,Poole,,,,,,false,UKOS,399621,95058,-2.00674,50.75512,BCT,MKD,OTH,,,,043,2007-06-08T00:00:00,2023-02-02T09:48:14,37,new,active
1280POA11298,pleagta,,,Sandford Way,,,,,,West Way,,,,opp,,E,E0040677,Broadstone,Poole,,,,,,false,UKOS,399771,95069,-2.00461,50.75522,BCT,MKD,OTH,,,,043,2006-03-07T00:00:00,2021-07-07T13:30:44,0,new,active
1280POA11299,pleagtm,,,Sandford Way,,,,,,West Way,,,,W-bound,,W,E0040677,Broadstone,Poole,,,,,,false,UKOS,399813,95064,-2.00402,50.75517,BCT,MKD,OTH,,,,043,2006-03-07T00:00:00,2015-04-25T12:19:08,0,new,active
1280POA11290,pleadwa,,,Beacon Road,,,,,,Pinesprings Drive,,,,N-bound,,N,E0040677,Broadstone,Poole,,,,,,false,UKOS,399255,95063,-2.01193,50.75516,BCT,MKD,OTH,,,,043,2006-03-07T00:00:00,2023-02-02T09:49:57,37,new,active
1280POA11291,pleadwg,,,Beacon Road,,,,,,Pinesprings Drive,,,,S-bound,,S,E0040677,Broadstone,Poole,,,,,,false,UKOS,399261,95072,-2.01184,50.75524,BCT,MKD,OTH,,,,043,2009-06-05T00:00:00,2023-02-02T09:50:15,37,new,active
1280POA11286,pleadwp,,,Maxwell Road,,,,,,Roman Road,,,,opp,,S,E0040677,Broadstone,Poole,,,,,,false,UKOS,399273,95359,-2.01167,50.75783,BCT,MKD,OTH,,,,043,2006-03-08T00:00:00,2021-07-07T13:30:44,0,new,active
1280POA11287,pleagdm,,,Upton Way,,,,,,Upton Way,,,,E-bound,,E,E0040677,Broadstone,Poole,,,,,,false,UKOS,399448,95351,-2.00919,50.75775,BCT,MKD,OTH,,,,043,2003-06-12T00:00:00,2015-04-25T12:19:07,0,new,active
1280POA11289,pleadwj,,,Upton Way,,,,,,Roman Road,,,,opp,,N,E0040677,Broadstone,Poole,,,,,,false,UKOS,399261,95292,-2.01184,50.75722,BCT,MKD,OTH,,,,043,2006-03-07T00:00:00,2015-04-25T12:19:07,0,new,active
1280POA11615,plejgdm,,,Coy Garden Court,,,,,,Surrey Road,,,,SE-bound,,SE,E0040675,Branksome,Poole,,,,,,false,UKOS,406690,92162,-1.90658,50.72904,BCT,MKD,OTH,,,,043,2007-06-20T00:00:00,2023-02-02T15:06:42,38,new,active
1280POA11623,plejgdw,,,County Gates,,,,,,Seamoor Road,,,,Stop 1,,NW,E0035400,Westbourne,Bournemouth,,,,,,false,UKOS,406707,91485,-1.90635,50.72295,BCT,MKD,OTH,,,,043,2005-11-02T00:00:00,2025-06-30T15:03:02,29,new,active
1280POA11625,plejadm,,,Branksome Roundabout,,,,,,Alder Road,,,,adj,,S,E0040675,Branksome,Poole,,,,,,false,UKOS,405430,92094,-1.92443,50.72844,BCT,MKD,OTH,,,,043,2006-03-07T00:00:00,2023-03-01T12:33:47,37,new,active
1280POA11624,plejadj,,,Branksome Roundabout,,,,,,Alder Road,,,,opp,,N,E0040675,Branksome,Poole,,,,,,false,UKOS,405411,92079,-1.9247,50.72831,BCT,MKD,OTH,,,,043,2007-06-20T00:00:00,2023-03-01T12:33:12,37,new,active
1280POA11613,plejdtm,,,Gordon Road,,,,,,Surrey Road,,,,E-bound,,E,E0040675,Branksome,Poole,,,,,,false,UKOS,406416,92184,-1.91046,50.72924,BCT,MKD,OTH,,,,043,2007-06-20T00:00:00,2023-02-02T15:03:20,41,new,active
1280POA11614,plejdtj,,,Gordon Road,,,,,,Surrey Road,,,,W-bound,,W,E0040675,Branksome,Poole,,,,,,false,UKOS,406430,92171,-1.91026,50.72912,BCT,MKD,OTH,,,,043,2007-06-20T00:00:00,2023-02-02T15:04:20,39,new,active
1280POA11607,plejapt,,,Wroxham Road,,,,,,Wroxham Road,,,,NE-bound,,NE,E0040675,Branksome,Poole,,,,,,false,UKOS,405743,92153,-1.92,50.72897,BCT,MKD,OTH,,,,043,2007-06-20T00:00:00,2019-01-29T10:38:17,4,new,active
1280POA11608,plejapw,,,Wroxham Road,,,,,,Wroxham Road,,,,SW-bound,,SW,E0040675,Branksome,Poole,,,,,,false,UKOS,405737,92118,-1.92008,50.72865,BCT,MKD,OTH,,,,043,2007-06-20T00:00:00,2019-01-29T10:37:18,10,new,active
1280POA11609,plejawj,,,Sheringham Road,,,,,,Wroxham Road,,,,NE-bound,,NE,E0040675,Branksome,Poole,,,,,,false,UKOS,405939,92242,-1.91722,50.72977,BCT,MKD,OTH,,,,043,2006-03-01T00:00:00,2020-02-25T08:31:54,0,new,active
1280POA11610,plejawm,,,Sheringham Road,,,,,,Wroxham Road,,,,SW-bound,,SW,E0040675,Branksome,Poole,,,,,,false,UKOS,405940,92232,-1.9172,50.72968,BCT,MKD,OTH,,,,043,2006-03-01T00:00:00,2020-02-25T08:31:54,0,new,active
1280POA11612,plejdmp,,,Railway Arches,,,,,,Surrey Road,,,,W-bound,,W,E0040675,Branksome,Poole,,,,,,false,UKOS,406249,92194,-1.91283,50.72933,BCT,MKD,OTH,,,,043,2007-06-20T00:00:00,2021-07-07T13:30:46,0,new,active
1280POA11611,plejdmd,,,Railway Arches,,,,,,Surrey Road,,,,SE-bound,,SE,E0040675,Branksome,Poole,,,,,,false,UKOS,406212,92223,-1.91335,50.72959,BCT,MKD,OTH,,,,043,2009-06-05T00:00:00,2019-07-31T12:15:23,5,new,active
1280POA11633,plejdat,,,McDonalds,,,,,,Alder Road,,,,opp,,NE,E0040703,Rossmore,Poole,,,,,,false,UKOS,406003,93230,-1.91629,50.73865,BCT,MKD,OTH,,,,043,2006-03-09T00:00:00,2019-12-18T16:27:37,17,new,active
1280POA11634,plejdag,,,McDonalds,,,,,,Alder Road,,,,SW-bound,,SW,E0040703,Rossmore,Poole,,,,,,false,UKOS,405970,93156,-1.91676,50.73799,BCT,MKD,OTH,,,,043,2007-06-08T00:00:00,2019-12-18T16:28:03,17,new,active
1280POA11635,plejata,,,Alder Crescent,,,,,,Alder Crescent,,,,NW-bound,,NW,E0040703,Rossmore,Poole,,,,,,false,UKOS,405839,93262,-1.91862,50.73894,BCT,MKD,OTH,,,,043,2006-01-26T00:00:00,2021-07-07T13:30:46,0,new,active
1280POA11636,plejatj,,,Alder Crescent,,,,,,Alder Crescent,,,,SE-bound,,SE,E0040703,Rossmore,Poole,,,,,,false,UKOS,405855,93253,-1.91839,50.73886,BCT,MKD,OTH,,,,043,2006-01-26T00:00:00,2020-02-25T08:31:53,0,new,active
1280POA11637,plejamg,,,Aspen Road,,,,,,Aspen Road,,,,SW-bound,,SW,E0040703,Rossmore,Poole,,,,,,false,UKOS,405702,93278,-1.92056,50.73909,BCT,MKD,OTH,,,,043,2006-01-26T00:00:00,2020-11-05T10:58:08,6,new,active
1280POA11638,plejamj,,,Aspen Road,,,,,,Aspen Road,,,,NE-bound,,NE,E0040703,Rossmore,Poole,,,,,,false,UKOS,405706,93293,-1.9205,50.73922,BCT,MKD,OTH,,,,043,2006-01-11T00:00:00,2020-08-25T15:58:49,2,new,active
1280POA11640,plejadp,,,Northmere Road,,,,,,Northmere Road,,,,NE-bound,,NE,E0040703,Rossmore,Poole,,,,,,false,UKOS,405469,92954,-1.92387,50.73617,BCT,MKD,OTH,,,,043,2007-02-28T00:00:00,2020-02-25T08:31:54,0,new,active
1280POA11639,plejadt,,,Northmere Road,,,,,,Northmere Road,,,,SW-bound,,SW,E0040703,Rossmore,Poole,,,,,,false,UKOS,405496,92980,-1.92348,50.73641,BCT,MKD,OTH,,,,043,2007-02-28T00:00:00,2020-02-25T08:31:54,0,new,active
1280POA11627,plejagw,,,Recreation Road,,,,,,Alder Road,,,,opp,,SW,E0040675,Branksome,Poole,,,,,,false,UKOS,405579,92479,-1.92231,50.7319,BCT,MKD,OTH,,,,043,2007-06-20T00:00:00,2020-02-25T08:31:52,0,new,active
1280POA11626,plejaga,,,Recreation Road,,,,,,Alder Road,,,,adj,,NE,E0040675,Branksome,Poole,,,,,,false,UKOS,405535,92407,-1.92294,50.73125,BCT,MKD,OTH,,,,043,2007-06-20T00:00:00,2020-02-25T08:31:52,0,new,active
1280POA31708,plejmjp,,,New Star,,,,,,,,,,SE-bound,,SE,E0040703,Rossmore,Poole,,,,,,false,UKOS,405257,93124,-1.92687,50.7377,BCT,MKD,OTH,,,,043,2007-02-09T00:00:00,2020-08-25T16:23:03,9,new,active
1280POA11628,plegwma,,,New Star,,,,,,Herbert Avenue,,,,NW-bound,,NW,E0040703,Rossmore,Poole,,,,,,false,UKOS,405285,93075,-1.92647,50.73726,BCT,MKD,OTH,,,,043,2007-06-08T00:00:00,2020-08-25T16:22:40,8,new,active
1280POA11641,plejajt,,,Gateway Church,,,,,,Herbert Avenue,,,,NW-bound,,NW,E0040703,Rossmore,Poole,,,,,,false,UKOS,405641,92790,-1.92143,50.7347,BCT,MKD,OTH,,,,043,2006-03-01T00:00:00,2021-02-03T10:08:51,23,new,active
1280POA11630,plejamw,,,Gateway Church,,,,,,Alder Road,,,,SW-bound,,SW,E0040703,Rossmore,Poole,,,,,,false,UKOS,405726,92815,-1.92023,50.73492,BCT,MKD,OTH,,,,043,2007-06-20T00:00:00,2018-10-24T10:22:27,12,new,active
1280POA11631,plejapa,,,Gateway Church,,,,,,Alder Road,,,,NE-bound,,NE,E0040703,Rossmore,Poole,,,,,,false,UKOS,405739,92854,-1.92004,50.73527,BCT,MKD,OTH,,,,043,2005-11-09T00:00:00,2018-10-24T10:21:59,11,new,active
1280POA11632,plejapj,,,Alder Parade,,,,,,Alder Road,,,,opp,,SW,E0040703,Rossmore,Poole,,,,,,false,UKOS,405792,92913,-1.91929,50.7358,BCT,MKD,OTH,,,,043,2006-01-26T00:00:00,2015-04-25T12:19:21,0,new,active
1280POA11566,plejatg,,,Alder Parade,,,,,,Alder Road,,,,NE-bound,,NE,E0040703,Rossmore,Poole,,,,,,false,UKOS,405854,93016,-1.91841,50.73673,BCT,MKD,OTH,,,,043,2006-01-26T00:00:00,2020-02-25T08:31:54,0,new,active
1280POA11565,plejatp,,,Alder Parade,,,,,,Winston Avenue,,,,E-bound,,E,E0040703,Rossmore,Poole,,,,,,false,UKOS,405894,92981,-1.91784,50.73641,BCT,MKD,OTH,,,,043,2006-01-26T00:00:00,2020-02-25T08:31:54,0,new,active
1280POA11586,plegdpt,,,Danecourt Road,,,,,,North Road,,,,SW-bound,,SW,E0040701,Parkstone,Poole,,,,,,false,UKOS,403146,91787,-1.95679,50.7257,BCT,MKD,OTH,,,,043,2005-11-09T00:00:00,2014-07-03T12:11:48,2,new,active
1280POA11587,plegdta,,,Danecourt Road,,,,,,North Road,,,,NE-bound,,NE,E0040701,Parkstone,Poole,,,,,,false,UKOS,403175,91860,-1.95638,50.72635,BCT,MKD,OTH,,,,043,2006-03-08T00:00:00,2020-08-05T14:42:15,9,new,active
1280POA11588,plegjap,,,Springfield Road,,,,,,North Road,,,,SW-bound,,SW,E0040701,Parkstone,Poole,,,,,,false,UKOS,403402,92172,-1.95316,50.72916,BCT,MKD,OTH,,,,043,2006-03-07T00:00:00,2020-08-25T15:51:58,2,new,active
1280POA11589,plegjdg,,,Springfield Road,,,,,,North Road,,,,NE-bound,,NE,E0040701,Parkstone,Poole,,,,,,false,UKOS,403446,92237,-1.95254,50.72974,BCT,MKD,OTH,,,,043,2007-06-20T00:00:00,2020-08-05T14:49:58,9,new,active
1280POA11591,plegjmg,,,Cranbrook Road,,,,,,Ashley Road,,,,NW-bound,,NW,E0040701,Parkstone,Poole,,,,,,false,UKOS,403645,92283,-1.94972,50.73015,BCT,MKD,OTH,,,,043,2006-03-07T00:00:00,2014-01-08T11:57:21,8,new,active
1280POA11590,plegjpa,,,Cranbrook Road,,,,,,Ashley Road,,,,E-bound,,E,E0040701,Parkstone,Poole,,,,,,false,UKOS,403686,92282,-1.94914,50.73014,BCT,MKD,OTH,,,,043,2006-03-07T00:00:00,2021-07-07T13:30:46,0,new,active
1280POA11585,plegdmj,,,Park Place,,,,,,North Road,,,,W-bound,,W,E0040701,Parkstone,Poole,,,,,,false,UKOS,402960,91618,-1.95943,50.72418,BCT,MKD,OTH,,,,043,2007-06-21T00:00:00,2020-08-05T14:44:00,8,new,active
1280POA11579,plejawa,,,Guest Avenue,,,,,,Yarmouth Road,,,,SE-bound,,SE,E0040675,Branksome,Poole,,,,,,false,UKOS,405915,92481,-1.91755,50.73192,BCT,MKD,OTH,,,,043,2007-06-20T00:00:00,2019-12-18T16:21:54,9,new,active
1280POA11580,plejawd,,,Guest Avenue,,,,,,Yarmouth Road,,,,NW-bound,,NW,E0040675,Branksome,Poole,,,,,,false,UKOS,405920,92452,-1.91748,50.73166,BCT,MKD,OTH,,,,043,2007-06-20T00:00:00,2019-12-18T16:21:31,8,new,active
1280POA11581,plejdga,,,Yarmouth Court,,,,,,Yarmouth Road,,,,SE-bound,,SE,E0040675,Branksome,Poole,,,,,,false,UKOS,406010,92347,-1.91621,50.73071,BCT,MKD,OTH,,,,043,2007-06-20T00:00:00,2021-07-07T13:30:46,0,new,active
1280POA11582,plejdgm,,,Yarmouth Court,,,,,,Yarmouth Road,,,,NW-bound,,NW,E0040675,Branksome,Poole,,,,,,false,UKOS,406029,92313,-1.91594,50.7304,BCT,MKD,OTH,,,,043,2006-03-01T00:00:00,2019-12-18T16:25:12,10,new,active
1280POA11126,pleadmg,,,Hamworthy Junction,,,,,,Turlin Road,,,,NE-bound,,NE,E0040710,Turlin Moor,Poole,,,,,,false,UKOS,398741,92041,-2.0192,50.72799,BCT,MKD,OTH,,,,043,2006-01-26T00:00:00,2020-02-25T08:31:54,0,new,active
1280POA11127,pleadma,,,Hamworthy Junction,,,,,,Turlin Road,,,,S-bound,,S,E0040710,Turlin Moor,Poole,,,,,,false,UKOS,398728,91986,-2.01939,50.72749,BCT,MKD,OTH,,,,043,2006-01-26T00:00:00,2020-02-25T08:31:54,0,new,active
1280POA11583,pleadmj,,,Hamworthy Recreation Ground,,,,,,Blandford Road,,,,SE-bound,,SE,E0040710,Turlin Moor,Poole,,,,,,false,UKOS,398742,92138,-2.01919,50.72886,BCT,MKD,OTH,,,,043,2009-06-05T00:00:00,2020-02-20T10:43:54,9,new,active
1280POA11584,pleadjw,,,Hamworthy Recreation Ground,,,,,,Blandford Road,,,,NW-bound,,NW,E0040710,Turlin Moor,Poole,,,,,,false,UKOS,398697,92185,-2.01983,50.72928,BCT,MKD,OTH,,,,043,2007-06-20T00:00:00,2020-02-25T08:31:54,0,new,active
1280POA11600,plegwmj,,,Tennyson Buildings,,,,,,Ashley Road,,,,E-bound,,E,E0040675,Branksome,Poole,,,,,,false,UKOS,405297,92061,-1.92632,50.72815,BCT,MKD,OTH,,,,043,2007-06-20T00:00:00,2014-11-20T15:11:45,10,new,active
1280POA11601,plegwjt,,,Tennyson Buildings,,,,,,Ashley Road,,,,W-bound,,W,E0040675,Branksome,Poole,,,,,,false,UKOS,405258,92057,-1.92687,50.72811,BCT,MKD,OTH,,,,043,2007-06-20T00:00:00,2014-11-20T15:16:22,11,new,active
1280POA11603,plejajd,,,Branksome Station,,,,,,Poole Road,,,,E-bound,,E,E0040675,Branksome,Poole,,,,,,false,UKOS,405582,91975,-1.92228,50.72737,BCT,MKD,OTH,,,,043,2006-05-16T00:00:00,2021-07-07T13:30:46,0,new,active
1280POA11604,plejajm,,,Branksome Station,,,,,,Poole Road,,,,W-bound,,W,E0040675,Branksome,Poole,,,,,,false,UKOS,405604,91954,-1.92197,50.72718,BCT,MKD,OTH,,,,043,2006-05-16T00:00:00,2021-07-07T13:30:46,0,new,active
1280POA11605,plejama,,,Cromer Road,,,,,,Cromer Road,,,,NE-bound,,NE,E0040675,Branksome,Poole,,,,,,false,UKOS,405659,91986,-1.92119,50.72747,BCT,MKD,OTH,,,,043,2006-03-01T00:00:00,2017-10-24T12:01:50,4,new,active
1280POA11606,plejamp,,,Cromer Road,,,,,,Cromer Road,,,,SW-bound,,SW,E0040675,Branksome,Poole,,,,,,false,UKOS,405684,92016,-1.92083,50.72774,BCT,MKD,OTH,,,,043,2007-06-20T00:00:00,2020-02-25T08:31:53,0,new,active
1280POA11599,plegtpw,,,Loch Road,,,,,,Ashley Road,,,,W-bound,,W,E0040701,Parkstone,Poole,,,,,,false,UKOS,404986,92079,-1.93072,50.72831,BCT,MKD,OTH,,,,043,2009-06-05T00:00:00,2015-03-04T11:06:13,6,new,active
1280POA11598,plegwda,,,Loch Road,,,,,,Ashley Road,,,,opp,,E,E0040701,Parkstone,Poole,,,,,,false,UKOS,405071,92080,-1.92952,50.72832,BCT,MKD,OTH,,,,043,2007-06-20T00:00:00,2020-08-05T15:02:42,9,new,active
1280POA11592,plegmap,,,Uppleby Road,,,,,,Ashley Road,,,,W-bound,,W,E0040701,Parkstone,Poole,,,,,,false,UKOS,403982,92176,-1.94495,50.72919,BCT,MKD,OTH,,,,043,2005-11-09T00:00:00,2021-07-07T13:30:46,0,new,active
1280POA11593,plegmdt,,,Uppleby Road,,,,,,Ashley Road,,,,E-bound,,E,E0040701,Parkstone,Poole,,,,,,false,UKOS,404077,92172,-1.9436,50.72915,BCT,MKD,OTH,,,,043,2005-11-09T00:00:00,2021-07-07T13:30:46,0,new,active
1280POA11848,plegpaw,,,Top of Richmond Road,,,,,,Richmond Road,,,,opp,,S,E0040701,Parkstone,Poole,,,,,,false,UKOS,404403,92100,-1.93898,50.7285,BCT,MKD,OTH,,,,043,2007-11-19T00:00:00,2015-03-04T10:46:23,2,new,active
1280POA11596,plegpgj,,,Jubilee Road,,,,,,Ashley Road,,,,W-bound,,W,E0040701,Parkstone,Poole,,,,,,false,UKOS,404545,92115,-1.93697,50.72864,BCT,MKD,OTH,,,,043,2007-06-20T00:00:00,2024-04-09T08:43:03,43,new,active
1280POA11597,plegpgp,,,Jubilee Road,,,,,,Ashley Road,,,,E-bound,,E,E0040701,Parkstone,Poole,,,,,,false,UKOS,404564,92127,-1.9367,50.72874,BCT,MKD,OTH,,,,043,2005-11-09T00:00:00,2024-04-09T08:42:22,43,new,active
1280POA11675,plegmpd,,,Brixey Road Church,,,,,,Brixey Road,,,,opp,,N,E0040699,Newtown,Poole,,,,,,false,UKOS,404274,93383,-1.9408,50.74004,BCT,MKD,OTH,,,,043,2006-01-26T00:00:00,2021-07-07T13:30:44,0,new,active
1280POA11674,plegmpa,,,Brixey Road Church,,,,,,Brixey Road,,,,S-bound,,S,E0040699,Newtown,Poole,,,,,,false,UKOS,404271,93349,-1.94084,50.73974,BCT,MKD,OTH,,,,043,2006-01-26T00:00:00,2021-07-07T13:30:46,0,new,active
1280POA11695,plegpda,,,Canford Park Arena,,,,,,Magna Road,,,,NW-bound,,NW,N0060766,Bearwood,Poole,,,,,,false,UKOS,404371,97297,-1.93938,50.77524,BCT,MKD,OTH,,,,043,2006-03-07T00:00:00,2022-11-29T13:28:32,16,new,active
1280POA11698,plegdtg,,,Canford Magna Road,,,,,,Magna Road,,,,opp,,W,E0040679,Canford Magna,Poole,,,,,,false,UKOS,403210,97991,-1.95584,50.78149,BCT,MKD,OTH,,,,043,2006-03-07T00:00:00,2015-04-25T12:19:22,0,new,active
1280POA11697,plegdtw,,,Canford Magna Road,,,,,,Magna Road,,,,E-bound,,E,E0040679,Canford Magna,Poole,,,,,,false,UKOS,403265,97978,-1.95506,50.78137,BCT,MKD,OTH,,,,043,2006-03-07T00:00:00,2020-02-25T08:31:54,0,new,active
1280POA11700,plegdam,,,Lynwood Drive East,,,,,,Queen Anne Drive,,,,NE-bound,,NE,E0040697,Merley,Poole,,,,,,false,UKOS,402746,97978,-1.96242,50.78137,BCT,MKD,OTH,,,,043,2006-08-23T00:00:00,2020-08-25T16:01:39,2,new,active
1280POA11701,plegatd,,,Lynwood Drive East,,,,,,Queen Anne Drive,,,,opp,,SW,E0040697,Merley,Poole,,,,,,false,UKOS,402613,97892,-1.9643,50.7806,BCT,MKD,OTH,,,,043,2006-08-23T00:00:00,2015-04-25T12:19:22,0,new,active
1280POA11669,plegjwa,,,Livingstone Road,,,,,,Cranbrook Road,,,,N-bound,,N,E0040699,Newtown,Poole,,,,,,false,UKOS,403821,92806,-1.94722,50.73486,BCT,MKD,OTH,,,,043,2007-05-31T00:00:00,2021-07-07T13:30:46,0,new,active
1280POA11668,plegjwd,,,Livingstone Road,,,,,,Cranbrook Road,,,,S-bound,,S,E0040699,Newtown,Poole,,,,,,false,UKOS,403828,92796,-1.94712,50.73477,BCT,MKD,OTH,,,,043,2007-05-31T00:00:00,2021-07-07T13:30:46,0,new,active
1280POA11670,plegmag,,,Faith Gardens,,,,,,Cranbrook Road,,,,N-bound,,N,E0040699,Newtown,Poole,,,,,,false,UKOS,403954,93136,-1.94533,50.73782,BCT,MKD,OTH,,,,043,2006-05-16T00:00:00,2024-05-01T11:28:21,37,new,active
1280POA11671,plegmam,,,Faith Gardens,,,,,,Cranbrook Road,,,,S-bound,,S,E0040699,Newtown,Poole,,,,,,false,UKOS,403943,93062,-1.94549,50.73716,BCT,MKD,OTH,,,,043,2006-05-16T00:00:00,2024-05-01T11:28:52,37,new,active
1280POA11672,plegmgw,,,Rachael Close,,,,,,Brixey Road,,,,N-bound,,N,E0040699,Newtown,Poole,,,,,,false,UKOS,404195,93130,-1.94192,50.73777,BCT,MKD,OTH,,,,043,2006-01-26T00:00:00,2024-05-08T12:30:24,71,new,active
1280POA11673,plegmja,,,Rachael Close,,,,,,Brixey Road,,,,opp,,S,E0040699,Newtown,Poole,,,,,,false,UKOS,404220,93177,-1.94156,50.73819,BCT,MKD,OTH,,,,043,2006-02-13T00:00:00,2024-05-08T12:30:52,73,new,active
1280POZ00735,plejamd,,,Benbow Crescent,,,,,,Wallisdown Road,,,,opp,,SE,E0040711,Wallisdown,Poole,,,,,,false,UKOS,405674,94386,-1.92094,50.74905,BCT,MKD,OTH,,,,043,2005-10-04T00:00:00,2015-04-25T12:19:22,0,new,active
1280POA11710,plejajg,,,Benbow Crescent,,,,,,Wallisdown Road,,,,NW-bound,,NW,E0040711,Wallisdown,Poole,,,,,,false,UKOS,405603,94419,-1.92195,50.74935,BCT,MKD,OTH,,,,043,2009-06-05T00:00:00,2020-02-25T08:31:54,0,new,active
1280POA11712,plejapm,,,Scott Road,,,,,,Wallisdown Road,,,,SE-bound,,SE,E0040711,Wallisdown,Poole,,,,,,false,UKOS,405793,94306,-1.91925,50.74833,BCT,MKD,OTH,,,,043,2005-10-21T00:00:00,2021-07-07T13:30:46,0,new,active
1280POA11713,plejapg,,,Scott Road,,,,,,Wallisdown Road,,,,NW-bound,,NW,E0040711,Wallisdown,Poole,,,,,,false,UKOS,405759,94316,-1.91974,50.74842,BCT,MKD,OTH,,,,043,2006-03-07T00:00:00,2021-07-07T13:30:46,0,new,active
1280POA11714,plejdgj,,,Astbury Avenue,,,,,,Wallisdown Road,,,,NW-bound,,NW,E0040711,Wallisdown,Poole,,,,,,false,UKOS,406023,94205,-1.916,50.74742,BCT,MKD,OTH,,,,043,2005-10-21T00:00:00,2019-12-18T15:00:43,8,new,active
1280POA11719,plejdpj,,,Roundabout,,,,,,Alder Road,,,,N-bound,,N,E0040711,Wallisdown,Poole,,,,,,false,UKOS,406388,94056,-1.91082,50.74607,BCT,MKD,OTH,,,,043,2006-03-01T00:00:00,2020-02-25T08:31:54,0,new,active
1280POA11718,plejdpw,,,Roundabout,,,,,,Alder Road,,,,S-bound,,S,E0040711,Wallisdown,Poole,,,,,,false,UKOS,406395,94031,-1.91073,50.74585,BCT,MKD,OTH,,,,043,2006-03-01T00:00:00,2020-02-25T08:31:54,0,new,active
1280POA11708,plejada,,,Discovery Court,,,,,,Wallisdown Road,,,,SE-bound,,SE,E0040711,Wallisdown,Poole,,,,,,false,UKOS,405292,94647,-1.92635,50.7514,BCT,MKD,OTH,,,,043,2006-05-16T00:00:00,2023-03-24T15:05:01,8,new,active
1280BTX38432,plegwmd,,,Discovery Court,,,,,,Wallisdown Road,,,,NW-bound,,NW,E0040711,Wallisdown,Poole,,,,,,false,UKOS,405222,94678,-1.92734,50.75168,BCT,MKD,OTH,,,,043,2006-05-16T00:00:00,2023-03-24T15:04:51,8,new,active
1280POA11702,plegamg,,,Lynwood Drive West,,,,,,Queen Anne Drive,,,,NE-bound,,NE,E0040697,Merley,Poole,,,,,,false,UKOS,402454,97798,-1.96656,50.77975,BCT,MKD,OTH,,,,043,2006-08-23T00:00:00,2015-04-25T12:19:22,0,new,active
1280POA11703,plegajm,,,Harvey Road,,,,,,Queen Anne Drive,,,,S-bound,,S,E0040697,Merley,Poole,,,,,,false,UKOS,402410,97702,-1.96718,50.77889,BCT,MKD,OTH,,,,043,2006-03-07T00:00:00,2015-04-25T12:19:22,0,new,active
1280POA11705,pleawtp,,,Montacute Way,,,,,,Queen Anne Drive,,,,opp,,W,E0040697,Merley,Poole,,,,,,false,UKOS,402210,97506,-1.97002,50.77713,BCT,MKD,OTH,,,,043,2006-03-07T00:00:00,2015-04-25T12:19:22,0,new,active
1280POA11704,pleawtg,,,Montacute Way,,,,,,Queen Anne Drive,,,,E-bound,,E,E0040697,Merley,Poole,,,,,,false,UKOS,402182,97512,-1.97042,50.77718,BCT,MKD,OTH,,,,043,2009-06-05T00:00:00,2020-02-25T08:31:54,0,new,active
1280POA11706,plegtpa,,,Mountbatten Roundabout,,,,,,Wallisdown Road,,,,NW-bound,,NW,E0040711,Wallisdown,Poole,,,,,,false,UKOS,404972,94846,-1.93088,50.75319,BCT,MKD,OTH,,,,043,2006-05-16T00:00:00,2019-12-18T14:45:06,8,new,active
1280POA11545,plegtgp,,,Good Shepherd Church,,,,,,Herbert Avenue,,,,SE-bound,,SE,E0040703,Rossmore,Poole,,,,,,false,UKOS,404878,93422,-1.93223,50.74039,BCT,MKD,OTH,,,,043,2006-01-26T00:00:00,2021-07-07T13:30:46,0,new,active
1280POA11667,plegtga,,,Good Shepherd Church,,,,,,Herbert Avenue,,,,NW-bound,,NW,E0040703,Rossmore,Poole,,,,,,false,UKOS,404837,93443,-1.93282,50.74058,BCT,MKD,OTH,,,,043,2006-01-26T00:00:00,2020-02-25T08:31:54,0,new,active
1280POA11648,plegwad,,,Recreation Ground,,,,,,Rossmore Road,,,,opp,,NW,E0040703,Rossmore,Poole,,,,,,false,UKOS,405052,93021,-1.92977,50.73678,BCT,MKD,OTH,,,,043,2007-06-08T00:00:00,2015-04-25T12:19:22,0,new,active
1280POA11647,plegwap,,,Recreation Ground,,,,,,Rossmore Road,,,,SE-bound,,SE,E0040703,Rossmore,Poole,,,,,,false,UKOS,405060,93030,-1.92966,50.73686,BCT,MKD,OTH,,,,043,2006-03-09T00:00:00,2020-08-25T16:00:11,2,new,active
1280POA11650,plegtmd,,,Boldre Close,,,,,,Rossmore Road,,,,SE-bound,,SE,E0040703,Rossmore,Poole,,,,,,false,UKOS,404934,93112,-1.93145,50.7376,BCT,MKD,OTH,,,,043,2006-03-01T00:00:00,2021-02-24T15:17:35,5,new,active
1280POA11651,plegtja,,,Buckingham Road,,,,,,Rossmore Road,,,,NW-bound,,NW,E0040703,Rossmore,Poole,,,,,,false,UKOS,404903,93128,-1.93188,50.73774,BCT,MKD,OTH,,,,043,2006-03-01T00:00:00,2021-07-07T13:30:46,0,new,active
1280POA11653,plegpwp,,,The Tavern,,,,,,Rossmore Road,,,,opp,,NW,E0040703,Rossmore,Poole,,,,,,false,UKOS,404753,93231,-1.93401,50.73867,BCT,MKD,OTH,,,,043,2007-06-08T00:00:00,2015-04-25T12:19:22,0,new,active
1280POA11652,plegtap,,,The Tavern,,,,,,Rossmore Road,,,,SE-bound,,SE,E0040703,Rossmore,Poole,,,,,,false,UKOS,404771,93228,-1.93375,50.73864,BCT,MKD,OTH,,,,043,2007-06-08T00:00:00,2021-07-07T13:30:46,0,new,active
1280POA11646,plegtma,,,Sunnyside Road,,,,,,Albert Road,,,,N-bound,,N,E0040703,Rossmore,Poole,,,,,,false,UKOS,404931,92814,-1.93149,50.73492,BCT,MKD,OTH,,,,043,2006-03-01T00:00:00,2021-07-07T13:30:46,0,new,active
1280POA11645,plegtjw,,,Sunnyside Road,,,,,,Albert Road,,,,S-bound,,S,E0040703,Rossmore,Poole,,,,,,false,UKOS,404930,92792,-1.93151,50.73472,BCT,MKD,OTH,,,,043,2006-03-01T00:00:00,2021-07-07T13:30:46,0,new,active
1280POA11642,plegtdp,,,Glencoe Road,,,,,,Albert Road,,,,N-bound,,N,E0040701,Parkstone,Poole,,,,,,false,UKOS,404794,92452,-1.93344,50.73167,BCT,MKD,OTH,,,,043,2007-06-20T00:00:00,2015-06-26T15:02:51,6,new,active
1280POA11643,plegtdw,,,Glencoe Road,,,,,,Albert Road,,,,SW-bound,,SW,E0040701,Parkstone,Poole,,,,,,false,UKOS,404798,92441,-1.93338,50.73157,BCT,MKD,OTH,,,,043,2007-02-28T00:00:00,2015-06-26T15:03:06,6,new,active
1280POZ00752,plejmdj,,,Alcester Road,,,,,,Albert Road,,,,S-bound,,S,E0040703,Rossmore,Poole,,,,,,false,UKOS,404876,92651,-1.93227,50.73345,BCT,MKD,OTH,,,,043,2006-03-01T00:00:00,2021-02-24T16:20:51,14,new,active
1280POA11644,plegtgw,,,Alcester Road,,,,,,Albert Road,,,,N-bound,,N,E0040703,Rossmore,Poole,,,,,,false,UKOS,404880,92683,-1.93222,50.73374,BCT,MKD,OTH,,,,043,2006-03-01T00:00:00,2021-02-24T16:20:31,14,new,active
1280POA11661,plegmtd,,,Worbarrow Gardens,,,,,,Rossmore Road,,,,opp,,SE,E0040699,Newtown,Poole,,,,,,false,UKOS,404328,93581,-1.94003,50.74182,BCT,MKD,OTH,,,,043,2006-01-26T00:00:00,2021-02-24T15:13:41,8,new,active
1280POA11662,plegmpm,,,Worbarrow Gardens,,,,,,Rossmore Road,,,,NW-bound,,NW,E0040699,Newtown,Poole,,,,,,false,UKOS,404308,93582,-1.94031,50.74183,BCT,MKD,OTH,,,,043,2006-01-26T00:00:00,2021-02-24T15:13:15,8,new,active
1280POA11663,plegpag,,,Brixey Road,,,,,,Rossmore Road,,,,NW-bound,,NW,E0040699,Newtown,Poole,,,,,,false,UKOS,404374,93532,-1.93938,50.74138,BCT,MKD,OTH,,,,043,2007-06-08T00:00:00,2021-02-24T15:15:02,8,new,active
1280POA11664,plegpaj,,,Brixey Road,,,,,,Rossmore Road,,,,SE-bound,,SE,E0040699,Newtown,Poole,,,,,,false,UKOS,404376,93542,-1.93935,50.74147,BCT,MKD,OTH,,,,043,2006-01-26T00:00:00,2021-02-24T15:15:27,8,new,active
1280POA11665,plegpdw,,,Good Road,,,,,,Rossmore Road,,,,SE-bound,,SE,E0040699,Newtown,Poole,,,,,,false,UKOS,404509,93441,-1.93746,50.74056,BCT,MKD,OTH,,,,043,2009-06-05T00:00:00,2021-07-07T13:30:46,0,new,active
1280POA11666,plegpdj,,,Good Road,,,,,,Rossmore Road,,,,NW-bound,,NW,E0040699,Newtown,Poole,,,,,,false,UKOS,404469,93459,-1.93803,50.74072,BCT,MKD,OTH,,,,043,2009-06-05T00:00:00,2021-07-07T13:30:46,0,new,active
1280POA11656,plegmaj,,,Chesil Gardens,,,,,,Rossmore Road,,,,opp,,NW,E0040699,Newtown,Poole,,,,,,false,UKOS,403948,93786,-1.94541,50.74367,BCT,MKD,OTH,,,,043,2007-06-08T00:00:00,2021-07-07T13:30:44,0,new,active
1280POA11657,plegmaw,,,Trinidad House,,,,,,Rossmore Road,,,,SE-bound,,SE,E0040699,Newtown,Poole,,,,,,false,UKOS,404029,93731,-1.94426,50.74317,BCT,MKD,OTH,,,,043,2005-11-09T00:00:00,2014-01-06T10:14:06,1,new,active
1280POA11658,plegmat,,,Trinidad House,,,,,,Rossmore Road,,,,NW-bound,,NW,E0040699,Newtown,Poole,,,,,,false,UKOS,404040,93708,-1.94411,50.74297,BCT,MKD,OTH,,,,043,2005-11-09T00:00:00,2021-07-07T13:30:46,0,new,active
1280POA11660,plegmga,,,Worrell Drive,,,,,,Rossmore Road,,,,W-bound,,W,E0040699,Newtown,Poole,,,,,,false,UKOS,404127,93655,-1.94288,50.74249,BCT,MKD,OTH,,,,043,2005-11-09T00:00:00,2021-02-24T16:05:01,9,new,active
1280POA11659,plegmgj,,,Worrell Drive,,,,,,Rossmore Road,,,,E-bound,,E,E0040699,Newtown,Poole,,,,,,false,UKOS,404167,93668,-1.94231,50.74261,BCT,MKD,OTH,,,,043,2006-01-26T00:00:00,2021-07-07T13:30:46,0,new,active
1280POA11577,plejdgd,,,Holt Road,,,,,,Guest Avenue,,,,NE-bound,,NE,E0040675,Branksome,Poole,,,,,,false,UKOS,406015,92693,-1.91613,50.73382,BCT,MKD,OTH,,,,043,2009-06-05T00:00:00,2019-12-18T16:04:18,8,new,active
1280POA11578,plejdam,,,Holt Road,,,,,,Guest Avenue,,,,SW-bound,,SW,E0040675,Branksome,Poole,,,,,,false,UKOS,405996,92649,-1.9164,50.73343,BCT,MKD,OTH,,,,043,2007-06-20T00:00:00,2019-12-18T16:04:43,8,new,active
1280POA11502,plegagj,,,Wykeham Close,,,,,,Adastral Road,,,,E-bound,,E,N0060769,Canford Heath,Poole,,,,,,false,UKOS,402329,93505,-1.96836,50.74115,BCT,MKD,OTH,,,,043,2006-03-06T00:00:00,2021-07-07T13:30:46,0,new,active
1280POA11501,plegagp,,,Wykeham Close,,,,,,Adastral Road,,,,W-bound,,W,N0060769,Canford Heath,Poole,,,,,,false,UKOS,402336,93496,-1.96826,50.74107,BCT,MKD,OTH,,,,043,2006-03-06T00:00:00,2021-07-07T13:30:46,0,new,active
1280POA11503,plegadp,,,Gibson Road,,,,,,Adastral Road,,,,opp,,W,N0060769,Canford Heath,Poole,,,,,,false,UKOS,402235,93453,-1.96969,50.74068,BCT,MKD,OTH,,,,043,2006-03-06T00:00:00,2023-04-24T10:04:02,37,new,active
1280POA11504,pleawpm,,,Gibson Road,,,,,,Adastral Road,,,,opp,,NE,N0060769,Canford Heath,Poole,,,,,,false,UKOS,402148,93398,-1.97092,50.74019,BCT,MKD,OTH,,,,043,2006-03-06T00:00:00,2023-04-24T10:03:13,31,new,active
1280POA11505,plegapa,,,The Pilot,,,,,,Adastral Road,,,,opp,,NE,N0060769,Canford Heath,Poole,,,,,,false,UKOS,402510,93592,-1.96579,50.74193,BCT,MKD,OTH,,,,043,2006-03-06T00:00:00,2015-04-25T12:19:23,0,new,active
1280POA11500,plegapj,,,The Pilot,,,,,,Adastral Road,,,,SW-bound,,SW,N0060769,Canford Heath,Poole,,,,,,false,UKOS,402570,93622,-1.96494,50.7422,BCT,MKD,OTH,,,,043,2006-03-06T00:00:00,2021-07-07T13:30:46,0,new,active
1280POA11499,plegawp,,,Kellaway Road,,,,,,Adastral Road,,,,opp,,N,N0060769,Canford Heath,Poole,,,,,,false,UKOS,402694,93841,-1.96318,50.74417,BCT,MKD,OTH,,,,043,2006-03-06T00:00:00,2015-04-25T12:19:23,0,new,active
1280POA11506,plegawt,,,Kellaway Road,,,,,,Adastral Road,,,,S-bound,,S,N0060769,Canford Heath,Poole,,,,,,false,UKOS,402703,93828,-1.96306,50.74405,BCT,MKD,OTH,,,,043,2006-03-06T00:00:00,2021-07-07T13:30:46,0,new,active
1280POA11507,pleawgp,,,Longfleet Drive,,,,,,Canford Heath Road,,,,W-bound,,W,N0060769,Canford Heath,Poole,,,,,,false,UKOS,402011,94401,-1.97286,50.74921,BCT,MKD,OTH,,,,043,2006-03-06T00:00:00,2020-08-20T12:21:07,16,new,active
1280POA11508,pleawgm,,,Longfleet Drive,,,,,,Canford Heath Road,,,,E-bound,,E,N0060769,Canford Heath,Poole,,,,,,false,UKOS,401971,94419,-1.97343,50.74937,BCT,MKD,OTH,,,,043,2003-06-12T00:00:00,2014-12-19T15:10:36,10,new,active
1280POA11493,plegapw,,,Ad Astra School,,,,,,Sherborn Crescent,,,,SW-bound,,SW,N0060769,Canford Heath,Poole,,,,,,false,UKOS,402591,94407,-1.96464,50.74926,BCT,MKD,OTH,,,,043,2006-03-06T00:00:00,2020-08-06T10:15:00,25,new,active
1280POA11494,plegatj,,,Ad Astra School,,,,,,Sherborn Crescent,,,,NE-bound,,NE,N0060769,Canford Heath,Poole,,,,,,false,UKOS,402628,94450,-1.96411,50.74965,BCT,MKD,OTH,,,,043,2006-03-06T00:00:00,2020-08-06T10:14:21,17,new,active
1280POA11497,plegdaj,,,Warburton Road,,,,,,Adastral Road,,,,N-bound,,N,N0060769,Canford Heath,Poole,,,,,,false,UKOS,402711,94085,-1.96294,50.74636,BCT,MKD,OTH,,,,043,2006-03-06T00:00:00,2021-07-07T13:30:46,0,new,active
1280POA11495,plegdag,,,Warburton Road,,,,,,Adastral Road,,,,opp,,S,N0060769,Canford Heath,Poole,,,,,,false,UKOS,402706,94145,-1.96301,50.7469,BCT,MKD,OTH,,,,043,2006-03-06T00:00:00,2015-04-25T12:19:23,0,new,active
1280POA11516,plegatw,,,Knowlton Road,,,,,,Culliford Crescent,,,,W-bound,,W,N0060769,Canford Heath,Poole,,,,,,false,UKOS,402662,94860,-1.96363,50.75333,BCT,MKD,OTH,,,,043,2006-03-06T00:00:00,2021-07-07T13:30:46,0,new,active
1280POA11517,plegdap,,,Knowlton Road,,,,,,Culliford Crescent,,,,opp,,SE,N0060769,Canford Heath,Poole,,,,,,false,UKOS,402750,94847,-1.96238,50.75322,BCT,MKD,OTH,,,,043,2006-03-06T00:00:00,2015-04-25T12:19:23,0,new,active
1280POA11533,plegmdp,,,Stone Park Corner,,,,,,Ringwood Road,,,,SW-bound,,SW,E0040669,Alderney,Poole,,,,,,false,UKOS,404076,93968,-1.94359,50.7453,BCT,MKD,OTH,,,,043,2007-06-08T00:00:00,2023-08-24T09:06:38,37,new,active
1280POA11540,plegmgp,,,Stone Park Corner,,,,,,Herbert Avenue,,,,SE-bound,,SE,E0040669,Alderney,Poole,,,,,,false,UKOS,404175,94017,-1.94219,50.74574,BCT,MKD,OTH,,,,043,2007-06-08T00:00:00,2024-05-01T11:41:28,67,new,active
1280POA11521,plegmgm,,,Stone Park Corner,,,,,,Ringwood Road,,,,NE-bound,,NE,E0040669,Alderney,Poole,,,,,,false,UKOS,404173,94111,-1.94222,50.74659,BCT,MKD,OTH,,,,043,2005-11-09T00:00:00,2023-08-24T09:04:37,37,new,active
1280POA11519,plegmdm,,,Stone Park Corner,,,,,,Mannings Heath Road,,,,NW-bound,,NW,E0040669,Alderney,Poole,,,,,,false,UKOS,404066,94058,-1.94374,50.74611,BCT,MKD,OTH,,,,043,2005-11-23T00:00:00,2023-08-24T09:05:09,37,new,active
1280POA11522,plegmtw,,,Alderney Hospital,,,,,,Ringwood Road,,,,NE-bound,,NE,E0040669,Alderney,Poole,,,,,,false,UKOS,404353,94321,-1.93966,50.74848,BCT,MKD,OTH,,,,043,2005-11-09T00:00:00,2021-07-07T13:30:46,0,new,active
1280POA11523,plegmta,,,Alderney Hospital,,,,,,Ringwood Road,,,,SW-bound,,SW,E0040669,Alderney,Poole,,,,,,false,UKOS,404325,94262,-1.94006,50.74795,BCT,MKD,OTH,,,,043,2007-06-08T00:00:00,2021-07-07T13:30:46,0,new,active
1280POA11510,plegagt,,,Asda Supermarket,,,,,,Culliford Crescent,,,,SE-bound,,SE,N0060769,Canford Heath,Poole,,,,,,false,UKOS,402339,94605,-1.96821,50.75104,BCT,MKD,OTH,,,,043,2006-03-06T00:00:00,2020-08-20T12:25:18,6,new,active
1280POA11509,plegagm,,,Asda Supermarket,,,,,,Culliford Crescent,,,,opp,,NW,N0060769,Canford Heath,Poole,,,,,,false,UKOS,402333,94598,-1.9683,50.75098,BCT,MKD,OTH,,,,043,2006-03-06T00:00:00,2015-04-25T12:19:23,0,new,active
1280POA11511,plegadm,,,Portesham Way,,,,,,Culliford Crescent,,,,E-bound,,E,N0060769,Canford Heath,Poole,,,,,,false,UKOS,402233,94827,-1.96971,50.75304,BCT,MKD,OTH,,,,043,2006-03-06T00:00:00,2021-07-07T13:30:46,0,new,active
1280POA11512,plegadw,,,Portesham Way,,,,,,Culliford Crescent,,,,opp,,SW,N0060769,Canford Heath,Poole,,,,,,false,UKOS,402247,94826,-1.96951,50.75303,BCT,MKD,OTH,,,,043,2006-03-06T00:00:00,2015-04-25T12:19:23,0,new,active
1280POA11515,plegapd,,,Marshwood Avenue,,,,,,Culliford Crescent,,,,W-bound,,W,N0060769,Canford Heath,Poole,,,,,,false,UKOS,402518,94888,-1.96567,50.75359,BCT,MKD,OTH,,,,043,2006-03-06T00:00:00,2020-08-06T10:32:43,9,new,active
1280POA11514,plegamp,,,Marshwood Avenue,,,,,,Culliford Crescent,,,,E-bound,,E,N0060769,Canford Heath,Poole,,,,,,false,UKOS,402483,94906,-1.96617,50.75375,BCT,MKD,OTH,,,,043,2006-03-06T00:00:00,2021-07-07T13:30:46,0,new,active
1280POA11491,plegdjp,,,Warmwell Close,,,,,,Sherborn Crescent,,,,opp,,W,N0060769,Canford Heath,Poole,,,,,,false,UKOS,402887,94469,-1.96044,50.74982,BCT,MKD,OTH,,,,043,2006-03-06T00:00:00,2015-04-25T12:19:23,0,new,active
1280POA11492,plegdjd,,,Warmwell Close,,,,,,Sherborn Crescent,,,,E-bound,,E,N0060769,Canford Heath,Poole,,,,,,false,UKOS,402816,94494,-1.96145,50.75004,BCT,MKD,OTH,,,,043,2006-03-06T00:00:00,2020-08-20T12:19:30,8,new,active
1280POA11471,pleawpj,,,Methodist Church,,,,,,Oakdale Road,,,,N-bound,,N,N0060764,Oakdale,Poole,,,,,,false,UKOS,402135,93037,-1.97111,50.73694,BCT,MKD,OTH,,,,043,2007-06-08T00:00:00,2020-02-25T08:31:54,0,new,active
1280POA11472,pleawpt,,,Methodist Church,,,,,,Oakdale Road,,,,S-bound,,S,N0060764,Oakdale,Poole,,,,,,false,UKOS,402156,93057,-1.97081,50.73712,BCT,MKD,OTH,,,,043,2007-06-08T00:00:00,2016-04-14T16:07:38,4,new,active
1280POA11474,plegajw,,,Greenfield Road,,,,,,Dale Valley Road,,,,NW-bound,,NW,N0060764,Oakdale,Poole,,,,,,false,UKOS,402425,93085,-1.967,50.73737,BCT,MKD,OTH,,,,043,2006-01-26T00:00:00,2021-07-07T13:30:46,0,new,active
1280POA11473,plegajd,,,Greenfield Road,,,,,,Dale Valley Road,,,,E-bound,,E,N0060764,Oakdale,Poole,,,,,,false,UKOS,402379,93120,-1.96765,50.73769,BCT,MKD,OTH,,,,043,2006-01-26T00:00:00,2021-07-07T13:30:46,0,new,active
1280POA11475,plegapt,,,St Edwards School,,,,,,Dale Valley Road,,,,W-bound,,W,N0060764,Oakdale,Poole,,,,,,false,UKOS,402575,93016,-1.96488,50.73675,BCT,MKD,OTH,,,,043,2007-06-08T00:00:00,2015-03-04T09:55:47,6,new,active
1280POA11476,plegatm,,,St Edwards School,,,,,,Dale Valley Road,,,,E-bound,,E,N0060764,Oakdale,Poole,,,,,,false,UKOS,402656,93018,-1.96373,50.73677,BCT,MKD,OTH,,,,043,2007-06-08T00:00:00,2015-03-04T09:55:32,6,new,active
1280POA11477,plegdjm,,,Rose Crescent,,,,,,Dale Valley Road,,,,W-bound,,W,N0060764,Oakdale,Poole,,,,,,false,UKOS,402823,92903,-1.96136,50.73573,BCT,MKD,OTH,,,,043,2006-01-26T00:00:00,2022-04-13T14:54:12,12,new,active
1280POA11478,plegdgp,,,Rose Crescent,,,,,,Dale Valley Road,,,,SE-bound,,SE,N0060764,Oakdale,Poole,,,,,,false,UKOS,402806,92920,-1.9616,50.73589,BCT,MKD,OTH,,,,043,2006-01-26T00:00:00,2022-04-13T14:54:35,12,new,active
1280POA11464,plegawg,,,Sweet Home Inn,,,,,,Ringwood Road,,,,S-bound,,S,N0060764,Oakdale,Poole,,,,,,false,UKOS,402672,92150,-1.96351,50.72896,BCT,MKD,OTH,,,,043,2007-06-20T00:00:00,2015-03-05T10:56:27,6,new,active
1280POA11465,plegatp,,,Sweet Home Inn,,,,,,Ringwood Road,,,,N-bound,,N,N0060764,Oakdale,Poole,,,,,,false,UKOS,402661,92175,-1.96366,50.72919,BCT,MKD,OTH,,,,043,2007-06-20T00:00:00,2015-03-05T10:56:08,6,new,active
1280POA11480,plegdgt,,,Cemetery Junction,,,,,,Dorchester Road,,,,SE-bound,,SE,N0060764,Oakdale,Poole,,,,,,false,UKOS,402809,92563,-1.96156,50.73268,BCT,MKD,OTH,,,,043,2006-01-26T00:00:00,2020-08-20T12:10:45,10,new,active
1280POA11466,plegawa,,,Cemetery Junction,,,,,,Dorchester Road,,,,W-bound,,W,N0060764,Oakdale,Poole,,,,,,false,UKOS,402664,92536,-1.96362,50.73243,BCT,MKD,OTH,,,,043,2006-01-26T00:00:00,2015-03-04T09:52:09,6,new,active
1280POA11479,plegdgd,,,Cemetery Junction,,,,,,Foxholes Road,,,,N-bound,,N,N0060764,Oakdale,Poole,,,,,,false,UKOS,402782,92616,-1.96194,50.73315,BCT,MKD,OTH,,,,043,2006-01-26T00:00:00,2015-03-04T09:51:39,6,new,active
1280POA11231,pleawgt,,,Oakdale Road Corner,,,,,,Dorchester Road,,,,E-bound,,E,N0060764,Oakdale,Poole,,,,,,false,UKOS,401995,92661,-1.9731,50.73356,BCT,MKD,OTH,,,,043,2006-01-26T00:00:00,2020-02-25T08:31:54,0,new,active
1280POA11232,pleawjm,,,Oakdale Road Corner,,,,,,Dorchester Road,,,,W-bound,,W,N0060764,Oakdale,Poole,,,,,,false,UKOS,402012,92648,-1.97286,50.73344,BCT,MKD,OTH,,,,043,2009-06-05T00:00:00,2020-02-25T08:31:54,0,new,active
1280POA11469,pleawpd,,,Enfield Road,,,,,,Oakdale Road,,,,N-bound,,N,N0060764,Oakdale,Poole,,,,,,false,UKOS,402089,92857,-1.97176,50.73532,BCT,MKD,OTH,,,,043,2006-01-26T00:00:00,2025-08-06T08:27:49,0,new,active
1280POA11470,pleawpg,,,Enfield Road,,,,,,Oakdale Road,,,,S-bound,,S,N0060764,Oakdale,Poole,,,,,,false,UKOS,402099,92892,-1.97162,50.73564,BCT,MKD,OTH,,,,043,2006-01-26T00:00:00,2025-08-06T08:28:20,5,new,active
1280POA11485,plegdtp,,,Twyford Way,,,,,,Sherborn Crescent,,,,E-bound,,E,N0060769,Canford Heath,Poole,,,,,,false,UKOS,403248,94782,-1.95532,50.75263,BCT,MKD,OTH,,,,043,2006-03-06T00:00:00,2021-07-07T13:30:46,0,new,active
1280POA11486,plegdtj,,,Twyford Way,,,,,,Sherborn Crescent,,,,opp,,W,N0060769,Canford Heath,Poole,,,,,,false,UKOS,403238,94777,-1.95547,50.75258,BCT,MKD,OTH,,,,043,2006-03-06T00:00:00,2015-04-25T12:19:24,0,new,active
1280POA11488,plegdwd,,,Chalbury Close,,,,,,Sherborn Crescent,,,,opp,,NE,N0060769,Canford Heath,Poole,,,,,,false,UKOS,403305,94535,-1.95452,50.75041,BCT,MKD,OTH,,,,043,2006-03-13T00:00:00,2015-04-25T12:19:24,0,new,active
1280POA11487,plegdwg,,,Chalbury Close,,,,,,Sherborn Crescent,,,,SW-bound,,SW,N0060769,Canford Heath,Poole,,,,,,false,UKOS,403320,94533,-1.9543,50.75039,BCT,MKD,OTH,,,,043,2006-03-06T00:00:00,2021-07-07T13:30:46,0,new,active
1280POA11489,plegdpj,,,Henbury Close,,,,,,Sherborn Crescent,,,,opp,,W,N0060769,Canford Heath,Poole,,,,,,false,UKOS,403112,94518,-1.95725,50.75026,BCT,MKD,OTH,,,,043,2006-03-06T00:00:00,2015-04-25T12:19:24,0,new,active
1280POA11490,plegdpd,,,Henbury Close,,,,,,Sherborn Crescent,,,,E-bound,,E,N0060769,Canford Heath,Poole,,,,,,false,UKOS,403084,94528,-1.95765,50.75035,BCT,MKD,OTH,,,,043,2006-03-07T00:00:00,2021-07-07T13:30:46,0,new,active
1280POA11481,plegjgj,,,Tower Park,,,,,,,,,,SW-bound,,SW,N0060769,Canford Heath,Poole,,,,,,false,UKOS,403580,94260,-1.95062,50.74793,BCT,MKD,OTH,,,,043,2007-06-25T00:00:00,2020-08-06T11:03:37,15,new,active
1280POA11483,plegdpg,,,Dewlish Close,,,,,,Sherborn Crescent,,,,SE-bound,,SE,N0060769,Canford Heath,Poole,,,,,,false,UKOS,403098,94805,-1.95745,50.75284,BCT,MKD,OTH,,,,043,2006-03-06T00:00:00,2021-07-07T13:30:46,0,new,active
1280POA11484,plegdmw,,,Dewlish Close,,,,,,Sherborn Crescent,,,,NW-bound,,NW,N0060769,Canford Heath,Poole,,,,,,false,UKOS,403047,94828,-1.95817,50.75304,BCT,MKD,OTH,,,,043,2006-03-06T00:00:00,2020-08-06T10:26:39,9,new,active
1280POA11559,plejdaw,,,Bloxworth Road,,,,,,Bloxworth Road,,,,SE-bound,,SE,E0040674,Bourne Valley,Poole,,,,,,false,UKOS,406002,93674,-1.9163,50.74264,BCT,MKD,OTH,,,,043,2007-06-08T00:00:00,2021-07-07T13:30:46,0,new,active
1280POA11560,plejdap,,,Bloxworth Road,,,,,,Bloxworth Road,,,,NW-bound,,NW,E0040674,Bourne Valley,Poole,,,,,,false,UKOS,406000,93669,-1.91633,50.7426,BCT,CUS,OTH,,,,043,2007-06-08T00:00:00,2021-02-24T16:29:58,6,new,active
1280POA11563,plejdmj,,,Sainsburys,,,,,,Alder Road,,,,SW-bound,,SW,E0040674,Bourne Valley,Poole,,,,,,false,UKOS,406246,93391,-1.91285,50.7401,BCT,MKD,OTH,,,,043,2007-06-08T00:00:00,2020-08-20T12:40:52,2,new,active
1280POA11564,plejdmt,,,Sainsburys,,,,,,Alder Road,,,,NE-bound,,NE,E0040674,Bourne Valley,Poole,,,,,,false,UKOS,406256,93425,-1.91271,50.7404,BCT,MKD,OTH,,,,043,2007-06-08T00:00:00,2020-02-25T08:31:54,0,new,active
1280POA11557,plejajw,,,Bridport Road,,,,,,Bridport Road,,,,NW-bound,,NW,E0040703,Rossmore,Poole,,,,,,false,UKOS,405666,93695,-1.92106,50.74284,BCT,MKD,OTH,,,,043,2007-06-08T00:00:00,2015-04-25T12:19:24,0,new,active
1280POA11558,plejamt,,,Bridport Road,,,,,,Bridport Road,,,,SE-bound,,SE,E0040703,Rossmore,Poole,,,,,,false,UKOS,405705,93680,-1.92051,50.7427,BCT,MKD,OTH,,,,043,2007-06-08T00:00:00,2021-07-07T13:30:46,0,new,active
1280POA11550,plejagt,,,Bourne Community Hub,,,,,,Arne Avenue,,,,E-bound,,E,E0040703,Rossmore,Poole,,,,,,false,UKOS,405598,93268,-1.92203,50.739,BCT,MKD,OTH,,,,043,2006-01-26T00:00:00,2023-10-11T07:36:55,43,new,active
1280POA11551,plejaja,,,Bourne Community Hub,,,,,,Arne Avenue,,,,W-bound,,W,E0040703,Rossmore,Poole,,,,,,false,UKOS,405579,93261,-1.9223,50.73893,BCT,MKD,OTH,,,,043,2009-06-05T00:00:00,2023-10-11T07:37:31,43,new,active
1280POA11553,plejagm,,,Sixpenny Close,,,,,,Gussage Road,,,,S-bound,,S,E0040703,Rossmore,Poole,,,,,,false,UKOS,405552,93406,-1.92268,50.74024,BCT,MKD,OTH,,,,043,2006-01-26T00:00:00,2015-04-25T12:19:08,0,new,active
1280POA11552,plejagj,,,Sixpenny Close,,,,,,Gussage Road,,,,N-bound,,N,E0040703,Rossmore,Poole,,,,,,false,UKOS,405544,93412,-1.9228,50.74029,BCT,MKD,OTH,,,,043,2006-01-26T00:00:00,2021-07-07T13:30:46,0,new,active
1280POA11555,plejagd,,,Gussage Road,,,,,,Gussage Road,,,,NW-bound,,NW,E0040703,Rossmore,Poole,,,,,,false,UKOS,405538,93666,-1.92288,50.74258,BCT,MKD,OTH,,,,043,2007-06-08T00:00:00,2020-08-20T12:35:13,2,new,active
1280POA11556,plejadw,,,Gussage Road,,,,,,Gussage Road,,,,SE-bound,,SE,E0040703,Rossmore,Poole,,,,,,false,UKOS,405527,93686,-1.92303,50.74276,BCT,MKD,OTH,,,,043,2007-06-08T00:00:00,2015-04-25T12:19:08,0,new,active
1280POA11572,plejdwt,,,Sunridge Close,,,,,,Winston Avenue,,,,S-bound,,S,E0040675,Branksome,Poole,,,,,,false,UKOS,406542,92855,-1.90866,50.73527,BCT,MKD,OTH,,,,043,2006-03-01T00:00:00,2021-07-07T13:30:46,0,new,active
1280POA11571,plejdwp,,,Sunridge Close,,,,,,Winston Avenue,,,,N-bound,,N,E0040675,Branksome,Poole,,,,,,false,UKOS,406526,92819,-1.90889,50.73495,BCT,MKD,OTH,,,,043,2006-03-01T00:00:00,2021-07-07T13:30:46,0,new,active
1280POA11573,plejgda,,,Merrow Avenue,,,,,,Merrow Avenue,,,,N-bound,,N,E0040675,Branksome,Poole,,,,,,false,UKOS,406653,93015,-1.90709,50.73671,BCT,MKD,OTH,,,,043,2007-06-08T00:00:00,2021-07-07T13:30:46,0,new,active
1280POA11574,plejgam,,,Winston Avenue Top,,,,,,Winston Avenue,,,,S-bound,,S,E0040675,Branksome,Poole,,,,,,false,UKOS,406593,93043,-1.90794,50.73696,BCT,MKD,OTH,,,,043,2007-06-08T00:00:00,2023-02-02T15:52:03,35,new,active
1280POA11575,plejdjm,,,Guest Close,,,,,,Guest Avenue,,,,SW-bound,,SW,E0040675,Branksome,Poole,,,,,,false,UKOS,406129,92825,-1.91452,50.73501,BCT,MKD,OTH,,,,043,2006-03-01T00:00:00,2021-07-07T13:30:46,0,new,active
1280POA11576,plejdjg,,,Guest Close,,,,,,Guest Avenue,,,,NE-bound,,NE,E0040675,Branksome,Poole,,,,,,false,UKOS,406114,92820,-1.91473,50.73496,BCT,MKD,OTH,,,,043,2006-03-01T00:00:00,2021-07-07T13:30:46,0,new,active
1280POA11567,plejdgt,,,Winston Park,,,,,,Winston Avenue,,,,W-bound,,W,E0040703,Rossmore,Poole,,,,,,false,UKOS,406045,92909,-1.9157,50.73576,BCT,MKD,OTH,,,,043,2009-06-05T00:00:00,2020-02-25T08:31:54,0,new,active
1280POA11568,plejdmg,,,Carroll Close,,,,,,Winston Avenue,,,,SE-bound,,SE,E0040675,Branksome,Poole,,,,,,false,UKOS,406234,92863,-1.91303,50.73535,BCT,MKD,OTH,,,,043,2006-03-01T00:00:00,2020-08-20T12:42:22,3,new,active
1280POA11570,plejdtp,,,Bishop Aldhelms School,,,,,,Winston Avenue,,,,W-bound,,W,E0040675,Branksome,Poole,,,,,,false,UKOS,406445,92768,-1.91004,50.73449,BCT,MKD,OTH,,,,043,2007-06-20T00:00:00,2023-02-02T14:55:07,37,new,active
1280POA11569,plejdta,,,Bishop Aldhelms School,,,,,,Winston Avenue,,,,opp,,E,E0040675,Branksome,Poole,,,,,,false,UKOS,406400,92782,-1.91068,50.73462,BCT,MKD,OTH,,,,043,2006-03-01T00:00:00,2023-02-02T14:55:29,39,new,active
1280POA11531,plegtdt,,,Gorey Road,,,,,,Corbiere Avenue,,,,NW-bound,,NW,E0040669,Alderney,Poole,,,,,,false,UKOS,404795,94420,-1.9334,50.74936,BCT,MKD,OTH,,,,043,2007-06-08T00:00:00,2021-02-24T16:18:43,10,new,active
1280POA11532,plegpjt,,,St. Helier Road,,,,,,Jersey Road,,,,SW-bound,,SW,E0040669,Alderney,Poole,,,,,,false,UKOS,404635,94426,-1.93567,50.74942,BCT,MKD,OTH,,,,043,2007-06-08T00:00:00,2024-05-01T11:26:18,13,new,active
1280POA11534,plegjtj,,,Old Wareham Road,,,,,,Ringwood Road,,,,S-bound,,S,E0040699,Newtown,Poole,,,,,,false,UKOS,403795,93599,-1.94758,50.74199,BCT,MKD,OTH,,,,043,2006-03-07T00:00:00,2020-02-25T08:31:54,0,new,active
1280POA11535,plegjpd,,,Tesco,,,,,,Ringwood Road,,,,SW-bound,,SW,E0040699,Newtown,Poole,,,,,,false,UKOS,403711,93334,-1.94877,50.7396,BCT,MKD,OTH,,,,043,2008-09-26T00:00:00,2020-08-20T12:28:03,10,new,active
1280POA11536,plegjpj,,,Tesco,,,,,,Ringwood Road,,,,NE-bound,,NE,E0040699,Newtown,Poole,,,,,,false,UKOS,403713,93394,-1.94875,50.74014,BCT,MKD,OTH,,,,043,2008-09-26T00:00:00,2014-07-30T12:00:16,8,new,active
1280POA11530,plegtwt,,,Firmain Road,,,,,,Corbiere Avenue,,,,o/s 29,,NW,E0040669,Alderney,Poole,,,,,,false,UKOS,405045,94212,-1.92986,50.74749,BCT,MKD,OTH,,,,043,2007-06-08T00:00:00,2024-05-01T11:23:41,37,new,active
1280POA11524,plegptw,,,Alderney West,,,,,,Ringwood Road,,,,NE-bound,,NE,E0040669,Alderney,Poole,,,,,,false,UKOS,404691,94733,-1.93487,50.75218,BCT,MKD,OTH,,,,043,2006-03-07T00:00:00,2019-12-18T14:41:40,8,new,active
1280POA11525,plegptm,,,Alderney West,,,,,,Ringwood Road,,,,SW-bound,,SW,E0040669,Alderney,Poole,,,,,,false,UKOS,404669,94667,-1.93518,50.75159,BCT,MKD,OTH,,,,043,2006-03-07T00:00:00,2019-12-18T14:42:05,8,new,active
1280POA11527,plegpgt,,,Manor Avenue,,,,,,Alderney Avenue,,,,SE-bound,,SE,E0040669,Alderney,Poole,,,,,,false,UKOS,404574,94304,-1.93653,50.74832,BCT,MKD,OTH,,,,043,2006-03-07T00:00:00,2021-07-07T13:30:46,0,new,active
1280POA11528,plegtdm,,,Alderney Avenue,,,,,,Alderney Avenue,,,,SE-bound,,SE,E0040669,Alderney,Poole,,,,,,false,UKOS,404788,94140,-1.9335,50.74685,BCT,MKD,OTH,,,,043,2007-06-08T00:00:00,2021-07-07T13:30:46,0,new,active
1280POA11529,plegtpt,,,Manorside Academy,,,,,,Evering Avenue,,,,E-bound,,E,E0040669,Alderney,Poole,,,,,,false,UKOS,405005,94040,-1.93043,50.74594,BCT,MKD,OTH,,,,043,2007-06-08T00:00:00,2024-05-01T11:21:36,37,new,active
1280POA11543,plegptj,,,St Aldhelms Academy,,,,,,Herbert Avenue,,,,SE-bound,,SE,E0040703,Rossmore,Poole,,,,,,false,UKOS,404654,93612,-1.93541,50.7421,BCT,MKD,OTH,,,,043,2006-01-26T00:00:00,2021-02-09T11:52:36,18,new,active
1280POA11544,plegpmt,,,St Aldhelms Academy,,,,,,Herbert Avenue,,,,NW-bound,,NW,E0040703,Rossmore,Poole,,,,,,false,UKOS,404648,93603,-1.93549,50.74202,BCT,MKD,OTH,,,,043,2006-01-26T00:00:00,2021-02-09T11:52:20,18,new,active
1280POA11546,plegtwm,,,Arne Avenue Top,,,,,,Arne Avenue,,,,NE-bound,,NE,E0040703,Rossmore,Poole,,,,,,false,UKOS,405022,93358,-1.93019,50.73981,BCT,MKD,OTH,,,,043,2006-03-01T00:00:00,2019-12-18T15:58:15,8,new,active
1280POA11547,plegtwp,,,Arne Avenue Top,,,,,,Arne Avenue,,,,SW-bound,,SW,E0040703,Rossmore,Poole,,,,,,false,UKOS,405025,93344,-1.93015,50.73969,BCT,MKD,OTH,,,,043,2006-03-01T00:00:00,2019-12-18T15:58:37,8,new,active
1280POA11548,plegwpw,,,Bindon Close,,,,,,Arne Avenue,,,,E-bound,,E,E0040703,Rossmore,Poole,,,,,,false,UKOS,405348,93296,-1.92558,50.73925,BCT,MKD,OTH,,,,043,2006-01-26T00:00:00,2021-07-07T13:30:46,0,new,active
1280POA11549,plegwmp,,,Bindon Close,,,,,,Arne Avenue,,,,W-bound,,W,E0040703,Rossmore,Poole,,,,,,false,UKOS,405302,93291,-1.92623,50.73921,BCT,MKD,OTH,,,,043,2009-06-05T00:00:00,2021-07-07T13:30:46,0,new,active
1280POA11537,plegjgt,,,Conservative Club,,,,,,Ringwood Road,,,,SW-bound,,SW,E0040699,Newtown,Poole,,,,,,false,UKOS,403603,92988,-1.95031,50.73649,BCT,MKD,OTH,,,,043,2007-06-08T00:00:00,2020-08-20T12:29:23,2,new,active
1280POA11538,plegjgp,,,Conservative Club,,,,,,Ringwood Road,,,,NE-bound,,NE,E0040699,Newtown,Poole,,,,,,false,UKOS,403598,93023,-1.95038,50.73681,BCT,MKD,OTH,,,,043,2007-06-08T00:00:00,2020-02-25T08:31:54,0,new,active
1280POA11539,plegjwj,,,Old Wareham Road,,,,,,Ringwood Road,,,,NE-bound,,NE,E0040669,Alderney,Poole,,,,,,false,UKOS,403896,93786,-1.94615,50.74367,BCT,MKD,OTH,,,,043,2006-03-07T00:00:00,2020-02-25T08:31:54,0,new,active
1280POA11542,plegmwp,,,Berkeley Avenue,,,,,,Herbert Avenue,,,,NW-bound,,NW,E0040669,Alderney,Poole,,,,,,false,UKOS,404384,93824,-1.93923,50.74401,BCT,MKD,OTH,,,,043,2009-06-05T00:00:00,2015-07-29T14:52:32,6,new,active
1280POA11541,plegpam,,,Berkeley Avenue,,,,,,Herbert Avenue,,,,SE-bound,,SE,E0040669,Alderney,Poole,,,,,,false,UKOS,404393,93833,-1.9391,50.74409,BCT,MKD,OTH,,,,043,2009-06-05T00:00:00,2015-07-29T14:52:46,6,new,active
1280POA11912,plejgjp,,,Branksome Dene Chine,,,,,,Pinewood Road,,,,S-bound,,S,E0040678,Canford Cliffs,Poole,,,,,,false,UKOS,406719,90153,-1.9062,50.71097,BCT,MKD,OTH,,,,043,2009-06-10T00:00:00,2020-02-25T08:31:54,0,new,active
1280POA11913,plejgdt,,,Branksome Dene Chine,,,,,,Pinewood Road,,,,opp,,N,E0040678,Canford Cliffs,Poole,,,,,,false,UKOS,406705,90165,-1.9064,50.71108,BCT,MKD,OTH,,,,043,2003-06-12T00:00:00,2015-04-25T12:19:08,0,new,active
1280POA11915,plejgdg,,,Inn in the Park,,,,,,Pinewood Road,,,,N-bound,,N,E0040678,Canford Cliffs,Poole,,,,,,false,UKOS,406648,90000,-1.90721,50.7096,BCT,MKD,OTH,,,,043,2006-03-07T00:00:00,2023-06-07T20:49:19,37,new,active
1280POA11916,plejgdj,,,Inn in the Park,,,,,,Pinewood Road,,,,SW-bound,,SW,E0040678,Canford Cliffs,Poole,,,,,,false,UKOS,406656,90000,-1.9071,50.7096,BCT,MKD,OTH,,,,043,2006-03-07T00:00:00,2023-06-07T20:50:00,37,new,active
1280POA11917,plejgaj,,,Denecote Lodge,,,,,,Westminster Road,,,,W-bound,,W,E0040678,Canford Cliffs,Poole,,,,,,false,UKOS,406547,89793,-1.90865,50.70774,BCT,MKD,OTH,,,,043,2007-06-21T00:00:00,2020-02-25T08:31:54,0,new,active
1280POA11918,plejdwd,,,Denecote Lodge,,,,,,Westminster Road,,,,E-bound,,E,E0040678,Canford Cliffs,Poole,,,,,,false,UKOS,406481,89802,-1.90958,50.70782,BCT,MKD,OTH,,,,043,2006-03-07T00:00:00,2020-08-05T14:17:35,9,new,active
1280POA11920,plejdpt,,,Branksome Chine,,,,,,Pinecliff Road,,,,E-bound,,E,E0040678,Canford Cliffs,Poole,,,,,,false,UKOS,406394,89678,-1.91081,50.7067,BCT,MKD,OTH,,,,043,2005-11-02T00:00:00,2025-03-05T15:57:57,31,new,active
1280POA11919,plejdwg,,,Branksome Chine,,,,,,Pinecliff Road,,,,S-bound,,S,E0040678,Canford Cliffs,Poole,,,,,,false,UKOS,406489,89718,-1.90947,50.70706,BCT,MKD,OTH,,,,043,2007-06-21T00:00:00,2020-08-25T16:18:00,2,new,active
1280POA11905,plejgat,,,The Avenue,,,,,,The Avenue,,,,N-bound,,N,E0040675,Branksome,Poole,,,,,,false,UKOS,406630,91356,-1.90744,50.72179,BCT,MKD,OTH,,,,043,2003-06-12T00:00:00,2020-02-25T08:31:53,0,new,active
1280POA11904,plejdwm,,,The Avenue,,,,,,The Avenue,,,,N-bound,,N,E0040676,Branksome Park,Poole,,,,,,false,UKOS,406524,91032,-1.90895,50.71888,BCT,MKD,OTH,,,,043,2007-06-21T00:00:00,2020-02-25T08:31:54,0,new,active
1280POA11908,plejgag,,,Herbert Road,,,,,,Tower Road,,,,S-bound,,S,E0040676,Branksome Park,Poole,,,,,,false,UKOS,406575,90748,-1.90823,50.71633,BCT,MKD,OTH,,,,043,2006-03-07T00:00:00,2020-02-25T08:31:54,0,new,active
1280POA11909,plejgad,,,Herbert Road,,,,,,Tower Road,,,,opp,,N,E0040676,Branksome Park,Poole,,,,,,false,UKOS,406567,90777,-1.90834,50.71659,BCT,MKD,OTH,,,,043,2006-03-07T00:00:00,2015-04-25T12:19:08,0,new,active
1280POA11910,plejgdp,,,Tower Road,,,,,,Tower Road,,,,opp,,SE,E0040676,Branksome Park,Poole,,,,,,false,UKOS,406694,90480,-1.90655,50.71391,BCT,MKD,OTH,,,,043,2006-03-07T00:00:00,2020-08-05T14:22:14,9,new,active
1280POA11911,plejgaw,,,Tower Road,,,,,,Tower Road,,,,NW-bound,,NW,E0040676,Branksome Park,Poole,,,,,,false,UKOS,406650,90531,-1.90717,50.71437,BCT,MKD,OTH,,,,043,2007-06-21T00:00:00,2020-02-25T08:31:54,0,new,active
1280POA31678,plejmpd,,,Blackwater Drive,,,,,,Gravel Hill,,,,N-bound,,N,E0040697,Merley,Poole,,,,,,false,UKOS,401637,97354,-1.97815,50.77576,BCT,CUS,OTH,,,,043,2007-02-07T00:00:00,2020-02-25T08:31:54,0,new,active
1280POA11384,pleatgj,,,Blackwater Drive,,,,,,Gravel Hill,,,,S-bound,,S,E0040697,Merley,Poole,,,,,,false,UKOS,401648,97357,-1.97799,50.77579,BCT,MKD,OTH,,,,043,2006-03-07T00:00:00,2020-02-25T08:31:54,0,new,active
1280POA31686,plejmta,,,Sainsburys,,,,,,Newfoundland Drive,,,,opp,,W,E0057224,Poole,,,,,,,false,UKOS,401479,90700,-1.98041,50.71593,BCT,MKD,OTH,,,,043,2007-02-07T00:00:00,2015-04-25T12:19:08,0,new,active
1280POA31685,plejmpw,,,Sainsburys,,,,,,Newfoundland Drive,,,,E-bound,,E,E0057224,Poole,,,,,,,false,UKOS,401479,90708,-1.98041,50.716,BCT,MKD,OTH,,,,043,2007-02-07T00:00:00,2020-02-25T08:31:54,0,new,active
1280POA31687,plejmtd,,,Lander Close,,,,,,Furnell Road,,,,S-bound,,S,E0057224,Poole,,,,,,,false,UKOS,401698,90385,-1.97731,50.71309,BCT,MKD,OTH,,,,043,2007-02-07T00:00:00,2020-02-25T08:31:53,0,new,active
1280POA05958,plejpjd,,,Lander Close,,,,,,Furnell Road,,,,N-bound,,N,E0057224,Poole,,,,,,,false,UKOS,401687,90387,-1.97747,50.71311,BCT,CUS,OTH,,,,043,2006-08-02T00:00:00,2020-02-25T08:31:53,0,new,active
1280POA31690,plejmdm,,,Birds Hill Gardens,,,,,,Birds Hill Road,,,,NW-bound,,NW,E0057224,Poole,,,,,,,false,UKOS,402253,91474,-1.96945,50.72289,BCT,MKD,OTH,,,,043,2007-02-07T00:00:00,2019-12-18T14:34:36,14,new,active
1280POA11696,plegmda,,,Canford Business Park,,,,,,Magna Road,,,,W-bound,,W,E0040679,Canford Magna,Poole,,,,,,false,UKOS,404054,97447,-1.94387,50.77659,BCT,MKD,OTH,,,,043,2007-06-08T00:00:00,2023-04-17T09:08:13,14,new,active
1280POA31677,plejmpa,,,Canford Business Park,,,,,,Magna Road,,,,E-bound,,E,E0040679,Canford Magna,Poole,,,,,,false,UKOS,404157,97415,-1.94241,50.7763,BCT,MKD,OTH,,,,043,2007-02-07T00:00:00,2021-03-03T12:56:26,8,new,active
1280POA11423,plegamw,,,Shah of Persia,,,,,,Fernside Road,,,,SE-bound,,SE,E0057224,Poole,,,,,,,false,UKOS,402493,91707,-1.96605,50.72498,BCT,MKD,OTH,,,,043,2005-11-09T00:00:00,2015-06-26T14:57:37,6,new,active
1280POA11430,plegajg,,,Shah of Persia,,,,,,Ringwood Road,,,,NW-bound,,NW,E0057224,Poole,,,,,,,false,UKOS,402387,91775,-1.96755,50.72559,BCT,MKD,OTH,,,,043,2007-06-21T00:00:00,2020-08-20T11:37:19,8,new,active
1280POA11967,plegajt,,,Shah of Persia,,,,,,Longfleet Road,,,,SW-bound,,SW,E0057224,Poole,,,,,,,false,UKOS,402340,91665,-1.96821,50.7246,BCT,MKD,OTH,,,,043,2006-01-18T00:00:00,2015-06-26T14:57:55,6,new,active
1280POA11438,plegamt,,,Shah of Persia,,,,,,,,,,NE-bound,,NE,E0057224,Poole,,,,,,,false,UKOS,402492,91797,-1.96606,50.72579,BCT,MKD,OTH,,,,043,2007-06-21T00:00:00,2016-12-01T15:54:39,6,new,active
1280POA12694,plegpmd,,,Canford Vale,,,,,,Magna Road,,,,opp,,NW,N0060766,Bearwood,Poole,,,,,,false,UKOS,404639,97080,-1.93558,50.77328,BCT,MKD,OTH,,,,043,2007-06-08T00:00:00,2024-04-09T08:33:47,39,new,active
1280POA12693,plegtad,,,Canford Vale,,,,,,Magna Road,,,,SE-bound,,SE,N0060766,Bearwood,Poole,,,,,,false,UKOS,404757,97016,-1.9339,50.77271,BCT,MKD,OTH,,,,043,2006-01-10T00:00:00,2024-04-09T08:32:59,37,new,active
1280POA11352,pleawdt,,,Queen Anne Drive,,,,,,Rempstone Road,,,,o/s 308,,N,E0040697,Merley,Poole,,,,,,false,UKOS,401896,97600,-1.97448,50.77798,BCT,MKD,OTH,,,,043,2006-03-07T00:00:00,2022-04-14T11:08:59,11,new,active
1280POA11383,pleatwp,,,Queen Anne Drive,,,,,,Queen Anne Drive,,,,W-bound,,W,E0040697,Merley,Poole,,,,,,false,UKOS,401811,97577,-1.97568,50.77777,BCT,MKD,OTH,,,,043,2006-03-07T00:00:00,2020-02-25T08:31:54,0,new,active
1280POA31676,plejmjw,,,Queen Anne Drive,,,,,,Queen Anne Drive,,,,E-bound,,E,E0040697,Merley,Poole,,,,,,false,UKOS,401936,97553,-1.97391,50.77755,BCT,MKD,OTH,,,,043,2007-02-07T00:00:00,2020-02-25T08:31:54,0,new,active
1280POA11877,plegpdg,,,Durlston Road,,,,,,Sandecotes Road,,,,SE-bound,,SE,E0040676,Branksome Park,Poole,,,,,,false,UKOS,404417,91005,-1.9388,50.71866,BCT,MKD,OTH,,,,043,2009-06-10T00:00:00,2020-02-25T08:31:54,0,new,active
1280POA11876,plegmpw,,,Durlston Road,,,,,,Sandecotes Road,,,,N-bound,,N,E0040676,Branksome Park,Poole,,,,,,false,UKOS,404369,91043,-1.93948,50.719,BCT,MKD,OTH,,,,043,2006-03-01T00:00:00,2021-02-24T16:35:57,10,new,active
1280POA11878,plegpdm,,,Alton Road,,,,,,Sandecotes Road,,,,NW-bound,,NW,E0040676,Branksome Park,Poole,,,,,,false,UKOS,404482,90859,-1.93788,50.71734,BCT,MKD,OTH,,,,043,2006-03-07T00:00:00,2020-08-25T16:15:19,4,new,active
1280POA11879,plegpdp,,,Alton Road,,,,,,Sandecotes Road,,,,opp,,SE,E0040676,Branksome Park,Poole,,,,,,false,UKOS,404495,90857,-1.93769,50.71732,BCT,MKD,OTH,,,,043,2006-03-07T00:00:00,2020-08-25T16:15:00,8,new,active
1280POA11880,plegpjp,,,Blake Hill Crescent,,,,,,Compton Avenue,,,,opp,,S,E0040693,Lilliput,Poole,,,,,,false,UKOS,404619,90460,-1.93594,50.71375,BCT,MKD,OTH,,,,043,2007-06-21T00:00:00,2015-04-25T12:19:23,0,new,active
1280POA11881,plegpjg,,,Blake Hill Crescent,,,,,,Compton Avenue,,,,near,,N,E0040693,Lilliput,Poole,,,,,,false,UKOS,404606,90472,-1.93613,50.71386,BCT,MKD,OTH,,,,043,2007-06-21T00:00:00,2015-04-25T12:19:23,0,new,active
1280POA31679,plejmpg,,,Anthonys Avenue,,,,,,Compton Avenue,,,,N-bound,,N,E0040693,Lilliput,Poole,,,,,,false,UKOS,404607,90180,-1.93611,50.71124,BCT,MKD,OTH,,,,043,2007-02-07T00:00:00,2020-02-25T08:31:54,0,new,active
1280POA11882,plegpjm,,,Anthonys Avenue,,,,,,Compton Avenue,,,,opp,,S,E0040693,Lilliput,Poole,,,,,,false,UKOS,404616,90164,-1.93599,50.71109,BCT,MKD,OTH,,,,043,2006-05-23T00:00:00,2015-04-25T12:19:23,0,new,active
1280POA11862,plegptp,,,Bingham Avenue,,,,,,Lilliput Road,,,,E-bound,,E,E0040693,Lilliput,Poole,,,,,,false,UKOS,404677,89843,-1.93513,50.7082,BCT,MKD,OTH,,,,043,2005-11-02T00:00:00,2020-02-25T08:31:54,0,new,active
1280POA11861,plegpgd,,,Bingham Avenue,,,,,,Lilliput Road,,,,W-bound,,W,E0040693,Lilliput,Poole,,,,,,false,UKOS,404539,89806,-1.93708,50.70787,BCT,MKD,OTH,,,,043,2006-03-07T00:00:00,2020-02-25T08:31:54,0,new,active
1280POA11867,plegwpm,,,Canford Cliffs Avenue,,,,,,Canford Cliffs Road,,,,N-bound,,N,E0040676,Branksome Park,Poole,,,,,,false,UKOS,405333,90711,-1.92583,50.716,BCT,MKD,OTH,,,,043,2006-03-07T00:00:00,2020-02-25T08:31:54,0,new,active
1280POA11868,plegwpt,,,Canford Cliffs Avenue,,,,,,Canford Cliffs Road,,,,opp,,S,E0040676,Branksome Park,Poole,,,,,,false,UKOS,405348,90746,-1.92561,50.71632,BCT,MKD,OTH,,,,043,2006-03-07T00:00:00,2015-04-25T12:19:23,0,new,active
1280POA11875,plegmjp,,,St. Lukes Church,,,,,,Sandecotes Road,,,,opp,,NW,E0040701,Parkstone,Poole,,,,,,false,UKOS,404258,91294,-1.94105,50.72126,BCT,MKD,OTH,,,,043,2006-05-23T00:00:00,2015-04-25T12:19:23,0,new,active
1280POA11874,plegmjw,,,St. Lukes Church,,,,,,Sandecotes Road,,,,S-bound,,S,E0040701,Parkstone,Poole,,,,,,false,UKOS,404270,91289,-1.94088,50.72121,BCT,MKD,OTH,,,,043,2006-05-23T00:00:00,2020-02-25T08:31:53,0,new,active
1280POA11890,plegwta,,,Compton Acres,,,,,,Canford Cliffs Road,,,,N-bound,,N,E0040678,Canford Cliffs,Poole,,,,,,false,UKOS,405376,89680,-1.92523,50.70673,BCT,MKD,OTH,,,,043,2005-11-02T00:00:00,2023-11-03T14:38:50,0,new,active
1280POA11891,plegwtj,,,Compton Acres,,,,,,Canford Cliffs Road,,,,S-bound,,S,E0040678,Canford Cliffs,Poole,,,,,,false,UKOS,405380,89710,-1.92517,50.707,BCT,MKD,OTH,,,,043,2009-06-10T00:00:00,2023-11-03T14:34:58,0,new,active
1280POA05706,plejtaj,,,Canford Cliffs Parade,,,,,,Ravine Road,,,,S-bound,,S,E0040678,Canford Cliffs,Poole,,,,,,false,UKOS,405733,89492,-1.92018,50.70504,BCT,MKD,OTH,,,,043,2008-06-01T00:00:00,2021-02-09T11:43:58,9,new,active
1280POA11892,plejapd,,,Canford Cliffs Parade,,,,,,Western Road,,,,E-bound,,E,E0040678,Canford Cliffs,Poole,,,,,,false,UKOS,405739,89540,-1.92009,50.70547,BCT,MKD,OTH,,,,043,2006-03-07T00:00:00,2020-08-05T12:51:13,9,new,active
1280POA11893,plejajp,,,Canford Cliffs Parade,,,,,,Haven Road,,,,W-bound,,W,E0040678,Canford Cliffs,Poole,,,,,,false,UKOS,405687,89526,-1.92083,50.70535,BCT,MKD,OTH,,,,043,2006-03-07T00:00:00,2020-08-25T16:16:49,2,new,active
1280POA11894,plejatw,,,Martello Park,,,,,,Western Road,,,,W-bound,,W,E0040678,Canford Cliffs,Poole,,,,,,false,UKOS,405903,89528,-1.91777,50.70536,BCT,MKD,OTH,,,,043,2006-03-07T00:00:00,2020-08-05T14:08:43,8,new,active
1280POA11895,plejdaj,,,Martello Park,,,,,,Western Road,,,,E-bound,,E,E0040678,Canford Cliffs,Poole,,,,,,false,UKOS,405972,89539,-1.91679,50.70546,BCT,MKD,OTH,,,,043,2007-06-21T00:00:00,2020-08-05T14:08:10,9,new,active
1280POA11889,plejadg,,,Chetwynd,,,,,,Canford Cliffs Road,,,,S-bound,,S,E0040678,Canford Cliffs,Poole,,,,,,false,UKOS,405410,89491,-1.92475,50.70503,BCT,MKD,OTH,,,,043,2007-06-21T00:00:00,2024-08-14T21:48:46,71,new,active
1280POA11888,plegwtw,,,Chetwynd,,,,,,Canford Cliffs Road,,,,N-bound,,N,E0040678,Canford Cliffs,Poole,,,,,,false,UKOS,405401,89498,-1.92488,50.7051,BCT,MKD,OTH,,,,043,2007-06-21T00:00:00,2024-08-14T21:48:16,71,new,active
1280POA11883,plegpja,,,Compton Avenue,,,,,,Compton Avenue,,,,N-bound,,N,E0040693,Lilliput,Poole,,,,,,false,UKOS,404589,89869,-1.93637,50.70844,BCT,MKD,OTH,,,,043,2007-06-21T00:00:00,2020-02-25T08:31:54,0,new,active
1280POA11885,plegwgw,,,St. Anns Hospital,,,,,,Haven Road,,,,SW-bound,,SW,E0040706,Sandbanks,Poole,,,,,,false,UKOS,405189,88932,-1.92789,50.70001,BCT,MKD,OTH,,,,043,2006-05-23T00:00:00,2020-02-25T08:31:54,0,new,active
1280POA11884,plegwja,,,St. Anns Hospital,,,,,,Haven Road,,,,NE-bound,,NE,E0040706,Sandbanks,Poole,,,,,,false,UKOS,405198,88952,-1.92776,50.70019,BCT,MKD,OTH,,,,043,2006-05-23T00:00:00,2020-02-25T08:31:54,0,new,active
1280POA11886,plegwtd,,,Canford Crescent,,,,,,Haven Road,,,,N-bound,,N,E0040678,Canford Cliffs,Poole,,,,,,false,UKOS,405373,89317,-1.92528,50.70347,BCT,MKD,OTH,,,,043,2007-06-21T00:00:00,2023-06-07T20:52:24,37,new,active
1280POA11887,plegwtg,,,Canford Crescent,,,,,,Haven Road,,,,S-bound,,S,E0040678,Canford Cliffs,Poole,,,,,,false,UKOS,405375,89287,-1.92525,50.7032,BCT,MKD,OTH,,,,043,2007-06-21T00:00:00,2023-06-07T20:52:44,37,new,active
1280POZ00726,pleapga,,,Waterloo Road Garage,,,,,,Waterloo Road,,,,S-bound,,S,E0040712,Waterloo Estate,Poole,,,,,,false,UKOS,401236,94313,-1.98385,50.74842,BCT,MKD,OTH,,,,043,2003-06-12T00:00:00,2021-03-03T12:09:29,8,new,active
1280POZ00733,pleatwa,,,Tollerford Road Roundabout,,,,,,Canford Heath Road,,,,W-bound,,W,N0060769,Canford Heath,Poole,,,,,,false,UKOS,401775,94437,-1.97621,50.74953,BCT,MKD,OTH,,,,043,2006-03-06T00:00:00,2021-07-07T13:30:46,0,new,active
1280POZ00732,pleatmw,,,Tollerford Road Roundabout,,,,,,Canford Heath Road,,,,E-bound,,E,N0060769,Canford Heath,Poole,,,,,,false,UKOS,401724,94455,-1.97693,50.74969,BCT,MKD,OTH,,,,043,2006-03-06T00:00:00,2021-07-07T13:30:46,0,new,active
1280POA11229,pleapgw,,,White Horse Drive,,,,,,Vicarage Road,,,,E-bound,,E,N0073123,Stanley Green,Poole,,,,,,false,UKOS,401303,92503,-1.9829,50.73214,BCT,MKD,OTH,,,,043,2006-10-20T00:00:00,2015-04-25T12:19:23,0,new,active
1280POY28445,pleapja,,,White Horse Drive,,,,,,Vicarage Road,,,,W-bound,,W,N0073123,Stanley Green,Poole,,,,,,false,UKOS,401288,92493,-1.98311,50.73205,BCT,MKD,OTH,,,,043,2006-01-26T00:00:00,2015-04-25T12:19:23,0,new,active
1280POY28437,pleawmj,,,Johnston Road Top,,,,,,Johnston Road,,,,NE-bound,,NE,N0060764,Oakdale,Poole,,,,,,false,UKOS,402060,93136,-1.97217,50.73783,BCT,MKD,OTH,,,,043,2006-01-18T00:00:00,2022-11-29T13:32:57,10,new,active
1280POY28436,pleawpa,,,Johnston Road Top,,,,,,Johnston Road,,,,W-bound,,W,N0060764,Oakdale,Poole,,,,,,false,UKOS,402085,93133,-1.97182,50.73781,BCT,MKD,OTH,,,,043,2006-01-26T00:00:00,2022-11-29T13:33:12,8,new,active
1280POY28440,pleatwj,,,St Georges Church,,,,,,Johnston Road,,,,E-bound,,E,N0060764,Oakdale,Poole,,,,,,false,UKOS,401795,93051,-1.97593,50.73707,BCT,MKD,OTH,,,,043,2006-05-23T00:00:00,2015-07-29T15:28:11,6,new,active
1280POY28441,pleatpm,,,St Georges Church,,,,,,Johnston Road,,,,W-bound,,W,N0060764,Oakdale,Poole,,,,,,false,UKOS,401762,93036,-1.9764,50.73693,BCT,MKD,OTH,,,,043,2006-05-23T00:00:00,2015-07-29T15:28:26,6,new,active
1280POY28442,pleatpa,,,Darbys Close,,,,,,Darby's Lane,,,,S-bound,,S,N0060764,Oakdale,Poole,,,,,,false,UKOS,401734,92840,-1.97679,50.73517,BCT,MKD,OTH,,,,043,2006-01-18T00:00:00,2022-04-12T10:59:56,6,new,active
1280POY28443,pleatmt,,,Darbys Close,,,,,,Darby's Close,,,,N-bound,,N,N0060764,Oakdale,Poole,,,,,,false,UKOS,401724,92801,-1.97694,50.73482,BCT,MKD,OTH,,,,043,2009-06-10T00:00:00,2022-04-12T11:00:20,6,new,active
1280POZ00744,plejmap,,,Yunex,,,,,,Sopers Lane,,,,E-bound,,E,E0040712,Waterloo Estate,Poole,,,,,,false,UKOS,400382,94186,-1.99595,50.74728,BCT,MKD,OTH,,,,043,2006-07-18T00:00:00,2023-10-11T07:54:32,37,new,active
1280POA11245,pleajtp,,,Yunex,,,,,,Sopers Lane,,,,W-bound,,W,E0040712,Waterloo Estate,Poole,,,,,,false,UKOS,400374,94177,-1.99606,50.7472,BCT,MKD,OTH,,,,043,2005-12-19T00:00:00,2023-10-11T07:55:06,37,new,active
1280WDX38462,pleapmg,,,Poole High School,,,,,,,,,,S-bound,,S,E0057224,Poole,,,,,,,false,UKOS,401443,91545,-1.98092,50.72353,BCT,MKD,OTH,,,,043,2007-06-21T00:00:00,2016-06-15T12:59:06,1,new,active
1280WDY38445,pleamgm,,,Parkstone Grammar School,,,,,,,,,,N-bound,,N,E0040712,Waterloo Estate,Poole,,,,,,false,UKOS,400850,94096,-1.98932,50.74647,BCT,CUS,OTH,,,,043,2007-06-08T00:00:00,2020-02-25T08:31:54,0,new,active
1280POA11161,pleagda,,,Bluebell Lane,,,,,,Beechbank Avenue,,,,E-bound,,E,E0040683,Creekmoor,Poole,,,,,,false,UKOS,399430,94133,-2.00944,50.7468,BCT,MKD,OTH,,,,043,2006-03-07T00:00:00,2020-01-07T13:50:03,0,new,active
1280POZ00743,plejmam,,,Bluebell Lane,,,,,,Beechbank Avenue,,,,W-bound,,W,E0040683,Creekmoor,Poole,,,,,,false,UKOS,399457,94132,-2.00906,50.74679,BCT,MKD,OTH,,,,043,2007-02-07T00:00:00,2020-01-07T13:50:03,0,new,active
1280POZ00736,pleajmw,,,Cabot Lane,,,,,,Creekmoor Lane,,,,SE-bound,,SE,E0040683,Creekmoor,Poole,,,,,,false,UKOS,400254,93608,-1.99777,50.74208,BCT,MKD,OTH,,,,043,2009-06-10T00:00:00,2020-02-25T08:31:54,0,new,active
1280POA90811,plejptp,,,Cabot Lane,,,,,,Creekmoor Lane,,,,NW-bound,,NW,E0040683,Creekmoor,Poole,,,,,,false,UKOS,400233,93619,-1.99806,50.74218,BCT,MKD,OTH,,,,043,2007-05-31T00:00:00,2020-02-25T08:31:54,0,new,active
1280POZ00737,plegdja,,,Poole College,,,,,,North Road,,,,W-bound,,W,E0040701,Parkstone,Poole,,,,,,false,UKOS,402815,91580,-1.96148,50.72384,BCT,MKD,OTH,,,,043,2006-03-07T00:00:00,2015-04-25T12:22:05,0,new,active
1280POA11305,pleajmj,,,West Way Bottom,,,,,,West Way,,,,N-bound,,N,E0040677,Broadstone,Poole,,,,,,false,UKOS,400239,95695,-1.99798,50.76085,BCT,MKD,OTH,,,,043,2006-03-07T00:00:00,2021-07-07T13:30:46,0,new,active
1280POA11304,pleajmt,,,West Way Bottom,,,,,,West Way,,,,SW-bound,,SW,E0040677,Broadstone,Poole,,,,,,false,UKOS,400256,95723,-1.99774,50.7611,BCT,MKD,OTH,,,,043,2006-03-07T00:00:00,2015-04-25T12:19:24,0,new,active
1280POZ00739,pleagwg,,,Clarendon Road,,,,,,Clarendon Road,,,,o/s 82,,E,E0040677,Broadstone,Poole,,,,,,false,UKOS,399857,95635,-2.00339,50.76031,BCT,MKD,OTH,,,,043,2007-06-08T00:00:00,2015-04-25T12:19:24,0,new,active
1280POA11282,pleagwj,,,Clarendon Road,,,,,,Clarendon Road,,,,W-bound,,W,E0040677,Broadstone,Poole,,,,,,false,UKOS,399861,95625,-2.00334,50.76022,BCT,MKD,OTH,,,,043,2007-06-08T00:00:00,2015-04-25T12:19:24,0,new,active
1280POZ00740,pleajdm,,,Creekmoor P&R,,,,,,Upton Road,,,,S-bound,,S,E0040683,Creekmoor,Poole,,,,,,false,UKOS,400043,93054,-2.00076,50.7371,BCT,MKD,OTH,,,,043,2006-01-26T00:00:00,2018-05-02T15:42:58,14,new,active
1280POA11595,plegmtg,,,St Johns Church,,,,,,Ashley Road,,,,opp,,W,E0040701,Parkstone,Poole,,,,,,false,UKOS,404353,92133,-1.93969,50.7288,BCT,MKD,OTH,,,,043,2007-11-19T00:00:00,2015-04-25T12:22:05,0,new,active
1280POX38425,plegmwg,,,St Johns Church,,,,,,Ashley Road,,,,E-bound,,E,E0040701,Parkstone,Poole,,,,,,false,UKOS,404365,92144,-1.93952,50.7289,BCT,MKD,OTH,,,,043,2006-03-07T00:00:00,2020-08-26T16:53:10,6,new,active
1280POA31700,plejmgp,,,Poole Quay Hotel,,,,,,The Quay,,,,E-bound,,E,E0057224,Poole,,,,,,,false,UKOS,401291,90255,-1.98308,50.71193,BCT,MKD,OTH,,,,043,2007-02-07T00:00:00,2022-11-29T13:40:55,10,new,active
1280POA31702,plejmgt,,,Canford School,,,,,,Canford Magna,,,,N-bound,,N,E0040679,Canford Magna,Poole,,,,,,false,UKOS,403170,98631,-1.9564,50.78724,BCT,MKD,OTH,,,,043,2007-02-07T00:00:00,2022-04-06T12:09:54,17,new,active
1280POA05967,plejpma,,,Canford School,,,,,,Canford Magna,,,,S-bound,,S,E0040679,Canford Magna,Poole,,,,,,false,UKOS,403175,98655,-1.95633,50.78746,BCT,CUS,OTH,,,,043,2006-08-15T00:00:00,2022-04-06T12:09:34,15,new,active
1280POA31703,plejmgw,,,Willett Arms,,,,,,Oakley Hill,,,,S-bound,,S,E0040700,Oakley,Poole,,,,,,false,UKOS,401733,98612,-1.97678,50.78708,BCT,CUS,OTH,,,,043,2007-07-10T00:00:00,2020-02-25T08:31:54,0,new,active
1280POA31704,plejmja,,,Poole Grammar School,,,,,,,,,,W-bound,,W,E0040687,Gravel Hill,,,,,,,false,UKOS,401430,95064,-1.98109,50.75517,BCT,CUS,OTH,,,,043,2007-06-08T00:00:00,2020-02-25T08:31:54,0,new,active
1280POA31705,plejmjd,,,Middle School,,,,,,Dunyeats Road,,,,W-bound,,W,E0040677,Broadstone,Poole,,,,,,false,UKOS,401153,95998,-1.98502,50.76357,BCT,CUS,OTH,,,,043,2006-08-02T00:00:00,2015-04-25T12:19:24,0,new,active
1280POA31706,plejmjg,,,Perry Gardens,,,,,,Skinner Street,,,,SW-bound,,SW,E0057224,Poole,,,,,,,false,UKOS,401357,90466,-1.98214,50.71382,BCT,CUS,OTH,,,,043,2008-12-17T00:00:00,2020-02-25T08:31:54,0,new,active
1280POA05957,plejpja,,,Perry Gardens,,,,,,Skinner Street,,,,NE-bound,,NE,E0057224,Poole,,,,,,,false,UKOS,401364,90480,-1.98204,50.71395,BCT,CUS,OTH,,,,043,2008-12-17T00:00:00,2020-02-25T08:31:53,0,new,active
1280POA31699,plejmgm,,,Dolphin Quays,,,,,,Old Orchard,,,,S-bound,,S,E0057224,Poole,,,,,,,false,UKOS,401142,90314,-1.98519,50.71246,BCT,MKD,OTH,,,,043,2007-02-07T00:00:00,2022-11-29T13:39:48,15,new,active
1280POA31692,plejmdt,,,Mount Pleasant Road,,,,,,Mount Pleasant Road,,,,NE-bound,,NE,E0057224,Poole,,,,,,,false,UKOS,401829,91006,-1.97546,50.71868,BCT,MKD,OTH,,,,043,2007-02-07T00:00:00,2015-06-26T14:26:46,6,new,active
1280POA31693,plejmdw,,,Lighthouse,,,,,,Seldown Lane,,,,N-bound,,N,E0057224,Poole,,,,,,,false,UKOS,401629,91011,-1.97829,50.71872,BCT,MKD,OTH,,,,043,2009-09-14T00:00:00,2015-06-26T14:50:55,2,new,active
1280POA31694,plejmga,,,Serpentine Road,,,,,,Serpentine Road,,,,NE-bound,,NE,E0057224,Poole,,,,,,,false,UKOS,401373,91106,-1.98192,50.71958,BCT,MKD,OTH,,,,043,2007-02-07T00:00:00,2020-02-25T08:31:53,0,new,active
1280POA31696,plejmgd,,,Ballard Close,,,,,,Ballard Road,,,,NE-bound,,NE,E0057224,Poole,,,,,,,false,UKOS,401534,90296,-1.97964,50.71229,BCT,MKD,OTH,,,,043,2007-02-07T00:00:00,2020-08-06T11:26:03,8,new,active
1280POA31697,plejmgj,,,Orchard Plaza,,,,,,High Street,,,,SW-bound,,SW,E0057224,Poole,,,,,,,false,UKOS,401040,90454,-1.98663,50.71372,BCT,MKD,OTH,,,,043,2007-02-07T00:00:00,2020-08-06T12:23:06,6,new,active
1280POA90805,plejptm,,,Hillbourne Road Bottom,,,,,,Hillbourne Road,,,,E-bound,,E,E0040712,Waterloo Estate,Poole,,,,,,false,UKOS,400558,94776,-1.99346,50.75258,BCT,MKD,OTH,,,,043,2007-03-16T00:00:00,2022-04-13T14:30:06,6,new,active
1280POA90804,plejptj,,,Hillbourne Road Bottom,,,,,,Hillbourne Road,,,,W-bound,,W,E0040712,Waterloo Estate,Poole,,,,,,false,UKOS,400551,94766,-1.99355,50.75249,BCT,MKD,OTH,,,,043,2007-03-21T00:00:00,2022-04-13T14:29:49,6,new,active
1280POT20948,plejgwd,,,Fern Barrow Surgery,,,,,,Fern Barrow,,,,S-bound,,S,N0060767,Talbot Heath,Poole,,,,,,false,UKOS,407175,93415,-1.89968,50.7403,BCT,MKD,OTH,,,,043,2006-05-16T00:00:00,2021-07-07T13:30:46,0,new,active
1280POX38420,pleampa,,,St Aubyns Court,,,,,,New Orchard,,,,NW-bound,,NW,E0057224,Poole,,,,,,,false,UKOS,400983,90602,-1.98744,50.71505,BCT,MKD,OTH,,,,043,2006-05-23T00:00:00,2020-02-25T08:31:54,0,new,active
1280POA11084,pleamjt,,,St Aubyns Court,,,,,,New Orchard,,,,opp,,SE,E0057224,Poole,,,,,,,false,UKOS,400973,90626,-1.98758,50.71526,BCT,MKD,OTH,,,,043,2009-06-05T00:00:00,2020-02-25T08:31:52,0,new,active
1280POX38421,plegmad,,,Lilliput Square,,,,,,Sandbanks Road,,,,SE-bound,,SE,E0040693,Lilliput,Poole,,,,,,false,UKOS,403930,89905,-1.94571,50.70877,BCT,MKD,OTH,,,,043,2006-03-07T00:00:00,2020-02-25T08:31:54,0,new,active
1280POA11766,plegjwt,,,Lilliput Square,,,,,,Sandbanks Road,,,,N-bound,,N,E0040693,Lilliput,Poole,,,,,,false,UKOS,403917,89895,-1.94589,50.70868,BCT,MKD,OTH,,,,043,2007-06-21T00:00:00,2020-02-25T08:31:54,0,new,active
1280POA11518,plegjwm,,,Broom Road,,,,,,Mannings Heath Road,,,,N-bound,,N,E0040669,Alderney,Poole,,,,,,false,UKOS,403905,94298,-1.94602,50.74827,BCT,MKD,OTH,,,,043,2006-05-16T00:00:00,2021-07-07T13:30:46,0,new,active
1280POA56555,plejmwa,,,Broom Road,,,,,,Mannings Heath Road,,,,S-bound,,S,E0040669,Alderney,Poole,,,,,,false,UKOS,403914,94300,-1.94589,50.74829,BCT,MKD,OTH,,,,043,2005-10-10T00:00:00,2021-07-07T13:30:46,0,new,active
1280POA05956,plejpgw,,,Citizens Advice Bureau,,,,,,Lagland Street,,,,opp,,SW,E0057224,Poole,,,,,,,false,UKOS,401337,90639,-1.98243,50.71538,BCT,CUS,OTH,,,,043,2008-12-17T00:00:00,2025-04-17T07:42:43,148,delete,inactive
1280POA31707,plejmjm,,,Citizens Advice Bureau,,,,,,Lagland Street,,,,NE-bound,,NE,E0057224,Poole,,,,,,,false,UKOS,401334,90649,-1.98247,50.71547,BCT,CUS,OTH,,,,043,2008-12-17T00:00:00,2025-04-17T07:43:30,52,delete,inactive
1280POA31709,plejmjt,,,Junior School,,,,,,,,,,W-bound,,W,N0060764,Oakdale,Poole,,,,,,false,UKOS,401374,92063,-1.9819,50.72818,BCT,MKD,OTH,,,,043,2009-06-10T00:00:00,2024-03-20T13:14:08,11,new,active
1280POA11285,pleagdt,,,Gladelands Way,,,,,,Clarendon Road,,,,opp,,W,E0040677,Broadstone,Poole,,,,,,false,UKOS,399482,95473,-2.00871,50.75885,BCT,MKD,OTH,,,,043,2006-03-07T00:00:00,2021-07-07T13:30:44,0,new,active
1280POA31711,plejmtp,,,Gladelands Way,,,,,,Clarendon Road,,,,E-bound,,E,E0040677,Broadstone,Poole,,,,,,false,UKOS,399478,95482,-2.00877,50.75893,BCT,MKD,OTH,,,,043,2007-02-07T00:00:00,2015-04-25T12:19:24,0,new,active
1280POA56554,plejmtw,,,Asda Superstore,,,,,,,,,,SW-bound,,SW,E0057224,Poole,,,,,,,false,UKOS,401057,90969,-1.98639,50.71835,BCT,MKD,OTH,,,,043,2009-06-10T00:00:00,2021-07-07T13:30:46,0,new,active
1280POA11778,plegmdg,,,Shoreacres,,,,,,Banks Road,,,,o/s 137,,SW,E0040706,Sandbanks,Poole,,,,,,false,UKOS,404006,87238,-1.94466,50.68478,BCT,MKD,OTH,,,,043,2007-06-21T00:00:00,2020-08-05T12:46:59,8,new,active
1280POA05371,plejpwp,,,Ferry Approach,,,,,,Ferry Way,,,,NE-bound,,NE,E0040706,Sandbanks,Poole,,,,,,false,UKOS,403737,87111,-1.94847,50.68364,BCT,MKD,OTH,,,,043,2007-10-17T00:00:00,2020-08-20T10:33:15,2,new,active
1280POA11779,plegjpw,,,Ferry Approach,,,,,,Ferry Way,,,,S-bound,,S,E0040706,Sandbanks,Poole,,,,,,false,UKOS,403734,87087,-1.94851,50.68343,BCT,MKD,OTH,,,,043,2006-02-03T00:00:00,2020-08-25T16:09:02,2,new,active
1280POA11782,plegjpg,,,Ferry Approach,,,,,,Panorama Road,,,,NW-bound,,NW,E0040706,Sandbanks,Poole,,,,,,false,UKOS,403723,87199,-1.94866,50.68443,BCT,MKD,OTH,,,,043,2007-06-21T00:00:00,2020-02-25T08:31:53,0,new,active
1280POA11783,plegjwg,,,Royal Motor Yacht Club,,,,,,Panorama Road,,,,E-bound,,E,E0040706,Sandbanks,Poole,,,,,,false,UKOS,403877,87514,-1.94648,50.68727,BCT,MKD,OTH,,,,043,2007-06-21T00:00:00,2014-07-03T10:55:06,5,new,active
1280POA11784,plegmgt,,,St. Nicolas Chapel,,,,,,Panorama Road,,,,opp,,E,E0040706,Sandbanks,Poole,,,,,,false,UKOS,404196,87565,-1.94196,50.68772,BCT,MKD,OTH,,,,043,2006-05-23T00:00:00,2020-08-05T12:39:52,8,new,active
1280POA11777,plegmjm,,,St. Nicolas Chapel,,,,,,Banks Road,,,,S-bound,,S,E0040706,Sandbanks,Poole,,,,,,false,UKOS,404254,87524,-1.94114,50.68735,BCT,MKD,OTH,,,,043,2006-03-01T00:00:00,2020-08-05T12:40:23,9,new,active
1280POA11772,plegpwa,,,Banks Road,,,,,,Banks Road,,,,o/s 69,,SW,E0040706,Sandbanks,Poole,,,,,,false,UKOS,404720,88028,-1.93454,50.69188,BCT,MKD,OTH,,,,043,2007-06-21T00:00:00,2020-02-25T08:31:53,0,new,active
1280POA11785,plegpwg,,,Banks Road,,,,,,Banks Road,,,,NE-bound,,NE,E0040706,Sandbanks,Poole,,,,,,false,UKOS,404732,88049,-1.93437,50.69207,BCT,MKD,OTH,,,,043,2007-06-21T00:00:00,2020-02-25T08:31:53,0,new,active
1280POA11771,plegtjg,,,Shore Road,,,,,,Banks Road,,,,opp,,N,E0040706,Sandbanks,Poole,,,,,,false,UKOS,404907,88566,-1.93189,50.69672,BCT,MKD,OTH,,,,043,2006-03-01T00:00:00,2015-04-25T12:19:09,0,new,active
1280POA11770,plegtjt,,,Shore Road,,,,,,Banks Road,,,,S-bound,,S,E0040706,Sandbanks,Poole,,,,,,false,UKOS,404922,88517,-1.93168,50.69628,BCT,MKD,OTH,,,,043,2006-02-03T00:00:00,2020-02-25T08:31:53,0,new,active
1280POA11773,plegmtp,,,Pavilion,,,,,,Banks Road,,,,opp,,NE,E0040706,Sandbanks,Poole,,,,,,false,UKOS,404342,87713,-1.9399,50.68905,BCT,MKD,OTH,,,,043,2007-06-21T00:00:00,2017-05-31T11:47:30,4,new,active
1280POA11776,plegmwa,,,Pavilion,,,,,,Banks Road,,,,SW-bound,,SW,E0040706,Sandbanks,Poole,,,,,,false,UKOS,404373,87733,-1.93946,50.68923,BCT,MKD,OTH,,,,043,2007-06-21T00:00:00,2017-05-31T11:47:03,4,new,active
1280POA11793,plegdtm,,,Mentone Road,,,,,,Britannia Road,,,,NE-bound,,NE,E0040701,Parkstone,Poole,,,,,,false,UKOS,403242,91307,-1.95544,50.72138,BCT,MKD,OTH,,,,043,2007-06-21T00:00:00,2023-06-05T15:33:50,37,new,active
1280POA11794,plegdwj,,,Ashley Cross,,,,,,Britannia Road,,,,N-bound,,N,E0040701,Parkstone,Poole,,,,,,false,UKOS,403339,91463,-1.95406,50.72278,BCT,MKD,OTH,,,,043,2003-06-12T00:00:00,2020-02-25T08:31:53,0,new,active
1280POA11795,plegdwp,,,Ashley Cross,,,,,,Salterns Road,,,,S-bound,,S,E0040701,Parkstone,Poole,,,,,,false,UKOS,403365,91487,-1.95369,50.723,BCT,MKD,OTH,,,,043,2006-03-01T00:00:00,2020-02-25T08:31:53,0,new,active
1280POA11760,plegjda,,,Ashley Cross,,,,,,Commercial Road,,,,W-bound,,W,E0040701,Parkstone,Poole,,,,,,false,UKOS,403430,91494,-1.95277,50.72306,BCT,MKD,OTH,,,,043,2006-03-01T00:00:00,2023-03-01T12:32:28,31,new,active
1280POA11745,plegdwa,,,Ashley Cross,,,,,,Commercial Road,,,,E-bound,,E,E0040701,Parkstone,Poole,,,,,,false,UKOS,403288,91535,-1.95478,50.72343,BCT,MKD,OTH,,,,043,2009-06-05T00:00:00,2023-03-01T12:31:49,31,new,active
1280POA11797,plegjat,,,Whitecliff Post Office,,,,,,Pottery Road,,,,E-bound,,E,E0040701,Parkstone,Poole,,,,,,false,UKOS,403426,91019,-1.95283,50.71879,BCT,MKD,OTH,,,,043,2006-03-01T00:00:00,2020-08-06T11:57:33,8,new,active
1280POA11798,plegjaw,,,Whitecliff Post Office,,,,,,Pottery Road,,,,W-bound,,W,E0040701,Parkstone,Poole,,,,,,false,UKOS,403416,91011,-1.95298,50.71872,BCT,MKD,OTH,,,,043,2009-06-05T00:00:00,2020-08-06T11:58:41,8,new,active
1280POA11792,plegdwt,,,Whitecliff Post Office,,,,,,Sandbanks Road,,,,N-bound,,N,E0040701,Parkstone,Poole,,,,,,false,UKOS,403382,91015,-1.95346,50.71875,BCT,MKD,OTH,,,,043,2006-03-01T00:00:00,2020-08-06T11:57:51,8,new,active
1280POA90869,plejwmw,,,Whitecliff Post Office,,,,,,Sandbanks Road,,,,S-bound,,S,E0040701,Parkstone,Poole,,,,,,false,UKOS,403405,90959,-1.95313,50.71825,BCT,MKD,OTH,,,,043,2021-06-15T00:00:00,2021-07-13T11:29:27,64,new,active
1280POA11786,plegpgw,,,Brudenell Avenue,,,,,,Shore Road,,,,W-bound,,W,E0040693,Lilliput,Poole,,,,,,false,UKOS,404584,89006,-1.93645,50.70068,BCT,MKD,OTH,,,,043,2006-02-03T00:00:00,2020-02-25T08:31:54,0,new,active
1280POA11769,plegptd,,,Brudenell Avenue,,,,,,Shore Road,,,,E-bound,,E,E0040693,Lilliput,Poole,,,,,,false,UKOS,404650,88994,-1.93552,50.70057,BCT,MKD,OTH,,,,043,2006-02-03T00:00:00,2020-01-07T13:50:03,0,new,active
1280POA11789,plegjmj,,,Blue Lagoon,,,,,,Sandbanks Road,,,,N-bound,,N,E0040693,Lilliput,Poole,,,,,,false,UKOS,403705,90206,-1.94889,50.71148,BCT,MKD,OTH,,,,043,2007-06-21T00:00:00,2019-05-21T12:26:47,4,new,active
1280POA11764,plegjmw,,,Blue Lagoon,,,,,,Sandbanks Road,,,,opp,,S,E0040693,Lilliput,Poole,,,,,,false,UKOS,403680,90269,-1.94924,50.71204,BCT,MKD,OTH,,,,043,2009-06-05T00:00:00,2015-04-25T12:19:09,0,new,active
1280POA11749,plegmdj,,,Castle Hill,,,,,,Bournemouth Road Castle Hill,,,,E-bound,,E,E0040701,Parkstone,Poole,,,,,,false,UKOS,404010,91760,-1.94455,50.72545,BCT,MKD,OTH,,,,043,2007-06-21T00:00:00,2020-02-25T08:31:53,0,new,active
1280POA11748,plegjwp,,,Castle Hill,,,,,,Bournemouth Road Castle Hill,,,,W-bound,,W,E0040701,Parkstone,Poole,,,,,,false,UKOS,403915,91751,-1.9459,50.72537,BCT,MKD,OTH,,,,043,2007-06-21T00:00:00,2020-02-25T08:31:54,0,new,active
1280POA11750,plegmjt,,,Marlborough Road,,,,,,Bournemouth Road,,,,E-bound,,E,E0040701,Parkstone,Poole,,,,,,false,UKOS,404270,91697,-1.94087,50.72488,BCT,MKD,OTH,,,,043,2005-11-09T00:00:00,2015-03-04T10:59:43,15,new,active
1280POA11751,plegmpj,,,Marlborough Road,,,,,,Bournemouth Road,,,,W-bound,,W,E0040701,Parkstone,Poole,,,,,,false,UKOS,404293,91681,-1.94055,50.72474,BCT,MKD,OTH,,,,043,2006-03-01T00:00:00,2015-03-04T10:59:24,14,new,active
1280POA11753,plegpjd,,,The Grasshopper,,,,,,Bournemouth Road,,,,W-bound,,W,E0040701,Parkstone,Poole,,,,,,false,UKOS,404592,91661,-1.93631,50.72455,BCT,MKD,OTH,,,,043,2007-06-21T00:00:00,2020-02-25T08:31:54,0,new,active
1280POA11752,plegpjw,,,The Grasshopper,,,,,,Bournemouth Road,,,,E-bound,,E,E0040701,Parkstone,Poole,,,,,,false,UKOS,404637,91670,-1.93567,50.72463,BCT,MKD,OTH,,,,043,2005-11-09T00:00:00,2020-02-25T08:31:54,0,new,active
1280POA11754,plegtjm,,,Majestic Wine Warehouse,,,,,,Bournemouth Road,,,,E-bound,,E,E0040701,Parkstone,Poole,,,,,,false,UKOS,404910,91673,-1.9318,50.72466,BCT,MKD,OTH,,,,043,2007-06-21T00:00:00,2020-02-25T08:31:54,0,new,active
1280POA11720,plejdpa,,,Langside Avenue,,,,,,Alder Road,,,,N-bound,,N,E0040674,Bourne Valley,Poole,,,,,,false,UKOS,406319,93728,-1.91181,50.74313,BCT,MKD,OTH,,,,043,2006-01-26T00:00:00,2025-09-19T13:10:20,0,new,active
1280POA11721,plejdmw,,,Langside Avenue,,,,,,Alder Road,,,,S-bound,,S,E0040674,Bourne Valley,Poole,,,,,,false,UKOS,406315,93692,-1.91187,50.7428,BCT,MKD,OTH,,,,043,2006-01-26T00:00:00,2020-02-25T08:31:54,0,new,active
1280POA11747,plegjmt,,,Ashley Cross Post Office,,,,,,Bournemouth Road,,,,opp,,SW,E0040701,Parkstone,Poole,,,,,,false,UKOS,403668,91688,-1.9494,50.7248,BCT,MKD,OTH,,,,043,2006-03-01T00:00:00,2015-04-25T12:19:09,0,new,active
1280POA11746,plegjmp,,,Ashley Cross Post Office,,,,,,Bournemouth Road,,,,NE-bound,,NE,E0040701,Parkstone,Poole,,,,,,false,UKOS,403631,91678,-1.94992,50.72471,BCT,MKD,OTH,,,,043,2006-03-01T00:00:00,2020-02-25T08:31:54,0,new,active
1280POA11791,plegdwm,,,Whitecliff Recreation Ground,,,,,,Sandbanks Road,,,,N-bound,,N,E0040693,Lilliput,Poole,,,,,,false,UKOS,403346,90629,-1.95397,50.71528,BCT,MKD,OTH,,,,043,2007-06-21T00:00:00,2020-08-06T11:49:08,10,new,active
1280POA11762,plegjam,,,Whitecliff Recreation Ground,,,,,,Sandbanks Road,,,,opp,,SE,E0040693,Lilliput,Poole,,,,,,false,UKOS,403362,90608,-1.95374,50.71509,BCT,MKD,OTH,,,,043,2007-06-21T00:00:00,2016-07-26T11:02:31,4,new,active
1280POA11790,plegjdp,,,Elgin Road,,,,,,Sandbanks Road,,,,W-bound,,W,E0040693,Lilliput,Poole,,,,,,false,UKOS,403492,90430,-1.9519,50.71349,BCT,MKD,OTH,,,,043,2006-03-01T00:00:00,2020-08-06T11:55:54,9,new,active
1280POA11763,plegjga,,,Elgin Road,,,,,,Sandbanks Road,,,,E-bound,,E,E0040693,Lilliput,Poole,,,,,,false,UKOS,403529,90430,-1.95138,50.71349,BCT,MKD,OTH,,,,043,2006-03-01T00:00:00,2020-02-25T08:31:54,0,new,active
1280POA11788,plegjtg,,,Blake Dene Road,,,,,,Sandbanks Road,,,,NW-bound,,NW,E0040693,Lilliput,Poole,,,,,,false,UKOS,403795,90107,-1.94762,50.71059,BCT,MKD,OTH,,,,043,2007-06-21T00:00:00,2020-08-06T12:04:49,9,new,active
1280POA11765,plegjtw,,,Blake Dene Road,,,,,,Sandbanks Road,,,,SE-bound,,SE,E0040693,Lilliput,Poole,,,,,,false,UKOS,403827,90091,-1.94716,50.71044,BCT,MKD,OTH,,,,043,2006-03-01T00:00:00,2020-02-25T08:31:54,0,new,active
1280POA11787,plegmdw,,,Top of Evening Hill,,,,,,Sandbanks Road,,,,NW-bound,,NW,E0040693,Lilliput,Poole,,,,,,false,UKOS,404166,89290,-1.94237,50.70324,BCT,MKD,OTH,,,,043,2006-02-03T00:00:00,2025-05-16T11:41:42,36,new,active
1280POA11768,plegmjg,,,Alington Road,,,,,,Sandbanks Road,,,,SE-bound,,SE,E0040693,Lilliput,Poole,,,,,,false,UKOS,404222,89202,-1.94158,50.70244,BCT,MKD,OTH,,,,043,2007-06-21T00:00:00,2017-07-10T13:01:41,15,new,active
1280POA11441,plegdmg,,,Willow Park,,,,,,Commercial Road,,,,E-bound,,E,E0040701,Parkstone,Poole,,,,,,false,UKOS,402941,91537,-1.9597,50.72345,BCT,MKD,OTH,,,,043,2007-06-21T00:00:00,2020-08-20T11:39:02,11,new,active
1280POA11761,plegdmp,,,Willow Park,,,,,,Commercial Road,,,,W-bound,,W,E0040701,Parkstone,Poole,,,,,,false,UKOS,402976,91515,-1.9592,50.72325,BCT,MKD,OTH,,,,043,2006-03-07T00:00:00,2014-07-03T11:51:23,5,new,active
1280POA11758,plegwgt,,,North Lodge Road,,,,,,Bournemouth Road,,,,W-bound,,W,E0040675,Branksome,Poole,,,,,,false,UKOS,405110,91676,-1.92897,50.72468,BCT,MKD,OTH,,,,043,2006-03-01T00:00:00,2020-02-25T08:31:54,0,new,active
1280POA11755,plegwjd,,,North Lodge Road,,,,,,Bournemouth Road,,,,NE-bound,,NE,E0040675,Branksome,Poole,,,,,,false,UKOS,405238,91746,-1.92716,50.72531,BCT,MKD,OTH,,,,043,2006-03-01T00:00:00,2020-02-25T08:31:54,0,new,active
1280POA11757,plegwpd,,,St. Josephs Church,,,,,,Bournemouth Road,,,,opp,,NE,E0040675,Branksome,Poole,,,,,,false,UKOS,405322,91834,-1.92597,50.7261,BCT,MKD,OTH,,,,043,2006-05-23T00:00:00,2020-02-25T08:31:52,0,new,active
1280POA11756,plegwpa,,,St. Josephs Church,,,,,,Bournemouth Road,,,,SW-bound,,SW,E0040675,Branksome,Poole,,,,,,false,UKOS,405320,91816,-1.92599,50.72594,BCT,MKD,OTH,,,,043,2006-05-23T00:00:00,2020-02-25T08:31:54,0,new,active
1280POA11759,plegtgm,,,Hardy Road,,,,,,Bournemouth Road,,,,opp,,W,E0040701,Parkstone,Poole,,,,,,false,UKOS,404865,91664,-1.93244,50.72458,BCT,MKD,OTH,,,,043,2006-03-01T00:00:00,2015-04-25T12:19:10,0,new,active
1280POA05964,plejpjp,,,Penn Hill Corner,,,,,,Canford Cliffs Road,,,,S-bound,,S,E0040675,Branksome,Poole,,,,,,false,UKOS,405384,91505,-1.92509,50.72314,BCT,CUS,OTH,,,,043,2008-12-17T00:00:00,2020-02-25T08:31:54,0,new,active
1280POA05963,plejpjm,,,Penn Hill Corner,,,,,,Canford Cliffs Road,,,,N-bound,,N,E0040675,Branksome,Poole,,,,,,false,UKOS,405370,91514,-1.92529,50.72323,BCT,CUS,OTH,,,,043,2008-12-17T00:00:00,2020-02-25T08:31:54,0,new,active
1280POA11836,plegwjw,,,Penn Hill Corner,,,,,,Penn Hill Avenue,,,,W-bound,,W,E0040675,Branksome,Poole,,,,,,false,UKOS,405269,91497,-1.92672,50.72307,BCT,MKD,OTH,,,,043,2006-03-01T00:00:00,2020-02-25T08:31:54,0,new,active
1280POA11837,plegwpg,,,Penn Hill Corner,,,,,,Penn Hill Avenue,,,,NE-bound,,NE,E0040675,Branksome,Poole,,,,,,false,UKOS,405315,91535,-1.92607,50.72341,BCT,MKD,OTH,,,,043,2006-03-01T00:00:00,2020-02-25T08:31:54,0,new,active
1280POA11839,plegtjp,,,Spur Hill Avenue,,,,,,Penn Hill Avenue,,,,W-bound,,W,E0040701,Parkstone,Poole,,,,,,false,UKOS,404914,91449,-1.93175,50.72265,BCT,MKD,OTH,,,,043,2006-03-08T00:00:00,2015-03-04T11:30:16,6,new,active
1280POA11838,plegtgt,,,Spur Hill Avenue,,,,,,Penn Hill Avenue,,,,E-bound,,E,E0040701,Parkstone,Poole,,,,,,false,UKOS,404882,91457,-1.9322,50.72272,BCT,MKD,OTH,,,,043,2006-03-07T00:00:00,2015-03-04T11:28:41,6,new,active
1280POA11840,plegpdt,,,St. Osmunds Road,,,,,,Penn Hill Avenue,,,,W-bound,,W,E0040701,Parkstone,Poole,,,,,,false,UKOS,404504,91407,-1.93756,50.72227,BCT,MKD,OTH,,,,043,2006-05-23T00:00:00,2015-03-04T11:26:38,6,new,active
1280POA11841,plegpgm,,,Penn Leigh,,,,,,Penn Hill Avenue,,,,E-bound,,E,E0040701,Parkstone,Poole,,,,,,false,UKOS,404539,91419,-1.93706,50.72238,BCT,MKD,OTH,,,,043,2006-03-08T00:00:00,2021-02-24T16:38:43,11,new,active
1280POA11829,plejatm,,,The Victoria School,,,,,,Lindsay Road,,,,W-bound,,W,E0040675,Branksome,Poole,,,,,,false,UKOS,405884,91749,-1.918,50.72533,BCT,MKD,OTH,,,,043,2007-06-21T00:00:00,2020-02-25T08:31:54,0,new,active
1280POA11828,plejatd,,,The Victoria School,,,,,,Lindsay Road,,,,opp,,E,E0040675,Branksome,Poole,,,,,,false,UKOS,405845,91772,-1.91856,50.72554,BCT,MKD,OTH,,,,043,2007-06-21T00:00:00,2020-02-25T08:31:52,0,new,active
1280POA11830,plejdjt,,,Wilderton Road,,,,,,Lindsay Road,,,,opp,,E,E0040675,Branksome,Poole,,,,,,false,UKOS,406164,91660,-1.91404,50.72453,BCT,MKD,OTH,,,,043,2006-03-07T00:00:00,2020-02-25T08:31:52,0,new,active
1280POA11831,plejdma,,,Wilderton Road,,,,,,Lindsay Road,,,,W-bound,,W,E0040675,Branksome,Poole,,,,,,false,UKOS,406196,91639,-1.91359,50.72434,BCT,MKD,OTH,,,,043,2009-06-10T00:00:00,2020-02-25T08:31:54,0,new,active
1280POA11717,plejdpd,,,Tesco,,,,,,Wallisdown Road,,,,W-bound,,W,E0040711,Wallisdown,Poole,,,,,,false,UKOS,406342,94113,-1.91148,50.74659,BCT,MKD,OTH,,,,043,2005-10-21T00:00:00,2018-10-24T11:03:26,11,new,active
1280POA11907,plejdwj,,,Western Road,,,,,,The Avenue,,,,S-bound,,S,E0040676,Branksome Park,Poole,,,,,,false,UKOS,406503,90912,-1.90925,50.7178,BCT,MKD,OTH,,,,043,2007-06-21T00:00:00,2020-08-05T14:30:53,9,new,active
1280POA90812,plejtma,,,Western Road,,,,,,Western Road,,,,NE-bound,,NE,E0040676,Branksome Park,Poole,,,,,,false,UKOS,406578,91009,-1.90819,50.71867,BCT,MKD,OTH,,,,043,2010-06-03T00:00:00,2014-10-30T09:06:41,2,new,active
1280POA90813,plejtmd,,,Orchard Avenue,,,,,,Sandbanks Road,,,,NW-bound,,NW,E0040701,Parkstone,Poole,,,,,,false,UKOS,403142,91276,-1.95685,50.7211,BCT,MKD,OTH,,,,043,2010-06-03T00:00:00,2020-02-25T08:31:54,0,new,active
1280POA90814,plejtmg,,,Orchard Avenue,,,,,,Sandbanks Road,,,,SE-bound,,SE,E0040701,Parkstone,Poole,,,,,,false,UKOS,403125,91298,-1.9571,50.7213,BCT,MKD,OTH,,,,043,2010-06-03T00:00:00,2020-08-06T11:43:15,9,new,active
1280POA90817,plejtmt,,,Station Road,,,,,,Station Road,,,,SW-bound,,SW,E0040696,Lower Hamworthy,Poole,,,,,,false,UKOS,400430,90171,-1.99527,50.71117,BCT,MKD,OTH,,,,043,2010-09-07T00:00:00,2015-04-25T12:23:04,0,new,active
1280POA90815,plejtmj,,,College temporary stop,,,,,,North Road,,,,NE-bound,,NE,E0040701,Parkstone,Poole,,,,,,false,UKOS,402938,91625,-1.95974,50.72424,BCT,MKD,OTH,,,,043,2010-07-07T00:00:00,2015-04-25T12:22:26,0,new,active
1280POA11413,pleaptm,,,Police Station,,,,,,Wimborne Road,,,,S-bound,,S,E0057224,Poole,,,,,,,false,UKOS,401535,91325,-1.97962,50.72155,BCT,MKD,OTH,,,,043,2010-07-06T00:00:00,2015-06-26T12:24:54,6,new,active
1280POA90818,plejtmw,,,Wheelers Lane,,,,,,King John Avenue,,,,NE-bound,,NE,N0060766,Bearwood,Poole,,,,,,false,UKOS,404758,96904,-1.93389,50.7717,BCT,MKD,OTH,,,,043,2020-02-25T00:00:00,2020-02-25T08:31:53,0,new,active
1280POA90819,plejtpa,,,Wheelers Lane,,,,,,King John Avenue,,,,SW-bound,,SW,N0060766,Bearwood,Poole,,,,,,false,UKOS,404786,96925,-1.93349,50.77189,BCT,MKD,OTH,,,,043,2020-02-25T00:00:00,2020-02-25T08:31:53,0,new,active
1280POA90820,plejtpd,,,Shelley Road,,,,,,Albert Road,,,,S-bound,,S,E0040701,Parkstone,Poole,,,,,,false,UKOS,404696,92159,-1.93483,50.72903,BCT,CUS,OTH,,,,043,2016-06-15T00:00:00,2016-06-15T12:55:21,8,new,active
1280POA90821,plejtpg,,,Evering Avenue,,,,,,Corbiere Avenue,,,,N-bound,,N,E0040669,Alderney,Poole,,,,,,false,UKOS,405159,94052,-1.92824,50.74605,BCT,CUS,OTH,,,,043,2021-02-24T00:00:00,2021-02-24T16:15:44,16,new,active
1280POA90822,plejtpj,,,Terrace Row,,,,,,West Quay Road,,,,NE-bound,,NE,E0057224,Poole,,,,,,,false,UKOS,400774,90620,-1.9904,50.71521,BCT,MKD,OTH,,,,043,2020-08-06T00:00:00,2025-09-19T12:58:12,10,new,active
1280POA90825,plejtpw,,,Galloway Road,,,,,,Galloway Road,,,,NE-bound,,NE,N0060763,Hamworthy,Poole,,,,,,false,UKOS,398803,91720,-2.01832,50.7251,BCT,MKD,OTH,,,,043,2020-08-25T00:00:00,2020-08-25T16:40:29,4,new,active
1280POA90826,plejtwa,,,Serpentine Lane,,,,,,Serpentine Lane,,,,NW-bound,,NW,E0057224,Poole,,,,,,,false,UKOS,401295,91018,-1.98302,50.71879,BCT,CUS,OTH,,,,043,2015-10-19T00:00:00,2015-10-19T16:32:03,5,new,active
1280POA90831,plejtwp,,,Fontmell Road Bottom,,,,,,Fontmell Road,,,,SW-bound,,SW,E0040687,Gravel Hill,,,,,,,false,UKOS,401128,94719,-1.98538,50.75207,BCT,MKD,OTH,,,,043,2014-09-03T00:00:00,2022-04-06T12:01:47,71,new,active
1280POA90832,plejtwt,,,Fontmell Road Bottom,,,,,,Fontmell Road,,,,NE-bound,,NE,E0040687,Gravel Hill,,,,,,,false,UKOS,401122,94722,-1.98546,50.7521,BCT,CUS,OTH,,,,043,2014-09-03T00:00:00,2022-04-06T12:02:10,74,new,active
1280POA90833,plejwad,,,Jennings Road,,,,,,Broadwater Avenue,,,,E-bound,,E,E0040693,Lilliput,Poole,,,,,,false,UKOS,404128,90694,-1.94289,50.71586,BCT,MKD,OTH,,,,043,2015-03-03T00:00:00,2023-06-05T15:36:57,107,new,active
1280POA90834,plejwag,,,Jennings Road,,,,,,Broadwater Avenue,,,,W-bound,,W,E0040693,Lilliput,Poole,,,,,,false,UKOS,404200,90687,-1.94187,50.7158,BCT,MKD,OTH,,,,043,2015-03-03T00:00:00,2023-06-05T15:37:23,109,new,active
1280POA90837,plejwaj,,,Luscombe Road,,,,,,Alton Road,,,,E-bound,,E,E0040693,Lilliput,Poole,,,,,,false,UKOS,404410,90800,-1.9389,50.71681,BCT,MKD,OTH,,,,043,2015-03-31T00:00:00,2020-08-26T16:25:39,69,new,active
1280POA90838,plejwam,,,Luscombe Road,,,,,,Alton Road,,,,W-bound,,W,E0040693,Lilliput,Poole,,,,,,false,UKOS,404429,90789,-1.93863,50.71671,BCT,MKD,OTH,,,,043,2015-03-31T00:00:00,2020-08-26T16:26:03,69,new,active
1280POA90839,plejwap,,,Rigler Road,,,,,,Rigler Road,,,,NE-bound,,NE,E0040696,Lower Hamworthy,Poole,,,,,,false,UKOS,400072,90489,-2.00034,50.71403,BCT,MKD,OTH,,,,043,2015-12-03T00:00:00,2020-08-26T16:32:11,83,new,active
1280POA90840,plejwat,,,Rigler Road,,,,,,Rigler Road,,,,SW-bound,,SW,E0040696,Lower Hamworthy,Poole,,,,,,false,UKOS,400068,90457,-2.0004,50.71374,BCT,MKD,OTH,,,,043,2015-12-03T00:00:00,2020-08-26T16:33:15,85,new,active
1280POA90841,plejwaw,,,Countess Close,,,,,,Lynwood Drive,,,,NE-bound,,NE,E0040697,Merley,Poole,,,,,,false,UKOS,402304,97828,-1.96869,50.78002,BCT,MKD,OTH,,,,043,2016-06-17T00:00:00,2017-01-16T16:06:00,89,new,active
1280POA90842,plejwda,,,Countess Close,,,,,,Lynwood Drive,,,,SW-bound,,SW,E0040697,Merley,Poole,,,,,,false,UKOS,402316,97826,-1.96852,50.78001,BCT,MKD,OTH,,,,043,2016-06-17T00:00:00,2017-01-16T16:05:14,88,new,active
1280POA90843,plejwdg,,,Wessex Gate,,,,,,Willis Way,,,,E-bound,,E,N0073123,Stanley Green,Poole,,,,,,false,UKOS,400948,92867,-1.98793,50.73542,BCT,MKD,OTH,,,,043,2017-04-04T00:00:00,2020-08-26T16:35:42,60,new,active
1280POA90844,plejwdj,,,Wessex Gate,,,,,,Willis Way,,,,W-bound,,W,N0073123,Stanley Green,Poole,,,,,,false,UKOS,400954,92864,-1.98785,50.73539,BCT,MKD,OTH,,,,043,2017-04-04T00:00:00,2020-08-26T16:36:10,61,new,active
1280POA90846,plejwdp,,,Blackbird Close,,,,,,Woodpecker Drive,,,,E-bound,,E,E0040683,Creekmoor,Poole,,,,,,false,UKOS,399308,93638,-2.01117,50.74235,BCT,MKD,OTH,,,,043,2017-06-27T00:00:00,2020-08-26T16:40:12,70,new,active
1280POA90847,plejwdt,,,Blackbird Close,,,,,,Woodpecker Drive,,,,W-bound,,W,E0040683,Creekmoor,Poole,,,,,,false,UKOS,399312,93630,-2.01112,50.74228,BCT,MKD,OTH,,,,043,2017-06-27T00:00:00,2020-08-26T16:40:31,72,new,active
1280POA90855,plejwgw,,,Poole Gateway Building,,,,,,Gillett Road,,,,SW-bound,,SW,N0060768,Bournemouth University,,,,,,,false,UKOS,407676,93529,-1.89258,50.74132,BCT,MKD,OTH,,,,043,2017-10-20T00:00:00,2025-04-17T10:18:10,117,new,active
1280POA90856,plejwja,,,Crosstrees,,,,,,Lilliput Road,,,,E-bound,,E,E0040678,Canford Cliffs,Poole,,,,,,false,UKOS,405119,89835,-1.92887,50.70813,BCT,MKD,OTH,,,,043,2018-09-05T00:00:00,2020-08-26T16:46:50,62,new,active
1280POA90857,plejwjd,,,Crosstrees,,,,,,Lilliput Road,,,,W-bound,,W,E0040678,Canford Cliffs,Poole,,,,,,false,UKOS,405116,89828,-1.92891,50.70807,BCT,MKD,OTH,,,,043,2018-09-05T00:00:00,2020-08-26T16:47:09,65,new,active
1280POA90858,plejwjg,,,Dunyeats Road Top,,,,,,Dunyeats Road,,,,SW-bound,,SW,E0040677,Broadstone,Poole,,,,,,false,UKOS,401427,96057,-1.98113,50.7641,BCT,MKD,OTH,,,,043,2019-02-21T00:00:00,2020-08-26T16:48:34,69,new,active
1280POA90859,plejwjm,,,Talbot Drive,,,,,,Wallisdown Road,,,,W-bound,,W,E0040711,Wallisdown,Poole,,,,,,false,UKOS,406625,94032,-1.90747,50.74586,BCT,MKD,OTH,,,,043,2019-07-24T00:00:00,2019-07-24T10:14:11,66,new,active
1280POA90861,plejwjt,,,Kingland Road,,,,,,Kingland Road,,,,Stop K1,,SE,E0057224,Poole,,,,,,,false,UKOS,401611,90968,-1.97854,50.71834,BCT,MKD,OTH,,,,043,2020-05-13T00:00:00,2020-08-26T16:51:21,89,new,active
1280POA90862,plejwjw,,,Kingland Road,,,,,,Kingland Road,,,,Stop K2,,SE,E0057224,Poole,,,,,,,false,UKOS,401580,90994,-1.97898,50.71857,BCT,MKD,OTH,,,,043,2020-05-13T00:00:00,2020-08-26T16:50:17,62,new,active
1280POA90863,plejwma,,,Kingland Road,,,,,,Kingland Road,,,,Stop K3,,SE,E0057224,Poole,,,,,,,false,UKOS,401573,91004,-1.97908,50.71866,BCT,MKD,OTH,,,,043,2020-05-13T00:00:00,2020-08-26T16:50:49,58,new,active
1280POA11468,pleawmt,,,Middle Road,,,,,,Oakdale Road,,,,S-bound,,S,N0060764,Oakdale,Poole,,,,,,false,UKOS,402077,92703,-1.97193,50.73394,BCT,MKD,OTH,,,,043,2006-01-26T00:00:00,2020-08-06T10:11:54,9,new,active
1280POA11467,pleawmp,,,Middle Road,,,,,,Oakdale Road,,,,N-bound,,N,N0060764,Oakdale,Poole,,,,,,false,UKOS,402076,92775,-1.97195,50.73459,BCT,MKD,OTH,,,,043,2006-01-26T00:00:00,2020-08-06T10:11:18,9,new,active
1280POA11390,pleataw,,,Clayford Close,,,,,,Tollerford Road,,,,opp,,N,N0060769,Canford Heath,Poole,,,,,,false,UKOS,401609,94552,-1.97856,50.75057,BCT,MKD,OTH,,,,043,2006-03-01T00:00:00,2020-08-06T11:00:48,9,new,active
1280POA11389,pleatdj,,,Clayford Close,,,,,,Tollerford Road,,,,S-bound,,S,N0060769,Canford Heath,Poole,,,,,,false,UKOS,401621,94560,-1.97839,50.75064,BCT,MKD,OTH,,,,043,2006-03-06T00:00:00,2020-08-06T11:01:16,9,new,active
1280POA90864,plejwmd,,,Hamworthy Club,,,,,,,,,,NW-bound,,NW,E0040679,Canford Magna,Poole,,,,,,false,UKOS,403775,97635,-1.94782,50.77828,BCT,MKD,OTH,,,,043,2021-01-13T00:00:00,2023-04-17T09:09:32,47,new,active
1280POA90865,plejwmg,,,Hamworthy Club,,,,,,,,,,SE-bound,,SE,E0040679,Canford Magna,Poole,,,,,,false,UKOS,403807,97622,-1.94737,50.77816,BCT,MKD,OTH,,,,043,2021-01-13T00:00:00,2021-01-13T10:05:57,47,new,active
1280POA11562,plejdjw,,,Bloxworth Road,,,,,,Bloxworth Road,,,,E-bound,,E,E0040674,Bourne Valley,Poole,,,,,,false,UKOS,406178,93575,-1.91381,50.74175,BCT,MKD,OTH,,,,043,2007-06-08T00:00:00,2021-02-24T16:27:06,1,new,active
1280POA11561,plejdjp,,,Bloxworth Road,,,,,,Bloxworth Road,,,,W-bound,,W,E0040674,Bourne Valley,Poole,,,,,,false,UKOS,406173,93569,-1.91388,50.7417,BCT,CUS,OTH,,,,043,2007-06-08T00:00:00,2021-02-24T16:28:21,7,new,active
1280POA05928,plejpgm,,,Steepleton Road Green,,,,,,Steepleton Road,,,,S-bound,,S,E0040687,Gravel Hill,,,,,,,false,UKOS,401266,95113,-1.98342,50.75561,BCT,MKD,OTH,,,,043,2006-09-11T00:00:00,2021-03-03T12:19:44,9,new,active
1280POA05927,plejpgj,,,Steepleton Road Green,,,,,,Steepleton Road,,,,N-bound,,N,E0040687,Gravel Hill,,,,,,,false,UKOS,401256,95135,-1.98356,50.75581,BCT,MKD,OTH,,,,043,2006-06-12T00:00:00,2021-03-03T12:19:18,9,new,active
1280POA90866,plejwmj,,,Poole Park,,,,,,,,,,SW-bound,,SW,E0057224,Poole,,,,,,,false,UKOS,402445,91234,-1.96673,50.72073,BCT,MKD,OTH,,,,043,2021-04-13T00:00:00,2021-04-13T11:20:12,49,new,active
1280POA90867,plejwmp,,,Greenhaven,,,,,,,,,,N-bound,,N,E0040675,Branksome,Poole,,,,,,false,UKOS,405560,91630,-1.9226,50.72427,BCT,MKD,OTH,,,,043,2021-04-20T00:00:00,2021-04-20T10:41:29,49,new,active
1280POA90868,plejwmt,,,Greenhaven,,,,,,,,,,S-bound,,S,E0040675,Branksome,Poole,,,,,,false,UKOS,405571,91627,-1.92244,50.72424,BCT,MKD,OTH,,,,043,2021-04-20T00:00:00,2021-04-20T10:42:52,49,new,active
1280POA11796,plegjad,,,Worthington Crescent,,,,,,Salterns Road,,,,S-bound,,S,E0040701,Parkstone,Poole,,,,,,false,UKOS,403391,91084,-1.95333,50.71937,BCT,MKD,OTH,,,,043,2006-03-01T00:00:00,2021-07-13T11:38:23,17,new,active
1280POA90870,plejwpa,,,Pound Close,,,,,,,,,,NE-bound,,NE,N0060764,Oakdale,Poole,,,,,,false,UKOS,402663,92513,-1.96363,50.73223,BCT,MKD,OTH,,,,043,2021-07-22T00:00:00,2021-07-28T08:46:18,72,new,active
1280POA90871,plejwpd,,,Pound Close,,,,,,,,,,SW-bound,,SW,N0060764,Oakdale,Poole,,,,,,false,UKOS,402643,92486,-1.96392,50.73198,BCT,MKD,OTH,,,,043,2021-07-22T00:00:00,2021-07-28T08:48:06,68,new,active
1280POA11237,pleawjd,,,Winifred Road,,,,,,Pound Lane,,,,SW-bound,,SW,N0060764,Oakdale,Poole,,,,,,false,UKOS,401999,92081,-1.97304,50.72835,BCT,MKD,OTH,,,,043,2006-01-26T00:00:00,2022-12-09T14:33:35,18,new,active
1280POA11238,pleawja,,,Winifred Road,,,,,,Pound Lane,,,,NE-bound,,NE,N0060764,Oakdale,Poole,,,,,,false,UKOS,401996,92091,-1.97308,50.72844,BCT,MKD,OTH,,,,043,2006-01-26T00:00:00,2022-12-09T14:33:35,18,new,active
1280POA51526,plejtad,,,Mannings Heath Road,,,,,,Mannings Heath Road,,,,SE-bound,,SE,E0040669,Alderney,Poole,,,,,,false,UKOS,404043,94086,-1.94406,50.74637,BCT,MKD,OTH,,,,043,2009-06-10T00:00:00,2024-05-01T11:42:59,74,new,active
1280POA11654,plegtgd,,,Good Shepherd Church,,,,,,Stanfield Road,,,,NE-bound,,NE,E0040703,Rossmore,Poole,,,,,,false,UKOS,404846,93419,-1.93269,50.74036,BCT,MKD,OTH,,,,043,2006-01-26T00:00:00,2024-05-02T17:31:14,2,new,active
1280POA11655,plegtgj,,,Good Shepherd Church,,,,,,Stanfield Road,,,,SW-bound,,SW,E0040703,Rossmore,Poole,,,,,,false,UKOS,404827,93395,-1.93296,50.74015,BCT,MKD,OTH,,,,043,2006-01-26T00:00:00,2024-05-02T17:31:55,1,new,active
1280BCP90001,plejwpg,,,Branksome Chine Seafront,,,,,,,,,,E-bound,,E,E0040678,Canford Cliffs,Poole,,,,,,false,UKOS,406575,89696,-1.90825,50.70686,BCT,MKD,OTH,,,,043,2025-02-28T00:00:00,2025-03-05T15:57:11,51,new,active
1280BCP00001,plejwpj,,,Becket  Crescent,,,,,,,,,,NE-bound,,NE,N0060766,Bearwood,Poole,,,,,,false,UKOS,404473,97054,-1.93793,50.77305,BCT,MKD,OTH,,,,043,2025-04-01T00:00:00,2025-04-01T13:24:21,57,new,active
1280BCP00002,plejwpm,,,Becket Crescent,,,,,,,,,,NW-bound,,NW,N0060766,Bearwood,Poole,,,,,,false,UKOS,404479,97049,-1.93785,50.77301,BCT,MKD,OTH,,,,043,2025-04-01T00:00:00,2025-04-01T13:25:03,55,new,active
1280BCP00003,plejwpt,,,Bohemia Gardens,,,,,,,,,,E-bound,,E,N0060766,Bearwood,Poole,,,,,,false,UKOS,404292,96934,-1.9405,50.77197,BCT,MKD,OTH,,,,043,2025-04-01T00:00:00,2025-04-01T16:54:54,55,new,active
1280BCP00004,plejwpw,,,Bohemia Gardens,,,,,,,,,,W-bound,,W,N0060766,Bearwood,Poole,,,,,,false,UKOS,404253,96909,-1.94105,50.77175,BCT,MKD,OTH,,,,043,2025-04-01T00:00:00,2025-04-01T16:55:22,53,new,active
1280BCP00005,plejwta,,,Beaumaris Road,,,,,,,,,,N-bound,,N,N0060766,Bearwood,Poole,,,,,,false,UKOS,404160,96819,-1.94237,50.77094,BCT,MKD,OTH,,,,043,2025-04-01T00:00:00,2025-04-01T14:28:04,44,new,active
1280BCP00006,plejwtd,,,Beaumaris Road,,,,,,,,,,S-bound,,S,N0060766,Bearwood,Poole,,,,,,false,UKOS,404154,96784,-1.94246,50.77063,BCT,MKD,OTH,,,,043,2025-04-01T00:00:00,2025-04-01T14:25:50,46,new,active
1280POA05808,plejtja,,,Creekmoor P&R,,,,,,Upton Road,,,,NW-bound,,NW,E0040683,Creekmoor,Poole,,,,,,false,UKOS,400307,93087,-1.99701,50.73739,BCT,MKD,OTH,,,,043,2009-06-05T00:00:00,2018-05-02T15:44:29,11,new,active
1280POA05897,plejpaw,,,Stevenson Crescent,,,,,,Kings Avenue,,,,NE-bound,,NE,E0040676,Branksome Park,Poole,,,,,,false,UKOS,405080,91124,-1.9294,50.71972,BCT,MKD,OTH,,,,043,2006-03-03T00:00:00,2015-04-25T12:19:07,0,new,active
1280POA05898,plejpda,,,Kings Avenue,,,,,,Kings Avenue,,,,o/s 24,,NE,E0040676,Branksome Park,Poole,,,,,,false,UKOS,405187,91284,-1.92789,50.72116,BCT,MKD,OTH,,,,043,2006-03-01T00:00:00,2015-04-25T12:19:07,0,new,active
1280POA05899,plejpdg,,,Poole Quarter,,,,,,Seldown Bridge,,,,N-bound,,N,E0057224,Poole,,,,,,,false,UKOS,401682,90552,-1.97754,50.7146,BCT,MKD,OTH,,,,043,2007-11-02T00:00:00,2016-06-23T09:18:20,4,new,active
1280POA05905,plejpdj,,,Upton Country Park,,,,,,Private Grounds,,,,S-bound,,S,N0060762,Upton Country Park,,,,,,,false,UKOS,399188,92893,-2.01287,50.73565,BCT,MKD,OTH,,,,043,2006-03-15T00:00:00,2018-05-02T15:48:17,4,new,active
1280POA05918,plejpdm,,,Kitchener Crescent Top,,,,,,Kitchener Crescent,,,,o/s 79,,E,E0040712,Waterloo Estate,Poole,,,,,,false,UKOS,400777,94777,-1.99035,50.75259,BCT,MKD,OTH,,,,043,2006-06-15T00:00:00,2020-08-20T10:40:11,10,new,active
1280POA05919,plejpdp,,,Kitchener Crescent Top,,,,,,Kitchener Crescent,,,,o/s 136,,W,E0040712,Waterloo Estate,Poole,,,,,,false,UKOS,400775,94770,-1.99038,50.75253,BCT,MKD,OTH,,,,043,2008-10-02T00:00:00,2020-08-20T10:39:57,10,new,active
1280POA05896,plejpat,,,Kings Avenue,,,,,,Kings Avenue,,,,o/s 58,,E,E0040676,Branksome Park,Poole,,,,,,false,UKOS,404879,90998,-1.93225,50.71859,BCT,MKD,OTH,,,,043,2006-03-01T00:00:00,2015-04-25T12:19:07,0,new,active
