ATCOCode,NaptanCode,PlateCode,CleardownCode,CommonName,CommonNameLang,ShortCommonName,ShortCommonNameLang,Landmark,LandmarkLang,Street,StreetLang,Crossing,CrossingLang,Indicator,IndicatorLang,Bearing,NptgLocalityCode,LocalityName,ParentLocalityName,GrandParentLocalityName,Town,TownLang,Suburb,SuburbLang,LocalityCentre,GridType,Easting,Northing,Longitude,Latitude,StopType,BusStopType,TimingStatus,DefaultWaitTime,Notes,NotesLang,AdministrativeAreaCode,CreationDateTime,ModificationDateTime,RevisionNumber,Modification,Status
1290BOMO0,,,,Bournemouth Rail Station,,,,,,,,,,Entrance,,,E0057149,Bournemouth,,,,,,,false,UKOS,409659,91956,-1.86452,50.72715,RSE,,,,,,005,2016-11-10T00:00:00,2016-11-10T10:12:48,15,new,active
1290POKSDWN0,,,,Pokesdown Rail Station,,,,,,,,,,Entrance,,,E0035383,Pokesdown,Bournemouth,,,,,,false,UKOS,412440,92400,-1.8251,50.73109,RSE,,,,,,005,2015-11-12T00:00:00,2015-11-12T15:44:59,1,new,active
1290MSB0,,,,Hengistbury Head Ferry Landing,,,,,,,,,,Entrance,,,E0035387,Southbourne,Bournemouth,,,,,,false,UKOS,418195,91174,-1.74362,50.71991,FTD,,,,,,005,2014-06-24T00:00:00,2014-06-24T14:33:23,10,new,active
1290TUK0,,,,Tea Gardens Ferry Landing,,,,,,,,,,Entrance,,,E0035395,Tuckton,Bournemouth,,,,,,false,UKOS,415058,92223,-1.78801,50.72943,FTD,,,,,,005,2011-03-09T00:00:00,2011-03-09T15:52:17,0,new,active
1290WIC0,,,,Ferry Landing,,,,,,,,,,Entrance,,,E0035401,Wick,Christchurch,,,,,,false,UKOS,415551,92179,-1.78103,50.72902,FTD,,,,,,005,2011-03-09T00:00:00,2011-03-09T15:52:17,0,new,active
1290DOB21086,boudjpm,,,Lowther Road,,,,,,Charminster Road,,,,SW-bound,,SW,E0035367,Charminster,Bournemouth,,,,,,false,UKOS,409263,92711,-1.87011,50.73394,BCT,MKD,OTH,,,,005,2006-05-23T00:00:00,2021-07-07T13:30:46,0,new,active
1290DOB21087,boudjmp,,,Lowther Road,,,,,,Charminster Road,,,,NE-bound,,NE,E0035367,Charminster,Bournemouth,,,,,,false,UKOS,409266,92727,-1.87007,50.73409,BCT,MKD,OTH,,,,005,2007-06-20T00:00:00,2021-07-07T13:30:46,0,new,active
1290DOB21104,boudmjp,,,Charminster Avenue Parade,,,,,,Charminster Avenue,,,,N-bound,,N,E0035367,Charminster,Bournemouth,,,,,,false,UKOS,409583,94355,-1.86553,50.74872,BCT,MKD,OTH,,,,005,2006-11-24T00:00:00,2023-06-05T16:00:10,37,new,active
1290DOB21105,boudmpd,,,Charminster Avenue Parade,,,,,,Charminster Avenue,,,,S-bound,,S,E0035367,Charminster,Bournemouth,,,,,,false,UKOS,409597,94348,-1.86533,50.74866,BCT,MKD,OTH,,,,005,2007-04-02T00:00:00,2023-06-05T16:00:38,38,new,active
1290DOB21108,boudpmj,,,St Francis Church,,,,,,Charminster Road,,,,S-bound,,S,E0035367,Charminster,Bournemouth,,,,,,false,UKOS,409902,94311,-1.86101,50.74832,BCT,MKD,OTH,,,,005,2007-03-23T00:00:00,2015-07-10T12:02:54,7,new,active
1290DOB21109,boudpmg,,,St Francis Church,,,,,,Charminster Road,,,,N-bound,,N,E0035367,Charminster,Bournemouth,,,,,,false,UKOS,409889,94290,-1.8612,50.74813,BCT,MKD,OTH,,,,005,2007-03-23T00:00:00,2021-07-07T13:30:46,0,new,active
1290DOB21111,boudptj,,,Uplands Road,,,,,,Charminster Road,,,,N-bound,,N,E0035367,Charminster,Bournemouth,,,,,,false,UKOS,409949,94635,-1.86034,50.75123,BCT,MKD,OTH,,,,005,2006-05-23T00:00:00,2020-02-25T08:31:53,0,new,active
1290DOB21110,boudptm,,,Uplands Road,,,,,,Charminster Road,,,,S-bound,,S,E0035367,Charminster,Bournemouth,,,,,,false,UKOS,409950,94594,-1.86032,50.75086,BCT,MKD,OTH,,,,005,2006-05-23T00:00:00,2020-02-25T08:31:53,0,new,active
1290DOB21100,boudjwj,,,Shirley Road,,,,,,Gresham Road,,,,E-bound,,E,E0035402,Winton,Bournemouth,,,,,,false,UKOS,409385,94166,-1.86834,50.74702,BCT,MKD,OTH,,,,005,2009-06-10T00:00:00,2020-07-29T11:22:30,2,new,active
1290DOB21099,boudjtj,,,Shirley Road,,,,,,Gresham Road,,,,W-bound,,W,E0035402,Winton,Bournemouth,,,,,,false,UKOS,409337,94172,-1.86902,50.74708,BCT,MKD,OTH,,,,005,2006-11-24T00:00:00,2020-07-29T11:23:02,2,new,active
1290DOB21101,boudmaj,,,Southill Road,,,,,,Gresham Road,,,,W-bound,,W,E0035402,Winton,Bournemouth,,,,,,false,UKOS,409428,94150,-1.86773,50.74688,BCT,MKD,OTH,,,,005,2006-11-24T00:00:00,2020-02-25T08:31:53,0,new,active
1290DOB21102,boudmtw,,,Gresham Road,,,,,,Gresham Road,,,,E-bound,,E,E0035367,Charminster,Bournemouth,,,,,,false,UKOS,409621,94129,-1.865,50.74669,BCT,MKD,OTH,,,,005,2009-06-10T00:00:00,2020-02-25T08:31:53,0,new,active
1290DOB21103,boudmwj,,,Gresham Road,,,,,,Charminster Avenue,,,,S-bound,,S,E0035367,Charminster,Bournemouth,,,,,,false,UKOS,409650,94156,-1.86459,50.74693,BCT,MKD,OTH,,,,005,2006-11-24T00:00:00,2020-02-25T08:31:53,0,new,active
1290BOB20088,bouajag,,,Fernheath Road,,,,,,Turbary Park Avenue,,,,W-bound,,W,N0077768,Turbary Common,Bournemouth,,,,,,false,UKOS,406428,94833,-1.91024,50.75306,BCT,MKD,OTH,,,,005,2005-10-21T00:00:00,2021-07-07T13:30:46,0,new,active
1290BOB20089,bouajaw,,,Fernheath Road,,,,,,Turbary Park Avenue,,,,E-bound,,E,N0077768,Turbary Common,Bournemouth,,,,,,false,UKOS,406453,94852,-1.90989,50.75323,BCT,MKD,OTH,,,,005,2005-10-21T00:00:00,2021-07-07T13:30:46,0,new,active
1290BOB20090,bouajgp,,,Turbary Park Centre,,,,,,Turbary Park Avenue,,,,SE-bound,,SE,N0077768,Turbary Common,Bournemouth,,,,,,false,UKOS,406634,94806,-1.90732,50.75282,BCT,MKD,OTH,,,,005,2006-05-16T00:00:00,2023-02-02T15:35:17,43,new,active
1290BOB20091,bouajmp,,,Turbary Park Centre,,,,,,Turbary Park Avenue,,,,o/s 3,,NW,N0077768,Turbary Common,Bournemouth,,,,,,false,UKOS,406708,94749,-1.90628,50.7523,BCT,MKD,OTH,,,,005,2006-05-16T00:00:00,2023-02-02T15:34:55,39,new,active
1290BOB20093,bouajdp,,,Liberal Club,,,,,,Canford Avenue,,,,E-bound,,E,E0040711,Wallisdown,Poole,,,,,,false,UKOS,406495,94420,-1.9093,50.74935,BCT,MKD,OTH,,,,005,2006-05-16T00:00:00,2021-07-07T13:30:46,0,new,active
1290BOB20092,bouajgd,,,Liberal Club,,,,,,Canford Avenue,,,,W-bound,,W,E0040711,Wallisdown,Poole,,,,,,false,UKOS,406530,94399,-1.90881,50.74916,BCT,MKD,OTH,,,,005,2006-05-16T00:00:00,2021-07-07T13:30:46,0,new,active
1290BOB20095,bouagpt,,,Sunnymoor Road,,,,,,Canford Avenue,,,,W-bound,,W,E0040711,Wallisdown,Poole,,,,,,false,UKOS,406223,94512,-1.91316,50.75018,BCT,MKD,OTH,,,,005,2009-06-10T00:00:00,2023-02-02T15:29:41,41,new,active
1290BOB20094,bouagtm,,,Sunnymoor Road,,,,,,Canford Avenue,,,,SE-bound,,SE,E0040711,Wallisdown,Poole,,,,,,false,UKOS,406257,94507,-1.91267,50.75013,BCT,MKD,OTH,,,,005,2006-05-16T00:00:00,2023-02-02T15:29:21,37,new,active
1290BOB20082,bouadwp,,,Turbary Common Gate,,,,,,Turbary Park Avenue,,,,NW-bound,,NW,N0077768,Turbary Common,Bournemouth,,,,,,false,UKOS,405842,95026,-1.91855,50.7548,BCT,MKD,OTH,,,,005,2006-05-16T00:00:00,2021-07-07T13:30:46,0,new,active
1290BOB20083,bouagag,,,Turbary Common Gate,,,,,,Turbary Park Avenue,,,,SE-bound,,SE,N0077768,Turbary Common,Bournemouth,,,,,,false,UKOS,405872,95010,-1.91812,50.75466,BCT,MKD,OTH,,,,005,2006-05-16T00:00:00,2021-07-07T13:30:46,0,new,active
1290BOB20085,bouagjt,,,Turbary Park Flats,,,,,,Turbary Park Avenue,,,,o/s 98,,E,N0077768,Turbary Common,Bournemouth,,,,,,false,UKOS,406054,94917,-1.91554,50.75382,BCT,MKD,OTH,,,,005,2006-05-16T00:00:00,2021-07-07T13:30:46,0,new,active
1290BOB20084,bouagjg,,,Turbary Park Flats,,,,,,Turbary Park Avenue,,,,opp 100,,W,N0077768,Turbary Common,Bournemouth,,,,,,false,UKOS,406020,94918,-1.91603,50.75383,BCT,MKD,OTH,,,,005,2006-05-16T00:00:00,2021-07-07T13:30:46,0,new,active
1290BOB20086,bouagpw,,,Lydford Road,,,,,,Turbary Park Avenue,,,,W-bound,,W,N0077768,Turbary Common,Bournemouth,,,,,,false,UKOS,406221,94850,-1.91318,50.75322,BCT,MKD,OTH,,,,005,2005-10-21T00:00:00,2021-07-07T13:30:46,0,new,active
1290BOB20087,bouagtj,,,Lydford Road,,,,,,Turbary Park Avenue,,,,E-bound,,E,N0077768,Turbary Common,Bournemouth,,,,,,false,UKOS,406250,94853,-1.91277,50.75324,BCT,MKD,OTH,,,,005,2005-10-21T00:00:00,2021-07-07T13:30:46,0,new,active
1290BOB20106,bouagdm,,,Gladdis Road,,,,,,Mandale Road,,,,NE-bound,,NE,N0077768,Turbary Common,Bournemouth,,,,,,false,UKOS,405952,95499,-1.91698,50.75906,BCT,MKD,OTH,,,,005,2006-05-16T00:00:00,2021-07-07T13:30:46,0,new,active
1290BOB20102,bouagaw,,,Gladdis Road,,,,,,Mandale Road,,,,SW-bound,,SW,N0077768,Turbary Common,Bournemouth,,,,,,false,UKOS,405921,95432,-1.91742,50.75845,BCT,MKD,OTH,,,,005,2006-05-16T00:00:00,2021-07-07T13:30:46,0,new,active
1290BOB20109,bouagdw,,,Springwater Road,,,,,,Maclean Road,,,,NE-bound,,NE,N0077768,Turbary Common,Bournemouth,,,,,,false,UKOS,406012,95423,-1.91613,50.75837,BCT,MKD,OTH,,,,005,2006-05-16T00:00:00,2023-10-11T07:41:54,37,new,active
1290BOB20110,bouagdt,,,Springwater Road,,,,,,Maclean Road,,,,SW-bound,,SW,N0077768,Turbary Common,Bournemouth,,,,,,false,UKOS,406001,95392,-1.91629,50.75809,BCT,MKD,OTH,,,,005,2006-05-16T00:00:00,2023-10-11T07:42:27,37,new,active
1290BOB20097,bouagjd,,,Tozer Close,,,,,,Canford Avenue,,,,NE-bound,,NE,E0040711,Wallisdown,Poole,,,,,,false,UKOS,406015,94489,-1.9161,50.74997,BCT,MKD,OTH,,,,005,2005-10-21T00:00:00,2021-07-07T13:30:46,0,new,active
1290BOB20096,bouagja,,,Tozer Close,,,,,,Canford Avenue,,,,SW-bound,,SW,E0040711,Wallisdown,Poole,,,,,,false,UKOS,406012,94460,-1.91615,50.74971,BCT,MKD,OTH,,,,005,2005-10-21T00:00:00,2021-07-07T13:30:46,0,new,active
1290BOB20099,bouadtw,,,Evans Close,,,,,,Canford Avenue,,,,NW-bound,,NW,E0040711,Wallisdown,Poole,,,,,,false,UKOS,405772,94511,-1.91955,50.75017,BCT,MKD,OTH,,,,005,2005-10-21T00:00:00,2021-07-07T13:30:46,0,new,active
1290BOB20098,bouadwg,,,Evans Close,,,,,,Canford Avenue,,,,SE-bound,,SE,E0040711,Wallisdown,Poole,,,,,,false,UKOS,405819,94494,-1.91888,50.75002,BCT,MKD,OTH,,,,005,2005-10-21T00:00:00,2021-07-07T13:30:46,0,new,active
1290BOB20100,bouadpg,,,Benbow Crescent,,,,,,Canford Avenue,,,,NE-bound,,NE,E0040711,Wallisdown,Poole,,,,,,false,UKOS,405637,94465,-1.92146,50.74976,BCT,MKD,OTH,,,,005,2006-05-16T00:00:00,2021-07-07T13:30:46,0,new,active
1290BOB20060,bouagda,,,Cornerstone Church,,,,,,Holloway Avenue,,,,W-bound,,W,E0035363,Bear Cross,,,,,,,false,UKOS,405936,96072,-1.9172,50.76421,BCT,MKD,OTH,,,,005,2006-05-16T00:00:00,2021-03-03T13:05:31,8,new,active
1290BOA05702,bougtag,,,Cornerstone Church,,,,,,,,,,N-bound,,N,E0035363,Bear Cross,,,,,,,false,UKOS,405988,96091,-1.91646,50.76438,BCT,MKD,OTH,,,,005,2008-06-01T00:00:00,2023-12-22T10:27:08,42,new,active
1290BOB20061,bouagjm,,,Cornerstone Church,,,,,,Holloway Avenue,,,,E-bound,,E,E0035363,Bear Cross,,,,,,,false,UKOS,406031,96060,-1.91585,50.7641,BCT,MKD,OTH,,,,005,2009-06-10T00:00:00,2021-03-03T13:05:09,12,new,active
1290BOB20062,bouagmp,,,Elm Academy,,,,,,Holloway Avenue,,,,SE-bound,,SE,E0035363,Bear Cross,,,,,,,false,UKOS,406135,95997,-1.91438,50.76353,BCT,MKD,OTH,,,,005,2006-05-16T00:00:00,2022-04-26T09:49:02,10,new,active
1290BOB20063,bouagmw,,,Elm Academy,,,,,,Holloway Avenue,,,,NW-bound,,NW,E0035363,Bear Cross,,,,,,,false,UKOS,406153,95962,-1.91412,50.76322,BCT,MKD,OTH,,,,005,2009-06-10T00:00:00,2022-04-26T09:49:26,6,new,active
1290BOB20064,bouamag,,,Oxford Lane,,,,,,Poole Lane,,,,S-bound,,S,E0035377,Kinson,Bournemouth,,,,,,false,UKOS,406899,96549,-1.90354,50.76849,BCT,MKD,OTH,,,,005,2006-05-16T00:00:00,2021-07-07T13:30:46,0,new,active
1290BOB20065,bouajwp,,,Oxford Lane,,,,,,Poole Lanee,,,,N-bound,,N,E0035377,Kinson,Bournemouth,,,,,,false,UKOS,406884,96538,-1.90375,50.76839,BCT,MKD,OTH,,,,005,2006-05-16T00:00:00,2021-07-07T13:30:46,0,new,active
1290BOB20067,bouajgw,,,Great Oaks,,,,,,Poole Lane,,,,S-bound,,S,E0035377,Kinson,Bournemouth,,,,,,false,UKOS,406656,96265,-1.90699,50.76594,BCT,MKD,OTH,,,,005,2006-05-16T00:00:00,2022-11-29T13:22:05,6,new,active
1290BOB20066,bouajmj,,,Great Oaks,,,,,,Poole Lane,,,,NE-bound,,NE,E0035377,Kinson,Bournemouth,,,,,,false,UKOS,406685,96371,-1.90657,50.76689,BCT,MKD,OTH,,,,005,2006-05-16T00:00:00,2022-11-29T13:21:48,6,new,active
1290BOB20055,bouadwm,,,Anchor Road Parade,,,,,,Anchor Road,,,,E-bound,,E,E0035363,Bear Cross,,,,,,,false,UKOS,405834,96444,-1.91864,50.76755,BCT,MKD,OTH,,,,005,2006-05-16T00:00:00,2022-11-29T13:24:06,6,new,active
1290BOB20054,bouagap,,,Anchor Road Parade,,,,,,Anchor Road,,,,W-bound,,W,E0035363,Bear Cross,,,,,,,false,UKOS,405883,96412,-1.91795,50.76727,BCT,MKD,OTH,,,,005,2006-05-16T00:00:00,2022-11-29T13:24:32,6,new,active
1290BOB20056,bouadpt,,,Milford Drive,,,,,,Anchor Road,,,,SW-bound,,SW,E0035363,Bear Cross,,,,,,,false,UKOS,405693,96256,-1.92064,50.76587,BCT,MKD,OTH,,,,005,2006-05-16T00:00:00,2020-02-25T08:31:53,0,new,active
1290BOB20057,bouadpm,,,Milford Drive,,,,,,Anchor Road,,,,NE-bound,,NE,E0035363,Bear Cross,,,,,,,false,UKOS,405681,96253,-1.92081,50.76584,BCT,MKD,OTH,,,,005,2006-05-16T00:00:00,2020-02-25T08:31:53,0,new,active
1290BOB20075,bouagdp,,,Dental Surgery,,,,,,Poole Lane,,,,W-bound,,W,N0077768,Turbary Common,Bournemouth,,,,,,false,UKOS,405964,95690,-1.91681,50.76077,BCT,MKD,OTH,,,,005,2006-05-16T00:00:00,2020-02-25T08:31:54,0,new,active
1290BOB20074,bouagjp,,,Dental Surgery,,,,,,Poole Lane,,,,NE-bound,,NE,N0077768,Turbary Common,Bournemouth,,,,,,false,UKOS,406033,95731,-1.91583,50.76114,BCT,MKD,OTH,,,,005,2006-05-16T00:00:00,2020-02-25T08:31:54,0,new,active
1290BOB20079,bouadmw,,,Turbary Park Avenue,,,,,,Poole Lane,,,,SW-bound,,SW,N0077768,Turbary Common,Bournemouth,,,,,,false,UKOS,405567,95556,-1.92244,50.75957,BCT,MKD,OTH,,,,005,2005-10-21T00:00:00,2020-02-25T08:31:54,0,new,active
1290BOB20078,bouadmt,,,Turbary Park Avenue,,,,,,Poole Lane,,,,NE-bound,,NE,N0077768,Turbary Common,Bournemouth,,,,,,false,UKOS,405555,95560,-1.92261,50.75961,BCT,MKD,OTH,,,,005,2005-10-21T00:00:00,2020-02-25T08:31:54,0,new,active
1290BOB20101,bouadtm,,,Mandale Road Top,,,,,,Mandale Road,,,,NE-bound,,NE,N0077768,Turbary Common,Bournemouth,,,,,,false,UKOS,405752,95262,-1.91982,50.75693,BCT,MKD,OTH,,,,005,2006-05-16T00:00:00,2021-07-07T13:30:46,0,new,active
1290BOB20081,bouadtj,,,Mandale Road Top,,,,,,Turbary Park Avenue,,,,SE-bound,,SE,N0077768,Turbary Common,Bournemouth,,,,,,false,UKOS,405756,95215,-1.91976,50.7565,BCT,MKD,OTH,,,,005,2009-06-10T00:00:00,2021-07-07T13:30:46,0,new,active
1290BOA90838,bougtwm,,,Mandale Road Top,,,,,,Turbary Park Avenue,,,,NW-bound,,NW,N0077768,Turbary Common,Bournemouth,,,,,,false,UKOS,405721,95253,-1.92026,50.75685,BCT,CUS,OTH,,,,005,2020-07-16T00:00:00,2020-07-16T11:48:51,14,new,active
1290BOB20068,bouajgm,,,Durdells Avenue,,,,,,Poole Lane,,,,NE-bound,,NE,E0035377,Kinson,Bournemouth,,,,,,false,UKOS,406591,96154,-1.90791,50.76494,BCT,MKD,OTH,,,,005,2006-05-16T00:00:00,2021-07-07T13:30:46,0,new,active
1290BOB20069,bouajgj,,,Durdells Avenue,,,,,,Poole Lane,,,,SW-bound,,SW,E0035377,Kinson,Bournemouth,,,,,,false,UKOS,406533,96073,-1.90873,50.76421,BCT,MKD,OTH,,,,005,2006-05-16T00:00:00,2021-07-07T13:30:46,0,new,active
1290BOB20071,bouagwt,,,Mayfair Gardens,,,,,,Poole Lane,,,,SW-bound,,SW,E0035377,Kinson,Bournemouth,,,,,,false,UKOS,406369,95963,-1.91106,50.76322,BCT,MKD,OTH,,,,005,2006-05-16T00:00:00,2021-07-07T13:30:46,0,new,active
1290BOB20070,bouajaj,,,Mayfair Gardens,,,,,,Poole Lane,,,,NE-bound,,NE,E0035377,Kinson,Bournemouth,,,,,,false,UKOS,406429,96010,-1.91021,50.76365,BCT,MKD,OTH,,,,005,2006-05-16T00:00:00,2021-07-07T13:30:46,0,new,active
1290BOB20073,bouagpd,,,April Close,,,,,,Poole Lane,,,,NE-bound,,NE,N0077768,Turbary Common,Bournemouth,,,,,,false,UKOS,406192,95826,-1.91357,50.76199,BCT,MKD,OTH,,,,005,2006-05-16T00:00:00,2020-02-25T08:31:53,0,new,active
1290BOB20072,bouagta,,,April Close,,,,,,Poole Lane,,,,SW-bound,,SW,N0077768,Turbary Common,Bournemouth,,,,,,false,UKOS,406221,95836,-1.91316,50.76208,BCT,MKD,OTH,,,,005,2006-05-16T00:00:00,2020-02-25T08:31:53,0,new,active
1290BOB20210,bougmjp,,,Broadway Shops,,,,,,Broadway,,,,SE-bound,,SE,E0035387,Southbourne,Bournemouth,,,,,,false,UKOS,415526,91455,-1.78142,50.72251,BCT,MKD,OTH,,,,005,2006-05-17T00:00:00,2021-07-07T13:30:46,0,new,active
1290BOB20211,bougmjm,,,Broadway Shops,,,,,,Broadway,,,,NW-bound,,NW,E0035387,Southbourne,Bournemouth,,,,,,false,UKOS,415501,91456,-1.78177,50.72252,BCT,MKD,OTH,,,,005,2006-05-17T00:00:00,2021-07-07T13:30:46,0,new,active
1290BOB20212,bougmpa,,,Hengistbury Head,,,,,,Broadway,,,,W-bound,,W,E0035387,Southbourne,Bournemouth,,,,,,false,UKOS,416407,91120,-1.76895,50.71948,BCT,MKD,OTH,,,,005,2007-06-21T00:00:00,2020-07-16T12:09:59,28,new,active
1290BOB20214,bougmjt,,,St Nicholas Church,,,,,,Southbourne Coast Road,,,,NE-bound,,NE,E0035387,Southbourne,Bournemouth,,,,,,false,UKOS,415725,91219,-1.77861,50.72039,BCT,MKD,OTH,,,,005,2007-06-21T00:00:00,2015-04-25T12:20:01,0,new,active
1290BOB20213,bougmjw,,,St Nicholas Church,,,,,,Southbourne Coast Road,,,,SW-bound,,SW,E0035387,Southbourne,Bournemouth,,,,,,false,UKOS,415746,91223,-1.77831,50.72042,BCT,MKD,OTH,,,,005,2007-06-21T00:00:00,2020-07-16T12:13:38,10,new,active
1290BOB20216,bougmgj,,,Ocean Point,,,,,,Dalmeny Road,,,,NW-bound,,NW,E0035387,Southbourne,Bournemouth,,,,,,false,UKOS,415293,91033,-1.78473,50.71873,BCT,MKD,OTH,,,,005,2007-06-21T00:00:00,2022-07-04T15:12:01,6,new,active
1290BOB20215,bougmja,,,Ocean Point,,,,,,Southbourne Coast Road,,,,E-bound,,E,E0035387,Southbourne,Bournemouth,,,,,,false,UKOS,415394,91041,-1.7833,50.71879,BCT,MKD,OTH,,,,005,2007-06-21T00:00:00,2022-07-04T15:11:46,6,new,active
1290BOB20217,bougmgm,,,Hengistbury Road,,,,,,Harbour Road,,,,NE-bound,,NE,E0035387,Southbourne,Bournemouth,,,,,,false,UKOS,415355,91159,-1.78385,50.71986,BCT,MKD,OTH,,,,005,2007-06-21T00:00:00,2021-07-07T13:30:46,0,new,active
1290BOB20218,bougmgt,,,Hengistbury Road,,,,,,Harbour Road,,,,SW-bound,,SW,E0035387,Southbourne,Bournemouth,,,,,,false,UKOS,415381,91174,-1.78348,50.71999,BCT,MKD,OTH,,,,005,2006-05-17T00:00:00,2021-07-07T13:30:46,0,new,active
1290BOB20202,bougmda,,,Tuckton Bridge,,,,,,Stour Road,,,,N-bound,,N,E0035395,Tuckton,Bournemouth,,,,,,false,UKOS,414906,92193,-1.79017,50.72917,BCT,MKD,OTH,,,,005,2007-06-21T00:00:00,2021-07-07T13:30:46,0,new,active
1290BOB20197,bougmat,,,Tuckton Bridge,,,,,,Tuckton Road,,,,W-bound,,W,E0035395,Tuckton,Bournemouth,,,,,,false,UKOS,414860,92115,-1.79082,50.72847,BCT,MKD,OTH,,,,005,2007-02-28T00:00:00,2020-02-25T08:31:54,0,new,active
1290BOB20203,bougmaw,,,Tuckton Bridge,,,,,,Belle Vue Road,,,,SW-bound,,SW,E0035395,Tuckton,Bournemouth,,,,,,false,UKOS,414873,92060,-1.79064,50.72797,BCT,MKD,OTH,,,,005,2007-06-21T00:00:00,2021-07-07T13:30:46,0,new,active
1290BOB20205,bougmam,,,Brightlands Avenue,,,,,,Broadway,,,,SE-bound,,SE,E0035387,Southbourne,Bournemouth,,,,,,false,UKOS,414838,91959,-1.79114,50.72706,BCT,MKD,OTH,,,,005,2009-06-10T00:00:00,2020-07-16T12:07:08,3,new,active
1290BOB20206,bougmdt,,,Nugent Road,,,,,,Broadway,,,,NW-bound,,NW,E0035387,Southbourne,Bournemouth,,,,,,false,UKOS,415107,91751,-1.78734,50.72519,BCT,MKD,OTH,,,,005,2006-05-17T00:00:00,2020-07-16T12:08:45,2,new,active
1290BOB20207,bougmdw,,,Nugent Road,,,,,,Broadway,,,,SE-bound,,SE,E0035387,Southbourne,Bournemouth,,,,,,false,UKOS,415161,91728,-1.78658,50.72498,BCT,MKD,OTH,,,,005,2009-06-10T00:00:00,2020-07-16T12:08:31,3,new,active
1290BOB20208,bougmgw,,,Kingsley Avenue,,,,,,Broadway,,,,SE-bound,,SE,E0035387,Southbourne,Bournemouth,,,,,,false,UKOS,415385,91560,-1.78341,50.72346,BCT,MKD,OTH,,,,005,2009-06-10T00:00:00,2021-07-07T13:30:46,0,new,active
1290BOB20209,bougmgp,,,Kingsley Avenue,,,,,,Broadway,,,,NW-bound,,NW,E0035387,Southbourne,Bournemouth,,,,,,false,UKOS,415377,91547,-1.78352,50.72335,BCT,MKD,OTH,,,,005,2009-06-10T00:00:00,2021-07-07T13:30:46,0,new,active
1290BOB20228,bougjtd,,,Church Road,,,,,,Belle Vue Road,,,,SW-bound,,SW,E0035387,Southbourne,Bournemouth,,,,,,false,UKOS,414503,91398,-1.79591,50.72203,BCT,MKD,OTH,,,,005,2006-05-17T00:00:00,2021-07-07T13:30:46,0,new,active
1290BOB20244,bougjtj,,,Church Road,,,,,,Church Road,,,,E-bound,,E,E0035387,Southbourne,Bournemouth,,,,,,false,UKOS,414560,91401,-1.7951,50.72205,BCT,MKD,OTH,,,,005,2007-06-21T00:00:00,2021-07-07T13:30:46,0,new,active
1290BOB20229,bougjpm,,,Belle Vue Mansions,,,,,,Belle Vue Road,,,,E-bound,,E,E0035387,Southbourne,Bournemouth,,,,,,false,UKOS,414398,91371,-1.7974,50.72179,BCT,MKD,OTH,,,,005,2007-06-21T00:00:00,2021-07-07T13:30:46,0,new,active
1290BOB20245,bougjmw,,,St Catherines Slope,,,,,,Southbourne Overcliff Drive,,,,W-bound,,W,E0035387,Southbourne,Bournemouth,,,,,,false,UKOS,414252,91239,-1.79947,50.7206,BCT,MKD,OTH,,,,005,2007-06-21T00:00:00,2023-03-16T15:14:02,65,new,active
1290BOB20230,bougjpt,,,St Catherines Slope,,,,,,Southbourne Coast Road,,,,E-bound,,E,E0035387,Southbourne,Bournemouth,,,,,,false,UKOS,414405,91223,-1.79731,50.72046,BCT,MKD,OTH,,,,005,2007-06-21T00:00:00,2023-04-21T13:20:31,50,new,active
1290BOB20232,bougjwm,,,Warren Edge Close,,,,,,Southbourne Coast Road,,,,E-bound,,E,E0035387,Southbourne,Bournemouth,,,,,,false,UKOS,414733,91152,-1.79266,50.71981,BCT,MKD,OTH,,,,005,2007-06-21T00:00:00,2015-04-25T12:20:01,0,new,active
1290BOB20233,bougjwt,,,Warren Edge Close,,,,,,Southbourne Coast Road,,,,W-bound,,W,E0035387,Southbourne,Bournemouth,,,,,,false,UKOS,414759,91131,-1.79229,50.71962,BCT,MKD,OTH,,,,005,2007-06-21T00:00:00,2015-04-25T12:20:05,0,new,active
1290BOB20220,bougmjg,,,Baring Road,,,,,,Harbour Road,,,,SW-bound,,SW,E0035387,Southbourne,Bournemouth,,,,,,false,UKOS,415480,91312,-1.78207,50.72123,BCT,MKD,OTH,,,,005,2007-06-21T00:00:00,2021-07-07T13:30:46,0,new,active
1290BOB20219,bougmjd,,,Baring Road,,,,,,Harbour Road,,,,NE-bound,,NE,E0035387,Southbourne,Bournemouth,,,,,,false,UKOS,415449,91288,-1.78251,50.72101,BCT,MKD,OTH,,,,005,2007-06-21T00:00:00,2021-07-07T13:30:46,0,new,active
1290BOB20222,bougmag,,,Broadway,,,,,,Belle Vue Road,,,,SW-bound,,SW,E0035387,Southbourne,Bournemouth,,,,,,false,UKOS,414793,91947,-1.79178,50.72696,BCT,MKD,OTH,,,,005,2007-06-21T00:00:00,2020-02-25T08:31:54,0,new,active
1290BOA05343,bougptw,,,Belle Vue Crescent,,,,,,Belle Vue Road,,,,NE-bound,,NE,E0035387,Southbourne,Bournemouth,,,,,,false,UKOS,414634,91737,-1.79404,50.72507,BCT,MKD,OTH,,,,005,2007-06-05T00:00:00,2020-02-25T08:31:54,0,new,active
1290BOB20223,bougjwd,,,Belle Vue Crescent,,,,,,Belle Vue Road,,,,SW-bound,,SW,E0035387,Southbourne,Bournemouth,,,,,,false,UKOS,414664,91766,-1.79362,50.72533,BCT,MKD,OTH,,,,005,2007-06-21T00:00:00,2020-02-25T08:31:54,0,new,active
1290BOB20224,bougjtp,,,Twynham Road,,,,,,Belle Vue Road,,,,S-bound,,S,E0035387,Southbourne,Bournemouth,,,,,,false,UKOS,414596,91554,-1.79459,50.72343,BCT,MKD,OTH,,,,005,2007-06-21T00:00:00,2020-02-25T08:31:54,0,new,active
1290BOB20225,bougjtg,,,Twynham Road,,,,,,Belle Vue Road,,,,NE-bound,,NE,E0035387,Southbourne,Bournemouth,,,,,,false,UKOS,414559,91491,-1.79511,50.72286,BCT,MKD,OTH,,,,005,2007-06-21T00:00:00,2021-07-07T13:30:46,0,new,active
1290BOB20121,bouagpm,,,Moore Avenue Park,,,,,,Springwater Road,,,,W-bound,,W,N0077768,Turbary Common,Bournemouth,,,,,,false,UKOS,406208,95357,-1.91335,50.75778,BCT,MKD,OTH,,,,005,2006-05-16T00:00:00,2023-10-11T07:51:24,37,new,active
1290BOB20122,bouagtp,,,Moore Avenue Park,,,,,,Moore Avenue,,,,N-bound,,N,N0077768,Turbary Common,Bournemouth,,,,,,false,UKOS,406260,95417,-1.91262,50.75832,BCT,MKD,OTH,,,,005,2006-05-16T00:00:00,2023-10-11T07:44:54,35,new,active
1290BOB20124,bouagwg,,,Cunningham Place,,,,,,Moore Avenue,,,,SW-bound,,SW,N0077768,Turbary Common,Bournemouth,,,,,,false,UKOS,406327,95498,-1.91166,50.75904,BCT,MKD,OTH,,,,005,2006-05-16T00:00:00,2016-12-06T14:13:21,4,new,active
1290BOB20129,bouagwm,,,Cunningham Place,,,,,,Cunningham Close,,,,NW-bound,,NW,N0077768,Turbary Common,Bournemouth,,,,,,false,UKOS,406349,95440,-1.91135,50.75852,BCT,MKD,OTH,,,,005,2005-10-21T00:00:00,2016-12-06T14:13:41,4,new,active
1290BOA90802,bougpmw,,,St Philips Church,,,,,,Moore Avenue,,,,NE-bound,,NE,N0077768,Turbary Common,Bournemouth,,,,,,false,UKOS,406378,95607,-1.91094,50.76002,BCT,MKD,OTH,,,,005,2007-02-26T00:00:00,2021-07-07T13:30:46,0,new,active
1290BOB20125,bouajam,,,St Philips Church,,,,,,Moore Avenue,,,,S-bound,,S,N0077768,Turbary Common,Bournemouth,,,,,,false,UKOS,406431,95695,-1.91019,50.76081,BCT,MKD,OTH,,,,005,2005-10-21T00:00:00,2021-07-07T13:30:46,0,new,active
1290BOB20126,bouagwp,,,Rochester Road,,,,,,Moore Avenue,,,,W-bound,,W,N0077768,Turbary Common,Bournemouth,,,,,,false,UKOS,406365,95749,-1.91112,50.7613,BCT,MKD,OTH,,,,005,2006-05-16T00:00:00,2019-12-18T15:55:01,8,new,active
1290BOB20111,bouagam,,,Maclean Road Green,,,,,,Maclean Road,,,,o/s 88,,N,N0077768,Turbary Common,Bournemouth,,,,,,false,UKOS,405873,95208,-1.91811,50.75644,BCT,MKD,OTH,,,,005,2006-05-16T00:00:00,2020-07-16T11:52:31,10,new,active
1290BOB20112,bouagdj,,,Batchelor Road,,,,,,Maclean Road,,,,NW-bound,,NW,N0077768,Turbary Common,Bournemouth,,,,,,false,UKOS,405928,95069,-1.91733,50.75519,BCT,MKD,OTH,,,,005,2006-05-16T00:00:00,2020-02-25T08:31:53,0,new,active
1290BOB20113,bouagdg,,,Batchelor Road,,,,,,Maclean Road,,,,SE-bound,,SE,N0077768,Turbary Common,Bournemouth,,,,,,false,UKOS,405944,95068,-1.9171,50.75518,BCT,MKD,OTH,,,,005,2006-05-16T00:00:00,2020-07-16T11:54:19,5,new,active
1290BOB20114,bouagmt,,,Coleman Road,,,,,,Coleman Road,,,,o/s 29,,SW,N0077768,Turbary Common,Bournemouth,,,,,,false,UKOS,406145,95048,-1.91425,50.755,BCT,MKD,OTH,,,,005,2006-05-16T00:00:00,2016-06-24T11:52:09,6,new,active
1290BOB20115,bouagpg,,,Coleman Road,,,,,,Fernheath Road,,,,SE-bound,,SE,N0077768,Turbary Common,Bournemouth,,,,,,false,UKOS,406195,95089,-1.91354,50.75537,BCT,MKD,OTH,,,,005,2006-05-16T00:00:00,2020-02-25T08:31:53,0,new,active
1290BOB20198,bougjwj,,,Tuckton Shops,,,,,,Tuckton Road,,,,W-bound,,W,E0035395,Tuckton,Bournemouth,,,,,,false,UKOS,414701,92118,-1.79308,50.7285,BCT,MKD,OTH,,,,005,2007-06-21T00:00:00,2020-02-25T08:31:53,0,new,active
1290BOB20199,bougjwa,,,Tuckton Shops,,,,,,Tuckton Road,,,,E-bound,,E,E0035395,Tuckton,Bournemouth,,,,,,false,UKOS,414643,92133,-1.7939,50.72863,BCT,MKD,OTH,,,,005,2007-06-21T00:00:00,2021-07-07T13:30:46,0,new,active
1290BOB20200,bougjtm,,,Citygate Church,,,,,,Tuckton Road,,,,W-bound,,W,E0035395,Tuckton,Bournemouth,,,,,,false,UKOS,414577,92119,-1.79483,50.72851,BCT,MKD,OTH,,,,005,2007-06-21T00:00:00,2025-04-08T08:05:40,37,new,active
1290BOB20296,bougjpw,,,Citygate Church,,,,,,Cranleigh Road,,,,SE-bound,,SE,E0035395,Tuckton,Bournemouth,,,,,,false,UKOS,414427,92184,-1.79696,50.7291,BCT,MKD,OTH,,,,005,2007-06-21T00:00:00,2025-04-08T08:05:04,41,new,active
1290BOB20130,bouajdj,,,Cunningham Crescent,,,,,,Cunningham Crescent,,,,E-bound,,E,N0077768,Turbary Common,Bournemouth,,,,,,false,UKOS,406472,95436,-1.90961,50.75848,BCT,MKD,OTH,,,,005,2005-10-21T00:00:00,2021-07-07T13:30:46,0,new,active
1290BOB20131,bouajda,,,Cunningham Crescent,,,,,,Cunningham Crescent,,,,W-bound,,W,N0077768,Turbary Common,Bournemouth,,,,,,false,UKOS,406454,95419,-1.90987,50.75833,BCT,MKD,OTH,,,,005,2006-05-16T00:00:00,2021-07-07T13:30:46,0,new,active
1290BOB20132,bouajpg,,,Tedder Road,,,,,,Montgomery Avenue,,,,W-bound,,W,N0077768,Turbary Common,Bournemouth,,,,,,false,UKOS,406789,95467,-1.90512,50.75876,BCT,MKD,OTH,,,,005,2006-05-16T00:00:00,2021-07-07T13:30:46,0,new,active
1290BOB20133,bouajtd,,,Tedder Road,,,,,,Montgomery Avenue,,,,NE-bound,,NE,N0077768,Turbary Common,Bournemouth,,,,,,false,UKOS,406812,95490,-1.90479,50.75897,BCT,MKD,OTH,,,,005,2006-05-16T00:00:00,2021-07-07T13:30:46,0,new,active
1290BOB20135,bouamgm,,,Moorside Road,,,,,,Montgomery Avenue,,,,SW-bound,,SW,N0077768,Turbary Common,Bournemouth,,,,,,false,UKOS,407026,95613,-1.90175,50.76007,BCT,MKD,OTH,,,,005,2005-10-21T00:00:00,2017-02-14T10:48:27,10,new,active
1290BOB20134,bouamdp,,,Moorside Road,,,,,,Montgomery Avenue,,,,NE-bound,,NE,N0077768,Turbary Common,Bournemouth,,,,,,false,UKOS,406991,95601,-1.90225,50.75996,BCT,MKD,OTH,,,,005,2005-10-21T00:00:00,2017-02-14T10:47:58,10,new,active
1290DOB21139,bougapa,,,Mountbatten Road,,,,,,Woodbury Avenue,,,,E-bound,,E,E0035390,Strouden,Bournemouth,,,,,,false,UKOS,411866,94829,-1.83316,50.75294,BCT,MKD,OTH,,,,005,2006-05-23T00:00:00,2022-12-07T16:27:56,9,new,active
1290BOA05879,bougpgp,,,Mountbatten Road,,,,,,Woodbury Avenue,,,,W-bound,,W,E0035390,Strouden,Bournemouth,,,,,,false,UKOS,411937,94814,-1.83215,50.7528,BCT,MKD,OTH,,,,005,2007-02-07T00:00:00,2022-12-07T16:28:36,8,new,active
1290DOB21141,bougdad,,,Birch Drive,,,,,,Jewell Road,,,,E-bound,,E,E0035390,Strouden,Bournemouth,,,,,,false,UKOS,412387,94832,-1.82577,50.75296,BCT,MKD,OTH,,,,005,2006-02-13T00:00:00,2022-12-08T15:30:58,15,new,active
1290BOA05880,bougpgt,,,Birch Drive,,,,,,Jewell Road,,,,W-bound,,W,E0035390,Strouden,Bournemouth,,,,,,false,UKOS,412344,94825,-1.82638,50.7529,BCT,MKD,OTH,,,,005,2007-02-07T00:00:00,2021-07-07T13:30:46,0,new,active
1290BOB20413,boudmpm,,,Lansdowne,,,,,,Christchurch Road,,,,E-bound,,E,N0077769,Lansdowne,Bournemouth,,,,,,false,UKOS,409663,91396,-1.86448,50.72211,BCT,MKD,OTH,,,,005,2007-09-03T00:00:00,2014-11-20T14:32:56,2,new,active
1290BOB20411,boudjwt,,,Lansdowne,,,,,,Bath Road,,,,NE-bound,,NE,N0077769,Lansdowne,Bournemouth,,,,,,false,UKOS,409422,91303,-1.86789,50.72128,BCT,MKD,OTH,,,,005,2007-06-21T00:00:00,2020-02-25T08:31:54,0,new,active
1290BOB20416,boudmgj,,,Lansdowne,,,,,,Old Christchurch Road,,,,NE-bound,,NE,N0077769,Lansdowne,Bournemouth,,,,,,false,UKOS,409428,91407,-1.8678,50.72221,BCT,MKD,OTH,,,,005,2007-06-21T00:00:00,2021-04-15T11:27:20,6,new,active
1290BOB20412,boudmam,,,Lansdowne,,,,,,Bath Road,,,,SW-bound,,SW,N0077769,Lansdowne,Bournemouth,,,,,,false,UKOS,409430,91295,-1.86778,50.72121,BCT,MKD,OTH,,,,005,2007-09-03T00:00:00,2020-02-25T08:31:54,0,new,active
1290BOB20414,boudmpt,,,Lansdowne,,,,,,Christchurch Road,,,,W-bound,,W,N0077769,Lansdowne,Bournemouth,,,,,,false,UKOS,409665,91387,-1.86445,50.72203,BCT,MKD,OTH,,,,005,2006-05-17T00:00:00,2014-11-20T14:32:46,2,new,active
1290BOB20278,bougdmp,,,Fishermans Walk,,,,,,Seabourne Road,,,,SE-bound,,SE,E0035399,West Southbourne,Bournemouth,,,,,,false,UKOS,412938,91919,-1.81806,50.72675,BCT,MKD,OTH,,,,005,2005-10-21T00:00:00,2024-03-11T14:02:45,0,new,active
1290BOB20309,bougdmj,,,Fishermans Walk,,,,,,Seabourne Road,,,,NW-bound,,NW,E0035399,West Southbourne,Bournemouth,,,,,,false,UKOS,412958,91899,-1.81778,50.72657,BCT,MKD,OTH,,,,005,2009-06-10T00:00:00,2016-11-07T12:34:02,17,new,active
1290BOB20279,bougdmw,,,Fishermans Walk,,,,,,Beresford Road,,,,SW-bound,,SW,E0035399,West Southbourne,Bournemouth,,,,,,false,UKOS,412975,91918,-1.81754,50.72674,BCT,MKD,OTH,,,,005,2007-06-21T00:00:00,2021-05-26T14:57:14,11,new,active
1290BOA05875,bougpgd,,,Horseshoe Common,,,,,,Dean Park Crescent,,,,N-bound,,N,E0057149,Bournemouth,,,,,,,false,UKOS,408977,91452,-1.87419,50.72262,BCT,MKD,OTH,,,,005,2006-11-24T00:00:00,2021-06-30T12:03:51,26,new,active
1290BOB20449,boudgwp,,,Horseshoe Common,,,,,,Old Christchurch Road,,,,E-bound,,E,E0057149,Bournemouth,,,,,,,false,UKOS,409101,91416,-1.87244,50.7223,BCT,MKD,OTH,,,,005,2007-09-03T00:00:00,2020-07-28T12:48:06,30,new,active
1290BOA05876,bougpgj,,,Burlington Arcade,,,,,,St Peters Road,,,,NE-bound,,NE,E0057149,Bournemouth,,,,,,,false,UKOS,408891,91299,-1.87541,50.72125,BCT,MKD,OTH,,,,005,2007-09-03T00:00:00,2014-10-02T10:10:50,2,new,active
1290BOB20446,boudgpm,,,Burlington Arcade,,,,,,St Peter's Road,,,,NE-bound,,NE,E0057149,Bournemouth,,,,,,,false,UKOS,408880,91287,-1.87557,50.72114,BCT,MKD,OTH,,,,005,2006-11-24T00:00:00,2020-07-21T15:53:46,20,new,active
1290BOA05878,bougpgm,,,Capstone Road,,,,,,Bennett Road,,,,NE-bound,,NE,E0035389,Springbourne,Boscombe,,,,,,false,UKOS,410152,92783,-1.85751,50.73457,BCT,MKD,OTH,,,,005,2006-02-13T00:00:00,2020-02-25T08:31:54,0,new,active
1290BOB20346,boudtdt,,,Capstone Road,,,,,,Bennett Road,,,,SW-bound,,SW,E0035389,Springbourne,Boscombe,,,,,,false,UKOS,410123,92734,-1.85792,50.73413,BCT,MKD,OTH,,,,005,2006-05-17T00:00:00,2020-02-25T08:31:54,0,new,active
1290BOA56550,bougmwa,,,Purbeck House,,,,,,Oxford Road,,,,opp,,NE,N0077769,Lansdowne,Bournemouth,,,,,,false,UKOS,409509,91596,-1.86665,50.72391,BCT,CUS,OTH,,,,005,2006-11-24T00:00:00,2019-09-18T11:10:21,20,new,active
1290BOA56551,bougmwd,,,Purbeck House,,,,,,Oxford Road,,,,o/s,,SW,N0077769,Lansdowne,Bournemouth,,,,,,false,UKOS,409516,91591,-1.86655,50.72387,BCT,MKD,OTH,,,,005,2006-11-24T00:00:00,2019-09-18T11:10:34,18,new,active
1290BOA56556,bougpdj,,,The Clock House,,,,,,Ringwood Road,,,,N-bound,,N,E0035398,West Howe,Bournemouth,,,,,,false,UKOS,405348,95587,-1.92554,50.75985,BCT,MKD,OTH,,,,005,2005-10-20T00:00:00,2023-02-10T16:11:20,37,new,active
1290BOA56557,bougpdm,,,Oakmead Gardens,,,,,,Ringwood Road,,,,S-bound,,S,E0035398,West Howe,Bournemouth,,,,,,false,UKOS,405401,95758,-1.92479,50.76139,BCT,MKD,OTH,,,,005,2005-10-20T00:00:00,2020-02-25T08:31:54,0,new,active
1290BOA56559,bougmwj,,,Shoulder of Mutton,,,,,,Ringwood Road,,,,N-bound,,N,E0035398,West Howe,Bournemouth,,,,,,false,UKOS,405428,95996,-1.9244,50.76353,BCT,MKD,OTH,,,,005,2005-10-10T00:00:00,2021-11-16T09:17:11,14,new,active
1290POA11948,bouawam,,,Kinson Park Road,,,,,,New Road,,,,SE-bound,,SE,E0035382,Northbourne,Bournemouth,,,,,,false,UKOS,408103,96813,-1.88646,50.77085,BCT,MKD,OTH,,,,005,2009-06-10T00:00:00,2019-10-08T15:18:58,12,new,active
1290BOA56561,bougmwm,,,Kinson Park Road,,,,,,New Road,,,,NW-bound,,NW,E0035382,Northbourne,Bournemouth,,,,,,false,UKOS,408048,96865,-1.88724,50.77131,BCT,MKD,OTH,,,,005,2005-10-10T00:00:00,2021-07-07T13:30:46,0,new,active
1290DOB20986,bouawdg,,,Coombe Avenue,,,,,,Redhill Drive,,,,N-bound,,N,E0035371,Ensbury Park,Bournemouth,,,,,,false,UKOS,408151,94786,-1.88582,50.75262,BCT,MKD,OTH,,,,005,2006-05-18T00:00:00,2021-02-17T11:05:22,8,new,active
1290BOA56562,bougmwp,,,Coombe Avenue,,,,,,Redhill Drive,,,,near,,SW,E0035371,Ensbury Park,Bournemouth,,,,,,false,UKOS,408198,94888,-1.88515,50.75353,BCT,MKD,OTH,,,,005,2005-10-10T00:00:00,2021-02-17T11:04:56,10,new,active
1290DOB21142,bougdaj,,,Cheshire Drive,,,,,,Jewell Road,,,,SW-bound,,SW,E0035390,Strouden,Bournemouth,,,,,,false,UKOS,412414,94632,-1.8254,50.75116,BCT,MKD,OTH,,,,005,2006-05-23T00:00:00,2021-07-07T13:30:46,0,new,active
1290BOA05921,bougpjp,,,Wilkinson Drive,,,,,,Jewell Road,,,,NE-bound,,NE,E0035390,Strouden,Bournemouth,,,,,,false,UKOS,412421,94645,-1.8253,50.75127,BCT,MKD,OTH,,,,005,2007-02-07T00:00:00,2016-06-24T12:25:37,4,new,active
1290DOB21025,boudmtd,,,West Way,,,,,,Castle Lane West,,,,SE-bound,,SE,E0035379,Moordown,Bournemouth,,,,,,false,UKOS,409625,95339,-1.86491,50.75757,BCT,MKD,OTH,,,,005,2009-06-10T00:00:00,2014-10-24T11:44:41,13,new,active
1290BOA05922,bougpjt,,,West Way,,,,,,Castle Lane West,,,,NW-bound,,NW,E0035379,Moordown,Bournemouth,,,,,,false,UKOS,409568,95361,-1.86572,50.75777,BCT,MKD,OTH,,,,005,2006-05-23T00:00:00,2021-07-07T13:30:46,0,new,active
1290BOA05954,bougpmd,,,Merlewood Close,,,,,,Braidley Road,,,,E-bound,,E,N0073119,Meyrick Park,Bournemouth,,,,,,false,UKOS,408610,91935,-1.87938,50.72697,BCT,MKD,OTH,,,,005,2006-08-02T00:00:00,2021-02-24T16:43:36,1,new,active
1290BOA05955,bougpmg,,,Wychwood Drive,,,,,,Braidley Road,,,,SW-bound,,SW,N0073119,Meyrick Park,Bournemouth,,,,,,false,UKOS,408540,91917,-1.88037,50.72681,BCT,MKD,OTH,,,,005,2006-08-02T00:00:00,2020-02-25T08:31:53,0,new,active
1290BOA05968,bougpmj,,,Bournemouth School For Girls,,,,,,Castle Lane West,,,,NW-bound,,NW,E0035367,Charminster,Bournemouth,,,,,,false,UKOS,410517,94725,-1.85228,50.75203,BCT,MKD,OTH,,,,005,2006-08-30T00:00:00,2017-01-16T11:18:14,17,new,active
1290BOA90827,bougtpa,,,Bournemouth School for Girls,,,,,,East Way,,,,NE-bound,,NE,E0035367,Charminster,Bournemouth,,,,,,false,UKOS,410623,94584,-1.85078,50.75076,BCT,CUS,OTH,,,,005,2010-07-21T00:00:00,2015-07-06T14:34:02,7,new,active
1290BOA05336,bougptg,,,Jubilee Gardens,,,,,,Slades Farm Road,,,,S-bound,,S,E0035371,Ensbury Park,Bournemouth,,,,,,false,UKOS,407523,94601,-1.89473,50.75096,BCT,MKD,OTH,,,,005,2007-05-18T00:00:00,2020-02-25T08:31:54,0,new,active
1290BOA05337,bougptj,,,Hibberd Way,,,,,,Ensbury Avenue,,,,SE-bound,,SE,E0035371,Ensbury Park,Bournemouth,,,,,,false,UKOS,407624,94314,-1.8933,50.74838,BCT,MKD,OTH,,,,005,2007-05-18T00:00:00,2021-05-04T09:49:01,14,new,active
1290BOA05338,bougptm,,,Gorsecliff Road,,,,,,Ensbury Avenue,,,,NE-bound,,NE,E0035371,Ensbury Park,Bournemouth,,,,,,false,UKOS,407814,94513,-1.8906,50.75017,BCT,MKD,OTH,,,,005,2007-05-18T00:00:00,2022-04-06T12:12:40,6,new,active
1290BOA05736,bougtdg,,,Beacon Road,,,,,,Priory Road,,,,opp,,E,E0057149,Bournemouth,,,,,,,false,UKOS,408424,90803,-1.88204,50.7168,BCT,MKD,OTH,,,,005,2009-06-10T00:00:00,2020-08-05T14:34:16,13,new,active
1290BOA05737,bougtdj,,,Beacon Road,,,,,,Priory Road,,,,W-bound,,W,E0057149,Bournemouth,,,,,,,false,UKOS,408455,90801,-1.8816,50.71678,BCT,MKD,OTH,,,,005,2009-06-10T00:00:00,2020-07-16T10:41:21,10,new,active
1290BOA05784,bougtdp,,,Terrace Road,,,,,,Terrace Road,,,,Stop J,,E,E0057149,Bournemouth,,,,,,,false,UKOS,408396,91109,-1.88243,50.71955,BCT,MKD,OTH,,,,005,2009-06-10T00:00:00,2020-07-16T10:45:14,12,new,active
1290BOB20385,boudamg,,,Bournemouth Square,,,,,,Gervis Place,,,,Stand M,,E,E0057149,Bournemouth,,,,,,,false,UKOS,408612,91169,-1.87937,50.72008,BCT,MKD,OTH,,,,005,2007-09-03T00:00:00,2022-06-22T14:54:04,29,new,active
1290BOB20386,boudapj,,,Bournemouth Square,,,,,,Gervis Place,,,,Stand N,,W,E0057149,Bournemouth,,,,,,,false,UKOS,408613,91170,-1.87936,50.72009,BCT,MKD,OTH,,,,005,2007-06-21T00:00:00,2023-03-06T11:56:10,11,new,active
1290BOB20387,boudapt,,,Bournemouth Square,,,,,,Gervis Place,,,,Stand O,,E,E0057149,Bournemouth,,,,,,,false,UKOS,408652,91159,-1.8788,50.71999,BCT,MKD,OTH,,,,005,2007-06-21T00:00:00,2022-06-22T14:50:43,9,new,active
1290BOB20388,boudatj,,,Bournemouth Square,,,,,,Gervis Place,,,,Stand P,,SE,E0057149,Bournemouth,,,,,,,false,UKOS,408676,91148,-1.87846,50.71989,BCT,MKD,OTH,,,,005,2009-04-28T00:00:00,2020-05-27T10:18:40,1,new,active
1290BOB20389,boudatw,,,Bournemouth Square,,,,,,Gervis Place,,,,Stand Q,,E,E0057149,Bournemouth,,,,,,,false,UKOS,408702,91138,-1.8781,50.7198,BCT,MKD,OTH,,,,005,2007-06-21T00:00:00,2020-05-27T10:18:53,8,new,active
1290BOB20390,boudawg,,,Bournemouth Square,,,,,,Gervis Place,,,,Stand R,,E,E0057149,Bournemouth,,,,,,,false,UKOS,408725,91135,-1.87777,50.71978,BCT,MKD,OTH,,,,005,2007-06-21T00:00:00,2020-05-27T10:19:04,8,new,active
1290BOB20391,boudgad,,,Bournemouth Square,,,,,,Gervis Place,,,,Stand S,,E,E0057149,Bournemouth,,,,,,,false,UKOS,408746,91133,-1.87747,50.71976,BCT,MKD,OTH,,,,005,2007-06-21T00:00:00,2020-05-27T10:19:19,13,new,active
1290BOB20396,boudgap,,,Bournemouth Square,,,,,,Gervis Place,,,,Stand T,,W,E0057149,Bournemouth,,,,,,,false,UKOS,408747,91123,-1.87746,50.71967,BCT,MKD,OTH,,,,005,2009-12-23T00:00:00,2020-05-27T10:19:50,3,new,active
1290BOB20397,boudawt,,,Bournemouth Square,,,,,,Gervis Place,,,,Stand U,,W,E0057149,Bournemouth,,,,,,,false,UKOS,408729,91125,-1.87771,50.71969,BCT,MKD,OTH,,,,005,2009-06-10T00:00:00,2020-05-27T10:20:04,3,new,active
1290BOB20398,boudawj,,,Bournemouth Square,,,,,,Gervis Place,,,,Stand V,,W,E0057149,Bournemouth,,,,,,,false,UKOS,408708,91127,-1.87801,50.71971,BCT,MKD,OTH,,,,005,2007-06-21T00:00:00,2020-05-27T10:16:04,3,new,active
1290BOB20400,boudata,,,Bournemouth Square,,,,,,Gervis Place,,,,Stand W,,NW,E0057149,Bournemouth,,,,,,,false,UKOS,408667,91142,-1.87859,50.71984,BCT,MKD,OTH,,,,005,2007-06-21T00:00:00,2020-05-27T10:20:17,3,new,active
1290BOB20401,boudapw,,,Bournemouth Square,,,,,,Gervis Place,,,,Stand X,,NW,E0057149,Bournemouth,,,,,,,false,UKOS,408656,91148,-1.87875,50.7199,BCT,MKD,OTH,,,,005,2007-06-21T00:00:00,2020-05-27T10:20:29,3,new,active
1290BOB20402,boudapa,,,Bournemouth Square,,,,,,Gervis Place,,,,Stand Y,,W,E0057149,Bournemouth,,,,,,,false,UKOS,408640,91154,-1.87897,50.71995,BCT,MKD,OTH,,,,005,2007-06-21T00:00:00,2020-05-27T10:20:44,3,new,active
1290BOB20403,boudamj,,,Bournemouth Square,,,,,,Gervis Place,,,,Stand Z,,W,E0057149,Bournemouth,,,,,,,false,UKOS,408624,91159,-1.8792,50.71999,BCT,MKD,OTH,,,,005,2007-06-21T00:00:00,2020-05-27T10:20:55,3,new,active
1290BOA05704,bougtam,,,Anchor Road,,,,,,Anstey Road,,,,S-bound,,S,E0035363,Bear Cross,,,,,,,false,UKOS,406057,96231,-1.91548,50.76564,BCT,MKD,OTH,,,,005,2008-06-01T00:00:00,2021-07-07T13:30:46,0,new,active
1290BOA05703,bougtaj,,,Anchor Road,,,,,,Anstey Road,,,,N-bound,,N,E0035363,Bear Cross,,,,,,,false,UKOS,406045,96237,-1.91565,50.76569,BCT,MKD,OTH,,,,005,2008-06-01T00:00:00,2021-07-07T13:30:46,0,new,active
1290BOA05735,bougtda,,,Pokesdown Station restricted use,,,,,,Christchurch Road,,,,NE-bound,,NE,E0035383,Pokesdown,Bournemouth,,,,,,false,UKOS,412447,92390,-1.825,50.731,BCT,MKD,OTH,,,,005,2009-06-10T00:00:00,2015-04-25T12:19:55,0,new,active
1290BOB20017,bouadgt,,,Paddington Grove,,,,,,Ringwood Road,,,,SW-bound,,SW,E0035398,West Howe,Bournemouth,,,,,,false,UKOS,405127,95198,-1.92868,50.75636,BCT,MKD,OTH,,,,005,2007-06-08T00:00:00,2020-02-25T08:31:53,0,new,active
1290BOB20020,bouadga,,,Paddington Grove,,,,,,Ringwood Road,,,,NE-bound,,NE,E0035398,West Howe,Bournemouth,,,,,,false,UKOS,405098,95202,-1.92909,50.75639,BCT,MKD,OTH,,,,005,2007-06-08T00:00:00,2020-02-25T08:31:53,0,new,active
1290BOB20018,bouadam,,,Francis Avenue,,,,,,Ringwood Road,,,,SW-bound,,SW,E0035398,West Howe,Bournemouth,,,,,,false,UKOS,404952,94992,-1.93117,50.75451,BCT,MKD,OTH,,,,005,2005-10-05T00:00:00,2020-02-25T08:31:53,0,new,active
1290BOB20019,bouadaj,,,Francis Avenue,,,,,,Ringwood Road,,,,NE-bound,,NE,E0035398,West Howe,Bournemouth,,,,,,false,UKOS,404951,95029,-1.93118,50.75484,BCT,MKD,OTH,,,,005,2005-10-05T00:00:00,2020-02-25T08:31:54,0,new,active
1290BOB20016,bouadjd,,,High Howe Close,,,,,,Ringwood Road,,,,SW-bound,,SW,E0035398,West Howe,Bournemouth,,,,,,false,UKOS,405262,95362,-1.92677,50.75783,BCT,MKD,OTH,,,,005,2006-03-06T00:00:00,2016-07-01T10:58:49,4,new,active
1290BOB20021,bouadjm,,,High Howe Close,,,,,,Ringwood Road,,,,NE-bound,,NE,E0035398,West Howe,Bournemouth,,,,,,false,UKOS,405289,95439,-1.92638,50.75852,BCT,MKD,OTH,,,,005,2005-10-21T00:00:00,2020-07-16T11:23:35,2,new,active
1290BOB20022,bouadja,,,High Howe Gardens,,,,,,High Howe Lane,,,,S-bound,,S,E0035398,West Howe,Bournemouth,,,,,,false,UKOS,405270,95665,-1.92665,50.76055,BCT,MKD,OTH,,,,005,2007-06-08T00:00:00,2020-02-25T08:31:54,0,new,active
1290BOB20023,bouadgw,,,High Howe Gardens,,,,,,High Howe Lane,,,,N-bound,,N,E0035398,West Howe,Bournemouth,,,,,,false,UKOS,405252,95685,-1.9269,50.76073,BCT,MKD,OTH,,,,005,2007-06-08T00:00:00,2020-02-25T08:31:54,0,new,active
1290BOB20009,bouadmg,,,Fulwood Avenue,,,,,,Shapland Avenue,,,,N-bound,,N,E0035363,Bear Cross,,,,,,,false,UKOS,405408,96505,-1.92468,50.76811,BCT,MKD,OTH,,,,005,2007-06-08T00:00:00,2020-02-25T08:31:54,0,new,active
1290BOB20010,bouadmj,,,Fulwood Avenue,,,,,,Shapland Avenue,,,,o/s 36,,S,E0035363,Bear Cross,,,,,,,false,UKOS,405417,96407,-1.92455,50.76723,BCT,MKD,OTH,,,,005,2007-06-08T00:00:00,2015-04-25T12:19:55,0,new,active
1290BOB20011,bouadma,,,Dalewood Avenue,,,,,,Shapland Avenue,,,,N-bound,,N,E0035398,West Howe,Bournemouth,,,,,,false,UKOS,405346,96155,-1.92556,50.76496,BCT,MKD,OTH,,,,005,2007-06-08T00:00:00,2020-01-07T11:34:24,8,new,active
1290BOB20012,bouadjw,,,Dalewood Avenue,,,,,,Knighton Heath Road,,,,opp 41,,S,E0035398,West Howe,Bournemouth,,,,,,false,UKOS,405335,96056,-1.92572,50.76407,BCT,MKD,OTH,,,,005,2007-06-08T00:00:00,2020-01-07T11:34:56,8,new,active
1290BOB20013,bouadjp,,,Gaydon Rise,,,,,,Knighton Heath Road,,,,NE-bound,,NE,E0035398,West Howe,Bournemouth,,,,,,false,UKOS,405289,95919,-1.92638,50.76284,BCT,MKD,OTH,,,,005,2007-06-08T00:00:00,2020-02-25T08:31:54,0,new,active
1290BOB20014,bouadjg,,,Gaydon Rise,,,,,,Knighton Heath Road,,,,SW-bound,,SW,E0035398,West Howe,Bournemouth,,,,,,false,UKOS,405277,95877,-1.92655,50.76246,BCT,MKD,OTH,,,,005,2007-06-08T00:00:00,2015-04-25T12:19:55,0,new,active
1290BOB20048,bouadjt,,,Weldon Avenue,,,,,,Runnymede Avenue,,,,N-bound,,N,E0035363,Bear Cross,,,,,,,false,UKOS,405306,96577,-1.92612,50.76876,BCT,MKD,OTH,,,,005,2007-06-08T00:00:00,2020-02-25T08:31:54,0,new,active
1290BOB20049,bouadmd,,,Weldon Avenue,,,,,,Weldon Avenue,,,,E-bound,,E,E0035363,Bear Cross,,,,,,,false,UKOS,405378,96564,-1.9251,50.76864,BCT,MKD,OTH,,,,005,2007-06-08T00:00:00,2020-02-25T08:31:54,0,new,active
1290BOB20051,bouagpj,,,Anstey Close,,,,,,Anstey Road,,,,NE-bound,,NE,E0035363,Bear Cross,,,,,,,false,UKOS,406210,96452,-1.91331,50.76762,BCT,MKD,OTH,,,,005,2006-05-16T00:00:00,2021-03-03T14:09:02,17,new,active
1290BOB20050,bouagtg,,,Anstey Close,,,,,,Anstey Road,,,,SW-bound,,SW,E0035363,Bear Cross,,,,,,,false,UKOS,406241,96471,-1.91287,50.76779,BCT,MKD,OTH,,,,005,2006-05-16T00:00:00,2021-03-03T14:09:28,17,new,active
1290BOA56569,bougpat,,,Cranborne House,,,,,,Lansdowne Road,,,,N-bound,,N,N0077769,Lansdowne,Bournemouth,,,,,,false,UKOS,409452,91652,-1.86746,50.72442,BCT,MKD,OTH,,,,005,2010-03-05T00:00:00,2024-02-21T20:35:26,0,new,active
1290BOA56570,bougpaw,,,Cranborne House,,,,,,Lansdowne Road,,,,S-bound,,S,N0077769,Lansdowne,Bournemouth,,,,,,false,UKOS,409464,91670,-1.86729,50.72458,BCT,MKD,OTH,,,,005,2007-06-21T00:00:00,2020-07-16T10:48:20,2,new,active
1290BOA90800,bougpmp,,,Mandale Road,,,,,,Draper Road,,,,SW-bound,,SW,N0077768,Turbary Common,Bournemouth,,,,,,false,UKOS,406077,95660,-1.91521,50.7605,BCT,MKD,OTH,,,,005,2007-02-26T00:00:00,2021-02-17T11:24:10,8,new,active
1290BOA90801,bougpmt,,,Mandale Road,,,,,,Draper Road,,,,NE-bound,,NE,N0077768,Turbary Common,Bournemouth,,,,,,false,UKOS,406124,95712,-1.91454,50.76097,BCT,MKD,OTH,,,,005,2007-02-26T00:00:00,2021-02-17T11:23:28,8,new,active
1290BOA90806,bougpta,,,Tesco,,,,,,,,,,E-bound,,E,E0035378,Littledown,Bournemouth,,,,,,false,UKOS,413034,93904,-1.81663,50.7446,BCT,MKD,OTH,,,,005,2009-06-10T00:00:00,2015-04-25T12:19:56,0,new,active
1290WDY38478,boudamw,,,Pine Vale Crescent,,,,,,Redhill Drive,,,,SW-bound,,SW,E0035386,Redhill,Bournemouth,,,,,,false,UKOS,408634,95706,-1.87895,50.76088,BCT,MKD,OTH,,,,005,2005-10-05T00:00:00,2020-02-25T08:31:53,0,new,active
1290BOA56563,bougmwt,,,Pine Vale Crescent,,,,,,Redhill Drive,,,,opp,,NE,E0035386,Redhill,Bournemouth,,,,,,false,UKOS,408634,95721,-1.87895,50.76102,BCT,MKD,OTH,,,,005,2005-10-10T00:00:00,2020-02-25T08:31:52,0,new,active
1290BOA56567,bougpam,,,Talbot Heath School,,,,,,School Grounds,,,,W-bound,,W,N0073121,Talbot Woods,Bournemouth,,,,,,false,UKOS,407165,92339,-1.89984,50.73063,BCT,MKD,OTH,,,,005,2007-06-20T00:00:00,2015-04-25T12:19:56,0,new,active
1290BOA56568,bougpap,,,Avonbourne School,,,,,,School Grounds,,,,SW-bound,,SW,E0035378,Littledown,Bournemouth,,,,,,false,UKOS,412164,93237,-1.82899,50.73862,BCT,MKD,OTH,,,,005,2007-06-21T00:00:00,2021-07-07T13:30:46,0,new,active
1290BOB20003,bouajad,,,Durdells Avenue,,,,,,Wimborne Road,,,,E-bound,,E,E0035377,Kinson,Bournemouth,,,,,,false,UKOS,406420,96617,-1.91033,50.7691,BCT,MKD,OTH,,,,005,2006-05-16T00:00:00,2020-07-16T11:16:50,12,new,active
1290BOB20004,bouagtw,,,Durdells Avenue,,,,,,Wimborne Road,,,,W-bound,,W,E0035377,Kinson,Bournemouth,,,,,,false,UKOS,406261,96591,-1.91258,50.76887,BCT,MKD,OTH,,,,005,2006-05-16T00:00:00,2020-02-25T08:31:54,0,new,active
1290WDY38454,bouadtp,,,Bear Cross,,,,,,Ringwood Road,,,,S-bound,,S,E0035363,Bear Cross,,,,,,,false,UKOS,405767,96583,-1.91959,50.76881,BCT,MKD,OTH,,,,005,2007-06-08T00:00:00,2020-07-29T12:00:24,2,new,active
1290WDY38453,bouadtd,,,Bear Cross,,,,,,Ringwood Road,,,,N-bound,,N,E0035363,Bear Cross,,,,,,,false,UKOS,405748,96608,-1.91986,50.76903,BCT,MKD,OTH,,,,005,2007-06-08T00:00:00,2020-07-29T12:00:56,2,new,active
1290BOB20005,bouagaj,,,Bear Cross,,,,,,Wimborne Road,,,,W-bound,,W,E0035363,Bear Cross,,,,,,,false,UKOS,405872,96660,-1.9181,50.7695,BCT,MKD,OTH,,,,005,2006-05-16T00:00:00,2020-02-25T08:31:54,0,new,active
1290BOB20006,bouadwj,,,Bear Cross,,,,,,Wimborne Road,,,,E-bound,,E,E0035363,Bear Cross,,,,,,,false,UKOS,405827,96674,-1.91874,50.76962,BCT,MKD,OTH,,,,005,2006-05-16T00:00:00,2020-02-25T08:31:54,0,new,active
1290BOB20008,bouadmp,,,Shapland Avenue,,,,,,Shapland Avenue,,,,o/s 3,,NE,E0035363,Bear Cross,,,,,,,false,UKOS,405489,96638,-1.92353,50.7693,BCT,MKD,OTH,,,,005,2007-06-08T00:00:00,2020-02-25T08:31:54,0,new,active
1290BOB20007,bouadpa,,,Shapland Avenue,,,,,,Magna Road,,,,W-bound,,W,E0035363,Bear Cross,,,,,,,false,UKOS,405573,96662,-1.92234,50.76952,BCT,MKD,OTH,,,,005,2007-06-08T00:00:00,2020-07-16T11:19:07,6,new,active
1290BOA90876,bougwpm,,,Bear Cross,,,,,,,,,,E-bound,,E,E0035363,Bear Cross,,,,,,,false,UKOS,405544,96683,-1.92275,50.76971,BCT,MKD,OTH,,,,005,2022-09-02T00:00:00,2022-09-06T17:28:24,65,new,active
1290BOA90807,bougtgd,,,Durley Chine Road,,,,,,Durley Chine Road,,,,NW-bound,,NW,N0073122,West Cliff,Bournemouth,,,,,,false,UKOS,407877,90989,-1.88978,50.71848,BCT,MKD,OTH,,,,005,2009-08-05T00:00:00,2015-04-25T12:19:56,0,new,active
1290BOA90808,bougtgj,,,Fishermans Walk,,,,,,Wentworth Avenue,,,,NE-bound,,NE,E0035383,Pokesdown,Bournemouth,,,,,,false,UKOS,412910,91844,-1.81846,50.72608,BCT,MKD,OTH,,,,005,2009-11-25T00:00:00,2020-07-16T10:52:08,10,new,active
1290BOA90809,bougtgm,,,Shelley Manor,,,,,,Beechwood Avenue,,,,opp,,E,E0035366,Boscombe,Bournemouth,,,,,,false,UKOS,411897,91650,-1.83282,50.72435,BCT,MKD,OTH,,,,005,2009-10-14T00:00:00,2014-02-11T15:23:27,1,new,active
1290BOA90810,bougtgp,,,Shelley Manor,,,,,,Beechwood Avenue,,,,W-bound,,W,E0035366,Boscombe,Bournemouth,,,,,,false,UKOS,411902,91640,-1.83275,50.72426,BCT,MKD,OTH,,,,005,2009-10-14T00:00:00,2015-04-25T12:19:56,0,new,active
1290BOA90811,bougtgt,,,Gorsecliff Road,,,,,,Boundary Road,,,,N-bound,,N,E0035371,Ensbury Park,Bournemouth,,,,,,false,UKOS,408036,94324,-1.88746,50.74846,BCT,MKD,OTH,,,,005,2009-11-04T00:00:00,2020-07-16T10:55:04,2,new,active
1290BOA90834,bougtwa,,,Gorsecliff Road,,,,,,Boundary Road,,,,S-bound,,S,E0035371,Ensbury Park,Bournemouth,,,,,,false,UKOS,408061,94339,-1.88711,50.7486,BCT,MKD,OTH,,,,005,2020-07-16T00:00:00,2020-07-16T10:54:43,6,new,active
1290BOA90812,bougtgw,,,Woodside Road Car Park,,,,,,Woodside Road,,,,SW-bound,,SW,E0035383,Pokesdown,Bournemouth,,,,,,false,UKOS,412847,91900,-1.81935,50.72658,BCT,MKD,OTH,,,,005,2009-11-25T00:00:00,2023-02-06T11:13:42,37,new,active
1290BOA90813,bougtja,,,Corpus Christi School,,,,,,Parkwood Road,,,,NW-bound,,NW,E0035383,Pokesdown,Bournemouth,,,,,,false,UKOS,412238,91951,-1.82798,50.72705,BCT,MKD,OTH,,,,005,2009-11-25T00:00:00,2023-03-09T17:22:30,82,new,active
1290BOB20445,boudgmp,,,St Peters Church,,,,,,Hinton Road,,,,SE-bound,,SE,E0057149,Bournemouth,,,,,,,false,UKOS,408876,91178,-1.87563,50.72016,BCT,MKD,OTH,,,,005,2007-06-21T00:00:00,2024-12-05T15:36:57,50,delete,inactive
1290BOB20392,boudgpd,,,St Peter's Church,,,,,,Hinton Road,,,,Stand AA,,SE,E0057149,Bournemouth,,,,,,,false,UKOS,408871,91166,-1.8757,50.72005,BCT,MKD,OTH,,,,005,2007-06-21T00:00:00,2024-12-05T15:35:03,35,new,active
1290BOB20393,boudjam,,,Hinton Road Top,,,,,,Hinton Road,,,,SE-bound,,SE,E0057149,Bournemouth,,,,,,,false,UKOS,409068,91017,-1.87291,50.71871,BCT,MKD,OTH,,,,005,2009-06-10T00:00:00,2020-07-21T15:38:22,17,new,active
1290BOB20394,boudgpj,,,Westover Road,,,,,,Westover Road,,,,NW-bound,,NW,E0057149,Bournemouth,,,,,,,false,UKOS,408872,91033,-1.87569,50.71886,BCT,MKD,OTH,,,,005,2006-11-24T00:00:00,2020-05-27T10:25:00,4,new,active
1290BOA90861,bougwjm,,,Westover Road,,,,,,Westover Road,,,,NW-bound,,NW,E0057149,Bournemouth,,,,,,,false,UKOS,408839,91072,-1.87616,50.71921,BCT,MKD,OTH,,,,005,2020-05-27T00:00:00,2023-03-03T12:38:16,11,new,active
1290BOA90862,bougwjp,,,Westover Road,,,,,,Westover Road,,,,NW-bound,,NW,E0057149,Bournemouth,,,,,,,false,UKOS,408853,91055,-1.87596,50.71906,BCT,MKD,OTH,,,,005,2020-05-27T00:00:00,2023-03-03T12:37:50,15,new,active
1290BOB20384,boudagp,,,Exeter Road,,,,,,Exeter Road,,,,Stand LL,,N,E0057149,Bournemouth,,,,,,,false,UKOS,408548,91070,-1.88028,50.7192,BCT,MKD,OTH,,,,005,2007-06-21T00:00:00,2020-07-21T15:37:03,58,new,active
1290BOB20404,boudgdt,,,Bournemouth Pier,,,,,,Exeter Road,,,,Stand BB,,W,E0057149,Bournemouth,,,,,,,false,UKOS,408777,90791,-1.87704,50.71668,BCT,MKD,OTH,,,,005,2009-06-10T00:00:00,2020-07-21T15:45:09,4,new,active
1290BOB20405,boudgdw,,,Bournemouth Pier,,,,,,Exeter Road,,,,Stand CC,,NW,E0057149,Bournemouth,,,,,,,false,UKOS,408762,90789,-1.87725,50.71667,BCT,MKD,OTH,,,,005,2007-06-21T00:00:00,2020-11-05T10:55:58,18,new,active
1290BOB20406,boudgat,,,Bournemouth Pier,,,,,,Exeter Road,,,,Stand DD,,W,E0057149,Bournemouth,,,,,,,false,UKOS,408774,90779,-1.87708,50.71658,BCT,MKD,OTH,,,,005,2007-09-03T00:00:00,2018-05-15T11:48:40,21,new,active
1290BOB20407,boudgdj,,,Bournemouth Pier,,,,,,Exeter Road,,,,Stand HH,,SE,E0057149,Bournemouth,,,,,,,false,UKOS,408771,90801,-1.87713,50.71677,BCT,MKD,OTH,,,,005,2007-06-21T00:00:00,2020-07-21T15:44:56,16,new,active
1290BOB20408,boudgwg,,,Royal Bath Hotel,,,,,,Bath Road,,,,SW-bound,,SW,E0057149,Bournemouth,,,,,,,false,UKOS,409008,90842,-1.87377,50.71714,BCT,MKD,OTH,,,,005,2007-06-21T00:00:00,2014-07-03T12:25:32,2,new,active
1290BOB20409,boudjdw,,,Top of Bath Hill,,,,,,Bath Road,,,,NE-bound,,NE,N0077769,Lansdowne,Bournemouth,,,,,,false,UKOS,409201,91124,-1.87103,50.71967,BCT,MKD,OTH,,,,005,2007-06-21T00:00:00,2020-02-25T08:31:54,0,new,active
1290BOB20410,boudjma,,,Top of Bath Hill,,,,,,St Peter's Roundabout,,,,NW-bound,,NW,N0077769,Lansdowne,Bournemouth,,,,,,false,UKOS,409247,91120,-1.87038,50.71963,BCT,MKD,OTH,,,,005,2007-09-03T00:00:00,2018-05-02T15:39:45,9,new,active
1290BOB20364,bouapmt,,,Rothesay Road,,,,,,Glenferness Avenue,,,,NE-bound,,NE,N0073121,Talbot Woods,Bournemouth,,,,,,false,UKOS,407540,92302,-1.89453,50.73029,BCT,MKD,OTH,,,,005,2007-06-20T00:00:00,2023-02-02T15:26:44,38,new,active
1290BOB20363,bouaptd,,,Rothesay Road,,,,,,Glenferness Avenue,,,,SW-bound,,SW,N0073121,Talbot Woods,Bournemouth,,,,,,false,UKOS,407568,92309,-1.89414,50.73035,BCT,MKD,OTH,,,,005,2007-06-20T00:00:00,2023-02-02T15:27:02,38,new,active
1290BOB20365,bouapam,,,Glenferness Avenue Bottom,,,,,,Glenferness Avenue,,,,S-bound,,S,N0073121,Talbot Woods,Bournemouth,,,,,,false,UKOS,407286,91972,-1.89814,50.72732,BCT,MKD,OTH,,,,005,2007-06-21T00:00:00,2021-07-07T13:30:46,0,new,active
1290BOB20366,bouapaj,,,Glenferness Avenue Bottom,,,,,,Glenferness Avenue,,,,N-bound,,N,N0073121,Talbot Woods,Bournemouth,,,,,,false,UKOS,407274,91984,-1.89831,50.72743,BCT,MKD,OTH,,,,005,2007-06-20T00:00:00,2021-07-07T13:30:46,0,new,active
1290BOB20368,bouaptp,,,Alyth Road,,,,,,Glenferness Avenue,,,,SW-bound,,SW,N0073121,Talbot Woods,Bournemouth,,,,,,false,UKOS,407609,92729,-1.89355,50.73413,BCT,MKD,OTH,,,,005,2007-06-20T00:00:00,2021-07-07T13:30:46,0,new,active
1290BOB20367,bouapta,,,Alyth Road,,,,,,Glenferness Avenue,,,,N-bound,,N,N0073121,Talbot Woods,Bournemouth,,,,,,false,UKOS,407570,92696,-1.8941,50.73383,BCT,MKD,OTH,,,,005,2007-06-20T00:00:00,2020-07-21T15:29:20,3,new,active
1290BOB20369,bouatdj,,,Dunkeld Road,,,,,,Glenferness Avenue,,,,NE-bound,,NE,N0073121,Talbot Woods,Bournemouth,,,,,,false,UKOS,407725,92954,-1.8919,50.73615,BCT,MKD,OTH,,,,005,2007-06-20T00:00:00,2020-07-21T15:30:36,3,new,active
1290BOB20370,bouatdw,,,Dunkeld Road,,,,,,Glenferness Avenue,,,,SW-bound,,SW,N0073121,Talbot Woods,Bournemouth,,,,,,false,UKOS,407777,92990,-1.89116,50.73647,BCT,MKD,OTH,,,,005,2007-06-20T00:00:00,2020-07-21T15:31:31,3,new,active
1290BOB20357,boudadg,,,Berwick Road,,,,,,East Avenue,,,,NE-bound,,NE,N0073119,Meyrick Park,Bournemouth,,,,,,false,UKOS,408426,92892,-1.88197,50.73558,BCT,MKD,OTH,,,,005,2007-06-20T00:00:00,2020-07-21T15:12:31,2,new,active
1290BOB20358,bouawtg,,,Berwick Road,,,,,,East Avenue,,,,SW-bound,,SW,N0073119,Meyrick Park,Bournemouth,,,,,,false,UKOS,408392,92851,-1.88245,50.73521,BCT,MKD,OTH,,,,005,2007-06-20T00:00:00,2020-07-21T15:12:47,2,new,active
1290BOB20360,bouatmt,,,Elgin Road,,,,,,East Avenue,,,,W-bound,,W,N0073119,Meyrick Park,Bournemouth,,,,,,false,UKOS,407952,92678,-1.88869,50.73366,BCT,MKD,OTH,,,,005,2007-06-20T00:00:00,2015-04-25T12:19:56,0,new,active
1290BOB20359,bouatpj,,,Elgin Road,,,,,,East Avenue,,,,E-bound,,E,N0073119,Meyrick Park,Bournemouth,,,,,,false,UKOS,408030,92703,-1.88758,50.73389,BCT,MKD,OTH,,,,005,2007-06-20T00:00:00,2020-07-21T15:14:18,2,new,active
1290BOB20361,bouataj,,,East Avenue,,,,,,East Avenue,,,,E-bound,,E,N0073121,Talbot Woods,Bournemouth,,,,,,false,UKOS,407688,92672,-1.89243,50.73361,BCT,MKD,OTH,,,,005,2007-06-20T00:00:00,2020-07-21T15:19:16,2,new,active
1290BOB20362,bouaptj,,,East Avenue,,,,,,Glenferness Avenue,,,,S-bound,,S,N0073121,Talbot Woods,Bournemouth,,,,,,false,UKOS,407600,92611,-1.89368,50.73307,BCT,MKD,OTH,,,,005,2007-06-20T00:00:00,2023-12-20T19:32:20,44,new,active
1290BOB20381,bouawjg,,,The Triangle,,,,,,The Triangle,,,,Stand B,,E,E0057149,Bournemouth,,,,,,,false,UKOS,408236,91191,-1.8847,50.72029,BCT,MKD,OTH,,,,005,2010-05-12T00:00:00,2018-10-31T14:11:26,14,new,active
1290BOB20380,bouawja,,,The Triangle,,,,,,The Triangle,,,,Stand A,,E,E0057149,Bournemouth,,,,,,,false,UKOS,408220,91188,-1.88492,50.72026,BCT,MKD,OTH,,,,005,2007-06-21T00:00:00,2018-10-31T14:10:41,20,new,active
1290BOB20379,bouawdt,,,The Triangle,,,,,,The Triangle,,,,Stand C,,E,E0057149,Bournemouth,,,,,,,false,UKOS,408250,91195,-1.8845,50.72032,BCT,MKD,OTH,,,,005,2009-11-05T00:00:00,2018-10-31T14:11:47,16,new,active
1290BOB20371,bouatma,,,Roslin Road South,,,,,,Glenferness Avenue,,,,NE-bound,,NE,N0073121,Talbot Woods,Bournemouth,,,,,,false,UKOS,407905,93233,-1.88934,50.73866,BCT,MKD,OTH,,,,005,2006-03-01T00:00:00,2020-07-21T15:32:44,3,new,active
1290BOB20372,bouatmd,,,Roslin Road South,,,,,,Glenferness Avenue,,,,SW-bound,,SW,N0073121,Talbot Woods,Bournemouth,,,,,,false,UKOS,407904,93210,-1.88936,50.73845,BCT,MKD,OTH,,,,005,2006-03-01T00:00:00,2020-07-21T15:33:19,3,new,active
1290BOB20452,boudjgt,,,Wootton Gardens,,,,,,Old Christchurch Road,,,,E-bound,,E,E0057149,Bournemouth,,,,,,,false,UKOS,409233,91404,-1.87057,50.72219,BCT,MKD,OTH,,,,005,2007-09-03T00:00:00,2020-02-25T08:31:54,0,new,active
1290BOB20461,boudtgd,,,Derby Road,,,,,,Southcote Road,,,,W-bound,,W,E0035389,Springbourne,Boscombe,,,,,,false,UKOS,410187,91887,-1.85704,50.72652,BCT,MKD,OTH,,,,005,2007-06-21T00:00:00,2015-04-25T12:19:56,0,new,active
1290BOB20456,boudtma,,,Derby Road,,,,,,Southcote Road,,,,E-bound,,E,E0035389,Springbourne,Boscombe,,,,,,false,UKOS,410374,91922,-1.85439,50.72683,BCT,MKD,OTH,,,,005,2007-06-21T00:00:00,2015-04-25T12:19:56,0,new,active
1290BOB20444,boudjmg,,,Russell Cotes Museum,,,,,,Russell Cotes Road,,,,W-bound,,W,N0077769,Lansdowne,Bournemouth,,,,,,false,UKOS,409255,90893,-1.87027,50.71759,BCT,MKD,OTH,,,,005,2007-06-21T00:00:00,2020-07-21T15:50:27,2,new,active
1290BOA90819,bougtjw,,,Russell Cotes Museum,,,,,,Russell Cotes Road,,,,opp,,E,N0077769,Lansdowne,Bournemouth,,,,,,false,UKOS,409263,90902,-1.87015,50.71767,BCT,MKD,OTH,,,,005,2010-04-07T00:00:00,2020-07-21T15:50:40,2,new,active
1290BOB20460,boudtwa,,,Vale Road,,,,,,Vale Road,,,,N-bound,,N,E0035389,Springbourne,Boscombe,,,,,,false,UKOS,410539,91965,-1.85205,50.72721,BCT,CUS,OTH,,,,005,2006-05-17T00:00:00,2015-04-25T12:19:57,0,new,active
1290BOB20459,boudtwd,,,Vale Road,,,,,,Vale Road,,,,S-bound,,S,E0035389,Springbourne,Boscombe,,,,,,false,UKOS,410549,91963,-1.85191,50.72719,BCT,MKD,OTH,,,,005,2006-05-17T00:00:00,2015-04-25T12:19:57,0,new,active
1290BOB20462,boudptp,,,Southcote Road,,,,,,Southcote Road,,,,W-bound,,W,E0035389,Springbourne,Boscombe,,,,,,false,UKOS,409951,91804,-1.86038,50.72577,BCT,MKD,OTH,,,,005,2007-06-21T00:00:00,2015-04-25T12:19:57,0,new,active
1290BOB20463,boudptg,,,Southcote Road,,,,,,Southcote Road,,,,E-bound,,E,E0035389,Springbourne,Boscombe,,,,,,false,UKOS,409947,91814,-1.86044,50.72586,BCT,CUS,OTH,,,,005,2006-11-24T00:00:00,2015-04-25T12:19:57,0,new,active
1290BOB20422,boudpaw,,,Cotlands Road,,,,,,Holdenhurst Road,,,,SW-bound,,SW,N0077769,Lansdowne,Bournemouth,,,,,,false,UKOS,409656,91566,-1.86457,50.72364,BCT,MKD,OTH,,,,005,2006-05-17T00:00:00,2021-05-19T11:46:27,8,new,active
1290BOB20420,boudpap,,,Cotlands Road,,,,,,Holdenhurst Road,,,,NE-bound,,NE,N0077769,Lansdowne,Bournemouth,,,,,,false,UKOS,409719,91690,-1.86367,50.72475,BCT,MKD,OTH,,,,005,2006-05-17T00:00:00,2023-11-27T15:55:46,28,new,active
1290BOA90867,bougwmg,,,Cotlands Road,,,,,,Holdenhurst Road,,,,NE-bound,,NE,N0077769,Lansdowne,Bournemouth,,,,,,false,UKOS,409705,91668,-1.86387,50.72456,BCT,MKD,OTH,,,,005,2021-04-15T00:00:00,2023-11-27T15:55:40,62,new,active
1290BOB20423,boudpwa,,,St Swithuns Roundabout,,,,,,Christchurch Road,,,,E-bound,,E,N0077769,Lansdowne,Bournemouth,,,,,,false,UKOS,409974,91444,-1.86007,50.72254,BCT,MKD,OTH,,,,005,2009-06-10T00:00:00,2020-07-21T15:47:35,8,new,active
1290BOB20415,boudpgt,,,St Swithuns Roundabout,,,,,,Christchurch Road,,,,W-bound,,W,N0077769,Lansdowne,Bournemouth,,,,,,false,UKOS,409834,91408,-1.86205,50.72221,BCT,MKD,OTH,,,,005,2006-05-17T00:00:00,2020-02-25T08:31:53,0,new,active
1290BOB20424,boudtgw,,,Derby Road,,,,,,Christchurch Road,,,,W-bound,,W,E0035366,Boscombe,Bournemouth,,,,,,false,UKOS,410189,91457,-1.85702,50.72265,BCT,MKD,OTH,,,,005,2007-06-21T00:00:00,2016-04-06T09:37:12,4,new,active
1290BOB20425,boudtjm,,,Derby Road,,,,,,Christchurch Road,,,,E-bound,,E,E0035366,Boscombe,Bournemouth,,,,,,false,UKOS,410329,91488,-1.85504,50.72293,BCT,MKD,OTH,,,,005,2007-06-21T00:00:00,2021-12-22T09:42:06,2,new,active
1290BOA90871,bougwmw,,,Derby Road,,,,,,,,,,S-bound,,S,E0035366,Boscombe,Bournemouth,,,,,,false,UKOS,410302,91465,-1.85542,50.72272,BCT,MKD,OTH,,,,005,2021-12-21T00:00:00,2022-01-05T15:36:02,94,new,active
1290BOB20427,boudtpm,,,Lynton Court,,,,,,Christchurch Road,,,,E-bound,,E,E0035366,Boscombe,Bournemouth,,,,,,false,UKOS,410511,91507,-1.85246,50.72309,BCT,MKD,OTH,,,,005,2007-06-21T00:00:00,2020-07-21T15:48:45,8,new,active
1290BOB20426,boudtpd,,,Lynton Court,,,,,,Christchurch Road,,,,W-bound,,W,E0035366,Boscombe,Bournemouth,,,,,,false,UKOS,410491,91491,-1.85274,50.72295,BCT,MKD,OTH,,,,005,2007-06-21T00:00:00,2020-02-25T08:31:54,0,new,active
1290BOB20428,boudwdt,,,Boscombe Gardens,,,,,,Christchurch Road,,,,NE-bound,,NE,E0035366,Boscombe,Bournemouth,,,,,,false,UKOS,410769,91563,-1.8488,50.72359,BCT,MKD,OTH,,,,005,2007-06-21T00:00:00,2021-07-07T13:30:46,0,new,active
1290BOB20435,boudwga,,,Boscombe Gardens,,,,,,Christchurch Road,,,,SW-bound,,SW,E0035366,Boscombe,Bournemouth,,,,,,false,UKOS,410786,91557,-1.84856,50.72354,BCT,MKD,OTH,,,,005,2009-08-24T00:00:00,2021-07-07T13:30:46,0,new,active
1290BOB20436,boudwat,,,Monkey Island,,,,,,East Overcliff Drive,,,,E-bound,,E,E0035366,Boscombe,Bournemouth,,,,,,false,UKOS,410654,91203,-1.85044,50.72036,BCT,MKD,OTH,,,,005,2007-06-21T00:00:00,2024-07-31T16:04:48,65,new,active
1290BOB20437,boudwaj,,,Monkey Island,,,,,,East Overcliff Drive,,,,W-bound,,W,E0035366,Boscombe,Bournemouth,,,,,,false,UKOS,410656,91189,-1.85041,50.72023,BCT,MKD,OTH,,,,005,2007-06-21T00:00:00,2024-07-31T16:05:20,37,new,active
1290BOB20438,boudtmj,,,Toft Zig Zag,,,,,,East Overcliff Drive,,,,W-bound,,W,E0035366,Boscombe,Bournemouth,,,,,,false,UKOS,410406,91124,-1.85396,50.71965,BCT,MKD,OTH,,,,005,2007-06-21T00:00:00,2023-03-16T09:15:00,39,new,active
1290BOB20439,boudtmt,,,Toft Zig Zag,,,,,,East Overcliff Drive,,,,E-bound,,E,E0035366,Boscombe,Bournemouth,,,,,,false,UKOS,410407,91137,-1.85394,50.71977,BCT,MKD,OTH,,,,005,2007-06-21T00:00:00,2023-03-16T09:14:33,38,new,active
1290BOB20440,boudtdm,,,Cottonwood Hotel,,,,,,East Overcliff Drive,,,,W-bound,,W,N0077769,Lansdowne,Bournemouth,,,,,,false,UKOS,410135,91074,-1.8578,50.71921,BCT,MKD,OTH,,,,005,2007-06-21T00:00:00,2021-04-22T12:05:00,15,new,active
1290BOA90868,bougwmj,,,Cottonwood Hotel,,,,,,,,,,E-bound,,E,N0077769,Lansdowne,Bournemouth,,,,,,false,UKOS,410080,91071,-1.85858,50.71918,BCT,MKD,OTH,,,,005,2021-04-22T00:00:00,2021-04-22T12:05:48,66,new,active
1290BOB20443,boudmjw,,,East Cliff Lift,,,,,,East Overcliff Drive,,,,W-bound,,W,N0077769,Lansdowne,Bournemouth,,,,,,false,UKOS,409663,90978,-1.86449,50.71835,BCT,MKD,OTH,,,,005,2007-06-21T00:00:00,2021-07-07T13:30:46,0,new,active
1290BOB20442,boudmpw,,,East Cliff Lift,,,,,,East Overcliff Drive,,,,E-bound,,E,N0077769,Lansdowne,Bournemouth,,,,,,false,UKOS,409622,90981,-1.86507,50.71838,BCT,MKD,OTH,,,,005,2007-06-21T00:00:00,2021-07-07T13:30:46,0,new,active
1290BOB20433,boudwma,,,Boscombe Crescent,,,,,,St John's Road,,,,S-bound,,S,E0035366,Boscombe,Bournemouth,,,,,,false,UKOS,411098,91710,-1.84414,50.72491,BCT,MKD,OTH,,,,005,2009-08-24T00:00:00,2015-04-25T12:19:57,0,new,active
1290BOB20434,boudwjg,,,Boscombe Crescent,,,,,,Christchurch Road,,,,W-bound,,W,E0035366,Boscombe,Bournemouth,,,,,,false,UKOS,411053,91731,-1.84477,50.7251,BCT,MKD,OTH,,,,005,2007-06-21T00:00:00,2023-02-23T14:23:59,31,new,active
1290BOB20430,boudwmd,,,Boscombe Crescent,,,,,,Christchurch Road,,,,E-bound,,E,E0035366,Boscombe,Bournemouth,,,,,,false,UKOS,411115,91776,-1.84389,50.7255,BCT,MKD,OTH,,,,005,2007-06-21T00:00:00,2023-02-23T14:25:43,31,new,active
1290BOB20431,boudwpj,,,Palmerston Road,,,,,,Palmerston Road,,,,N-bound,,N,E0035366,Boscombe,Bournemouth,,,,,,false,UKOS,411270,91959,-1.84169,50.72714,BCT,MKD,OTH,,,,005,2007-06-21T00:00:00,2015-05-20T10:59:16,3,new,active
1290BOB20432,boudwpa,,,Palmerston Road,,,,,,Christchurch Road,,,,W-bound,,W,E0035366,Boscombe,Bournemouth,,,,,,false,UKOS,411278,91829,-1.84158,50.72597,BCT,MKD,OTH,,,,005,2007-06-21T00:00:00,2015-05-20T10:58:51,2,new,active
1290BOB20273,bougagm,,,Sainsburys,,,,,,Hawkwood Road,,,,E-bound,,E,E0035366,Boscombe,Bournemouth,,,,,,false,UKOS,411526,91851,-1.83807,50.72617,BCT,MKD,OTH,,,,005,2007-06-21T00:00:00,2023-03-08T15:14:32,37,new,active
1290BOA05821,bougtga,,,Sainsburys,,,,,,Hawkwood Road,,,,W-bound,,W,E0035366,Boscombe,Bournemouth,,,,,,false,UKOS,411494,91826,-1.83852,50.72594,BCT,CUS,OTH,,,,005,2009-06-05T00:00:00,2023-03-08T15:18:21,45,new,active
1290BOB20277,bougdjd,,,Darracott Road,,,,,,Seabourne Road,,,,NW-bound,,NW,E0035383,Pokesdown,Bournemouth,,,,,,false,UKOS,412704,92143,-1.82137,50.72877,BCT,MKD,OTH,,,,005,2005-10-20T00:00:00,2021-07-07T13:30:46,0,new,active
1290BOB20276,bougdgw,,,Darracott Road,,,,,,Seabourne Road,,,,SE-bound,,SE,E0035383,Pokesdown,Bournemouth,,,,,,false,UKOS,412669,92186,-1.82186,50.72916,BCT,MKD,OTH,,,,005,2006-05-17T00:00:00,2021-07-07T13:30:46,0,new,active
1290BOB20281,bougdta,,,Oxford Avenue,,,,,,Beaufort Road,,,,SW-bound,,SW,E0035399,West Southbourne,Bournemouth,,,,,,false,UKOS,413134,92065,-1.81528,50.72806,BCT,MKD,OTH,,,,005,2006-05-17T00:00:00,2020-02-25T08:31:54,0,new,active
1290BOB20280,bougdpw,,,Oxford Avenue,,,,,,Beaufort Road,,,,NE-bound,,NE,E0035399,West Southbourne,Bournemouth,,,,,,false,UKOS,413105,92051,-1.81569,50.72793,BCT,MKD,OTH,,,,005,2005-10-21T00:00:00,2020-02-25T08:31:54,0,new,active
1290BOB20264,bougadj,,,San Remo Towers,,,,,,Boscombe Cliff Road,,,,E-bound,,E,E0035366,Boscombe,Bournemouth,,,,,,false,UKOS,411451,91413,-1.83915,50.72223,BCT,MKD,OTH,,,,005,2007-06-21T00:00:00,2023-03-13T14:45:37,37,new,active
1290BOB20265,boudwtm,,,San Remo Towers,,,,,,Michelgrove Road,,,,opp,,S,E0035366,Boscombe,Bournemouth,,,,,,false,UKOS,411411,91389,-1.83971,50.72202,BCT,MKD,OTH,,,,005,2007-06-21T00:00:00,2023-03-13T14:46:17,31,new,active
1290BOB20266,boudwmj,,,Boscombe Pier,,,,,,Sea Road,,,,S-bound,,S,E0035366,Boscombe,Bournemouth,,,,,,false,UKOS,411158,91182,-1.8433,50.72016,BCT,MKD,OTH,,,,005,2009-08-25T00:00:00,2015-04-25T12:19:57,0,new,active
1290BOB20269,boudwpw,,,Michelgrove Road,,,,,,Sea Road,,,,SW-bound,,SW,E0035366,Boscombe,Bournemouth,,,,,,false,UKOS,411324,91426,-1.84094,50.72235,BCT,MKD,OTH,,,,005,2007-06-21T00:00:00,2023-03-13T14:49:17,38,new,active
1290BOB20268,boudwpg,,,Michelgrove Road,,,,,,Sea Road,,,,NE-bound,,NE,E0035366,Boscombe,Bournemouth,,,,,,false,UKOS,411266,91388,-1.84177,50.72201,BCT,MKD,OTH,,,,005,2007-06-21T00:00:00,2023-03-13T14:48:18,37,new,active
1290BOB20272,boudwtg,,,Percy Road,,,,,,Sea Road,,,,S-bound,,S,E0035366,Boscombe,Bournemouth,,,,,,false,UKOS,411354,91550,-1.84052,50.72346,BCT,MKD,OTH,,,,005,2007-06-21T00:00:00,2023-03-03T12:19:16,42,new,active
1290BOB20271,boudwta,,,Percy Road,,,,,,Sea Road,,,,N-bound,,N,E0035366,Boscombe,Bournemouth,,,,,,false,UKOS,411343,91542,-1.84067,50.72339,BCT,MKD,OTH,,,,005,2007-06-21T00:00:00,2023-09-20T15:55:35,38,new,active
1290BOB20288,bougjdw,,,Stourfield School,,,,,,Beaufort Road,,,,o/s 147,,SW,E0035399,West Southbourne,Bournemouth,,,,,,false,UKOS,413657,92693,-1.80785,50.73369,BCT,MKD,OTH,,,,005,2007-06-21T00:00:00,2020-02-25T08:31:54,0,new,active
1290BOB20289,bougjgj,,,Stourfield School,,,,,,Cranleigh Road,,,,SE-bound,,SE,E0035399,West Southbourne,Bournemouth,,,,,,false,UKOS,413701,92711,-1.80722,50.73385,BCT,MKD,OTH,,,,005,2007-06-21T00:00:00,2021-07-07T13:30:46,0,new,active
1290BOB20291,bougjmd,,,Irving Road,,,,,,Cranleigh Road,,,,NW-bound,,NW,E0035399,West Southbourne,Bournemouth,,,,,,false,UKOS,413933,92495,-1.80394,50.73191,BCT,MKD,OTH,,,,005,2007-06-21T00:00:00,2020-02-25T08:31:54,0,new,active
1290BOB20290,bougjma,,,Irving Road,,,,,,Cranleigh Road,,,,SE-bound,,SE,E0035399,West Southbourne,Bournemouth,,,,,,false,UKOS,413917,92521,-1.80417,50.73214,BCT,MKD,OTH,,,,005,2006-05-17T00:00:00,2021-07-07T13:30:46,0,new,active
1290BOB20292,bougjmp,,,Seafield Road,,,,,,Cranleigh Road,,,,NW-bound,,NW,E0035399,West Southbourne,Bournemouth,,,,,,false,UKOS,414070,92404,-1.80201,50.73109,BCT,MKD,OTH,,,,005,2007-06-21T00:00:00,2020-02-25T08:31:54,0,new,active
1290BOB20293,bougjmt,,,Seafield Road,,,,,,Cranleigh Road,,,,SE-bound,,SE,E0035399,West Southbourne,Bournemouth,,,,,,false,UKOS,414115,92389,-1.80137,50.73095,BCT,MKD,OTH,,,,005,2007-06-21T00:00:00,2021-07-07T13:30:46,0,new,active
1290BOB20294,bougjpa,,,Athelstan Road,,,,,,Cranleigh Road,,,,SE-bound,,SE,E0035395,Tuckton,Bournemouth,,,,,,false,UKOS,414275,92275,-1.79911,50.72992,BCT,MKD,OTH,,,,005,2009-06-10T00:00:00,2016-10-25T11:24:46,12,new,active
1290BOB20295,bougjpj,,,Athelstan Road,,,,,,Cranleigh Road,,,,NW-bound,,NW,E0035395,Tuckton,Bournemouth,,,,,,false,UKOS,414341,92216,-1.79817,50.72939,BCT,MKD,OTH,,,,005,2007-06-21T00:00:00,2016-10-25T11:24:19,12,new,active
1290BOB20282,bougdwg,,,Herberton Road,,,,,,Beaufort Road,,,,NE-bound,,NE,E0035399,West Southbourne,Bournemouth,,,,,,false,UKOS,413309,92285,-1.81279,50.73003,BCT,MKD,OTH,,,,005,2007-06-21T00:00:00,2020-02-25T08:31:54,0,new,active
1290BOB20283,bougdwd,,,Herberton Road,,,,,,Beaufort Road,,,,SW-bound,,SW,E0035399,West Southbourne,Bournemouth,,,,,,false,UKOS,413307,92264,-1.81282,50.72984,BCT,MKD,OTH,,,,005,2007-06-21T00:00:00,2020-02-25T08:31:54,0,new,active
1290BOB20284,bougdwm,,,Kimberley Road,,,,,,Beaufort Road,,,,NE-bound,,NE,E0035399,West Southbourne,Bournemouth,,,,,,false,UKOS,413374,92363,-1.81187,50.73073,BCT,MKD,OTH,,,,005,2007-06-21T00:00:00,2020-02-25T08:31:54,0,new,active
1290BOB20285,bougjaj,,,Kimberley Road,,,,,,Beaufort Road,,,,SW-bound,,SW,E0035399,West Southbourne,Bournemouth,,,,,,false,UKOS,413428,92412,-1.8111,50.73117,BCT,MKD,OTH,,,,005,2006-09-21T00:00:00,2020-02-25T08:31:54,0,new,active
1290BOB20287,bougjdj,,,Burleigh Road,,,,,,Beaufort Road,,,,SW-bound,,SW,E0035399,West Southbourne,Bournemouth,,,,,,false,UKOS,413553,92562,-1.80933,50.73252,BCT,MKD,OTH,,,,005,2007-06-21T00:00:00,2020-02-25T08:31:54,0,new,active
1290BOB20286,bougjdg,,,Burleigh Road,,,,,,Beaufort Road,,,,NE-bound,,NE,E0035399,West Southbourne,Bournemouth,,,,,,false,UKOS,413523,92544,-1.80975,50.73236,BCT,MKD,OTH,,,,005,2007-06-21T00:00:00,2020-02-25T08:31:54,0,new,active
1290BOB20241,bougmad,,,St Catherines Road,,,,,,Church Road,,,,E-bound,,E,E0035387,Southbourne,Bournemouth,,,,,,false,UKOS,414788,91329,-1.79188,50.7214,BCT,MKD,OTH,,,,005,2007-06-21T00:00:00,2021-07-07T13:30:46,0,new,active
1290BOB20242,bougjwp,,,St Catherines Road,,,,,,Church Road,,,,W-bound,,W,E0035387,Southbourne,Bournemouth,,,,,,false,UKOS,414734,91329,-1.79264,50.7214,BCT,MKD,OTH,,,,005,2009-06-10T00:00:00,2021-07-07T13:30:46,0,new,active
1290BOB20297,bougjpg,,,Southbourne Crossroads,,,,,,Belle Vue Road,,,,NW-bound,,NW,E0035387,Southbourne,Bournemouth,,,,,,false,UKOS,414324,91351,-1.79845,50.72161,BCT,MKD,OTH,,,,005,2007-06-21T00:00:00,2023-10-11T07:34:33,65,new,active
1290BOB20298,bougjpd,,,Southbourne Crossroads,,,,,,Belle Vue Road,,,,E-bound,,E,E0035387,Southbourne,Bournemouth,,,,,,false,UKOS,414276,91377,-1.79913,50.72184,BCT,MKD,OTH,,,,005,2007-06-21T00:00:00,2023-10-11T07:33:53,37,new,active
1290BOB20247,bougjgt,,,Marine Road,,,,,,Southbourne Overcliff Drive,,,,E-bound,,E,E0035387,Southbourne,Bournemouth,,,,,,false,UKOS,413841,91338,-1.80529,50.7215,BCT,MKD,OTH,,,,005,2007-06-21T00:00:00,2015-02-11T16:24:58,3,new,active
1290BOB20246,bougjgw,,,Marine Road,,,,,,Southbourne Overcliff Drive,,,,W-bound,,W,E0035387,Southbourne,Bournemouth,,,,,,false,UKOS,413881,91321,-1.80472,50.72135,BCT,MKD,OTH,,,,005,2007-06-21T00:00:00,2015-04-25T12:19:58,0,new,active
1290BOB20249,bougjdt,,,Grange Road,,,,,,Southbourne Overcliff Drive,,,,opp,,W,E0035387,Southbourne,Bournemouth,,,,,,false,UKOS,413654,91302,-1.80794,50.72119,BCT,MKD,OTH,,,,005,2007-06-21T00:00:00,2021-04-01T09:57:18,8,new,active
1290BOB20248,bougjgd,,,Grange Road,,,,,,Southbourne Overcliff Drive,,,,E-bound,,E,E0035387,Southbourne,Bournemouth,,,,,,false,UKOS,413730,91304,-1.80686,50.7212,BCT,MKD,OTH,,,,005,2007-06-21T00:00:00,2021-04-01T09:56:35,8,new,active
1290BOB20234,bougmdm,,,Stevenson Road,,,,,,Southbourne Coast Road,,,,E-bound,,E,E0035387,Southbourne,Bournemouth,,,,,,false,UKOS,415116,91090,-1.78724,50.71924,BCT,MKD,OTH,,,,005,2007-06-21T00:00:00,2019-08-06T10:17:06,4,new,active
1290BOB20235,bougmdp,,,Stevenson Road,,,,,,Southbourne Coast Road,,,,NW-bound,,NW,E0035387,Southbourne,Bournemouth,,,,,,false,UKOS,415077,91088,-1.78779,50.71923,BCT,MKD,OTH,,,,005,2007-06-21T00:00:00,2015-04-25T12:19:58,0,new,active
1290BOB20236,bougmgd,,,Cellars Farm Road,,,,,,Dalmeny Road,,,,NW-bound,,NW,E0035387,Southbourne,Bournemouth,,,,,,false,UKOS,415220,91093,-1.78577,50.71927,BCT,MKD,OTH,,,,005,2007-06-21T00:00:00,2023-02-02T09:33:04,45,new,active
1290BOB20237,bougmga,,,Cellars Farm Road,,,,,,Dalmeny Road,,,,SE-bound,,SE,E0035387,Southbourne,Bournemouth,,,,,,false,UKOS,415168,91150,-1.7865,50.71978,BCT,MKD,OTH,,,,005,2007-06-21T00:00:00,2023-02-02T09:33:27,45,new,active
1290BOB20238,bougmdj,,,Wildown Road,,,,,,Church Road,,,,NW-bound,,NW,E0035387,Southbourne,Bournemouth,,,,,,false,UKOS,415003,91267,-1.78883,50.72084,BCT,MKD,OTH,,,,005,2007-06-21T00:00:00,2017-10-27T12:14:21,11,new,active
1290BOB20240,bougmdg,,,Wildown Road,,,,,,Church Road,,,,SE-bound,,SE,E0035387,Southbourne,Bournemouth,,,,,,false,UKOS,414995,91296,-1.78894,50.7211,BCT,MKD,OTH,,,,005,2007-06-21T00:00:00,2017-10-27T12:14:39,13,new,active
1290BOB20257,bougdgt,,,Ravine Road,,,,,,Boscombe Overcliffe Drive,,,,E-bound,,E,E0035366,Boscombe,Bournemouth,,,,,,false,UKOS,412652,91393,-1.82213,50.72203,BCT,MKD,OTH,,,,005,2007-06-21T00:00:00,2020-07-16T12:21:27,2,new,active
1290BOB20256,bougdgj,,,Ravine Road,,,,,,Boscombe Overcliff Drive,,,,W-bound,,W,E0035366,Boscombe,Bournemouth,,,,,,false,UKOS,412620,91373,-1.82259,50.72185,BCT,MKD,OTH,,,,005,2007-06-21T00:00:00,2015-04-25T12:19:58,0,new,active
1290BOB20258,bougdag,,,Woodland Bowling Club,,,,,,Boscombe Overcliff Drive,,,,opp,,W,E0035366,Boscombe,Bournemouth,,,,,,false,UKOS,412293,91384,-1.82722,50.72195,BCT,MKD,OTH,,,,005,2007-06-21T00:00:00,2023-03-29T13:52:08,0,new,active
1290BOB20259,bougawt,,,Woodland Bowling Club,,,,,,Boscombe Overcliffe Drive,,,,E-bound,,E,E0035366,Boscombe,Bournemouth,,,,,,false,UKOS,412326,91396,-1.82675,50.72206,BCT,MKD,OTH,,,,005,2007-06-21T00:00:00,2023-03-29T13:55:34,5,new,active
1290BOB20261,bougapm,,,Shelley Park,,,,,,Boscombe Overcliff Drive,,,,E-bound,,E,E0035366,Boscombe,Bournemouth,,,,,,false,UKOS,412000,91365,-1.83137,50.72179,BCT,MKD,OTH,,,,005,2007-06-21T00:00:00,2015-04-25T12:19:58,0,new,active
1290BOB20260,bougapw,,,Shelley Park,,,,,,Boscombe Overcliff Drive,,,,W-bound,,W,E0035366,Boscombe,Bournemouth,,,,,,false,UKOS,412032,91353,-1.83092,50.72168,BCT,MKD,OTH,,,,005,2007-06-21T00:00:00,2015-04-25T12:19:58,0,new,active
1290BOB20262,bougama,,,Wollstonecraft Road,,,,,,Boscombe Cliff Road,,,,E-bound,,E,E0035366,Boscombe,Bournemouth,,,,,,false,UKOS,411674,91381,-1.83599,50.72194,BCT,MKD,OTH,,,,005,2007-06-21T00:00:00,2015-04-25T12:19:58,0,new,active
1290BOB20263,bougajp,,,Wollstonecraft Road,,,,,,Boscombe Cliff Road,,,,W-bound,,W,E0035366,Boscombe,Bournemouth,,,,,,false,UKOS,411644,91365,-1.83641,50.7218,BCT,MKD,OTH,,,,005,2007-06-21T00:00:00,2015-04-25T12:19:58,0,new,active
1290BOB20250,bougjat,,,Stourwood Avenue,,,,,,Southbourne Overcliff Drive,,,,W-bound,,W,E0035387,Southbourne,Bournemouth,,,,,,false,UKOS,413466,91344,-1.8106,50.72157,BCT,MKD,OTH,,,,005,2007-06-21T00:00:00,2015-04-25T12:19:58,0,new,active
1290BOB20251,bougjag,,,Stourwood Avenue,,,,,,Southbourne Overcliff Drive,,,,E-bound,,E,E0035387,Southbourne,Bournemouth,,,,,,false,UKOS,413436,91356,-1.81103,50.72168,BCT,MKD,OTH,,,,005,2007-06-21T00:00:00,2024-04-25T11:02:20,37,new,active
1290BOB20252,bougdwa,,,Southwood Avenue,,,,,,Southbourne Overcliff Drive,,,,W-bound,,W,E0035387,Southbourne,Bournemouth,,,,,,false,UKOS,413270,91338,-1.81338,50.72152,BCT,MKD,OTH,,,,005,2005-10-05T00:00:00,2015-04-25T12:19:59,0,new,active
1290BOB20253,bougdtm,,,Southwood Avenue,,,,,,Southbourne Overcliff Drive,,,,E-bound,,E,E0035387,Southbourne,Bournemouth,,,,,,false,UKOS,413239,91356,-1.81382,50.72168,BCT,MKD,OTH,,,,005,2009-06-10T00:00:00,2015-04-25T12:19:59,0,new,active
1290BOB20254,bougdpg,,,Fishermans Walk Overcliff,,,,,,Southbourne Overcliff Drive,,,,E-bound,,E,E0035387,Southbourne,Bournemouth,,,,,,false,UKOS,413067,91370,-1.81625,50.72181,BCT,MKD,OTH,,,,005,2007-06-21T00:00:00,2023-03-16T09:18:47,39,new,active
1290BOB20255,bougdpd,,,Fishermans Walk Overcliff,,,,,,Southbourne Overcliff Drive,,,,W-bound,,W,E0035387,Southbourne,Bournemouth,,,,,,false,UKOS,413034,91364,-1.81672,50.72176,BCT,MKD,OTH,,,,005,2007-06-21T00:00:00,2023-03-16T09:19:08,39,new,active
1290BOB20332,boudtda,,,Ophir Gardens,,,,,,Holdenhurst Road,,,,NE-bound,,NE,E0035389,Springbourne,Boscombe,,,,,,false,UKOS,410092,92174,-1.85838,50.7291,BCT,MKD,OTH,,,,005,2007-06-20T00:00:00,2021-07-07T13:30:46,0,new,active
1290BOB20333,boudpwj,,,Ophir Gardens,,,,,,Holdenhurst Road,,,,SW-bound,,SW,E0035389,Springbourne,Boscombe,,,,,,false,UKOS,410014,92099,-1.85948,50.72843,BCT,MKD,OTH,,,,005,2007-06-20T00:00:00,2021-07-07T13:30:46,0,new,active
1290BOB20334,boudpdw,,,Wellington Road,,,,,,Wellington Road,,,,NW-bound,,NW,E0035389,Springbourne,Boscombe,,,,,,false,UKOS,409760,92055,-1.86308,50.72803,BCT,MKD,OTH,,,,005,2007-06-20T00:00:00,2020-02-25T08:31:53,0,new,active
1290BOB20335,boudpga,,,Wellington Road,,,,,,Wellington Road,,,,SE-bound,,SE,E0035389,Springbourne,Boscombe,,,,,,false,UKOS,409771,92062,-1.86293,50.7281,BCT,MKD,OTH,,,,005,2007-06-20T00:00:00,2020-02-25T08:31:53,0,new,active
1290BOB20337,boudmap,,,Portchester Road,,,,,,Beechey Road,,,,NE-bound,,NE,E0035389,Springbourne,Boscombe,,,,,,false,UKOS,409457,92327,-1.86737,50.73049,BCT,MKD,OTH,,,,005,2006-11-24T00:00:00,2021-03-03T11:55:59,9,new,active
1290BOB20338,boudmdw,,,Portchester Road,,,,,,Beechey Road,,,,SW-bound,,SW,E0035389,Springbourne,Boscombe,,,,,,false,UKOS,409542,92384,-1.86616,50.731,BCT,MKD,OTH,,,,005,2007-06-20T00:00:00,2021-03-03T11:56:28,16,new,active
1290BOB20339,boudmtm,,,Methuen Road,,,,,,Beechey Road,,,,N-bound,,N,E0035389,Springbourne,Boscombe,,,,,,false,UKOS,409638,92495,-1.8648,50.73199,BCT,MKD,OTH,,,,005,2006-11-24T00:00:00,2020-02-25T08:31:53,0,new,active
1290BOB20341,boudpad,,,Methuen Road,,,,,,Beechey Road,,,,S-bound,,S,E0035389,Springbourne,Boscombe,,,,,,false,UKOS,409663,92519,-1.86445,50.73221,BCT,MKD,OTH,,,,005,2007-06-20T00:00:00,2020-02-25T08:31:53,0,new,active
1290BOB20326,boudtwj,,,Capstone Place,,,,,,Holdenhurst Road,,,,SW-bound,,SW,E0035389,Springbourne,Boscombe,,,,,,false,UKOS,410591,92538,-1.8513,50.73236,BCT,MKD,OTH,,,,005,2007-06-20T00:00:00,2017-06-26T15:19:03,4,new,active
1290BOB20329,boudtpa,,,Springbourne Library,,,,,,Holdenhurst Road,,,,SW-bound,,SW,E0035389,Springbourne,Boscombe,,,,,,false,UKOS,410453,92429,-1.85325,50.73139,BCT,MKD,OTH,,,,005,2007-06-20T00:00:00,2021-07-07T13:30:46,0,new,active
1290BOB20328,boudtpj,,,Springbourne Library,,,,,,Holdenhurst Road,,,,NE-bound,,NE,E0035389,Springbourne,Boscombe,,,,,,false,UKOS,410508,92488,-1.85247,50.73192,BCT,MKD,OTH,,,,005,2006-05-17T00:00:00,2021-07-07T13:30:46,0,new,active
1290BOB20331,boudtgj,,,Stewart Close,,,,,,Holdenhurst Road,,,,SW-bound,,SW,E0035389,Springbourne,Boscombe,,,,,,false,UKOS,410210,92247,-1.8567,50.72975,BCT,MKD,OTH,,,,005,2007-06-20T00:00:00,2021-07-07T13:30:46,0,new,active
1290BOB20330,boudtjd,,,Stewart Close,,,,,,Holdenhurst Road,,,,NE-bound,,NE,E0035389,Springbourne,Boscombe,,,,,,false,UKOS,410304,92334,-1.85537,50.73053,BCT,MKD,OTH,,,,005,2007-06-20T00:00:00,2021-07-07T13:30:46,0,new,active
1290BOB20354,boudgda,,,Stokewood Road,,,,,,Wimborne Road,,,,S-bound,,S,N0073119,Meyrick Park,Bournemouth,,,,,,false,UKOS,408761,92735,-1.87722,50.73417,BCT,MKD,OTH,,,,005,2006-05-17T00:00:00,2020-02-25T08:31:53,0,new,active
1290BOB20353,boudgdg,,,Stokewood Road,,,,,,Wimborne Road,,,,NW-bound,,NW,N0073119,Meyrick Park,Bournemouth,,,,,,false,UKOS,408767,92709,-1.87714,50.73393,BCT,MKD,OTH,,,,005,2007-06-20T00:00:00,2020-02-25T08:31:53,0,new,active
1290BOB20342,boudpmw,,,Malmesbury Park Primary School,,,,,,Bennett Road,,,,N-bound,,N,E0035389,Springbourne,Boscombe,,,,,,false,UKOS,409918,92485,-1.86083,50.7319,BCT,MKD,OTH,,,,005,2007-06-20T00:00:00,2023-06-05T15:45:12,37,new,active
1290BOB20343,boudpta,,,Malmesbury Park Primary School,,,,,,Bennett Road,,,,S-bound,,S,E0035389,Springbourne,Boscombe,,,,,,false,UKOS,409932,92483,-1.86064,50.73188,BCT,MKD,OTH,,,,005,2007-06-20T00:00:00,2023-06-05T15:45:33,37,new,active
1290BOB20345,boudtag,,,St Andrews Church,,,,,,Bennett Road,,,,NE-bound,,NE,E0035389,Springbourne,Boscombe,,,,,,false,UKOS,410059,92677,-1.85883,50.73362,BCT,MKD,OTH,,,,005,2006-05-17T00:00:00,2020-02-25T08:31:53,0,new,active
1290BOB20344,boudpwp,,,St Andrews Church,,,,,,Bennett Road,,,,SW-bound,,SW,E0035389,Springbourne,Boscombe,,,,,,false,UKOS,410040,92639,-1.8591,50.73328,BCT,MKD,OTH,,,,005,2006-05-17T00:00:00,2020-02-25T08:31:53,0,new,active
1290BOB20302,bougjgm,,,Tuckton Corner,,,,,,Belle Vue Road,,,,S-bound,,S,E0035387,Southbourne,Bournemouth,,,,,,false,UKOS,413742,91628,-1.80668,50.72411,BCT,MKD,OTH,,,,005,2009-06-10T00:00:00,2021-07-07T13:30:46,0,new,active
1290BOB20303,bougjga,,,Tuckton Corner,,,,,,Southbourne Road,,,,W-bound,,W,E0035387,Southbourne,Bournemouth,,,,,,false,UKOS,413662,91713,-1.80781,50.72488,BCT,MKD,OTH,,,,005,2007-06-21T00:00:00,2021-07-07T13:30:46,0,new,active
1290BOB20305,bougdwt,,,Carbery Avenue,,,,,,Southbourne Road,,,,NW-bound,,NW,E0035399,West Southbourne,Bournemouth,,,,,,false,UKOS,413413,91826,-1.81134,50.7259,BCT,MKD,OTH,,,,005,2009-06-10T00:00:00,2016-10-25T11:27:14,12,new,active
1290BOB20304,bougjap,,,Carbery Avenue,,,,,,Southbourne Road,,,,SE-bound,,SE,E0035399,West Southbourne,Bournemouth,,,,,,false,UKOS,413459,91817,-1.81068,50.72582,BCT,MKD,OTH,,,,005,2009-06-10T00:00:00,2016-12-15T14:12:50,18,new,active
1290BOB20308,bougdtd,,,Grand Avenue,,,,,,Southbourne Grove,,,,W-bound,,W,E0035399,West Southbourne,Bournemouth,,,,,,false,UKOS,413166,91846,-1.81483,50.72609,BCT,MKD,OTH,,,,005,2007-06-21T00:00:00,2021-07-07T13:30:46,0,new,active
1290BOB20307,bougdtg,,,Grand Avenue,,,,,,Southbourne Grove,,,,E-bound,,E,E0035399,West Southbourne,Bournemouth,,,,,,false,UKOS,413205,91859,-1.81428,50.7262,BCT,MKD,OTH,,,,005,2007-06-21T00:00:00,2021-07-07T13:30:46,0,new,active
1290BOB20299,bougjmj,,,Avoncliffe Road,,,,,,Belle Vue Road,,,,W-bound,,W,E0035387,Southbourne,Bournemouth,,,,,,false,UKOS,414049,91408,-1.80234,50.72213,BCT,MKD,OTH,,,,005,2007-06-21T00:00:00,2021-07-07T13:30:46,0,new,active
1290BOB20300,bougjmg,,,Avoncliffe Road,,,,,,Belle Vue Road,,,,SE-bound,,SE,E0035387,Southbourne,Bournemouth,,,,,,false,UKOS,414013,91425,-1.80285,50.72228,BCT,MKD,OTH,,,,005,2007-06-21T00:00:00,2021-07-07T13:30:46,0,new,active
1290BOB20301,bougjgp,,,Clifton Road,,,,,,Belle Vue Road,,,,N-bound,,N,E0035387,Southbourne,Bournemouth,,,,,,false,UKOS,413767,91496,-1.80633,50.72293,BCT,MKD,OTH,,,,005,2009-06-10T00:00:00,2021-07-07T13:30:46,0,new,active
1290BOB20318,boudwmp,,,Kings Park,,,,,,Ashley Road,,,,NW-bound,,NW,E0035389,Springbourne,Boscombe,,,,,,false,UKOS,411176,92604,-1.84301,50.73295,BCT,MKD,OTH,,,,005,2007-06-20T00:00:00,2021-07-07T13:30:46,0,new,active
1290BOB20319,boudwmw,,,Kings Park,,,,,,Ashley Road,,,,SE-bound,,SE,E0035389,Springbourne,Boscombe,,,,,,false,UKOS,411256,92487,-1.84188,50.73189,BCT,MKD,OTH,,,,005,2007-06-20T00:00:00,2020-07-21T15:03:52,8,new,active
1290BOB20317,boudwtj,,,North Road,,,,,,Ashley Road,,,,NW-bound,,NW,E0035366,Boscombe,Bournemouth,,,,,,false,UKOS,411363,92308,-1.84036,50.73028,BCT,MKD,OTH,,,,005,2007-06-20T00:00:00,2020-08-19T14:53:35,8,new,active
1290BOB20320,boudwtp,,,North Road,,,,,,Ashley Road,,,,SE-bound,,SE,E0035366,Boscombe,Bournemouth,,,,,,false,UKOS,411420,92254,-1.83956,50.72979,BCT,MKD,OTH,,,,005,2007-06-20T00:00:00,2020-08-19T14:54:04,8,new,active
1290BOB20323,boudwdw,,,St Marys Church,,,,,,Holdenhurst Road,,,,NE-bound,,NE,E0035389,Springbourne,Boscombe,,,,,,false,UKOS,410850,92748,-1.84762,50.73425,BCT,MKD,OTH,,,,005,2007-06-20T00:00:00,2021-07-07T13:30:46,0,new,active
1290BOB20324,boudwdp,,,St Marys Church,,,,,,Holdenhurst Road,,,,SW-bound,,SW,E0035389,Springbourne,Boscombe,,,,,,false,UKOS,410802,92697,-1.8483,50.73379,BCT,MKD,OTH,,,,005,2007-06-20T00:00:00,2020-07-21T15:05:20,6,new,active
1290BOB20315,bougada,,,Sovereign Centre,,,,,,Centenary Way,,,,E-bound,,E,E0035366,Boscombe,Bournemouth,,,,,,false,UKOS,411424,92083,-1.83951,50.72826,BCT,MKD,OTH,,,,005,2007-06-20T00:00:00,2016-07-12T16:00:57,17,new,active
1290BOB20316,bougadm,,,Centenary Way,,,,,,Ashley Road,,,,SE-bound,,SE,E0035366,Boscombe,Bournemouth,,,,,,false,UKOS,411476,92183,-1.83877,50.72915,BCT,MKD,OTH,,,,005,2007-06-20T00:00:00,2021-07-07T13:30:46,0,new,active
1290DOB21024,boudpdm,,,Littlecroft Avenue,,,,,,Castlellane West,,,,SE-bound,,SE,E0035379,Moordown,Bournemouth,,,,,,false,UKOS,409746,95214,-1.8632,50.75644,BCT,MKD,OTH,,,,005,2006-05-18T00:00:00,2021-07-07T13:30:46,0,new,active
1290DOB21023,boudpdt,,,Littlecroft Avenue,,,,,,Castle Lane West,,,,N-bound,,N,E0035379,Moordown,Bournemouth,,,,,,false,UKOS,409757,95185,-1.86304,50.75618,BCT,MKD,OTH,,,,005,2006-05-18T00:00:00,2021-07-07T13:30:46,0,new,active
1290DOB21014,boudmjm,,,Granby Road,,,,,,Muscliffe Lane,,,,E-bound,,E,E0035381,Muscliffe,Bournemouth,,,,,,false,UKOS,409590,95807,-1.8654,50.76178,BCT,MKD,OTH,,,,005,2005-10-04T00:00:00,2021-07-07T13:30:46,0,new,active
1290DOB21013,boudmja,,,Granby Road,,,,,,Muscliffe Lane,,,,W-bound,,W,E0035381,Muscliffe,Bournemouth,,,,,,false,UKOS,409578,95789,-1.86557,50.76162,BCT,MKD,OTH,,,,005,2005-10-04T00:00:00,2021-07-07T13:30:46,0,new,active
1290DOB21016,boudjmj,,,Strathmore Road,,,,,,Muscliffe Lane,,,,NE-bound,,NE,E0035381,Muscliffe,Bournemouth,,,,,,false,UKOS,409264,95648,-1.87002,50.76035,BCT,MKD,OTH,,,,005,2006-07-18T00:00:00,2022-11-29T11:37:40,6,new,active
1290DOB21015,boudjpd,,,Strathmore Road,,,,,,Muscliffe Lane,,,,SW-bound,,SW,E0035381,Muscliffe,Bournemouth,,,,,,false,UKOS,409286,95651,-1.86971,50.76038,BCT,MKD,OTH,,,,005,2006-07-18T00:00:00,2022-11-29T11:38:05,6,new,active
1290DOB21017,boudjpa,,,Lawford Road,,,,,,Castle Lane West,,,,SE-bound,,SE,E0035379,Moordown,Bournemouth,,,,,,false,UKOS,409296,95558,-1.86957,50.75954,BCT,MKD,OTH,,,,005,2009-06-10T00:00:00,2021-07-07T13:30:46,0,new,active
1290DOB21018,boudjmd,,,Lawford Road,,,,,,Castle Lane West,,,,NW-bound,,NW,E0035379,Moordown,Bournemouth,,,,,,false,UKOS,409250,95574,-1.87022,50.75969,BCT,MKD,OTH,,,,005,2005-10-21T00:00:00,2020-07-28T16:03:28,10,new,active
1290DOB20976,boudadt,,,Lidl,,,,,,Woodend Road,,,,S-bound,,S,E0035402,Winton,Bournemouth,,,,,,false,UKOS,408515,93583,-1.88069,50.74179,BCT,MKD,OTH,,,,005,2007-06-21T00:00:00,2022-12-07T14:53:20,8,new,active
1290BOA90860,bougwgt,,,Lidl,,,,,,Withermoor Road,,,,W-bound,,W,E0035402,Winton,Bournemouth,,,,,,false,UKOS,408583,93594,-1.87972,50.74189,BCT,MKD,OTH,,,,005,2019-04-02T00:00:00,2022-12-07T14:53:02,81,new,active
1290DOB20977,bouajtp,,,Columbia Road,,,,,,Columbia Road,,,,W-bound,,W,E0035369,East Howe,Bournemouth,,,,,,false,UKOS,406849,94787,-1.90428,50.75264,BCT,MKD,OTH,,,,005,2006-05-18T00:00:00,2021-07-07T13:30:46,0,new,active
1290DOB20979,bouamjt,,,Priestley Road,,,,,,Columbia Road,,,,W-bound,,W,E0035369,East Howe,Bournemouth,,,,,,false,UKOS,407075,94734,-1.90107,50.75216,BCT,MKD,OTH,,,,005,2006-05-18T00:00:00,2021-07-07T13:30:46,0,new,active
1290DOB20978,bouampt,,,Priestley Road,,,,,,Columbia Road,,,,E-bound,,E,E0035369,East Howe,Bournemouth,,,,,,false,UKOS,407108,94742,-1.90061,50.75224,BCT,MKD,OTH,,,,005,2006-05-18T00:00:00,2021-07-07T13:30:46,0,new,active
1290DOB20980,bouapdg,,,Howeth Road,,,,,,Columbia Road,,,,E-bound,,E,E0035371,Ensbury Park,Bournemouth,,,,,,false,UKOS,407320,94737,-1.8976,50.75219,BCT,MKD,OTH,,,,005,2006-05-18T00:00:00,2021-07-07T13:30:46,0,new,active
1290DOB20981,bouapgt,,,Howeth Road,,,,,,Columbia Road,,,,W-bound,,W,E0035371,Ensbury Park,Bournemouth,,,,,,false,UKOS,407448,94726,-1.89579,50.75209,BCT,MKD,OTH,,,,005,2006-05-18T00:00:00,2021-07-07T13:30:46,0,new,active
1290DOB20982,bouatdm,,,Hendford Road,,,,,,Columbia Road,,,,E-bound,,E,E0035371,Ensbury Park,Bournemouth,,,,,,false,UKOS,407725,94727,-1.89186,50.75209,BCT,MKD,OTH,,,,005,2006-05-18T00:00:00,2021-07-07T13:30:46,0,new,active
1290DOB20983,bouatdg,,,Hendford Road,,,,,,Columbia Road,,,,W-bound,,W,E0035371,Ensbury Park,Bournemouth,,,,,,false,UKOS,407724,94715,-1.89188,50.75198,BCT,MKD,OTH,,,,005,2006-05-18T00:00:00,2021-07-07T13:30:46,0,new,active
1290DOB20985,bouatwj,,,Co-Op,,,,,,Columbia Road,,,,W-bound,,W,E0035371,Ensbury Park,Bournemouth,,,,,,false,UKOS,407982,94697,-1.88822,50.75182,BCT,MKD,OTH,,,,005,2009-01-05T00:00:00,2022-12-07T15:33:08,10,new,active
1290DOB20984,bouatpt,,,Co-Op,,,,,,Columbia Road,,,,E-bound,,E,E0035371,Ensbury Park,Bournemouth,,,,,,false,UKOS,408071,94689,-1.88696,50.75175,BCT,MKD,OTH,,,,005,2003-06-12T00:00:00,2022-12-07T15:32:49,10,new,active
1290DOB20969,bouawdm,,,Pickford Road,,,,,,Victoria Avenue,,,,S-bound,,S,E0035371,Ensbury Park,Bournemouth,,,,,,false,UKOS,408201,94405,-1.88512,50.74919,BCT,MKD,OTH,,,,005,2009-06-10T00:00:00,2020-02-25T08:31:53,0,new,active
1290DOB20970,bouawdj,,,Pickford Road,,,,,,Victoria Avenue,,,,NW-bound,,NW,E0035371,Ensbury Park,Bournemouth,,,,,,false,UKOS,408187,94415,-1.88532,50.74928,BCT,MKD,OTH,,,,005,2009-07-23T00:00:00,2020-02-25T08:31:53,0,new,active
1290DOB20971,bouawgm,,,Namu Road,,,,,,Victoria Avenue,,,,S-bound,,S,E0035393,Talbot Village,Bournemouth,,,,,,false,UKOS,408231,94111,-1.8847,50.74655,BCT,MKD,OTH,,,,005,2006-05-18T00:00:00,2020-02-25T08:31:53,0,new,active
1290DOB20972,bouawgj,,,Namu Road,,,,,,Bengal Road,,,,N-bound,,N,E0035393,Talbot Village,Bournemouth,,,,,,false,UKOS,408225,94051,-1.88479,50.74601,BCT,MKD,OTH,,,,005,2006-05-18T00:00:00,2020-02-25T08:31:53,0,new,active
1290DOB20974,bouawpa,,,Stanfield Road,,,,,,Withermoor Road,,,,NW-bound,,NW,E0035402,Winton,Bournemouth,,,,,,false,UKOS,408319,93807,-1.88346,50.74381,BCT,MKD,OTH,,,,005,2007-06-21T00:00:00,2021-04-13T14:49:36,13,new,active
1290DOB20973,bouawpd,,,Stanfield Road,,,,,,Withermoor Road,,,,SE-bound,,SE,E0035402,Winton,Bournemouth,,,,,,false,UKOS,408319,93816,-1.88346,50.74389,BCT,MKD,OTH,,,,005,2007-06-21T00:00:00,2021-04-13T14:49:55,8,new,active
1290DOB20990,bouawaj,,,Hill view Road,,,,,,Leybourne Avenue,,,,S-bound,,S,E0035386,Redhill,Bournemouth,,,,,,false,UKOS,408098,95283,-1.88656,50.75709,BCT,MKD,OTH,,,,005,2009-06-10T00:00:00,2022-04-12T10:45:04,6,new,active
1290DOB20989,bouawad,,,Hill view Road,,,,,,Leybourne Avenue,,,,N-bound,,N,E0035386,Redhill,Bournemouth,,,,,,false,UKOS,408089,95283,-1.88669,50.75709,BCT,MKD,OTH,,,,005,2006-02-01T00:00:00,2022-04-12T10:45:24,6,new,active
1290DOB20992,bouatpa,,,Saxonhurst Road,,,,,,Leybourne Avenue,,,,N-bound,,N,E0035382,Northbourne,Bournemouth,,,,,,false,UKOS,407998,95617,-1.88797,50.76009,BCT,MKD,OTH,,,,005,2006-05-18T00:00:00,2020-02-25T08:31:53,0,new,active
1290DOB20991,bouatpd,,,Saxonhurst Road,,,,,,Leybourne Avenue,,,,SE-bound,,SE,E0035382,Northbourne,Bournemouth,,,,,,false,UKOS,408023,95582,-1.88762,50.75978,BCT,MKD,OTH,,,,005,2009-06-10T00:00:00,2020-02-25T08:31:53,0,new,active
1290DOB20995,bouatjw,,,Palfrey Road,,,,,,Leybourne Avenue,,,,S-bound,,S,E0035382,Northbourne,Bournemouth,,,,,,false,UKOS,407886,95830,-1.88956,50.76201,BCT,MKD,OTH,,,,005,2006-05-18T00:00:00,2020-02-25T08:31:53,0,new,active
1290DOB20994,bouatjm,,,Palfrey Road,,,,,,Leybourne Avenue,,,,NW-bound,,NW,E0035382,Northbourne,Bournemouth,,,,,,false,UKOS,407838,95906,-1.89023,50.76269,BCT,MKD,OTH,,,,005,2009-06-10T00:00:00,2020-02-25T08:31:53,0,new,active
1290DOB20996,bouatdp,,,Gillam Road,,,,,,Leybourne Avenue,,,,SE-bound,,SE,E0035382,Northbourne,Bournemouth,,,,,,false,UKOS,407736,96094,-1.89168,50.76439,BCT,MKD,OTH,,,,005,2006-05-18T00:00:00,2020-07-28T15:49:18,4,new,active
1290DOB20997,bouataw,,,Gillam Road,,,,,,Leybourne Avenue,,,,NW-bound,,NW,E0035382,Northbourne,Bournemouth,,,,,,false,UKOS,407709,96098,-1.89206,50.76442,BCT,MKD,OTH,,,,005,2006-05-18T00:00:00,2020-07-28T15:49:45,2,new,active
1290DOB20987,bouawag,,,Barnes Road,,,,,,Coombe Avenue,,,,S-bound,,S,E0035371,Ensbury Park,Bournemouth,,,,,,false,UKOS,408094,94983,-1.88662,50.75439,BCT,MKD,OTH,,,,005,2009-06-10T00:00:00,2017-07-18T12:11:43,3,new,active
1290DOB20988,bouatwp,,,Barnes Road,,,,,,Coombe Avenue,,,,N-bound,,N,E0035371,Ensbury Park,Bournemouth,,,,,,false,UKOS,408084,95016,-1.88677,50.75469,BCT,MKD,OTH,,,,005,2006-05-18T00:00:00,2020-02-25T08:31:53,0,new,active
1290BOB20508,bouamjg,,,Elm Gardens,,,,,,Bransome Wood Road,,,,NW-bound,,NW,N0073121,Talbot Woods,Bournemouth,,,,,,false,UKOS,407059,92021,-1.90135,50.72777,BCT,MKD,OTH,,,,005,2007-06-20T00:00:00,2018-05-02T15:24:21,6,new,active
1290BOB20509,bouampa,,,Elm Gardens,,,,,,Branksome Wood Road,,,,SE-bound,,SE,N0073121,Talbot Woods,Bournemouth,,,,,,false,UKOS,407078,92017,-1.90108,50.72773,BCT,MKD,OTH,,,,005,2007-06-20T00:00:00,2018-05-02T15:34:42,9,new,active
1290BOB20512,bouamda,,,Ipswich Road,,,,,,Surrey Road,,,,SE-bound,,SE,E0035400,Westbourne,Bournemouth,,,,,,false,UKOS,406975,91894,-1.90255,50.72663,BCT,MKD,OTH,,,,005,2007-06-21T00:00:00,2020-07-28T14:52:52,12,new,active
1290BOB20513,bouamdt,,,Ipswich Road,,,,,,Surrey Road,,,,NW-bound,,NW,E0035400,Westbourne,Bournemouth,,,,,,false,UKOS,406993,91862,-1.90229,50.72634,BCT,MKD,OTH,,,,005,2009-06-10T00:00:00,2021-07-07T13:30:46,0,new,active
1290BOB20515,bouamwa,,,Denbeigh Lodge,,,,,,Surrey Road,,,,o/s 37,,E,E0035400,Westbourne,Bournemouth,,,,,,false,UKOS,407179,91750,-1.89966,50.72533,BCT,MKD,OTH,,,,005,2007-06-21T00:00:00,2023-02-02T15:11:20,37,new,active
1290BOB20514,bouamtg,,,Denbeigh Lodge,,,,,,Surrey Road,,,,o/s 64,,NW,E0035400,Westbourne,Bournemouth,,,,,,false,UKOS,407142,91756,-1.90018,50.72538,BCT,MKD,OTH,,,,005,2007-06-21T00:00:00,2023-02-02T15:12:04,39,new,active
1290BOB20517,bouapat,,,Surrey Gardens,,,,,,Surrey Road,,,,o/s 58,,W,E0035400,Westbourne,Bournemouth,,,,,,false,UKOS,407298,91689,-1.89797,50.72478,BCT,MKD,OTH,,,,005,2007-06-21T00:00:00,2021-07-07T13:30:46,0,new,active
1290BOB20516,bouapda,,,Surrey Gardens,,,,,,Surrey Road,,,,o/s 31,,E,E0035400,Westbourne,Bournemouth,,,,,,false,UKOS,407312,91696,-1.89777,50.72484,BCT,MKD,OTH,,,,005,2007-06-21T00:00:00,2021-07-07T13:30:46,0,new,active
1290BOB20501,bouatwg,,,Meyrick Rise,,,,,,Branksome Wood Road,,,,NW-bound,,NW,N0073119,Meyrick Park,Bournemouth,,,,,,false,UKOS,408066,91607,-1.88709,50.72403,BCT,MKD,OTH,,,,005,2009-06-10T00:00:00,2023-02-02T15:24:57,37,new,active
1290BOB20502,bouatwd,,,Meyrick Rise,,,,,,Branksome Wood Road,,,,SE-bound,,SE,N0073119,Meyrick Park,Bournemouth,,,,,,false,UKOS,408060,91639,-1.88718,50.72432,BCT,MKD,OTH,,,,005,2007-06-21T00:00:00,2023-02-02T15:25:19,37,new,active
1290BOB20504,bouatgj,,,Branksome Wood Gardens,,,,,,Branksome Wood Road,,,,E-bound,,E,N0073119,Meyrick Park,Bournemouth,,,,,,false,UKOS,407794,91756,-1.89094,50.72537,BCT,MKD,OTH,,,,005,2007-06-21T00:00:00,2023-02-02T15:41:43,37,new,active
1290BOB20503,bouatgd,,,Branksome Wood Gardens,,,,,,Branksome Wood Road,,,,W-bound,,W,N0073119,Meyrick Park,Bournemouth,,,,,,false,UKOS,407799,91749,-1.89087,50.72531,BCT,MKD,OTH,,,,005,2007-06-21T00:00:00,2023-02-02T15:42:05,39,new,active
1290BOB20505,bouapjp,,,Prince of Wales Road,,,,,,Branksome Wood Road,,,,opp,,E,N0073119,Meyrick Park,Bournemouth,,,,,,false,UKOS,407483,91812,-1.89535,50.72588,BCT,MKD,OTH,,,,005,2007-06-21T00:00:00,2015-04-25T12:20:05,0,new,active
1290BOB20506,bouapga,,,Prince of Wales Road,,,,,,Branksome Wood Road,,,,NW-bound,,NW,N0073119,Meyrick Park,Bournemouth,,,,,,false,UKOS,407392,91834,-1.89664,50.72608,BCT,MKD,OTH,,,,005,2009-06-10T00:00:00,2021-07-07T13:30:46,0,new,active
1290BOB20507,bouamwd,,,Bournewood Drive,,,,,,Branksome Wood Road,,,,NW-bound,,NW,N0073121,Talbot Woods,Bournemouth,,,,,,false,UKOS,407184,91951,-1.89958,50.72714,BCT,MKD,OTH,,,,005,2009-06-10T00:00:00,2024-11-18T10:14:42,37,new,active
1290BOB20525,bouapgd,,,Netherhall Gardens,,,,,,Poole Road,,,,E-bound,,E,E0035400,Westbourne,Bournemouth,,,,,,false,UKOS,407390,91351,-1.89668,50.72174,BCT,MKD,OTH,,,,005,2009-06-10T00:00:00,2021-07-07T13:30:46,0,new,active
1290BOB20526,bouapdp,,,Netherhall Gardens,,,,,,Poole Road,,,,W-bound,,W,E0035400,Westbourne,Bournemouth,,,,,,false,UKOS,407362,91348,-1.89707,50.72171,BCT,MKD,OTH,,,,005,2007-06-21T00:00:00,2021-07-07T13:30:46,0,new,active
1290BOB20528,bouamtd,,,Grosvenor Road,,,,,,Poole Road,,,,E-bound,,E,E0035400,Westbourne,Bournemouth,,,,,,false,UKOS,407135,91439,-1.90029,50.72253,BCT,MKD,OTH,,,,005,2007-06-21T00:00:00,2019-05-14T16:16:18,11,new,active
1290BOB20527,bouamwm,,,Grosvenor Road,,,,,,Poole Road,,,,W-bound,,W,E0035400,Westbourne,Bournemouth,,,,,,false,UKOS,407207,91400,-1.89927,50.72218,BCT,MKD,OTH,,,,005,2007-06-21T00:00:00,2019-05-14T16:16:39,11,new,active
1290BOB20529,bouamjd,,,The Westbourne,,,,,,Seamoor Road,,,,SW-bound,,SW,E0035400,Westbourne,Bournemouth,,,,,,false,UKOS,407052,91409,-1.90146,50.72226,BCT,MKD,OTH,,,,005,2007-06-21T00:00:00,2021-07-07T13:30:46,0,new,active
1290BOB20530,bouamam,,,Post Office,,,,,,Seamoor Road,,,,W-bound,,W,E0035400,Westbourne,Bournemouth,,,,,,false,UKOS,406937,91381,-1.90309,50.72201,BCT,MKD,OTH,,,,005,2007-06-21T00:00:00,2021-07-07T13:30:46,0,new,active
1290BOB20531,bouajwm,,,The Libertine,,,,,,Seamoor Road,,,,W-bound,,W,E0035400,Westbourne,Bournemouth,,,,,,false,UKOS,406879,91402,-1.90391,50.7222,BCT,MKD,OTH,,,,005,2007-06-21T00:00:00,2014-11-21T12:11:16,8,new,active
1290BOB20518,bouapma,,,Surrey Road South,,,,,,Surrey Road,,,,E-bound,,E,E0035400,Westbourne,Bournemouth,,,,,,false,UKOS,407506,91621,-1.89503,50.72416,BCT,MKD,OTH,,,,005,2007-06-21T00:00:00,2021-07-07T13:30:46,0,new,active
1290BOB20519,bouapjt,,,Surrey Road South,,,,,,Surrey Road,,,,W-bound,,W,E0035400,Westbourne,Bournemouth,,,,,,false,UKOS,407492,91611,-1.89523,50.72407,BCT,MKD,OTH,,,,005,2007-06-21T00:00:00,2021-07-07T13:30:46,0,new,active
1290BOB20521,bouapwm,,,River Court,,,,,,Surrey Road,,,,W-bound,,W,E0035400,Westbourne,Bournemouth,,,,,,false,UKOS,407641,91600,-1.89312,50.72397,BCT,MKD,OTH,,,,005,2007-06-21T00:00:00,2023-02-02T15:18:45,37,new,active
1290BOB20520,bouapwt,,,River Court,,,,,,Surrey Road,,,,E-bound,,E,E0035400,Westbourne,Bournemouth,,,,,,false,UKOS,407661,91611,-1.89283,50.72407,BCT,MKD,OTH,,,,005,2007-06-21T00:00:00,2023-02-02T15:18:24,37,new,active
1290BOB20522,bouatam,,,Queens Road,,,,,,Poole Road,,,,E-bound,,E,N0073122,West Cliff,Bournemouth,,,,,,false,UKOS,407761,91224,-1.89142,50.72059,BCT,MKD,OTH,,,,005,2007-06-21T00:00:00,2021-07-07T13:30:46,0,new,active
1290BOB20523,bouaptm,,,Queens Road,,,,,,Poole Road,,,,opp,,W,E0035400,Westbourne,Bournemouth,,,,,,false,UKOS,407560,91283,-1.89427,50.72112,BCT,MKD,OTH,,,,005,2009-06-10T00:00:00,2019-03-05T10:29:28,5,new,active
1290DOB21089,boudjad,,,Cemetery Junction,,,,,,Charminster Road,,,,NE-bound,,NE,N0073119,Meyrick Park,Bournemouth,,,,,,false,UKOS,409041,92547,-1.87326,50.73247,BCT,MKD,OTH,,,,005,2007-06-20T00:00:00,2021-07-07T13:30:46,0,new,active
1290DOB21088,boudjdj,,,Cemetery Junction,,,,,,Charminster Road,,,,SW-bound,,SW,N0073119,Meyrick Park,Bournemouth,,,,,,false,UKOS,409115,92592,-1.87221,50.73287,BCT,MKD,OTH,,,,005,2007-06-20T00:00:00,2021-07-07T13:30:46,0,new,active
1290BOB20352,boudgtd,,,Cemetery Junction,,,,,,Wimborne Road,,,,NW-bound,,NW,N0073119,Meyrick Park,Bournemouth,,,,,,false,UKOS,408941,92528,-1.87468,50.7323,BCT,MKD,OTH,,,,005,2006-05-17T00:00:00,2020-02-25T08:31:54,0,new,active
1290BOA05785,bougtdt,,,Cemetery Junction,,,,,,Lansdowne Road,,,,NW-bound,,NW,N0073119,Meyrick Park,Bournemouth,,,,,,false,UKOS,409061,92374,-1.87298,50.73091,BCT,MKD,OTH,,,,005,2009-06-10T00:00:00,2021-07-07T13:30:46,0,new,active
1290BOB20480,boudgwt,,,Cemetery Junction,,,,,,Lansdowne Road,,,,SE-bound,,SE,N0073119,Meyrick Park,Bournemouth,,,,,,false,UKOS,409027,92440,-1.87346,50.73151,BCT,MKD,OTH,,,,005,2007-03-23T00:00:00,2020-07-28T14:23:41,23,new,active
1290BOB20479,boudgwm,,,Cemetery Junction,,,,,,Lansdowne Road,,,,NW-bound,,NW,N0073119,Meyrick Park,Bournemouth,,,,,,false,UKOS,409019,92411,-1.87357,50.73125,BCT,MKD,OTH,,,,005,2007-03-23T00:00:00,2020-07-28T14:23:05,2,new,active
1290BOB20481,boudgtg,,,Cemetery Junction,,,,,,Wimborne Road,,,,S-bound,,S,N0073119,Meyrick Park,Bournemouth,,,,,,false,UKOS,408948,92332,-1.87458,50.73054,BCT,MKD,OTH,,,,005,2007-06-20T00:00:00,2019-04-10T12:30:56,17,new,active
1290BOA05712,bougtat,,,Cemetery Junction,,,,,,Wimborne Road,,,,N-bound,,N,N0073119,Meyrick Park,Bournemouth,,,,,,false,UKOS,408936,92338,-1.87475,50.73059,BCT,MKD,OTH,,,,005,2008-08-19T00:00:00,2016-10-26T12:24:40,10,new,active
1290BOB20482,boudgpt,,,Cavendish Road,,,,,,Wimborne Road,,,,N-bound,,N,N0073119,Meyrick Park,Bournemouth,,,,,,false,UKOS,408884,92121,-1.87549,50.72864,BCT,MKD,OTH,,,,005,2007-06-20T00:00:00,2023-10-11T07:39:41,37,new,active
1290BOB20485,boudgjt,,,Braidley Road,,,,,,Wimborne Road,,,,S-bound,,S,N0073119,Meyrick Park,Bournemouth,,,,,,false,UKOS,408832,91831,-1.87624,50.72603,BCT,MKD,OTH,,,,005,2007-06-21T00:00:00,2020-07-28T14:28:45,2,new,active
1290BOB20486,boudgja,,,Wimborne Road,,,,,,Wimborne Road,,,,o/s 8,,N,N0073119,Meyrick Park,Bournemouth,,,,,,false,UKOS,408784,91697,-1.87692,50.72483,BCT,MKD,OTH,,,,005,2007-06-21T00:00:00,2015-04-25T12:19:55,0,new,active
1290BOB20472,boudmag,,,Park Road,,,,,,,,,,E-bound,,E,N0073119,Meyrick Park,Bournemouth,,,,,,false,UKOS,409426,92048,-1.86782,50.72798,BCT,MKD,OTH,,,,005,2007-06-20T00:00:00,2023-09-06T09:19:34,58,new,active
1290BOB20475,boudjwa,,,Park Road,,,,,,Lansdowne Road,,,,N-bound,,N,N0073119,Meyrick Park,Bournemouth,,,,,,false,UKOS,409350,92061,-1.86889,50.72809,BCT,MKD,OTH,,,,005,2007-06-20T00:00:00,2023-09-06T09:20:13,37,new,active
1290BOB20477,boudjmt,,,Beechey Road,,,,,,Lansdowne Road,,,,NW-bound,,NW,N0073119,Meyrick Park,Bournemouth,,,,,,false,UKOS,409269,92195,-1.87004,50.7293,BCT,MKD,OTH,,,,005,2007-06-20T00:00:00,2021-07-07T13:30:46,0,new,active
1290BOB20476,boudjtd,,,Beechey Road,,,,,,Lansdowne Road,,,,SE-bound,,SE,N0073119,Meyrick Park,Bournemouth,,,,,,false,UKOS,409329,92137,-1.86919,50.72878,BCT,MKD,OTH,,,,005,2007-03-23T00:00:00,2021-07-07T13:30:46,0,new,active
1290BOB20478,boudjga,,,Milton Road,,,,,,Lansdowne Road,,,,SE-bound,,SE,N0073119,Meyrick Park,Bournemouth,,,,,,false,UKOS,409201,92288,-1.871,50.73014,BCT,MKD,OTH,,,,005,2007-06-20T00:00:00,2020-07-28T14:13:44,23,new,active
1290BOB20498,bouatwm,,,Poole Hill,,,,,,,,,,E-bound,,E,N0073122,West Cliff,Bournemouth,,,,,,false,UKOS,408076,91127,-1.88696,50.71971,BCT,MKD,OTH,,,,005,2007-09-03T00:00:00,2018-05-02T15:36:15,15,new,active
1290BOA05936,bougpma,,,Poole Hill,,,,,,Poole Hill,,,,W-bound,,W,N0073122,West Cliff,Bournemouth,,,,,,false,UKOS,408075,91122,-1.88698,50.71967,BCT,MKD,OTH,,,,005,2006-07-21T00:00:00,2018-05-02T15:36:08,4,new,active
1290BOB20496,bouatgm,,,St Michaels Roundabout,,,,,,,,,,N-bound,,N,N0073122,West Cliff,Bournemouth,,,,,,false,UKOS,407799,91167,-1.89089,50.72008,BCT,MKD,OTH,,,,005,2007-08-21T00:00:00,2016-12-15T11:19:56,12,new,active
1290BOB20497,bouatmg,,,St Michaels Roundabout,,,,,,Poole Road,,,,E-bound,,E,N0073122,West Cliff,Bournemouth,,,,,,false,UKOS,407924,91172,-1.88912,50.72012,BCT,MKD,OTH,,,,005,2007-09-03T00:00:00,2020-08-05T15:09:49,18,new,active
1290BOB20487,boudgjg,,,Marshall Point,,,,,,Richmond Gardens,,,,NE-bound,,NE,E0057149,Bournemouth,,,,,,,false,UKOS,408799,91507,-1.87671,50.72312,BCT,MKD,OTH,,,,005,2007-06-21T00:00:00,2016-06-29T12:20:43,4,new,active
1290BOB20488,boudgmd,,,Top of Dean Park Crescent,,,,,,,,,,SW-bound,,SW,E0057149,Bournemouth,,,,,,,false,UKOS,408841,91527,-1.87612,50.7233,BCT,MKD,OTH,,,,005,2007-06-21T00:00:00,2021-06-30T11:56:48,15,new,active
1290BOB20489,boudgag,,,Top of Richmond Hill,,,,,,Richmond Hill,,,,SW-bound,,SW,E0057149,Bournemouth,,,,,,,false,UKOS,408729,91453,-1.87771,50.72264,BCT,MKD,OTH,,,,005,2007-06-21T00:00:00,2020-08-04T12:12:18,2,new,active
1290BOB20500,boudagm,,,Bourne Avenue,,,,,,Bourne Avenue,,,,Stop G,,NW,E0057149,Bournemouth,,,,,,,false,UKOS,408543,91253,-1.88034,50.72084,BCT,MKD,OTH,,,,005,2007-06-21T00:00:00,2021-07-07T13:30:46,0,new,active
1290BOB20491,boudagd,,,Hampshire Court,,,,,,Bourne Avenue,,,,Stop H,,SE,E0057149,Bournemouth,,,,,,,false,UKOS,408547,91264,-1.88029,50.72094,BCT,MKD,OTH,,,,005,2006-11-24T00:00:00,2020-07-28T14:30:42,6,new,active
1290BOB20493,boudadm,,,Boots,,,,,,,,,,Stop F,,W,E0057149,Bournemouth,,,,,,,false,UKOS,408491,91211,-1.88108,50.72046,BCT,MKD,OTH,,,,005,2007-06-21T00:00:00,2021-01-27T10:27:38,6,new,active
1290BOB20499,bouawpj,,,The Avenue Shopping Centre,,,,,,Avenue Road,,,,Stop E,,E,E0057149,Bournemouth,,,,,,,false,UKOS,408319,91298,-1.88352,50.72125,BCT,MKD,OTH,,,,005,2010-04-06T00:00:00,2023-02-02T15:23:06,37,new,active
1290BOB20494,bouawmw,,,The Avenue Shopping Centre,,,,,,Avenue Road,,,,Stop D,,SW,E0057149,Bournemouth,,,,,,,false,UKOS,408320,91279,-1.8835,50.72108,BCT,MKD,OTH,,,,005,2009-06-10T00:00:00,2023-02-02T15:20:24,37,new,active
1290BOB20557,bouampw,,,St Ambrose Church,,,,,,West Overcliff Drive,,,,S-bound,,S,E0035400,Westbourne,Bournemouth,,,,,,false,UKOS,407112,90893,-1.90062,50.71762,BCT,MKD,OTH,,,,005,2007-06-21T00:00:00,2016-06-29T12:28:49,8,new,active
1290BOB20571,bouamtj,,,St Ambrose Church,,,,,,West Cliff Road,,,,SE-bound,,SE,E0035400,Westbourne,Bournemouth,,,,,,false,UKOS,407141,90908,-1.90021,50.71776,BCT,MKD,OTH,,,,005,2009-06-10T00:00:00,2020-07-28T15:24:27,2,new,active
1290BOB20570,bouampd,,,St Ambrose Church,,,,,,West Cliff Road,,,,NW-bound,,NW,E0035400,Westbourne,Bournemouth,,,,,,false,UKOS,407089,90941,-1.90095,50.71805,BCT,MKD,OTH,,,,005,2007-06-21T00:00:00,2020-07-28T15:23:52,4,new,active
1290BOB20569,bouapgp,,,Clarendon Road,,,,,,West Cliff Road,,,,W-bound,,W,N0073122,West Cliff,Bournemouth,,,,,,false,UKOS,407445,90806,-1.89591,50.71684,BCT,MKD,OTH,,,,005,2007-06-21T00:00:00,2020-07-28T15:26:31,2,new,active
1290BOB20572,bouapja,,,Clarendon Road,,,,,,West Cliff Road,,,,E-bound,,E,N0073122,West Cliff,Bournemouth,,,,,,false,UKOS,407453,90817,-1.89579,50.71694,BCT,MKD,OTH,,,,005,2007-06-21T00:00:00,2020-07-28T15:26:17,4,new,active
1290BOB20568,bouatag,,,Chine Crescent Road,,,,,,West Cliff Road,,,,W-bound,,W,N0073122,West Cliff,Bournemouth,,,,,,false,UKOS,407685,90700,-1.89251,50.71588,BCT,MKD,OTH,,,,005,2009-06-10T00:00:00,2020-02-25T08:31:53,0,new,active
1290BOB20573,bouatap,,,Chine Crescent Road,,,,,,West Cliff Road,,,,E-bound,,E,N0073122,West Cliff,Bournemouth,,,,,,false,UKOS,407705,90713,-1.89223,50.716,BCT,MKD,OTH,,,,005,2009-06-10T00:00:00,2020-02-25T08:31:53,0,new,active
1290BOB20574,bouatmj,,,Admirals Walk,,,,,,West Cliff Road,,,,E-bound,,E,N0073122,West Cliff,Bournemouth,,,,,,false,UKOS,407933,90759,-1.889,50.71641,BCT,MKD,OTH,,,,005,2007-06-21T00:00:00,2020-02-25T08:31:53,0,new,active
1290BOB20575,bouatmp,,,Admirals Walk,,,,,,West Cliff Road,,,,W-bound,,W,N0073122,West Cliff,Bournemouth,,,,,,false,UKOS,407935,90747,-1.88897,50.7163,BCT,MKD,OTH,,,,005,2007-06-21T00:00:00,2020-02-25T08:31:53,0,new,active
1290BOB20576,bouawdp,,,West Hill Road,,,,,,West Cliff Road,,,,E-bound,,E,N0073122,West Cliff,Bournemouth,,,,,,false,UKOS,408202,90776,-1.88519,50.71656,BCT,MKD,OTH,,,,005,2007-06-21T00:00:00,2022-12-09T15:45:48,8,new,active
1290BOB20577,bouawgp,,,West Hill Road,,,,,,West Cliff Road,,,,W-bound,,W,N0073122,West Cliff,Bournemouth,,,,,,false,UKOS,408233,90766,-1.88475,50.71647,BCT,MKD,OTH,,,,005,2007-09-03T00:00:00,2022-12-09T15:46:22,8,new,active
1290BOB20563,bouapmd,,,Milner Road,,,,,,West Overcliff Drive,,,,SE-bound,,SE,N0073122,West Cliff,Bournemouth,,,,,,false,UKOS,407517,90478,-1.89489,50.71389,BCT,CUS,OTH,,,,005,2007-06-21T00:00:00,2016-06-29T12:40:34,8,new,active
1290BOB20562,bouapmj,,,Milner Road,,,,,,West Overcliff Drive,,,,NW-bound,,NW,N0073122,West Cliff,Bournemouth,,,,,,false,UKOS,407523,90447,-1.89481,50.71361,BCT,CUS,OTH,,,,005,2007-06-21T00:00:00,2016-06-29T12:40:15,10,new,active
1290BOB20564,bouapwj,,,Cherry Tree Walk,,,,,,West Overcliff Drive,,,,SE-bound,,SE,N0073122,West Cliff,Bournemouth,,,,,,false,UKOS,407637,90472,-1.8932,50.71383,BCT,CUS,OTH,,,,005,2007-06-21T00:00:00,2016-06-29T12:46:34,10,new,active
1290BOB20565,bouatad,,,Cherry Tree Walk,,,,,,West Overcliff Drive,,,,NW-bound,,NW,N0073122,West Cliff,Bournemouth,,,,,,false,UKOS,407676,90416,-1.89264,50.71333,BCT,CUS,OTH,,,,005,2007-06-21T00:00:00,2016-06-29T12:46:20,10,new,active
1290BOB20566,bouatga,,,Durley Chine Court,,,,,,West Overcliff Drive,,,,opp,,NE,N0073122,West Cliff,Bournemouth,,,,,,false,UKOS,407786,90658,-1.89108,50.7155,BCT,MKD,OTH,,,,005,2007-06-21T00:00:00,2015-04-25T12:19:56,0,new,active
1290BOB20567,bouatgw,,,Durley Chine Court,,,,,,West Overcliff Drive,,,,SW-bound,,SW,N0073122,West Cliff,Bournemouth,,,,,,false,UKOS,407811,90673,-1.89073,50.71564,BCT,MKD,OTH,,,,005,2007-06-21T00:00:00,2020-02-25T08:31:54,0,new,active
1290DOB20885,bouamaj,,,Home Road,,,,,,Home Road,,,,SW-bound,,SW,E0035377,Kinson,Bournemouth,,,,,,false,UKOS,406919,96657,-1.90325,50.76946,BCT,MKD,OTH,,,,005,2006-05-17T00:00:00,2021-07-07T13:30:46,0,new,active
1290DOY39222,bouamjm,,,Library,,,,,,Millhams Road,,,,opp,,S,E0035377,Kinson,Bournemouth,,,,,,false,UKOS,407063,96687,-1.90121,50.76973,BCT,CUS,OTH,,,,005,2009-06-10T00:00:00,2015-04-25T12:19:56,0,new,active
1290DOB20884,bouamjp,,,Library,,,,,,Millhams Road,,,,NW-bound,,NW,E0035377,Kinson,Bournemouth,,,,,,false,UKOS,407073,96651,-1.90107,50.7694,BCT,MKD,OTH,,,,005,2003-06-12T00:00:00,2021-07-07T13:30:46,0,new,active
1290DOB20886,bouamjw,,,Library,,,,,,Wimborne Road,,,,E-bound,,E,E0035377,Kinson,Bournemouth,,,,,,false,UKOS,407078,96606,-1.901,50.769,BCT,MKD,OTH,,,,005,2003-06-12T00:00:00,2020-07-28T15:39:01,22,new,active
1290DOB20887,bouamaw,,,The Acorn,,,,,,Wimborne Road,,,,o/s,,W,E0035377,Kinson,Bournemouth,,,,,,false,UKOS,406975,96598,-1.90246,50.76893,BCT,MKD,OTH,,,,005,2007-10-30T00:00:00,2020-08-04T15:41:13,8,new,active
1290DOB20890,bouapad,,,Horsham Avenue,,,,,,Horsham Avenue,,,,SW-bound,,SW,E0035377,Kinson,Bournemouth,,,,,,false,UKOS,407267,96573,-1.89832,50.7687,BCT,MKD,OTH,,,,005,2006-05-17T00:00:00,2020-02-25T08:31:54,0,new,active
1290DOB20889,bouapaw,,,Horsham Avenue,,,,,,Wimborne Road,,,,W-bound,,W,E0035377,Kinson,Bournemouth,,,,,,false,UKOS,407307,96511,-1.89775,50.76814,BCT,MKD,OTH,,,,005,2006-05-17T00:00:00,2021-07-07T13:30:46,0,new,active
1290DOB20888,bouamwp,,,Horsham Avenue,,,,,,Wimborne Road,,,,E-bound,,E,E0035377,Kinson,Bournemouth,,,,,,false,UKOS,407213,96553,-1.89908,50.76852,BCT,MKD,OTH,,,,005,2006-05-17T00:00:00,2021-07-07T13:30:46,0,new,active
1290DOB20892,bouapdw,,,Glendon Avenue,,,,,,Horsham Avenue,,,,SW-bound,,SW,E0035377,Kinson,Bournemouth,,,,,,false,UKOS,407364,96753,-1.89694,50.77032,BCT,MKD,OTH,,,,005,2006-05-17T00:00:00,2021-03-03T14:27:46,9,new,active
1290DOB20891,bouapdj,,,Glendon Avenue,,,,,,Horsham Avenue,,,,NE-bound,,NE,E0035377,Kinson,Bournemouth,,,,,,false,UKOS,407347,96736,-1.89718,50.77016,BCT,MKD,OTH,,,,005,2006-05-17T00:00:00,2020-02-25T08:31:54,0,new,active
1290BOB20578,bouawaw,,,South View Place,,,,,,West Hill Road,,,,NW-bound,,NW,N0073122,West Cliff,Bournemouth,,,,,,false,UKOS,408113,90978,-1.88644,50.71837,BCT,MKD,OTH,,,,005,2007-06-21T00:00:00,2022-12-09T15:41:13,8,new,active
1290BOB20579,bouatwt,,,South View Place,,,,,,West Hill Road,,,,SE-bound,,SE,N0073122,West Cliff,Bournemouth,,,,,,false,UKOS,408085,91018,-1.88684,50.71873,BCT,MKD,OTH,,,,005,2007-06-21T00:00:00,2022-12-09T15:41:33,8,new,active
1290BOT11618,bouajpj,,,County Gates,,,,,,Poole Road,,,,E-bound,,E,E0035400,Westbourne,Bournemouth,,,,,,false,UKOS,406789,91555,-1.90519,50.72358,BCT,MKD,OTH,,,,005,2007-06-21T00:00:00,2021-07-07T13:30:46,0,new,active
1290BTX38429,bouajmg,,,Tonge Road,,,,,,Wimborne Road,,,,W-bound,,W,E0035377,Kinson,Bournemouth,,,,,,false,UKOS,406681,96640,-1.90663,50.76931,BCT,MKD,OTH,,,,005,2006-05-16T00:00:00,2021-07-07T13:30:46,0,new,active
1290BOB20001,bouajmw,,,Tonge Road,,,,,,Wimborne Road,,,,E-bound,,E,E0035377,Kinson,Bournemouth,,,,,,false,UKOS,406725,96649,-1.906,50.76939,BCT,MKD,OTH,,,,005,2006-05-16T00:00:00,2021-07-07T13:30:46,0,new,active
1290BOB20541,bouajpw,,,Warren Road,,,,,,Alumhurst Road,,,,S-bound,,S,E0035400,Westbourne,Bournemouth,,,,,,false,UKOS,406805,90894,-1.90497,50.71764,BCT,MKD,OTH,,,,005,2007-06-21T00:00:00,2020-07-28T14:58:32,10,new,active
1290BOB20556,bouajpd,,,Warren Road,,,,,,Alumhurst Road,,,,N-bound,,N,E0035400,Westbourne,Bournemouth,,,,,,false,UKOS,406780,90956,-1.90532,50.71819,BCT,MKD,OTH,,,,005,2007-06-21T00:00:00,2021-07-07T13:30:46,0,new,active
1290BOB20555,bouajtj,,,Herbert Road,,,,,,Alumhurst Road,,,,N-bound,,N,E0035400,Westbourne,Bournemouth,,,,,,false,UKOS,406832,90687,-1.90459,50.71577,BCT,MKD,OTH,,,,005,2007-06-21T00:00:00,2021-07-07T13:30:46,0,new,active
1290BOB20542,bouajtm,,,Herbert Road,,,,,,Alumhurst Road,,,,S-bound,,S,E0035400,Westbourne,Bournemouth,,,,,,false,UKOS,406835,90768,-1.90455,50.7165,BCT,MKD,OTH,,,,005,2007-06-21T00:00:00,2020-02-25T08:31:54,0,new,active
1290BOB20554,bouajwa,,,Alumdale Road,,,,,,Alumhurst Road,,,,N-bound,,N,N0073122,West Cliff,Bournemouth,,,,,,false,UKOS,406865,90575,-1.90413,50.71477,BCT,MKD,OTH,,,,005,2007-06-21T00:00:00,2021-07-07T13:30:46,0,new,active
1290BOB20544,bouajwj,,,Alumdale Road,,,,,,Alumhurst Road,,,,S-bound,,S,N0073122,West Cliff,Bournemouth,,,,,,false,UKOS,406871,90602,-1.90404,50.71501,BCT,MKD,OTH,,,,005,2007-06-21T00:00:00,2020-02-25T08:31:54,0,new,active
1290BOB20545,bouamat,,,Beaulieu Road,,,,,,Alumhuurst Road,,,,SE-bound,,SE,N0073122,West Cliff,Bournemouth,,,,,,false,UKOS,406964,90404,-1.90273,50.71323,BCT,MKD,OTH,,,,005,2007-06-21T00:00:00,2020-07-28T15:01:27,3,new,active
1290BOB20553,bouamap,,,Beaulieu Road,,,,,,Alumhurst Road,,,,NW-bound,,NW,N0073122,West Cliff,Bournemouth,,,,,,false,UKOS,406946,90405,-1.90298,50.71324,BCT,MKD,OTH,,,,005,2009-06-10T00:00:00,2021-07-07T13:30:46,0,new,active
1290BOB20546,bouampm,,,Crosby Road,,,,,,Alumhurst Road,,,,SE-bound,,SE,N0073122,West Cliff,Bournemouth,,,,,,false,UKOS,407105,90223,-1.90073,50.7116,BCT,MKD,OTH,,,,005,2009-06-10T00:00:00,2020-02-25T08:31:54,0,new,active
1290BOB20552,bouampg,,,Crosby Road,,,,,,Alumhurst Road,,,,NW-bound,,NW,N0073122,West Cliff,Bournemouth,,,,,,false,UKOS,407100,90212,-1.90081,50.7115,BCT,MKD,OTH,,,,005,2009-06-10T00:00:00,2021-07-07T13:30:46,0,new,active
1290BOB20551,bouamwg,,,Sandbourne Road,,,,,,Alumhurst Road,,,,W-bound,,W,N0073122,West Cliff,Bournemouth,,,,,,false,UKOS,407187,90131,-1.89958,50.71077,BCT,MKD,OTH,,,,005,2007-06-21T00:00:00,2021-07-07T13:30:46,0,new,active
1290BOB20547,bouamtw,,,Sandbourne Road,,,,,,Alumhurst Road,,,,E-bound,,E,N0073122,West Cliff,Bournemouth,,,,,,false,UKOS,407178,90147,-1.8997,50.71091,BCT,MKD,OTH,,,,005,2007-06-21T00:00:00,2020-02-25T08:31:53,0,new,active
1290BOB20550,bouapag,,,Studland Road,,,,,,Alumhurst Road,,,,W-bound,,W,N0073122,West Cliff,Bournemouth,,,,,,false,UKOS,407267,90140,-1.89844,50.71085,BCT,MKD,OTH,,,,005,2007-06-21T00:00:00,2021-07-07T13:30:46,0,new,active
1290BOB20548,bouapap,,,Studland Road,,,,,,Alumhurst Road,,,,E-bound,,E,N0073122,West Cliff,Bournemouth,,,,,,false,UKOS,407286,90160,-1.89817,50.71103,BCT,MKD,OTH,,,,005,2007-06-21T00:00:00,2020-02-25T08:31:53,0,new,active
1290BOB20532,bouamad,,,Westbourne Arcade,,,,,,Poole Road,,,,E-bound,,E,E0035400,Westbourne,Bournemouth,,,,,,false,UKOS,406890,91523,-1.90376,50.72329,BCT,MKD,OTH,,,,005,2007-06-21T00:00:00,2021-07-07T13:30:46,0,new,active
1290BOB20533,bouamgw,,,Library,,,,,,Alum Chine Road,,,,opp,,S,E0035400,Westbourne,Bournemouth,,,,,,false,UKOS,407035,91382,-1.9017,50.72202,BCT,MKD,OTH,,,,005,2007-06-21T00:00:00,2020-06-04T14:58:22,2,new,active
1290BOB20534,bouamdm,,,Alum Chine Road,,,,,,Alum Chine Road,,,,S-bound,,S,E0035400,Westbourne,Bournemouth,,,,,,false,UKOS,406986,91113,-1.9024,50.7196,BCT,MKD,OTH,,,,005,2007-06-21T00:00:00,2020-02-25T08:31:53,0,new,active
1290BOB20535,bouamdg,,,Alum Chine Road,,,,,,Alum Chine Road,,,,N-bound,,N,E0035400,Westbourne,Bournemouth,,,,,,false,UKOS,406978,91129,-1.90252,50.71975,BCT,MKD,OTH,,,,005,2007-06-21T00:00:00,2020-02-25T08:31:53,0,new,active
1290BOB20536,bouajwg,,,RL Stevenson Avenue,,,,,,,,,,N-bound,,N,E0035400,Westbourne,Bournemouth,,,,,,false,UKOS,406870,91153,-1.90405,50.71996,BCT,MKD,OTH,,,,005,2007-06-21T00:00:00,2016-11-25T16:18:56,4,new,active
1290BOB20539,bouajta,,,Alumhurst Road,,,,,,Alumhurst Road,,,,S-bound,,S,E0035400,Westbourne,Bournemouth,,,,,,false,UKOS,406807,91414,-1.90493,50.72231,BCT,MKD,OTH,,,,005,2007-06-21T00:00:00,2014-11-20T16:04:03,8,new,active
1290BOB20540,bouajpt,,,Alumhurst Day Centre,,,,,,Alumhurst Road,,,,opp,,S,E0035400,Westbourne,Bournemouth,,,,,,false,UKOS,406798,91239,-1.90506,50.72074,BCT,MKD,OTH,,,,005,2007-06-21T00:00:00,2020-02-25T08:31:52,0,new,active
1290BOB20558,bouamtm,,,Suspension Bridge,,,,,,West Overcliff Drive,,,,NW-bound,,NW,N0073122,West Cliff,Bournemouth,,,,,,false,UKOS,407167,90596,-1.89985,50.71495,BCT,CUS,OTH,,,,005,2007-06-21T00:00:00,2020-01-29T10:20:50,17,new,active
1290BOB20559,bouamwj,,,Suspension Bridge,,,,,,West Overcliff Drive,,,,E-bound,,E,N0073122,West Cliff,Bournemouth,,,,,,false,UKOS,407206,90593,-1.8993,50.71492,BCT,CUS,OTH,,,,005,2007-06-21T00:00:00,2020-01-29T10:21:29,17,new,active
1290BOB20560,bouapgw,,,Bowling Green,,,,,,West Overcliffe Drive,,,,W-bound,,W,N0073122,West Cliff,Bournemouth,,,,,,false,UKOS,407452,90333,-1.89582,50.71258,BCT,CUS,OTH,,,,005,2009-06-10T00:00:00,2017-02-07T11:31:34,11,new,active
1290BOB20561,bouapjw,,,Bowling Green,,,,,,West Overcliffe Drive,,,,E-bound,,E,N0073122,West Cliff,Bournemouth,,,,,,false,UKOS,407499,90359,-1.89515,50.71282,BCT,CUS,OTH,,,,005,2007-06-21T00:00:00,2017-02-07T11:31:45,12,new,active
1290BOB20549,bouapdm,,,Alum Chine,,,,,,Alumhurst Road,,,,SE-bound,,SE,N0073122,West Cliff,Bournemouth,,,,,,false,UKOS,407362,90292,-1.89709,50.71222,BCT,MKD,OTH,,,,005,2006-05-17T00:00:00,2020-07-28T15:08:11,7,new,active
1290BOA05711,bougtap,,,Littledown Centre,,,,,,,,,,E-bound,,E,E0035378,Littledown,Bournemouth,,,,,,false,UKOS,412621,93894,-1.82249,50.74452,BCT,CUS,OTH,,,,005,2009-06-10T00:00:00,2015-04-25T12:19:56,0,new,active
1290DOB21183,bougdgm,,,Littledown Centre,,,,,,Castle Lane East,,,,NW-bound,,NW,E0035378,Littledown,Bournemouth,,,,,,false,UKOS,412628,93994,-1.82238,50.74542,BCT,MKD,OTH,,,,005,2009-06-10T00:00:00,2020-07-29T11:48:25,25,new,active
1290DOB21182,bougdmt,,,Castle Lane Tesco,,,,,,Castle Lane East,,,,NW-bound,,NW,E0035378,Littledown,Bournemouth,,,,,,false,UKOS,412956,93797,-1.81774,50.74364,BCT,MKD,OTH,,,,005,2007-06-21T00:00:00,2021-07-07T13:30:46,0,new,active
1290DOB21184,bougdmg,,,Castle Lane Tesco,,,,,,Castle Lane East,,,,SE-bound,,SE,E0035378,Littledown,Bournemouth,,,,,,false,UKOS,412895,93866,-1.8186,50.74426,BCT,MKD,OTH,,,,005,2007-06-21T00:00:00,2021-07-07T13:30:46,0,new,active
1290DOB21186,bougdpm,,,St Peters Primary School,,,,,,Holdenhurst Avenue,,,,N-bound,,N,E0035376,Iford,Bournemouth,,,,,,false,UKOS,413101,93513,-1.8157,50.74108,BCT,MKD,OTH,,,,005,2003-06-12T00:00:00,2023-02-02T10:53:34,37,new,active
1290DOB21185,bougdpt,,,St Peters Primary School,,,,,,Holdenhurst Avenue,,,,S-bound,,S,E0035376,Iford,Bournemouth,,,,,,false,UKOS,413105,93547,-1.81564,50.74139,BCT,MKD,OTH,,,,005,2003-06-12T00:00:00,2023-02-02T10:54:03,37,new,active
1290DOB21187,bougdjw,,,Warnford Road West,,,,,,Petersfield Road,,,,NE-bound,,NE,E0035376,Iford,Bournemouth,,,,,,false,UKOS,412843,93378,-1.81936,50.73987,BCT,MKD,OTH,,,,005,2007-06-21T00:00:00,2023-02-02T09:52:06,37,new,active
1290DOB21188,bougdjt,,,Warnford Road West,,,,,,Petersfield Road,,,,SW-bound,,SW,E0035376,Iford,Bournemouth,,,,,,false,UKOS,412827,93350,-1.81959,50.73962,BCT,MKD,OTH,,,,005,2007-06-21T00:00:00,2023-02-02T09:52:29,37,new,active
1290DOB21189,bougdja,,,Petersfield Place,,,,,,Petersfield Road,,,,SW-bound,,SW,E0035376,Iford,Bournemouth,,,,,,false,UKOS,412689,93234,-1.82155,50.73858,BCT,MKD,OTH,,,,005,2007-06-21T00:00:00,2016-10-28T14:16:54,10,new,active
1290DOB21190,bougdgp,,,Petersfield Place,,,,,,Petersfield Road,,,,NE-bound,,NE,E0035376,Iford,Bournemouth,,,,,,false,UKOS,412644,93204,-1.82218,50.73831,BCT,MKD,OTH,,,,005,2007-06-21T00:00:00,2016-10-28T14:16:30,10,new,active
1290DOB21176,bougdjp,,,Royal Bournemouth Hospital,,,,,,,,,,Stop A,,NE,E0035378,Littledown,Bournemouth,,,,,,false,UKOS,412728,94044,-1.82097,50.74586,BCT,MKD,OTH,,,,005,2007-06-21T00:00:00,2021-02-17T11:17:08,19,new,active
1290BOA05900,bougpjd,,,Royal Bournemouth Hospital,,,,,,,,,,Stop B,,NE,E0035378,Littledown,Bournemouth,,,,,,false,UKOS,412733,94034,-1.82089,50.74577,BCT,MKD,OTH,,,,005,2007-06-19T00:00:00,2021-02-17T11:17:30,51,new,active
1290BOA90853,bougwdt,,,Royal Bournemouth Hospital,,,,,,,,,,Stop C,,NE,E0035378,Littledown,Bournemouth,,,,,,false,UKOS,412741,94025,-1.82078,50.74569,BCT,MKD,OTH,,,,005,2014-01-20T00:00:00,2023-11-02T15:13:49,115,new,active
1290DOB21177,bougdtp,,,Cheriton Avenue,,,,,,Castle Lane East,,,,SE-bound,,SE,E0035376,Iford,Bournemouth,,,,,,false,UKOS,413173,93677,-1.81467,50.74255,BCT,MKD,OTH,,,,005,2009-06-10T00:00:00,2019-10-16T15:11:35,4,new,active
1290DOB21178,bougdtw,,,Cheriton Avenue,,,,,,Castle Lane East,,,,NW-bound,,NW,E0035376,Iford,Bournemouth,,,,,,false,UKOS,413259,93609,-1.81345,50.74194,BCT,MKD,OTH,,,,005,2007-06-21T00:00:00,2021-07-07T13:30:46,0,new,active
1290DOB21203,bougjdm,,,Iford Roundabout,,,,,,Christchurch Road,,,,SW-bound,,SW,E0035376,Iford,Bournemouth,,,,,,false,UKOS,413558,93385,-1.80923,50.73992,BCT,MKD,OTH,,,,005,2007-06-21T00:00:00,2020-07-29T11:46:40,7,new,active
1290DOB21204,bougjda,,,Iford Roundabout,,,,,,Christchurch Road,,,,NE-bound,,NE,E0035376,Iford,Bournemouth,,,,,,false,UKOS,413522,93369,-1.80974,50.73978,BCT,MKD,OTH,,,,005,2007-06-21T00:00:00,2021-07-07T13:30:46,0,new,active
1290DOB21197,bougajg,,,Bishops Close,,,,,,Littledown Avenue,,,,W-bound,,W,E0035378,Littledown,Bournemouth,,,,,,false,UKOS,411575,93085,-1.83734,50.73726,BCT,MKD,OTH,,,,005,2007-06-21T00:00:00,2021-07-07T13:30:46,0,new,active
1290DOB21198,bougajm,,,Bishops Close,,,,,,Littledown Avenue,,,,E-bound,,E,E0035378,Littledown,Bournemouth,,,,,,false,UKOS,411607,93099,-1.83688,50.73739,BCT,MKD,OTH,,,,005,2007-06-21T00:00:00,2021-07-07T13:30:46,0,new,active
1290DOB21199,boudwpt,,,Thistlebarrow Road,,,,,,Littledown Avenue,,,,W-bound,,W,E0035378,Littledown,Bournemouth,,,,,,false,UKOS,411319,93030,-1.84097,50.73677,BCT,MKD,OTH,,,,005,2007-06-20T00:00:00,2021-07-07T13:30:46,0,new,active
1290DOB21200,boudwtd,,,Thistlebarrow Road,,,,,,Littledown Avenue,,,,E-bound,,E,E0035378,Littledown,Bournemouth,,,,,,false,UKOS,411344,93044,-1.84061,50.7369,BCT,MKD,OTH,,,,005,2007-06-20T00:00:00,2021-07-07T13:30:46,0,new,active
1290DOB21202,boudwjp,,,Queens Park Hotel,,,,,,Holdenhurst Road,,,,NE-bound,,NE,E0035389,Springbourne,Boscombe,,,,,,false,UKOS,411071,92905,-1.84448,50.73565,BCT,MKD,OTH,,,,005,2007-06-20T00:00:00,2021-07-07T13:30:46,0,new,active
1290BOB20322,boudwgp,,,Queens Park Hotel,,,,,,Holdenhurst Road,,,,SW-bound,,SW,E0035389,Springbourne,Boscombe,,,,,,false,UKOS,410918,92777,-1.84666,50.73451,BCT,MKD,OTH,,,,005,2006-05-17T00:00:00,2021-07-07T13:30:46,0,new,active
1290BOB20321,boudwjm,,,Queens Park Hotel,,,,,,Ashley Road,,,,o/s 166,,SE,E0035389,Springbourne,Boscombe,,,,,,false,UKOS,411082,92777,-1.84433,50.7345,BCT,MKD,OTH,,,,005,2007-06-20T00:00:00,2021-07-07T13:30:46,0,new,active
1290DOB21191,bougdat,,,Durrington Road,,,,,,Petersfield Road,,,,S-bound,,S,E0035376,Iford,Bournemouth,,,,,,false,UKOS,412463,92946,-1.82476,50.736,BCT,MKD,OTH,,,,005,2007-06-21T00:00:00,2021-07-07T13:30:46,0,new,active
1290DOB21192,bougdap,,,Durrington Road,,,,,,Petersfield Road,,,,N-bound,,N,E0035376,Iford,Bournemouth,,,,,,false,UKOS,412451,92932,-1.82493,50.73587,BCT,MKD,OTH,,,,005,2007-06-21T00:00:00,2021-07-07T13:30:46,0,new,active
1290DOB21193,bougatm,,,Avonbourne Academy,,,,,,Harewood Avenue,,,,NW-bound,,NW,E0035378,Littledown,Bournemouth,,,,,,false,UKOS,412132,93012,-1.82945,50.7366,BCT,MKD,OTH,,,,005,2007-06-20T00:00:00,2023-02-02T09:30:40,37,new,active
1290DOB21194,bougatg,,,Avonbourne Academy,,,,,,Harewood Avenue,,,,SE-bound,,SE,E0035378,Littledown,Bournemouth,,,,,,false,UKOS,412098,93056,-1.82993,50.73699,BCT,MKD,OTH,,,,005,2007-06-21T00:00:00,2023-02-02T09:30:21,37,new,active
1290DOB21195,bougamp,,,Glencoe Road,,,,,,Littledown Avenue,,,,W-bound,,W,E0035378,Littledown,Bournemouth,,,,,,false,UKOS,411830,93143,-1.83372,50.73778,BCT,MKD,OTH,,,,005,2007-06-21T00:00:00,2021-07-07T13:30:46,0,new,active
1290DOB21196,bougamj,,,Glencoe Road,,,,,,Littledown Avenue,,,,E-bound,,E,E0035378,Littledown,Bournemouth,,,,,,false,UKOS,411762,93133,-1.83469,50.73769,BCT,MKD,OTH,,,,005,2007-06-21T00:00:00,2021-07-07T13:30:46,0,new,active
1290DOB21150,bougata,,,Cooper Dean,,,,,,Castle Lane West,,,,W-bound,,W,E0035390,Strouden,Bournemouth,,,,,,false,UKOS,412068,94301,-1.83031,50.74819,BCT,MKD,OTH,,,,005,2006-05-23T00:00:00,2021-07-07T13:30:46,0,new,active
1290DOB21149,bougatw,,,Cooper Dean,,,,,,Castle Lane West,,,,E-bound,,E,E0035390,Strouden,Bournemouth,,,,,,false,UKOS,412062,94324,-1.8304,50.7484,BCT,MKD,OTH,,,,005,2008-08-06T00:00:00,2021-07-07T13:30:46,0,new,active
1290BOB20474,bougawd,,,Cooper Dean,,,,,,Wessex Way,,,,SW-bound,,SW,E0035390,Strouden,Bournemouth,,,,,,false,UKOS,412175,94187,-1.8288,50.74716,BCT,MKD,OTH,,,,005,2003-06-12T00:00:00,2023-10-10T21:01:03,45,new,active
1290DOB21152,bougamg,,,Mount Pleasant Drive,,,,,,Castle Lane West,,,,SE-bound,,SE,E0035390,Strouden,Bournemouth,,,,,,false,UKOS,411754,94452,-1.83476,50.74955,BCT,MKD,OTH,,,,005,2006-05-23T00:00:00,2021-07-07T13:30:46,0,new,active
1290DOB21153,bougajw,,,Mount Pleasant Drive,,,,,,Castle Lane West,,,,W-bound,,W,E0035390,Strouden,Bournemouth,,,,,,false,UKOS,411656,94493,-1.83614,50.74992,BCT,MKD,OTH,,,,005,2006-05-23T00:00:00,2021-07-07T13:30:46,0,new,active
1290DOB21154,bougadp,,,Craigmoor Way,,,,,,Castle Lane West,,,,W-bound,,W,E0035390,Strouden,Bournemouth,,,,,,false,UKOS,411478,94571,-1.83867,50.75063,BCT,MKD,OTH,,,,005,2006-05-23T00:00:00,2017-02-15T15:05:22,10,new,active
1290DOB21155,bougadt,,,Craigmoor Way,,,,,,Castle Lane West,,,,E-bound,,E,E0035390,Strouden,Bournemouth,,,,,,false,UKOS,411493,94574,-1.83845,50.75066,BCT,MKD,OTH,,,,005,2006-05-23T00:00:00,2017-02-15T15:04:54,10,new,active
1290DOB21156,boudwmt,,,Castlepoint,,,,,,Castle Lane West,,,,Stop A,,W,E0035390,Strouden,Bournemouth,,,,,,false,UKOS,411227,94629,-1.84222,50.75116,BCT,MKD,OTH,,,,005,2006-05-23T00:00:00,2024-01-25T22:11:11,12,new,active
1290DOB21136,boudwjd,,,Castlepoint,,,,,,Castle Lane,,,,Stop B,,E,E0035390,Strouden,Bournemouth,,,,,,false,UKOS,411123,94643,-1.8437,50.75128,BCT,MKD,OTH,,,,005,2005-10-21T00:00:00,2023-08-02T16:01:48,51,new,active
1290BOA56571,bougpda,,,Castlepoint,,,,,,Bradpole Road,,,,Off,,W,E0035390,Strouden,Bournemouth,,,,,,false,UKOS,411158,94680,-1.8432,50.75162,BCT,MKD,OTH,,,,005,2006-05-16T00:00:00,2024-05-20T08:42:49,101,new,active
1290BOA56564,bougpad,,,Castlepoint,,,,,,Hamblin Way,,,,Stop D,,E,E0035390,Strouden,Bournemouth,,,,,,false,UKOS,411122,94658,-1.84371,50.75142,BCT,MKD,OTH,,,,005,2005-10-21T00:00:00,2023-10-02T11:47:17,53,new,active
1290BOA05335,bougptd,,,Castlepoint,,,,,,,,,,Stop C,,W,E0035390,Strouden,Bournemouth,,,,,,false,UKOS,411097,94655,-1.84406,50.75139,BCT,MKD,OTH,,,,005,2007-11-09T00:00:00,2016-12-07T16:13:32,33,new,active
1290BOA90877,bougwtm,,,Castlepoint,,,,,,,,,,Stop E,,E,E0035390,Strouden,Bournemouth,,,,,,false,UKOS,411310,94727,-1.84104,50.75203,BCT,MKD,OTH,,,,005,2023-08-02T00:00:00,2024-05-20T08:42:02,145,new,active
1290BCP10007,boujadp,,,Castlepoint,,,,,,,,,,Stop F,,E,E0035390,Strouden,Bournemouth,,,,,,false,UKOS,411246,94725,-1.84195,50.75202,BCT,MKD,OTH,,,,005,2024-07-30T00:00:00,2024-07-30T16:19:43,51,new,active
1290DOB21157,boudwgj,,,Mallard Road,,,,,,Castle Lane West,,,,W-bound,,W,E0035390,Strouden,Bournemouth,,,,,,false,UKOS,410870,94595,-1.84728,50.75086,BCT,MKD,OTH,,,,005,2006-05-23T00:00:00,2021-07-07T13:30:46,0,new,active
1290DOB21143,bougawp,,,Cheshire Drive,,,,,,Jewell Road,,,,NE-bound,,NE,E0035390,Strouden,Bournemouth,,,,,,false,UKOS,412322,94583,-1.8267,50.75072,BCT,MKD,OTH,,,,005,2009-06-10T00:00:00,2021-07-07T13:30:46,0,new,active
1290DOB21144,bougatd,,,War Memorial Homes,,,,,,Jewell Road,,,,NW-bound,,NW,E0035390,Strouden,Bournemouth,,,,,,false,UKOS,412087,94412,-1.83004,50.74919,BCT,MKD,OTH,,,,005,2009-06-10T00:00:00,2021-07-07T13:30:46,0,new,active
1290DOB21147,bougatj,,,War Memorial Homes,,,,,,Jewell Road,,,,opp,,SE,E0035390,Strouden,Bournemouth,,,,,,false,UKOS,412115,94409,-1.82964,50.74916,BCT,MKD,OTH,,,,005,2009-06-10T00:00:00,2015-04-25T12:19:57,0,new,active
1290DOB21146,bougapd,,,Ibbertson Road,,,,,,Jewell Road,,,,SE-bound,,SE,E0035390,Strouden,Bournemouth,,,,,,false,UKOS,411893,94504,-1.83279,50.75002,BCT,MKD,OTH,,,,005,2009-06-10T00:00:00,2021-07-07T13:30:46,0,new,active
1290DOB21145,bougamw,,,Ibbertson Road,,,,,,Ibbertson Road,,,,SW-bound,,SW,E0035390,Strouden,Bournemouth,,,,,,false,UKOS,411860,94493,-1.83325,50.74992,BCT,MKD,OTH,,,,005,2006-05-23T00:00:00,2021-07-07T13:30:46,0,new,active
1290DOB21167,boudwad,,,Gilbert Road,,,,,,,,,,SE-bound,,SE,E0035389,Springbourne,Boscombe,,,,,,false,UKOS,410635,92864,-1.85066,50.73529,BCT,MKD,OTH,,,,005,2007-06-20T00:00:00,2016-12-08T14:21:27,1,new,active
1290DOB21169,boudtwp,,,Gilbert Road,,,,,,Richmond Park Road,,,,N-bound,,N,E0035389,Springbourne,Boscombe,,,,,,false,UKOS,410618,92820,-1.85091,50.7349,BCT,MKD,OTH,,,,005,2007-06-20T00:00:00,2021-07-07T13:30:46,0,new,active
1290DOB21175,boudtjp,,,Bennett Road,,,,,,Richmond Park Road,,,,E-bound,,E,E0035367,Charminster,Bournemouth,,,,,,false,UKOS,410293,93023,-1.85551,50.73673,BCT,MKD,OTH,,,,005,2007-06-21T00:00:00,2021-07-07T13:30:46,0,new,active
1290DOB21170,boudtgt,,,Bennett Road,,,,,,Richmond Park Road,,,,W-bound,,W,E0035367,Charminster,Bournemouth,,,,,,false,UKOS,410246,93014,-1.85617,50.73665,BCT,MKD,OTH,,,,005,2007-06-21T00:00:00,2021-07-07T13:30:46,0,new,active
1290DOB21174,boudtaj,,,Howard Road,,,,,,Richmond Park Road,,,,E-bound,,E,E0035367,Charminster,Bournemouth,,,,,,false,UKOS,410067,93028,-1.85871,50.73678,BCT,MKD,OTH,,,,005,2007-06-21T00:00:00,2015-07-29T15:23:43,6,new,active
1290DOB21171,boudpwd,,,Howard Road,,,,,,Richmond Park Road,,,,W-bound,,W,E0035367,Charminster,Bournemouth,,,,,,false,UKOS,409992,93021,-1.85977,50.73672,BCT,MKD,OTH,,,,005,2007-06-21T00:00:00,2015-07-29T15:23:56,6,new,active
1290DOB21172,boudmwp,,,Charminster,,,,,,Richmond Park Road,,,,W-bound,,W,E0035367,Charminster,Bournemouth,,,,,,false,UKOS,409688,93026,-1.86408,50.73677,BCT,MKD,OTH,,,,005,2007-06-21T00:00:00,2021-07-07T13:30:46,0,new,active
1290DOB21173,boudpag,,,Charminster,,,,,,Richmond Park Road,,,,E-bound,,E,E0035367,Charminster,Bournemouth,,,,,,false,UKOS,409665,93042,-1.8644,50.73691,BCT,MKD,OTH,,,,005,2007-06-21T00:00:00,2021-07-07T13:30:46,0,new,active
1290DOB21159,boudwaw,,,East Way,,,,,,Castle Lane West,,,,E-bound,,E,E0035390,Strouden,Bournemouth,,,,,,false,UKOS,410700,94659,-1.84969,50.75143,BCT,MKD,OTH,,,,005,2009-06-10T00:00:00,2021-07-07T13:30:46,0,new,active
1290DOB21160,boudtmg,,,Mill Road,,,,,,Castle Lane West,,,,W-bound,,W,E0035367,Charminster,Bournemouth,,,,,,false,UKOS,410536,94715,-1.85201,50.75194,BCT,MKD,OTH,,,,005,2006-05-23T00:00:00,2017-01-16T11:18:23,8,new,active
1290DOB21162,boudtpw,,,Mill Road,,,,,,Castle Lane West,,,,E-bound,,E,E0035367,Charminster,Bournemouth,,,,,,false,UKOS,410523,94730,-1.8522,50.75208,BCT,MKD,OTH,,,,005,2006-11-24T00:00:00,2020-07-29T11:36:02,14,new,active
1290DOB21161,boudtgm,,,Broadway Tavern,,,,,,Castle Lane West,,,,SE-bound,,SE,E0035367,Charminster,Bournemouth,,,,,,false,UKOS,410216,94948,-1.85654,50.75404,BCT,MKD,OTH,,,,005,2007-10-30T00:00:00,2021-07-07T13:30:46,0,new,active
1290DOB21113,boudtdw,,,Broadway Tavern,,,,,,Charminster Road,,,,SW-bound,,SW,E0035367,Charminster,Bournemouth,,,,,,false,UKOS,410128,94935,-1.85779,50.75393,BCT,MKD,OTH,,,,005,2007-03-23T00:00:00,2020-02-25T08:31:54,0,new,active
1290BOB20467,boudmtj,,,Bournemouth Station,,,,,,,,,,Stand 2,,,N0077769,Lansdowne,Bournemouth,,,,,,false,UKOS,409627,91947,-1.86497,50.72707,BCS,,,,,,005,2007-06-21T00:00:00,2016-12-08T14:14:08,47,new,active
1290BOB20454,boudpgw,,,Bournemouth Station,,,,,,Holdenhurst Road,,,,Stop 6,,NE,N0077769,Lansdowne,Bournemouth,,,,,,false,UKOS,409842,91877,-1.86193,50.72643,BCT,MKD,OTH,,,,005,2007-06-21T00:00:00,2016-09-20T09:38:20,14,new,active
1290BOB20455,boudpjg,,,Bournemouth Station,,,,,,Holdenhurst Road,,,,Stop 7,,SW,N0077769,Lansdowne,Bournemouth,,,,,,false,UKOS,409851,91855,-1.8618,50.72623,BCT,MKD,OTH,,,,005,2007-06-21T00:00:00,2016-09-20T09:38:34,9,new,active
1290BOB20465,boudmwg,,,Bournemouth Station,,,,,,,,,,Stand 1,,,N0077769,Lansdowne,Bournemouth,,,,,,false,UKOS,409641,91939,-1.86477,50.72699,BCS,,,,,,005,2007-06-21T00:00:00,2016-12-15T11:19:07,18,new,active
1290POX38418,boudmwa,,,Bournemouth Station,,,,,,,,,,Stand A,,,N0077769,Lansdowne,Bournemouth,,,,,,false,UKOS,409639,91917,-1.8648,50.7268,BCS,,,,,,005,2006-05-23T00:00:00,2020-02-25T08:31:53,0,new,active
1290BOA90826,bougtmw,,,Bournemouth Station,,,,,,,,,,Stand C,,,N0077769,Lansdowne,Bournemouth,,,,,,false,UKOS,409622,91925,-1.86504,50.72687,BCS,,,,,,005,2010-05-06T00:00:00,2015-11-17T12:49:32,0,new,active
1290BOA90828,bougtpd,,,Bournemouth Station,,,,,,,,,,Stand J,,,N0077769,Lansdowne,Bournemouth,,,,,,false,UKOS,409593,91942,-1.86545,50.72702,BCS,,,,,,005,2010-08-11T00:00:00,2020-02-25T08:31:54,0,new,active
1290POX38419,boudmtp,,,Bournemouth Station,,,,,,,,,,Stand B,,,N0077769,Lansdowne,Bournemouth,,,,,,false,UKOS,409631,91921,-1.86492,50.72683,BCS,,,,,,005,2010-05-06T00:00:00,2015-11-17T12:49:32,0,new,active
1290BOB20464,boudmwm,,,Bournemouth Station,,,,,,,,,,Stand F,,,N0077769,Lansdowne,Bournemouth,,,,,,false,UKOS,409609,91934,-1.86523,50.72695,BCS,,,,,,005,2007-06-21T00:00:00,2021-05-12T09:17:55,26,new,active
1290BOB20468,boudmta,,,Bournemouth Station,,,,,,,,,,Stand 3,,,N0077769,Lansdowne,Bournemouth,,,,,,false,UKOS,409614,91956,-1.86516,50.72715,BCS,,,,,,005,2007-06-21T00:00:00,2016-12-07T15:34:19,27,new,active
1290BOB20469,boudmpj,,,Bournemouth Station,,,,,,,,,,Stand 4,,,N0077769,Lansdowne,Bournemouth,,,,,,false,UKOS,409602,91962,-1.86532,50.7272,BCS,,,,,,005,2007-06-21T00:00:00,2016-11-04T11:04:24,18,new,active
1290BOB20470,boudmjt,,,Bournemouth Station,,,,,,,,,,Stand 5,,,N0077769,Lansdowne,Bournemouth,,,,,,false,UKOS,409584,91989,-1.86558,50.72744,BCS,,,,,,005,2007-06-20T00:00:00,2016-12-08T15:07:49,54,new,active
1290BOB20471,boudmjd,,,Bournemouth Station,,,,,,,,,,Stand K,,,N0077769,Lansdowne,Bournemouth,,,,,,false,UKOS,409582,91944,-1.86561,50.72704,BCS,,,,,,005,2007-06-20T00:00:00,2016-09-20T09:39:29,17,new,active
1290BOB20128,bouagwd,,,Poole Lane,,,,,,Moore Avenue,,,,S-bound,,S,N0077768,Turbary Common,Bournemouth,,,,,,false,UKOS,406327,95905,-1.91166,50.7627,BCT,MKD,OTH,,,,005,2006-02-01T00:00:00,2020-07-16T12:01:53,6,new,active
1290POZ00750,bougmpd,,,Poole Lane,,,,,,Moore Avenue,,,,N-bound,,N,N0077768,Turbary Common,Bournemouth,,,,,,false,UKOS,406317,95897,-1.9118,50.76263,BCT,MKD,OTH,,,,005,2005-10-21T00:00:00,2021-07-07T13:30:46,0,new,active
1290POZ00751,bougmpj,,,Suffolk Road,,,,,,Queens Road,,,,N-bound,,N,E0035400,Westbourne,Bournemouth,,,,,,false,UKOS,407673,91406,-1.89267,50.72223,BCT,MKD,OTH,,,,005,2007-06-21T00:00:00,2021-07-07T13:30:46,0,new,active
1290BOA05738,bougtdm,,,Suffolk Road,,,,,,Queens Road,,,,S-bound,,S,E0035400,Westbourne,Bournemouth,,,,,,false,UKOS,407690,91420,-1.89242,50.72235,BCT,MKD,OTH,,,,005,2008-07-30T00:00:00,2021-07-07T13:30:46,0,new,active
1290DOB20929,bouajwd,,,Cherford Road,,,,,,Kinson Road,,,,SW-bound,,SW,E0035369,East Howe,Bournemouth,,,,,,false,UKOS,406865,94923,-1.90405,50.75387,BCT,MKD,OTH,,,,005,2006-05-18T00:00:00,2021-07-07T13:30:46,0,new,active
1290DOB20930,bouajtw,,,Cherford Road,,,,,,Kinson Road,,,,NE-bound,,NE,E0035369,East Howe,Bournemouth,,,,,,false,UKOS,406855,94919,-1.90419,50.75383,BCT,MKD,OTH,,,,005,2006-05-18T00:00:00,2021-07-07T13:30:46,0,new,active
1290DOB20931,bouajmt,,,Kingsbere Avenue,,,,,,Kinson Road,,,,SW-bound,,SW,N0077768,Turbary Common,Bournemouth,,,,,,false,UKOS,406719,94657,-1.90612,50.75148,BCT,MKD,OTH,,,,005,2006-05-18T00:00:00,2021-07-07T13:30:46,0,new,active
1290DOB20932,bouajpa,,,Kingsbere Avenue,,,,,,Kinson Road,,,,NE-bound,,NE,N0077768,Turbary Common,Bournemouth,,,,,,false,UKOS,406725,94684,-1.90604,50.75172,BCT,MKD,OTH,,,,005,2006-05-18T00:00:00,2021-07-07T13:30:46,0,new,active
1290DOB20933,bouajgt,,,Acton Road,,,,,,Kinson Road,,,,SW-bound,,SW,N0077768,Turbary Common,Bournemouth,,,,,,false,UKOS,406655,94545,-1.90703,50.75047,BCT,MKD,OTH,,,,005,2005-10-21T00:00:00,2021-07-07T13:30:46,0,new,active
1290DOB20934,bouajma,,,Acton Road,,,,,,Kinson Road,,,,NE-bound,,NE,N0077768,Turbary Common,Bournemouth,,,,,,false,UKOS,406660,94570,-1.90696,50.75069,BCT,MKD,OTH,,,,005,2005-10-21T00:00:00,2021-07-07T13:30:46,0,new,active
1290DOB20937,bouajga,,,Hood Crescent,,,,,,Kinson Road,,,,NE-bound,,NE,E0040711,Wallisdown,Poole,,,,,,false,UKOS,406524,94327,-1.90889,50.74851,BCT,MKD,OTH,,,,005,2005-10-21T00:00:00,2020-02-25T08:31:53,0,new,active
1290DOB20935,bouajdw,,,Hood Crescent,,,,,,Kinson Road,,,,SW-bound,,SW,E0040711,Wallisdown,Poole,,,,,,false,UKOS,406517,94296,-1.90899,50.74823,BCT,MKD,OTH,,,,005,2005-10-21T00:00:00,2020-02-25T08:31:53,0,new,active
1290DOB20924,bouamta,,,East Howe Shops,,,,,,Kinson Road,,,,S-bound,,S,E0035369,East Howe,Bournemouth,,,,,,false,UKOS,407113,95491,-1.90052,50.75897,BCT,MKD,OTH,,,,005,2005-10-21T00:00:00,2016-12-08T14:21:27,16,new,active
1290DOB20926,bouamtp,,,East Howe Shops,,,,,,East Howe Lane,,,,SW-bound,,SW,E0035369,East Howe,Bournemouth,,,,,,false,UKOS,407175,95469,-1.89964,50.75877,BCT,MKD,OTH,,,,005,2005-10-21T00:00:00,2016-10-14T11:41:09,14,new,active
1290DOB20925,bouampj,,,East Howe Shops,,,,,,Kinson Road,,,,opp,,N,E0035369,East Howe,Bournemouth,,,,,,false,UKOS,407100,95454,-1.90071,50.75864,BCT,MKD,OTH,,,,005,2005-10-21T00:00:00,2016-10-14T11:39:19,10,new,active
1290DOB20928,bouamdj,,,Hadow Road,,,,,,Kinson Road,,,,NE-bound,,NE,E0035369,East Howe,Bournemouth,,,,,,false,UKOS,406984,95157,-1.90236,50.75597,BCT,MKD,OTH,,,,005,2005-10-21T00:00:00,2021-07-07T13:30:46,0,new,active
1290DOB20927,bouamdw,,,Hadow Road,,,,,,Kinson Road,,,,SW-bound,,SW,E0035369,East Howe,Bournemouth,,,,,,false,UKOS,406997,95166,-1.90217,50.75605,BCT,MKD,OTH,,,,005,2005-10-21T00:00:00,2021-07-07T13:30:46,0,new,active
1290BOB20312,bougagp,,,Bus Station,,,,,,,,,,Stand A,,,E0035366,Boscombe,Bournemouth,,,,,,false,UKOS,411524,92078,-1.83809,50.72821,BCS,,,,,,005,2009-02-05T00:00:00,2016-12-08T14:20:14,24,new,active
1290DOZ04840,bougagt,,,Bus Station,,,,,,,,,,Stand C,,,E0035366,Boscombe,Bournemouth,,,,,,false,UKOS,411532,92055,-1.83798,50.728,BCS,,,,,,005,2006-05-17T00:00:00,2016-10-11T14:58:49,18,new,active
1290BOB20310,bougagj,,,Bus Station,,,,,,,,,,Stand D,,,E0035366,Boscombe,Bournemouth,,,,,,false,UKOS,411526,92052,-1.83806,50.72798,BCS,,,,,,005,2006-05-17T00:00:00,2016-11-28T14:11:30,18,new,active
1290DOZ04842,bougaga,,,Bus Station,,,,,,,,,,Bay Spr,,,E0035366,Boscombe,Bournemouth,,,,,,false,UKOS,411525,92068,-1.83808,50.72812,BCS,,,,,,005,2006-05-17T00:00:00,2015-11-17T13:19:55,16,new,active
1290DOZ04841,bougadw,,,Bus Station,,,,,,,,,,Stand B,,,E0035366,Boscombe,Bournemouth,,,,,,false,UKOS,411513,92066,-1.83825,50.7281,BCS,,,,,,005,2006-05-17T00:00:00,2016-11-25T16:18:56,22,new,active
1290POA11707,bouadaw,,,Mountbatten Roundabout,,,,,,Wallisdown Road,,,,SE-bound,,SE,E0040711,Wallisdown,Poole,,,,,,false,UKOS,405002,94838,-1.93046,50.75312,BCT,MKD,OTH,,,,005,2005-10-21T00:00:00,2019-12-18T14:46:47,8,new,active
1290POA11715,bouagmj,,,Astbury Avenue,,,,,,Wallisdown Road,,,,E-bound,,E,E0040711,Wallisdown,Poole,,,,,,false,UKOS,406121,94189,-1.91461,50.74727,BCT,MKD,OTH,,,,005,2006-05-23T00:00:00,2021-07-07T13:30:46,0,new,active
1290POA11716,bouagwj,,,Tesco,,,,,,Wallisdown Road,,,,E-bound,,E,E0040711,Wallisdown,Poole,,,,,,false,UKOS,406345,94123,-1.91143,50.74668,BCT,MKD,OTH,,,,005,2007-06-08T00:00:00,2018-10-24T11:03:03,11,new,active
1290WDY38455,bouadpd,,,Holloway Avenue,,,,,,Ringwood Road,,,,NE-bound,,NE,E0035363,Bear Cross,,,,,,,false,UKOS,405608,96321,-1.92185,50.76645,BCT,MKD,OTH,,,,005,2007-06-08T00:00:00,2021-11-15T15:32:40,6,new,active
1290WDY38456,bouadpj,,,Holloway Avenue,,,,,,Ringwood Road,,,,SW-bound,,SW,E0035363,Bear Cross,,,,,,,false,UKOS,405650,96330,-1.92125,50.76653,BCT,MKD,OTH,,,,005,2007-06-08T00:00:00,2021-11-15T15:32:13,6,new,active
1290WDY38470,bouawmd,,,Coppice View,,,,,,Redhill Drive,,,,N-bound,,N,E0035386,Redhill,Bournemouth,,,,,,false,UKOS,408293,95166,-1.8838,50.75603,BCT,MKD,OTH,,,,005,2006-05-23T00:00:00,2022-04-12T10:43:43,6,new,active
1290WDY38471,bouawmt,,,Coppice View,,,,,,Redhill Drive,,,,opp,,SW,E0035386,Redhill,Bournemouth,,,,,,false,UKOS,408319,95194,-1.88343,50.75628,BCT,MKD,OTH,,,,005,2003-06-12T00:00:00,2022-04-12T10:43:20,6,new,active
1290WDY38477,boudaga,,,Pine View Gardens,,,,,,Redhill Drive,,,,o/s 50,,SW,E0035386,Redhill,Bournemouth,,,,,,false,UKOS,408532,95564,-1.8804,50.75961,BCT,MKD,OTH,,,,005,2005-10-05T00:00:00,2021-04-13T14:43:13,10,new,active
1290WDY38476,boudadw,,,Pine View Gardens,,,,,,Redhill Drive,,,,o/s 59,,NE,E0035386,Redhill,Bournemouth,,,,,,false,UKOS,408519,95552,-1.88059,50.7595,BCT,MKD,OTH,,,,005,2005-10-05T00:00:00,2021-04-13T14:43:23,12,new,active
1290WDX38476,bouawtw,,,Headswell Avenue,,,,,,Redhill Drive,,,,SW-bound,,SW,E0035386,Redhill,Bournemouth,,,,,,false,UKOS,408415,95349,-1.88207,50.75768,BCT,MKD,OTH,,,,005,2006-05-23T00:00:00,2020-02-25T08:31:53,0,new,active
1290WDX38475,bouawtm,,,Headswell Avenue,,,,,,Redhill Drive,,,,NE-bound,,NE,E0035386,Redhill,Bournemouth,,,,,,false,UKOS,408396,95316,-1.88234,50.75738,BCT,MKD,OTH,,,,005,2006-05-23T00:00:00,2020-02-25T08:31:53,0,new,active
1290WDX38483,bougjwg,,,St Peters School,,,,,,St Catherine's Road,,,,SE-bound,,SE,E0035387,Southbourne,Bournemouth,,,,,,false,UKOS,414690,91502,-1.79326,50.72296,BCT,MKD,OTH,,,,005,2009-06-10T00:00:00,2020-07-29T11:58:40,5,new,active
1290DOB21211,bougdgd,,,Spurgeon Road,,,,,,Christchurch Road,,,,SW-bound,,SW,E0035383,Pokesdown,Bournemouth,,,,,,false,UKOS,412637,92491,-1.82231,50.7319,BCT,MKD,OTH,,,,005,2007-06-20T00:00:00,2014-10-07T14:41:58,12,new,active
1290DOB21213,bougdga,,,Spurgeon Road,,,,,,Christchurch Road,,,,NE-bound,,NE,E0035383,Pokesdown,Bournemouth,,,,,,false,UKOS,412601,92485,-1.82282,50.73185,BCT,MKD,OTH,,,,005,2006-05-23T00:00:00,2014-10-07T14:41:35,13,new,active
1290DOB21214,bougdam,,,Pokesdown Station,,,,,,Christchurch Road,,,,opp,,W,E0035383,Pokesdown,Bournemouth,,,,,,false,UKOS,412417,92359,-1.82543,50.73072,BCT,MKD,OTH,,,,005,2007-05-23T00:00:00,2015-04-25T12:19:58,0,new,active
1290BOB20274,bougdaw,,,Pokesdown Station,,,,,,Seabourne Road,,,,SE-bound,,SE,E0035383,Pokesdown,Bournemouth,,,,,,false,UKOS,412485,92373,-1.82447,50.73084,BCT,MKD,OTH,,,,005,2007-05-23T00:00:00,2020-07-21T14:46:39,11,new,active
1290DOB21216,bougawj,,,Hannington Road,,,,,,Christchurch Road,,,,NE-bound,,NE,E0035383,Pokesdown,Bournemouth,,,,,,false,UKOS,412301,92296,-1.82707,50.73015,BCT,MKD,OTH,,,,005,2009-06-10T00:00:00,2021-07-07T13:30:46,0,new,active
1290DOB21215,bougawm,,,Hannington Road,,,,,,Christchurch Road,,,,SW-bound,,SW,E0035383,Pokesdown,Bournemouth,,,,,,false,UKOS,412306,92290,-1.827,50.7301,BCT,MKD,OTH,,,,005,2009-06-10T00:00:00,2021-07-07T13:30:46,0,new,active
1290DOB21220,bougamt,,,Portman Road,,,,,,Christchurch Road,,,,E-bound,,E,E0035366,Boscombe,Bournemouth,,,,,,false,UKOS,411832,92076,-1.83373,50.72819,BCT,MKD,OTH,,,,005,2007-06-20T00:00:00,2021-07-07T13:30:46,0,new,active
1290DOB21205,bougdwp,,,Exton Road,,,,,,Christchurch Road,,,,SW-bound,,SW,E0035376,Iford,Bournemouth,,,,,,false,UKOS,413402,93183,-1.81144,50.73811,BCT,MKD,OTH,,,,005,2007-06-21T00:00:00,2021-07-07T13:30:46,0,new,active
1290DOB21225,bougjad,,,Exton Road,,,,,,Christchurch Road,,,,NE-bound,,NE,E0035376,Iford,Bournemouth,,,,,,false,UKOS,413424,93228,-1.81113,50.73851,BCT,MKD,OTH,,,,005,2007-06-21T00:00:00,2021-07-07T13:30:46,0,new,active
1290DOB21206,bougdtj,,,Warnford Road,,,,,,Christchurch Road,,,,SW-bound,,SW,E0035376,Iford,Bournemouth,,,,,,false,UKOS,413232,92982,-1.81386,50.7363,BCT,MKD,OTH,,,,005,2007-06-21T00:00:00,2021-07-07T13:30:46,0,new,active
1290DOB21224,bougdwj,,,Warnford Road,,,,,,Christchurch Road,,,,NE-bound,,NE,E0035376,Iford,Bournemouth,,,,,,false,UKOS,413312,93087,-1.81272,50.73724,BCT,MKD,OTH,,,,005,2007-06-21T00:00:00,2021-07-07T13:30:46,0,new,active
1290DOB21223,bougdpj,,,Hambledon Road,,,,,,Christchurch Road,,,,NE-bound,,NE,E0035376,Iford,Bournemouth,,,,,,false,UKOS,413091,92851,-1.81586,50.73513,BCT,MKD,OTH,,,,005,2007-06-25T00:00:00,2021-07-07T13:30:46,0,new,active
1290DOB21207,bougdpa,,,Hambledon Road,,,,,,Christchurch Road,,,,SW-bound,,SW,E0035376,Iford,Bournemouth,,,,,,false,UKOS,413027,92789,-1.81677,50.73457,BCT,MKD,OTH,,,,005,2007-06-21T00:00:00,2021-07-07T13:30:46,0,new,active
1290DOB21208,bougdma,,,Harewood Avenue,,,,,,Christchurch Road,,,,SW-bound,,SW,E0035383,Pokesdown,Bournemouth,,,,,,false,UKOS,412886,92664,-1.81877,50.73345,BCT,MKD,OTH,,,,005,2006-05-23T00:00:00,2021-07-07T13:30:46,0,new,active
1290DOB21222,bougdmd,,,Harewood Avenue,,,,,,Christchurch Road,,,,NE-bound,,NE,E0035383,Pokesdown,Bournemouth,,,,,,false,UKOS,412888,92685,-1.81874,50.73364,BCT,MKD,OTH,,,,005,2007-06-20T00:00:00,2021-07-07T13:30:46,0,new,active
1290DOB21210,bougdjm,,,St James School,,,,,,Christchurch Road,,,,NE-bound,,NE,E0035383,Pokesdown,Bournemouth,,,,,,false,UKOS,412731,92547,-1.82097,50.7324,BCT,MKD,OTH,,,,005,2007-06-20T00:00:00,2016-06-29T14:50:33,4,new,active
1290DOB21209,bougdjg,,,St James School,,,,,,Christchurch Road,,,,SW-bound,,SW,E0035383,Pokesdown,Bournemouth,,,,,,false,UKOS,412735,92532,-1.82092,50.73227,BCT,MKD,OTH,,,,005,2007-06-20T00:00:00,2016-06-29T14:50:11,10,new,active
1290DOZ04830,boudtam,,,Summerbee Schools,,,,,,East Way,,,,W-bound,,W,E0035367,Charminster,Bournemouth,,,,,,false,UKOS,410075,94273,-1.85856,50.74797,BCT,MKD,OTH,,,,005,2006-05-23T00:00:00,2015-04-25T12:19:58,0,new,active
1290DOZ04832,boudpwg,,,Bournemouth School For Boys,,,,,,East Way,,,,E-bound,,E,E0035367,Charminster,Bournemouth,,,,,,false,UKOS,410163,94309,-1.85731,50.7483,BCT,MKD,OTH,,,,005,2006-02-01T00:00:00,2020-02-25T08:31:54,0,new,active
1290DOZ04835,bouamwt,,,The Bourne Academy,,,,,,Hadow Road,,,,E-bound,,E,E0035369,East Howe,Bournemouth,,,,,,false,UKOS,407127,95202,-1.90033,50.75637,BCT,MKD,OTH,,,,005,2003-06-12T00:00:00,2017-09-20T12:24:58,18,new,active
1290DOB21218,bougamd,,,Ashley Road,,,,,,Christchurch Road,,,,W-bound,,W,E0035366,Boscombe,Bournemouth,,,,,,false,UKOS,411710,92012,-1.83546,50.72761,BCT,MKD,OTH,,,,005,2007-06-20T00:00:00,2015-01-26T12:47:23,13,new,active
1290BOA05841,bougpdt,,,Ashley Road,,,,,,Christchurch Road,,,,E-bound,,E,E0035366,Boscombe,Bournemouth,,,,,,false,UKOS,411676,92007,-1.83594,50.72757,BCT,MKD,OTH,,,,005,2006-05-16T00:00:00,2015-01-26T12:44:55,2,new,active
1290DOB21219,bougajt,,,Ashley Road,,,,,,Christchurch Road,,,,E-bound,,E,E0035366,Boscombe,Bournemouth,,,,,,false,UKOS,411668,92003,-1.83605,50.72753,BCT,MKD,OTH,,,,005,2007-06-20T00:00:00,2015-01-26T12:44:47,2,new,active
1290DOB21217,bougapt,,,Parkwood Road,,,,,,Christchurch Road,,,,W-bound,,W,E0035383,Pokesdown,Bournemouth,,,,,,false,UKOS,412008,92135,-1.83123,50.72871,BCT,MKD,OTH,,,,005,2007-06-20T00:00:00,2021-07-07T13:30:46,0,new,active
1290DOB21221,bougatp,,,Parkwood Road,,,,,,Christchurch Road,,,,E-bound,,E,E0035383,Pokesdown,Bournemouth,,,,,,false,UKOS,412138,92203,-1.82939,50.72932,BCT,MKD,OTH,,,,005,2005-10-20T00:00:00,2021-07-07T13:30:46,0,new,active
1290DOB20962,bouawpw,,,Osborne Road,,,,,,Talbot Road,,,,NW-bound,,NW,E0035402,Winton,Bournemouth,,,,,,false,UKOS,408367,93477,-1.88279,50.74084,BCT,MKD,OTH,,,,005,2007-06-21T00:00:00,2020-02-25T08:31:53,0,new,active
1290DOB20961,bouawpg,,,Osborne Road,,,,,,Talbot Road,,,,E-bound,,E,E0035402,Winton,Bournemouth,,,,,,false,UKOS,408336,93500,-1.88323,50.74105,BCT,MKD,OTH,,,,005,2007-06-21T00:00:00,2020-02-25T08:31:53,0,new,active
1290DOB21068,boudatd,,,Winton Banks,,,,,,Alma Road,,,,E-bound,,E,E0035402,Winton,Bournemouth,,,,,,false,UKOS,408678,93353,-1.87838,50.73972,BCT,MKD,OTH,,,,005,2009-06-10T00:00:00,2024-05-01T12:00:33,61,new,active
1290DOB21065,boudajw,,,Winton Banks,,,,,,Wimborne Road,,,,S-bound,,S,E0035402,Winton,Bournemouth,,,,,,false,UKOS,408597,93283,-1.87953,50.7391,BCT,MKD,OTH,,,,005,2007-06-21T00:00:00,2024-05-01T11:57:01,34,new,active
1290DOB21064,boudama,,,Winton Banks,,,,,,Wimborne Road,,,,N-bound,,N,E0035402,Winton,Bournemouth,,,,,,false,UKOS,408609,93463,-1.87936,50.74071,BCT,MKD,OTH,,,,005,2007-06-21T00:00:00,2024-05-01T11:55:03,61,new,active
1290BOA05874,bougpga,,,Winton Banks,,,,,,Wimborne Road,,,,N-bound,,N,E0035402,Winton,Bournemouth,,,,,,false,UKOS,408610,93478,-1.87934,50.74085,BCT,MKD,OTH,,,,005,2006-02-13T00:00:00,2024-05-01T11:54:16,33,new,active
1290BOA05882,bougpja,,,Winton Banks,,,,,,Wimborne Road,,,,S-bound,,S,E0035402,Winton,Bournemouth,,,,,,false,UKOS,408598,93309,-1.87952,50.73933,BCT,MKD,OTH,,,,005,2006-09-21T00:00:00,2024-05-01T12:04:35,33,new,active
1290DOB20964,boudagt,,,Winton Banks,,,,,,Talbot Road,,,,W-bound,,W,E0035402,Winton,Bournemouth,,,,,,false,UKOS,408537,93403,-1.88038,50.74018,BCT,MKD,OTH,,,,005,2008-07-30T00:00:00,2024-05-01T11:56:26,33,new,active
1290DOB20963,boudagj,,,Winton Banks,,,,,,Talbot Road,,,,E-bound,,E,E0035402,Winton,Bournemouth,,,,,,false,UKOS,408536,93415,-1.88039,50.74028,BCT,MKD,OTH,,,,005,2007-06-21T00:00:00,2024-05-01T11:55:51,33,new,active
1290DOB21044,boudgdm,,,Ensbury Park Road,,,,,,Wimborne Road,,,,S-bound,,S,E0035379,Moordown,Bournemouth,,,,,,false,UKOS,408771,94545,-1.87704,50.75044,BCT,MKD,OTH,,,,005,2006-05-23T00:00:00,2021-07-07T13:30:46,0,new,active
1290DOB21045,boudgdp,,,Ensbury Park Road,,,,,,Wimborne Road,,,,N-bound,,N,E0035379,Moordown,Bournemouth,,,,,,false,UKOS,408771,94604,-1.87704,50.75097,BCT,MKD,OTH,,,,005,2006-05-23T00:00:00,2021-07-07T13:30:46,0,new,active
1290DOB20965,boudawp,,,Ensbury Park Road,,,,,,Ensbury Park Road,,,,W-bound,,W,E0035379,Moordown,Bournemouth,,,,,,false,UKOS,408727,94579,-1.87766,50.75075,BCT,MKD,OTH,,,,005,2006-05-18T00:00:00,2021-07-07T13:30:46,0,new,active
1290DOB20967,bouawtd,,,Highfield Road,,,,,,Ensbury Park Road,,,,E-bound,,E,E0035371,Ensbury Park,Bournemouth,,,,,,false,UKOS,408386,94581,-1.88249,50.75077,BCT,MKD,OTH,,,,005,2006-05-18T00:00:00,2021-07-07T13:30:46,0,new,active
1290DOB20966,boudada,,,Highfield Road,,,,,,Ensbury Park Road,,,,W-bound,,W,E0035371,Ensbury Park,Bournemouth,,,,,,false,UKOS,408419,94564,-1.88203,50.75062,BCT,MKD,OTH,,,,005,2006-05-18T00:00:00,2021-07-07T13:30:46,0,new,active
1290DOB20938,bouajap,,,Kinson Road,,,,,,Kinson Road,,,,NE-bound,,NE,E0040711,Wallisdown,Poole,,,,,,false,UKOS,406433,94163,-1.91018,50.74704,BCT,MKD,OTH,,,,005,2005-10-21T00:00:00,2020-12-17T11:28:03,8,new,active
1290DOB20939,bouajdg,,,Aldi,,,,,,Wallisdown Road,,,,E-bound,,E,E0040711,Wallisdown,Poole,,,,,,false,UKOS,406473,94086,-1.90962,50.74634,BCT,MKD,OTH,,,,005,2009-06-10T00:00:00,2018-10-24T10:38:21,27,new,active
1290POA11955,bouatjp,,,Talbot Manor,,,,,,Talbot Avenue,,,,SE-bound,,SE,N0073121,Talbot Woods,Bournemouth,,,,,,false,UKOS,407825,93568,-1.89047,50.74167,BCT,MKD,OTH,,,,005,2006-05-23T00:00:00,2021-07-07T13:30:46,0,new,active
1290DOB20957,bouatdt,,,Talbot Manor,,,,,,Talbot Avenue,,,,NW-bound,,NW,N0073121,Talbot Woods,Bournemouth,,,,,,false,UKOS,407828,93545,-1.89043,50.74146,BCT,MKD,OTH,,,,005,2009-06-10T00:00:00,2021-07-07T13:30:46,0,new,active
1290DOB20959,bouatpg,,,Talbot Roundabout,,,,,,Talbot Road,,,,NE-bound,,NE,N0073121,Talbot Woods,Bournemouth,,,,,,false,UKOS,408024,93520,-1.88765,50.74123,BCT,MKD,OTH,,,,005,2007-06-21T00:00:00,2020-07-28T15:47:40,14,new,active
1290DOB20960,bouatpm,,,Talbot Roundabout,,,,,,Talbot Road,,,,SW-bound,,SW,N0073121,Talbot Woods,Bournemouth,,,,,,false,UKOS,408032,93503,-1.88754,50.74108,BCT,MKD,OTH,,,,005,2007-06-21T00:00:00,2020-02-25T08:31:53,0,new,active
1290DOB20902,bouatat,,,Emma Close,,,,,,The Broadway,,,,N-bound,,N,E0035370,Ensbury,Bournemouth,,,,,,false,UKOS,407706,96679,-1.89209,50.76965,BCT,MKD,OTH,,,,005,2006-05-17T00:00:00,2022-11-29T11:41:43,6,new,active
1290DOB20901,bouatda,,,Emma Close,,,,,,The Broadway,,,,S-bound,,S,E0035370,Ensbury,Bournemouth,,,,,,false,UKOS,407704,96658,-1.89212,50.76946,BCT,MKD,OTH,,,,005,2006-05-17T00:00:00,2022-11-29T11:42:17,6,new,active
1290DOB20903,bouapwd,,,The Broadway,,,,,,The Broadway,,,,N-bound,,N,E0035370,Ensbury,Bournemouth,,,,,,false,UKOS,407627,96471,-1.89321,50.76778,BCT,MKD,OTH,,,,005,2006-05-17T00:00:00,2023-07-27T12:06:08,37,new,active
1290DOB20906,bouapwp,,,The Broadway,,,,,,Wimborne Road,,,,E-bound,,E,E0035370,Ensbury,Bournemouth,,,,,,false,UKOS,407653,96439,-1.89285,50.76749,BCT,MKD,OTH,,,,005,2006-05-17T00:00:00,2021-07-07T13:30:46,0,new,active
1290DOB20905,bouapmg,,,The Broadway,,,,,,Wimborne Road,,,,NW-bound,,NW,E0035370,Ensbury,Bournemouth,,,,,,false,UKOS,407520,96454,-1.89473,50.76763,BCT,MKD,OTH,,,,005,2006-05-17T00:00:00,2021-07-07T13:30:46,0,new,active
1290BOA05904,bougpjg,,,The Broadway,,,,,,East Howe Lane,,,,S-bound,,S,E0035370,Ensbury,Bournemouth,,,,,,false,UKOS,407599,96389,-1.89361,50.76704,BCT,MKD,OTH,,,,005,2006-03-14T00:00:00,2024-04-25T11:07:48,37,new,active
1290DOB20908,bouatjg,,,Ashridge Avenue,,,,,,Wimborne Road,,,,W-bound,,W,E0035370,Ensbury,Bournemouth,,,,,,false,UKOS,407776,96412,-1.8911,50.76724,BCT,MKD,OTH,,,,005,2006-05-18T00:00:00,2021-07-07T13:30:46,0,new,active
1290DOB20907,bouatjd,,,Ashridge Avenue,,,,,,Wimborne Road,,,,E-bound,,E,E0035370,Ensbury,Bournemouth,,,,,,false,UKOS,407808,96418,-1.89065,50.7673,BCT,MKD,OTH,,,,005,2006-05-18T00:00:00,2021-07-07T13:30:46,0,new,active
1290DOB20893,bouapgm,,,Park Avenue,,,,,,Horsham Avenue,,,,SW-bound,,SW,E0035370,Ensbury,Bournemouth,,,,,,false,UKOS,407441,96892,-1.89584,50.77157,BCT,MKD,OTH,,,,005,2006-05-17T00:00:00,2021-03-03T14:37:50,8,new,active
1290DOB20894,bouapjd,,,Park Avenue,,,,,,Horsham Avenue,,,,NE-bound,,NE,E0035370,Ensbury,Bournemouth,,,,,,false,UKOS,407454,96927,-1.89566,50.77188,BCT,MKD,OTH,,,,005,2006-05-17T00:00:00,2021-03-03T14:33:07,9,new,active
1290DOB20897,bouaptw,,,North Avenue,,,,,,Kinson Park Road,,,,E-bound,,E,E0035370,Ensbury,Bournemouth,,,,,,false,UKOS,407624,96915,-1.89325,50.77177,BCT,MKD,OTH,,,,005,2006-05-17T00:00:00,2020-02-25T08:31:54,0,new,active
1290DOB20898,bouapwa,,,North Avenue,,,,,,Kinson Park Road,,,,W-bound,,W,E0035370,Ensbury,Bournemouth,,,,,,false,UKOS,407624,96907,-1.89325,50.7717,BCT,MKD,OTH,,,,005,2006-05-17T00:00:00,2020-02-25T08:31:54,0,new,active
1290DOB20900,bouatgp,,,Kinson Park Road,,,,,,The Broadway,,,,NE-bound,,NE,E0035370,Ensbury,Bournemouth,,,,,,false,UKOS,407803,96866,-1.89071,50.77133,BCT,MKD,OTH,,,,005,2006-05-17T00:00:00,2020-02-25T08:31:54,0,new,active
1290DOB20899,bouatgt,,,Kinson Park Road,,,,,,The Broadway,,,,SW-bound,,SW,E0035370,Ensbury,Bournemouth,,,,,,false,UKOS,407809,96861,-1.89063,50.77128,BCT,MKD,OTH,,,,005,2006-05-17T00:00:00,2020-02-25T08:31:54,0,new,active
1290DOB20916,boudapg,,,Headswell Avenue,,,,,,Wimborne Road,,,,opp,,SE,E0035386,Redhill,Bournemouth,,,,,,false,UKOS,408641,95950,-1.87885,50.76308,BCT,MKD,OTH,,,,005,2007-06-25T00:00:00,2020-02-25T08:31:52,0,new,active
1290DOB20915,boudajm,,,Headswell Avenue,,,,,,Wimborne Road,,,,NW-bound,,NW,E0035386,Redhill,Bournemouth,,,,,,false,UKOS,408593,95995,-1.87953,50.76348,BCT,MKD,OTH,,,,005,2007-06-25T00:00:00,2020-02-25T08:31:54,0,new,active
1290WDY38479,boudgmw,,,Wimborne Road Roundabout,,,,,,Redhill Drive,,,,W-bound,,W,E0035386,Redhill,Bournemouth,,,,,,false,UKOS,408845,95789,-1.87596,50.76163,BCT,MKD,OTH,,,,005,2005-10-05T00:00:00,2020-02-25T08:31:53,0,new,active
1290WDX38480,boudgmt,,,Redhill Roundabout,,,,,,Redhill Drive,,,,E-bound,,E,E0035386,Redhill,Bournemouth,,,,,,false,UKOS,408869,95799,-1.87562,50.76172,BCT,MKD,OTH,,,,005,2005-10-05T00:00:00,2020-02-25T08:31:54,0,new,active
1290DOB20917,boudgpw,,,Redhill Roundabout,,,,,,Whitelegg Way,,,,SE-bound,,SE,E0035386,Redhill,Bournemouth,,,,,,false,UKOS,408887,95857,-1.87536,50.76224,BCT,MKD,OTH,,,,005,2005-10-05T00:00:00,2020-02-25T08:31:54,0,new,active
1290DOZ04917,bougmpg,,,Redhill Roundabout,,,,,,,,,,W-bound,,W,E0035386,Redhill,Bournemouth,,,,,,false,UKOS,408969,95785,-1.8742,50.76159,BCT,MKD,OTH,,,,005,2005-11-16T00:00:00,2019-09-03T10:47:23,5,new,active
1290DOB20918,bouamja,,,Primary School,,,,,,Kinson Road,,,,S-bound,,S,E0035377,Kinson,Bournemouth,,,,,,false,UKOS,407029,96424,-1.90169,50.76736,BCT,CUS,OTH,,,,005,2003-06-12T00:00:00,2019-09-04T09:05:58,6,new,active
1290DOB20919,bouamgt,,,Primary School,,,,,,Kinson Road,,,,N-bound,,N,E0035377,Kinson,Bournemouth,,,,,,false,UKOS,407020,96438,-1.90182,50.76749,BCT,CUS,OTH,,,,005,2003-06-12T00:00:00,2019-09-04T09:05:05,4,new,active
1290DOB20920,bouamgd,,,Burcombe Road,,,,,,Kinson Road,,,,S-bound,,S,E0035377,Kinson,Bournemouth,,,,,,false,UKOS,407012,96119,-1.90194,50.76462,BCT,MKD,OTH,,,,005,2006-05-18T00:00:00,2020-02-25T08:31:54,0,new,active
1290DOB20921,bouamga,,,Burcombe Road,,,,,,Kinson Road,,,,N-bound,,N,E0035377,Kinson,Bournemouth,,,,,,false,UKOS,407005,96132,-1.90204,50.76474,BCT,MKD,OTH,,,,005,2006-05-18T00:00:00,2020-02-25T08:31:54,0,new,active
1290DOB20923,bouamgj,,,Brook Road,,,,,,Kinson Road,,,,opp,,N,E0035377,Kinson,Bournemouth,,,,,,false,UKOS,407020,95790,-1.90183,50.76166,BCT,MKD,OTH,,,,005,2009-06-10T00:00:00,2015-04-25T12:20:03,0,new,active
1290DOB20922,bouamgp,,,Brook Road,,,,,,Kinson Road,,,,S-bound,,S,E0035377,Kinson,Bournemouth,,,,,,false,UKOS,407027,95796,-1.90174,50.76171,BCT,MKD,OTH,,,,005,2009-06-10T00:00:00,2020-02-25T08:31:54,0,new,active
1290DOB20910,bouatpw,,,New Road Corner,,,,,,Wimborne Road,,,,W-bound,,W,E0035382,Northbourne,Bournemouth,,,,,,false,UKOS,408043,96454,-1.88732,50.76762,BCT,MKD,OTH,,,,005,2007-06-25T00:00:00,2021-07-07T13:30:46,0,new,active
1290DOB20909,bouatwa,,,New Road Corner,,,,,,Wimborne Road,,,,E-bound,,E,E0035382,Northbourne,Bournemouth,,,,,,false,UKOS,408050,96464,-1.88722,50.76771,BCT,MKD,OTH,,,,005,2007-06-25T00:00:00,2021-07-07T13:30:46,0,new,active
1290DOB20912,bouawma,,,Brierley Road,,,,,,Wimborne Road,,,,N-bound,,N,E0035382,Northbourne,Bournemouth,,,,,,false,UKOS,408290,96281,-1.88382,50.76606,BCT,MKD,OTH,,,,005,2009-06-10T00:00:00,2023-03-01T12:23:52,31,new,active
1290DOB20911,bouawjt,,,Brierley Road,,,,,,Wimborne Road,,,,S-bound,,S,E0035382,Northbourne,Bournemouth,,,,,,false,UKOS,408281,96351,-1.88394,50.76669,BCT,MKD,OTH,,,,005,2007-06-25T00:00:00,2023-03-01T12:24:36,31,new,active
1290DOB20914,boudadj,,,Saxonhurst Road,,,,,,Wimborne Road,,,,W-bound,,W,E0035386,Redhill,Bournemouth,,,,,,false,UKOS,408443,96094,-1.88165,50.76438,BCT,MKD,OTH,,,,005,2007-06-25T00:00:00,2020-02-25T08:31:54,0,new,active
1290DOB20913,bouawpm,,,Saxonhurst Road,,,,,,Wimborne Road,,,,opp,,SE,E0035386,Redhill,Bournemouth,,,,,,false,UKOS,408353,96173,-1.88293,50.76509,BCT,MKD,OTH,,,,005,2005-10-05T00:00:00,2020-07-28T15:40:23,8,new,active
1290DOB21005,boudtjt,,,Muscliffe School,,,,,,Shillingstone Drive,,,,SE-bound,,SE,E0035381,Muscliffe,Bournemouth,,,,,,false,UKOS,410358,95519,-1.85452,50.75917,BCT,MKD,OTH,,,,005,2009-06-10T00:00:00,2020-07-28T15:59:07,5,new,active
1290DOB21006,boudtjg,,,Muscliff Primary School,,,,,,Shillingstone Drive,,,,NW-bound,,NW,E0035381,Muscliffe,Bournemouth,,,,,,false,UKOS,410306,95539,-1.85525,50.75936,BCT,MKD,OTH,,,,005,2006-05-18T00:00:00,2022-11-29T11:36:26,6,new,active
1290DOB21008,boudpwm,,,Stratton Road,,,,,,Shillingstone Drive,,,,SW-bound,,SW,E0035381,Muscliffe,Bournemouth,,,,,,false,UKOS,410026,95508,-1.85922,50.75908,BCT,MKD,OTH,,,,005,2005-10-04T00:00:00,2021-07-07T13:30:46,0,new,active
1290DOB21007,boudtad,,,Stratton Road,,,,,,Shillingstone Drive,,,,NE-bound,,NE,E0035381,Muscliffe,Bournemouth,,,,,,false,UKOS,410051,95559,-1.85887,50.75954,BCT,MKD,OTH,,,,005,2005-10-04T00:00:00,2021-07-07T13:30:46,0,new,active
1290DOB21010,boudpgd,,,Colehill Crescent,,,,,,Shillingstone Drive,,,,opp 46,,NW,E0035381,Muscliffe,Bournemouth,,,,,,false,UKOS,409807,95464,-1.86233,50.75869,BCT,MKD,OTH,,,,005,2005-10-04T00:00:00,2021-07-07T13:30:46,0,new,active
1290DOB21009,boudpma,,,Colehill Crescent,,,,,,Shillingstone Drive,,,,o/s 45,,E,E0035381,Muscliffe,Bournemouth,,,,,,false,UKOS,409875,95425,-1.86137,50.75834,BCT,MKD,OTH,,,,005,2005-10-04T00:00:00,2021-07-07T13:30:46,0,new,active
1290DOB21012,boudpgp,,,Epiphany School,,,,,,Shillingstone Drive,,,,S-bound,,S,E0035381,Muscliffe,Bournemouth,,,,,,false,UKOS,409819,95765,-1.86215,50.7614,BCT,MKD,OTH,,,,005,2005-10-04T00:00:00,2021-07-07T13:30:46,0,new,active
1290DOB21011,boudpgm,,,Epiphany School,,,,,,Shillingstone Drive,,,,N-bound,,N,E0035381,Muscliffe,Bournemouth,,,,,,false,UKOS,409813,95708,-1.86224,50.76088,BCT,MKD,OTH,,,,005,2005-10-04T00:00:00,2021-07-07T13:30:46,0,new,active
1290DOB20999,bouapmp,,,East Howe Lane,,,,,,Leybourne Avenue,,,,NW-bound,,NW,E0035382,Northbourne,Bournemouth,,,,,,false,UKOS,407567,96170,-1.89407,50.76507,BCT,MKD,OTH,,,,005,2009-06-10T00:00:00,2020-02-25T08:31:54,0,new,active
1290DOB20998,bouapmw,,,East Howe Lane,,,,,,Leybourne Avenue,,,,SE-bound,,SE,E0035382,Northbourne,Bournemouth,,,,,,false,UKOS,407569,96181,-1.89404,50.76517,BCT,MKD,OTH,,,,005,2009-06-10T00:00:00,2020-02-25T08:31:54,0,new,active
1290DOB21001,bouapjg,,,Brook Road,,,,,,East Howe Lane,,,,S-bound,,S,E0035369,East Howe,Bournemouth,,,,,,false,UKOS,407473,95878,-1.89541,50.76245,BCT,MKD,OTH,,,,005,2006-05-18T00:00:00,2020-02-25T08:31:54,0,new,active
1290DOB21000,bouapjm,,,Brook Road,,,,,,East Howe Lane,,,,NE-bound,,NE,E0035369,East Howe,Bournemouth,,,,,,false,UKOS,407481,95918,-1.8953,50.76281,BCT,MKD,OTH,,,,005,2006-05-18T00:00:00,2020-02-25T08:31:54,0,new,active
1290DOB21002,bouapgj,,,Green Lane,,,,,,East Howe Lane,,,,SW-bound,,SW,E0035369,East Howe,Bournemouth,,,,,,false,UKOS,407406,95622,-1.89636,50.76015,BCT,MKD,OTH,,,,005,2009-06-10T00:00:00,2020-02-25T08:31:54,0,new,active
1290DOB21003,bouapdt,,,Green Lane,,,,,,East Howe Lane,,,,NE-bound,,NE,E0035369,East Howe,Bournemouth,,,,,,false,UKOS,407365,95597,-1.89695,50.75992,BCT,MKD,OTH,,,,005,2006-05-18T00:00:00,2020-02-25T08:31:54,0,new,active
1290DOB21004,bouawgd,,,Cherries Drive,,,,,,Cherries Drive,,,,S-bound,,S,E0035371,Ensbury Park,Bournemouth,,,,,,false,UKOS,408222,94670,-1.88482,50.75157,BCT,MKD,OTH,,,,005,2006-05-18T00:00:00,2021-07-07T13:30:46,0,new,active
1290DOB21019,boudjwp,,,Redbreast Road North,,,,,,Castle Lane West,,,,NW-bound,,NW,E0035379,Moordown,Bournemouth,,,,,,false,UKOS,409413,95460,-1.86791,50.75866,BCT,MKD,OTH,,,,005,2009-06-10T00:00:00,2021-07-07T13:30:46,0,new,active
1290DOB21021,boudtap,,,Broadway Co-op,,,,,,Castle Lane West,,,,E-bound,,E,E0035367,Charminster,Bournemouth,,,,,,false,UKOS,410078,95020,-1.8585,50.75469,BCT,MKD,OTH,,,,005,2009-06-10T00:00:00,2023-06-05T16:27:05,50,new,active
1290DOB21020,boudtaw,,,Broadway Co-op,,,,,,Castle Lane West,,,,opp,,W,E0035367,Charminster,Bournemouth,,,,,,false,UKOS,410088,95003,-1.85836,50.75454,BCT,MKD,OTH,,,,005,2006-05-18T00:00:00,2023-06-05T16:27:27,50,new,active
1290DOB21022,boudptw,,,Claremont Avenue,,,,,,Castle Lane West,,,,E-bound,,E,E0035379,Moordown,Bournemouth,,,,,,false,UKOS,409954,95063,-1.86025,50.75508,BCT,MKD,OTH,,,,005,2006-05-18T00:00:00,2021-07-07T13:30:46,0,new,active
1290DOB21062,boudamp,,,Wycliffe Road,,,,,,Wimborne Road,,,,N-bound,,N,E0035402,Winton,Bournemouth,,,,,,false,UKOS,408634,93645,-1.879,50.74235,BCT,MKD,OTH,,,,005,2007-06-21T00:00:00,2021-07-07T13:30:46,0,new,active
1290DOB21063,boudapd,,,Wycliffe Road,,,,,,Wimborne Road,,,,S-bound,,S,E0035402,Winton,Bournemouth,,,,,,false,UKOS,408640,93620,-1.87892,50.74213,BCT,MKD,OTH,,,,005,2007-03-23T00:00:00,2021-07-07T13:30:46,0,new,active
1290DOB21066,boudajg,,,Stirling Road,,,,,,Wimborne Road,,,,N-bound,,N,E0035402,Winton,Bournemouth,,,,,,false,UKOS,408574,93225,-1.87986,50.73857,BCT,MKD,OTH,,,,005,2006-05-23T00:00:00,2020-02-25T08:31:54,0,new,active
1290DOB21067,boudaja,,,East Avenue Roundabout,,,,,,Wimborne Road,,,,S-bound,,S,N0073119,Meyrick Park,Bournemouth,,,,,,false,UKOS,408562,93048,-1.88003,50.73698,BCT,MKD,OTH,,,,005,2007-06-21T00:00:00,2020-02-25T08:31:54,0,new,active
1290BOB20356,boudajp,,,East Avenue Roundabout,,,,,,Wimborne Road,,,,NW-bound,,NW,N0073119,Meyrick Park,Bournemouth,,,,,,false,UKOS,408595,92883,-1.87957,50.7355,BCT,MKD,OTH,,,,005,2007-06-20T00:00:00,2020-02-25T08:31:54,0,new,active
1290DOB21053,boudjdm,,,Westover Retail Park,,,,,,Wimborne Road,,,,N-bound,,N,E0035379,Moordown,Bournemouth,,,,,,false,UKOS,409112,95609,-1.87218,50.76,BCT,MKD,OTH,,,,005,2006-05-23T00:00:00,2023-03-01T12:22:45,40,new,active
1290DOB21055,boudjdp,,,Westover Retail Park,,,,,,Wimborne Road,,,,S-bound,,S,E0035379,Moordown,Bournemouth,,,,,,false,UKOS,409126,95574,-1.87198,50.75969,BCT,MKD,OTH,,,,005,2007-03-23T00:00:00,2023-03-01T12:23:13,40,new,active
1290DOB21043,boudgjd,,,Brassey Road,,,,,,Brassey Road,,,,E-bound,,E,E0035379,Moordown,Bournemouth,,,,,,false,UKOS,408795,94395,-1.8767,50.74909,BCT,MKD,OTH,,,,005,2006-05-23T00:00:00,2015-04-25T12:19:59,0,new,active
1290DOB21042,boudgjm,,,Brassey Road,,,,,,Brassey Road,,,,W-bound,,W,E0035379,Moordown,Bournemouth,,,,,,false,UKOS,408808,94384,-1.87652,50.74899,BCT,MKD,OTH,,,,005,2006-05-23T00:00:00,2015-04-25T12:19:59,0,new,active
1290DOB21056,boudgam,,,Brassey Road,,,,,,Wimborne Road,,,,S-bound,,S,E0035379,Moordown,Bournemouth,,,,,,false,UKOS,408746,94374,-1.8774,50.7489,BCT,MKD,OTH,,,,005,2007-03-23T00:00:00,2021-07-07T13:30:46,0,new,active
1290DOB21057,boudgaj,,,Brassey Road,,,,,,Wimborne Road,,,,N-bound,,N,E0035379,Moordown,Bournemouth,,,,,,false,UKOS,408737,94400,-1.87752,50.74914,BCT,MKD,OTH,,,,005,2006-05-23T00:00:00,2021-07-07T13:30:46,0,new,active
1290DOB21058,boudawm,,,Library,,,,,,Wimborne Road,,,,N-bound,,N,E0035402,Winton,Bournemouth,,,,,,false,UKOS,408709,94175,-1.87793,50.74712,BCT,MKD,OTH,,,,005,2006-05-23T00:00:00,2020-11-05T10:54:19,16,new,active
1290DOB21059,boudawd,,,Library,,,,,,Wimborne Road,,,,opp,,S,E0035402,Winton,Bournemouth,,,,,,false,UKOS,408707,94094,-1.87796,50.74639,BCT,MKD,OTH,,,,005,2007-03-23T00:00:00,2021-07-07T13:30:44,0,new,active
1290DOB21060,boudatg,,,Peters Hill,,,,,,Wimborne Road,,,,N-bound,,N,E0035402,Winton,Bournemouth,,,,,,false,UKOS,408677,93967,-1.87838,50.74525,BCT,MKD,OTH,,,,005,2006-11-24T00:00:00,2021-07-07T13:30:46,0,new,active
1290DOB21061,boudatm,,,Peters Hill,,,,,,Wimborne Road,,,,S-bound,,S,E0035402,Winton,Bournemouth,,,,,,false,UKOS,408682,93920,-1.87831,50.74482,BCT,MKD,OTH,,,,005,2007-06-21T00:00:00,2021-07-07T13:30:46,0,new,active
1290DOB21077,boudpgj,,,Markham Road,,,,,,Charminster Road,,,,NE-bound,,NE,E0035367,Charminster,Bournemouth,,,,,,false,UKOS,409811,93548,-1.86232,50.74146,BCT,MKD,OTH,,,,005,2006-02-13T00:00:00,2021-07-07T13:30:46,0,new,active
1290DOB21078,boudpdj,,,Maxwell Road,,,,,,Charminster Road,,,,S-bound,,S,E0035367,Charminster,Bournemouth,,,,,,false,UKOS,409729,93406,-1.86349,50.74018,BCT,MKD,OTH,,,,005,2007-06-21T00:00:00,2023-09-07T12:10:23,37,new,active
1290DOB21079,boudpat,,,St. Albans Church,,,,,,Charminster Road,,,,S-bound,,S,E0035367,Charminster,Bournemouth,,,,,,false,UKOS,409717,93271,-1.86366,50.73897,BCT,MKD,OTH,,,,005,2007-06-21T00:00:00,2021-07-07T13:30:46,0,new,active
1290DOB21080,boudpam,,,St. Albans Church,,,,,,Charminster Road,,,,N-bound,,N,E0035367,Charminster,Bournemouth,,,,,,false,UKOS,409698,93225,-1.86393,50.73856,BCT,MKD,OTH,,,,005,2007-06-21T00:00:00,2021-07-07T13:30:46,0,new,active
1290DOB21081,boudpaj,,,Richmond Wood Road,,,,,,Charminster Road,,,,SW-bound,,SW,E0035367,Charminster,Bournemouth,,,,,,false,UKOS,409678,93097,-1.86422,50.73741,BCT,MKD,OTH,,,,005,2007-06-21T00:00:00,2021-07-07T13:30:46,0,new,active
1290DOB21083,boudmjg,,,Richmond Arms,,,,,,Charminster Road,,,,NE-bound,,NE,E0035367,Charminster,Bournemouth,,,,,,false,UKOS,409568,92969,-1.86578,50.73626,BCT,MKD,OTH,,,,005,2007-06-20T00:00:00,2023-03-01T12:18:44,42,new,active
1290DOB21082,boudmgp,,,Richmond Arms,,,,,,Charminster Road,,,,SW-bound,,SW,E0035367,Charminster,Bournemouth,,,,,,false,UKOS,409570,92957,-1.86575,50.73615,BCT,MKD,OTH,,,,005,2007-06-20T00:00:00,2023-03-01T12:19:18,37,new,active
1290DOB21071,boudgwd,,,Stokewood Road,,,,,,Alma Road,,,,W-bound,,W,E0035402,Winton,Bournemouth,,,,,,false,UKOS,408999,93259,-1.87384,50.73887,BCT,MKD,OTH,,,,005,2007-06-21T00:00:00,2024-10-10T10:04:03,37,new,active
1290DOB21072,boudjat,,,Stokewood Road,,,,,,Alma Road,,,,E-bound,,E,E0035402,Winton,Bournemouth,,,,,,false,UKOS,409080,93247,-1.87269,50.73876,BCT,MKD,OTH,,,,005,2007-06-21T00:00:00,2020-07-28T16:43:55,10,new,active
1290DOB21090,boudjpj,,,Heron Court Road,,,,,,Heron Court Road,,,,opp,,N,E0035402,Winton,Bournemouth,,,,,,false,UKOS,409295,93216,-1.86964,50.73848,BCT,MKD,OTH,,,,005,2007-06-21T00:00:00,2020-02-25T08:31:52,0,new,active
1290DOB21074,boudjwg,,,Heron Court Road,,,,,,,,,,E-bound,,E,E0035402,Winton,Bournemouth,,,,,,false,UKOS,409376,93164,-1.8685,50.73801,BCT,MKD,OTH,,,,005,2007-06-21T00:00:00,2016-12-08T14:20:23,4,new,active
1290DOB21073,boudjgd,,,Heron Court Road,,,,,,Alma Road,,,,W-bound,,W,E0035402,Winton,Bournemouth,,,,,,false,UKOS,409217,93198,-1.87075,50.73832,BCT,MKD,OTH,,,,005,2007-06-21T00:00:00,2021-07-07T13:30:46,0,new,active
1290DOB21076,boudpmt,,,Five Ways,,,,,,Charminster Road,,,,S-bound,,S,E0035367,Charminster,Bournemouth,,,,,,false,UKOS,409898,93699,-1.86109,50.74282,BCT,MKD,OTH,,,,005,2007-03-23T00:00:00,2021-07-07T13:30:46,0,new,active
1290DOB21075,boudpjt,,,Five Ways,,,,,,Charminster Road,,,,N-bound,,N,E0035367,Charminster,Bournemouth,,,,,,false,UKOS,409870,93791,-1.86148,50.74364,BCT,MKD,OTH,,,,005,2007-06-21T00:00:00,2021-07-07T13:30:46,0,new,active
1290DOB21033,boudpjd,,,Malvern Road Bottom,,,,,,Malvern Road,,,,E-bound,,E,E0035367,Charminster,Bournemouth,,,,,,false,UKOS,409842,94482,-1.86186,50.74986,BCT,MKD,OTH,,,,005,2006-05-18T00:00:00,2015-04-25T12:19:59,0,new,active
1290DOB21032,boudpjm,,,Malvern Road Bottom,,,,,,Malvern Road,,,,W-bound,,W,E0035367,Charminster,Bournemouth,,,,,,false,UKOS,409857,94479,-1.86165,50.74983,BCT,MKD,OTH,,,,005,2006-05-18T00:00:00,2015-04-25T12:19:59,0,new,active
1290DOB21034,boudmwd,,,St. Walburgas School,,,,,,Malvern Road,,,,E-bound,,E,E0035379,Moordown,Bournemouth,,,,,,false,UKOS,409647,94418,-1.86462,50.74929,BCT,MKD,OTH,,,,005,2006-05-18T00:00:00,2020-02-25T08:31:54,0,new,active
1290DOB21038,boudjmw,,,Brassey Close,,,,,,Brassey Road,,,,E-bound,,E,E0035379,Moordown,Bournemouth,,,,,,false,UKOS,409271,94287,-1.86996,50.74811,BCT,MKD,OTH,,,,005,2006-05-23T00:00:00,2015-04-25T12:20:00,0,new,active
1290DOB21037,boudjpt,,,Brassey Close,,,,,,Brassey Road,,,,W-bound,,W,E0035379,Moordown,Bournemouth,,,,,,false,UKOS,409301,94272,-1.86953,50.74798,BCT,MKD,OTH,,,,005,2006-05-23T00:00:00,2015-04-25T12:20:00,0,new,active
1290DOB21041,boudjag,,,Garth Road,,,,,,Brassey Road,,,,E-bound,,E,E0035379,Moordown,Bournemouth,,,,,,false,UKOS,409053,94327,-1.87305,50.74848,BCT,MKD,OTH,,,,005,2006-05-23T00:00:00,2015-04-25T12:20:00,0,new,active
1290DOB21039,boudjap,,,Garth Road,,,,,,Brassey Road,,,,W-bound,,W,E0035379,Moordown,Bournemouth,,,,,,false,UKOS,409080,94316,-1.87266,50.74838,BCT,MKD,OTH,,,,005,2006-05-23T00:00:00,2015-04-25T12:20:00,0,new,active
1290DOB21026,boudmpg,,,West Way Garage,,,,,,West Way,,,,S-bound,,S,E0035379,Moordown,Bournemouth,,,,,,false,UKOS,409610,95256,-1.86513,50.75682,BCT,MKD,OTH,,,,005,2006-05-18T00:00:00,2021-07-07T13:30:46,0,new,active
1290DOB21027,boudmpa,,,West Way Garage,,,,,,West Way,,,,N-bound,,N,E0035379,Moordown,Bournemouth,,,,,,false,UKOS,409604,95285,-1.86521,50.75708,BCT,MKD,OTH,,,,005,2006-05-18T00:00:00,2021-07-07T13:30:46,0,new,active
1290DOB21028,boudmgd,,,Haverstock Road,,,,,,West Way,,,,S-bound,,S,E0035379,Moordown,Bournemouth,,,,,,false,UKOS,409557,94908,-1.86589,50.75369,BCT,MKD,OTH,,,,005,2003-06-12T00:00:00,2021-07-07T13:30:46,0,new,active
1290DOB21029,boudmga,,,Haverstock Road,,,,,,West Way,,,,N-bound,,N,E0035379,Moordown,Bournemouth,,,,,,false,UKOS,409545,94907,-1.86606,50.75368,BCT,MKD,OTH,,,,005,2003-06-12T00:00:00,2021-07-07T13:30:46,0,new,active
1290DOB21031,boudpda,,,Brockenhurst Road,,,,,,West Way,,,,NW-bound,,NW,E0035379,Moordown,Bournemouth,,,,,,false,UKOS,409724,94537,-1.86353,50.75035,BCT,MKD,OTH,,,,005,2003-06-12T00:00:00,2020-07-28T16:05:57,2,new,active
1290DOB21030,boudpdg,,,Brockenhurst Road,,,,,,West Way,,,,SE-bound,,SE,E0035379,Moordown,Bournemouth,,,,,,false,UKOS,409726,94562,-1.8635,50.75058,BCT,MKD,OTH,,,,005,2003-06-12T00:00:00,2020-07-28T16:06:10,2,new,active
1290DOB21048,boudgta,,,Maclaren Road,,,,,,Wimborne Road,,,,NE-bound,,NE,E0035379,Moordown,Bournemouth,,,,,,false,UKOS,408905,95014,-1.87513,50.75466,BCT,MKD,OTH,,,,005,2006-05-23T00:00:00,2017-10-10T12:37:18,11,new,active
1290DOB21049,boudgtj,,,Malvern Road,,,,,,Wimborne Road,,,,SW-bound,,SW,E0035379,Moordown,Bournemouth,,,,,,false,UKOS,408958,95081,-1.87437,50.75526,BCT,MKD,OTH,,,,005,2006-05-23T00:00:00,2021-07-07T13:30:46,0,new,active
1290DOB21050,boudgwa,,,Malvern Road,,,,,,Wimborne Road,,,,NE-bound,,NE,E0035379,Moordown,Bournemouth,,,,,,false,UKOS,408998,95161,-1.87381,50.75598,BCT,MKD,OTH,,,,005,2006-05-23T00:00:00,2021-07-07T13:30:46,0,new,active
1290DOB21051,boudjaj,,,Linden Road,,,,,,Wimborne Road,,,,S-bound,,S,E0035379,Moordown,Bournemouth,,,,,,false,UKOS,409063,95264,-1.87288,50.7569,BCT,MKD,OTH,,,,005,2006-05-23T00:00:00,2015-07-29T15:19:31,6,new,active
1290DOB21052,boudjaw,,,Linden Road,,,,,,Wimborne Road,,,,NE-bound,,NE,E0035379,Moordown,Bournemouth,,,,,,false,UKOS,409091,95389,-1.87248,50.75803,BCT,MKD,OTH,,,,005,2006-05-23T00:00:00,2015-07-29T15:19:17,6,new,active
1290DOB21054,boudjdg,,,Portswood Drive,,,,,,Castle Lane West,,,,W-bound,,W,E0035381,Muscliffe,Bournemouth,,,,,,false,UKOS,409106,95744,-1.87226,50.76122,BCT,MKD,OTH,,,,005,2005-10-05T00:00:00,2019-10-08T15:08:09,22,new,active
1290DOB21046,boudgjp,,,Cowper Road,,,,,,Wimborne Road,,,,N-bound,,N,E0035379,Moordown,Bournemouth,,,,,,false,UKOS,408832,94822,-1.87617,50.75293,BCT,MKD,OTH,,,,005,2007-03-23T00:00:00,2021-07-07T13:30:46,0,new,active
1290DOB21047,boudgjw,,,Cowper Road,,,,,,Wimborne Road,,,,S-bound,,S,E0035379,Moordown,Bournemouth,,,,,,false,UKOS,408835,94781,-1.87612,50.75256,BCT,MKD,OTH,,,,005,2007-03-23T00:00:00,2021-07-07T13:30:46,0,new,active
1290DOB21120,boudtpg,,,Throop Post Office,,,,,,Broadway Lane,,,,SW-bound,,SW,E0035381,Muscliffe,Bournemouth,,,,,,false,UKOS,410508,95567,-1.85239,50.7596,BCT,MKD,OTH,,,,005,2006-11-24T00:00:00,2021-07-07T13:30:46,0,new,active
1290DOB21119,boudtpt,,,Throop Post Office,,,,,,Broadway Lane,,,,NE-bound,,NE,E0035381,Muscliffe,Bournemouth,,,,,,false,UKOS,410517,95597,-1.85226,50.75987,BCT,MKD,OTH,,,,005,2006-11-24T00:00:00,2021-07-07T13:30:46,0,new,active
1290DOB21121,boudwdm,,,Throop Church,,,,,,Broadway Lane,,,,SW-bound,,SW,E0035394,Throop,,,,,,,false,UKOS,410743,95876,-1.84905,50.76238,BCT,MKD,OTH,,,,005,2006-11-24T00:00:00,2021-07-07T13:30:46,0,new,active
1290DOB21122,boudtmw,,,Seagrim Road,,,,,,Chesildene Drive,,,,SE-bound,,SE,E0035381,Muscliffe,Bournemouth,,,,,,false,UKOS,410405,95233,-1.85386,50.7566,BCT,MKD,OTH,,,,005,2006-02-13T00:00:00,2022-11-29T11:45:20,6,new,active
1290DOB21123,boudtjw,,,Seagrim Road,,,,,,Chesildene Drive,,,,NW-bound,,NW,E0035381,Muscliffe,Bournemouth,,,,,,false,UKOS,410373,95249,-1.85431,50.75675,BCT,MKD,OTH,,,,005,2009-06-10T00:00:00,2022-11-29T11:44:30,6,new,active
1290DOB21117,boudtmd,,,Harbeck Road,,,,,,Broadway Lane,,,,SW-bound,,SW,E0035381,Muscliffe,Bournemouth,,,,,,false,UKOS,410391,95353,-1.85405,50.75768,BCT,MKD,OTH,,,,005,2006-05-23T00:00:00,2020-02-25T08:31:54,0,new,active
1290DOB21118,boudtmp,,,Harbeck Road,,,,,,Broadway Lane,,,,NE-bound,,NE,E0035381,Muscliffe,Bournemouth,,,,,,false,UKOS,410407,95399,-1.85382,50.75809,BCT,MKD,OTH,,,,005,2006-05-23T00:00:00,2020-02-25T08:31:54,0,new,active
1290DOB21124,boudtwg,,,Hungerford Road,,,,,,Chesildene Drive,,,,SW-bound,,SW,E0035381,Muscliffe,Bournemouth,,,,,,false,UKOS,410591,95201,-1.85122,50.75631,BCT,MKD,OTH,,,,005,2005-10-21T00:00:00,2021-07-07T13:30:46,0,new,active
1290DOB21125,boudtwm,,,Hungerford Road,,,,,,Chesildene Drive,,,,NE-bound,,NE,E0035381,Muscliffe,Bournemouth,,,,,,false,UKOS,410612,95258,-1.85092,50.75682,BCT,MKD,OTH,,,,005,2007-04-05T00:00:00,2021-07-07T13:30:46,0,new,active
1290DOB21114,boudtga,,,The Electric Club,,,,,,Broadway Lane,,,,NE-bound,,NE,E0035367,Charminster,Bournemouth,,,,,,false,UKOS,410186,95061,-1.85697,50.75506,BCT,MKD,OTH,,,,005,2003-06-12T00:00:00,2021-07-07T13:30:46,0,new,active
1290DOB21115,boudtgp,,,Larksfield Avenue,,,,,,Broadway Lane,,,,SW-bound,,SW,E0035381,Muscliffe,Bournemouth,,,,,,false,UKOS,410244,95117,-1.85614,50.75556,BCT,MKD,OTH,,,,005,2005-10-21T00:00:00,2021-07-07T13:30:46,0,new,active
1290DOB21116,boudtja,,,Larksfield Avenue,,,,,,Broadway Lane,,,,NE-bound,,NE,E0035381,Muscliffe,Bournemouth,,,,,,false,UKOS,410264,95166,-1.85586,50.756,BCT,MKD,OTH,,,,005,2005-10-21T00:00:00,2021-07-07T13:30:46,0,new,active
1290BTX38434,bougaja,,,Eventide Homes,,,,,,Woodbury Avenue,,,,W-bound,,W,E0035390,Strouden,Bournemouth,,,,,,false,UKOS,411432,94684,-1.83931,50.75165,BCT,MKD,OTH,,,,005,2006-02-13T00:00:00,2016-10-26T12:34:43,16,new,active
1290DOB21138,boudwtw,,,Eventide Homes,,,,,,Woodbury Avenue,,,,E-bound,,E,E0035390,Strouden,Bournemouth,,,,,,false,UKOS,411423,94688,-1.83944,50.75168,BCT,MKD,OTH,,,,005,2006-05-23T00:00:00,2016-10-26T12:34:32,4,new,active
1290BOA56572,bougpdg,,,Jewell Academy,,,,,,Jewell Road,,,,W-bound,,W,E0035390,Strouden,Bournemouth,,,,,,false,UKOS,412159,94775,-1.82901,50.75245,BCT,MKD,OTH,,,,005,2005-10-21T00:00:00,2022-11-29T13:05:34,6,new,active
1290DOB21140,bougawa,,,Jewell Academy,,,,,,Jewell Road,,,,E-bound,,E,E0035390,Strouden,Bournemouth,,,,,,false,UKOS,412171,94798,-1.82884,50.75266,BCT,MKD,OTH,,,,005,2003-06-12T00:00:00,2022-11-29T11:51:07,6,new,active
1290DOB21126,boudwgm,,,John Pound House,,,,,,Chesildene Drive,,,,S-bound,,S,E0035381,Muscliffe,Bournemouth,,,,,,false,UKOS,410871,95154,-1.84725,50.75588,BCT,MKD,OTH,,,,005,2005-10-21T00:00:00,2021-07-07T13:30:46,0,new,active
1290DOB21127,boudwgd,,,John Pound House,,,,,,Chesildene Drive,,,,N-bound,,N,E0035381,Muscliffe,Bournemouth,,,,,,false,UKOS,410868,95181,-1.84729,50.75613,BCT,MKD,OTH,,,,005,2005-10-21T00:00:00,2021-07-07T13:30:46,0,new,active
1290DOB21129,boudwja,,,Setley Gardens,,,,,,Chesildene Drive,,,,W-bound,,W,E0035381,Muscliffe,Bournemouth,,,,,,false,UKOS,411025,94992,-1.84507,50.75442,BCT,MKD,OTH,,,,005,2005-10-21T00:00:00,2021-07-07T13:30:46,0,new,active
1290DOB21128,boudwjt,,,Setley Gardens,,,,,,Chesildene Drive,,,,E-bound,,E,E0035381,Muscliffe,Bournemouth,,,,,,false,UKOS,411076,95017,-1.84435,50.75465,BCT,MKD,OTH,,,,005,2005-10-21T00:00:00,2021-07-07T13:30:46,0,new,active
1290DOB21131,boudwgw,,,Braishfield Gardens,,,,,,Yeomans Road,,,,N-bound,,N,E0035390,Strouden,Bournemouth,,,,,,false,UKOS,410991,94753,-1.84556,50.75227,BCT,MKD,OTH,,,,005,2006-05-23T00:00:00,2022-11-29T13:19:30,6,new,active
1290DOB21130,boudwgt,,,Braishfield Gardens,,,,,,Yeomans Road,,,,S-bound,,S,E0035390,Strouden,Bournemouth,,,,,,false,UKOS,411005,94749,-1.84537,50.75224,BCT,MKD,OTH,,,,005,2006-11-24T00:00:00,2022-11-29T13:19:53,6,new,active
1290DOB21106,boudpjp,,,The Library,,,,,,Charminster Road,,,,just after,,N,E0035367,Charminster,Bournemouth,,,,,,false,UKOS,409865,94050,-1.86154,50.74597,BCT,MKD,OTH,,,,005,2006-02-01T00:00:00,2021-07-07T13:30:44,0,new,active
1290DOB21107,boudpjw,,,The Library,,,,,,Charminster Road,,,,just before,,S,E0035367,Charminster,Bournemouth,,,,,,false,UKOS,409875,94062,-1.8614,50.74608,BCT,MKD,OTH,,,,005,2006-02-03T00:00:00,2021-07-07T13:30:44,0,new,active
1290DOB21091,boudjta,,,Winton Recreation Ground,,,,,,Heron Court Road,,,,N-bound,,N,E0035402,Winton,Bournemouth,,,,,,false,UKOS,409312,93430,-1.8694,50.74041,BCT,MKD,OTH,,,,005,2007-06-21T00:00:00,2023-06-05T15:54:38,37,new,active
1290DOB21092,boudjtg,,,Winton Recreation Ground,,,,,,Heron Court Road,,,,S-bound,,S,E0035402,Winton,Bournemouth,,,,,,false,UKOS,409320,93421,-1.86928,50.74033,BCT,MKD,OTH,,,,005,2007-06-21T00:00:00,2023-06-05T15:55:00,37,new,active
1290DOB21094,boudjwd,,,Markham Road,,,,,,Abbott Road,,,,S-bound,,S,E0035402,Winton,Bournemouth,,,,,,false,UKOS,409360,93672,-1.86871,50.74258,BCT,MKD,OTH,,,,005,2007-06-21T00:00:00,2020-02-25T08:31:54,0,new,active
1290DOB21093,boudjtw,,,Markham Road,,,,,,Abbott Road,,,,N-bound,,N,E0035402,Winton,Bournemouth,,,,,,false,UKOS,409344,93619,-1.86894,50.74211,BCT,MKD,OTH,,,,005,2007-06-21T00:00:00,2020-02-25T08:31:54,0,new,active
1290DOB21096,boudjtp,,,Green Road,,,,,,Green Road,,,,opp,,W,E0035402,Winton,Bournemouth,,,,,,false,UKOS,409340,93811,-1.86899,50.74383,BCT,MKD,OTH,,,,005,2007-06-21T00:00:00,2020-02-25T08:31:52,0,new,active
1290DOB21095,boudjtm,,,Green Road,,,,,,Green Road,,,,E-bound,,E,E0035402,Winton,Bournemouth,,,,,,false,UKOS,409353,93816,-1.86881,50.74388,BCT,MKD,OTH,,,,005,2007-06-21T00:00:00,2020-02-25T08:31:54,0,new,active
1290BOA90823,bougtmj,,,Marlborough Road,,,,,,Grosvenor Road,,,,N-bound,,N,E0035400,Westbourne,Bournemouth,,,,,,false,UKOS,407109,91220,-1.90066,50.72056,BCT,MKD,OTH,,,,005,2010-04-29T00:00:00,2020-02-25T08:31:54,0,new,active
1290BOA90824,bougtmp,,,Marlborough Road,,,,,,Grosvenor Road,,,,S-bound,,S,E0035400,Westbourne,Bournemouth,,,,,,false,UKOS,407124,91211,-1.90045,50.72048,BCT,MKD,OTH,,,,005,2010-04-29T00:00:00,2020-02-25T08:31:54,0,new,active
1290BOA90817,bougtjp,,,Suncliff Hotel,,,,,,East Overcliff Drive,,,,E-bound,,E,N0077769,Lansdowne,Bournemouth,,,,,,false,UKOS,409932,91050,-1.86067,50.71899,BCT,MKD,OTH,,,,005,2010-04-07T00:00:00,2014-02-11T14:37:29,1,new,active
1290BOA90818,bougtjt,,,Suncliff Hotel,,,,,,East Overcliff Drive,,,,W-bound,,W,N0077769,Lansdowne,Bournemouth,,,,,,false,UKOS,409941,91043,-1.86055,50.71893,BCT,MKD,OTH,,,,005,2010-04-07T00:00:00,2021-07-07T13:30:46,0,new,active
1290BOA90815,bougtjg,,,Wharncliffe Road,,,,,,Boscombe Spa Road,,,,N-bound,,N,E0035366,Boscombe,Bournemouth,,,,,,false,UKOS,410915,91533,-1.84674,50.72332,BCT,MKD,OTH,,,,005,2010-04-07T00:00:00,2015-04-25T12:22:07,0,new,active
1290BOA90816,bougtjm,,,Wharncliffe Road,,,,,,Boscombe Spa Road,,,,S-bound,,S,E0035366,Boscombe,Bournemouth,,,,,,false,UKOS,410934,91525,-1.84647,50.72325,BCT,MKD,OTH,,,,005,2010-04-07T00:00:00,2016-06-27T15:59:44,4,new,active
1290BOA90814,bougtjd,,,Boscombe Spa Road,,,,,,St Johns Road,,,,NW-bound,,NW,E0035366,Boscombe,Bournemouth,,,,,,false,UKOS,411127,91402,-1.84374,50.72214,BCT,MKD,OTH,,,,005,2010-04-07T00:00:00,2020-07-16T11:00:31,2,new,active
1290BOA90846,bougwat,,,Boscombe Spa Road,,,,,,St John's Road,,,,SE-bound,,SE,E0035366,Boscombe,Bournemouth,,,,,,false,UKOS,411134,91408,-1.84364,50.72219,BCT,CUS,OTH,,,,005,2020-07-16T00:00:00,2020-07-16T11:00:05,8,new,active
1290BOA90822,bougtmg,,,Meadow View Road,,,,,,High Howe Lane,,,,SE-bound,,SE,E0035398,West Howe,Bournemouth,,,,,,false,UKOS,405191,95832,-1.92777,50.76206,BCT,MKD,OTH,,,,005,2010-04-20T00:00:00,2021-04-13T14:59:05,8,new,active
1290BOA05358,bougpwa,,,Meadow View Road,,,,,,High Howe Lane,,,,opp,,NW,E0035398,West Howe,Bournemouth,,,,,,false,UKOS,405182,95829,-1.92789,50.76203,BCT,MKD,OTH,,,,005,2007-08-15T00:00:00,2021-04-13T14:58:39,8,new,active
1290BOA90835,bougtwd,,,Gladys Court,,,,,,Wellington Road,,,,SE-bound,,SE,N0073119,Meyrick Park,Bournemouth,,,,,,false,UKOS,409139,92522,-1.87187,50.73224,BCT,MKD,OTH,,,,005,2018-03-21T00:00:00,2023-06-05T15:41:07,56,new,active
1290BOA90836,bougtwg,,,Gladys Court,,,,,,Wellington Road,,,,NW-bound,,NW,N0073119,Meyrick Park,Bournemouth,,,,,,false,UKOS,409134,92512,-1.87194,50.73215,BCT,MKD,OTH,,,,005,2018-03-21T00:00:00,2023-06-05T15:40:41,45,new,active
1290BOA90841,bougwad,,,Douglas Mew,,,,,,Southbourne Road,,,,SE-bound,,SE,E0035399,West Southbourne,Bournemouth,,,,,,false,UKOS,413100,92007,-1.81576,50.72754,BCT,MKD,OTH,,,,005,2020-07-16T00:00:00,2022-11-28T16:39:25,11,new,active
1290DOA90842,bougwag,,,Arnewood Road,,,,,,Southbourne Road,,,,SE-bound,,SE,E0035399,West Southbourne,Bournemouth,,,,,,false,UKOS,413263,91929,-1.81346,50.72683,BCT,MKD,OTH,,,,005,2020-07-28T00:00:00,2020-07-28T15:36:16,5,new,active
1290BOA90845,bougwap,,,Carrington House Hotel,,,,,,Knyveton Road,,,,opp,,E,E0035389,Springbourne,Boscombe,,,,,,false,UKOS,410500,91703,-1.85261,50.72486,BCT,MKD,OTH,,,,005,2018-06-18T00:00:00,2018-06-18T16:35:46,0,new,active
1290BOA90847,bougwaw,,,Travellers Lane,,,,,,Draper Road,,,,NE-bound,,NE,N0077768,Turbary Common,Bournemouth,,,,,,false,UKOS,406280,95751,-1.91233,50.76132,BCT,MKD,OTH,,,,005,2021-07-07T00:00:00,2021-07-07T13:30:46,0,new,active
1290BOA90848,bougwda,,,Travellers Lane,,,,,,Draper Road,,,,SW-bound,,SW,N0077768,Turbary Common,Bournemouth,,,,,,false,UKOS,406262,95721,-1.91258,50.76105,BCT,MKD,OTH,,,,005,2021-07-07T00:00:00,2021-07-07T13:30:46,0,new,active
1290BOA90849,bougwdg,,,Manor Road,,,,,,Manor Road,,,,W-bound,,W,N0077769,Lansdowne,Bournemouth,,,,,,false,UKOS,410150,91250,-1.85758,50.72079,BCT,CUS,OTH,,,,005,2021-04-22T00:00:00,2021-04-22T09:56:43,12,new,active
1290BOA90869,bougwmp,,,Manor Road,,,,,,,,,,E-bound,,E,N0077769,Lansdowne,Bournemouth,,,,,,false,UKOS,410148,91256,-1.85761,50.72084,BCT,MKD,OTH,,,,005,2021-04-22T00:00:00,2021-04-22T10:00:24,58,new,active
1290BOA90850,bougwdj,,,Kings Park Park & Ride,,,,,,King's Park Drive,,,,E-bound,,E,E0035378,Littledown,Bournemouth,,,,,,false,UKOS,411524,92722,-1.83807,50.734,BCT,CUS,OTH,,,,005,2021-05-12T00:00:00,2021-05-12T09:49:51,14,new,active
1290BOA90851,bougwdm,,,Redhill Park Airshow,,,,,,Redhill Avenue,,,,SW-bound,,SW,E0035371,Ensbury Park,Bournemouth,,,,,,false,UKOS,408499,95003,-1.88088,50.75456,BCT,CUS,OTH,,,,005,2017-02-15T00:00:00,2017-02-15T15:26:22,4,new,active
1290BOA90858,bougwgm,,,Yeomans Way,,,,,,Yeomans Way,,,,SE-bound,,SE,E0035390,Strouden,Bournemouth,,,,,,false,UKOS,411410,94926,-1.83962,50.75382,BCT,CUS,OTH,,,,005,2018-01-08T00:00:00,2020-07-16T11:11:29,67,new,active
1290BOA90857,bougwgj,,,Yeomans Way,,,,,,Yeomans Way,,,,NW-bound,,NW,E0035390,Strouden,Bournemouth,,,,,,false,UKOS,411346,94956,-1.84052,50.75409,BCT,CUS,OTH,,,,005,2018-01-08T00:00:00,2020-07-16T11:11:02,67,new,active
1290BOA90859,bougwgp,,,Yellow Buses Garage,,,,,,Yeomans Way,,,,W-bound,,W,E0035390,Strouden,Bournemouth,,,,,,false,UKOS,411635,94884,-1.83643,50.75344,BCT,CUS,OTH,,,,005,2018-01-08T00:00:00,2020-07-16T11:12:42,62,new,active
1290BOB20108,bouagma,,,Pilot Hight Road,,,,,,Maclean Road,,,,SW-bound,,SW,N0077768,Turbary Common,Bournemouth,,,,,,false,UKOS,406074,95516,-1.91525,50.75921,BCT,MKD,OTH,,,,005,2005-10-21T00:00:00,2020-11-05T10:53:11,19,new,active
1290BOB20107,bouagmd,,,Pilot Hight Road,,,,,,Maclean Road,,,,NE-bound,,NE,N0077768,Turbary Common,Bournemouth,,,,,,false,UKOS,406089,95553,-1.91504,50.75954,BCT,MKD,OTH,,,,005,2005-10-21T00:00:00,2020-11-05T10:52:54,17,new,active
1290BOA90865,bougwma,,,Kilmarnock Road,,,,,,,,,,SE-bound,,SE,N0077769,Lansdowne,Bournemouth,,,,,,false,UKOS,409851,91703,-1.8618,50.72487,BCT,MKD,OTH,,,,005,2021-02-24T00:00:00,2022-12-19T15:44:52,68,new,active
1290BOA90866,bougwmd,,,Kilmarnock Road,,,,,,,,,,NW-bound,,NW,N0077769,Lansdowne,Bournemouth,,,,,,false,UKOS,409836,91690,-1.86202,50.72475,BCT,MKD,OTH,,,,005,2021-02-24T00:00:00,2022-12-19T15:44:33,66,new,active
1290BOA90870,bougwmt,,,Colman Court,,,,,,,,,,E-bound,,E,N0077769,Lansdowne,Bournemouth,,,,,,false,UKOS,410465,91328,-1.85312,50.72148,BCT,MKD,OTH,,,,005,2021-04-22T00:00:00,2021-04-22T10:12:06,47,new,active
1290BOB20441,boudtat,,,Needles Point,,,,,,,,,,E-bound,,E,N0077769,Lansdowne,Bournemouth,,,,,,false,UKOS,410193,91092,-1.85698,50.71937,BCT,MKD,OTH,,,,005,2007-06-21T00:00:00,2021-04-22T12:07:15,15,new,active
1290BOA90872,bougwpa,,,Wessex Way,,,,,,,,,,NE-bound,,NE,E0035378,Littledown,Bournemouth,,,,,,false,UKOS,411460,93538,-1.83895,50.74134,BCT,MKD,OTH,,,,005,2021-12-22T00:00:00,2022-01-05T15:22:43,74,new,active
1290BOA90873,bougwpd,,,Wessex Way,,,,,,,,,,SW-bound,,SW,E0035378,Littledown,Bournemouth,,,,,,false,UKOS,411505,93538,-1.83831,50.74134,BCT,MKD,OTH,,,,005,2021-12-22T00:00:00,2022-01-05T15:30:58,71,new,active
1290DOB20968,bouawap,,,Kinsbourne Ave,,,,,,Boundary Road,,,,S-bound,,S,E0035371,Ensbury Park,Bournemouth,,,,,,false,UKOS,408105,94574,-1.88648,50.75071,BCT,MKD,OTH,,,,005,2003-06-12T00:00:00,2022-12-07T15:27:12,7,new,active
1290DOB21181,bougjaw,,,Iford Gardens,,,,,,Castle Lane East,,,,NW-bound,,NW,E0035376,Iford,Bournemouth,,,,,,false,UKOS,413476,93454,-1.81038,50.74054,BCT,MKD,OTH,,,,005,2007-06-21T00:00:00,2022-12-07T16:01:33,11,new,active
1290DOB21179,bougjam,,,Iford Gardens,,,,,,Castle Lane East,,,,SE-bound,,SE,E0035376,Iford,Bournemouth,,,,,,false,UKOS,413439,93507,-1.81091,50.74102,BCT,MKD,OTH,,,,005,2009-06-10T00:00:00,2022-12-07T16:01:59,20,new,active
1290DOB21201,boudwjw,,,Buchanan Avenue,,,,,,Holdenhurst Road,,,,SW-bound,,SW,E0035389,Springbourne,Boscombe,,,,,,false,UKOS,411093,92908,-1.84417,50.73568,BCT,MKD,OTH,,,,005,2007-06-20T00:00:00,2022-12-07T15:59:24,7,new,active
1290BOB20204,bougmaj,,,Old Priory Road,,,,,,Belle Vue Road,,,,NE-bound,,NE,E0035395,Tuckton,Bournemouth,,,,,,false,UKOS,414834,92023,-1.7912,50.72764,BCT,MKD,OTH,,,,005,2007-06-21T00:00:00,2022-12-08T15:38:35,9,new,active
1290BOB20201,bougmap,,,Riverside Lane,,,,,,Tuckton Road,,,,E-bound,,E,E0035395,Tuckton,Bournemouth,,,,,,false,UKOS,414856,92133,-1.79088,50.72863,BCT,MKD,OTH,,,,005,2009-06-10T00:00:00,2022-12-08T15:43:02,10,new,active
1290BOB20053,bouagjw,,,Exbury Drive,,,,,,Anchor Road,,,,W-bound,,W,E0035363,Bear Cross,,,,,,,false,UKOS,406072,96348,-1.91527,50.76669,BCT,MKD,OTH,,,,005,2006-05-16T00:00:00,2022-12-08T15:48:20,7,new,active
1290BOB20052,bouagmg,,,Exbury Drive,,,,,,Anchor Road,,,,E-bound,,E,E0035363,Bear Cross,,,,,,,false,UKOS,406086,96351,-1.91507,50.76672,BCT,MKD,OTH,,,,005,2006-05-16T00:00:00,2022-12-08T15:48:20,8,new,active
1290BOB20116,bouajdm,,,Verney Road,,,,,,Fernheath Road,,,,SE-bound,,SE,N0077768,Turbary Common,Bournemouth,,,,,,false,UKOS,406476,94908,-1.90956,50.75374,BCT,MKD,OTH,,,,005,2006-05-16T00:00:00,2023-02-02T15:50:14,38,new,active
1290BOB20117,bouajat,,,Verney Road,,,,,,Fernheath Road,,,,o/s 1,,W,N0077768,Turbary Common,Bournemouth,,,,,,false,UKOS,406457,94910,-1.90983,50.75375,BCT,MKD,OTH,,,,005,2006-05-16T00:00:00,2023-02-02T15:49:42,43,new,active
1290BCP10008,boujagp,,,Verney Road,,,,,,,,,,SW-bound,,SW,N0077768,Turbary Common,Bournemouth,,,,,,false,UKOS,406476,94944,-1.90956,50.75406,BCT,MKD,OTH,,,,005,2025-03-27T00:00:00,2025-03-27T16:23:55,36,new,active
1290BCP10009,boujagt,,,Verney Road,,,,,,,,,,NE-bound,,NE,N0077768,Turbary Common,Bournemouth,,,,,,false,UKOS,406473,94950,-1.9096,50.75411,BCT,MKD,OTH,,,,005,2025-03-27T00:00:00,2025-04-01T11:14:00,58,new,active
1290BOA90874,bougwtg,,,West Road,,,,,,,,,,W-bound,,W,E0035383,Pokesdown,Bournemouth,,,,,,false,UKOS,412665,91837,-1.82193,50.72602,BCT,MKD,OTH,,,,005,2023-02-17T00:00:00,2023-02-23T14:21:37,56,new,active
1290BOA90875,bougwtj,,,St Johns Road,,,,,,,,,,N-bound,,N,E0035366,Boscombe,Bournemouth,,,,,,false,UKOS,411090,91684,-1.84425,50.72467,BCT,MKD,OTH,,,,005,2023-02-17T00:00:00,2023-03-10T14:41:48,122,new,active
1290BOB20483,boudgpg,,,Dean Park Road,,,,,,Wimborne Road,,,,S-bound,,S,N0073119,Meyrick Park,Bournemouth,,,,,,false,UKOS,408871,91990,-1.87568,50.72746,BCT,MKD,OTH,,,,005,2007-06-20T00:00:00,2023-06-05T16:21:21,39,new,active
1290BOB20484,boudgma,,,Dean Park Road,,,,,,Wimborne Road,,,,N-bound,,N,N0073119,Meyrick Park,Bournemouth,,,,,,false,UKOS,408838,91935,-1.87615,50.72697,BCT,MKD,OTH,,,,005,2007-06-21T00:00:00,2023-06-05T16:20:57,38,new,active
1290DOB21112,boudtdj,,,Luckham Road,,,,,,Charminster Road,,,,NE-bound,,NE,E0035367,Charminster,Bournemouth,,,,,,false,UKOS,410109,94933,-1.85806,50.75391,BCT,MKD,OTH,,,,005,2006-05-23T00:00:00,2023-06-05T16:32:42,50,new,active
1290BCP10001,bougwtp,,,Montague Road,,,,,,,,,,W-bound,,W,E0035383,Pokesdown,Bournemouth,,,,,,false,UKOS,412758,91745,-1.82062,50.72519,BCT,MKD,OTH,,,,005,2024-03-11T00:00:00,2024-03-11T13:58:16,44,new,active
1290BCP10002,bougwtw,,,Wentworth Avenue,,,,,,,,,,W-bound,,W,E0035383,Pokesdown,Bournemouth,,,,,,false,UKOS,412447,91756,-1.82502,50.72529,BCT,MKD,OTH,,,,005,2024-03-12T00:00:00,2024-03-12T19:56:02,46,new,active
1290BCP10003,boujada,,,Penrith Road,,,,,,,,,,W-bound,,W,E0035366,Boscombe,Bournemouth,,,,,,false,UKOS,412131,91722,-1.8295,50.725,BCT,MKD,OTH,,,,005,2024-03-12T00:00:00,2024-03-13T15:58:03,49,new,active
1290BCP10004,boujadg,,,Westby Road,,,,,,,,,,N-bound,,N,E0035366,Boscombe,Bournemouth,,,,,,false,UKOS,411800,91835,-1.83419,50.72602,BCT,MKD,OTH,,,,005,2024-03-13T00:00:00,2024-03-13T16:04:56,44,new,active
1290BCP10005,boujadj,,,Keverstone Court,,,,,,,,,,NE-bound,,NE,E0035366,Boscombe,Bournemouth,,,,,,false,UKOS,410716,91443,-1.84956,50.72251,BCT,MKD,OTH,,,,005,2024-05-02T00:00:00,2024-05-02T18:22:41,44,new,active
1290BCP10006,boujadm,,,Keverstone Court,,,,,,,,,,SW-bound,,SW,E0035366,Boscombe,Bournemouth,,,,,,false,UKOS,410722,91443,-1.84947,50.72251,BCT,MKD,OTH,,,,005,2024-05-02T00:00:00,2024-05-02T18:24:45,44,new,active
1290BCP90001,boujadt,,,Hengistbury Head Hiker Cafe,,,,,,,,,,E-bound,,E,E0035399,West Southbourne,Bournemouth,,,,,,false,UKOS,416461,91093,-1.76819,50.71923,BCT,MKD,OTH,,,,005,2025-02-25T00:00:00,2025-02-25T12:45:51,50,new,active
1290BCP90002,boujadw,,,Hengistbury Head Beach,,,,,,,,,,S-bound,,S,E0035399,West Southbourne,Bournemouth,,,,,,false,UKOS,418151,90944,-1.74425,50.71784,BCT,MKD,OTH,,,,005,2025-02-25T00:00:00,2025-02-28T12:52:55,50,new,active
1290BCP90003,boujaga,,,Boscombe Pier Seafront,,,,,,,,,,W-bound,,W,E0035366,Boscombe,Bournemouth,,,,,,false,UKOS,411092,91144,-1.84424,50.71982,BCT,MKD,OTH,,,,005,2025-02-28T00:00:00,2025-02-28T12:05:44,44,new,active
1290BCP90004,boujagd,,,Bournemouth Pier Seafront (East),,,,,,,,,,E-bound,,E,E0057149,Bournemouth,,,,,,,false,UKOS,408936,90745,-1.87479,50.71627,BCT,MKD,OTH,,,,005,2025-02-28T00:00:00,2025-02-28T12:36:10,45,new,active
1290BCP90005,boujagj,,,Bournemouth Pier Seafront (West),,,,,,,,,,W-bound,,W,E0057149,Bournemouth,,,,,,,false,UKOS,408831,90709,-1.87628,50.71594,BCT,MKD,OTH,,,,005,2025-02-28T00:00:00,2025-03-05T15:53:27,46,new,active
1290BCP10010,boujagw,,,Dominion Road,,,,,,,,,,SE-bound,,SE,E0035398,West Howe,Bournemouth,,,,,,false,UKOS,405372,95351,-1.92521,50.75773,BCT,MKD,OTH,,,,005,2025-03-27T00:00:00,2025-03-27T16:39:09,44,new,active
1290BOA90843,bougwaj,,,Knights Road,,,,,,Knights Road,,,,S-bound,,S,N0060766,Bearwood,Poole,,,,,,false,UKOS,405102,96632,-1.92902,50.76925,BCT,CUS,OTH,,,,005,2016-04-11T00:00:00,2016-04-11T13:08:17,0,new,active
1290DOB20942,bouajwt,,,St Marks Church,,,,,,Wallisdown Road,,,,E-bound,,E,N0060767,Talbot Heath,Poole,,,,,,false,UKOS,406888,93965,-1.90374,50.74525,BCT,MKD,OTH,,,,005,2007-06-08T00:00:00,2019-11-12T12:29:44,11,new,active
1290DOB21097,boudjpg,,,Pine Road,,,,,,Ripon Road,,,,N-bound,,N,E0035402,Winton,Bournemouth,,,,,,false,UKOS,409291,93938,-1.86968,50.74498,BCT,MKD,OTH,,,,005,2007-06-21T00:00:00,2020-02-25T08:31:54,0,new,active
1290DOB21098,boudjpw,,,Pine Road,,,,,,Ripon Road,,,,S-bound,,S,E0035402,Winton,Bournemouth,,,,,,false,UKOS,409301,93940,-1.86954,50.74499,BCT,MKD,OTH,,,,005,2007-06-21T00:00:00,2020-07-29T11:20:56,3,new,active
1290DOB21085,boudmad,,,Malmesbury Park Road,,,,,,Charminster Road,,,,NE-bound,,NE,E0035367,Charminster,Bournemouth,,,,,,false,UKOS,409424,92855,-1.86782,50.73523,BCT,MKD,OTH,,,,005,2007-06-20T00:00:00,2021-07-07T13:30:46,0,new,active
1290DOB21084,boudmat,,,Malmesbury Park Road,,,,,,Charminster Road,,,,SW-bound,,SW,E0035367,Charminster,Bournemouth,,,,,,false,UKOS,409459,92869,-1.86733,50.73536,BCT,MKD,OTH,,,,005,2007-06-20T00:00:00,2021-07-07T13:30:46,0,new,active
