ATCOCode,NaptanCode,PlateCode,CleardownCode,CommonName,CommonNameLang,ShortCommonName,ShortCommonNameLang,Landmark,LandmarkLang,Street,StreetLang,Crossing,CrossingLang,Indicator,IndicatorLang,Bearing,NptgLocalityCode,LocalityName,ParentLocalityName,GrandParentLocalityName,Town,TownLang,Suburb,SuburbLang,LocalityCentre,GridType,Easting,Northing,Longitude,Latitude,StopType,BusStopType,TimingStatus,DefaultWaitTime,Notes,NotesLang,AdministrativeAreaCode,CreationDateTime,ModificationDateTime,RevisionNumber,Modification,Status
1590000101,thuadmd,,,War Memorial,,,,War Memorial,,London Road,,,,o/s,,SE,N0060757,Purfleet,,,Purfleet,,,,1,UKOS,555053,178355,0.231631,51.482901,BCT,MKD,OTH,,,,059,2004-11-08T00:00:00.000,2018-07-26T12:11:00.000,4,revise,active
1590000201,thuadmg,,,War Memorial,,,,War Memorial,,London Road,,,,opp,,NW,N0060757,Purfleet,,,Purfleet,,,,1,UKOS,555052,178331,0.231606,51.482686,BCT,MKD,OTH,,,,059,2004-11-08T00:00:00.000,2018-07-26T12:13:00.000,5,revise,active
1590000301,thuadmj,,,Railway Station,,,,Purfleet Rail,,London Road,,,,E-bound,,E,N0060757,Purfleet,,,Purfleet,,,,1,UKOS,555537,178080,0.238464,51.480295,BCT,MKD,TIP,,,,059,2004-11-08T00:00:00.000,2022-05-06T14:36:43.558,6,revise,active
1590000401,thuadmp,,,Railway Station,,,,Rail Station,,London Road,,,,W-bound,,W,N0060757,Purfleet,,,Purfleet,,,,1,UKOS,555489,178097,0.237791,51.480463,BCT,MKD,TIP,,,,059,2004-11-08T00:00:00.000,2020-09-09T16:11:41.000,4,revise,active
1590000501,thudgdm,,,Linnet Way,,,,Beacon Hill,,London Road,,,,Eastbound,,E,N0060757,Purfleet,,,Purfleet,,,,1,UKOS,555834,178001,0.242713,51.479506,BCT,MKD,OTH,,,,059,2004-11-08T00:00:00.000,2009-07-10T11:34:00.000,4,revise,active
1590000601,thuadmt,,,Linnet Way,,,,Milll Road,,London Road,,,,Westbound,,W,N0060757,Purfleet,,,Purfleet,,,,1,UKOS,555984,177969,0.244858,51.479177,BCT,MKD,OTH,,,,059,2004-11-08T00:00:00.000,2021-01-29T08:45:25.000,6,revise,active
1590000701,thudgdp,,,London Road Lindon Close,,,,Linden Close,,London Road,,,,Eastbound,,E,N0060757,Purfleet,,,Purfleet,,,,1,UKOS,556170,177950,0.247525,51.478955,BCT,MKD,OTH,,,,059,2004-11-08T00:00:00.000,2004-11-08T00:00:00.000,0,new,active
1590000801,thudgdt,,,London Road Lindon Close,,,,Linden Close,,London Road,,,,Westbound,,W,N0060757,Purfleet,,,Purfleet,,,,1,UKOS,556391,177901,0.250684,51.478454,BCT,MKD,OTH,,,,059,2004-11-08T00:00:00.000,2021-01-29T08:47:50.000,2,revise,active
1590000901,thudgdw,,,Lockyer Road,,,,Esso,,London Road,,,,Eastbound,,E,N0060757,Purfleet,,,Purfleet,,,,1,UKOS,556539,177960,0.252839,51.478943,BCT,MKD,OTH,,,,059,2004-11-08T00:00:00.000,2020-09-11T16:45:06.000,2,revise,active
1590001001,thuadmw,,,Hutson Terrace,,,,Thames Terminal,,London Road,,,,Westbound,,W,N0060757,Purfleet,,,Purfleet,,,,1,UKOS,556839,177898,0.257122,51.478305,BCT,MKD,OTH,,,,059,2004-11-08T00:00:00.000,2024-07-18T14:10:11.900,3,revise,active
1590001101,thudgja,,,Hutson Terrace,,,,Thames Terminal,,London Road,,,,E-bound,,E,N0060757,Purfleet,,,Purfleet,,,,1,UKOS,556877,177902,0.257671,51.47833,BCT,MKD,OTH,,,,059,2004-11-08T00:00:00.000,2024-07-18T14:11:05.563,3,revise,active
1590001201,thuadpa,,,Stonehouse Corner,,,,Stonehouse Corner,,London Road,,,,before,,NW,N0060757,Purfleet,,,Purfleet,,,,1,UKOS,557118,177877,0.261133,51.478037,BCT,MKD,TIP,,,,059,2004-11-08T00:00:00.000,2013-05-15T10:16:00.000,1,revise,active
1590001301,thudgjd,,,Stonehouse Corner,,,,Stonehouse Cnr,,London Road,,,,after,,SE,N0060757,Purfleet,,,Purfleet,,,,1,UKOS,557124,177895,0.261227,51.478197,BCT,MKD,TIP,,,,059,2004-11-08T00:00:00.000,2021-01-06T14:23:13.000,3,revise,active
1590001401,thuadpd,,,Breach Road,,,,Dartford Bridge,,London Road,,,,W-bound,,W,E0042686,West Thurrock,,,West Thurrock,,,,1,UKOS,557377,177755,0.264805,51.476869,BCT,MKD,OTH,,,,059,2004-11-08T00:00:00.000,2015-01-21T10:01:00.000,2,revise,inactive
1590001501,thuadpg,,,Breach Road,,,,Dartford Bridge,,London Road,,,,E-bound,,E,E0042686,West Thurrock,,,West Thurrock,,,,1,UKOS,557337,177783,0.264242,51.477132,BCT,MKD,OTH,,,,059,2004-11-08T00:00:00.000,2015-01-21T10:03:00.000,2,revise,inactive
1590001601,thuadpj,,,Stonehouse Lane,,,,A1090,,Stonehouse Lane,,,,Southbound,,S,N0060757,Purfleet,,,Purfleet,,,,1,UKOS,557180,178537,0.262317,51.483951,BCT,MKD,OTH,,,,059,2004-11-08T00:00:00.000,2022-01-27T16:50:00.781,1,revise,active
1590001701,thuadpm,,,Stonehouse Lane,,,,A1090,,Stonehouse Lane,,,,Northbound,,N,N0060757,Purfleet,,,Purfleet,,,,1,UKOS,557173,178586,0.26224,51.484392,BCT,MKD,OTH,,,,059,2004-11-08T00:00:00.000,2004-11-08T00:00:00.000,0,new,active
1590002001,thuadta,,,Marlow Avenue,,,,Marlow Avenue,,Tank Hill Road,,,,S-bound,,S,N0060757,Purfleet,,,Purfleet,,,,1,UKOS,555167,178954,0.233534,51.488251,BCT,MKD,OTH,,,,059,2004-11-08T00:00:00.000,2018-01-18T10:47:00.000,4,revise,active
1590002101,thudgjg,,,Garrison Estate,,,,Saladin Drive,,Chieftan Drive,,,,S-bound,,S,N0060757,Purfleet,,,Purfleet,,,,1,UKOS,555066,178705,0.231972,51.486042,BCT,MKD,TIP,,,,059,2004-11-08T00:00:00.000,2024-11-27T16:30:33.105,10,revise,active
1590002201,thudgjm,,,Marlow Avenue,,,,Centurion Way,,Tank Hill Road,,,,Northbound,,N,N0060757,Purfleet,,,Purfleet,,,,1,UKOS,555158,178831,0.233351,51.487149,BCT,MKD,OTH,,,,059,2004-11-08T00:00:00.000,2009-06-19T12:03:00.000,3,revise,active
1590002301,thuadtd,,,Tank Hill Road Primary School,,,,Primary School,,Tank Hill Road,,,,Southbound,,S,N0060757,Purfleet,,,Purfleet,,,,1,UKOS,555151,178576,0.233138,51.48486,BCT,MKD,OTH,,,,059,2004-11-08T00:00:00.000,2021-01-29T14:16:10.000,2,revise,active
1590002401,thuadtg,,,Purfleet Road Ocado,,,,London Road,,Purfleet Road,,,,NE-bound,,NE,N0060757,Purfleet,,,Purfleet-on-Thames,,,,1,UKOS,555304,179880,0.235913,51.496534,BCT,MKD,OTH,,,,059,2004-11-08T00:00:00.000,2024-08-15T14:19:20.555,8,revise,active
1590002601,thuadtj,,,Purfleet Road,,,,Blenheim Gardens,,Purfleet Road,,,,W-bound,,W,E0042653,Aveley,,,Aveley,,,,1,UKOS,555807,180072,0.243238,51.49812,BCT,MKD,OTH,,,,059,2004-11-08T00:00:00.000,2019-05-28T10:11:00.000,2,revise,active
1590002801,thuadtm,,,Blenheim Gardens,,,,Blenheim Gardens,,Purfleet Road,,,,Eastbound,,E,E0042653,Aveley,,,Aveley,,,,1,UKOS,556003,180152,0.246095,51.498785,BCT,MKD,TIP,,,,059,2004-11-08T00:00:00.000,2009-06-18T14:00:00.000,2,revise,active
1590002901,thuadtp,,,Arnhem Avenue,,,,Arnhem Avenue,,Love Lane,,,,N-bound,,N,E0042653,Aveley,,,Aveley,,,,1,UKOS,556094,180024,0.247348,51.49761,BCT,MKD,OTH,,,,059,2004-11-08T00:00:00.000,2019-05-28T09:51:00.000,5,revise,active
1590003001,thuadtw,,,Arnhem Avenue,,,,Arnhem Avenue,,Love Lane,,,,S-bound,,S,E0042653,Aveley,,,Aveley,,,,1,UKOS,556106,180029,0.247523,51.497652,BCT,MKD,OTH,,,,059,2004-11-08T00:00:00.000,2019-05-28T09:49:00.000,3,revise,active
1590003101,thuadwa,,,Central Avenue,,,,Central Avenue,,Love Lane,,,,N-bound,,N,E0042653,Aveley,,,Aveley,,,,1,UKOS,556084,179781,0.247097,51.49543,BCT,MKD,OTH,,,,059,2004-11-08T00:00:00.000,2019-05-28T09:53:00.000,2,revise,active
1590003201,thuadwd,,,Central Avenue,,,,Central Avenue,,Love Lane,,,,S-bound,,S,E0042653,Aveley,,,Aveley,,,,1,UKOS,556092,179814,0.247227,51.495724,BCT,MKD,OTH,,,,059,2004-11-08T00:00:00.000,2019-05-28T09:54:00.000,2,revise,active
1590003301,thuadwg,,,Crescent Walk,,,,Crescent Walk,,Hall Road,,,,adj,,SW,E0042653,Aveley,,,Aveley,,,,1,UKOS,556316,179717,0.250408,51.49479,BCT,MKD,OTH,,,,059,2004-11-08T00:00:00.000,2019-05-28T09:43:00.000,4,revise,active
1590003401,thuadwj,,,Crescent Walk,,,,Crescent Walk,,Hall Road,,,,opp,,NE,E0042653,Aveley,,,Aveley,,,,1,UKOS,556353,179755,0.250957,51.495122,BCT,MKD,OTH,,,,059,2004-11-08T00:00:00.000,2019-05-28T09:42:00.000,4,revise,active
1590003501,thuadwm,,,Hall Avenue,,,,Hall Avenue,,Hall Road,,,,W-bound,,W,E0042653,Aveley,,,Aveley,,,,1,UKOS,556594,179850,0.254468,51.495909,BCT,MKD,TIP,,,,059,2004-11-08T00:00:00.000,2019-05-28T09:45:00.000,2,revise,active
1590003601,thuadwp,,,Hall Avenue,,,,Hall Avenue,,Hall Road,,,,E-bound,,E,E0042653,Aveley,,,Aveley,,,,1,UKOS,556631,179878,0.255013,51.49615,BCT,MKD,TIP,,,,059,2004-11-08T00:00:00.000,2019-05-28T09:46:00.000,2,revise,active
1590003701,thuadwt,,,Hall Road,,,,Hall Road,,Ship Lane,,,,S-bound,,S,E0042653,Aveley,,,Aveley,,,,1,UKOS,556719,179935,0.256304,51.496644,BCT,MKD,OTH,,,,059,2004-11-08T00:00:00.000,2021-10-26T15:58:14.041,4,revise,active
1590003801,thuagad,,,Recreation Ground,,,,Recreation Ground,,Ship Lane,,,,S-bound,,S,E0042653,Aveley,,,Aveley,,,,1,UKOS,556693,180069,0.25599,51.497849,BCT,MKD,OTH,,,,059,2004-11-08T00:00:00.000,2019-05-28T10:39:00.000,2,revise,active
1590003901,thuagag,,,Stanford Gardens,,,,Stanford Gardens,,Stifford Road,,,,E-bound,,E,E0042653,Aveley,,,Aveley,,,,1,UKOS,557096,180269,0.26188,51.499534,BCT,MKD,OTH,,,,059,2004-11-08T00:00:00.000,2020-09-09T15:56:57.000,3,revise,active
1590004001,thuagaj,,,Stanford Gardens,,,,Stanford Gardens,,Stifford Road,,,,W-bound,,W,E0042653,Aveley,,,Aveley,,,,1,UKOS,557122,180260,0.26225,51.499446,BCT,MKD,OTH,,,,059,2004-11-08T00:00:00.000,2019-05-28T10:50:00.000,2,revise,active
1590004101,thudgjp,,,High Street,,,,Mill Road,,High Street,,,,E-bound,,E,E0042653,Aveley,,,Aveley,,,,1,UKOS,556504,180215,0.253334,51.499213,BCT,MKD,TIP,,,,059,2005-02-08T00:00:00.000,2019-05-28T09:36:00.000,1,revise,active
1590004201,thudgjt,,,High Street,,,,Dacre Avenue,,High Street,,,,W-bound,,W,E0042653,Aveley,,,Aveley,,,,1,UKOS,556599,180190,0.254691,51.498962,BCT,MKD,TIP,,,,059,2004-11-08T00:00:00.000,2019-05-28T09:40:00.000,2,revise,active
1590004301,thudgjw,,,Field Rd,,,,Aveley Library,,Purfleet Road,,,,o/s,,E,E0042653,Aveley,,,Aveley,,,,1,UKOS,556306,180210,0.250482,51.499223,BCT,MKD,OTH,,,,059,2004-11-08T00:00:00.000,2024-07-25T13:42:03.102,5,revise,active
1590004401,thuagam,,,Field Rd,,,,Aveley Library,,Purfleet Road,,,,opp,,W,E0042653,Aveley,,,Aveley,,,,1,UKOS,556341,180201,0.250982,51.499132,BCT,MKD,OTH,,,,059,2004-11-08T00:00:00.000,2024-07-25T13:40:39.960,3,revise,active
1590004501,thuagap,,,Hanford Road,,,,Hanford Road,,Mill Road,,,,N-bound,,N,E0042653,Aveley,,,Aveley,,,,1,UKOS,556350,180400,0.2512,51.500917,BCT,MKD,OTH,,,,059,2004-11-08T00:00:00.000,2019-05-28T10:01:00.000,2,revise,active
1590004601,thuagat,,,Hanford Road,,,,Hanford Road,,Mill Road,,,,Southbound,,S,E0042653,Aveley,,,Aveley,,,,1,UKOS,556368,180379,0.251445,51.500727,BCT,MKD,OTH,,,,059,2004-11-08T00:00:00.000,2021-10-26T16:01:06.141,2,revise,active
1590004701,thudgma,,,St Pauls Close,,,,St Pauls Close,,Mill Road,,,,W-bound,,W,E0042653,Aveley,,,Aveley,,,,1,UKOS,556105,180678,0.247796,51.503483,BCT,MKD,OTH,,,,059,2004-11-08T00:00:00.000,2019-05-28T09:58:00.000,3,revise,active
1590004801,thudgmd,,,St Pauls Close,,,,St Pauls Close,,Mill Road,,,,E-bound,,E,E0042653,Aveley,,,Aveley,,,,1,UKOS,556151,180673,0.248456,51.503425,BCT,MKD,OTH,,,,059,2004-11-08T00:00:00.000,2019-05-28T09:57:00.000,4,revise,active
1590004901,thudgmg,,,Shannon Way,,,,Shannon Way,,Romford Road,,,,S-bound,,S,E0042653,Aveley,,,Aveley,,,,1,UKOS,556099,180920,0.247816,51.505659,BCT,MKD,OTH,,,,059,2004-11-08T00:00:00.000,2019-05-28T10:23:00.000,3,revise,active
1590005001,thuagaw,,,Shannon Way,,,,Romford Road,,Shannon Way,,,,E-bound,,E,E0042653,Aveley,,,Aveley,,,,1,UKOS,556145,181008,0.248517,51.506437,BCT,MKD,OTH,,,,059,2004-11-08T00:00:00.000,2020-09-10T16:26:31.000,4,revise,active
1590005101,thuagda,,,Teviot Avenue,,,,Shannon Way,,Teviot Avenue,,,,N-bound,,N,E0042653,Aveley,,,Aveley,,,,1,UKOS,556472,181127,0.253278,51.507415,BCT,MKD,OTH,,,,059,2004-11-08T00:00:00.000,2019-05-28T10:52:00.000,1,revise,active
1590005201,thuagdg,,,Stifford Road,,,,Hangman's Woods,,Stifford Road,,,,Westbound,,W,E0042674,South Ockendon,,,South Ockendon,,,,1,UKOS,557850,180561,0.272864,51.501947,BCT,MKD,OTH,,,,059,2004-11-08T00:00:00.000,2021-03-12T14:04:34.000,1,revise,active
1590005301,thuagdj,,,Stifford Road,,,,Hangman's Woods,,Stifford Road,,,,Eastbound,,E,E0042674,South Ockendon,,,South Ockendon,,,,1,UKOS,557865,180594,0.273095,51.50224,BCT,MKD,OTH,,,,059,2004-11-08T00:00:00.000,2004-11-08T00:00:00.000,0,new,active
1590005401,thudgmj,,,Garron Lane,,,,Garron Lane,,Foyle Drive,,,,Southbound,,S,E0042674,South Ockendon,,,South Ockendon,,,,1,UKOS,558092,180800,0.276454,51.504027,BCT,MKD,OTH,,,,059,2004-11-08T00:00:00.000,2021-11-04T16:38:42.025,2,revise,active
1590005501,thuagdm,,,Garron Lane,,,,Garron Lane,,Foyle Drive,,,,Northbound,,N,E0042674,South Ockendon,,,South Ockendon,,,,1,UKOS,558075,180841,0.276229,51.5044,BCT,MKD,OTH,,,,059,2004-11-08T00:00:00.000,2009-06-17T14:32:00.000,1,revise,active
1590005601,thuagdp,,,Gatehope Drive,,,,Darenth Lane,,Foyle Drive,,,,Southbound,,S,E0042674,South Ockendon,,,South Ockendon,,,,1,UKOS,558073,181169,0.27634,51.507351,BCT,MKD,TIP,,,,059,2004-11-08T00:00:00.000,2021-11-04T16:41:04.340,2,revise,active
1590005701,thuagdt,,,Gatehope Drive,,,,Darenth Lane,,Foyle Drive,,,,N-bound,,N,E0042674,South Ockendon,,,South Ockendon,,,,1,UKOS,558064,181087,0.27618,51.506613,BCT,MKD,TIP,,,,059,2004-11-08T00:00:00.000,2015-01-02T14:15:00.000,2,revise,active
1590005801,thuagdw,,,Easington Way,,,,Easington Way,,Foyle Drive,,,,Southbound,,S,E0042674,South Ockendon,,,South Ockendon,,,,1,UKOS,558060,181446,0.276274,51.509846,BCT,MKD,OTH,,,,059,2004-11-08T00:00:00.000,2023-06-07T15:52:21.143,2,revise,active
1590005901,thuagja,,,Easington Way,,,,Easington Way,,Foyle Drive,,,,Northbound,,N,E0042674,South Ockendon,,,South Ockendon,,,,1,UKOS,558022,181595,0.275803,51.511189,BCT,MKD,OTH,,,,059,2004-11-08T00:00:00.000,2009-06-16T14:58:00.000,1,revise,active
1590006001,thuagjd,,,Elmdon Road,,,,School,,Erriff Drive,,,,Westbound,,W,E0042674,South Ockendon,,,South Ockendon,,,,1,UKOS,558103,181731,0.27703,51.512388,BCT,MKD,OTH,,,,059,2004-11-08T00:00:00.000,2020-09-09T15:39:32.000,2,revise,active
1590006101,thuagjg,,,Elmdon Road,,,,School,,Erriff Drive,,,,Eastbound,,E,E0042674,South Ockendon,,,South Ockendon,,,,1,UKOS,558238,181792,0.279002,51.512899,BCT,MKD,OTH,,,,059,2004-11-08T00:00:00.000,2009-06-16T14:54:00.000,1,revise,active
1590006201,thuagjm,,,Dawley Green,,,,Dawley Green,,Darenth Lane,,,,Westbound,,W,E0042674,South Ockendon,,,South Ockendon,,,,1,UKOS,558371,181304,0.280698,51.508477,BCT,MKD,OTH,,,,059,2004-11-08T00:00:00.000,2021-03-12T11:11:02.000,3,revise,active
1590006301,thuagjp,,,Dawley Green,,,,Dawley Green,,Darenth Lane,,,,Eastbound,,E,E0042674,South Ockendon,,,South Ockendon,,,,1,UKOS,558266,181295,0.279182,51.508426,BCT,MKD,OTH,,,,059,2004-11-08T00:00:00.000,2009-06-26T14:35:00.000,1,revise,active
1590006401,thuagjt,,,Foyle Drive,,,,Foyle Drive,,Stifford Road,,,,Westbound,,W,E0042674,South Ockendon,,,South Ockendon,,,,1,UKOS,558046,180684,0.275741,51.502998,BCT,MKD,OTH,,,,059,2004-11-08T00:00:00.000,2023-03-27T15:45:23.732,3,revise,inactive
1590006501,thuagjw,,,Daiglen Drive,,,,Daiglen Drv,,Stifford Road,,,,W-bound,,W,E0042674,South Ockendon,,,South Ockendon,,,,1,UKOS,558356,180667,0.280196,51.502758,BCT,MKD,OTH,,,,059,2004-11-08T00:00:00.000,2023-03-27T15:54:05.740,3,revise,inactive
1590006601,thudgmp,,,Daiglen Drive,,,,Daiglen Drv,,Stifford Road,,,,E-bound,,E,E0042674,South Ockendon,,,South Ockendon,,,,1,UKOS,558516,180663,0.282497,51.502678,BCT,MKD,OTH,,,,059,2004-11-08T00:00:00.000,2013-11-06T08:56:00.000,3,revise,active
1590006701,thuagma,,,Fortin Way,,,,Daiglen Drive,,Daiglen Drive,,,,N-bound,,N,E0042674,South Ockendon,,,South Ockendon,,,,1,UKOS,558406,180725,0.280942,51.503265,BCT,MKD,OTH,,,,059,2004-11-08T00:00:00.000,2013-12-11T10:14:00.000,2,revise,active
1590006801,thuagmd,,,Fairham Avenue,,,,Fairham Ave,,Daiglen Drive,,,,Southbound,,S,E0042674,South Ockendon,,,South Ockendon,,,,1,UKOS,558485,181027,0.282212,51.505955,BCT,MKD,OTH,,,,059,2004-11-08T00:00:00.000,2021-11-04T17:27:57.190,3,revise,active
1590006901,thuagmg,,,Fairham Avenue,,,,Fairam Ave,,Daiglen Drive,,,,Northbound,,N,E0042674,South Ockendon,,,South Ockendon,,,,1,UKOS,558468,181033,0.281972,51.506015,BCT,MKD,OTH,,,,059,2004-11-08T00:00:00.000,2009-06-16T14:19:00.000,2,revise,active
1590007001,thudgmt,,,Darenth Lane,,,,Police Station,,Daiglen Drive,,,,Southbound,,S,E0042674,South Ockendon,,,South Ockendon,,,,1,UKOS,558588,181347,0.283841,51.508803,BCT,MKD,OTH,,,,059,2004-11-08T00:00:00.000,2009-06-26T14:32:00.000,2,revise,active
1590007101,thudgmw,,,Derwent Parade,,,,Derwent Parade,,Daiglen Drive,,,,Southbound,,S,E0042674,South Ockendon,,,South Ockendon,,,,1,UKOS,558589,181483,0.283916,51.510024,BCT,MKD,OTH,,,,059,2004-11-08T00:00:00.000,2021-11-05T08:51:37.072,1,revise,active
1590007201,thudgpa,,,Derwent Parade,,,,Derwent Parade,,Daiglen Drive,,,,N-bound,,N,E0042674,South Ockendon,,,South Ockendon,,,,1,UKOS,558569,181532,0.283651,51.51047,BCT,MKD,OTH,,,,059,2004-11-08T00:00:00.000,2013-12-11T10:15:00.000,1,revise,active
1590007301,thuagmj,,,Erriff Drive,,,,Erriff Drive,,Daiglen Drive,,,,Southbound,,S,E0042674,South Ockendon,,,South Ockendon,,,,1,UKOS,558585,181805,0.284002,51.51292,BCT,MKD,OTH,,,,059,2004-11-08T00:00:00.000,2021-11-05T08:48:04.022,2,revise,active
1590007401,thuagmp,,,Elan Road,,,,Daiglen Drive,,Erriff Drive,,,,Westbound,,W,E0042674,South Ockendon,,,South Ockendon,,,,1,UKOS,558458,181840,0.282191,51.513268,BCT,MKD,OTH,,,,059,2004-11-08T00:00:00.000,2021-01-29T08:57:16.000,3,revise,active
1590007501,thuagmt,,,Erriff Drive,,,,Arisdale Avenue,,Daiglen Drive,,,,Northbound,,N,E0042674,South Ockendon,,,South Ockendon,,,,1,UKOS,558569,181899,0.283816,51.513767,BCT,MKD,OTH,,,,059,2004-11-08T00:00:00.000,2009-06-16T14:14:00.000,1,revise,active
1590007601,thuagmw,,,Aire Drive,,,,Aire Drive,,Daiglen Drive,,,,Southbound,,S,E0042674,South Ockendon,,,South Ockendon,,,,1,UKOS,558581,182046,0.284055,51.515085,BCT,MKD,OTH,,,,059,2004-11-08T00:00:00.000,2011-02-10T12:21:00.000,2,revise,inactive
1590007701,thuagpa,,,Aire Drive,,,,Aire Drive,,Daiglen Drive,,,,Northbound,,N,E0042674,South Ockendon,,,South Ockendon,,,,1,UKOS,558565,182166,0.283878,51.516167,BCT,MKD,OTH,,,,059,2004-11-08T00:00:00.000,2011-02-10T12:22:00.000,2,revise,inactive
1590007801,thuagpd,,,Anton Road,,,,Anton Road,,Avontar Road,,,,Eastbound,,E,E0042674,South Ockendon,,,South Ockendon,,,,1,UKOS,558642,182371,0.285079,51.517987,BCT,MKD,OTH,,,,059,2004-11-08T00:00:00.000,2009-07-15T13:33:00.000,3,revise,active
1590007901,thuagpg,,,Arisdale Avenue,,,,Avontar Road,,Arisdale Avenue,,,,Southbound,,S,E0042674,South Ockendon,,,South Ockendon,,,,1,UKOS,558795,182469,0.28732,51.518824,BCT,MKD,OTH,,,,059,2004-11-08T00:00:00.000,2021-11-23T10:59:51.751,1,revise,active
1590008001,thuagpj,,,Arisdale Avenue,,,,Avontar Road,,Arisdale Avenue,,,,Northbound,,N,E0042674,South Ockendon,,,South Ockendon,,,,1,UKOS,558780,182430,0.287093,51.518479,BCT,MKD,OTH,,,,059,2004-11-08T00:00:00.000,2004-11-08T00:00:00.000,0,new,active
1590008101,thudgpd,,,Arcany Road,,,,Arcany Road,,Arisdale Avenue,,,,Southbound,,S,E0042674,South Ockendon,,,South Ockendon,,,,1,UKOS,558801,181945,0.28717,51.514119,BCT,MKD,OTH,,,,059,2004-11-08T00:00:00.000,2023-03-27T15:35:36.330,2,revise,active
1590008201,thudgpg,,,Arcany Road,,,,Arcany Road,,Arisdale Avenue,,,,Northbound,,N,E0042674,South Ockendon,,,South Ockendon,,,,1,UKOS,558783,182018,0.286951,51.514776,BCT,MKD,OTH,,,,059,2004-11-08T00:00:00.000,2009-06-16T12:20:00.000,1,revise,active
1590008301,thudgpj,,,Cander Way,,,,Cherwell Grove,,Stifford Road,,,,Eastbound,,E,E0042674,South Ockendon,,,South Ockendon,,,,1,UKOS,558898,180666,0.287998,51.502597,BCT,MKD,OTH,,,,059,2004-11-08T00:00:00.000,2009-06-19T11:27:00.000,1,revise,active
1590008401,thudgpm,,,Cander Way,,,,Cherwell Grove,,Stifford Road,,,,Westbound,,W,E0042674,South Ockendon,,,South Ockendon,,,,1,UKOS,558755,180646,0.28593,51.502458,BCT,MKD,OTH,,,,059,2004-11-08T00:00:00.000,2020-09-09T15:54:52.000,2,revise,active
1590008501,thudgpt,,,Cullen Square,,,,South Road,,Stifford Road,,,,Westbound,,W,E0042674,South Ockendon,,,South Ockendon,,,,1,UKOS,559212,180649,0.29251,51.502356,BCT,MKD,OTH,,,,059,2004-11-08T00:00:00.000,2021-01-29T08:58:42.000,4,revise,active
1590008601,thudgpw,,,Ford Place,,,,Stifford Road,,Stifford Hill,,,,Southbound,,S,E0042674,South Ockendon,,,South Ockendon,,,,1,UKOS,559309,180633,0.293901,51.502191,BCT,MKD,OTH,,,,059,2004-11-08T00:00:00.000,2021-11-04T17:29:54.884,1,revise,active
1590008701,thudgta,,,Ford Place,,,,Stifford Road,,South Road,,,,Northbound,,N,E0042674,South Ockendon,,,South Ockendon,,,,1,UKOS,559300,180735,0.293816,51.503104,BCT,MKD,OTH,,,,059,2004-11-08T00:00:00.000,2004-11-08T00:00:00.000,0,new,active
1590008801,thudgtd,,,Elwick Road,,,,Elwick Road,,South Road,,,,Southbound,,S,E0042674,South Ockendon,,,South Ockendon,,,,1,UKOS,559262,181097,0.293422,51.506374,BCT,MKD,OTH,,,,059,2004-11-08T00:00:00.000,2021-11-23T09:27:31.479,2,revise,active
1590008901,thudgtg,,,Elwick Road,,,,Elwick Road,,South Road,,,,Northbound,,N,E0042674,South Ockendon,,,South Ockendon,,,,1,UKOS,559213,181212,0.292779,51.507414,BCT,MKD,OTH,,,,059,2004-11-08T00:00:00.000,2009-06-19T10:23:00.000,1,revise,active
1590009001,thudgtj,,,Buckles Lane,,,,Buckles Lane,,South Road,,,,Northbound,,N,E0042674,South Ockendon,,,South Ockendon,,,,1,UKOS,559201,181596,0.292779,51.510868,BCT,MKD,OTH,,,,059,2004-11-08T00:00:00.000,2009-06-19T10:19:00.000,1,revise,active
1590009101,thudgtm,,,Buckles Lane,,,,Buckles Lane,,South Road,,,,Southbound,,S,E0042674,South Ockendon,,,South Ockendon,,,,1,UKOS,559225,181761,0.293199,51.512343,BCT,MKD,OTH,,,,059,2004-11-08T00:00:00.000,2009-06-19T10:19:00.000,1,revise,active
1590009201,thuagpm,,,Moss Road,,,,Moss Road,,South Road,,,,Northbound,,N,E0042674,South Ockendon,,,South Ockendon,,,,1,UKOS,559195,181931,0.292844,51.513879,BCT,MKD,OTH,,,,059,2004-11-08T00:00:00.000,2009-06-19T10:29:00.000,2,revise,active
1590009401,thuagpw,,,Tamarisk Road,,,,Orchard Road,,Tamarisk Road,,,,SW-bound,,SW,E0042674,South Ockendon,,,South Ockendon,,,,1,UKOS,559165,182240,0.292551,51.516664,BCT,MKD,OTH,,,,059,2004-11-08T00:00:00.000,2021-01-29T09:01:17.000,5,revise,active
1590009501,thuagta,,,Mayflower Close,,,,Mayflower Close,,Tamarisk Road,,,,N-bound,,N,E0042674,South Ockendon,,,South Ockendon,,,,1,UKOS,559012,182442,0.290439,51.518521,BCT,MKD,OTH,,,,059,2004-11-08T00:00:00.000,2019-07-16T14:21:00.000,2,revise,inactive
1590009601,thuagtd,,,Mayflower Close,,,,Mayflower Close,,Tamarisk Road,,,,S-bound,,S,E0042674,South Ockendon,,,South Ockendon,,,,1,UKOS,559021,182402,0.290551,51.518159,BCT,MKD,OTH,,,,059,2004-11-08T00:00:00.000,2019-07-16T14:22:00.000,2,revise,inactive
1590009701,thudgtp,,,Garth Road,,,,Tamarisk Road,,South Road,,,,Southbound,,S,E0042674,South Ockendon,,,South Ockendon,,,,1,UKOS,559258,182338,0.293935,51.517518,BCT,MKD,OTH,,,,059,2005-02-07T00:00:00.000,2009-06-19T10:26:00.000,1,revise,active
1590009801,thudgtw,,,Garth Road,,,,Garth Road,,South Road,,,,Northbound,,N,E0042674,South Ockendon,,,South Ockendon,,,,1,UKOS,559248,182413,0.293825,51.518194,BCT,MKD,OTH,,,,059,2004-11-08T00:00:00.000,2009-06-19T10:27:00.000,1,revise,active
1590009901,thuagtg,,,Brandon Groves,,,,Brandon Groves,,South Road,,,,Southbound,,S,E0042674,South Ockendon,,,South Ockendon,,,,1,UKOS,559332,182619,0.295127,51.520021,BCT,MKD,TIP,,,,059,2004-11-08T00:00:00.000,2009-06-26T14:23:00.000,1,revise,active
1590010001,thudgwa,,,Brandon Groves,,,,Brandon Groves,,South Road,,,,Northbound,,N,E0042674,South Ockendon,,,South Ockendon,,,,1,UKOS,559338,182697,0.295249,51.520721,BCT,MKD,TIP,,,,059,2004-11-08T00:00:00.000,2009-06-30T10:47:00.000,3,revise,active
1590010101,thudgwd,,,West Road,,,,West Road,,South Road,,,,Northbound,,N,E0042674,South Ockendon,,,South Ockendon,,,,1,UKOS,559425,182945,0.296614,51.522924,BCT,MKD,TIP,,,,059,2004-11-08T00:00:00.000,2023-03-27T16:27:38.407,1,revise,active
1590010201,thuagtj,,,West Road,,,,West Road,,North Road,,,,Southbound,,S,E0042674,South Ockendon,,,South Ockendon,,,,1,UKOS,559458,182996,0.297112,51.523373,BCT,MKD,TIP,,,,059,2005-02-07T00:00:00.000,2023-03-27T16:28:24.813,2,revise,active
1590010301,thuagtm,,,Tyssen Place,,,,Tyssen Place,,West Road,,,,opp,,W,E0042674,South Ockendon,,,South Ockendon,,,,1,UKOS,559289,182921,0.294644,51.522747,BCT,MKD,OTH,,,,059,2004-11-08T00:00:00.000,2013-08-16T11:24:00.000,6,revise,active
1590010501,thuagtp,,,Nelson Road,,,,Wilsman Road,,North Road,,,,Southbound,,S,E0042674,South Ockendon,,,South Ockendon,,,,1,UKOS,559487,183246,0.297643,51.525611,BCT,MKD,OTH,,,,059,2004-11-08T00:00:00.000,2009-06-18T13:55:00.000,1,revise,active
1590010601,thuagtw,,,Nelson Road,,,,Wilsman Road,,North Road,,,,Northbound,,N,E0042674,South Ockendon,,,South Ockendon,,,,1,UKOS,559478,183294,0.297535,51.526045,BCT,MKD,OTH,,,,059,2004-11-08T00:00:00.000,2009-06-18T13:55:00.000,1,revise,active
1590010801,thuagwa,,,Grove Farm Cottages,,,,Grove Farm Cottages,,North Road,,,,Southbound,,S,E0042674,South Ockendon,,,South Ockendon,,,,1,UKOS,559515,184344,0.298542,51.535474,BCT,MKD,OTH,,,,059,2004-11-08T00:00:00.000,2024-01-12T21:47:47.740,2,revise,active
1590010901,thuagwd,,,Grove Farm Cottages,,,,Grove Farm Cottages,,North Road,,,,Northbound,,N,E0042674,South Ockendon,,,South Ockendon,,,,1,UKOS,559498,184352,0.298302,51.535544,BCT,MKD,OTH,,,,059,2004-11-08T00:00:00.000,2020-10-20T17:15:21.000,1,revise,active
1590011001,thuagwg,,,Village Hall,,,,Dog and Partridge,,High Road,,,,W-bound,,W,N0060760,North Stifford,,,North Stifford,,,,1,UKOS,560042,180180,0.304246,51.497909,BCT,MKD,OTH,,,,059,2005-09-05T00:00:00.000,2021-01-29T09:03:18.000,8,revise,active
1590011101,thuagwj,,,High Road,,,,Dog + Partridge,,High Road,,,,E-bound,,E,N0060760,North Stifford,,,North Stifford,,,,1,UKOS,560266,180272,0.307512,51.498672,BCT,MKD,OTH,,,,059,2005-09-05T00:00:00.000,2019-09-24T10:33:00.000,4,revise,active
1590011201,thuagwm,,,High Road Coppid Hall,,,,Moat House,,High Road,,,,W-bound,,W,N0060760,North Stifford,,,North Stifford,,,,1,UKOS,560574,180368,0.311989,51.499447,BCT,MKD,OTH,,,,059,2004-11-08T00:00:00.000,2019-04-10T08:55:00.000,2,revise,active
1590011301,thuagwp,,,Weston Avenue,,,,Weston Avenue,,London Road,,,,Westbound,,W,E0042686,West Thurrock,,,West Thurrock,,,,1,UKOS,557647,177688,0.26866,51.476192,BCT,MKD,OTH,,,,059,2005-02-14T00:00:00.000,2009-06-18T12:11:00.000,1,revise,active
1590011401,thuagwt,,,Weston Avenue,,,,Weston Avenue,,London Road,,,,Eastbound,,E,E0042686,West Thurrock,,,West Thurrock,,,,1,UKOS,557664,177705,0.268912,51.47634,BCT,MKD,OTH,,,,059,2004-11-08T00:00:00.000,2009-06-18T12:11:00.000,1,revise,active
1590011501,thuajad,,,Weston Avenue South End Menzies,,,,South End Menzies,,Weston Avenue,,,,Southbound,,S,E0042686,West Thurrock,,,West Thurrock,,,,1,UKOS,557660,177917,0.268949,51.478246,BCT,MKD,OTH,,,,059,2004-11-08T00:00:00.000,2021-01-29T09:13:20.000,1,revise,active
1590011601,thuajag,,,Weston Avenue South End Menzies,,,,South End Menzies,,Weston Avenue,,,,Northbound,,N,E0042686,West Thurrock,,,West Thurrock,,,,1,UKOS,557650,177924,0.268808,51.478311,BCT,MKD,OTH,,,,059,2004-11-08T00:00:00.000,2004-11-08T00:00:00.000,0,new,active
1590011701,thuajaj,,,Eastern Avenue,,,,Eastern Avenue P and O,,Weston Avenue,,,,Southbound,,S,E0042686,West Thurrock,,,West Thurrock,,,,1,UKOS,557670,178079,0.269165,51.479698,BCT,MKD,OTH,,,,059,2005-09-05T00:00:00.000,2021-01-29T12:09:09.000,2,revise,active
1590011801,thuajam,,,Eastern Avenue,,,,Eastern Avenue P and O,,Weston Avenue,,,,Northbound,,N,E0042686,West Thurrock,,,West Thurrock,,,,1,UKOS,557644,178117,0.268808,51.480047,BCT,MKD,OTH,,,,059,2005-09-05T00:00:00.000,2009-06-19T12:10:00.000,1,revise,active
1590011901,thuajap,,,Weston Avenue Carland,,,,Carland,,Weston Avenue,,,,Southbound,,S,E0042686,West Thurrock,,,West Thurrock,,,,1,UKOS,557705,178383,0.269805,51.48242,BCT,MKD,OTH,,,,059,2004-11-08T00:00:00.000,2021-01-29T12:19:15.000,1,revise,inactive
1590012001,thuajat,,,Weston Avenue Carland,,,,Carland,,Weston Avenue,,,,Northbound,,N,E0042686,West Thurrock,,,West Thurrock,,,,1,UKOS,557693,178391,0.269635,51.482495,BCT,MKD,OTH,,,,059,2004-11-08T00:00:00.000,2021-01-29T12:14:41.000,1,revise,active
1590012101,thuajaw,,,Weston Avenue Matalan,,,,Matalan,,Weston Avenue,,,,Southbound,,S,E0042686,West Thurrock,,,West Thurrock,,,,1,UKOS,557811,178589,0.271422,51.484241,BCT,MKD,OTH,,,,059,2004-11-08T00:00:00.000,2004-11-08T00:00:00.000,0,new,active
1590012201,thuajda,,,Weston Avenue Matalan,,,,Matalan,,Weston Avenue,,,,Northbound,,N,E0042686,West Thurrock,,,West Thurrock,,,,1,UKOS,557803,178630,0.271325,51.484612,BCT,MKD,OTH,,,,059,2004-11-08T00:00:00.000,2004-11-08T00:00:00.000,0,new,active
1590012301,thuajdg,,,Weston Avenue Clock Tower,,,,West Thurrock Way,,Weston Avenue,,,,Eastbound,,E,E0042686,West Thurrock,,,West Thurrock,,,,1,UKOS,557882,178724,0.272504,51.485434,BCT,MKD,OTH,,,,059,2004-11-08T00:00:00.000,2019-05-21T13:35:00.000,3,delete,inactive
1590012401,thudgwg,,,Tesco,,,,Tesco,,Cygnet View,,,,S-bound,,S,N0060756,Lakeside,,,Lakeside,,,,1,UKOS,557970,179012,0.273899,51.487997,BCT,MKD,TIP,,,,059,2004-11-08T00:00:00.000,2021-04-23T11:28:28.000,7,revise,active
1590012501,thuajdj,,,Arterial Road West Thurrock,,,,Arena Essex Roundabout,,Arterial Road,,,,Westbound,,W,N0060756,Lakeside,,,Lakeside,,,,1,UKOS,558000,179211,0.274408,51.489779,BCT,MKD,OTH,,,,059,2004-11-08T00:00:00.000,2021-10-26T15:55:16.954,1,revise,active
1590012601,thuajdm,,,Arterial Road West Thurrock,,,,Arena Essex Roundabout,,Arterial Road,,,,Eastbound,,E,N0060756,Lakeside,,,Lakeside,,,,1,UKOS,558067,179256,0.275404,51.490162,BCT,MKD,OTH,,,,059,2004-11-08T00:00:00.000,2020-09-10T20:03:05.000,2,revise,active
1590012701,thuajdp,,,Eastern Avenue,,,,Thermalite,,Motherwell Way,,,,Southbound,,S,E0042686,West Thurrock,,,West Thurrock,,,,1,UKOS,558055,177908,0.274628,51.478055,BCT,MKD,OTH,,,,059,2004-11-08T00:00:00.000,2024-07-18T13:47:22.180,1,revise,active
1590012801,thuajdt,,,Eastern Avenue,,,,Thermalite,,Motherwell Way,,,,Northbound,,N,E0042686,West Thurrock,,,West Thurrock,,,,1,UKOS,558029,177969,0.274282,51.47861,BCT,MKD,OTH,,,,059,2004-11-08T00:00:00.000,2024-07-18T13:46:26.784,1,revise,active
1590012901,thuajdw,,,Motherwell Way Screwfix,,,,Tls Rental,,Motherwell Way,,,,Westbound,,W,E0042686,West Thurrock,,,West Thurrock,,,,1,UKOS,558326,178111,0.278618,51.479803,BCT,MKD,OTH,,,,059,2004-11-08T00:00:00.000,2024-07-18T13:44:08.553,1,revise,active
1590013001,thuajga,,,Motherwell Way Screwfix,,,,Tls Rental,,Motherwell Way,,,,Eastbound,,E,E0042686,West Thurrock,,,West Thurrock,,,,1,UKOS,558359,178143,0.279108,51.480081,BCT,MKD,OTH,,,,059,2004-11-08T00:00:00.000,2024-07-18T13:45:15.663,1,revise,active
1590013101,thuajgd,,,Heron Way,,,,Retail Park IKEA,,Heron Way,,,,Southbound,,S,N0060756,Lakeside,,,Lakeside,,,,1,UKOS,558642,178214,0.283199,51.48064,BCT,MKD,OTH,,,,059,2004-11-08T00:00:00.000,2021-11-04T16:33:18.929,2,revise,active
1590013201,thuajgj,,,Heron Way,,,,Retail Park B&Q,,Heron Way,,,,Northbound,,N,E0042686,West Thurrock,,,West Thurrock,,,,1,UKOS,558620,178389,0.282973,51.482218,BCT,MKD,OTH,,,,059,2004-11-08T00:00:00.000,2009-07-17T12:38:00.000,3,revise,active
1590013601,thuajgw,,,The Rookery,,,,Schoolfield Road,,London Road,,,,Westbound,,W,E0042686,West Thurrock,,,West Thurrock,,,,1,UKOS,558381,177668,0.279211,51.475807,BCT,MKD,OTH,,,,059,2004-11-08T00:00:00.000,2009-08-25T14:25:00.000,3,revise,active
1590013701,thudgwj,,,The Rookery,,,,The Rookery,,London Road,,,,Eastbound,,E,E0042686,West Thurrock,,,West Thurrock,,,,1,UKOS,558464,177680,0.280411,51.475892,BCT,MKD,OTH,,,,059,2004-11-08T00:00:00.000,2009-06-19T14:04:00.000,1,revise,active
1590013801,thudgwm,,,Elm Terrace,,,,Elm Terrace,,London Road,,,,Eastbound,,E,E0042686,West Thurrock,,,West Thurrock,,,,1,UKOS,558692,177730,0.283704,51.476279,BCT,MKD,TIP,,,,059,2005-09-05T00:00:00.000,2024-07-18T13:50:29.776,2,revise,active
1590013901,thudgwp,,,West Thurrock Way,,,,Lakeside,,West Thurrock Way,,,,N-bound,,N,E0042686,West Thurrock,,,West Thurrock,,,,1,UKOS,558973,177825,0.287799,51.477052,BCT,MKD,OTH,,,,059,2004-11-08T00:00:00.000,2013-12-11T10:16:00.000,1,revise,active
1590014001,thuajma,,,Railway Station,,,,Chafford Rail,,Station Approach,,,,NE-bound,,NE,N0060755,Chafford Hundred,,,Chafford Hundred,,,,1,UKOS,558933,178780,0.287653,51.485643,BCT,MKD,TIP,,,,059,2004-11-08T00:00:00.000,2019-06-14T09:38:00.000,8,revise,active
1590014101,thuajmd,,,Sainsburys,,,,Sainsburys,,Burghley Road,,,,SW-bound,,SW,N0060755,Chafford Hundred,,,Chafford Hundred,,,,1,UKOS,559518,179470,0.296383,51.491678,BCT,MKD,OTH,,,,059,2004-11-08T00:00:00.000,2019-06-13T15:17:00.000,4,revise,active
1590014201,thuajmg,,,Sainsburys,,,,Chafford S'bury,,Burghley Road,,,,NE-bound,,NE,N0060755,Chafford Hundred,,,Chafford Hundred,,,,1,UKOS,559480,179430,0.295818,51.491329,BCT,MKD,OTH,,,,059,2004-11-08T00:00:00.000,2019-06-13T15:24:00.000,6,revise,active
1590014301,thuajmj,,,Warren Terrace,,,,Wheatsheaf,,Arterial Road,,,,W-bound,,W,N0060755,Chafford Hundred,,,Chafford Hundred,,,,1,UKOS,559867,179665,0.301494,51.493331,BCT,MKD,OTH,,,,059,2004-11-08T00:00:00.000,2019-06-13T15:14:00.000,3,revise,active
1590014401,thuajmp,,,Warren Terrace,,,,Wheatsheaf,,Arterial Road,,,,E-bound,,E,N0060755,Chafford Hundred,,,Chafford Hundred,,,,1,UKOS,559937,179707,0.30252,51.493689,BCT,MKD,OTH,,,,059,2004-11-08T00:00:00.000,2019-06-13T15:15:00.000,2,revise,active
1590014501,thudgwt,,,The Ship,,,,Manor Road,,London Road,,,,Westbound,,W,E0042686,West Thurrock,,,West Thurrock,,,,1,UKOS,559161,177747,0.290469,51.476298,BCT,MKD,OTH,,,,059,2004-11-08T00:00:00.000,2021-01-29T09:16:59.000,2,revise,active
1590014601,thuajmt,,,The Ship,,,,West Thurrock,,London Road,,,,E-bound,,E,E0042686,West Thurrock,,,West Thurrock,,,,1,UKOS,559170,177773,0.29061,51.476529,BCT,MKD,OTH,,,,059,2004-11-08T00:00:00.000,2014-01-20T11:49:00.000,1,revise,active
1590014701,thuajmw,,,Magnet Road,,,,Old Shant,,London Road,,,,Eastbound,,E,E0042675,South Stifford,,,South Stifford,,,,1,UKOS,559437,177821,0.294473,51.476885,BCT,MKD,TIP,,,,059,2004-11-08T00:00:00.000,2024-07-18T13:58:06.024,1,revise,active
1590014801,thuajpa,,,The Shant,,,,Old Shant,,London Road,,,,Westbound,,W,E0042675,South Stifford,,,South Stifford,,,,1,UKOS,559597,177841,0.296784,51.47702,BCT,MKD,TIP,,,,059,2004-11-08T00:00:00.000,2021-01-29T09:28:06.000,2,revise,active
1590015001,thudjad,,,Mill Lane,,,,Mill Lane,,London Road,,,,Eastbound,,E,E0042675,South Stifford,,,South Stifford,,,,1,UKOS,559732,177906,0.298756,51.477566,BCT,MKD,TIP,,,,059,2004-11-08T00:00:00.000,2009-07-17T10:29:00.000,1,revise,active
1590015101,thuajpg,,,Moore Avenue,,,,East Street,,London Road,,,,Westbound,,W,E0042675,South Stifford,,,South Stifford,,,,1,UKOS,559938,177927,0.301729,51.477697,BCT,MKD,OTH,,,,059,2004-11-08T00:00:00.000,2021-01-29T09:35:13.000,2,revise,active
1590015201,thudjag,,,Moore Avenue,,,,East Street,,London Road,,,,Eastbound,,E,E0042675,South Stifford,,,South Stifford,,,,1,UKOS,559984,177946,0.302399,51.477854,BCT,MKD,OTH,,,,059,2005-02-14T00:00:00.000,2009-06-18T12:05:00.000,1,revise,active
1590015301,thuajpj,,,Roseberry Road,,,,Florence Road,,London Road,,,,Westbound,,W,E0042664,Grays,,,Grays,,,,1,UKOS,560410,177800,0.308462,51.476422,BCT,MKD,OTH,,,,059,2004-11-08T00:00:00.000,2009-07-02T13:24:00.000,1,revise,active
1590015401,thuajpm,,,Roseberry Road,,,,Roseberry Road,,London Road,,,,E-bound,,E,E0042664,Grays,,,Grays,,,,1,UKOS,560534,177791,0.310242,51.476306,BCT,MKD,OTH,,,,059,2004-11-08T00:00:00.000,2019-07-03T15:29:00.000,2,revise,active
1590015501,thuajpt,,,Meesons Lane,,,,Belmont Road,,London Road,,,,Westbound,,W,E0042664,Grays,,,Grays,,,,1,UKOS,560596,177796,0.311138,51.476338,BCT,MKD,OTH,,,,059,2004-11-08T00:00:00.000,2021-11-04T16:54:42.960,3,revise,active
1590015601,thuajpw,,,Meesons Lane,,,,Meesons Lane,,London Road,,,,Eastbound,,E,E0042664,Grays,,,Grays,,,,1,UKOS,560715,177848,0.312872,51.476767,BCT,MKD,OTH,,,,059,2004-11-08T00:00:00.000,2020-11-30T08:51:47.000,2,revise,inactive
1590015701,thuajta,,,Aldi,,,,Aldi,,London Road,,,,W-bound,,W,E0042664,Grays,,,Grays,,,,1,UKOS,560909,177870,0.315673,51.476909,BCT,MKD,OTH,,,,059,2004-11-08T00:00:00.000,2019-07-03T15:12:00.000,3,revise,active
1590015901,thuajtd,,,Elizabeth Road,,,,Devonshire Road,,Elizabeth Road,,,,N-bound,,N,E0042664,Grays,,,Grays,,,,1,UKOS,560945,179297,0.316841,51.489719,BCT,MKD,OTH,,,,059,2004-11-08T00:00:00.000,2019-07-03T13:25:00.000,1,revise,active
1590016001,thuajtg,,,Hogg Lane,,,,Devonshire Road,,Hogg Lane,,,,S-bound,,S,E0042664,Grays,,,Grays,,,,1,UKOS,561029,179151,0.31798,51.488387,BCT,MKD,TIP,,,,059,2004-11-08T00:00:00.000,2022-03-17T21:26:51.508,5,revise,active
1590016101,thuajtj,,,Treacle Mine,,,,Treacle Mine,,Elizabeth Road,,,,before,,N,E0042664,Grays,,,Grays,,,,1,UKOS,560961,179715,0.317262,51.49347,BCT,MKD,TIP,,,,059,2004-11-08T00:00:00.000,2019-07-03T13:31:00.000,2,revise,active
1590016201,thuajtm,,,Treacle Mine,,,,Treacle Mine,,Elizabeth Road,,,,after,,S,E0042664,Grays,,,Grays,,,,1,UKOS,560972,179683,0.317398,51.49318,BCT,MKD,TIP,,,,059,2004-11-08T00:00:00.000,2022-03-17T21:28:38.143,2,revise,active
1590016301,thuajtp,,,Grays End Close,,,,Grays End Close,,Hogg Lane,,,,S-bound,,S,E0042664,Grays,,,Grays,,,,1,UKOS,561116,179328,0.319314,51.489952,BCT,MKD,OTH,,,,059,2004-11-08T00:00:00.000,2024-07-26T20:17:56.150,3,revise,active
1590016401,thuajtw,,,Dukes Avenue,,,,Dukes Avenue,,Lenthall Avenue,,,,E-bound,,E,E0042664,Grays,,,Grays,,,,1,UKOS,561151,179608,0.319947,51.492455,BCT,MKD,TIP,,,,059,2004-11-08T00:00:00.000,2020-09-10T08:26:27.000,3,revise,active
1590016501,thuajwa,3,,Dukes Avenue,,,,Dukes Avenue,,Lenthall Avenue,,,,W-bound,,W,E0042664,Grays,,,Grays,,,,1,UKOS,561181,179596,0.320374,51.492338,BCT,MKD,TIP,,,,059,2004-11-08T00:00:00.000,2019-07-03T14:39:00.000,2,revise,active
1590016601,thuajwd,,,Lucas Road,,,,Lucas Road,,Lenthall Avenue,,,,opp,,N,E0042664,Grays,,,Grays,,,,1,UKOS,561288,179453,0.321848,51.491023,BCT,MKD,OTH,,,,059,2004-11-08T00:00:00.000,2014-03-24T15:56:00.000,1,revise,active
1590016701,thuajwg,,,Lucas Road,,,,Lucas Road,,Lenthall Avenue,,,,adj,,S,E0042664,Grays,,,Grays,,,,1,UKOS,561306,179510,0.322122,51.491536,BCT,MKD,OTH,,,,059,2004-11-08T00:00:00.000,2024-07-26T20:17:04.292,3,revise,active
1590016801,thuajwj,,,Dexter Close,,,,Dexter Close,,Lenthall Avenue,,,,N-bound,,N,E0042664,Grays,,,Grays,,,,1,UKOS,561422,179130,0.323629,51.488083,BCT,MKD,OTH,,,,059,2004-11-08T00:00:00.000,2019-07-03T14:51:00.000,1,revise,active
1590016901,thuajwm,,,Dexter Close,,,,Dexter Close,,Lenthall Avenue,,,,S-bound,,S,E0042664,Grays,,,Grays,,,,1,UKOS,561400,179201,0.323345,51.488727,BCT,MKD,OTH,,,,059,2004-11-08T00:00:00.000,2019-07-03T14:52:00.000,1,revise,active
1590017001,thudjaj,,,Ward Avenue,,,,Ward Avenue,,Hathaway Road,,,,S-bound,,S,E0042664,Grays,,,Grays,,,,1,UKOS,561521,179006,0.324992,51.486943,BCT,MKD,OTH,,,,059,2004-11-08T00:00:00.000,2025-01-09T09:42:37.659,3,revise,inactive
1590017101,thuajwp,,,Ward Avenue,,,,Ward Avenue,,Hathaway Road,,,,N-bound,,N,E0042664,Grays,,,Grays,,,,1,UKOS,561494,178951,0.324584,51.486455,BCT,MKD,OTH,,,,059,2004-11-08T00:00:00.000,2019-07-03T13:40:00.000,1,revise,active
1590017201,thuajwt,,,Russell Road,,,,Russel Road,,Hathaway Road,,,,S-bound,,S,E0042664,Grays,,,Grays,,,,1,UKOS,561543,178622,0.325138,51.483485,BCT,MKD,OTH,,,,059,2004-11-08T00:00:00.000,2019-07-03T13:47:00.000,1,revise,active
1590017301,thuamad,,,Russell Road,,,,Russel Road,,Hathaway Road,,,,N-bound,,N,E0042664,Grays,,,Grays,,,,1,UKOS,561506,178714,0.324648,51.484322,BCT,MKD,OTH,,,,059,2004-11-08T00:00:00.000,2019-07-03T13:52:00.000,1,revise,active
1590017401,thuamag,,,Orsett Road,,,,,,Hathaway Road,,,,before,,S,E0042664,Grays,,,Grays,,,,1,UKOS,561710,178240,0.327354,51.48001,BCT,MKD,OTH,,,,059,2004-11-08T00:00:00.000,2021-11-23T11:08:36.924,3,revise,active
1590017501,thuamaj,,,Orsett Road,,,,,,Hathaway Road,,,,after,,N,E0042664,Grays,,,Grays,,,,1,UKOS,561683,178286,0.326999,51.480426,BCT,MKD,OTH,,,,059,2004-11-08T00:00:00.000,2020-01-14T18:03:00.000,2,revise,active
1590017601,thudjam,,,Stanley Road,,,,Stanley Road,,Stanley Road,,,,Southbound,,S,E0042664,Grays,,,Grays,,,,1,UKOS,561663,178126,0.326635,51.478997,BCT,MKD,OTH,,,,059,2004-11-08T00:00:00.000,2021-11-04T16:45:34.151,2,revise,active
1590018201,thuamap,,,Kent Road,,,,Kent Road,,East Thurrock Road,,,,W-bound,,W,E0042664,Grays,,,Grays,,,,1,UKOS,562154,177871,0.33358,51.476565,BCT,MKD,OTH,,,,059,2004-11-08T00:00:00.000,2022-05-06T11:22:41.191,3,revise,active
1590018301,thuamat,,,Broadway,,,,Whitehall Lane,,Whitehall Lane,,,,adj,,S,E0042667,Little Thurrock,Grays,,Grays,,Grays,,0,UKOS,562303,177849,0.335719,51.476323,BCT,MKD,OTH,,,,059,2004-11-08T00:00:00.000,2019-07-04T08:40:00.000,6,revise,active
1590018401,thuamaw,,,Broadway,,,,Wood Street,,Broadway,,,,on,,W,E0042667,Little Thurrock,Grays,,Grays,,Grays,,0,UKOS,562359,177832,0.336517,51.476154,BCT,MKD,OTH,,,,059,2004-11-08T00:00:00.000,2019-07-01T09:45:00.000,7,revise,active
1590018501,thuamda,,,Tyrells Hall,,,,Rectory Road,,Dock Road,,,,Westbound,,W,E0042664,Grays,,,Grays,,,,1,UKOS,562717,177893,0.341695,51.476599,BCT,MKD,TIP,,,,059,2004-11-08T00:00:00.000,2007-04-05T12:06:00.000,1,revise,active
1590018601,thudjap,,,Tyrells Hall,,,,Rectory Road,,Dock Road,,,,E-bound,,E,E0042664,Grays,,,Grays,,,,1,UKOS,562713,177910,0.341646,51.476753,BCT,MKD,TIP,,,,059,2004-11-08T00:00:00.000,2019-07-03T11:49:00.000,1,revise,active
1590019001,thuamdj,,,The Willows,,,,The Willows,,Dock Road,,,,Westbound,,W,E0042664,Grays,,,Grays,,,,1,UKOS,562968,177973,0.345343,51.477246,BCT,MKD,OTH,,,,059,2004-11-08T00:00:00.000,2009-06-24T13:56:00.000,1,revise,active
1590019101,thudjat,,,The Willows,,,,The Willows,,Dock Road,,,,E-bound,,E,E0042664,Grays,,,Grays,,,,1,UKOS,562979,177980,0.345505,51.477305,BCT,MKD,OTH,,,,059,2004-11-08T00:00:00.000,2019-07-03T11:55:00.000,2,revise,active
1590019201,thuamdm,,,Bradleigh Avenue,,,,High View Avenue,,Palmers Avenue,,,,E-bound,,E,E0042664,Grays,,,Grays,,,,1,UKOS,562002,178362,0.331624,51.481018,BCT,MKD,OTH,,,,059,2004-11-08T00:00:00.000,2019-07-04T08:17:00.000,3,revise,active
1590019301,thuamdp,,,Bradleigh Avenue,,,,High View Avenue,,Palmers Avenue,,,,W-bound,,W,E0042664,Grays,,,Grays,,,,1,UKOS,562057,178379,0.332423,51.481155,BCT,MKD,OTH,,,,059,2004-11-08T00:00:00.000,2019-07-04T08:20:00.000,1,revise,active
1590019401,thuamdt,,,Palmers Avenue,,,,Whitehall Lane,,Palmers Avenue,,,,W-bound,,W,E0042664,Grays,,,Grays,,,,1,UKOS,562269,178516,0.335536,51.482325,BCT,MKD,TIP,,,,059,2004-11-08T00:00:00.000,2024-07-18T14:05:15.484,4,revise,active
1590019501,thudjaw,,,Palmers Avenue,,,,Whitehall Lane,,Palmers Avenue,,,,E-bound,,E,E0042664,Grays,,,Grays,,,,1,UKOS,562237,178508,0.335072,51.482262,BCT,MKD,TIP,,,,059,2004-11-08T00:00:00.000,2024-07-18T14:04:15.862,5,revise,active
1590019601,thuamdw,,,Whitehall Road,,,,Whitehall Road,,Southend Road,,,,S-bound,,S,E0042664,Grays,,,Grays,,,,1,UKOS,562283,178848,0.335885,51.485305,BCT,MKD,OTH,,,,059,2004-11-08T00:00:00.000,2021-11-04T16:50:12.811,2,revise,active
1590019701,thuamga,,,Whitehall Road,,,,Whitehall Road,,Southend Road,,,,Northbound,,N,E0042664,Grays,,,Grays,,,,1,UKOS,562260,178917,0.335591,51.48593,BCT,MKD,OTH,,,,059,2004-11-08T00:00:00.000,2004-11-08T00:00:00.000,0,new,active
1590019901,thuamgd,,,Chadwell Road,,,,Rectory Road,,Chadwell Road,,,,Eastbound,,E,E0042667,Little Thurrock,Grays,,Little Thurrock,,,,1,UKOS,562645,178749,0.341053,51.48431,BCT,MKD,OTH,,,,059,2004-11-08T00:00:00.000,2011-10-07T09:06:00.000,3,revise,active
1590020001,thuamgj,,,Eastern Road,,,,Eastern Road,,Rectory Road,,,,Northbound,,N,E0042664,Grays,,,Grays,,,,1,UKOS,562574,178794,0.340052,51.484735,BCT,MKD,OTH,,,,059,2004-11-08T00:00:00.000,2009-06-23T12:03:00.000,3,revise,active
1590020201,thudjda,,,Nutberry Corner,,,,Treacle Mine,,Lodge Lane,,,,W-bound,,W,E0042664,Grays,,,Grays,,,,1,UKOS,561134,179846,0.319811,51.494598,BCT,MKD,OTH,,,,059,2004-11-08T00:00:00.000,2014-01-20T12:02:00.000,2,revise,active
1590020301,thuamgm,,,Nutberry Corner,,,,Treacle Mine Junction,,Lodge Lane,,,,E-bound,,E,E0042664,Grays,,,Grays,,,,1,UKOS,561210,179849,0.320907,51.494603,BCT,MKD,OTH,,,,059,2004-11-08T00:00:00.000,2014-02-03T10:36:00.000,2,revise,active
1590020401,thuamgp,,,Nutberry Playing Fields,,,,Nutberry Playing Fields,,Long Lane,,,,opp,,W,E0042678,Stifford Clays,Grays,,Stifford Clays,,,,1,UKOS,561188,179943,0.320633,51.495454,BCT,MKD,TIP,,,,059,2004-11-08T00:00:00.000,2018-04-13T12:45:00.000,7,revise,active
1590020501,thuamgt,,,Nutberry Playing Fields,,,,Nutberry Playing Fields,,Long Lane,,,,adj,,E,E0042678,Stifford Clays,Grays,,Stifford Clays,,,,1,UKOS,561255,179972,0.32161,51.495695,BCT,MKD,TIP,,,,059,2004-11-08T00:00:00.000,2018-04-13T12:37:00.000,8,revise,active
1590020701,thuamja,,,Chestnut Avenue,,,,Elizabeth House,,Long Lane,,,,Eastbound,,E,E0042678,Stifford Clays,Grays,,Socketts Heath,,,,1,UKOS,561733,180017,0.328511,51.495963,BCT,MKD,TIP,,,,059,2004-11-08T00:00:00.000,2013-05-15T16:30:00.000,1,revise,active
1590020801,thuamjd,,,Victoria Avenue,,,,Victoria Avenue,,Long Lane,,,,adj,,W,E0042664,Grays,,,Grays,,,,1,UKOS,562141,179970,0.334361,51.495424,BCT,MKD,TIP,,,,059,2005-10-11T00:00:00.000,2019-07-03T15:38:00.000,5,revise,active
1590020901,thudjdg,,,Thurrock Community Hospital,,,,Thurrock Community Hospital,,Long Lane,,,,o/s,,E,E0042678,Stifford Clays,Grays,,Socketts Heath,,,,1,UKOS,562284,180017,0.336441,51.495806,BCT,MKD,OTH,,,,059,2004-11-08T00:00:00.000,2013-05-15T16:25:00.000,1,revise,active
1590021001,thuamjg,,,Thurloe Walk,,,,Lodge Lane,,Hathaway Road,,,,Southbound,,S,E0042664,Grays,,,Grays,,,,1,UKOS,561645,179352,0.326928,51.490015,BCT,MKD,OTH,,,,059,2004-11-08T00:00:00.000,2021-11-23T11:03:15.180,3,revise,active
1590021101,thuamjm,,,Thurloe Walk,,,,Lodge Lane,,Hathaway Road,,,,Northbound,,N,E0042664,Grays,,,Grays,,,,1,UKOS,561617,179328,0.326526,51.489806,BCT,MKD,OTH,,,,059,2004-11-08T00:00:00.000,2009-06-26T11:52:00.000,1,revise,active
1590021201,thudjdj,,,Lodge Lane,,,,Hathaway Road,,Lodge Lane,,,,E-bound,,E,E0042664,Grays,,,Grays,,,,1,UKOS,561598,179468,0.326309,51.491069,BCT,MKD,TIP,,,,059,2005-02-08T00:00:00.000,2021-11-23T11:01:53.095,2,revise,active
1590021301,thudjdm,,,Lodge Lane,,,,Hathaway Road,,Lodge Lane,,,,Westbound,,W,E0042664,Grays,,,Grays,,,,1,UKOS,561566,179449,0.325847,51.490908,BCT,MKD,TIP,,,,059,2005-02-08T00:00:00.000,2005-02-08T00:00:00.000,0,new,active
1590021401,thuamjp,,,Conrad Gardens,,,,Conrad Gardens,,Lodge Lane,,,,opp,,NW,E0042664,Grays,,,Grays,,,,1,UKOS,561407,179661,0.323656,51.492858,BCT,MKD,OTH,,,,059,2004-11-08T00:00:00.000,2013-05-15T16:32:00.000,3,revise,active
1590021601,thuamjt,,,Goddard Road,,,,Field Way,,Goddard Road,,,,Southbound,,S,E0042678,Stifford Clays,Grays,,Stifford Clays,,,,1,UKOS,561313,180112,0.322505,51.496943,BCT,MKD,OTH,,,,059,2004-11-08T00:00:00.000,2024-04-24T19:37:29.552,1,revise,active
1590021701,thuamjw,,,Crammavill Street,,,,Thorley Road,,Crammavill Street,,,,Westbound,,NW,E0042678,Stifford Clays,Grays,,Stifford Clays,,,,1,UKOS,561355,180246,0.323175,51.498129,BCT,MKD,TIP,,,,059,2004-11-08T00:00:00.000,2021-01-29T09:19:16.000,2,revise,active
1590021801,thuampa,,,Crammavill Street,,,,Stifford Clays,,Crammavill Street,,,,E-bound,,E,E0042678,Stifford Clays,Grays,,Stifford Clays,,,,1,UKOS,561360,180255,0.323251,51.498208,BCT,MKD,OTH,,,,059,2004-11-08T00:00:00.000,2014-01-20T12:03:00.000,2,revise,active
1590021901,thuampd,,,Crawford Avenue,,,,Crammavill Street,,Crawford Avenue,,,,Northbound,,N,E0042678,Stifford Clays,Grays,,Stifford Clays,,,,1,UKOS,561565,180155,0.326156,51.497251,BCT,MKD,OTH,,,,059,2004-11-08T00:00:00.000,2004-11-08T00:00:00.000,0,new,active
1590022001,thudjdp,,,Crawford Avenue,,,,Crammavill Street,,Crawford Avenue,,,,Southbound,,S,E0042678,Stifford Clays,Grays,,Stifford Clays,,,,1,UKOS,561576,180151,0.326312,51.497212,BCT,MKD,OTH,,,,059,2004-11-08T00:00:00.000,2004-11-08T00:00:00.000,0,new,active
1590022101,thuampg,,,Harty Close,,,,Stifford Clays,,Crammavill Street,,,,W-bound,,W,E0042678,Stifford Clays,Grays,,Stifford Clays,,,,1,UKOS,561695,180214,0.328054,51.497744,BCT,MKD,TIP,,,,059,2004-11-08T00:00:00.000,2020-09-12T11:58:00.000,4,revise,active
1590022201,thudjdt,,,Harty Close,,,,Health Centre,,Crammavill Street,,,,Eastbound,,E,E0042678,Stifford Clays,Grays,,Stifford Clays,,,,1,UKOS,561688,180232,0.327962,51.497908,BCT,MKD,TIP,,,,059,2004-11-08T00:00:00.000,2009-06-24T14:26:00.000,2,revise,active
1590022301,thuampj,,,Fairway,,,,Blackthorn Road,,Fairway,,,,Southbound,,S,E0042678,Stifford Clays,Grays,,Stifford Clays,,,,1,UKOS,561854,180491,0.330469,51.500193,BCT,MKD,OTH,,,,059,2004-11-08T00:00:00.000,2022-01-27T17:23:01.380,1,revise,active
1590022401,thuampm,,,Prince Phillip Avenue,,,,Prince Philip Avenue,,Whitmore Avenue,,,,Eastbound,,E,E0042678,Stifford Clays,Grays,,Stifford Clays,,,,1,UKOS,561900,180562,0.331164,51.500812,BCT,MKD,OTH,,,,059,2004-11-08T00:00:00.000,2009-06-19T12:13:00.000,1,revise,active
1590022501,thuampt,,,Prince Phillip Avenue,,,,Prince Philip Avenue,,Whitmore Avenue,,,,Westbound,,W,E0042678,Stifford Clays,Grays,,Stifford Clays,,,,1,UKOS,561932,180552,0.33162,51.500713,BCT,MKD,OTH,,,,059,2004-11-08T00:00:00.000,2020-10-15T09:56:46.000,2,revise,active
1590022601,thuampw,,,Whitmore Avenue,,,,Elmway,,Whitmore Avenue,,,,Eastbound,,E,E0042678,Stifford Clays,Grays,,Stifford Clays,,,,1,UKOS,562145,180608,0.334712,51.501155,BCT,MKD,TIP,,,,059,2004-11-08T00:00:00.000,2004-11-08T00:00:00.000,0,new,active
1590022701,thuamta,,,Whitmore Avenue,,,,Elmway,,Whitmore Avenue,,,,Westbound,,W,E0042678,Stifford Clays,Grays,,Stifford Clays,,,,1,UKOS,562112,180587,0.334227,51.500976,BCT,MKD,TIP,,,,059,2004-11-08T00:00:00.000,2020-10-15T10:01:39.000,1,revise,active
1590022801,thuamtd,,,Tennyson Avenue,,,,Lodge Lane,,Southend Road,,,,N-bound,,N,E0042664,Grays,,,Grays,,,,1,UKOS,562265,179135,0.335763,51.487887,BCT,MKD,OTH,,,,059,2004-11-08T00:00:00.000,2019-07-04T08:28:00.000,1,revise,active
1590022901,thuamtg,,,Tennyson Avenue,,,,Lodge Lane,,Southend Road,,,,Southbound,,S,E0042664,Grays,,,Grays,,,,1,UKOS,562291,179152,0.33614,51.488034,BCT,MKD,OTH,,,,059,2004-11-08T00:00:00.000,2021-11-04T16:57:20.009,1,revise,active
1590023001,thudjdw,,,Piggs Corner,,,,Southend Road,,Lodge Lane,,,,E-bound,,E,E0042664,Grays,,,Grays,,,,1,UKOS,562390,179285,0.33763,51.489199,BCT,MKD,OTH,,,,059,2004-11-08T00:00:00.000,2020-09-10T09:46:02.000,4,revise,active
1590023101,thudjga,,,The Oak,,,,The Oak,,Lodge Lane,,,,Eastbound,,E,N0076735,Socketts Heath,Grays,,Socketts Heath,,,,1,UKOS,562626,179304,0.341035,51.489302,BCT,MKD,TIP,,,,059,2004-11-08T00:00:00.000,2004-11-08T00:00:00.000,0,new,active
1590023201,thudjgd,,,The Oak,,,,The Oak,,Lodge Lane,,,,Westbound,,W,N0076735,Socketts Heath,Grays,,Socketts Heath,,,,1,UKOS,562629,179274,0.341065,51.489031,BCT,MKD,TIP,,,,059,2004-11-08T00:00:00.000,2004-11-08T00:00:00.000,0,new,active
1590023501,thuamtj,,,Leisure Centre,,,,Blackshots Lane Leisure Centre,,Blackshots Lane,,,,Southbound,,S,N0076735,Socketts Heath,Grays,,Socketts Heath,,,,1,UKOS,562609,179448,0.340857,51.4906,BCT,MKD,TIP,,,,059,2004-11-08T00:00:00.000,2009-06-26T11:47:00.000,1,revise,active
1590023601,thuamtm,,,Leisure Centre,,,,Blackshots Lane Leisure Centre,,Blackshots Lane,,,,Northbound,,N,N0076735,Socketts Heath,Grays,,Socketts Heath,,,,1,UKOS,562573,179552,0.340387,51.491545,BCT,MKD,TIP,,,,059,2004-11-08T00:00:00.000,2009-06-26T11:47:00.000,1,revise,active
1590023701,thuamtp,,,Library,,,,Library,,Blackshots Lane,,,,Southbound,,S,N0076735,Socketts Heath,Grays,,Socketts Heath,,,,1,UKOS,562556,179709,0.340205,51.492961,BCT,MKD,OTH,,,,059,2004-11-08T00:00:00.000,2021-11-23T09:35:31.350,2,revise,active
1590023801,thuamtw,,,Library,,,,Library,,Blackshots Lane,,,,Northbound,,N,N0076735,Socketts Heath,Grays,,Socketts Heath,,,,1,UKOS,562534,179798,0.339939,51.493766,BCT,MKD,OTH,,,,059,2004-11-08T00:00:00.000,2009-06-26T11:45:00.000,1,revise,active
1590023901,thuamwa,,,Jesmond Road,,,,Laird Avenue,,Jesmond Road,,,,Northbound,,N,N0076735,Socketts Heath,Grays,,Socketts Heath,,,,1,UKOS,562915,180007,0.345518,51.495534,BCT,MKD,TIP,,,,059,2004-11-08T00:00:00.000,2021-01-29T09:39:47.000,1,revise,active
1590024101,thuamwg,,,Long Lane,,,,Highfield Gardens,,Blackshots Lane,,,,Southbound,,S,E0042678,Stifford Clays,Grays,,Socketts Heath,,,,1,UKOS,562511,180004,0.3397,51.495628,BCT,MKD,OTH,,,,059,2004-11-08T00:00:00.000,2021-11-23T09:30:05.179,3,revise,active
1590024201,thuamwj,,,Long Lane,,,,Long Lane,,Blackshots Lane,,,,Northbound,,N,E0042678,Stifford Clays,Grays,,Socketts Heath,,,,1,UKOS,562458,180115,0.338991,51.496636,BCT,MKD,OTH,,,,059,2004-11-08T00:00:00.000,2013-05-15T16:20:00.000,2,revise,active
1590024301,thuamwm,,,Brookmans Avenue,,,,Brookmans Avenue,,Blackshots Lane,,,,Southbound,,S,E0042678,Stifford Clays,Grays,,Stifford Clays,,,,1,UKOS,562429,180244,0.338633,51.497803,BCT,MKD,OTH,,,,059,2004-11-08T00:00:00.000,2011-02-10T11:53:00.000,2,revise,inactive
1590024401,thuamwp,,,Brookmans Avenue,,,,Brookmans Avenue,,Blackshots Lane,,,,Northbound,,N,E0042678,Stifford Clays,Grays,,Stifford Clays,,,,1,UKOS,562415,180258,0.338438,51.497933,BCT,MKD,OTH,,,,059,2004-11-08T00:00:00.000,2009-06-16T13:13:00.000,1,revise,active
1590024501,thuamwt,,,Fairfield Avenue,,,,Brookmans Avenue,,Blackshots Lane,,,,Southbound,,S,E0042678,Stifford Clays,Grays,,Stifford Clays,,,,1,UKOS,562334,180526,0.337395,51.500364,BCT,MKD,OTH,,,,059,2004-11-08T00:00:00.000,2011-02-10T12:18:00.000,2,revise,inactive
1590024601,thuapad,,,Fairfield Avenue,,,,Fairfield Avenue,,Blackshots Lane,,,,Northbound,,N,E0042678,Stifford Clays,Grays,,Stifford Clays,,,,1,UKOS,562327,180553,0.337307,51.500609,BCT,MKD,OTH,,,,059,2005-02-01T00:00:00.000,2020-12-17T13:59:57.000,4,revise,active
1590024701,thudjgj,,,Stanford Road,,,,Hangmans Wood,,Stanford Road,,,,NE-bound,,NE,N0076735,Socketts Heath,Grays,,Socketts Heath,,,,1,UKOS,563118,179540,0.348225,51.49128,BCT,MKD,OTH,,,,059,2004-11-08T00:00:00.000,2009-08-18T11:13:00.000,4,revise,active
1590024801,thudjgm,,,Stanford Road,,,,Hangmans Wood,,Stanford Road,,,,SW-bound,,SW,N0076735,Socketts Heath,Grays,,Socketts Heath,,,,1,UKOS,563069,179450,0.347478,51.490486,BCT,MKD,OTH,,,,059,2004-11-08T00:00:00.000,2021-11-04T16:59:13.693,7,revise,active
1590024901,thudjgp,,,Chadwell Road Cemetery,,,,Ridgeway,,Chadwell Road,,,,Eastbound,,E,E0042667,Little Thurrock,Grays,,Little Thurrock,,,,1,UKOS,563063,178832,0.347106,51.484936,BCT,MKD,OTH,,,,059,2004-11-08T00:00:00.000,2009-06-15T13:36:00.000,2,revise,active
1590025001,thuapag,,,Chadwell Road Cemetery,,,,Ridgeway,,Chadwell Road,,,,Westbound,,W,E0042667,Little Thurrock,Grays,,Little Thurrock,,,,1,UKOS,562986,178810,0.345988,51.48476,BCT,MKD,OTH,,,,059,2004-11-08T00:00:00.000,2021-01-29T09:45:30.000,4,revise,active
1590025101,thuapaj,,,Palmers College,,,,Palmers College,,Chadwell Road,,,,W-bound,,W,E0042664,Grays,,,Little Thurrock,,,,1,UKOS,563357,178756,0.351302,51.484168,BCT,MKD,TIP,,,,059,2004-11-08T00:00:00.000,2020-09-10T08:51:47.000,6,revise,active
1590025201,thudjgt,,,Palmers College,,,,Palmers College,,Chadwell Road,,,,E-bound,,E,E0042664,Grays,,,Little Thurrock,,,,1,UKOS,563476,178762,0.353017,51.484188,BCT,MKD,TIP,,,,059,2004-11-08T00:00:00.000,2014-07-15T11:20:00.000,6,revise,active
1590025301,thudjgw,,,Heathland Way,,,,,,Wood View,,,,SE-bound,,SE,E0042664,Grays,,,Little Thurrock,,,,1,UKOS,563548,178783,0.354062,51.484355,BCT,MKD,OTH,,,,059,2004-11-08T00:00:00.000,2017-09-11T16:01:00.000,5,revise,active
1590025401,thuapam,,,Heathland Way,,,,,,Wood View,,,,NW-bound,,NW,E0042664,Grays,,,Little Thurrock,,,,1,UKOS,563504,178790,0.353432,51.484431,BCT,MKD,OTH,,,,059,2004-11-08T00:00:00.000,2017-09-11T16:02:00.000,6,revise,active
1590025501,thuapap,,,Wood View,,,,King Edward Drive,,Wood View,,,,Eastbound,,E,E0042664,Grays,,,Little Thurrock,,,,1,UKOS,563259,178961,0.349986,51.486038,BCT,MKD,TIP,,,,059,2004-11-08T00:00:00.000,2009-06-24T14:21:00.000,3,revise,active
1590025601,thuapat,,,King Edward Drive,,,,Wood View,,King Edward Drive,,,,Southbound,,S,E0042664,Grays,,,Grays,,,,1,UKOS,563263,179029,0.350075,51.486648,BCT,MKD,OTH,,,,059,2004-11-08T00:00:00.000,2011-02-10T12:20:00.000,3,revise,inactive
1590025701,thuapaw,,,King Edward Drive,,,,Wood View,,King Edward Drive,,,,N-bound,,N,E0042664,Grays,,,Grays,,,,1,UKOS,563279,179200,0.350384,51.488179,BCT,MKD,OTH,,,,059,2005-02-07T00:00:00.000,2019-07-03T14:31:00.000,3,revise,inactive
1590025801,thuapda,,,Grangewood Avenue,,,,Wood View,,King Edward Drive,,,,Northbound,,N,E0042664,Grays,,,Little Thurrock,,,,1,UKOS,563287,179201,0.3505,51.488186,BCT,MKD,TIP,,,,059,2004-11-08T00:00:00.000,2009-06-18T11:10:00.000,2,revise,active
1590025901,thuapdg,,,Buxton Road,,,,Buxton Road,,King Edward Drive,,,,Northbound,,N,E0042664,Grays,,,Grays,,,,1,UKOS,563286,179513,0.35063,51.490989,BCT,MKD,OTH,,,,059,2005-02-07T00:00:00.000,2009-06-17T14:53:00.000,3,revise,active
1590026001,thuapdj,,,Buxton Road,,,,Buxton Road,,King Edward Drive,,,,SE-bound,,SE,E0042664,Grays,,,Grays,,,,1,UKOS,563243,179618,0.350058,51.491943,BCT,MKD,OTH,,,,059,2004-11-08T00:00:00.000,2022-02-14T10:07:06.025,8,revise,active
1590026101,thudjma,,,ASDA,,,,Tilbury ASDA,,ASDA Service Road,,,,o/s,,SW,E0042682,Tilbury,,,Tilbury,,,,1,UKOS,562996,177065,0.345328,51.46908,BCT,MKD,TIP,,,,059,2004-11-08T00:00:00.000,2021-08-12T16:12:34.000,5,revise,active
1590026201,thuapdm,,,Russell Road,,,,Russell Road,,Dock Road,,,,opp,,W,E0042682,Tilbury,,,Tilbury,,,,1,UKOS,563353,176584,0.350241,51.464656,BCT,MKD,OTH,,,,059,2004-11-08T00:00:00.000,2008-08-12T11:44:00.000,1,revise,active
1590026301,thuapdp,,,Railway Station,,,,Railway Station,,Dock Road,,,,o/s,,NW,E0042682,Tilbury,,,Tilbury,,,,1,UKOS,563614,176377,0.353899,51.462721,BCT,MKD,TIP,,,,059,2004-11-08T00:00:00.000,2013-02-19T15:53:00.000,3,revise,active
1590026401,thuapdt,,,Railway Station,,,,Railway Station,,Dock Road,,,,opp,,SE,E0042682,Tilbury,,,Tilbury,,,,1,UKOS,563610,176393,0.353849,51.462866,BCT,MKD,TIP,,,,059,2004-11-08T00:00:00.000,2013-02-19T15:54:00.000,3,revise,active
1590026501,thudjmd,,,Railway Station South,,,,Rail Station,,St Andrews Road,,,,SE-bound,,SE,E0042682,Tilbury,,,Tilbury,,,,1,UKOS,563618,176316,0.353928,51.462172,BCT,MKD,OTH,,,,059,2004-11-08T00:00:00.000,2013-08-16T10:04:00.000,8,revise,active
1590026601,thuapdw,,,Toronto Road,,,,Toronto Road,,Calcutta Road,,,,Westbound,,W,E0042682,Tilbury,,,Tilbury,,,,1,UKOS,564078,176273,0.360524,51.461653,BCT,MKD,OTH,,,,059,2004-11-08T00:00:00.000,2009-06-16T13:40:00.000,1,revise,active
1590026701,thudjmg,,,Toronto Road,,,,Toronto Road,,Calcutta Road,,,,Eastbound,,E,E0042682,Tilbury,,,Tilbury,,,,1,UKOS,564055,176292,0.360202,51.46183,BCT,MKD,OTH,,,,059,2004-11-08T00:00:00.000,2009-06-16T13:41:00.000,1,revise,active
1590026801,thudjmj,,,Civic Square,,,,Tilbury Civ Sq,,Civic Square,,,,W-bound,,W,E0042682,Tilbury,,,Tilbury,,,,1,UKOS,564376,176234,0.364792,51.461216,BCT,MKD,TIP,,,,059,2004-11-08T00:00:00.000,2013-12-11T11:28:00.000,2,revise,active
1590026901,thudjmp,,,Civic Square Post Office,,,,Tilbury Civ Sq,,Civic Square,,,,E-bound,,E,E0042682,Tilbury,,,Tilbury,,,,1,UKOS,564400,176328,0.36518,51.462053,BCT,MKD,TIP,,,,059,2004-11-08T00:00:00.000,2024-07-18T14:06:36.385,2,revise,active
1590027001,thuapga,,,Christchurch Road,,,,Christchurch Road,,St Chads Road,,,,S-bound,,S,E0042682,Tilbury,,,Tilbury,,,,1,UKOS,564300,176527,0.363835,51.46387,BCT,MKD,OTH,,,,059,2004-11-08T00:00:00.000,2021-01-29T09:47:09.000,4,revise,active
1590027101,thuapgd,,,Calcutta Road,,,,Chadwell,,St Chad's Road,,,,N-bound,,N,E0042682,Tilbury,,,Tilbury,,,,1,UKOS,564282,176360,0.363498,51.462375,BCT,MKD,TIP,,,,059,2004-11-08T00:00:00.000,2018-09-03T11:47:00.000,5,revise,active
1590027201,thuapgj,,,Raphael Avenue,,,,Raphael Avenue,,St Chads Road,,,,S-bound,,S,E0042682,Tilbury,,,Tilbury,,,,1,UKOS,564329,176987,0.364465,51.467995,BCT,MKD,TIP,,,,059,2004-11-08T00:00:00.000,2022-03-17T14:58:03.353,4,revise,active
1590027301,thudjmt,,,Raphael Avenue,,,,Raphael Avenue,,St Chad's Road,,,,N-bound,,N,E0042682,Tilbury,,,Tilbury,,,,1,UKOS,564321,177078,0.364393,51.468814,BCT,MKD,TIP,,,,059,2004-11-08T00:00:00.000,2018-09-03T11:49:00.000,2,revise,active
1590027401,thuapgm,,,Handel Crescent,,,,Handel Crescent,,St Chads Road,,,,adj,,S,E0042682,Tilbury,,,Tilbury,,,,1,UKOS,564391,177250,0.365479,51.470339,BCT,MKD,OTH,,,,059,2004-11-08T00:00:00.000,2021-01-29T10:39:08.000,4,revise,active
1590027501,thuapgp,,,Handel Crescent,,,,Handel Crescent,,St Chad's Road,,,,opp,,N,E0042682,Tilbury,,,Tilbury,,,,1,UKOS,564410,177304,0.365778,51.470819,BCT,MKD,OTH,,,,059,2004-11-08T00:00:00.000,2018-09-03T11:48:00.000,2,revise,active
1590027601,thuapgt,,,Lawrence Gardens,,,,Lawrence Gardens,,Feenan Highway,,,,Northbound,,N,E0042682,Tilbury,,,Tilbury,,,,1,UKOS,564510,177325,0.367226,51.470978,BCT,MKD,TIP,,,,059,2004-11-08T00:00:00.000,2020-09-10T16:35:21.000,2,revise,active
1590027701,thuapgw,,,Lawrence Gardens,,,,Lawrence Gardens,,Feenan Highway,,,,Southbound,,S,E0042682,Tilbury,,,Tilbury,,,,1,UKOS,564534,177311,0.367565,51.470846,BCT,MKD,TIP,,,,059,2004-11-08T00:00:00.000,2009-06-24T13:43:00.000,1,revise,active
1590027801,thuapja,,,Wren Walk,,,,Raphael Avenue,,Feenan Highway,,,,Northbound,,N,E0042682,Tilbury,,,Tilbury,,,,1,UKOS,564623,177158,0.368774,51.469445,BCT,MKD,OTH,,,,059,2004-11-08T00:00:00.000,2009-06-24T13:45:00.000,2,revise,active
1590027901,thuapjd,,,Gainsborough Avenue,,,,Gainsborough Avenue,,Feenan Highway,,,,Northbound,,N,E0042682,Tilbury,,,Tilbury,,,,1,UKOS,564691,176894,0.369629,51.467054,BCT,MKD,OTH,,,,059,2004-11-08T00:00:00.000,2009-06-24T13:48:00.000,1,revise,active
1590028001,thuapjg,,,Gainsborough Avenue,,,,Gainsborough Avenue,,Feenan Highway,,,,Southbound,,S,E0042682,Tilbury,,,Tilbury,,,,1,UKOS,564696,176813,0.369658,51.466324,BCT,MKD,OTH,,,,059,2004-11-08T00:00:00.000,2021-11-04T16:35:35.310,2,revise,active
1590028101,thudjmw,,,Cowper Avenue,,,,Cowper Avenue,,Feenan Highway,,,,Northbound,,N,E0042682,Tilbury,,,Tilbury,,,,1,UKOS,564668,176660,0.369189,51.464958,BCT,MKD,TIP,,,,059,2004-11-08T00:00:00.000,2009-06-24T13:50:00.000,3,revise,active
1590028201,thudjpa,,,Cowper Avenue,,,,Cowper Avenue,,Feenan Highway,,,,Southbound,,S,E0042682,Tilbury,,,Tilbury,,,,1,UKOS,564688,176661,0.369477,51.464961,BCT,MKD,TIP,,,,059,2004-11-08T00:00:00.000,2009-06-24T13:50:00.000,3,revise,active
1590028301,thudjpd,,,Brennan Road,,,,Brennan Road,,Feenan Highway,,,,Northbound,,N,E0042682,Tilbury,,,Tilbury,,,,1,UKOS,564648,176399,0.36878,51.462619,BCT,MKD,OTH,,,,059,2004-11-08T00:00:00.000,2009-06-24T13:51:00.000,2,revise,active
1590028401,thuapjm,,,Brennan Road,,,,Brennan Road,,Feenan Highway,,,,Southbound,,S,E0042682,Tilbury,,,Tilbury,,,,1,UKOS,564669,176435,0.369099,51.462936,BCT,MKD,OTH,,,,059,2004-11-08T00:00:00.000,2009-06-24T13:51:00.000,1,revise,active
1590028701,thuapjw,,,Portsea Road,,,,Portsea Road,,Brennan Road,,,,W-bound,,W,E0042682,Tilbury,,,Tilbury,,,,1,UKOS,565209,176484,0.376888,51.463219,BCT,MKD,TIP,,,,059,2004-11-08T00:00:00.000,2019-07-19T14:49:00.000,3,revise,active
1590028801,thudjpg,,,Portsea Road,,,,Alldays Store,,Brennan Road,,,,E-bound,,E,E0042682,Tilbury,,,Tilbury,,,,1,UKOS,565194,176493,0.376677,51.463305,BCT,MKD,TIP,,,,059,2005-02-01T00:00:00.000,2019-06-19T15:53:00.000,2,revise,active
1590028901,thuapma,,,Galsworthy Road,,,,Galsworthy Road,,Byron Gardens,,,,opp,,W,E0042682,Tilbury,,,Tilbury,,,,1,UKOS,565298,176631,0.378237,51.464514,BCT,MKD,TIP,,,,059,2004-11-08T00:00:00.000,2013-08-15T16:03:00.000,2,revise,active
1590029001,thuapmd,,,Tilbury Ferry & LIC Terminal,,,,Tilbury Ferry,,Fort Road,,,,E-bound,,E,E0042682,Tilbury,,,Tilbury,,,,1,UKOS,564500,175211,0.3661,51.451989,BCT,MKD,TIP,,,,059,2004-11-08T00:00:00.000,2024-07-18T14:08:51.589,17,revise,active
1590029101,thuapmg,,,Ship Public House,,,,Ship Inn,,Princess Margaret Road,,,,N-bound,,N,E0042662,East Tilbury,,,East Tilbury,,,,1,UKOS,568718,177100,0.427648,51.467719,BCT,MKD,TIP,,,,059,2004-11-08T00:00:00.000,2019-07-01T12:20:00.000,3,revise,active
1590029201,thudjpj,,,The Green,,,,Kings Head PH,,Blue Anchor Lane,,,,N-bound,,N,E0042687,West Tilbury,,,West Tilbury,,,,1,UKOS,566078,177969,0.390083,51.476306,BCT,MKD,TIP,,,,059,2004-11-08T00:00:00.000,2017-04-20T11:11:00.000,2,revise,active
1590029301,thuapmj,,,Gateway Academy,,,,Gateway Academy,,St Chad's Road,,,,o/s,,N,E0042659,Chadwell St Mary,,,Chadwell St Mary,,,,1,UKOS,564400,177606,0.365774,51.473535,BCT,MKD,OTH,,,,059,2004-11-08T00:00:00.000,2018-09-03T11:48:00.000,3,revise,active
1590029401,thuapmp,,,River View,,,,Ruskin Road,,River View,,,,Eastbound,,E,E0042659,Chadwell St Mary,,,Chadwell St Mary,,,,1,UKOS,564158,178500,0.362708,51.481636,BCT,MKD,TIP,,,,059,2004-11-08T00:00:00.000,2004-11-08T00:00:00.000,0,new,active
1590029501,thudjpm,,,River View,,,,Ruskin Road,,River View,,,,W-bound,,W,E0042659,Chadwell St Mary,,,Chadwell St Mary,,,,1,UKOS,564135,178479,0.362368,51.481454,BCT,MKD,TIP,,,,059,2004-11-08T00:00:00.000,2019-05-28T11:44:00.000,2,revise,active
1590029601,thudjpt,,,River View Cross Keys,,,,Oxford Avenue,,River View,,,,W-bound,,W,E0042659,Chadwell St Mary,,,Chadwell St Mary,,,,1,UKOS,564450,178507,0.366913,51.481615,BCT,MKD,OTH,,,,059,2004-11-08T00:00:00.000,2019-05-28T11:51:00.000,1,revise,active
1590029701,thudjpw,,,River View Cross Keys,,,,Cross Keys,,River View,,,,E-bound,,E,E0042659,Chadwell St Mary,,,Chadwell St Mary,,,,1,UKOS,564529,178522,0.368056,51.481726,BCT,MKD,OTH,,,,059,2004-11-08T00:00:00.000,2019-05-28T11:55:00.000,1,revise,active
1590029801,thuapmt,,,Rigby Gardens,,,,Rigby Gardens,,Brentwood Road,,,,adj,,N,E0042659,Chadwell St Mary,,,Chadwell St Mary,,,,1,UKOS,564591,178867,0.369109,51.484808,BCT,MKD,OTH,,,,059,2004-11-08T00:00:00.000,2017-03-02T10:11:00.000,3,revise,active
1590029901,thuapmw,,,Cherry Walk,,,,Cherry Walk,,Heath Road,,,,W-bound,,W,E0042659,Chadwell St Mary,,,Chadwell St Mary,,,,1,UKOS,564478,179100,0.367592,51.486934,BCT,MKD,OTH,,,,059,2004-11-08T00:00:00.000,2019-05-28T11:22:00.000,2,revise,active
1590030001,thudjta,,,Loewen Road,,,,Loewen Road,,Heath Road,,,,N-bound,,N,E0042659,Chadwell St Mary,,,Chadwell St Mary,,,,1,UKOS,564344,179283,0.365749,51.488617,BCT,MKD,OTH,,,,059,2004-11-08T00:00:00.000,2019-05-28T11:19:00.000,2,revise,active
1590030101,thuapta,,,Heath Road,,,,Farm Road,,Heath Road,,,,Northbound,,N,E0042672,Orsett,,,Orsett Heath,,,,1,UKOS,563994,179795,0.36095,51.493318,BCT,MKD,OTH,,,,059,2004-11-08T00:00:00.000,2008-06-10T15:11:00.000,2,revise,active
1590030201,thuaptd,,,Heath Road,,,,Farm Road,,Heath Road,,,,Southbound,,S,E0042672,Orsett,,,Orsett Heath,,,,1,UKOS,563793,180100,0.358198,51.496116,BCT,MKD,OTH,,,,059,2004-11-08T00:00:00.000,2008-06-04T09:20:00.000,1,revise,active
1590030301,thudjtd,,,Heath Road,,,,Baker Street,,Stanford Road,,,,SW-bound,,SW,E0042672,Orsett,,,Orsett Heath,,,,1,UKOS,563720,180346,0.357256,51.498353,BCT,MKD,OTH,,,,059,2004-11-08T00:00:00.000,2021-11-04T17:01:08.135,5,revise,active
1590030401,thuaptg,,,Heath Road,,,,Baker Street,,Stanford Road,,,,NE-bound,,NE,E0042672,Orsett,,,Orsett Heath,,,,1,UKOS,563732,180402,0.35746,51.498847,BCT,MKD,OTH,,,,059,2004-11-08T00:00:00.000,2009-08-18T11:14:00.000,3,revise,active
1590030501,thudjtg,,,Stanford Road,,,,Stanford Road,,Baker Street,,,,Northbound,,N,E0042672,Orsett,,,Orsett,,,,1,UKOS,563636,180543,0.356144,51.500142,BCT,CUS,OTH,,,,059,2004-11-08T00:00:00.000,2023-10-12T13:03:56.182,3,revise,active
1590030601,thuaptj,,,Baker Street,,,,A13 Flyover,,Baker Street,,,,N-bound,,N,E0042672,Orsett,,,Orsett,,,,1,UKOS,563556,180799,0.355111,51.502465,BCT,MKD,OTH,,,,059,2004-11-08T00:00:00.000,2020-01-14T18:13:00.000,5,revise,active
1590030701,thuaptm,,,Baker Street,,,,A13 Flyover,,Baker Street,,,,S-bound,,S,E0042672,Orsett,,,Orsett,,,,1,UKOS,563575,180801,0.355376,51.502484,BCT,MKD,OTH,,,,059,2004-11-08T00:00:00.000,2023-10-12T13:03:38.086,6,revise,active
1590030801,thuaptp,,,Kings Arms,,,,High Road,,Baker Street,,,,N-bound,,N,N0060758,Baker Street,,,Orsett,,,,1,UKOS,563394,181373,0.353045,51.507668,BCT,MKD,TIP,,,,059,2004-11-08T00:00:00.000,2018-05-18T15:21:00.000,3,revise,active
1590030901,thudjtj,,,Kings Arms,,,,High Road,,Baker Street,,,,S-bound,,S,N0060758,Baker Street,,,Orsett,,,,1,UKOS,563411,181353,0.35328,51.507484,BCT,MKD,TIP,,,,059,2004-11-08T00:00:00.000,2018-05-18T15:23:00.000,3,revise,active
1590031001,thuaptw,,,High Road,,,,Baker Street,,High Road,,,,Westbound,,W,E0042672,Orsett,,,Orsett,,,,1,UKOS,563538,181461,0.355159,51.508417,BCT,MKD,OTH,,,,059,2004-11-08T00:00:00.000,2021-01-29T10:41:10.000,3,revise,active
1590031101,thuapwa,,,High Road,,,,Baker Street,,High Road,,,,Eastbound,,E,E0042672,Orsett,,,Orsett,,,,1,UKOS,563499,181464,0.354598,51.508455,BCT,MKD,OTH,,,,059,2004-11-08T00:00:00.000,2008-06-04T09:43:00.000,2,revise,active
1590031201,thudjtm,,,Hospital High Road,,,,Pound Lane,,High Road,,,,Eastbound,,E,E0042672,Orsett,,,Orsett,,,,1,UKOS,564251,181924,0.365639,51.51237,BCT,MKD,OTH,,,,059,2004-11-08T00:00:00.000,2004-11-08T00:00:00.000,0,new,active
1590031301,thudjtp,,,Hospital High Road,,,,Pound Lane,,High Road,,,,Westbound,,W,E0042672,Orsett,,,Orsett,,,,1,UKOS,564382,181926,0.367524,51.512353,BCT,MKD,OTH,,,,059,2004-11-08T00:00:00.000,2024-11-19T15:03:13.896,1,revise,active
1590031501,thuapwd,,,Hospital,,,,Orsett Hosp,,Rowley Road,,,,S-bound,,S,E0042672,Orsett,,,Orsett,,,,1,UKOS,564333,181759,0.366743,51.510864,BCT,MKD,OTH,,,,059,2004-11-08T00:00:00.000,2013-12-11T11:49:00.000,1,revise,active
1590031601,thuapwg,,,Hospital,,,,Orsett Hosp,,Rowley Road,,,,N-bound,,N,E0042672,Orsett,,,Orsett,,,,1,UKOS,564314,181761,0.36647,51.510887,BCT,MKD,OTH,,,,059,2006-06-22T00:00:00.000,2013-12-11T12:34:00.000,2,revise,active
1590031701,thuapwj,,,School Lane,,,,School Lane,,Rectory Road,,,,Northbound,,N,E0042672,Orsett,,,Orsett,,,,1,UKOS,564609,181617,0.37065,51.509508,BCT,MKD,OTH,,,,059,2004-11-08T00:00:00.000,2009-06-18T14:30:00.000,1,revise,active
1590031801,thuapwm,,,School Lane,,,,School Lane,,Rectory Road,,,,Southbound,,S,E0042672,Orsett,,,Orsett,,,,1,UKOS,564615,181676,0.370754,51.510042,BCT,MKD,OTH,,,,059,2004-11-08T00:00:00.000,2022-01-27T16:22:05.471,2,revise,active
1590031901,thudjtw,,,Rectory Road,,,,A13 Bridge,,Rectory Road,,,,Northbound,,N,E0042672,Orsett,,,Orsett,,,,1,UKOS,564784,181165,0.372958,51.505396,BCT,MKD,OTH,,,,059,2004-11-08T00:00:00.000,2004-11-08T00:00:00.000,0,new,active
1590032001,thuapwp,,,Rectory Road,,,,A13 Bridge,,Rectory Road,,,,Southbound,,S,E0042672,Orsett,,,Orsett,,,,1,UKOS,564802,181145,0.373208,51.505211,BCT,MKD,OTH,,,,059,2004-11-08T00:00:00.000,2004-11-08T00:00:00.000,0,new,active
1590032101,thuapwt,,,Stanford Road,,,,Rectory Road,,Stanford Road,,,,Eastbound,,E,E0042672,Orsett,,,Orsett,,,,1,UKOS,564906,181086,0.374678,51.504651,BCT,MKD,OTH,,,,059,2004-11-08T00:00:00.000,2011-10-31T12:25:00.000,4,revise,active
1590032201,thuatad,,,Stanford Road,,,,Rectory Road,,Stanford Road,,,,Westbound,,W,E0042672,Orsett,,,Orsett,,,,1,UKOS,564815,181051,0.373351,51.504363,BCT,MKD,OTH,,,,059,2004-11-08T00:00:00.000,2009-06-19T11:19:00.000,3,revise,active
1590032301,thuatag,,,Cedar Road,,,,Errington Close,,Cedar Road,,,,E-bound,,E,E0042659,Chadwell St Mary,,,Chadwell St Mary,,,,1,UKOS,564567,179432,0.369027,51.489891,BCT,MKD,OTH,,,,059,2004-11-08T00:00:00.000,2019-05-28T11:07:00.000,1,revise,active
1590032501,thuatam,,,Godman Road,,,,Errington Close,,Godman Road,,,,NE-bound,,NE,E0042659,Chadwell St Mary,,,Chadwell St Mary,,,,1,UKOS,564740,179462,0.371531,51.49011,BCT,MKD,OTH,,,,059,2004-11-08T00:00:00.000,2020-09-10T08:59:07.000,5,revise,active
1590032701,thuatat,,,Nicholas Walk,,,,Nicholas Walk,,Godman Road,,,,E-bound,,E,E0042659,Chadwell St Mary,,,Chadwell St Mary,,,,1,UKOS,564831,179667,0.372936,51.491925,BCT,MKD,OTH,,,,059,2004-11-08T00:00:00.000,2020-09-10T09:01:31.000,3,revise,active
1590032801,thuataw,,,Sleepers Farm Road,,,,Brentwood Road,,Sleepers Farm Road,,,,on,,SE,E0042659,Chadwell St Mary,,,Chadwell St Mary,,,,1,UKOS,564964,179624,0.37483,51.4915,BCT,MKD,TIP,,,,059,2004-11-08T00:00:00.000,2019-05-28T12:11:00.000,3,revise,active
1590033001,thudjwa,,,Morant Road,,,,Chadwell,,Longhouse Road,,,,S-bound,,S,E0042659,Chadwell St Mary,,,Chadwell St Mary,,,,1,UKOS,564983,179534,0.375061,51.490686,BCT,MKD,TIP,,,,059,2004-11-08T00:00:00.000,2021-08-12T17:03:28.000,6,revise,active
1590033201,thuatdj,,,Defoe Parade,,,,Longhouse Road,,Longhouse Road,,,,N-bound,,N,E0042659,Chadwell St Mary,,,Chadwell St Mary,,,,1,UKOS,564834,179272,0.372795,51.488375,BCT,MKD,TIP,,,,059,2004-11-08T00:00:00.000,2019-05-28T11:32:00.000,2,revise,active
1590033301,thudjwd,,,Defoe Parade,,,,Chadwell,,Longhouse Road,,,,S-bound,,S,E0042659,Chadwell St Mary,,,Chadwell St Mary,,,,1,UKOS,564845,179253,0.372944,51.488202,BCT,MKD,TIP,,,,059,2004-11-08T00:00:00.000,2017-01-20T19:12:00.000,3,revise,active
1590033401,thuatdm,,,Longhouse Road Daniel Close,,,,Longhouse Rd,,Longhouse Road,,,,N-bound,,N,E0042659,Chadwell St Mary,,,Chadwell St Mary,,,,1,UKOS,564831,179081,0.372662,51.48666,BCT,MKD,OTH,,,,059,2004-11-08T00:00:00.000,2013-11-06T09:01:00.000,1,revise,active
1590033501,thuatdp,,,Claudian Way,,,,Longhouse Road,,Claudian Way,,,,E-bound,,E,E0042659,Chadwell St Mary,,,Chadwell St Mary,,,,1,UKOS,564910,179072,0.373795,51.486557,BCT,MKD,OTH,,,,059,2004-11-08T00:00:00.000,2019-05-28T11:10:00.000,1,revise,active
1590033601,thuatdt,,,Seaborough Road,,,,Waterson Road,,Waterson Road,,,,Northbound,,N,E0042659,Chadwell St Mary,,,Chadwell St Mary,,,,1,UKOS,565030,179040,0.375507,51.486234,BCT,MKD,OTH,,,,059,2004-11-08T00:00:00.000,2021-06-07T19:48:32.000,3,revise,active
1590033701,thudjwg,,,Seaborough Road,,,,Seaborough Road,,Waterson Road,,,,Southbound,,S,E0042659,Chadwell St Mary,,,Chadwell St Mary,,,,1,UKOS,565067,178945,0.375995,51.48537,BCT,MKD,OTH,,,,059,2004-11-08T00:00:00.000,2009-06-19T12:08:00.000,2,revise,active
1590033801,thudjwj,,,Vigerons Way,,,,Sabina Road,,Waterson Road,,,,W-bound,,W,E0042659,Chadwell St Mary,,,Chadwell St Mary,,,,1,UKOS,564944,178600,0.374064,51.482306,BCT,MKD,OTH,,,,059,2005-02-08T00:00:00.000,2019-05-28T12:20:00.000,2,revise,active
1590033901,thuatdw,,,Vigerons Way,,,,Waterson Road,,Waterson Road,,,,E-bound,,E,E0042659,Chadwell St Mary,,,Chadwell St Mary,,,,1,UKOS,564825,178616,0.372359,51.482485,BCT,MKD,OTH,,,,059,2005-02-08T00:00:00.000,2021-01-29T10:54:17.000,3,revise,active
1590034001,thuatga,,,Aluric Close,,,,Chadwell,,Waterson Road,,,,S-bound,,S,E0042659,Chadwell St Mary,,,Chadwell St Mary,,,,1,UKOS,564773,178546,0.371577,51.481869,BCT,MKD,OTH,,,,059,2004-11-08T00:00:00.000,2024-08-09T14:50:53.169,4,revise,active
1590034101,thuatgd,,,Linford Road,,,,St Michael's Road,,Linford Road,,,,W-bound,,W,E0042659,Chadwell St Mary,,,Chadwell St Mary,,,,1,UKOS,565079,178453,0.375938,51.480946,BCT,MKD,OTH,,,,059,2005-02-08T00:00:00.000,2019-02-07T13:01:00.000,2,revise,active
1590034201,thuatgj,,,Linford Road,,,,St Michael's Road,,Linford Road,,,,E-bound,,E,E0042659,Chadwell St Mary,,,Chadwell St Mary,,,,1,UKOS,564964,178454,0.374283,51.480989,BCT,MKD,OTH,,,,059,2004-11-08T00:00:00.000,2019-05-28T11:27:00.000,1,revise,active
1590034301,thuatgm,,,Gloucester Avenue,,,,Princess Margaret Road,,Gloucester Avenue,,,,W-bound,,W,E0042655,Bata Estate,East Tilbury,,East Tilbury,,,,1,UKOS,568012,178426,0.418123,51.479841,BCT,MKD,OTH,,,,059,2004-11-08T00:00:00.000,2019-07-01T12:17:00.000,5,revise,active
1590034401,thuatgp,,,Gloucester Avenue,,,,Princess Margaret Road,,Gloucester Avenue,,,,E-bound,,E,E0042655,Bata Estate,East Tilbury,,East Tilbury,,,,1,UKOS,568014,178437,0.418157,51.479939,BCT,MKD,OTH,,,,059,2004-11-08T00:00:00.000,2019-07-01T12:18:00.000,3,revise,active
1590034501,thuatgt,,,Coronation Avenue,,,,Colne,,Coronation Avenue,,,,W-bound,,W,E0042662,East Tilbury,,,East Tilbury,,,,1,UKOS,568225,178977,0.42145,51.484728,BCT,MKD,TIP,,,,059,2004-11-08T00:00:00.000,2019-07-01T11:44:00.000,8,revise,active
1590034601,thuatgw,,,Princess Margaret Road,,,,Bata Estate,,Coronation Avenue,,,,after,,NE,E0042662,East Tilbury,,,East Tilbury,,,,1,UKOS,567947,178550,0.417247,51.480974,BCT,MKD,OTH,,,,059,2004-11-08T00:00:00.000,2013-08-15T16:08:00.000,7,revise,active
1590034701,thuatja,,,Railway Station,,,,Rail Station,,Princess Margaret Road,,,,Northbound,,N,E0042662,East Tilbury,,,East Tilbury,,,,1,UKOS,567704,178875,0.413905,51.483966,BCT,MKD,OTH,,,,059,2004-11-08T00:00:00.000,2008-05-06T09:54:00.000,2,revise,active
1590034801,thuatjd,,,Railway Station,,,,Rail Station,,Princess Margaret Road,,,,S-bound,,S,E0042662,East Tilbury,,,East Tilbury,,,,1,UKOS,567694,178920,0.413782,51.484373,BCT,MKD,OTH,,,,059,2004-11-08T00:00:00.000,2019-07-01T12:23:00.000,3,revise,active
1590034901,thuatjg,,,Post Office,,,,Post Office,,East Tilbury Road,,,,Northbound,,N,E0042666,Linford,,,Linford,,,,1,UKOS,567328,179560,0.408819,51.490231,BCT,MKD,OTH,,,,059,2004-11-08T00:00:00.000,2004-11-08T00:00:00.000,0,new,active
1590035001,thuatjm,,,Post Office,,,,Post Office,,East Tilbury Road,,,,Southbound,,S,E0042666,Linford,,,Linford,,,,1,UKOS,567330,179579,0.408857,51.490399,BCT,MKD,OTH,,,,059,2004-11-08T00:00:00.000,2023-10-12T12:16:28.841,1,revise,active
1590035101,thuatjp,,,Waltons Hall Road,,,,Essex Gardens,,East Tilbury Road,,,,Northbound,,N,E0042666,Linford,,,Linford,,,,1,UKOS,567226,179737,0.407435,51.491851,BCT,MKD,TIP,,,,059,2004-11-08T00:00:00.000,2004-11-08T00:00:00.000,0,new,active
1590035201,thudjwm,,,Orsett Cock PH,,,,Southfields,,Stanford Road,,,,Eastbound,,E,E0042672,Orsett,,,Orsett,,,,1,UKOS,565468,181246,0.382843,51.505924,BCT,MKD,OTH,,,,059,2005-02-01T00:00:00.000,2005-02-01T00:00:00.000,0,new,active
1590035301,thuatjt,,,Orsett Cock PH,,,,Southfields,,Stanford Road,,,,Westbound,,W,E0042672,Orsett,,,Orsett,,,,1,UKOS,565491,181237,0.38317,51.505837,BCT,MKD,OTH,,,,059,2005-02-01T00:00:00.000,2020-09-10T09:51:05.000,1,revise,active
1590035401,thudjwp,,,Grosvenor Road,,,,Southfields,,Stanford Road,,,,Eastbound,,E,E0042672,Orsett,,,Orsett,,,,1,UKOS,565781,181366,0.387405,51.506911,BCT,MKD,OTH,,,,059,2004-11-08T00:00:00.000,2020-12-18T18:27:26.000,5,revise,active
1590035501,thudjwt,,,Grosvenor Road,,,,Southfields,,Stanford Road,,,,Westbound,,W,E0042672,Orsett,,,Orsett,,,,1,UKOS,565815,181364,0.387894,51.506883,BCT,MKD,OTH,,,,059,2004-11-08T00:00:00.000,2021-01-29T10:56:16.000,6,revise,active
1590035601,thudmad,,,Sandown Road,,,,Southfields,,Stanford Road,,,,Eastbound,,E,E0042672,Orsett,,,Orsett,,,,1,UKOS,566258,181577,0.394371,51.508666,BCT,MKD,OTH,,,,059,2004-11-08T00:00:00.000,2009-06-19T11:21:00.000,2,revise,active
1590035701,thudmag,,,Sandown Road,,,,Southfields,,Stanford Road,,,,Westbound,,W,E0042672,Orsett,,,Orsett,,,,1,UKOS,566343,181587,0.395593,51.508734,BCT,MKD,OTH,,,,059,2004-11-08T00:00:00.000,2021-11-04T17:03:54.397,5,revise,active
1590035801,thuatjw,,,Buckingham Hill Road,,,,Buckingham Hill Road,,Stanford Road,,,,Eastbound,,E,E0042676,Stanford le Hope,,,Stanford-le-hope,,,,1,UKOS,567224,181923,0.408442,51.51149,BCT,CUS,OTH,,,,059,2005-02-01T00:00:00.000,2023-10-12T12:50:47.091,2,revise,active
1590035901,thuatma,,,Buckingham Hill Road,,,,Buckingham Hill Road,,Stanford Road,,,,Westbound,,W,E0042676,Stanford le Hope,,,Stanford-le-hope,,,,1,UKOS,567232,181900,0.408546,51.511281,BCT,CUS,OTH,,,,059,2004-11-08T00:00:00.000,2023-10-12T12:51:09.649,2,revise,active
1590036001,thudmaj,,,Rookery Corner,,,,St Clere's Hall,,Stanford Road,,,,Eastbound,,E,E0042676,Stanford le Hope,,,Stanford-le-hope,,,,1,UKOS,567512,182034,0.412641,51.512402,BCT,MKD,OTH,,,,059,2004-11-08T00:00:00.000,2021-01-29T11:01:15.000,1,revise,active
1590036101,thudmam,,,Rookery Corner,,,,St Clere's Hall,,Stanford Road,,,,Westbound,,W,E0042676,Stanford le Hope,,,Stanford-le-hope,,,,1,UKOS,567470,181980,0.412011,51.511929,BCT,MKD,OTH,,,,059,2004-11-08T00:00:00.000,2021-01-29T11:04:48.000,1,revise,active
1590036201,thuatmd,,,Butts Lane,,,,Butts Lane,,London Road,,,,Eastbound,,E,E0042676,Stanford le Hope,,,Stanford-le-hope,,,,1,UKOS,567784,182179,0.416626,51.513624,BCT,MKD,OTH,,,,059,2004-11-08T00:00:00.000,2004-11-08T00:00:00.000,0,new,active
1590036301,thuatmg,,,Butts Lane,,,,Butts Lane,,London Road,,,,Westbound,,W,E0042676,Stanford le Hope,,,Stanford-le-hope,,,,1,UKOS,567664,182099,0.41486,51.51294,BCT,MKD,OTH,,,,059,2004-11-08T00:00:00.000,2004-11-08T00:00:00.000,0,new,active
1590036401,thudmap,,,Church,,,,St Mary the Virgin Church,,Church Road,,,,nr,,E,E0042657,Bulphan,,,Bulphan,,,,1,UKOS,563763,185852,0.360438,51.5478,BCT,MKD,TIP,,,,059,2004-11-08T00:00:00.000,2017-08-02T13:37:00.000,3,revise,active
1590036501,thuatmj,,,Recreation Ground,,,,Village Hall,,Church Road,,,,W-bound,,W,E0042657,Bulphan,,,Bulphan,,,,1,UKOS,564030,185932,0.364322,51.548441,BCT,MKD,OTH,,,,059,2005-02-01T00:00:00.000,2019-05-28T11:00:00.000,1,revise,active
1590036601,thuatmp,,,Recreation Ground,,,,Village Hall,,Church Road,,,,E-bound,,E,E0042657,Bulphan,,,Bulphan,,,,1,UKOS,564054,185957,0.36468,51.548659,BCT,MKD,OTH,,,,059,2004-11-08T00:00:00.000,2019-05-28T11:01:00.000,1,revise,active
1590036901,thuatmt,,,South Hill Country Park,,,,In Wood Opposite Goldsmiths,,South Hill,,,,Northbound,,N,E0042665,Horndon on the Hill,,,Horndon,,,,1,UKOS,567688,186186,0.41715,51.549649,BCT,MKD,OTH,,,,059,2004-11-08T00:00:00.000,2008-06-10T16:16:00.000,1,revise,active
1590037001,thuatmw,,,South Hill,,,,South Hill,,South Hill,,,,Northbound,,N,E0042665,Horndon on the Hill,,,Horndon,,,,1,UKOS,567437,185564,0.413238,51.544135,BCT,MKD,OTH,,,,059,2004-11-08T00:00:00.000,2009-06-19T13:45:00.000,1,revise,active
1590037101,thuatpa,,,South Hill,,,,South Hill,,South Hill,,,,Southbound,,S,E0042665,Horndon on the Hill,,,Horndon,,,,1,UKOS,567455,185541,0.413478,51.543924,BCT,MKD,OTH,,,,059,2004-11-08T00:00:00.000,2023-10-12T12:23:41.869,2,revise,active
1590037201,thuatpd,,,Lower Dunton Road,,,,Lower Dunton Road,,South Hill,,,,E-bound,,E,E0042665,Horndon on the Hill,,,Horndon,,,,1,UKOS,566841,184898,0.404336,51.538329,BCT,MKD,OTH,,,,059,2004-11-08T00:00:00.000,2018-07-26T13:18:00.000,3,revise,active
1590037301,thuatpg,,,North Hill Farm,,,,North Hill Farm,,North Hill,,,,Southbound,,S,E0042665,Horndon on the Hill,,,Horndon,,,,1,UKOS,566912,184207,0.405031,51.5321,BCT,MKD,OTH,,,,059,2004-11-08T00:00:00.000,2004-11-08T00:00:00.000,0,new,active
1590037401,thudmat,,,Railway Station,,,,Stanford Rail,,London Road,,,,E-bound,,E,E0042676,Stanford le Hope,,,Stanford-le-hope,,,,1,UKOS,568132,182295,0.421692,51.514562,BCT,MKD,TIP,,,,059,2004-11-08T00:00:00.000,2014-07-21T11:37:00.000,4,revise,active
1590037501,thudmaw,,,Railway Station,,,,Stanford Rail,,London Road,,,,W-bound,,W,E0042676,Stanford le Hope,,,Stanford-le-hope,,,,1,UKOS,568255,182292,0.423461,51.514499,BCT,MKD,OTH,,,,059,2004-11-08T00:00:00.000,2014-01-20T12:05:00.000,3,revise,active
1590037601,thuatpj,,,Victoria Road,,,,Stanford Town,,Victoria Road,,,,S-bound,,S,E0042676,Stanford le Hope,,,Stanford-le-hope,,,,1,UKOS,568319,182368,0.424419,51.515162,BCT,MKD,OTH,,,,059,2004-11-08T00:00:00.000,2021-03-12T11:48:13.000,4,revise,active
1590037701,thuatpm,,,The New Courthouse,,,,High Street,,King Street,,,,NE-bound,,NE,E0042676,Stanford le Hope,,,Stanford-le-hope,,,,1,UKOS,568428,182460,0.426032,51.515956,BCT,MKD,OTH,,,,059,2004-11-08T00:00:00.000,2019-11-12T09:49:00.000,3,revise,active
1590037801,thudmda,,,The Green,,,,Inn on the Green,,The Green,,,,on,,SW,E0042676,Stanford le Hope,,,Stanford-le-hope,,,,1,UKOS,568509,182291,0.427118,51.514418,BCT,MKD,OTH,,,,059,2004-11-08T00:00:00.000,2021-11-23T09:17:43.418,2,revise,active
1590037901,thuatpt,,,Inn on the Green,,,,Inn on the Green,,Corringham Road,,,,opp,,W,E0042676,Stanford le Hope,,,Stanford-le-hope,,,,1,UKOS,568536,182250,0.427487,51.514038,BCT,MKD,OTH,,,,059,2004-11-08T00:00:00.000,2014-08-13T16:30:00.000,3,revise,active
1590038001,thuatpw,,,Corringham Road,,,,Fetherston Road,,Corringham Road,,,,Eastbound,,E,E0042676,Stanford le Hope,,,Stanford-le-hope,,,,1,UKOS,568737,182323,0.430416,51.514634,BCT,MKD,OTH,,,,059,2004-11-08T00:00:00.000,2004-11-08T00:00:00.000,0,new,active
1590038101,thuatwa,,,Hassenbrook School,,,,Burgess Avenue,,Corringham Road,,,,Westbound,,W,E0042676,Stanford le Hope,,,Stanford-le-hope,,,,1,UKOS,568973,182395,0.433848,51.51521,BCT,MKD,TIP,,,,059,2004-11-08T00:00:00.000,2021-01-29T11:09:17.000,4,revise,active
1590038301,thuatwd,,,The New Courthouse,,,,High Street,,King Street,,,,S-bound,,S,E0042676,Stanford le Hope,,,Stanford-le-hope,,,,1,UKOS,568470,182482,0.426647,51.516144,BCT,MKD,OTH,,,,059,2004-11-08T00:00:00.000,2021-11-23T09:58:48.599,3,revise,active
1590038401,thudmdg,,,Scratton Road,,,,Victoria Road,,Southend Road,,,,Northbound,,N,E0042676,Stanford le Hope,,,Stanford-le-hope,,,,1,UKOS,568523,182783,0.427554,51.51883,BCT,MKD,OTH,,,,059,2004-11-08T00:00:00.000,2009-08-18T11:15:00.000,4,revise,active
1590038501,thuatwg,,,Scratton Road,,,,Victoria Road,,Southend Road,,,,Southbound,,S,E0042676,Stanford le Hope,,,Stanford-le-hope,,,,1,UKOS,568525,182706,0.427541,51.518144,BCT,MKD,OTH,,,,059,2004-11-08T00:00:00.000,2021-11-23T09:55:16.301,4,revise,active
1590038601,thuatwj,,,Hassenbrook School,,,,Hassenbrook Sch,,Corringham Road,,,,E-bound,,E,E0042676,Stanford le Hope,,,Stanford-le-hope,,,,1,UKOS,569141,182482,0.436308,51.515941,BCT,MKD,TIP,,,,059,2004-11-08T00:00:00.000,2014-01-20T12:06:00.000,4,revise,active
1590038701,thuatwm,,,Abbotts Hall Chase,,,,Conrad Road,,Corringham Road,,,,W-bound,,W,E0042676,Stanford le Hope,,,Stanford-le-hope,,,,1,UKOS,569363,182548,0.439537,51.516468,BCT,MKD,OTH,,,,059,2004-11-08T00:00:00.000,2014-08-13T16:48:00.000,4,revise,active
1590038801,thudmdj,,,Abbotts Hall Chase,,,,Conrad Road,,Corringham Road,,,,E-bound,,E,E0042676,Stanford le Hope,,,Stanford-le-hope,,,,1,UKOS,569414,182595,0.440293,51.516875,BCT,MKD,OTH,,,,059,2004-11-08T00:00:00.000,2014-08-13T16:41:00.000,4,revise,active
1590038901,thuatwp,,,The Catcracker,,,,A1014 Roundabout,,The Sorrels,,,,Northbound,,N,E0042660,Corringham,,,Corringham,,,,1,UKOS,569639,182886,0.443673,51.519421,BCT,MKD,OTH,,,,059,2004-11-08T00:00:00.000,2004-11-08T00:00:00.000,0,new,active
1590039001,thuatwt,,,The Catcracker,,,,A1014 Roundabout,,The Sorrells,,,,S-bound,,S,E0042660,Corringham,,,Corringham,,,,1,UKOS,569658,182848,0.443918,51.519075,BCT,MKD,OTH,,,,059,2005-02-01T00:00:00.000,2021-11-04T17:09:05.704,2,revise,active
1590039101,thuawad,,,The Sorrells,,,,Abbots Drive,,The Sorrells,,,,Northbound,,N,E0042660,Corringham,,,Corringham,,,,1,UKOS,569687,183213,0.444522,51.522344,BCT,MKD,OTH,,,,059,2005-02-01T00:00:00.000,2009-06-19T13:56:00.000,1,revise,active
1590039201,thuawag,,,The Sorrells,,,,Jefferies Way,,The Sorrells,,,,S-bound,,S,E0042660,Corringham,,,Corringham,,,,1,UKOS,569681,183084,0.444365,51.52119,BCT,MKD,OTH,,,,059,2005-02-01T00:00:00.000,2021-11-04T17:11:20.785,3,revise,active
1590039301,thuawaj,,,Abbotts Drive,,,,School,,Abbotts Drive,,,,E-bound,,NE,E0042660,Corringham,,,Corringham,,,,1,UKOS,569404,183149,0.440416,51.521854,BCT,MKD,TIP,,,,059,2004-11-08T00:00:00.000,2021-01-29T11:24:08.000,4,revise,active
1590039401,thuawam,,,Abbotts Drive,,,,School,,Abbotts Drive,,,,W-bound,,SW,E0042660,Corringham,,,Corringham,,,,1,UKOS,569381,183117,0.440069,51.521574,BCT,MKD,TIP,,,,059,2004-11-08T00:00:00.000,2021-01-29T11:25:51.000,5,revise,active
1590039501,thuawap,,,Nursery Road,,,,Nursery Road,,Abbotts Drive,,,,E-bound,,E,E0042660,Corringham,,,Corringham,,,,1,UKOS,569165,183065,0.436934,51.521171,BCT,MKD,OTH,,,,059,2004-11-08T00:00:00.000,2019-07-01T10:19:00.000,3,revise,active
1590039601,thuawat,,,Nursery Road,,,,Nursery Road,,Abbotts Drive,,,,W-bound,,W,E0042660,Corringham,,,Corringham,,,,1,UKOS,569078,183025,0.435662,51.520838,BCT,MKD,OTH,,,,059,2004-11-08T00:00:00.000,2019-07-01T10:22:00.000,3,revise,active
1590039701,thuawaw,,,Stratford Gardens,,,,Southend Road,,Abbotts Drive,,,,E-bound,,E,E0042660,Corringham,,,Corringham,,,,1,UKOS,568739,183020,0.430769,51.520897,BCT,MKD,OTH,,,,059,2004-11-08T00:00:00.000,2022-02-25T08:19:51.432,4,revise,active
1590039801,thuawda,,,Stratford Gardens,,,,Southend Road,,Abbotts Drive,,,,W-bound,,W,E0042660,Corringham,,,Corringham,,,,1,UKOS,568800,182964,0.431629,51.520373,BCT,MKD,OTH,,,,059,2004-11-08T00:00:00.000,2019-07-01T10:27:00.000,3,revise,active
1590039901,thuawdg,,,First Avenue,,,,Balstonia,,Southend Road,,,,Eastbound,,E,E0042676,Stanford le Hope,,,Stanford le Hope,,,,1,UKOS,568821,183161,0.432026,51.522137,BCT,MKD,OTH,,,,059,2004-11-08T00:00:00.000,2009-06-16T11:45:00.000,2,revise,active
1590040001,thudmdm,,,First Avenue,,,,Balstonia,,Southend Road,,,,Westbound,,SW,E0042676,Stanford le Hope,,,Stanford-le-hope,,,,1,UKOS,568813,183128,0.431895,51.521842,BCT,MKD,OTH,,,,059,2005-08-02T00:00:00.000,2021-01-29T11:27:47.000,4,revise,active
1590040101,thudmdp,,,Balmoral Avenue,,,,Balstonia,,Southend Road,,,,Northbound,,N,E0042676,Stanford le Hope,,,Stanford-le-hope,,,,1,UKOS,569091,183439,0.436047,51.524553,BCT,MKD,OTH,,,,059,2005-08-02T00:00:00.000,2009-06-16T11:37:00.000,3,revise,active
1590040201,thuawdj,,,Balmoral Avenue,,,,Balstonia,,Southend Road,,,,Southbound,,SW,E0042676,Stanford le Hope,,,Stanford le Hope,,,,1,UKOS,569142,183460,0.436792,51.524727,BCT,MKD,OTH,,,,059,2004-11-08T00:00:00.000,2021-01-29T11:30:04.000,8,revise,active
1590040301,thuawdm,,,Central Avenue,,,,Mackley Drive,,Southend Road,,,,N-bound,,N,E0042660,Corringham,,,Corringham,,,,1,UKOS,569441,183896,0.441307,51.528554,BCT,MKD,OTH,,,,059,2004-11-08T00:00:00.000,2019-07-01T11:21:00.000,6,revise,active
1590040401,thudmdt,,,Mackley Drive,,,,Central Avenue,,Southend Road,,,,SW-bound,,SW,E0042676,Stanford le Hope,,,Stanford-le-hope,,,,1,UKOS,569487,183950,0.441991,51.529028,BCT,MKD,OTH,,,,059,2005-08-02T00:00:00.000,2022-02-23T17:17:43.884,6,revise,active
1590040501,thudmdw,,,Mackley Drive,,,,Fourth Avenue,,Southend Road,,,,NE-bound,,NE,E0042676,Stanford le Hope,,,Stanford-le-hope,,,,1,UKOS,569519,184084,0.442521,51.530219,BCT,MKD,OTH,,,,059,2005-08-02T00:00:00.000,2009-08-18T11:16:00.000,4,revise,active
1590040601,thudmga,,,Morley Hill,,,,Morley Hill,,Southend Road,,,,SW-bound,,SW,E0042660,Corringham,,,Corringham,,,,1,UKOS,569689,184232,0.445041,51.531498,BCT,MKD,OTH,,,,059,2004-11-08T00:00:00.000,2019-07-01T11:14:00.000,5,revise,active
1590040701,thudmgd,,,Gable Hall School,,,,Gable Hall School,,Southend Road,,,,E-bound,,E,E0042660,Corringham,,,Corringham,,,,1,UKOS,569867,184435,0.447702,51.533268,BCT,MKD,OTH,,,,059,2004-11-08T00:00:00.000,2019-07-01T11:18:00.000,3,revise,active
1590040801,thudmgj,,,Gable Hall School,,,,Gable Hall School,,Southend Road,,,,W-bound,,W,E0042660,Corringham,,,Corringham,,,,1,UKOS,569924,184454,0.448533,51.533421,BCT,MKD,OTH,,,,059,2004-11-08T00:00:00.000,2019-07-01T11:11:00.000,3,revise,active
1590040901,thuawdp,,,Leisure Centre,,,,Lampits Lane Path,,Southend Road,,,,Eastbound,,E,E0042660,Corringham,,,Corringham,,,,1,UKOS,570116,184600,0.451368,51.534675,BCT,CUS,OTH,,,,059,2004-11-08T00:00:00.000,2022-05-09T08:24:52.210,3,revise,inactive
1590041001,thuawdt,,,Leisure Centre,,,,Village Motel,,Southend Road,,,,Westbound,,W,E0042660,Corringham,,,Corringham,,,,1,UKOS,570140,184595,0.451712,51.534623,BCT,MKD,OTH,,,,059,2004-11-08T00:00:00.000,2009-08-27T15:00:00.000,2,revise,active
1590041101,thuawdw,,,Whitepost Corner,,,,Lampits Hill,,Southend Road,,,,S-bound,,S,E0042660,Corringham,,,Corringham,,,,1,UKOS,570342,184879,0.454752,51.53712,BCT,MKD,OTH,,,,059,2004-11-08T00:00:00.000,2021-11-04T17:12:52.137,2,revise,active
1590041201,thuawga,,,Whitepost Corner,,,,Lampits Hill,,Southend Road,,,,N-bound,,N,E0042660,Corringham,,,Corringham,,,,1,UKOS,570324,184887,0.454503,51.537191,BCT,MKD,OTH,,,,059,2004-11-08T00:00:00.000,2019-07-01T11:27:00.000,1,revise,active
1590041301,thudmgm,,,Colbourne Close,,,,Police Station,,Gordon Road,,,,opp,,SE,E0042660,Corringham,,,Corringham,,,,1,UKOS,569685,183479,0.444621,51.524734,BCT,MKD,OTH,,,,059,2005-02-08T00:00:00.000,2009-06-26T10:14:00.000,2,revise,active
1590041401,thuawgd,,,Town Centre,,,,Grover Walk,,Gordon Road,,,,E-bound,,E,E0042660,Corringham,,,Corringham,,,,1,UKOS,569852,183359,0.446968,51.523606,BCT,MKD,TIP,,,,059,2004-11-08T00:00:00.000,2021-09-01T12:21:57.000,2,revise,active
1590041501,thudmgp,,,Town Centre,,,,Grover Walk,,Gordon Road,,,,Westbound,,W,E0042660,Corringham,,,Corringham,,,,1,UKOS,569825,183356,0.446578,51.523588,BCT,MKD,TIP,,,,059,2004-11-08T00:00:00.000,2004-11-08T00:00:00.000,0,new,active
1590041601,thuawgj,,,Gordon Road,,,,Springhouse Road,,Gordon Road,,,,W-bound,,W,E0042660,Corringham,,,Corringham,,,,1,UKOS,570064,183360,0.450021,51.523552,BCT,MKD,TIP,,,,059,2004-11-08T00:00:00.000,2019-07-01T10:58:00.000,1,revise,active
1590041701,thudmgt,,,Springhouse Road,,,,Gordon Road,,Springhouse Road,,,,S-bound,,S,E0042660,Corringham,,,Corringham,,,,1,UKOS,570152,183390,0.451303,51.523795,BCT,MKD,OTH,,,,059,2004-11-08T00:00:00.000,2021-09-01T12:32:05.000,2,revise,active
1590041801,thudmgw,,,Springhouse Road,,,,Princes Avenue,,Springhouse Road,,,,Northbound,,N,E0042660,Corringham,,,Corringham,,,,1,UKOS,570208,183262,0.452048,51.522628,BCT,MKD,OTH,,,,059,2004-11-08T00:00:00.000,2004-11-08T00:00:00.000,0,new,active
1590041901,thuawgm,,,Giffords Cross Road,,,,A1014,,Giffords Cross Road,,,,NE-bound,,NE,E0042660,Corringham,,,Corringham,,,,1,UKOS,570283,183246,0.45312,51.522462,BCT,MKD,OTH,,,,059,2004-11-08T00:00:00.000,2019-07-01T10:50:00.000,3,revise,active
1590042001,thudmja,,,Chase Road,,,,Chase Road,,Giffords Cross Road,,,,W-bound,,W,E0042660,Corringham,,,Corringham,,,,1,UKOS,570414,183347,0.455055,51.523329,BCT,MKD,OTH,,,,059,2004-11-08T00:00:00.000,2017-03-02T11:02:00.000,3,revise,active
1590042101,thuawgp,,,Chase Road,,,,Giffords Cross Avenue,,Giffords Cross Road,,,,E-bound,,E,E0042660,Corringham,,,Corringham,,,,1,UKOS,570552,183435,0.457085,51.524078,BCT,MKD,OTH,,,,059,2004-11-08T00:00:00.000,2019-07-01T10:51:00.000,2,revise,active
1590042201,thudmjd,,,Church Road,,,,Giffords Cross Road,,Church Road,,,,N-bound,,N,E0042660,Corringham,,,Corringham,,,,1,UKOS,570829,183572,0.46114,51.525225,BCT,MKD,TIP,,,,059,2004-11-08T00:00:00.000,2019-07-01T10:28:00.000,1,revise,active
1590042301,thuawgt,,,Church Road,,,,Giffords Cross Road,,Church Road,,,,S-bound,,S,E0042660,Corringham,,,Corringham,,,,1,UKOS,570844,183567,0.461354,51.525176,BCT,MKD,TIP,,,,059,2005-02-08T00:00:00.000,2019-07-01T10:34:00.000,1,revise,active
1590042401,thudmjg,,,Social Club,,,,Giffords Cross Road,,Lampits Hill,,,,N-bound,,N,E0042660,Corringham,,,Corringham,,,,1,UKOS,570784,183640,0.460525,51.52585,BCT,MKD,OTH,,,,059,2004-11-08T00:00:00.000,2017-03-02T11:21:00.000,1,revise,active
1590042501,thudmjm,,,Social Club,,,,Giffords Cross Road,,Lampits Hill,,,,S-bound,,S,E0042660,Corringham,,,Corringham,,,,1,UKOS,570776,183680,0.460429,51.526212,BCT,MKD,OTH,,,,059,2004-11-08T00:00:00.000,2017-03-02T11:22:00.000,1,revise,active
1590042601,thuawgw,,,Parkside,,,,Parkside,,Wood View,,,,adj,,SE,N0076735,Socketts Heath,Grays,,Socketts Heath,,,,1,UKOS,562915,179172,0.345133,51.488033,BCT,MKD,OTH,,,,059,2004-11-08T00:00:00.000,2013-06-18T14:35:00.000,1,revise,active
1590042701,thuawja,,,The Haven,,,,Bypass Roundabout,,River View,,,,E-bound,,E,E0042659,Chadwell St Mary,,,Chadwell St Mary,,,,1,UKOS,564004,178528,0.360505,51.481933,BCT,MKD,OTH,,,,059,2004-11-08T00:00:00.000,2019-05-28T11:58:00.000,3,revise,active
1590042801,thuawjd,,,Lampits Hill Central Avenue,,,,Central Avenue,,Lampits Hill,,,,S-bound,,S,E0042660,Corringham,,,Corringham,,,,1,UKOS,570617,183892,0.458242,51.528164,BCT,MKD,OTH,,,,059,2004-11-08T00:00:00.000,2019-07-01T11:08:00.000,4,revise,active
1590042901,thuawjg,,,Lampits Hill Central Avenue,,,,Central Avenue,,Lampits Hill,,,,N-bound,,N,E0042660,Corringham,,,Corringham,,,,1,UKOS,570592,183913,0.457892,51.52836,BCT,MKD,OTH,,,,059,2004-11-08T00:00:00.000,2019-07-01T11:09:00.000,4,revise,active
1590043001,thuawjm,,,Fernside Close,,,,Lampits Lane Bottom,,Lampits Hill,,,,Southbound,,S,E0042660,Corringham,,,Corringham,,,,1,UKOS,570499,184104,0.456645,51.530104,BCT,MKD,OTH,,,,059,2005-02-01T00:00:00.000,2009-06-24T12:00:00.000,2,revise,active
1590043101,thudmjp,,,Fernside Close,,,,Lampits Lane Bottom,,Lampits Hill,,,,Northbound,,N,E0042660,Corringham,,,Corringham,,,,1,UKOS,570484,184122,0.456438,51.53027,BCT,MKD,OTH,,,,059,2004-11-08T00:00:00.000,2009-06-24T12:00:00.000,2,revise,active
1590043201,thudmjt,,,Lampits Lane,,,,Lampits Lane Top,,Lampits Hill,,,,S-bound,,S,E0042660,Corringham,,,Corringham,,,,1,UKOS,570565,184385,0.457732,51.532608,BCT,MKD,OTH,,,,059,2004-11-08T00:00:00.000,2019-07-01T11:07:00.000,3,revise,active
1590043301,thudmjw,,,Lampits Lane,,,,Lampits Lane Top,,Lampits Hill,,,,Northbound,,N,E0042660,Corringham,,,Corringham,,,,1,UKOS,570530,184463,0.457265,51.53332,BCT,MKD,OTH,,,,059,2004-11-08T00:00:00.000,2009-06-24T11:58:00.000,2,revise,active
1590043401,thuawjp,,,Garage Corner,,,,One Tree Hill,,Southend Road,,,,W-bound,,W,E0042663,Fobbing,,,Fobbing,,,,1,UKOS,570099,185550,0.451582,51.543214,BCT,MKD,OTH,,,,059,2004-11-08T00:00:00.000,2021-01-29T11:32:25.000,4,revise,active
1590043501,thuawjt,,,Garage Corner,,,,One Tree Hill,,Southend Road,,,,E-bound,,E,E0042663,Fobbing,,,Fobbing,,,,1,UKOS,570184,185602,0.452832,51.543656,BCT,MKD,OTH,,,,059,2004-11-08T00:00:00.000,2019-07-01T13:06:00.000,3,revise,active
1590043801,thuawmd,,,Five Bells,,,,Stanford Le Hope Bypass,,Five Bells Road,,,,W-bound,,W,E0042663,Fobbing,,,Fobbing,,,,1,UKOS,570925,186383,0.463886,51.550448,BCT,MKD,OTH,,,,059,2004-11-08T00:00:00.000,2019-07-01T12:28:00.000,2,revise,active
1590043901,thuawmg,,,Five Bells,,,,Stanford Le Hope Bypass,,Five Bells Road,,,,Eastbound,,E,E0042663,Fobbing,,,Fobbing,,,,1,UKOS,570926,186407,0.463912,51.550663,BCT,MKD,OTH,,,,059,2005-02-08T00:00:00.000,2011-10-31T12:21:00.000,2,revise,active
1590044101,thuawmp,,,Inglefield Road,,,,Inglefield Road,,High Road,,,,Southbound,,S,E0042663,Fobbing,,,Fobbing,,,,1,UKOS,571269,185500,0.468414,51.542418,BCT,MKD,OTH,,,,059,2004-11-08T00:00:00.000,2021-11-23T09:09:42.384,3,revise,active
1590044201,thuawmt,,,Inglefield Road,,,,Inglefield Road,,High Road,,,,Northbound,,N,E0042663,Fobbing,,,Fobbing,,,,1,UKOS,571258,185497,0.468254,51.542388,BCT,MKD,OTH,,,,059,2004-11-08T00:00:00.000,2009-06-16T12:03:00.000,3,revise,active
1590044301,thuawmw,,,Whitehall Lane,,,,Whitehall Lane,,High Road,,,,S-bound,,S,E0042663,Fobbing,,,Fobbing,,,,1,UKOS,571371,185223,0.469738,51.539895,BCT,MKD,OTH,,,,059,2004-11-08T00:00:00.000,2021-11-23T09:11:21.553,3,revise,active
1590044401,thuawpa,,,Whitehall Lane,,,,Whitehall Lane,,High Road,,,,Northbound,,N,E0042663,Fobbing,,,Fobbing,,,,1,UKOS,571357,185226,0.469548,51.539923,BCT,MKD,OTH,,,,059,2006-09-19T00:00:00.000,2009-06-16T12:05:00.000,1,revise,active
1590044501,thuawpd,,,Greathouse Chase,,,,Greathouse Chase,,High Road,,,,S-bound,,S,E0042663,Fobbing,,,Fobbing,,,,1,UKOS,571526,184795,0.471766,51.536008,BCT,MKD,OTH,,,,059,2004-11-08T00:00:00.000,2021-11-23T09:13:30.776,3,revise,active
1590044601,thuawpg,,,Greathouse Chase,,,,Greathouse Chase,,High Road,,,,Northbound,,N,E0042663,Fobbing,,,Fobbing,,,,1,UKOS,571510,184809,0.471549,51.536131,BCT,MKD,OTH,,,,059,2004-11-08T00:00:00.000,2009-06-16T12:06:00.000,1,revise,active
1590044701,thuawpj,,,Marsh Lane,,,,Marsh Lane,,High Road,,,,S-bound,,S,E0042663,Fobbing,,,Fobbing,,,,1,UKOS,571618,184458,0.472927,51.532952,BCT,MKD,OTH,,,,059,2004-11-08T00:00:00.000,2021-11-23T09:15:03.560,3,revise,active
1590044801,thuawpm,,,Marsh Lane,,,,Marsh Lane,,High Road,,,,N-bound,,N,E0042663,Fobbing,,,Fobbing,,,,1,UKOS,571597,184482,0.472643,51.533167,BCT,MKD,OTH,,,,059,2004-11-08T00:00:00.000,2019-07-01T12:46:00.000,2,revise,active
1590044901,thuawpt,,,Wheelers Lane,,,,Wheelers Lane,,High Road,,,,S-bound,,S,E0042663,Fobbing,,,Fobbing,,,,1,UKOS,571672,184290,0.47363,51.53142,BCT,MKD,OTH,,,,059,2004-11-08T00:00:00.000,2019-07-01T12:50:00.000,3,revise,active
1590045001,thuawpw,,,Wheelers Lane,,,,Wheelers Lane,,High Road,,,,N-bound,,N,E0042663,Fobbing,,,Fobbing,,,,1,UKOS,571660,184251,0.473438,51.531073,BCT,MKD,OTH,,,,059,2004-11-08T00:00:00.000,2019-07-01T12:53:00.000,3,revise,active
1590045201,thuawtd,,,Church,,,,Fobbing Church,,High Road,,,,after,,N,E0042663,Fobbing,,,Fobbing,,,,1,UKOS,571663,184038,0.473377,51.529159,BCT,MKD,OTH,,,,059,2004-11-08T00:00:00.000,2020-07-15T09:52:20.000,2,revise,active
1590045301,thuawtg,,,Digby Road,,,,Digby Road,,Fobbing Road,,,,adj,,E,E0042660,Corringham,,,Corringham,,,,1,UKOS,571299,183807,0.468023,51.527194,BCT,MKD,OTH,,,,059,2004-11-08T00:00:00.000,2019-07-01T10:37:00.000,4,revise,active
1590045401,thuawtj,,,Herd Lane,,,,Herd Lane,,Fobbing Road,,,,E-bound,,E,E0042660,Corringham,,,Corringham,,,,1,UKOS,571016,183670,0.463881,51.526049,BCT,MKD,OTH,,,,059,2004-11-08T00:00:00.000,2019-07-01T10:41:00.000,2,revise,active
1590045501,thuawtm,,,High Road,,,,Mill Lane,,High Road,,,,Southbound,,S,E0042665,Horndon on the Hill,,,Horndon,,,,1,UKOS,566984,183430,0.405697,51.525106,BCT,MKD,OTH,,,,059,2004-11-08T00:00:00.000,2021-11-23T09:49:40.715,4,revise,active
1590045601,thuawtp,,,High Road,,,,Mill Lane,,High Road,,,,Northbound,,N,E0042665,Horndon on the Hill,,,Horndon,,,,1,UKOS,566973,183593,0.405619,51.526566,BCT,MKD,OTH,,,,059,2004-11-08T00:00:00.000,2021-05-25T10:30:38.000,1,revise,active
1590045701,thuawtw,,,Railway Station,,,,West Road,,station forecourt,,,,o/s,,N,E0042674,South Ockendon,,,South Ockendon,,,,1,UKOS,559000,182824,0.290439,51.521957,BCT,MKD,OTH,,,,059,2004-11-08T00:00:00.000,2013-02-28T10:03:00.000,10,revise,active
1590045801,thudada,,,Davy Down,,,,Davy Down Cottages,,Pilgrims Lane,,,,o/s,,N,E0042677,Stifford,,,North Stifford,,,,1,UKOS,559435,180316,0.29557,51.499302,BCT,MKD,OTH,,,,059,2004-11-08T00:00:00.000,2013-03-18T13:50:00.000,4,revise,active
1590045901,thudadg,,,Davy Down,,,,Davy Down Cottages,,Pilgrims Lane,,,,opp,,S,E0042677,Stifford,,,North Stifford,,,,1,UKOS,559451,180301,0.295794,51.499163,BCT,MKD,OTH,,,,059,2004-11-08T00:00:00.000,2013-03-18T13:50:00.000,4,revise,active
1590046001,thudadj,,,Stifford Hill Pilgrims Lane,,,,Pilgrims Lane,,Stifford Hill,,,,Westbound,,W,N0060760,North Stifford,,,North Stifford,,,,1,UKOS,559516,180316,0.296736,51.499279,BCT,MKD,OTH,,,,059,2004-11-08T00:00:00.000,2004-11-08T00:00:00.000,0,new,active
1590046101,thudadm,,,Grove Farm,,,,Grove Farm,,North Road,,,,Southbound,,S,E0042674,South Ockendon,,,South Ockendon,,,,1,UKOS,559566,184078,0.299157,51.533063,BCT,MKD,OTH,,,,059,2004-11-08T00:00:00.000,2021-03-12T10:49:06.000,1,revise,active
1590046201,thudadp,,,Kent Road,,,,Kent Road,,East Thurrock Road,,,,Eastbound,,E,E0042664,Grays,,,Grays,,,,1,UKOS,562131,177890,0.333263,51.47674,BCT,MKD,OTH,,,,059,2004-11-08T00:00:00.000,2022-03-14T15:30:58.267,2,revise,inactive
1590046401,thudadt,,,Calcutta Road,,,,Calcutta Road,,St Chad's Road,,,,S-bound,,S,E0042682,Tilbury,,,Tilbury,,,,1,UKOS,564298,176360,0.363728,51.46237,BCT,MKD,TIP,,,,059,2004-11-08T00:00:00.000,2018-09-03T11:47:00.000,2,revise,active
1590046501,thudadw,,,Central Avenue,,,,Central Avene,,St Chad's Road,,,,N-bound,,N,E0042682,Tilbury,,,Tilbury,,,,1,UKOS,564266,176665,0.36341,51.46512,BCT,MKD,OTH,,,,059,2004-11-08T00:00:00.000,2018-09-03T11:46:00.000,3,revise,active
1590046801,thudaga,,,The Haven,,,,Bypass Roundabout,,River View,,,,W-bound,,W,E0042659,Chadwell St Mary,,,Chadwell St Mary,,,,1,UKOS,563994,178511,0.360354,51.481783,BCT,MKD,OTH,,,,059,2004-11-08T00:00:00.000,2019-05-28T12:07:00.000,3,revise,active
1590047001,thudagd,,,Grangewood Avenue,,,,Grangewood Avenue,,King Edward Drive,,,,Southbound,,S,E0042664,Grays,,,Little Thurrock,,,,1,UKOS,563301,179203,0.350702,51.4882,BCT,MKD,OTH,,,,059,2005-02-07T00:00:00.000,2011-02-10T12:19:00.000,4,revise,inactive
1590047101,thudagj,,,Usk Rd,,,,Usk Rd Aveley,,Usk Road,,,,W-bound,,W,E0042653,Aveley,,,Aveley,,,,1,UKOS,556259,181359,0.250314,51.509559,BCT,MKD,TIP,,,,059,2004-11-08T00:00:00.000,2019-05-28T10:54:00.000,3,revise,active
1590047201,thudagm,,,Foyle Drive,,,,Foyle Drive,,Stifford Road,,,,Eastbound,,E,E0042674,South Ockendon,,,South Ockendon,,,,1,UKOS,558140,180743,0.27712,51.503502,BCT,MKD,OTH,,,,059,2004-11-08T00:00:00.000,2023-03-27T15:45:04.285,2,revise,inactive
1590047301,thudagp,,,Trent,,,,E Tilbury BATA,,Coronation Avenue,,,,SW-bound,,SW,E0042662,East Tilbury,,,East Tilbury,,,,1,UKOS,568374,178652,0.423439,51.481764,BCT,MKD,OTH,,,,059,2004-11-08T00:00:00.000,2019-07-01T12:11:00.000,6,revise,active
1590047401,thudagt,,,Trent,,,,E Tilbury BATA,,Coronation Avenue,,,,NE-bound,,NE,E0042662,East Tilbury,,,East Tilbury,,,,1,UKOS,568344,178648,0.423005,51.481737,BCT,MKD,OTH,,,,059,2004-11-08T00:00:00.000,2019-07-01T12:13:00.000,7,revise,active
1590047501,thudagw,,,Stifford Clays Road,,,,Blackshots Lane,,Stifford Clays Road,,,,SW-bound,,SW,E0042678,Stifford Clays,Grays,,Stifford Clays,,,,1,UKOS,561739,180727,0.328924,51.502345,BCT,MKD,OTH,,,,059,2004-11-08T00:00:00.000,2022-09-05T13:37:22.105,3,revise,active
1590047601,thudaja,,,Ferry Road,,,,Custom House,,Ferry Road,,,,NW-bound,,NW,E0042682,Tilbury,,,Tilbury,,,,1,UKOS,564123,175860,0.36098,51.457929,BCT,MKD,OTH,,,,059,2005-02-08T00:00:00.000,2013-08-15T15:53:00.000,2,revise,active
1590047901,thudajm,,,Blenheim Gardens,,,,Blenheim Gardens,,Purfleet Road,,,,Westbound,,W,E0042653,Aveley,,,Aveley,,,,1,UKOS,555978,180126,0.245724,51.498558,BCT,MKD,TIP,,,,059,2004-11-08T00:00:00.000,2023-01-25T11:34:09.404,3,revise,active
1590048101,thudajp,,,Herd Lane,,,,Herd Lane,,Fobbing Road,,,,W-bound,,W,E0042660,Corringham,,,Corringham,,,,1,UKOS,570994,183631,0.463545,51.525705,BCT,MKD,OTH,,,,059,2004-11-08T00:00:00.000,2019-07-01T10:44:00.000,2,revise,active
1590048201,thudajt,,,Costco Roundabout,,,,Retail Park Costco Roundabout,,West Thurrock Way,,,,E-bound,,E,N0060756,Lakeside,,,Lakeside,,,,0,UKOS,558329,178611,0.278886,51.484294,BCT,MKD,OTH,,,,059,2004-11-08T00:00:00.000,2022-08-01T12:41:47.563,4,revise,active
1590048301,thudajw,,,Watts Crescent,,,,Uplands Estate,,Watts Crescent,,,,on,,NW,N0060757,Purfleet,,,Purfleet,,,,1,UKOS,556307,178721,0.249838,51.485844,BCT,MKD,TIP,,,,059,2004-11-08T00:00:00.000,2013-06-18T14:07:00.000,3,revise,active
1590048401,thudmpa,,,Chadwell Road,,,,Rectory Road,,Chadwell Road,,,,Westbound,,W,E0042667,Little Thurrock,Grays,,Little Thurrock,,,,1,UKOS,562562,178700,0.339836,51.483894,BCT,MKD,OTH,,,,059,2004-11-08T00:00:00.000,2021-01-29T11:43:00.000,5,revise,active
1590048501,thudama,,,Bridge Road,,,,Bridge Road,,East Thurrock Road,,,,Eastbound,,E,E0042664,Grays,,,Grays,,,,1,UKOS,561987,177886,0.33119,51.476746,BCT,MKD,TIP,,,,059,2004-11-08T00:00:00.000,2020-09-12T13:28:14.000,1,revise,active
1590048601,thudamd,,,Clarence Road,,,,Stanley Road Alight Only,,Clarence Road,,,,W-bound,,W,E0042664,Grays,,,Grays,,,,1,UKOS,561715,177995,0.327326,51.477803,BCT,MKD,OTH,,,,059,2006-04-04T00:00:00.000,2019-07-01T13:14:00.000,2,revise,active
1590048701,thudamg,,,Dock Road,,,,Malta Road,,Dock Road,,,,Westbound,,NW,E0042682,Tilbury,,,Tilbury,,,,1,UKOS,563834,176239,0.356999,51.461418,BCT,MKD,TIP,,,,059,2004-11-08T00:00:00.000,2021-01-29T11:45:50.000,2,revise,active
1590048801,thudamj,,,Sydney Road,,,,Sydney Road,,Dock Road,,,,adj,,SE,E0042682,Tilbury,,,Tilbury,,,,1,UKOS,564058,176075,0.360145,51.45988,BCT,MKD,OTH,,,,059,2004-11-08T00:00:00.000,2013-05-13T14:37:00.000,4,revise,active
1590048901,thudamp,,,The Beeches,,,,The Beeches,,Hume Avenue,,,,opp,,NE,E0042682,Tilbury,,,Tilbury,,,,1,UKOS,564592,176074,0.367824,51.459716,BCT,MKD,TIP,,,,059,2004-11-08T00:00:00.000,2013-08-15T16:13:00.000,2,revise,active
1590049001,thudmpd,,,Davis Road,,,,Sandmartin,,Drake Road,,,,Northbound,,N,N0060755,Chafford Hundred,,,Chafford Hundred,,,,1,UKOS,560689,179216,0.31312,51.489064,BCT,MKD,TIP,,,,059,2004-11-08T00:00:00.000,2009-06-29T13:24:00.000,2,revise,active
1590049101,thudamt,,,Davis Road,,,,Sandmartin,,Drake Road,,,,S-bound,,S,N0060755,Chafford Hundred,,,Chafford Hundred,,,,1,UKOS,560699,179259,0.313278,51.489451,BCT,MKD,TIP,,,,059,2004-11-08T00:00:00.000,2024-07-26T20:15:28.195,3,revise,active
1590049201,thudamw,,,The Drake Community Centre,,,,Camden Road,,Drake Road,,,,S-bound,,S,N0060755,Chafford Hundred,,,Chafford Hundred,,,,1,UKOS,560634,179399,0.312412,51.490724,BCT,MKD,TIP,,,,059,2004-11-08T00:00:00.000,2019-06-14T08:58:00.000,2,revise,active
1590049301,thudapa,,,The Drake Community Centre,,,,Camden Road,,Drake Road,,,,N-bound,,N,N0060755,Chafford Hundred,,,Chafford Hundred,,,,1,UKOS,560603,179421,0.311976,51.490931,BCT,MKD,TIP,,,,059,2004-11-08T00:00:00.000,2019-06-14T09:04:00.000,2,revise,active
1590049401,thudapd,,,Fenton Road,,,,Parry Heights,,Drake Road,,,,E-bound,,E,N0060755,Chafford Hundred,,,Chafford Hundred,,,,1,UKOS,560463,179611,0.310047,51.492677,BCT,MKD,TIP,,,,059,2004-11-08T00:00:00.000,2019-06-14T09:08:00.000,5,revise,active
1590049501,thudapg,,,Fenton Road,,,,Parry Heights,,Drake Road,,,,W-bound,,W,N0060755,Chafford Hundred,,,Chafford Hundred,,,,1,UKOS,560436,179605,0.309656,51.492631,BCT,MKD,TIP,,,,059,2004-11-08T00:00:00.000,2019-06-14T09:14:00.000,4,revise,active
1590049601,thudapj,,,Cumberland Road,,,,Cumberland Rod,,Drake Road,,,,SW-bound,,SW,N0060755,Chafford Hundred,,,Chafford Hundred,,,,1,UKOS,560128,179526,0.305187,51.492009,BCT,MKD,OTH,,,,059,2004-11-08T00:00:00.000,2021-02-04T10:12:26.000,8,revise,active
1590049701,thudapm,,,Cumberland Road,,,,Cumberland Road,,Drake Road,,,,NE-bound,,NE,N0060755,Chafford Hundred,,,Chafford Hundred,,,,1,UKOS,560141,179549,0.305385,51.492212,BCT,MKD,OTH,,,,059,2004-11-08T00:00:00.000,2021-02-04T10:01:40.000,9,revise,active
1590049801,thudapt,,,Medical Centre,,,,Medical Centre,,Drake Road,,,,opp,,NW,N0060755,Chafford Hundred,,,Chafford Hundred,,,,1,UKOS,560008,179340,0.303376,51.490371,BCT,MKD,TIP,,,,059,2004-11-08T00:00:00.000,2018-07-26T13:22:00.000,1,revise,active
1590049901,thudapw,,,Medical Centre,,,,Medical Centre,,Drake Road,,,,o/s,,S,N0060755,Chafford Hundred,,,Chafford Hundred,,,,1,UKOS,560046,179302,0.303895,51.490023,BCT,MKD,TIP,,,,059,2004-11-08T00:00:00.000,2024-07-26T20:19:42.000,3,revise,active
1590050001,thudata,,,Rainbow Road Victory Close,,,,Victory Close,,Rainbow Road,,,,Westbound,,W,N0060755,Chafford Hundred,,,Chafford Hundred,,,,1,UKOS,559489,178896,0.295706,51.486529,BCT,MKD,TIP,,,,059,2004-11-08T00:00:00.000,2020-12-18T10:01:07.000,1,revise,active
1590050101,thudatd,,,Rainbow Road Victory Close,,,,Victory Close,,Rainbow Road,,,,Eastbound,,E,N0060755,Chafford Hundred,,,Chafford Hundred,,,,1,UKOS,559504,178911,0.295929,51.486659,BCT,MKD,TIP,,,,059,2004-11-08T00:00:00.000,2004-11-08T00:00:00.000,0,new,active
1590050201,thudatg,,,Hampton Close,,,,Kershaw Close,,Grifon Road,,,,Northbound,,N,N0060755,Chafford Hundred,,,Chafford Hundred,,,,1,UKOS,559461,179028,0.295353,51.487729,BCT,MKD,TIP,,,,059,2005-02-08T00:00:00.000,2023-06-07T15:19:06.580,2,revise,active
1590050301,thudatj,,,Hampton Close,,,,Kershaw Close,,Grifon Road,,,,Southbound,,S,N0060755,Chafford Hundred,,,Chafford Hundred,,,,1,UKOS,559471,179048,0.295507,51.487902,BCT,MKD,TIP,,,,059,2004-11-08T00:00:00.000,2023-06-07T15:18:47.274,2,revise,active
1590050401,thudatm,,,Warren School,,,,School,,Gilbert Road,,,,Eastbound,,E,N0060755,Chafford Hundred,,,Chafford Hundred,,,,1,UKOS,559421,179217,0.294868,51.48943,BCT,MKD,TIP,,,,059,2004-11-08T00:00:00.000,2023-06-07T15:19:57.025,3,revise,active
1590050501,thudatp,,,Warren School,,,,School,,Gilbert Road,,,,Westbound,,W,N0060755,Chafford Hundred,,,Chafford Hundred,,,,1,UKOS,559390,179203,0.294409,51.489313,BCT,MKD,TIP,,,,059,2004-11-08T00:00:00.000,2023-06-07T15:19:34.990,3,revise,active
1590050601,thudatw,,,Burghley Road,,,,Burghley Rd,,Burghley Road,,,,W-bound,,W,N0060755,Chafford Hundred,,,Chafford Hundred,,,,1,UKOS,559194,179310,0.291648,51.490331,BCT,MKD,TIP,,,,059,2004-11-08T00:00:00.000,2019-06-13T15:20:00.000,2,revise,active
1590050701,thudawa,,,Burghley Road,,,,Chafford Pub,,Burghley Road,,,,E-bound,,E,N0060755,Chafford Hundred,,,Chafford Hundred,,,,1,UKOS,559218,179333,0.292003,51.490531,BCT,MKD,TIP,,,,059,2004-11-08T00:00:00.000,2019-06-13T15:19:00.000,1,revise,active
1590050801,thudawd,,,Fleming Road,,,,Francisco Close,,Burghley Road,,,,S-bound,,S,N0060755,Chafford Hundred,,,Chafford Hundred,,,,1,UKOS,559006,179089,0.288843,51.488399,BCT,MKD,OTH,,,,059,2004-11-08T00:00:00.000,2019-06-13T15:39:00.000,2,revise,active
1590051001,thudawj,,,Saffron Road,,,,Swiftsure Road,,Saffron Road,,,,E-bound,,E,N0060755,Chafford Hundred,,,Chafford Hundred,,,,1,UKOS,559177,178791,0.291169,51.485673,BCT,MKD,OTH,,,,059,2004-11-08T00:00:00.000,2013-08-16T10:39:00.000,5,revise,active
1590051101,thudawm,,,Saffron Road,,,,Swiftsure Road,,Saffron Road,,,,Westbound,,W,N0060755,Chafford Hundred,,,Chafford Hundred,,,,1,UKOS,559153,178780,0.290819,51.485581,BCT,MKD,OTH,,,,059,2004-11-08T00:00:00.000,2020-12-18T11:56:01.000,2,revise,active
1590051201,thudawp,,,Rainbow Road Felipe Close,,,,Felipe Close,,Rainbow Road,,,,Eastbound,,E,N0060755,Chafford Hundred,,,Chafford Hundred,,,,1,UKOS,559360,178908,0.293855,51.486673,BCT,MKD,OTH,,,,059,2004-11-08T00:00:00.000,2004-11-08T00:00:00.000,0,new,active
1590051301,thudawt,,,Rainbow Road Felipe Close,,,,Felipe Close,,Rainbow Road,,,,Westbound,,W,N0060755,Chafford Hundred,,,Chafford Hundred,,,,1,UKOS,559350,178896,0.293706,51.486568,BCT,MKD,OTH,,,,059,2004-11-08T00:00:00.000,2020-12-18T11:52:46.000,1,revise,active
1590051401,thudgad,,,Maunder Close,,,,Maunder Close,,Lancaster Road,,,,adj,,NE,N0060755,Chafford Hundred,,,Chafford Hundred,,,,1,UKOS,559818,178624,0.300318,51.483992,BCT,MKD,OTH,,,,059,2004-11-08T00:00:00.000,2020-09-10T08:24:43.000,4,revise,active
1590051501,thudgag,,,Mayflower Road Library Campus,,,,Library,,Mayflower Road,,,,Westbound,,W,N0060755,Chafford Hundred,,,Chafford Hundred,,,,1,UKOS,559215,178476,0.291574,51.482833,BCT,MKD,OTH,,,,059,2004-11-08T00:00:00.000,2020-09-10T08:22:06.000,3,revise,active
1590051601,thudgaj,,,Mayflower Road Library Campus,,,,Library,,Mayflower Road,,,,Eastbound,,E,N0060755,Chafford Hundred,,,Chafford Hundred,,,,1,UKOS,559173,178491,0.290976,51.482979,BCT,MKD,OTH,,,,059,2004-11-08T00:00:00.000,2009-06-19T13:51:00.000,2,revise,active
1590051701,thudpjg,,,Tilbury Docks Main Entrance,,,,Tilbury Docks Main Entrance,,St Andrews Road,,,,adj,,NW,E0042682,Tilbury,,,,,,,1,UKOS,563314,176507,0.349644,51.463976,BCT,MKD,OTH,,,,059,2013-08-15T15:45:00.000,2013-08-15T15:45:00.000,0,new,active
1590060001,thuadaj,,,Bus Station,,,,Grays Bus Stn,,Crown Road,,,,Bay 1,,,E0042664,Grays,,,Grays,,,,1,UKOS,561285,177848,0.321073,51.476605,BCS,,PPT,,,,059,2004-11-08T00:00:00.000,2017-03-22T15:29:00.000,10,revise,active
1590060002,thuadam,,,Bus Station,,,,Grays Bus Stn,,Crown Road,,,,Bay 2,,,E0042664,Grays,,,Grays,,,,1,UKOS,561263,177851,0.320758,51.476638,BCS,,PPT,,,,059,2004-11-08T00:00:00.000,2017-03-22T15:30:00.000,10,revise,active
1590060003,thuadap,,,Bus Station,,,,Grays Bus Stn,,Crown Road,,,,Bay 3,,,E0042664,Grays,,,Grays,,,,1,UKOS,561243,177851,0.32047,51.476644,BCS,,PPT,,,,059,2004-11-08T00:00:00.000,2017-03-22T15:30:00.000,11,revise,active
1590060004,thuadat,,,Bus Station,,,,Grays Bus Stn,,Crown Road,,,,Bay 4,,,E0042664,Grays,,,Grays,,,,1,UKOS,561184,177855,0.319623,51.476696,BCS,,PPT,,,,059,2004-11-08T00:00:00.000,2017-03-22T15:29:00.000,10,revise,active
1590060005,thuadaw,,,Bus Station,,,,Grays Bus Stn,,Crown Road,,,,Bay 5,,,E0042664,Grays,,,Grays,,,,1,UKOS,561219,177870,0.320133,51.476821,BCS,,PPT,,,,059,2004-11-08T00:00:00.000,2017-03-22T15:30:00.000,10,revise,active
1590060006,thuadga,,,Bus Station,,,,Grays Bus Stn,,Crown Road,,,,Bay 6,,,E0042664,Grays,,,Grays,,,,1,UKOS,561238,177868,0.320406,51.476798,BCS,,PPT,,,,059,2004-11-08T00:00:00.000,2017-03-22T15:31:00.000,11,revise,active
1590060101,thuadgd,,,Bus Station,,,,Lakeside,,Lakeside Service Road,,,,Bay A,,,N0060756,Lakeside,,,Lakeside,,,,1,UKOS,558632,179274,0.283543,51.490166,BCS,,PPT,,,,059,2004-11-08T00:00:00.000,2020-09-09T14:43:52.000,7,revise,active
1590060102,thuadgj,,,Bus Station,,,,Lakeside,,Lakeside Service Road,,,,Bay B,,,N0060756,Lakeside,,,Lakeside,,,,1,UKOS,558615,179272,0.283298,51.490153,BCS,,PPT,,,,059,2004-11-08T00:00:00.000,2020-09-09T14:42:31.000,6,revise,active
1590060103,thuadgm,,,Bus Station,,,,Lakeside,,Lakeside Service Road,,,,Bay C,,,N0060756,Lakeside,,,Lakeside,,,,1,UKOS,558591,179269,0.282951,51.490132,BCS,,PPT,,,,059,2004-11-08T00:00:00.000,2020-09-09T14:40:33.000,6,revise,active
1590060104,thuadgp,,,Bus Station,,,,Lakeside,,Lakeside Service Road,,,,Bay D,,,N0060756,Lakeside,,,Lakeside,,,,1,UKOS,558575,179267,0.28272,51.490119,BCS,,PPT,,,,059,2004-11-08T00:00:00.000,2020-09-09T14:41:29.000,6,revise,active
1590060105,thuadgt,,,Bus Station,,,,Lakeside,,Lakeside Service Road,,,,Bay E,,,N0060756,Lakeside,,,Lakeside,,,,1,UKOS,558560,179265,0.282503,51.490105,BCS,,PPT,,,,059,2004-11-08T00:00:00.000,2013-12-11T12:42:00.000,5,revise,active
1590060106,thuadgw,,,Bus Station,,,,Lakeside,,Lakeside Service Road,,,,Bay F,,,N0060756,Lakeside,,,Lakeside,,,,1,UKOS,558629,179290,0.283507,51.49031,BCS,,PPT,,,,059,2004-11-08T00:00:00.000,2020-09-09T14:45:11.000,5,revise,active
1590060107,thuadja,,,Bus Station,,,,Lakeside,,Lakeside Service Road,,,,Bay G,,,N0060756,Lakeside,,,Lakeside,,,,1,UKOS,558612,179288,0.283262,51.490297,BCS,,PPT,,,,059,2004-11-08T00:00:00.000,2020-09-09T14:46:16.000,5,revise,active
1590060108,thuadjd,,,Bus Station,,,,Lakeside,,Lakeside Service Road,,,,Bay H,,,N0060756,Lakeside,,,Lakeside,,,,1,UKOS,558590,179285,0.282944,51.490276,BCS,,PPT,,,,059,2004-11-08T00:00:00.000,2020-09-09T14:47:36.000,6,revise,active
1590060109,thuadjg,,,Bus Station,,,,Lakeside,,Lakeside Service Road,,,,Bay J,,,N0060756,Lakeside,,,Lakeside,,,,1,UKOS,558573,179284,0.282699,51.490272,BCS,,PPT,,,,059,2004-11-08T00:00:00.000,2020-09-09T14:54:02.000,5,revise,active
1590060110,thuadjm,,,Bus Station,,,,Lakeside,,Lakeside Service Road,,,,Bay K,,,N0060756,Lakeside,,,Lakeside,,,,1,UKOS,558557,179281,0.282467,51.49025,BCS,,PPT,,,,059,2004-11-08T00:00:00.000,2020-09-09T14:55:08.000,5,revise,active
1590060111,thuadjp,,,Bus Station,,,,Lakeside,,Lakeside Service Road,,,,Bay L,,,N0060756,Lakeside,,,Lakeside,,,,1,UKOS,558627,179306,0.283486,51.490455,BCS,,PPT,,,,059,2004-11-08T00:00:00.000,2020-09-09T14:59:27.000,5,revise,active
1590060112,thuadjt,,,Bus Station,,,,Lakeside,,Lakeside Service Road,,,,Bay M,,,N0060756,Lakeside,,,Lakeside,,,,1,UKOS,558611,179304,0.283255,51.490441,BCS,,PPT,,,,059,2004-11-08T00:00:00.000,2020-09-09T14:58:16.000,5,revise,active
1590060113,thuadjw,,,Bus Station,,,,Lakeside,,Lakeside Service Road,,,,Bay N,,,N0060756,Lakeside,,,Lakeside,,,,1,UKOS,558587,179301,0.282908,51.490421,BCS,,PPT,,,,059,2004-11-08T00:00:00.000,2020-09-09T14:57:17.000,6,revise,active
1590060114,thuadma,,,Bus Station,,,,Lakeside,,Lakeside Service Road,,,,Bay P,,,N0060756,Lakeside,,,Lakeside,,,,1,UKOS,558570,179299,0.282662,51.490408,BCS,,PPT,,,,059,2004-11-08T00:00:00.000,2020-09-09T14:56:15.000,5,revise,active
15900704501,thudpg,,,Recreation Ground,,,,Recreation Ground,,Orsett Road,,,,opp,,W,E0042665,Horndon on the Hill,,,Orsett,,,,0,UKOS,566438,183048,0.397656,51.521828,BCT,HAR,OTH,,,,059,2007-05-17T10:48:00.000,2013-06-18T14:45:00.000,5,revise,active
15900704801,thudpmd,,,Peartree Close,,,,,,West Road,,,,adj,,E,E0042674,South Ockendon,,,,,South Ockendon,,0,UKOS,559393,182969,0.296164,51.523149,BCT,MKD,OTH,,,,059,2007-04-11T17:03:00.000,2013-08-16T11:24:00.000,4,revise,active
15900705135,thuawj,,,Felicia Way,,,,Felicia Way,,Brentwood Road,,,,adj,,S,E0042659,Chadwell St Mary,,,,,,,0,UKOS,564619,178919,0.369533,51.485267,BCT,MKD,OTH,,,,059,2012-11-14T10:02:00.000,2023-06-29T08:54:50.815,4,revise,active
159007075118,thuajm,,,Caravan Park,,,,Caravan Park,,Pilgrims Lane,,,,Northbound,,N,N0060760,North Stifford,,,,,,,0,UKOS,559444,179824,0.295477,51.494879,BCT,MKD,OTH,,,,059,2009-08-10T13:31:00.000,2013-03-14T15:53:00.000,3,revise,active
159007075128,thuapj,,,Inn on the Green,,,,Inn on the Green,,Church Hill,,,,o/s,,S,E0042676,Stanford le Hope,,,Stanford le Hope,,,,0,UKOS,568503,182271,0.427022,51.514236,BCT,MKD,OTH,,,,059,2011-03-01T09:26:00.000,2013-05-15T10:52:00.000,1,revise,active
159007075129,thuapt,,,First Avenue,,,,The Rabbits,,London Road,,,,opp,,W,E0042686,West Thurrock,,,,,,,0,UKOS,558110,177662,0.27531,51.475829,BCT,MKD,OTH,,,,059,2011-06-08T13:00:00.000,2024-07-18T13:49:08.209,5,revise,active
159007075130,thuatg,,,Motherwell Way,,,,London Road,,Motherwell Way,,,,Southbound,,S,E0042686,West Thurrock,,,,,,,0,UKOS,558075,177704,0.274825,51.476216,BCT,MKD,OTH,,,,059,2011-10-04T15:30:00.000,2011-10-04T15:30:00.000,0,new,active
159007075132,thuatm,,,Windsor Avenue,,,,Windsor Avenue,,Long Lane,,,,adj,,W,E0042678,Stifford Clays,Grays,,,,,,0,UKOS,561707,179991,0.328125,51.495737,BCT,MKD,OTH,,,,059,2012-09-25T10:51:00.000,2013-05-15T15:06:00.000,1,revise,active
159007075133,thuatp,,,Thurrock Community Hospital,,,,Thurrock Hosp,,Long Lane,,,,nr,,W,E0042678,Stifford Clays,Grays,,,,,,0,UKOS,562411,180022,0.338271,51.495814,BCT,MKD,OTH,,,,059,2012-09-25T10:53:00.000,2020-10-15T09:44:59.000,4,revise,active
159007075134,thuawg,,,Welling Road,,,,Beauchamp Gate Estate,,Welling Road,,,,Westbound,,W,E0042672,Orsett,,,,,,,0,UKOS,565682,181087,0.385849,51.504433,BCT,MKD,OTH,,,,059,2012-10-09T10:47:00.000,2012-10-09T10:47:00.000,0,new,active
15900707514,thuatw,,,Brentwood Road,,,,Defoe Parade,,Brentwood Road,,,,SW-bound,,SW,E0042659,Chadwell St Mary,,,,,,,0,UKOS,564667,179247,0.37038,51.4882,BCT,MKD,OTH,,,,059,2012-09-25T10:55:00.000,2023-10-12T10:38:13.819,7,revise,active
1590100801,,,,Derwent Parade,,,,Derwent Parade,,Derwent Parade,,,,taxi rank,,,E0042674,South Ockendon,,,South Ockendon,,,,1,UKOS,558547,181491,0.283313,51.510113,TXR,,,,,,059,2004-11-08T00:00:00.000,2023-03-27T16:17:52.131,3,revise,active
1590100901,,,,St John's Way,,,,St John's Way,,St John's Way,,,,taxi rank,,,E0042660,Corringham,,,Corringham,,,,1,UKOS,569877,183496,0.447394,51.52483,TXR,,,,,,059,2004-11-08T00:00:00.000,2013-08-15T15:48:00.000,1,revise,active
1590101001,,,,High Street,,,,Taxi Rank,,High Street,,,,taxi rank,,,E0042653,Aveley,,,Aveley,,,,1,UKOS,556567,180201,0.254235,51.49907,TXR,,,,,,059,2004-11-08T00:00:00.000,2013-08-15T15:49:00.000,1,revise,active
1590101101,,,,Tilbury Town Rail Station,,,,Taxi Rank,,Dock Road,,,,Taxi rank,,,E0042682,Tilbury,,,Tilbury,,,,1,UKOS,563633,176378,0.354173,51.462725,TXR,,,,,,059,2004-11-08T00:00:00.000,2009-08-18T10:57:00.000,6,revise,active
1590101301,,,,Cart Lane,,,,Cart Lane,,Derby Road,,,,taxi rank,,,E0042664,Grays,,,Grays,,,,1,UKOS,561558,178046,0.325091,51.478306,TXR,,,,,,059,2004-11-08T00:00:00.000,2013-08-15T15:49:00.000,1,revise,active
1590101401,,,,Clarence Road,,,,Clarence Road,,Clarence Road,,,,taxi rank,,,E0042664,Grays,,,Grays,,,,1,UKOS,561544,178000,0.324868,51.477896,TXR,,,,,,059,2004-11-08T00:00:00.000,2013-08-15T15:50:00.000,1,revise,active
1590101501,,,,Grays Rail Station,,,,Railway Station,,Crown Road,,,,Taxi rank,,,E0042664,Grays,,,Grays,,,,1,UKOS,561344,177848,0.321922,51.476588,TXR,,,,,,059,2004-11-08T00:00:00.000,2009-08-18T10:57:00.000,5,revise,active
1590101601,,,,Giffords Cross Road,,,,Railway Tavern,,Giffords Cross Road,,,,taxi rank,,,E0042660,Corringham,,,Corringham,,,,1,UKOS,570308,183247,0.45348,51.522463,TXR,,,,,,059,2004-11-08T00:00:00.000,2013-08-15T15:50:00.000,1,revise,active
15906049,thuadad,,,Bus Station,,,,Grays Bus Stn,,York Place,,,,Bay 7,,,E0042664,Grays,,,Grays,,,,1,UKOS,561258,177868,0.320693,51.476792,BCS,,PPT,,,,059,2004-11-08T00:00:00.000,2013-11-06T08:33:00.000,8,revise,active
15906050,thuadag,,,Bus Station,,,,Grays Bus Stn,,York Place,,,,Bay 8,,,E0042664,Grays,,,Grays,,,,1,UKOS,561278,177866,0.32098,51.476768,BCS,,PPT,,,,059,2004-11-08T00:00:00.000,2013-11-06T08:34:00.000,8,revise,active
159070000,thudpmp,,,London Gateway Terminal Gate 3,,,,London Gateway,,The Manorway,,,,o/s,,NW,E0042661,Coryton,,,,,,,1,UKOS,573269,182652,0.495825,51.516218,BCT,MKD,OTH,,,,059,2013-12-13T15:32:00.000,2014-07-01T10:37:00.000,3,revise,active
1590700101,thudgam,,,Stanley Road,,,,Stanley Road,,Bedford Road,,,,N-bound,,N,E0042664,Grays,,,Grays,,,,1,UKOS,561645,178142,0.326386,51.479143,BCT,MKD,OTH,,,,059,2004-11-08T00:00:00.000,2019-07-01T13:09:00.000,2,revise,active
1590700201,thudgap,,,Ikea,,,,West Thurrock Way A126,,West Thurrock Way,,,,Southbound,,S,E0042686,West Thurrock,,,West Thurrock,,,,1,UKOS,558920,178078,0.287141,51.479346,BCT,MKD,OTH,,,,059,2004-11-08T00:00:00.000,2021-11-04T17:21:47.291,2,revise,active
1590700301,thudgat,,,Ikea,,,,West Thurrock Way A126,,West Thurrock Way,,,,Northbound,,N,E0042686,West Thurrock,,,West Thurrock,,,,1,UKOS,558922,178045,0.287164,51.479043,BCT,MKD,OTH,,,,059,2004-11-08T00:00:00.000,2009-07-02T14:06:00.000,1,revise,active
1590700401,thudgaw,,,Kingsman Drive,,,,Kingsman Drv,,Prince Philip Avenue,,,,W-bound,,W,E0042678,Stifford Clays,Grays,,Stifford Clays,,,,1,UKOS,561723,180627,0.328635,51.501451,BCT,MKD,OTH,,,,059,2005-10-11T00:00:00.000,2021-11-23T11:13:00.130,4,revise,active
1590700501,thudgda,,,Kingsman Drive,,,,Stifford Clays,,Kingsman Drive,,,,S-bound,,S,E0042678,Stifford Clays,Grays,,Stifford Clays,,,,1,UKOS,561631,180631,0.327324,51.501509,BCT,MKD,OTH,,,,059,2005-10-11T00:00:00.000,2014-01-20T12:07:00.000,5,revise,active
1590700601,thudgdj,,,Thurrock Services,,,,Thurrock Services,,Coach Park,,,,at,,SE,E0042686,West Thurrock,,,West Thurrock,,,,1,UKOS,557740,179345,0.270738,51.491053,BCT,CUS,OTH,,,,059,2004-11-08T00:00:00.000,2023-10-12T12:33:43.292,4,revise,active
1590700701,thudmpg,,,Grays End Close,,,,Grays End Close,,Hogg Lane,,,,N-bound,,N,E0042664,Grays,,,Grays,,,,1,UKOS,561100,179324,0.319084,51.489918,BCT,MKD,OTH,,,,059,2004-11-08T00:00:00.000,2019-07-03T14:09:00.000,2,revise,active
1590700801,thudmpj,,,Jesmond Road,,,,Laird Avenue,,Jesmond Road,,,,Southbound,,S,N0076735,Socketts Heath,Grays,,Socketts Heath,,,,1,UKOS,562934,180006,0.345786,51.49552,BCT,MKD,TIP,,,,059,2004-11-08T00:00:00.000,2022-01-27T17:16:30.934,2,revise,active
1590701101,thudmpt,,,Back Lane,,,,Thurrock Hotel,,Ship Lane,,,,N-bound,,N,E0042653,Aveley,,,Aveley,,,,1,UKOS,557207,179040,0.262931,51.488461,BCT,MKD,OTH,,,,059,2004-11-08T00:00:00.000,2019-05-28T10:42:00.000,2,revise,active
1590701201,thudmpw,,,Back Lane,,,,Thurrock Hotel,,Ship Lane,,,,S-bound,,S,E0042653,Aveley,,,Aveley,,,,1,UKOS,557204,179148,0.262936,51.489432,BCT,MKD,OTH,,,,059,2004-11-08T00:00:00.000,2019-05-28T10:43:00.000,2,revise,active
1590701301,thudmta,,,Pilgrims Roundabout,,,,Sainsburys,,Arterial Road,,,,Westbound,,W,N0060756,Lakeside,,,Lakeside,,,,1,UKOS,559346,179541,0.293939,51.492364,BCT,MKD,OTH,,,,059,2004-11-08T00:00:00.000,2009-07-10T11:32:00.000,1,revise,active
1590701401,thudmtd,,,Pilgrims Roundabout,,,,Sainsburys,,Arterial Road,,,,Eastbound,,E,N0060756,Lakeside,,,Lakeside,,,,1,UKOS,559265,179537,0.292772,51.492351,BCT,MKD,OTH,,,,059,2004-11-08T00:00:00.000,2009-07-10T11:30:00.000,1,revise,active
1590701501,thudmtg,,,Lancaster Road,,,,Mayflower Road,,Lancaster Road,,,,Northbound,,N,N0060755,Chafford Hundred,,,Chafford Hundred,,,,1,UKOS,559677,178329,0.298155,51.481382,BCT,MKD,OTH,,,,059,2004-11-08T00:00:00.000,2009-06-18T11:19:00.000,2,revise,active
1590701601,thudmtp,,,Montreal Road,,,,Dock Road,,Montreal Road,,,,Southbound,,S,E0042682,Tilbury,,,Tilbury,,,,1,UKOS,564266,175938,0.363072,51.458588,BCT,MKD,OTH,,,,059,2005-01-20T00:00:00.000,2005-01-20T00:00:00.000,0,new,active
1590701701,thudmtw,,,Sydney Road,,,,Sydney Road,,Dock Road,,,,opp,,NW,E0042682,Tilbury,,,Tilbury,,,,1,UKOS,564040,176061,0.359879,51.459759,BCT,MKD,OTH,,,,059,2005-01-20T00:00:00.000,2013-05-13T14:38:00.000,3,revise,active
1590701801,thudmwa,,,Calcutta Road,,,,Lansdown Road,,Calcutta Road,,,,Eastbound,,E,E0042682,Tilbury,,,Tilbury,,,,1,UKOS,563826,176313,0.356918,51.462085,BCT,MKD,OTH,,,,059,2005-01-20T00:00:00.000,2005-01-20T00:00:00.000,0,new,active
1590701901,thudmwd,,,Rectory Road Penn Close,,,,Prince Charles Avenue,,Rectory Road,,,,Northbound,,N,E0042672,Orsett,,,Orsett,,,,1,UKOS,564520,181969,0.369523,51.512703,BCT,HAR,OTH,,,,059,2005-09-05T00:00:00.000,2023-10-12T10:50:30.586,3,revise,active
1590702001,thudmwg,,,Prince Charles Avenue,,,,A128 Brentwood Road,,Prince Charles Avenue,,,,Eastbound,,E,E0042672,Orsett,,,Orsett,,,,1,UKOS,564501,182213,0.369373,51.514894,BCT,HAR,OTH,,,,059,2005-09-05T00:00:00.000,2008-08-12T12:13:00.000,2,revise,inactive
1590702101,thudmwj,,,Orsett Road,,,,Orsett Road,,Orsett Road,,,,Eastbound,,E,E0042672,Orsett,,,Orsett,,,,1,UKOS,565362,182278,0.381801,51.515226,BCT,HAR,OTH,,,,059,2005-09-05T00:00:00.000,2008-08-12T12:40:00.000,3,revise,inactive
1590702201,thudmwm,,,Gordon Road,,,,Hill Crest Road,,Gordon Road,,,,Northbound,,N,E0042665,Horndon on the Hill,,,Horndon,,,,1,UKOS,566578,183353,0.399817,51.524527,BCT,HAR,OTH,,,,059,2005-09-05T00:00:00.000,2008-08-12T13:58:00.000,1,revise,active
1590702301,thudmwp,,,Hill Crest Road,,,,School,,Hill Crest Road,,,,Eastbound,,E,E0042665,Horndon on the Hill,,,Horndon,,,,1,UKOS,566804,183583,0.40318,51.526526,BCT,HAR,OTH,,,,059,2005-09-05T00:00:00.000,2008-08-12T14:23:00.000,1,revise,active
1590702401,thudmwt,,,North Hill,,,,North Hill,,North Hill,,,,Northbound,,N,E0042665,Horndon on the Hill,,,Horndon,,,,1,UKOS,566944,183750,0.405275,51.527985,BCT,HAR,OTH,,,,059,2005-09-05T00:00:00.000,2008-08-12T14:34:00.000,1,revise,active
1590702501,thudpad,,,North Hill,,,,North Hill,,North Hill,,,,Southbound,,S,E0042665,Horndon on the Hill,,,Horndon,,,,1,UKOS,566962,183734,0.405527,51.527836,BCT,HAR,OTH,,,,059,2005-09-05T00:00:00.000,2008-08-12T14:33:00.000,2,revise,active
1590702601,thudpag,,,Hill Crest Road,,,,School,,Hill Crest Road,,,,Westbound,,W,E0042665,Horndon on the Hill,,,Horndon,,,,1,UKOS,566819,183573,0.403391,51.526432,BCT,HAR,OTH,,,,059,2005-09-05T00:00:00.000,2008-08-12T14:26:00.000,1,revise,active
1590702701,thudpaj,,,Victoria Road,,,,Orsett Road,,Victoria Road,,,,Southbound,,S,E0042665,Horndon on the Hill,,,Horndon,,,,1,UKOS,566679,183358,0.401274,51.524542,BCT,HAR,OTH,,,,059,2005-09-05T00:00:00.000,2021-05-25T10:33:25.000,3,revise,active
1590702801,thudpam,,,Orsett Road,,,,A128 Brentwood Road,,Orsett Road,,,,Westbound,,W,E0042672,Orsett,,,Orsett,,,,1,UKOS,566733,183187,0.40197,51.52299,BCT,HAR,OTH,,,,059,2005-09-05T00:00:00.000,2008-08-12T12:52:00.000,3,revise,inactive
1590702901,thudpap,,,Prince Charles Avenue,,,,A128 Brentwood Road,,Prince Charles Avenue,,,,Westbound,,W,E0042672,Orsett,,,Orsett,,,,1,UKOS,565314,182308,0.381123,51.51551,BCT,HAR,OTH,,,,059,2005-09-05T00:00:00.000,2008-08-12T12:13:00.000,2,revise,inactive
1590703001,thudpat,,,Rectory Road Penn Close,,,,Prince Charles Avenue,,Rectory Road,,,,Southbound,,S,E0042672,Orsett,,,Orsett,,,,1,UKOS,564514,182084,0.369501,51.513733,BCT,HAR,OTH,,,,059,2005-09-05T00:00:00.000,2022-09-05T13:33:31.667,3,revise,active
1590703101,thudpaw,,,Kerry Road,,,,Jesmond Road,,Kerry Road,,,,Southbound,,S,E0042678,Stifford Clays,Grays,,Stifford Clays,,,,1,UKOS,562914,180172,0.34558,51.497017,BCT,MKD,OTH,,,,059,2005-10-11T00:00:00.000,2009-06-23T11:50:00.000,3,revise,active
1590703201,thudpda,,,Fairway,,,,Blackthorn Road,,Fairway,,,,Northbound,,N,E0042678,Stifford Clays,Grays,,Stifford Clays,,,,1,UKOS,561847,180491,0.330356,51.500188,BCT,CUS,OTH,,,,059,2005-10-11T00:00:00.000,2022-01-27T17:25:02.870,1,revise,active
1590703301,thudpdg,,,Russell Road,,,,Russell Road,,Dock Road,,,,adj,,SE,E0042682,Tilbury,,,Tilbury,,,,1,UKOS,563376,176582,0.350571,51.464631,BCT,MKD,OTH,,,,059,2005-10-11T00:00:00.000,2009-06-26T10:49:00.000,2,revise,active
1590703401,thudpdj,,,Silverwood Close,,,,Kingsman Drive,,Stifford Clays Road,,,,opp,,W,E0042678,Stifford Clays,Grays,,Stifford Clays,,,,1,UKOS,561408,180588,0.324094,51.501186,BCT,MKD,OTH,,,,059,2005-10-11T00:00:00.000,2009-06-24T14:08:00.000,3,revise,active
1590703501,thudpdm,,,Silverwood Close,,,,Kingsman Drive,,Stifford Clays Road,,,,nr,,E,E0042678,Stifford Clays,Grays,,Stifford Clays,,,,1,UKOS,561385,180602,0.323769,51.501318,BCT,MKD,OTH,,,,059,2005-10-11T00:00:00.000,2009-06-24T14:09:00.000,3,revise,active
1590703601,thudpdp,,,Armour Road,,,,A1306,,Arterial Road,,,,Westbound,,W,N0060757,Purfleet,,,Purfleet,,,,1,UKOS,556776,178772,0.256609,51.486173,BCT,MKD,OTH,,,,059,2005-12-22T00:00:00.000,2005-12-22T00:00:00.000,0,new,active
1590703701,thudpdt,,,Armour Road,,,,A1306,,Arterial Road,,,,Eastbound,,E,N0060757,Purfleet,,,Purfleet,,,,1,UKOS,556959,178807,0.259258,51.486437,BCT,MKD,OTH,,,,059,2005-12-22T00:00:00.000,2005-12-22T00:00:00.000,0,new,active
1590703801,thudpdw,,,Warren Lane,,,,Lancaster Road,,Warren Lane,,,,E-bound,,E,N0060755,Chafford Hundred,,,Chafford Hundred,,,,1,UKOS,559970,178864,0.302613,51.486106,BCT,MKD,OTH,,,,059,2006-08-23T00:00:00.000,2023-10-12T10:31:52.307,13,revise,active
1590704001,thudpgd,,,St Clere's School,,,,St Clere's School,,Butts Lane,,,,o/s,,SE,E0042676,Stanford le Hope,,,Stanford,,,,1,UKOS,567953,181772,0.418865,51.509917,BCT,MKD,OTH,,,,059,2006-08-23T00:00:00.000,2020-12-17T10:16:22.000,3,revise,active
1590704501,thudpja,,,Laird Avenue,,,,opp No. 51,,Laird Avenue,,,,opp 51,,SW,E0042678,Stifford Clays,Grays,,Stifford Clays,,,,0,UKOS,562817,179936,0.344075,51.494925,BCT,MKD,OTH,,,,059,2007-04-05T11:45:00.000,2020-09-12T11:25:47.000,5,revise,active
1590704601,thudpjd,,,Kerry Road,,,,Jesmond Road,,Kerry Road,,,,N-bound,,N,E0042678,Stifford Clays,Grays,,Stifford Clays,,,,0,UKOS,562890,180180,0.345238,51.497096,BCT,MKD,OTH,,,,059,2007-04-05T11:47:00.000,2013-08-15T16:11:00.000,5,revise,active
1590704701,thudpgw,,,Laird Avenue,,,,Blackshots Lane,,Laird Avenue,,,,Eastbound,,NE,E0042678,Stifford Clays,Grays,,Stifford Clays,,,,0,UKOS,562636,179890,0.341449,51.494563,BCT,MKD,OTH,,,,059,2007-04-05T11:42:00.000,2020-09-12T11:45:46.000,7,revise,active
1590704801,thudpjp,,,Prince Charles Avenue,,,,A128 Brentwood Road,,Prince Charles Avenue,,,,Westbound,,W,E0042672,Orsett,,,Orsett,,,,0,UKOS,564958,182197,0.375946,51.514617,BCT,HAR,OTH,,,,059,2007-05-17T11:42:00.000,2009-08-18T11:26:00.000,3,revise,active
1590704901,thudpjt,,,Prince Charles Avenue,,,,A128 Brentwood Road,,Prince Charles Avenue,,,,Eastbound,,E,E0042672,Orsett,,,Orsett,,,,0,UKOS,564888,182230,0.374953,51.514934,BCT,HAR,OTH,,,,059,2007-05-17T12:41:00.000,2009-08-18T11:26:00.000,4,revise,active
1590705101,thudpma,,,Recreation Ground,,,,Recreation Ground,,Orsett Road,,,,o/s,,E,E0042665,Horndon on the Hill,,,Horndon on the Hill,,,,0,UKOS,566433,183074,0.397597,51.522063,BCT,HAR,OTH,,,,059,2007-05-17T12:54:00.000,2013-06-18T14:45:00.000,4,revise,active
1590705116,thuagm,,,Hathaway Road,,,,Ward Avenue,,Hathaway Road,,,,S-bound,,S,E0042664,Grays,,,,,,,0,UKOS,561519,178888,0.324914,51.485881,BCT,MKD,OTH,,,,059,2009-07-14T12:45:00.000,2014-03-24T15:54:00.000,5,revise,active
1590705201,thudpmw,,,Hogg Lane,,,,Devonshire Road,,Hogg Lane,,,,N-bound,,N,E0042664,Grays,,,Grays,,,,0,UKOS,561009,179140,0.31769,51.488291,BCT,MKD,TIP,,,,059,2007-10-11T15:03:00.000,2019-07-03T14:14:00.000,8,revise,active
1590705202,thudpmt,,,Rising Sun,,,,Rising Sun,,Church Hill,,,,opp,,W,E0042676,Stanford le Hope,,,,,,,1,UKOS,568408,182286,0.425661,51.514399,BCT,MKD,OTH,,,,059,2014-01-14T17:05:00.000,2014-01-14T17:05:00.000,0,new,active
1590705204,thudptd,,,Admin Building,,,,Admin Building,,Service Road,,,,opp,,N,E0042679,London Gateway,Coryton,,,,,,1,UKOS,570719,181881,0.458738,51.510068,BCT,CUS,OTH,,,,059,2015-06-04T17:45:00.000,2023-09-13T11:18:35.901,2,revise,inactive
1590705205,thudptg,,,Atlantic Avenue,,,,,,Atlantic Avenue,,,,S-bound,,S,E0042679,London Gateway,Coryton,,,,,,1,UKOS,572023,182491,0.477807,51.515153,BCT,MKD,OTH,,,,059,2015-06-04T17:48:00.000,2015-06-04T17:48:00.000,0,new,active
1590705206,thudptj,,,Ocean Boulevard,,,,,,Ocean Boulevard,,,,W-bound,,W,E0042679,London Gateway,Coryton,,,,,,1,UKOS,570701,181916,0.458495,51.510388,BCT,MKD,OTH,,,,059,2015-06-04T17:50:00.000,2019-05-20T17:17:00.000,1,revise,active
1590705207,thudptm,,,Aveley Bypass,,,,,,Aveley Bypass,,,,SE-bound,,SE,E0042653,Aveley,,,,,,,1,UKOS,556946,180602,0.259869,51.502567,BCT,MKD,OTH,,,,059,2015-06-11T12:01:00.000,2015-06-11T12:01:00.000,0,new,active
15907075102,thuada,,,Garrison Estate,,,,Saladin Drive,,Chieftan Drive,,,,N-bound,,N,N0060757,Purfleet,,,Purfleet,,,,1,UKOS,555037,178589,0.231503,51.485011,BCT,MKD,TIP,,,,059,2008-06-25T14:26:00.000,2024-11-27T16:16:02.040,10,revise,active
15907075103,thuadg,,,Gateway Academy,,,,Gateway Academy,,St Chads Road,,,,S-bound,,S,E0042659,Chadwell St Mary,,,Chadwell St Mary,,,,1,UKOS,564433,177696,0.366279,51.474337,BCT,MKD,OTH,,,,059,2008-06-25T14:53:00.000,2023-10-12T10:35:39.072,8,revise,active
15907075104,thuadj,,,High Road,,,,outside The Robins,,High Road,,,,Northbound,,N,E0042663,Fobbing,,,Fobbing,,,,1,UKOS,571128,185830,0.466543,51.545419,BCT,MKD,OTH,,,,059,2008-06-26T14:46:00.000,2008-07-31T14:51:00.000,2,revise,active
15907075105,thuadm,,,High Road,,,,Opposite The Robins,,High Road,,,,Southbound,,S,E0042663,Fobbing,,,Fobbing,,,,1,UKOS,571154,185822,0.466913,51.545339,BCT,MKD,OTH,,,,059,2008-06-26T14:48:00.000,2008-08-12T11:55:00.000,2,revise,active
15907075106,thuadp,,,South Hill Crescent,,,,South Hill,,South Hill,,,,Southbound,,S,E0042665,Horndon on the Hill,,,Horndon,,,,1,UKOS,567075,183029,0.406821,51.521469,BCT,MKD,OTH,,,,059,2008-07-02T16:41:00.000,2009-06-23T12:06:00.000,2,revise,active
15907075107,thuadt,,,Wren Walk,,,,Raphael Avenue,,Feenan Highway,,,,Southbound,,S,E0042682,Tilbury,,,Tilbury,,,,1,UKOS,564712,177026,0.369992,51.468231,BCT,MKD,OTH,,,,059,2008-07-02T17:04:00.000,2021-11-04T17:38:45.813,4,revise,active
15907075108,thuadw,,,Princess Margaret Road,,,,Bata Estate,,Coronation Avenue,,,,before,,SW,E0042662,East Tilbury,,,East Tilbury,,,,1,UKOS,567952,178543,0.417315,51.48091,BCT,MKD,OTH,,,,059,2008-07-03T11:45:00.000,2019-07-01T11:41:00.000,6,revise,active
15907075109,thuaga,,,Coronation Avenue,,,,Clyde,,Coronation Avenue,,,,N-bound,,N,E0042662,East Tilbury,,,East Tilbury,,,,1,UKOS,568066,178892,0.419122,51.484011,BCT,MKD,TIP,,,,059,2008-07-03T11:48:00.000,2013-08-16T11:12:00.000,6,revise,active
15907075110,thuagd,,,Hatfield Road,,,,Mayflower Road,,Mayflower Road,,,,W-bound,,W,N0060755,Chafford Hundred,,,,,,,0,UKOS,559628,178283,0.29743,51.480982,BCT,MKD,OTH,,,,059,2009-07-10T10:41:00.000,2013-08-16T11:12:00.000,1,revise,active
15907075111,thuagj,,,Maunder Close,,,,Maunder Close,,Lancaster Road,,,,opp,,SW,N0060755,Chafford Hundred,,,,,,,0,UKOS,559797,178595,0.300002,51.483738,BCT,MKD,OTH,,,,059,2009-07-14T10:23:00.000,2015-01-22T12:21:00.000,3,revise,active
15907075112,thuagp,,,Grantham Way,,,,Grantham Way,,Crammavill Street,,,,opp,,S,E0042678,Stifford Clays,Grays,,,,,,0,UKOS,561191,180435,0.320901,51.499873,BCT,MKD,OTH,,,,059,2009-07-14T12:35:00.000,2013-05-09T12:16:00.000,4,revise,active
15907075113,thuagt,,,Grantham Way,,,,Stifford Clays,,Crammavill Street,,,,adj,,N,E0042678,Stifford Clays,Grays,,,,,,0,UKOS,561176,180419,0.320677,51.499734,BCT,MKD,OTH,,,,059,2009-07-14T12:37:00.000,2013-12-11T12:45:00.000,5,revise,active
15907075114,thuagw,,,Stifford Clays Primary School,,,,Stifford Clays Primary School,,Whitmore Avenue,,,,opp,,N,E0042678,Stifford Clays,Grays,,,,,,0,UKOS,561606,180359,0.326839,51.499072,BCT,MKD,OTH,,,,059,2009-07-14T11:41:00.000,2013-05-13T14:54:00.000,2,revise,active
15907075115,thuaja,,,Stifford Clays Primary School,,,,Stifford Clays Primary School,,Whitmore Avenue,,,,o/s,,S,E0042678,Stifford Clays,Grays,,,,,,0,UKOS,561629,180334,0.327159,51.498841,BCT,MKD,OTH,,,,059,2009-07-14T11:44:00.000,2013-05-13T14:54:00.000,2,revise,active
15907075116,thuajd,,,Railway Station,,,,Railway Station,,Tamarisk Road,,,,opp,,S,E0042674,South Ockendon,,,,,,,0,UKOS,559047,182826,0.291116,51.521961,BCT,MKD,OTH,,,,059,2009-07-15T13:44:00.000,2023-03-27T16:20:31.243,3,revise,inactive
15907075117,thuajg,,,Caravan Park,,,,Caravan Park,,Pilgrims Lane,,,,Southbound,,S,N0060760,North Stifford,,,,,,,0,UKOS,559463,179832,0.295755,51.494946,BCT,MKD,OTH,,,,059,2009-08-10T11:59:00.000,2013-03-14T15:55:00.000,3,revise,active
15907075119,thuajp,,,Bulphan Motel,,,,Bulphan Motel,,Bulphan By Pass,,,,Northbound,,N,E0042657,Bulphan,,,,,,,0,UKOS,564095,186498,0.365523,51.553507,BCT,CUS,PTP,,,,059,2009-09-23T16:59:00.000,2009-10-28T12:11:00.000,2,revise,active
15907075120,thuajt,,,Bulphan Motel,,,,Bulphan Motel,,Bulphan by pass,,,,southbound,,S,E0042657,Bulphan,,,,,,,0,UKOS,564118,186504,0.365857,51.553554,BCT,CUS,PTP,,,,059,2009-09-23T17:01:00.000,2009-09-23T17:04:00.000,1,revise,active
15907075121,thuajw,,,Ridgeway,,,,Ridgeway,,Wood View,,,,adj,,NW,E0042667,Little Thurrock,Grays,,,,,,0,UKOS,563064,179054,0.347223,51.48693,BCT,MKD,OTH,,,,059,2010-02-18T09:52:00.000,2013-06-18T14:36:00.000,2,revise,active
15907075122,thuamd,,,Park Lane,,,,Lennard House,,High Street,,,,adj,,E,E0042653,Aveley,,,,,,,0,UKOS,556864,180199,0.258509,51.498969,BCT,MKD,OTH,,,,059,2010-02-18T10:28:00.000,2020-09-09T19:54:58.000,9,revise,active
15907075123,thuamg,,,Park Lane,,,,Medical Centre,,High Street,,,,opp,,W,E0042653,Aveley,,,,,,,0,UKOS,556840,180176,0.258154,51.498769,BCT,MKD,OTH,,,,059,2010-02-18T10:33:00.000,2020-09-09T19:56:10.000,3,revise,active
15907075127,thuapm,,,Digby Road,,,,Fobbing Road,,Fobbing Road,,,,opp,,W,E0042660,Corringham,,,,,,,0,UKOS,571274,183782,0.467651,51.526977,BCT,MKD,OTH,,,,059,2011-06-08T12:57:00.000,2017-03-02T10:50:00.000,2,revise,active
15907075130,thuapw,,,Laird Avenue,,,,Outside no.9,,Laird Avenue,,,,o/s 20,,W,E0042678,Stifford Clays,Grays,,,,,,0,UKOS,562671,179889,0.341952,51.494544,BCT,MKD,OTH,,,,059,2011-06-08T13:02:00.000,2020-09-12T11:43:54.000,5,revise,active
15907075135,thuawm,,,Claudian Way,,,,St Teresa Walk,,Claudian Way,,,,W-bound,,W,E0042659,Chadwell St Mary,,,,,,,1,UKOS,564698,179040,0.370729,51.486331,BCT,MKD,OTH,,,,059,2013-02-19T12:37:00.000,2013-02-19T12:37:00.000,0,new,active
1590CHADHDD0,,,,Chafford Hundred Rail Station,,,,Chafford Rail,,Station Approach,,,,entrance,,,N0060755,Chafford Hundred,,,Chafford Hundred,,,,0,UKOS,558930,178777,0.287608,51.485617,RSE,,,,,,059,2005-01-04T00:00:00.000,2013-12-11T10:17:00.000,8,revise,active
1590ETILBRY0,,,,East Tilbury Rail Station,,,,,,Princess Margaret Road,,,,entrance,,,E0042662,East Tilbury,,,East Tilbury,,,,0,UKOS,567685,178928,0.413657,51.484448,RSE,,,,,,059,2005-01-04T00:00:00.000,2007-05-23T13:04:00.000,2,revise,active
1590GRAYS0,,,,Grays Rail Station,,,,,,Station Approach,,,,South entrance,,,E0042664,Grays,,,Grays,,,,0,UKOS,561335,177792,0.321766,51.476087,RSE,,,,,,059,2005-01-04T00:00:00.000,2009-08-12T10:06:00.000,12,revise,active
1590GRAYS1,,,,Grays Rail Station,,,,,,Crown Road,,,,North Entrance,,,E0042664,Grays,,,Grays,,,,0,UKOS,561344,177845,0.32192,51.476561,RSE,,,,,,059,2005-01-04T00:00:00.000,2009-08-12T10:06:00.000,13,revise,active
1590OCKENDN0,,,,Ockendon Rail Station,,,,,,Tamarisk Road,,,,entrance,,,E0042674,South Ockendon,,,South Ockendon,,,,0,UKOS,558991,182838,0.290315,51.522085,RSE,,,,,,059,2005-01-04T00:00:00.000,2013-08-16T12:21:00.000,5,revise,active
1590PURFLET0,,,,Purfleet Rail Station,,,,Purfleet Stn,,London Road,,,,entrance,,,N0060757,Purfleet,,,Purfleet,,,,0,UKOS,555406,178162,0.236626,51.48107,RSE,,,,,,059,2005-01-04T00:00:00.000,2013-12-11T10:10:00.000,3,revise,active
1590SLEHOPE0,,,,Stanford-le-Hope Rail Station,,,,Stanford Rail,,London Road,,,,entrance,,,E0042676,Stanford le Hope,,,Stanford,,,,0,UKOS,568229,182298,0.42309,51.51456,RSE,,,,,,059,2005-01-04T00:00:00.000,2013-12-11T11:48:00.000,3,revise,active
1590TIL0,,,,Tilbury Ferry Terminal,,,,Tilbury Ferry,,Fort Road,,,,entrance,,,E0042682,Tilbury,,,Tilbury,,,,0,UKOS,564332,175149,0.363655,51.451481,FTD,,,,,,059,2005-01-04T00:00:00.000,2013-12-11T11:39:00.000,7,revise,active
1590TLBYTWN0,,,,Tilbury Town Rail Station,,,,,,Dock Road,,,,North entrance,,,E0042682,Tilbury,,,Tilbury,,,,0,UKOS,563599,176391,0.35369,51.462851,RSE,,,,,,059,2005-01-04T00:00:00.000,2009-08-12T10:09:00.000,4,revise,active
1590TLBYTWN1,,,,Tilbury Town Rail Station,,,,,,St Andrews Road,,,,South entrance,,,E0042682,Tilbury,,,Tilbury,,,,0,UKOS,563561,176332,0.353116,51.462332,RSE,,,,,,059,2005-01-04T00:00:00.000,2009-08-12T10:10:00.000,6,revise,active
1590705208,thudptp,,,St Clere's School,,,,St Clere's School,,Butts Lane,,,,opp,,NW,E0042676,Stanford le Hope,,,,,,,1,UKOS,567910,181783,0.418252,51.510029,BCT,MKD,OTH,,,,059,2016-05-27T15:33:00.000,2016-05-27T15:33:00.000,0,new,active
1590705209,thudptw,,,Brentwood Road,,,,Defoe Parade,,Brentwood Road,,,,NE-bound,,NE,E0042659,Chadwell St Mary,,,,,,,1,UKOS,564638,179233,0.369956,51.488082,BCT,MKD,OTH,,,,059,2016-08-10T12:28:00.000,2023-10-12T10:36:47.580,3,revise,active
1590705210,thudpwa,,,Coalhouse Fort,,,,Coalhouse Fort,,Princess Margaret Road,,,,at,,SW,E0042662,East Tilbury,,,,,,,1,UKOS,568965,176862,0.431086,51.465507,BCT,MKD,OTH,,,,059,2017-02-22T11:51:00.000,2021-03-12T11:37:36.000,1,revise,active
1590705211,thudpwd,,,Church,,,,St Mary the Virgin Church,,Fen Lane,,,,o/s,,N,E0042657,Bulphan,,,,,,,1,UKOS,563705,185836,0.359595,51.547673,BCT,CUS,OTH,,,,059,2017-08-02T13:33:00.000,2017-08-02T13:33:00.000,0,new,active
1590705212,thudpwg,,,Amazon,,,,Amazon Centre,,Amazon Service Road,,,,o/s,,E,E0042682,Tilbury,,,,,,,1,UKOS,563486,176853,0.352278,51.467034,BCT,MKD,OTH,,,,059,2017-08-03T12:41:00.000,2020-09-10T16:37:58.000,3,revise,active
1590045202,thudpwm,,,Church,,,,Fobbing Church,,High Road,,,,before,,S,E0042663,Fobbing,,,,,,,1,UKOS,571672,184061,0.473518,51.529363,BCT,MKD,OTH,,,,059,2018-04-06T19:59:00.000,2018-04-06T19:59:00.000,0,new,active
1590705214,thudpwp,,,Medina Road,,,,,,Rectory Road,,,,adj,,S,E0042667,Little Thurrock,Grays,,,,,,1,UKOS,562642,178505,0.340898,51.482119,BCT,CUS,OTH,,,,059,2018-07-26T11:55:00.000,2018-07-26T11:55:00.000,0,new,active
1590705215,thudpwt,,,Medina Road,,,,,,Rectory Road,,,,opp,,N,E0042667,Little Thurrock,Grays,,,,,,1,UKOS,562628,178454,0.340673,51.481665,BCT,CUS,OTH,,,,059,2018-07-26T11:56:00.000,2018-07-26T11:56:00.000,0,new,active
1590001801,thuadpt,,,Watts Crescent,,,,Uplands Estate,,A1306,,,,Westbound,,W,N0060757,Purfleet,,,Purfleet,,,,1,UKOS,556245,178770,0.248967,51.486302,BCT,MKD,TIP,,,,059,2004-11-08T00:00:00.000,2013-06-18T14:03:00.000,3,delete,inactive
1590001901,thuadpw,,,A1306,,,,Watts Crescent,,A1306,,,,Eastbound,,E,N0060757,Purfleet,,,Purfleet,,,,1,UKOS,556402,178791,0.251236,51.486447,BCT,MKD,TIP,,,,059,2004-11-08T00:00:00.000,2013-06-18T14:04:00.000,7,delete,inactive
1590009301,thuagpt,,,South Road Moss Road,,,,Moss Road,,South Road,,,,Southbound,,S,E0042674,South Ockendon,,,South Ockendon,,,,1,UKOS,559201,181985,0.292955,51.514362,BCT,MKD,OTH,,,,059,2004-11-08T00:00:00.000,2008-10-21T10:44:00.000,2,delete,inactive
1590013301,thuajgm,,,Heron Way,,,,Retail Park IKEA,,Heron Way,,,,Southbound,,S,E0042686,West Thurrock,,,West Thurrock,,,,1,UKOS,558629,178352,0.283086,51.481883,BCT,MKD,OTH,,,,059,2004-11-08T00:00:00.000,2009-07-17T12:38:00.000,3,delete,inactive
1590013401,thuajgp,,,Second Avenue,,,,Schoolfield Road,,West Thurrock Way,,,,Westbound,,W,E0042686,West Thurrock,,,West Thurrock,,,,1,UKOS,558250,177663,0.277324,51.475799,BCT,MKD,TIP,,,,059,2004-11-08T00:00:00.000,2013-05-13T14:27:00.000,3,delete,inactive
1590013501,thuajgt,,,Second Avenue,,,,Second Avenue,,West Thurrock Way,,,,Eastbound,,E,E0042686,West Thurrock,,,West Thurrock,,,,1,UKOS,558269,177673,0.277602,51.475883,BCT,MKD,TIP,,,,059,2005-02-01T00:00:00.000,2013-05-13T14:27:00.000,3,delete,inactive
1590014901,thuajpd,,,Mill Lane,,,,Mill Lane,,London Road,,,,Westbound,,W,E0042675,South Stifford,,,South Stifford,,,,1,UKOS,559687,177883,0.298098,51.477372,BCT,MKD,TIP,,,,059,2004-11-08T00:00:00.000,2009-07-17T10:29:00.000,2,delete,inactive
1590018101,thuamam,,,Bridge Road,,,,Benson Road,,Bridge Road,,,,on,,N,E0042664,Grays,,,Grays,,,,1,UKOS,561933,177931,0.330433,51.477165,BCT,MKD,OTH,,,,059,2004-11-08T00:00:00.000,2015-01-21T10:00:00.000,3,delete,inactive
1590018701,thuamdg,,,Rectory Road Crescent Avenue,,,,Little Thurrock,,Rectory Road,,,,Northbound,,N,E0042664,Grays,,,Grays,,,,1,UKOS,562658,178072,0.340929,51.478224,BCT,MKD,OTH,,,,059,2004-11-08T00:00:00.000,2009-06-18T14:29:00.000,1,delete,inactive
1590020601,thuamgw,,,Nutberry Avenue,,,,Nutberry Ave,,Long Lane,,,,opp,,E,E0042678,Stifford Clays,Grays,,Socketts Heath,,,,1,UKOS,561521,180015,0.325459,51.496006,BCT,MKD,OTH,,,,059,2004-11-08T00:00:00.000,2018-04-12T09:56:00.000,2,delete,inactive
1590024001,thuamwd,,,Cherrydown,,,,Cherrydown,,Long Lane,,,,Eastbound,,E,E0042664,Grays,,,Grays,,,,1,UKOS,562612,180095,0.341198,51.496412,BCT,MKD,OTH,,,,059,2004-11-08T00:00:00.000,2013-05-15T15:23:00.000,4,delete,inactive
1590028501,thuapjp,,,Brennan Road,,,,Hulme Avenue,,Brennan Road,,,,Eastbound,,E,E0042682,Tilbury,,,Tilbury,,,,1,UKOS,564760,176407,0.370395,51.462658,BCT,MKD,TIP,,,,059,2004-11-08T00:00:00.000,2008-07-02T16:58:00.000,2,delete,inactive
1590028601,thuapjt,,,Brennan Road,,,,Tennyson Walk,,Brennan Road,,,,Westbound,,W,E0042682,Tilbury,,,Tilbury,,,,1,UKOS,564889,176424,0.372258,51.462774,BCT,MKD,TIP,,,,059,2004-11-08T00:00:00.000,2008-07-02T16:58:00.000,2,delete,inactive
1590032401,thuataj,,,Godman Road,,,,Errington Close,,Godman Road,,,,Eastbound,,E,E0042659,Chadwell St Mary,,,Chadwell St Mary,,,,1,UKOS,564749,179447,0.371653,51.489972,BCT,MKD,OTH,,,,059,2004-11-08T00:00:00.000,2008-07-03T12:08:00.000,1,delete,inactive
1590032601,thuatap,,,Godman Road Nicholas Walk,,,,Nicholas Walk,,Godman Road,,,,Westbound,,W,E0042659,Chadwell St Mary,,,Chadwell St Mary,,,,1,UKOS,564838,179653,0.37303,51.491797,BCT,MKD,OTH,,,,059,2004-11-08T00:00:00.000,2008-07-03T12:09:00.000,2,delete,inactive
1590032901,thuatda,,,Brentwood Road Estate,,,,Brentwood Road,,Sleepers Farm Road,,,,Westbound,,W,E0042659,Chadwell St Mary,,,Chadwell St Mary,,,,1,UKOS,564955,179627,0.374702,51.491529,BCT,MKD,TIP,,,,059,2004-11-08T00:00:00.000,2008-07-03T12:10:00.000,2,delete,inactive
1590033101,thuatdg,,,Morant Road,,,,Wickham Road,,Longhouse Road,,,,Northbound,,N,E0042659,Chadwell St Mary,,,Chadwell St Mary,,,,1,UKOS,564974,179510,0.37492,51.490473,BCT,MKD,TIP,,,,059,2004-11-08T00:00:00.000,2009-06-18T13:29:00.000,3,delete,inactive
1590036701,thudmtj,,,B1007 St Marys Church,,,,St Marys Church,,B1007,,,,Southbound,,S,E0042665,Horndon on the Hill,,,Horndon,,,,1,UKOS,567848,186452,0.419582,51.551991,BCT,MKD,OTH,,,,059,2006-09-19T00:00:00.000,2006-09-19T00:00:00.000,0,delete,inactive
1590036801,thudmtm,,,B1007 St Marys Church,,,,St Marys Church,,B1007,,,,Northbound,,N,E0042665,Horndon on the Hill,,,Horndon,,,,1,UKOS,567863,186481,0.419812,51.552247,BCT,MKD,OTH,,,,059,2006-09-26T00:00:00.000,2006-09-26T00:00:00.000,0,delete,inactive
1590043601,thuawjw,,,Southend Road,,,,Middle Drive,,Southend Road,,,,Westbound,,W,E0042663,Fobbing,,,Fobbing,,,,1,UKOS,570639,185963,0.459562,51.546761,BCT,MKD,OTH,,,,059,2004-11-08T00:00:00.000,2009-06-24T11:38:00.000,3,delete,inactive
1590043701,thuawma,,,Southend Road,,,,Middle Drive,,Southend Road,,,,Eastbound,,E,E0042663,Fobbing,,,Fobbing,,,,1,UKOS,570633,185989,0.459488,51.546997,BCT,MKD,OTH,,,,059,2004-11-08T00:00:00.000,2009-06-24T11:38:00.000,2,delete,inactive
1590044001,thuawmj,,,High Road Level Crossing,,,,Level Crossing,,High Road,,,,Northbound,,N,E0042663,Fobbing,,,Fobbing,,,,1,UKOS,571006,186368,0.465046,51.550288,BCT,MKD,OTH,,,,059,2006-09-19T00:00:00.000,2006-09-19T00:00:00.000,0,delete,inactive
1590045101,thuawta,,,Digby Road,,,,Digby Road,,Fobbing Road,,,,Westbound,,W,E0042660,Corringham,,,Corringham,,,,1,UKOS,571268,183791,0.467569,51.52706,BCT,MKD,OTH,,,,059,2004-11-08T00:00:00.000,2009-06-17T15:01:00.000,3,delete,inactive
1590047701,thudajd,,,Avontar Road,,,,Anton Road,,Avontar Road,,,,Westbound,,W,E0042674,South Ockendon,,,South Ockendon,,,,1,UKOS,558608,182365,0.284587,51.517943,BCT,MKD,TIP,,,,059,2004-11-08T00:00:00.000,2009-07-15T13:33:00.000,2,delete,inactive
1590047801,thudajg,,,Ship Lane,,,,Ship Lane,,High Street,,,,Eastbound,,E,E0042653,Aveley,,,Aveley,,,,1,UKOS,556736,180175,0.256656,51.498789,BCT,MKD,OTH,,,,059,2004-11-08T00:00:00.000,2009-06-17T14:48:00.000,2,delete,inactive
1590050901,thudawg,,,Fleming Road,,,,Francisco Close,,Burghley Road,,,,N-bound,,N,N0060755,Chafford Hundred,,,Chafford Hundred,,,,1,UKOS,558998,179016,0.288695,51.487745,BCT,MKD,OTH,,,,059,2004-11-08T00:00:00.000,2019-05-21T15:27:00.000,3,revise,active
159007075124,thuamt,,,Avontar Road,,,,Arisdale Avenue,,Avontar Road,,,,Eastbound,,E,E0042674,South Ockendon,,,,,,,0,UKOS,558627,182361,0.284859,51.517902,BCT,MKD,OTH,,,,059,2010-02-25T12:02:00.000,2013-02-19T16:11:00.000,3,delete,inactive
159007075125,thuamw,,,Avontar Road,,,,Arisdale Avenue,,Avontar Road,,,,Westbound,,W,E0042674,South Ockendon,,,,,,,0,UKOS,558619,182350,0.284738,51.517805,BCT,MKD,OTH,,,,059,2010-02-25T12:10:00.000,2013-02-19T16:13:00.000,3,delete,inactive
159007075127,thuapd,,,Woodview,,,,Adjacent Parkside,,Woodview,,,,Northwest Bound,,NW,E0042667,Little Thurrock,Grays,,,,,,0,UKOS,563067,179076,0.347276,51.487127,BCT,MKD,OTH,,,,059,2010-03-16T15:17:00.000,2013-06-18T14:20:00.000,1,delete,inactive
159007075131,thuatj,,,Long Lane,,,,Kerry Road,,Long Lane,,,,Eastbound,,E,E0042678,Stifford Clays,Grays,,,,,,0,UKOS,562825,180235,0.344328,51.497609,BCT,MKD,OTH,,,,059,2012-09-25T10:48:00.000,2013-05-15T16:19:00.000,1,delete,inactive
15900707515,thuawa,,,Brentwood Road,,,,Rigby Gardens,,Brentwood Road,,,,Southbound,,N,E0042659,Chadwell St Mary,,,,,,,0,UKOS,564612,178824,0.369391,51.484415,BCT,MKD,OTH,,,,059,2012-09-25T11:06:00.000,2016-08-10T15:40:00.000,1,delete,inactive
15900707516,thuawd,,,Brentwood Road,,,,Adjacent to Lamp Column 24 Rigby Gardens,,Brentwood Road,,,,Northbound,,N,E0042659,Chadwell St Mary,,,,,,,0,UKOS,564614,178866,0.36944,51.484792,BCT,MKD,OTH,,,,059,2012-09-25T11:11:00.000,2012-11-14T09:46:00.000,1,delete,inactive
15900775128,thuapg,,,Avontar Road,,,,Anton Road,,Avontar Road,,,,Westbound,,W,E0042674,South Ockendon,,,,,,,0,UKOS,558630,182350,0.284897,51.517802,BCT,MKD,OTH,,,,059,2010-12-15T10:52:00.000,2013-02-19T16:14:00.000,1,delete,inactive
1590101201,,,,Ring Road Lakeside,,,,Taxi Rank,,Lakeside Ring Road,,,,Northbound,,,N0060756,Lakeside,,,Lakeside,,,,1,UKOS,558492,179013,0.281411,51.48786,TXR,,,,,,059,2004-11-08T00:00:00.000,2013-06-18T13:57:00.000,1,delete,inactive
1590700901,thudmpm,,,Cherrydown,,,,Cherrydown,,Long Lane,,,,Westbound,,W,E0042664,Grays,,,Grays,,,,1,UKOS,562619,180078,0.341291,51.496257,BCT,MKD,OTH,,,,059,2004-11-08T00:00:00.000,2013-05-15T15:23:00.000,5,delete,inactive
1590701001,thudgdg,,,William Edwards School,,,,William Edwards School,,Stifford Clays Road,,,,North East,,NE,E0042678,Stifford Clays,Grays,,Stifford Clays,,,,1,UKOS,561882,180900,0.33106,51.503854,BCT,MKD,OTH,,,,059,2004-11-08T00:00:00.000,2013-05-15T10:47:00.000,3,delete,inactive
1590703901,thudpga,,,Warren Lane,,,,Clockhouse Lane,,Warren Lane,,,,Westbound,,W,N0060755,Chafford Hundred,,,Chafford Hundred,,,,1,UKOS,559749,178764,0.299388,51.48527,BCT,CUS,OTH,,,,059,2006-08-23T00:00:00.000,2017-03-02T10:15:00.000,4,delete,inactive
1590704101,thudpgj,,,Wharf Road,,,,London Road,,Argent Street,,,,Southbound,,S,E0042664,Grays,,,Grays,,,,1,UKOS,560798,177844,0.314064,51.476707,BCT,HAR,OTH,,,,059,2006-08-23T00:00:00.000,2009-07-10T10:27:00.000,1,delete,inactive
1590704201,thudpgm,,,Jetty Walk,,,,Jetty Walk,,Argent Street,,,,Eastbound,,E,E0042664,Grays,,,Grays,,,,1,UKOS,560824,177682,0.314365,51.475244,BCT,HAR,OTH,,,,059,2006-08-23T00:00:00.000,2009-07-10T10:27:00.000,4,delete,inactive
1590704301,thudpgp,,,Derby Road Bridge,,,,Civic Offices,,New Road,,,,Northbound,,N,E0042664,Grays,,,Grays,,,,1,UKOS,561582,177332,0.32511,51.471884,BCT,CUS,OTH,,,,059,2006-09-28T00:00:00.000,2009-07-10T10:27:00.000,1,delete,inactive
1590704401,thudpgt,,,Argent Street,,,,Theobalds PH,,Argent Street,,,,Eastbound,,E,E0042664,Grays,,,Grays,,,,1,UKOS,561158,177646,0.319153,51.474826,BCT,HAR,OTH,,,,059,2006-08-23T00:00:00.000,2009-07-10T10:27:00.000,3,delete,inactive
1590705001,thudpjw,,,Orchard Fruit Farm,,,,Black Bush Lane,,Orsett Road,,,,East,,E,E0042665,Horndon on the Hill,,,Horndon on the Hill,,,,0,UKOS,566090,182559,0.392415,51.517537,BCT,HAR,OTH,,,,059,2007-05-17T12:52:00.000,2009-08-18T11:36:00.000,2,delete,inactive
1590705203,thudpta,,,Long Lane,,,,Nutberry Corner,,Long Lane,,,,on,,W,E0042664,Grays,,,,,,,1,UKOS,561237,179944,0.321338,51.495449,BCT,MKD,OTH,,,,059,2014-06-23T14:44:00.000,2018-04-12T09:54:00.000,1,delete,inactive
15907074701,thudpjm,,,Orchard Fruit Farm,,,,Orsett Fruit Farm,,Orsett Road,,,,,,W,E0042672,Orsett,,,Orsett,,,,0,UKOS,566098,182569,0.392535,51.517625,BCT,HAR,OTH,,,,059,2007-05-17T11:17:00.000,2009-08-18T11:35:00.000,2,delete,inactive
15907075001,thudpmg,,,Orsett Road,,,,Orsett Road,,Orsett Road,,,,,,E,E0042672,Orsett,,,Orsett,,,,0,UKOS,565719,182418,0.387007,51.51638,BCT,HAR,OTH,,,,059,2007-05-24T13:54:00.000,2013-08-16T11:10:00.000,3,delete,inactive
15907075101,thudpmj,,,Orsett Road,,,,A128 Brentwood Road,,Orsett Road,,,,,,W,E0042672,Orsett,,,Orsett,,,,0,UKOS,566474,183050,0.398176,51.521835,BCT,HAR,OTH,,,,059,2007-05-24T14:00:00.000,2013-08-16T11:10:00.000,3,delete,inactive
15907075126,thuapa,,,Avontar road,,,,Arisdale Avenue,,Avontar Road,,,,Eastbound,,E,E0042674,South Ockendon,,,,,,,0,UKOS,558627,182361,0.284859,51.517902,BCT,MKD,OTH,,,,059,2010-02-25T16:23:00.000,2013-02-19T16:14:00.000,2,delete,inactive
15907075131,thuata,,,Laird Avenue,,,,Outside no.20,,Laird Avenue,,,,Eastbound,,E,E0042678,Stifford Clays,Grays,,,,,,0,UKOS,562697,179916,0.342339,51.49478,BCT,MKD,OTH,,,,059,2011-06-08T13:03:00.000,2013-05-15T16:36:00.000,2,delete,inactive
15907075132,thuatd,,,Laird avenue,,,,Outside no.50,,Laird Avenue,,,,Eastbound,,E,E0042678,Stifford Clays,Grays,,,,,,0,UKOS,562774,179940,0.343458,51.494973,BCT,MKD,OTH,,,,059,2011-06-08T13:04:00.000,2013-05-15T16:36:00.000,2,delete,inactive
1590705216,thudtad,,,Ormiston Park Academy,,,,Ormiston Park Academy,,Shannon Way,,,,o/s,,W,E0042653,Aveley,,,,,,,1,UKOS,556564,180953,0.254525,51.505827,BCT,CUS,OTH,,,,059,2018-09-03T10:31:00.000,2020-09-09T15:25:53.000,1,revise,active
1590705217,thudtag,,,Lakeside Retail Park,,,,Lakeside Retail Park,,Grebe Crest,,,,NW-bound,,NW,N0060756,Lakeside,,,,,,,1,UKOS,558198,178775,0.277074,51.485804,BCT,MKD,OTH,,,,059,2019-06-07T11:27:00.000,2019-06-07T11:27:00.000,0,new,active
1590705218,thudtaj,,,Lakeside Retail Park,,,,Lakeside Retail Park,,Grebe Crest,,,,SE-bound,,SE,N0060756,Lakeside,,,,,,,1,UKOS,558221,178771,0.277403,51.485764,BCT,MKD,OTH,,,,059,2019-06-07T11:28:00.000,2021-11-04T16:27:18.682,1,revise,active
1590705219,thudtam,,,Aldi,,,,Aldi,,London Road,,,,E-bound,,E,E0042664,Grays,,,Grays,,,,1,UKOS,560915,177886,0.315767,51.477051,BCT,MKD,OTH,,,,059,2020-11-25T09:07:16.000,2020-11-25T09:07:16.000,0,new,active
1590705220,thudtap,,,Grangewood Avenue,,,,,,King Edward Drive,,,,Southbound,,S,E0042664,Grays,,,Little Thurrock,,,,,UKOS,563298,179201,0.350658,51.488183,BCT,HAR,OTH,,,,059,2020-12-17T11:16:27.000,2020-12-18T14:11:31.000,1,revise,active
1590705221,thudtat,,,William Edwards School,,,,,,Stifford Clays Road,,,,at,,S,E0042678,Stifford Clays,Grays,,Stifford Clays,,,,,UKOS,561862,180833,0.330742,51.503257,BCT,HAR,OTH,,,,059,2020-12-17T13:57:33.000,2020-12-17T13:57:33.000,0,new,active
1590705222,thudtaw,,,Fortress Distribution Park,,,,,,Fort Road,,,,NE-bound,,NE,E0042682,Tilbury,,,Tilbury,,,,,UKOS,565200,176113,0.376586,51.459889,BCT,MKD,OTH,,,,059,2021-01-15T08:59:17.000,2021-01-15T08:59:17.000,0,new,active
1590705223,thudtda,,,Fortress Distribution Park,,,,,,Fort Road,,,,SW-bound,,SW,E0042682,Tilbury,,,Tilbury,,,,,UKOS,565184,176046,0.376324,51.459292,BCT,MKD,OTH,,,,059,2021-01-15T09:07:38.000,2021-01-15T09:07:38.000,0,new,active
1590705224,thudtdg,,,Tilbury Docks Main Entrance,,Tilbury Docks Main Entrance,,Tilbury Docks,,St Andrews Road,,,,opp,,SE,E0042682,Tilbury,,,Tilbury,,,,,UKOS,563383,176485,0.350626,51.463758,BCT,HAR,OTH,,,,059,2021-04-12T10:23:46.000,2021-04-12T10:23:46.000,0,new,active
1590705225,thudtdj,,,Tesco,,,,,,Cygnet View,,,,N-bound,,N,N0060756,Lakeside,,,Lakeside,,,,,UKOS,557961,179006,0.273767,51.487946,BCT,MKD,TIP,,,,059,2021-04-23T11:24:59.000,2021-04-23T11:24:59.000,0,new,active
1590705226,thudtdm,,,Heritage & Military Centre,,,,,,Centurion Way,,,,o/s,,N,N0060757,Purfleet,,,,,,,,UKOS,554917,178508,0.229741,51.484313,BCT,CUS,OTH,,,,059,2021-09-27T09:26:10.000,2024-10-14T19:50:37.728,1,revise,inactive
1590705227,thudtdp,,,Calcutta Road,,,,Dunlop Road,,Calcutta Road,,,,Westbound,,W,E0042682,Tilbury,,,Tilbury,,,,,UKOS,563839,176299,0.35709,51.461958,BCT,MKD,OTH,,,,059,2022-06-23T15:56:07.212,2022-06-23T15:56:07.212,0,new,active
1590705228,thudtdt,,,Costco Roundabout,,,,Retail Park Costco Roundabout,,West Thurrock Way,,,,W-bound,,W,N0060756,Lakeside,,,Lakeside,,,,,UKOS,558245,178594,0.2776635,51.4841670,BCT,MKD,OTH,,,,059,2022-08-01T12:42:05.000,2022-08-01T12:42:05.000,0,new,active
1590705229,thudtdw,,,Corringham Town Park,,,,,,Springhouse Road,,,,E-bound,,E,E0042660,Corringham,,,Corringham,,,,,UKOS,569581,183655,0.443202,51.526347,BCT,MKD,OTH,,,,059,2024-05-23T09:37:32.211,2024-12-30T08:38:52.735,1,revise,active
1590705230,thudtga,,,Corringham Town Park,,,,,,Springhouse Road,,,,W-bound,,W,E0042660,Corringham,,,Corringham,,,,,UKOS,569634,183679,0.443979,51.526551,BCT,MKD,OTH,,,,059,2024-05-23T09:41:20.214,2024-05-23T09:41:20.214,0,new,active
1590705231,thudtgd,,,Ocado,,,,,,New Purfleet Road,,,,o/s,,NE,N0060757,Purfleet,,,Purfleet-on-Thames,,,,,UKOS,555158,179898,0.233814,51.496742,BCT,MKD,PTP,,,,059,2024-06-28T13:43:02.793,2024-06-28T13:43:02.793,0,new,active
1590705232,thudtgj,,,Harris Riverside Academy,,,,,,Harris Riverside Academy Access Road,,,,o/s,,S,N0060757,Purfleet,,,Purfleet-on-Thames,,,,,UKOS,555600,177947,0.2393166,51.4790871,BCT,MKD,OTH,,,,059,2024-07-17T21:00:41.957,2024-07-18T13:20:54.460,2,revise,active
1590705233,thudtgm,,,Purfleet Road Ocado,,,,,,Purfleet Road,,,,SW-bound,,SW,E0042653,Aveley,,,,,,,,UKOS,555453,179955,0.2380849,51.4971689,BCT,MKD,OTH,,,,059,2024-07-30T10:22:55.457,2024-08-15T14:20:12.883,1,revise,active
