ATCOCode,NaptanCode,PlateCode,CleardownCode,CommonName,CommonNameLang,ShortCommonName,ShortCommonNameLang,Landmark,LandmarkLang,Street,StreetLang,Crossing,CrossingLang,Indicator,IndicatorLang,Bearing,NptgLocalityCode,LocalityName,ParentLocalityName,GrandParentLocalityName,Town,TownLang,Suburb,SuburbLang,LocalityCentre,GridType,Easting,Northing,Longitude,Latitude,StopType,BusStopType,TimingStatus,DefaultWaitTime,Notes,NotesLang,AdministrativeAreaCode,CreationDateTime,ModificationDateTime,RevisionNumber,Modification,Status
1980SNA90772,sohmagm,,,Henstead Road,,,,,,Bedford Place,,,,N-bound,,N,E0041969,Bedford Place,Southampton,,,,,,false,UKOS,441851,112648,-1.40609,50.91179,BCT,MKD,OTH,,,,052,2010-08-10T00:00:00,2020-02-25T08:31:54,0,new,active
1980SNA90870,sohmawp,,,Henstead Road,,,,,,Henstead Road,,,,E-bound,,E,E0041969,Bedford Place,Southampton,,,,,,false,UKOS,441812,112695,-1.40664,50.91221,BCT,MKD,OTH,,,,052,2010-08-10T00:00:00,2020-02-25T08:31:54,0,new,active
1980BITERNE0,,,,Bitterne Rail Station,,,,,,,,,,Entrance,,,E0041975,Bitterne,Southampton,,,,,,false,UKOS,443891,113406,-1.37698,50.91845,RSE,,,,,,052,2015-11-12T00:00:00,2015-11-12T11:15:27,1,new,active
1980MBRK0,,,,Millbrook (Hants) Rail Station,,,,,,,,,,Entrance,,,E0042004,Millbrook,Southampton,,,,,,false,UKOS,439882,112625,-1.4341,50.91172,RSE,,,,,,052,2015-11-12T00:00:00,2015-11-12T11:23:08,1,new,active
1980REDBDGE0,,,,Redbridge (Hants) Rail Station,,,,,,,,,,Entrance,,,E0042016,Redbridge,Southampton,,,,,,false,UKOS,437340,113520,-1.47016,50.91994,RSE,,,,,,052,2015-11-12T00:00:00,2015-11-12T11:12:21,1,new,active
1980SHOLING0,,,,Sholing Rail Station,,,,,,,,,,Entrance,,,E0042023,Sholing,Southampton,,,,,,false,UKOS,444788,110988,-1.36452,50.89664,RSE,,,,,,052,2015-11-12T00:00:00,2015-11-12T11:33:02,1,new,active
1980SOTNTQ0,,,,Southampton Town Quay,,,,,,,,,,Entrance,,,E0057247,Southampton,,,,,,,false,UKOS,441884,110798,-1.40583,50.89515,RSE,,,,,,052,2015-06-08T00:00:00,2015-06-08T11:39:36,7,delete,inactive
1980SOTON1,,,,Southampton Central Rail Station,,,,,,,,,,Entrance,,,E0057247,Southampton,,,,,,,false,UKOS,441296,112136,-1.41404,50.90722,RSE,,,,,,052,2015-11-12T00:00:00,2015-11-12T11:25:16,21,new,active
1980SOTON0,,,,Southampton Central Rail Station,,,,,,,,,,Entrance,,,E0057247,Southampton,,,,,,,false,UKOS,441304,112199,-1.41392,50.90779,RSE,,,,,,052,2025-08-27T16:27:05.5821414+01:00,2015-11-12T11:25:16,3,new,active
1980STDENYS0,,,,St Denys Rail Station,,,,,,,,,,Entrance,,,E0042026,St Denys,Southampton,,,,,,false,UKOS,443100,113808,-1.38819,50.92213,RSE,,,,,,052,2015-11-12T00:00:00,2015-11-12T11:10:18,1,new,active
1980SWYTHLN0,,,,Swaythling Rail Station,,,,,,,,,,Entrance,,,E0042028,Swaythling,Southampton,,,,,,false,UKOS,443925,115928,-1.3762,50.94113,RSE,,,,,,052,2015-11-12T00:00:00,2015-11-12T11:02:10,1,new,active
1980WOLSTON0,,,,Woolston Rail Station,,,,,,,,,,Entrance,,,E0042037,Woolston,Southampton,,,,,,false,UKOS,443904,111234,-1.37706,50.89892,RSE,,,,,,052,2015-11-12T00:00:00,2015-11-12T11:27:39,1,new,active
1980SOP0,,,,Southampton Passenger Ferry Terminal,,,,,,,,,,Entrance,,,E0041983,Eastern Docks,Southampton,,,,,,false,UKOS,441922,110714,-1.4053,50.89439,FTD,,,,,,052,2015-06-11T00:00:00,2015-06-11T09:46:41,17,new,active
1980SOV0,,,,Southampton Vehicle Ferry Terminal,,,,,,,,,,Entrance,,,E0041983,Eastern Docks,Southampton,,,,,,false,UKOS,441852,110859,-1.40628,50.8957,FTD,,,,,,052,2010-11-26T00:00:00,2010-11-26T16:35:16,0,new,active
1980SN120581,sohjdpm,,,Deacon Road,,,,,,Ruby Road,,,,S-bound,,S,E0042023,Sholing,Southampton,,,,,,false,UKOS,445450,112509,-1.35492,50.91027,BCT,MKD,OTH,,,,052,2006-10-18T00:00:00,2021-07-07T13:30:46,0,new,active
1980SN120587,sohjawj,,,Merryoak Road,,,,,,Spring Road,,,,adj,,N,E0042001,Merry Oak,Southampton,,,,,,false,UKOS,445056,112391,-1.36054,50.90924,BCT,MKD,OTH,,,,052,2006-10-18T00:00:00,2023-02-01T12:37:48,33,new,active
1980SNA19708,sohjwta,,,Merryoak Road,,,,,,Spring Road,,,,nr,,SE,E0042001,Merry Oak,Southampton,,,,,,false,UKOS,445058,112412,-1.3605,50.90943,BCT,MKD,OTH,,,,052,2007-01-25T00:00:00,2015-04-25T12:19:14,0,new,active
1980SN120706,sohjgtg,,,Landseer Road,,,,,,Butt's Road,,,,SW-bound,,SW,E0042023,Sholing,Southampton,,,,,,false,UKOS,446130,111480,-1.34538,50.90096,BCT,MKD,OTH,,,,052,2006-10-13T00:00:00,2023-08-16T13:45:33,38,new,active
1980SN120697,sohjgpj,,,Landseer Road,,,,,,Butt's Road,,,,NE-bound,,NE,E0042023,Sholing,Southampton,,,,,,false,UKOS,446061,111443,-1.34636,50.90063,BCT,MKD,OTH,,,,052,2006-10-13T00:00:00,2020-02-25T08:31:54,0,new,active
1980SN120708,sohjmwg,,,Dumbleton's Towers,,,,,,Warburton Road,,,,NW-bound,,NW,N0073220,Thornhill,Southampton,,,,,,false,UKOS,447029,111892,-1.33254,50.90459,BCT,MKD,OTH,,,,052,2007-01-25T00:00:00,2021-07-07T13:30:46,0,new,active
1980SN120707,sohjmwm,,,Dumbleton's Towers,,,,,,Warburton Road,,,,SE-bound,,SE,N0073220,Thornhill,Southampton,,,,,,false,UKOS,447065,111874,-1.33203,50.90443,BCT,MKD,OTH,,,,052,2007-01-25T00:00:00,2014-04-08T13:24:59,17,new,active
1980SN120676,sohjajd,,,Sholing Station,,,,,,Station Road,,,,NE-bound,,NE,E0042037,Woolston,Southampton,,,,,,false,UKOS,444783,111040,-1.36458,50.89711,BCT,MKD,OTH,,,,052,2006-10-18T00:00:00,2020-02-25T08:31:53,0,new,active
1980SN120678,sohjajp,,,Sholing Station,,,,,,Station Road,,,,SW-bound,,SW,E0042037,Woolston,Southampton,,,,,,false,UKOS,444831,111052,-1.3639,50.89721,BCT,MKD,OTH,,,,052,2010-06-30T00:00:00,2020-02-25T08:31:54,0,new,active
1980SN120711,sohdpmt,,,Health Clinic,,,,,,Woodley Road,,,,N-bound,,N,E0042037,Woolston,Southampton,,,,,,false,UKOS,443628,111027,-1.38101,50.89708,BCT,MKD,OTH,,,,052,2005-11-11T00:00:00,2020-02-25T08:31:54,0,new,active
1980SN120712,sohdpmp,,,Keswick Road,,,,,,Victoria Road,,,,SW-bound,,SW,E0042037,Woolston,Southampton,,,,,,false,UKOS,443688,110967,-1.38016,50.89654,BCT,MKD,OTH,,,,052,2006-10-09T00:00:00,2020-02-25T08:31:54,0,new,active
1980SN120699,sohjgtj,,,Gladstone Road,,,,,,Kathleen Road,,,,SW-bound,,SW,E0042023,Sholing,Southampton,,,,,,false,UKOS,446131,111958,-1.3453,50.90526,BCT,MKD,OTH,,,,052,2006-10-16T00:00:00,2020-02-25T08:31:54,0,new,active
1980SN120698,sohjgpw,,,Gladstone Road,,,,,,Kathleen Road,,,,NE-bound,,NE,E0042023,Sholing,Southampton,,,,,,false,UKOS,446084,111929,-1.34597,50.905,BCT,MKD,OTH,,,,052,2006-10-16T00:00:00,2021-07-07T13:30:46,0,new,active
1980SN120700,sohjmgd,,,Antelope Park,,,,,,Bursledon Road,,,,adj,,SE,N0073220,Thornhill,Southampton,,,,,,false,UKOS,446564,111961,-1.33914,50.90525,BCT,MKD,OTH,,,,052,2009-03-24T00:00:00,2023-01-11T14:05:49,26,new,active
1980SN120701,sohjmga,,,Antelope Park,,,,,,Bursledon Road,,,,opp,,NW,N0073220,Thornhill,Southampton,,,,,,false,UKOS,446521,111967,-1.33975,50.90531,BCT,MKD,OTH,,,,052,2007-04-16T00:00:00,2023-01-11T14:05:19,26,new,active
1980SN120703,sohjmpg,,,Ivy Dene,,,,,,Orpen Road,,,,SW-bound,,SW,E0042023,Sholing,Southampton,,,,,,false,UKOS,446770,111749,-1.33624,50.90333,BCT,MKD,OTH,,,,052,2006-10-16T00:00:00,2021-07-07T13:30:46,0,new,active
1980SN120705,sohjmda,,,Butts Square,,,,,,Butt's Road,,,,SW-bound,,SW,E0042023,Sholing,Southampton,,,,,,false,UKOS,446434,111644,-1.34103,50.90241,BCT,MKD,OTH,,,,052,2006-10-13T00:00:00,2023-08-16T13:46:10,38,new,active
1980SN120704,sohjmdp,,,Butts Square,,,,,,Butt's Road,,,,NE-bound,,NE,E0042023,Sholing,Southampton,,,,,,false,UKOS,446484,111679,-1.34032,50.90272,BCT,MKD,OTH,,,,052,2006-10-13T00:00:00,2020-02-25T08:31:54,0,new,active
1980SNA09314,sohjtjt,,,Foundry Court,,,,,,Vosper Road,,,,adj,,SE,E0042037,Woolston,Southampton,,,,,,false,UKOS,443628,110703,-1.38105,50.89417,BCT,MKD,OTH,,,,052,2007-02-23T00:00:00,2021-03-04T10:17:15,36,new,active
1980SNA90884,sohmdgt,,,Foundry Court,,,,,,Vosper Road,,,,opp,,NW,E0042037,Woolston,Southampton,,,,,,false,UKOS,443624,110695,-1.3811,50.8941,BCT,MKD,OTH,,,,052,2021-03-04T00:00:00,2021-03-04T10:16:50,34,new,active
1980SN120718,sohdpwd,,,Church Road,,,,,,Weston Grove Road,,,,NW-bound,,NW,E0042037,Woolston,Southampton,,,,,,false,UKOS,443812,110596,-1.37844,50.89319,BCT,MKD,OTH,,,,052,2006-10-11T00:00:00,2020-02-25T08:31:54,0,new,active
1980SN120719,sohdpwp,,,Church Road,,,,,,Weston Grove Road,,,,SE-bound,,SE,E0042037,Woolston,Southampton,,,,,,false,UKOS,443875,110567,-1.37755,50.89293,BCT,MKD,OTH,,,,052,2006-10-11T00:00:00,2020-02-25T08:31:54,0,new,active
1980SN120673,sohjagp,,,Knighton Road,,,,,,Sholing Road,,,,adj,,W,E0042001,Merry Oak,Southampton,,,,,,false,UKOS,444743,111877,-1.36505,50.90464,BCT,MKD,OTH,,,,052,2006-10-18T00:00:00,2023-01-17T14:42:28,41,new,active
1980SNA90917,sohmdwj,,,Knighton Road,,,,,,Bishops Road,,,,opp,,NE,E0042001,Merry Oak,Southampton,,,,,,false,UKOS,444695,111857,-1.36573,50.90446,BCT,MKD,OTH,,,,052,2018-06-18T00:00:00,2023-02-01T12:31:03,55,new,active
1980SN120675,sohjapt,,,Spakes Corner,,,,,,Sholing Road,,,,W-bound,,W,E0041994,Itchen,Southampton,,,,,,false,UKOS,444899,111875,-1.36283,50.90461,BCT,MKD,OTH,,,,052,2006-10-18T00:00:00,2023-02-01T12:34:43,51,new,active
1980SN120674,sohjamp,,,Spakes Corner,,,,,,Sholing Road,,,,E-bound,,E,E0041994,Itchen,Southampton,,,,,,false,UKOS,444910,111882,-1.36267,50.90467,BCT,MKD,OTH,,,,052,2006-10-18T00:00:00,2020-02-25T08:31:54,0,new,active
1980SNA90941,sohmgjw,,,Spakes Corner,,,,,,Spring Road,,,,NE-bound,,NE,E0041994,Itchen,Southampton,,,,,,false,UKOS,444915,111860,-1.36261,50.90447,BCT,MKD,OTH,,,,052,2015-09-08T00:00:00,2018-12-03T08:56:53,80,new,active
1980SNA90964,sohmgwd,,,Spakes Corner,,,,,,Spring Road,,,,SW-bound,,SW,E0041994,Itchen,Southampton,,,,,,false,UKOS,444924,111855,-1.36248,50.90443,BCT,CUS,OTH,,,,052,2015-09-08T00:00:00,2023-05-31T08:31:30,128,new,active
1980SN120906,sohdwad,,,Norton Close,,,,,,Radstock Road,,,,W-bound,,W,E0042037,Woolston,Southampton,,,,,,false,UKOS,444210,111324,-1.3727,50.89971,BCT,MKD,OTH,,,,052,2005-10-07T00:00:00,2020-02-25T08:31:53,0,new,active
1980SN120662,sohdtpg,,,Norton Close,,,,,,Radstock Road,,,,E-bound,,E,E0042037,Woolston,Southampton,,,,,,false,UKOS,444126,111346,-1.37389,50.89991,BCT,MKD,OTH,,,,052,2005-10-07T00:00:00,2020-02-25T08:31:54,0,new,active
1980SN120664,sohdtwt,,,Fort Road,,,,,,Portsmouth Road,,,,SE-bound,,SE,E0042037,Woolston,Southampton,,,,,,false,UKOS,444217,111084,-1.37263,50.89755,BCT,MKD,OTH,,,,052,2006-10-18T00:00:00,2014-04-08T12:46:06,3,new,active
1980SNA09185,sohjpmw,,,Fort Road,,,,,,Portsmouth Road,,,,NW-bound,,NW,E0042037,Woolston,Southampton,,,,,,false,UKOS,444225,111068,-1.37251,50.8974,BCT,MKD,OTH,,,,052,2005-10-07T00:00:00,2022-02-02T07:36:53,26,new,active
1980SN120665,sohdtpt,,,St Patricks Church,,,,,,Portsmouth Road,,,,opp,,W,E0042037,Woolston,Southampton,,,,,,false,UKOS,444057,111120,-1.3749,50.89788,BCT,MKD,OTH,,,,052,2005-10-07T00:00:00,2020-02-04T07:50:02,16,new,active
1980SN120667,sohdwgj,,,Ludlow Academy,,,,,,Bishops Road,,,,opp,,SW,E0042037,Woolston,Southampton,,,,,,false,UKOS,444287,111353,-1.3716,50.89996,BCT,MKD,OTH,,,,052,2005-10-07T00:00:00,2023-01-11T14:09:27,12,new,active
1980SN120666,sohdwdw,,,Ludlow Academy,,,,,,Bishops Road,,,,adj,,NE,E0042037,Woolston,Southampton,,,,,,false,UKOS,444319,111440,-1.37113,50.90074,BCT,MKD,OTH,,,,052,2007-04-24T00:00:00,2023-01-11T14:09:13,12,new,active
1980SN120668,sohdwmj,,,Wodehouse Road,,,,,,Bishops Road,,,,nr,,NE,E0041994,Itchen,Southampton,,,,,,false,UKOS,444465,111602,-1.36904,50.90219,BCT,MKD,OTH,,,,052,2006-10-11T00:00:00,2023-02-01T12:25:52,33,new,active
1980SN120690,sohjdjg,,,St Monica School,,,,,,Kathleen Road,,,,o/s,,SW,E0042023,Sholing,Southampton,,,,,,false,UKOS,445322,111240,-1.35689,50.89887,BCT,MKD,OTH,,,,052,2006-10-16T00:00:00,2023-01-31T14:12:48,33,new,active
1980SN120689,sohjdgw,,,St Monica School,,,,,,Kathleen Road,,,,opp,,N,E0042023,Sholing,Southampton,,,,,,false,UKOS,445329,111268,-1.35679,50.89912,BCT,MKD,OTH,,,,052,2006-10-16T00:00:00,2015-04-25T12:19:14,0,new,active
1980SN120692,sohjgdm,,,Alfriston Gardens,,,,,,Kathleen Road,,,,SW-bound,,SW,E0042023,Sholing,Southampton,,,,,,false,UKOS,445732,111636,-1.35102,50.90239,BCT,MKD,OTH,,,,052,2006-10-16T00:00:00,2020-02-25T08:31:54,0,new,active
1980HAA13665,sohjgdp,,,Alfriston Gardens,,,,,,Kathleen Road,,,,NE-bound,,NE,E0042023,Sholing,Southampton,,,,,,false,UKOS,445749,111659,-1.35077,50.9026,BCT,MKD,OTH,,,,052,2006-10-16T00:00:00,2020-02-25T08:31:54,0,new,active
1980SN120693,sohjgmp,,,Drove Road,,,,,,Kathleen Road,,,,NE-bound,,NE,E0042023,Sholing,Southampton,,,,,,false,UKOS,445940,111813,-1.34804,50.90397,BCT,MKD,OTH,,,,052,2006-10-16T00:00:00,2020-02-25T08:31:54,0,new,active
1980SN120694,sohjgmg,,,Drove Road,,,,,,Kathleen Road,,,,SW-bound,,SW,E0042023,Sholing,Southampton,,,,,,false,UKOS,445920,111787,-1.34832,50.90374,BCT,MKD,OTH,,,,052,2006-10-16T00:00:00,2020-02-25T08:31:54,0,new,active
1980SN120682,sohjdmd,,,Spike Islander,,,,,,South East Road,,,,NW-bound,,NW,E0042023,Sholing,Southampton,,,,,,false,UKOS,445359,111585,-1.35633,50.90197,BCT,MKD,OTH,,,,052,2006-10-18T00:00:00,2021-07-07T13:30:46,0,new,active
1980SN120687,sohjdtp,,,South East Road,,,,,,Kathleen Road,,,,SW-bound,,SW,E0042023,Sholing,Southampton,,,,,,false,UKOS,445510,111380,-1.3542,50.90011,BCT,MKD,OTH,,,,052,2006-10-16T00:00:00,2020-02-25T08:31:54,0,new,active
1980SN120684,sohjdwp,,,South East Road,,,,,,Kathleen Road,,,,N-bound,,N,E0042023,Sholing,Southampton,,,,,,false,UKOS,445551,111463,-1.35361,50.90085,BCT,MKD,OTH,,,,052,2006-10-16T00:00:00,2020-02-25T08:31:54,0,new,active
1980SN120686,sohjdtg,,,Kathleen Road,,,,,,South East Road,,,,NW-bound,,NW,E0042023,Sholing,Southampton,,,,,,false,UKOS,445497,111441,-1.35438,50.90066,BCT,MKD,OTH,,,,052,2006-10-18T00:00:00,2021-07-07T13:30:46,0,new,active
1980SNA09412,sohjwad,,,Meredith Towers,,,,,,Tunstall Road,,,,S-bound,,S,N0073220,Thornhill,Southampton,,,,,,false,UKOS,447221,111844,-1.32981,50.90415,BCT,MKD,OTH,,,,052,2006-10-09T00:00:00,2020-02-25T08:31:54,0,new,active
1980SN121059,sohjpad,,,Burgoyne Road,,,,,,Burgoyne Road,,,,W-bound,,W,N0073220,Thornhill,Southampton,,,,,,false,UKOS,447157,111717,-1.33074,50.90301,BCT,MKD,OTH,,,,052,2006-10-13T00:00:00,2020-02-25T08:31:54,0,new,active
1980SNA09343,sohjtmt,,,WestQuay,,,,,,Portland Terrace,,,,Stop BR,,N,N0077117,Southampton City Centre,Southampton,,,,,,false,UKOS,441869,111734,-1.40594,50.90357,BCT,MKD,OTH,,,,052,2006-10-09T00:00:00,2021-07-07T13:30:46,0,new,active
1980HAA13582,sohawmj,,,WestQuay,,,,,,Portland Terrace,,,,Stop BS,,N,N0077117,Southampton City Centre,Southampton,,,,,,false,UKOS,441878,111682,-1.40581,50.9031,BCT,MKD,OTH,,,,052,2006-10-16T00:00:00,2020-02-25T08:31:54,0,new,active
1980HAA13583,sohawmp,,,WestQuay,,,,,,Portland Terrace,,,,Stop BP,,S,N0077117,Southampton City Centre,Southampton,,,,,,false,UKOS,441883,111739,-1.40574,50.90361,BCT,MKD,OTH,,,,052,2006-10-09T00:00:00,2021-07-07T13:30:46,0,new,active
1980SNA09341,sohjtmp,,,WestQuay,,,,,,Portland Terrace,,,,Stop BQ,,S,N0077117,Southampton City Centre,Southampton,,,,,,false,UKOS,441878,111768,-1.4058,50.90387,BCT,MKD,OTH,,,,052,2006-10-09T00:00:00,2021-07-07T13:30:46,0,new,active
1980SN120026,sohagma,,,Menzies Close,,,,,,Sutherland Road,,,,SW-bound,,SW,N0073217,Lords Hill,Southampton,,,,,,false,UKOS,438748,116251,-1.44984,50.9444,BCT,MKD,OTH,,,,052,2006-10-18T00:00:00,2021-07-07T13:30:46,0,new,active
1980SN120025,sohagtw,,,Erskine Court,,,,,,Sutherland Road,,,,W-bound,,W,N0073217,Lords Hill,Southampton,,,,,,false,UKOS,438998,116350,-1.44627,50.94528,BCT,MKD,OTH,,,,052,2007-01-25T00:00:00,2021-07-07T13:30:46,0,new,active
1980SN120024,sohagwg,,,Sinclair Road,,,,,,Matheson Road,,,,E-bound,,E,N0073217,Lords Hill,Southampton,,,,,,false,UKOS,439080,116454,-1.44509,50.94621,BCT,MKD,OTH,,,,052,2007-01-25T00:00:00,2021-07-07T13:30:46,0,new,active
1980SN120023,sohagpm,,,Forbes Close,,,,,,Buchanan Road,,,,NE-bound,,NE,N0073217,Lords Hill,Southampton,,,,,,false,UKOS,438898,116537,-1.44768,50.94696,BCT,MKD,OTH,,,,052,2006-09-29T00:00:00,2021-07-07T13:30:46,0,new,active
1980SN120019,sohagmg,,,Fraser Close,,,,,,Buchanan Road,,,,NE-bound,,NE,N0073217,Lords Hill,Southampton,,,,,,false,UKOS,438803,116480,-1.44903,50.94646,BCT,MKD,OTH,,,,052,2005-10-07T00:00:00,2021-07-07T13:30:46,0,new,active
1980SNA09572,sohmata,,,St Mark's School,,,,,,Shirley Road,,,,NW-bound,,NW,E0042018,Shirley,Southampton,,,,,,false,UKOS,440497,113095,-1.4253,50.9159,BCT,MKD,OTH,,,,052,2007-07-05T00:00:00,2020-02-25T08:31:53,0,new,active
1980SN120435,sohjagt,,,Glenfield Avenue,,,,,,Mousehole Lane,,,,opp,,E,E0041975,Bitterne,Southampton,,,,,,false,UKOS,444746,113669,-1.36479,50.92075,BCT,MKD,OTH,,,,052,2006-10-16T00:00:00,2025-08-19T09:59:41,15,new,active
1980SNA90993,sohjpjg,,,Glenfield Avenue,,,,,,Mousehole Lane,,,,adj,,W,E0041975,Bitterne,Southampton,,,,,,false,UKOS,444782,113663,-1.36428,50.9207,BCT,MKD,OTH,,,,052,2006-10-16T00:00:00,2025-08-19T09:59:09,20,new,active
1980SNA10143,sohmatw,,,Houndwell Park,,,,,,Hanover Buildings,,,,Stop CN,,E,N0077117,Southampton City Centre,Southampton,,,,,,false,UKOS,442141,111675,-1.40208,50.90302,BCT,MKD,OTH,,,,052,2009-05-20T00:00:00,2021-07-07T13:30:46,0,new,active
1980SNA09229,sohjtam,,,English Road,,,,,,English Road,,,,SW-bound,,,E0041986,Freemantle,Southampton,,,,,,false,UKOS,439845,113355,-1.43454,50.91829,BCT,HAR,OTH,,,,052,2005-10-07T00:00:00,2023-11-07T12:02:55,9,new,active
1980SNA09231,sohjtat,,,Latham Court,,,,,,Waterhouse Way,,,,E-bound,,,E0042019,Shirley Park,Southampton,,,,,,false,UKOS,439611,113350,-1.43787,50.91826,BCT,HAR,OTH,,,,052,2005-10-07T00:00:00,2019-05-21T14:14:19,3,new,active
1980SNA09230,sohjtap,,,Latham Court,,,,,,Waterhouse Way,,,,W-bound,,,E0042019,Shirley Park,Southampton,,,,,,false,UKOS,439637,113334,-1.4375,50.91811,BCT,HAR,OTH,,,,052,2005-10-07T00:00:00,2023-11-07T12:02:55,8,new,active
1980SNA09228,sohjtaj,,,Heysham Road,,,,,,Foundry Lane,,,,N-bound,,,E0041986,Freemantle,Southampton,,,,,,false,UKOS,439919,113367,-1.43349,50.91839,BCT,HAR,OTH,,,,052,2005-10-07T00:00:00,2023-11-07T12:02:55,16,new,active
1980SNA09233,sohjtaw,,,Heysham Road,,,,,,Foundry Lane,,,,S-bound,,,E0041986,Freemantle,Southampton,,,,,,false,UKOS,439928,113369,-1.43336,50.91841,BCT,HAR,OTH,,,,052,2005-10-07T00:00:00,2019-05-21T14:14:19,3,new,active
1980SNA09234,sohjtda,,,Salcombe Road,,,,,,Foundry Lane,,,,SE-bound,,,E0041986,Freemantle,Southampton,,,,,,false,UKOS,439979,113184,-1.43266,50.91674,BCT,HAR,OTH,,,,052,2009-03-24T00:00:00,2019-05-21T14:14:19,3,new,active
1980SNA09236,sohjtgw,,,Dunkirk Road,,,,,,Coxford Road,,,,SW-bound,,,E0041997,Lordswood,Southampton,,,,,,false,UKOS,440392,115896,-1.42648,50.9411,BCT,HAR,OTH,,,,052,2005-10-07T00:00:00,2024-03-19T09:46:37,203,new,active
1980SN120P07,sohapgw,,,Pitt Road,,,,,,Park Road,,,,SE-bound,,SE,E0041986,Freemantle,Southampton,,,,,,false,UKOS,440447,112881,-1.42603,50.91398,BCT,MKD,OTH,,,,052,2007-02-23T00:00:00,2014-04-08T15:43:15,16,new,active
1980SNA09225,sohjpwt,,,Pitt Road,,,,,,Park Road,,,,W-bound,,,E0041986,Freemantle,Southampton,,,,,,false,UKOS,440479,112868,-1.42558,50.91386,BCT,HAR,OTH,,,,052,2005-10-07T00:00:00,2023-11-07T12:02:54,42,new,active
1980SNA09227,sohjtag,,,Nelson Road,,,,,,Foundry Lane,,,,N-bound,,,E0041986,Freemantle,Southampton,,,,,,false,UKOS,440012,112924,-1.43221,50.9144,BCT,HAR,OTH,,,,052,2005-10-07T00:00:00,2023-11-07T12:02:54,36,new,active
1980SNA09241,sohjtdw,,,Warbler Close H&R area,,,,,,Sandpiper Road,,,,adj,,,N0073217,Lords Hill,Southampton,,,,,,false,UKOS,439844,116632,-1.4342,50.94775,BCT,HAR,OTH,,,,052,2005-10-07T00:00:00,2023-11-07T15:52:47,240,new,active
1980SNA09237,sohjtdj,,,Warbler Close H&R area,,,,,,Sandpiper Road,,,,opp,,,N0073217,Lords Hill,Southampton,,,,,,false,UKOS,439934,116515,-1.43293,50.9467,BCT,HAR,OTH,,,,052,2005-10-07T00:00:00,2020-09-16T09:58:44,45,new,active
1980SNA09299,sohjtjm,,,Omdurman Road,,,,,,Highfield Road,,,,N-bound,,N,E0041989,Highfield,Southampton,,,,,,false,UKOS,442047,114765,-1.40306,50.93081,BCT,MKD,OTH,,,,052,2005-10-07T00:00:00,2020-02-25T08:31:54,0,new,active
1980SNA09313,sohjtjp,,,Glenwood Avenue,,,,,,Glen Eyre Road,,,,SE-bound,,SE,E0041967,Bassett,Southampton,,,,,,false,UKOS,441909,116469,-1.40482,50.94614,BCT,MKD,OTH,,,,052,2005-10-07T00:00:00,2020-02-25T08:31:54,0,new,active
1980SNA09323,sohjtpt,,,Lower Brownhill Road,,,,,,Romsey Road,,,,NW-bound,,NW,E0042000,Maybush,Southampton,,,,,,false,UKOS,438550,115312,-1.45276,50.93597,BCT,MKD,OTH,,,,052,2006-10-18T00:00:00,2020-02-25T08:31:54,0,new,active
1980SN121046,sohadwp,,,Lower Brownhill Road,,,,,,Romsey Road,,,,SE-bound,,SE,E0042000,Maybush,Southampton,,,,,,false,UKOS,438549,115329,-1.45277,50.93612,BCT,MKD,OTH,,,,052,2006-10-18T00:00:00,2020-02-25T08:31:53,0,new,active
1980SNA09240,sohjtdt,,,Woburn Road,,,,,,Dunvegan Drive,,,,E-bound,,,N0073217,Lords Hill,Southampton,,,,,,false,UKOS,440024,116434,-1.43166,50.94596,BCT,HAR,OTH,,,,052,2005-10-07T00:00:00,2023-11-07T15:52:47,92,new,active
1980SNA09238,sohjtdm,,,Woburn Road,,,,,,Sandpiper Road,,,,SE-bound,,,N0073217,Lords Hill,Southampton,,,,,,false,UKOS,439918,116316,-1.43318,50.94491,BCT,HAR,OTH,,,,052,2005-10-07T00:00:00,2020-09-16T10:11:48,83,new,active
1980SNA09242,sohjtga,,,Gannet Close H&R area,,,,,,Sandpiper Road,,,,opp,,,N0073217,Lords Hill,Southampton,,,,,,false,UKOS,439510,116280,-1.43899,50.94461,BCT,HAR,OTH,,,,052,2005-10-07T00:00:00,2023-11-07T15:52:47,374,new,active
1980SNA09298,sohjtjg,,,Green Wood Court,,,,,,Bassett Green Road,,,,NW-bound,,NW,E0041968,Bassett Green,Southampton,,,,,,false,UKOS,442880,116373,-1.39102,50.94521,BCT,MKD,OTH,,,,052,2006-04-13T00:00:00,2023-08-23T08:21:40,37,new,active
1980SNA90968,sohmgwp,,,Green Wood Court,,,,,,Bassett Green Road,,,,SE-bound,,SE,E0041968,Bassett Green,Southampton,,,,,,false,UKOS,442875,116393,-1.39108,50.94539,BCT,MKD,OTH,,,,052,2019-07-17T00:00:00,2023-08-23T08:21:56,58,new,active
1980SNA19722,sohmadg,,,Anglesea Terrace,,,,,,Albert Road North,,,,N-bound,,N,E0041979,Chapel,Southampton,,,,,,false,UKOS,442912,111480,-1.39113,50.90121,BCT,MKD,OTH,,,,052,2007-01-09T00:00:00,2020-02-25T08:31:54,0,new,active
1980SNA19721,sohmada,,,Anglesea Terrace,,,,,,Albert Road North,,,,S-bound,,S,E0041979,Chapel,Southampton,,,,,,false,UKOS,442924,111474,-1.39096,50.90115,BCT,MKD,OTH,,,,052,2007-01-09T00:00:00,2020-02-25T08:31:54,0,new,active
1980SNA19771,sohmadm,,,Wellburn Court,,,,,,Wakefield Road,,,,opp,,N,E0042002,Midanbury,Southampton,,,,,,false,UKOS,445184,114440,-1.35846,50.92765,BCT,CUS,OTH,,,,052,2006-08-11T00:00:00,2021-03-17T07:56:19,14,new,active
1980SNA90901,sohmdpd,,,Wellburn Court,,,,,,Wakefield Road,,,,adj,,S,E0042002,Midanbury,Southampton,,,,,,false,UKOS,445213,114478,-1.35804,50.92799,BCT,MKD,OTH,,,,052,2021-03-17T00:00:00,2021-03-17T07:56:42,34,new,active
1980SNA19772,sohmadp,,,Chester Road,,,,,,Wakefield Road,,,,opp,,NE,E0042002,Midanbury,Southampton,,,,,,false,UKOS,445047,114131,-1.36045,50.92488,BCT,CUS,OTH,,,,052,2006-08-11T00:00:00,2014-05-09T07:14:41,17,new,active
1980SNA90900,sohmdpa,,,Chester Road,,,,,,Wakefield Road,,,,S-bound,,S,E0042002,Midanbury,Southampton,,,,,,false,UKOS,445035,114101,-1.36062,50.92461,BCT,MKD,OTH,,,,052,2014-05-09T00:00:00,2014-05-09T07:14:56,26,new,active
1980SNA19773,sohmadt,,,Huntly Way,,,,,,Glenfield Avenue,,,,S-bound,,S,E0041975,Bitterne,Southampton,,,,,,false,UKOS,444655,113233,-1.36614,50.91684,BCT,MKD,OTH,,,,052,2006-10-16T00:00:00,2021-07-07T13:30:46,0,new,active
1980SNA19774,sohmadw,,,Caxton Avenue,,,,,,Upper Deacon Road,,,,NE-bound,,,E0042030,Thornhill Park,Southampton,,,,,,false,UKOS,445980,112713,-1.34735,50.91206,BCT,HAR,OTH,,,,052,2006-08-11T00:00:00,2023-11-07T10:19:54,80,new,active
1980HAA13668,sohdjgd,,,Highfield Interchange,,,,,,bus access road,,,,Stop B,,NW,E0041989,Highfield,Southampton,,,,,,false,UKOS,442477,115377,-1.39687,50.93628,BCT,MKD,OTH,,,,052,2007-03-06T00:00:00,2021-09-14T13:56:42,51,new,active
1980SNA90971,sohmjag,,,Centenary Building,,,,,,bus access road,,,,Stop A,,N,E0041989,Highfield,Southampton,,,,,,false,UKOS,442450,115444,-1.39724,50.93689,BCT,MKD,OTH,,,,052,2021-09-14T00:00:00,2021-09-14T13:56:11,57,new,active
1980SNA19711,sohjwtj,,,Freemantle Common Road,,,,,,Spring Road,,,,SE-bound,,SE,E0041975,Bitterne,Southampton,,,,,,false,UKOS,444818,112712,-1.36388,50.91214,BCT,MKD,OTH,,,,052,2006-08-11T00:00:00,2020-02-25T08:31:54,0,new,active
1980SNA19712,sohjwtm,,,Freemantle Common Road,,,,,,Spring Road,,,,NW-bound,,NW,E0041975,Bitterne,Southampton,,,,,,false,UKOS,444820,112688,-1.36386,50.91193,BCT,MKD,OTH,,,,052,2006-06-01T00:00:00,2023-02-01T12:39:03,2,new,active
1980SN120160,sohdtat,,,Wessex Lane Halls,,,,,,Wessex Lane,,,,NE-bound,,NE,E0042028,Swaythling,Southampton,,,,,,false,UKOS,443883,115515,-1.37684,50.93742,BCT,MKD,OTH,,,,052,2007-01-25T00:00:00,2024-10-01T07:12:04,37,new,active
1980SN120161,sohdtad,,,Wessex Lane Halls,,,,,,Wessex Lane,,,,SW-bound,,SW,E0042028,Swaythling,Southampton,,,,,,false,UKOS,443868,115498,-1.37706,50.93727,BCT,MKD,OTH,,,,052,2007-01-25T00:00:00,2024-10-01T07:12:21,37,new,active
1980SN12921A,sohjata,,,Bitterne Shops,,,,,,West End Road,,,,Stop BD,,NE,E0041975,Bitterne,Southampton,,,,,,false,UKOS,444994,113059,-1.36133,50.91525,BCT,MKD,OTH,,,,052,2007-04-16T00:00:00,2024-09-16T11:34:53,0,new,active
1980SN12922A,sohjatd,,,Bitterne Shops,,,,,,West End Road,,,,Stop BB,,SW,E0041975,Bitterne,Southampton,,,,,,false,UKOS,444988,113026,-1.36142,50.91495,BCT,MKD,OTH,,,,052,2007-03-29T00:00:00,2014-04-11T11:39:12,11,new,active
1980SNA90798,sohmagt,,,Bitterne Shops,,,,,,West End Road,,,,Stop BA,,SW,E0041975,Bitterne,Southampton,,,,,,false,UKOS,445008,113047,-1.36114,50.91514,BCT,MKD,OTH,,,,052,2007-01-08T00:00:00,2014-04-08T16:20:19,11,new,active
1980SNA90830,sohmapa,,,City College,,,,,,Chapel Road,,,,E-bound,,E,N0080456,St Marys,Southampton,,,,,,false,UKOS,442719,111605,-1.39386,50.90235,BCT,MKD,OTH,,,,052,2007-10-09T00:00:00,2014-04-08T16:48:01,17,new,active
1980SNA90831,sohmapd,,,City College,,,,,,Chapel Road,,,,W-bound,,W,N0080456,St Marys,Southampton,,,,,,false,UKOS,442599,111583,-1.39557,50.90216,BCT,MKD,OTH,,,,052,2010-08-10T00:00:00,2020-02-25T08:31:54,0,new,active
1980HA120642,sohdmad,,,Ocean Village,,,,,,Canute Road,,,,W-bound,,W,N0073219,Ocean Village,Southampton,,,,,,false,UKOS,442704,111003,-1.39415,50.89693,BCT,MKD,OTH,,,,052,2005-10-07T00:00:00,2020-02-25T08:31:54,0,new,active
1980HA120641,sohdmaj,,,Ocean Village,,,,,,Canute Road,,,,E-bound,,E,N0073219,Ocean Village,Southampton,,,,,,false,UKOS,442716,111015,-1.39398,50.89704,BCT,MKD,OTH,,,,052,2009-03-24T00:00:00,2020-02-25T08:31:54,0,new,active
1980SN120533,sohdapj,,,Park Walk,,,,,,New Road,,,,Stop AA,,W,N0077117,Southampton City Centre,Southampton,,,,,,false,UKOS,442036,112100,-1.40352,50.90685,BCT,MKD,OTH,,,,052,2007-04-16T00:00:00,2014-04-08T16:11:36,20,new,active
1980SNA40401,sohjtpw,,,Park Walk,,,,,,New Road,,,,Stop AH,,E,N0077117,Southampton City Centre,Southampton,,,,,,false,UKOS,442036,112116,-1.40352,50.90699,BCT,MKD,OTH,,,,052,2007-04-16T00:00:00,2014-04-08T16:11:18,20,new,active
1980SNA40402,sohjtwa,,,Giddy Bridge,,,,,,London Road,,,,SW-bound,,SW,E0041969,Bedford Place,Southampton,,,,,,false,UKOS,441955,112561,-1.40462,50.911,BCT,MKD,OTH,,,,052,2005-12-09T00:00:00,2014-04-11T11:37:11,20,new,active
1980SN120522,sohdajt,,,Giddy Bridge,,,,,,London Road,,,,NE-bound,,NE,E0041969,Bedford Place,Southampton,,,,,,false,UKOS,441995,112656,-1.40404,50.91185,BCT,MKD,OTH,,,,052,2007-04-16T00:00:00,2014-04-11T11:36:47,24,new,active
1980SNA40501,sohjtwd,,,Lennox Close,,,,,,Rownhams Road North,,,,NE-bound,,NE,N0073217,Lords Hill,Southampton,,,,,,false,UKOS,438709,116444,-1.45038,50.94614,BCT,MKD,OTH,,,,052,2005-10-07T00:00:00,2021-07-07T13:30:46,0,new,active
1980SN122019,sohagdm,,,Lennox Close,,,,,,Rownhams Road North,,,,SW-bound,,SW,N0073217,Lords Hill,Southampton,,,,,,false,UKOS,438716,116435,-1.45028,50.94606,BCT,MKD,OTH,,,,052,2006-10-09T00:00:00,2017-03-21T11:27:58,10,new,active
1980SNA13768,sohdama,,,Telephone House,,,,,,High Street,,,,Stop TE,,N,N0077173,Town Quay,Southampton,,,,,,false,UKOS,441997,111036,-1.4042,50.89728,BCT,MKD,OTH,,,,052,2007-04-18T00:00:00,2021-07-07T13:30:46,0,new,active
1980SNA13769,sohdamg,,,Telephone House,,,,,,High Street,,,,Stop TF,,S,N0077173,Town Quay,Southampton,,,,,,false,UKOS,442006,111056,-1.40407,50.89746,BCT,MKD,OTH,,,,052,2007-04-18T00:00:00,2021-07-07T13:30:46,0,new,active
1980SNA19469,sohjwgw,,,Library,,,,,,Commercial Street,,,,opp,,SW,E0041975,Bitterne,Southampton,,,,,,false,UKOS,445458,113015,-1.35474,50.91482,BCT,MKD,OTH,,,,052,2007-04-18T00:00:00,2023-11-07T15:20:43,31,new,active
1980SN120474,sohjdmg,,,Library,,,,,,Bitterne Road East,,,,opp,,W,E0041975,Bitterne,Southampton,,,,,,false,UKOS,445388,112981,-1.35574,50.91452,BCT,MKD,OTH,,,,052,2007-04-16T00:00:00,2021-07-07T13:30:44,0,new,active
1980SNA19470,sohjwja,,,Balaclava Road,,,,,,Shales Road,,,,SW-bound,,SW,E0041975,Bitterne,Southampton,,,,,,false,UKOS,445683,113382,-1.35149,50.9181,BCT,MKD,OTH,,,,052,2006-10-18T00:00:00,2021-07-07T13:30:46,0,new,active
1980SNA90945,sohmgmj,,,Balaclava Road,,,,,,Shales Road,,,,adjacent,,NE,E0041975,Bitterne,Southampton,,,,,,false,UKOS,445662,113361,-1.3518,50.91791,BCT,CUS,OTH,,,,052,2016-02-15T00:00:00,2016-02-15T11:11:51,85,new,active
1980SNA19471,sohjwjd,,,Burnham Chase,,,,,,Taunton Drive,,,,NW-bound,,NW,E0041975,Bitterne,Southampton,,,,,,false,UKOS,445950,113262,-1.34771,50.917,BCT,MKD,OTH,,,,052,2007-02-23T00:00:00,2021-07-07T13:30:46,0,new,active
1980SNA90946,sohmgmp,,,Burnham Chase,,,,,,Taunton Drive,,,,adjacent,,SE,E0041975,Bitterne,Southampton,,,,,,false,UKOS,445937,113292,-1.34789,50.91727,BCT,CUS,OTH,,,,052,2016-02-15T00:00:00,2016-02-15T11:14:25,76,new,active
1980SNA13670,sohdagp,,,Avenue Campus,,,,,,Highfield Road,,,,opp,,N,E0041989,Highfield,Southampton,,,,,,false,UKOS,441970,114520,-1.40418,50.92861,BCT,MKD,OTH,,,,052,2007-04-18T00:00:00,2020-02-25T08:31:52,0,new,active
1980SNA13762,sohawmd,,,Red Jet Terminal,,,,,,,,,,SW-bound,,SW,N0077173,Town Quay,Southampton,,,,,,false,UKOS,441876,110754,-1.40595,50.89476,BCT,MKD,OTH,,,,052,2007-02-23T00:00:00,2015-06-08T13:00:18,15,new,active
1980SNA13766,sohdapt,,,Platform Tavern,,,,,,Town Quay,,,,Stop TD,,E,N0077173,Town Quay,Southampton,,,,,,false,UKOS,442073,110920,-1.40313,50.89623,BCT,MKD,OTH,,,,052,2006-04-13T00:00:00,2021-07-07T13:30:46,0,new,active
1980SNA13767,sohdatm,,,Platform Tavern,,,,,,Town Quay,,,,Stop TC,,W,N0077173,Town Quay,Southampton,,,,,,false,UKOS,442064,110901,-1.40326,50.89606,BCT,MKD,OTH,,,,052,2006-08-11T00:00:00,2021-07-07T13:30:46,0,new,active
1980SNA19472,sohjwjg,,,Dalmally Gardens,,,,,,Midanbury Lane,,,,S-bound,,S,E0041975,Bitterne,Southampton,,,,,,false,UKOS,444483,113836,-1.36851,50.92227,BCT,MKD,OTH,,,,052,2007-02-23T00:00:00,2021-07-07T13:30:46,0,new,active
1980SNA19483,sohjwmw,,,Midanbury Crescent,,,,,,Avon Road,,,,SW-bound,,SW,E0042002,Midanbury,Southampton,,,,,,false,UKOS,444643,114084,-1.3662,50.92449,BCT,MKD,OTH,,,,052,2007-02-23T00:00:00,2021-07-07T13:30:46,0,new,active
1980SNA19495,sohjwpa,,,Furzedown Road,,,,,,Highfield Avenue,,,,opp,,NW,E0041989,Highfield,Southampton,,,,,,false,UKOS,442059,114956,-1.40286,50.93253,BCT,MKD,OTH,,,,052,2005-11-30T00:00:00,2025-08-19T09:53:11,69,new,active
1980SNA90992,sohjpjd,,,Furzedown Road,,,,,,Highfield Avenue,,,,adj,,SE,E0041989,Highfield,Southampton,,,,,,false,UKOS,442066,114965,-1.40276,50.93261,BCT,MKD,OTH,,,,052,2005-11-30T00:00:00,2025-08-19T09:51:16,51,new,active
1980SNA19670,sohjwpg,,,Channels Farm Road,,,,,,Bassett Green Road,,,,opp,,NW,E0041968,Bassett Green,Southampton,,,,,,false,UKOS,443828,116098,-1.37756,50.94266,BCT,MKD,OTH,,,,052,2007-01-25T00:00:00,2023-08-07T10:29:21,39,new,active
1980SNA19474,sohjwjp,,,Bracklesham Close,,,,,,Middle Road,,,,S-bound,,S,E0042037,Woolston,Southampton,,,,,,false,UKOS,445001,111157,-1.36147,50.89814,BCT,MKD,OTH,,,,052,2007-02-23T00:00:00,2014-04-08T12:44:39,20,new,active
1980SNA19475,sohjwjt,,,Itchen College,,,,,,Middle Road,,,,NE-bound,,NE,E0042023,Sholing,Southampton,,,,,,false,UKOS,445342,112282,-1.35648,50.90823,BCT,MKD,OTH,,,,052,2007-02-23T00:00:00,2021-07-07T13:30:46,0,new,active
1980SNA19478,sohjwmd,,,Itchen College,,,,,,Middle Road,,,,SW-bound,,SW,E0042023,Sholing,Southampton,,,,,,false,UKOS,445308,112193,-1.35698,50.90744,BCT,MKD,OTH,,,,052,2007-02-23T00:00:00,2021-07-07T13:30:46,0,new,active
1980SNA19476,sohjwjw,,,Kenson Gardens,,,,,,Middle Road,,,,S-bound,,S,E0042023,Sholing,Southampton,,,,,,false,UKOS,445092,111581,-1.36012,50.90195,BCT,MKD,OTH,,,,052,2007-02-23T00:00:00,2021-07-07T13:30:46,0,new,active
1980SN120590,sohjdga,,,The Sholing Technology College,,,,,,Middle Road,,,,N-bound,,N,E0042023,Sholing,Southampton,,,,,,false,UKOS,445176,111903,-1.35889,50.90484,BCT,MKD,OTH,,,,052,2006-10-16T00:00:00,2014-04-08T13:28:54,14,new,active
1980SNA19477,sohjwma,,,The Sholing Technology College,,,,,,Middle Road,,,,SW-bound,,SW,E0042023,Sholing,Southampton,,,,,,false,UKOS,445218,111985,-1.35828,50.90557,BCT,MKD,OTH,,,,052,2007-02-23T00:00:00,2014-04-08T13:29:16,14,new,active
1980SN121049,sohdpjd,,,Bassett Green Road,,,,,,Stoneham Lane,,,,N-bound,,N,E0042028,Swaythling,Southampton,,,,,,false,UKOS,443621,116087,-1.3805,50.94258,BCT,MKD,OTH,,,,052,2005-10-07T00:00:00,2020-02-25T08:31:54,0,new,active
1980SN121048,sohdpjg,,,Bassett Green Road,,,,,,Stoneham Lane,,,,S-bound,,S,E0042028,Swaythling,Southampton,,,,,,false,UKOS,443632,116087,-1.38035,50.94258,BCT,MKD,OTH,,,,052,2005-10-07T00:00:00,2020-02-25T08:31:54,0,new,active
1980SN121051,sohdpwg,,,BTC Sports Ground,,,,,,Stoneham Lane,,,,SW-bound,,SW,E0042028,Swaythling,Southampton,,,,,,false,UKOS,443833,116469,-1.37744,50.946,BCT,MKD,OTH,,,,052,2006-01-18T00:00:00,2022-02-02T07:30:47,4,new,active
1980SN121047,sohdpwa,,,BTC Sports Ground,,,,,,Stoneham Lane,,,,N-bound,,N,E0042028,Swaythling,Southampton,,,,,,false,UKOS,443829,116474,-1.3775,50.94604,BCT,MKD,OTH,,,,052,2005-10-07T00:00:00,2022-02-02T07:30:09,4,new,active
1980SN121052,sohawjt,,,Oakmount Avenue,,,,,,The Avenue,,,,N-bound,,N,E0041989,Highfield,Southampton,,,,,,false,UKOS,441864,114351,-1.40571,50.9271,BCT,MKD,OTH,,,,052,2006-10-18T00:00:00,2020-02-25T08:31:54,0,new,active
1980SN121055,sohawjw,,,Oakmount Avenue,,,,,,The Avenue,,,,S-bound,,S,E0041989,Highfield,Southampton,,,,,,false,UKOS,441872,114383,-1.40559,50.92739,BCT,MKD,OTH,,,,052,2007-01-25T00:00:00,2020-02-25T08:31:54,0,new,active
1980SN121053,sohawgm,,,Avenue Subway,,,,,,The Avenue,,,,N-bound,,N,E0041989,Highfield,Southampton,,,,,,false,UKOS,441845,114625,-1.40595,50.92957,BCT,MKD,OTH,,,,052,2007-04-18T00:00:00,2020-02-25T08:31:54,0,new,active
1980SN121054,sohawgt,,,Avenue Subway,,,,,,The Avenue,,,,S-bound,,S,E0041989,Highfield,Southampton,,,,,,false,UKOS,441855,114670,-1.4058,50.92997,BCT,MKD,OTH,,,,052,2007-04-18T00:00:00,2020-02-25T08:31:54,0,new,active
1980SN121042,sohadjp,,,Bakers Drove,,,,,,Romsey Road,,,,SE-bound,,SE,E0046884,Nursling,,,,,,,false,UKOS,438107,116101,-1.45898,50.9431,BCT,MKD,OTH,,,,052,2006-11-27T00:00:00,2014-07-31T14:23:39,23,new,active
1980SN120051,sohadpg,,,Oasis Academy,,,,,,Romsey Road,,,,NW-bound,,NW,N0073217,Lords Hill,Southampton,,,,,,false,UKOS,438220,115860,-1.4574,50.94092,BCT,MKD,OTH,,,,052,2006-10-09T00:00:00,2020-02-25T08:31:54,0,new,active
1980SN121043,sohadpd,,,Oasis Academy,,,,,,Romsey Road,,,,SE-bound,,SE,N0073217,Lords Hill,Southampton,,,,,,false,UKOS,438202,115917,-1.45765,50.94144,BCT,MKD,OTH,,,,052,2006-10-18T00:00:00,2020-02-25T08:31:54,0,new,active
1980SN121044,sohagat,,,Green Lane,,,,,,Romsey Road,,,,NW-bound,,NW,E0042000,Maybush,Southampton,,,,,,false,UKOS,438615,115199,-1.45184,50.93495,BCT,MKD,OTH,,,,052,2006-10-18T00:00:00,2020-02-25T08:31:54,0,new,active
1980SN120062,sohagdg,,,Green Lane,,,,,,Romsey Road,,,,SE-bound,,SE,E0042000,Maybush,Southampton,,,,,,false,UKOS,438664,115133,-1.45115,50.93435,BCT,MKD,OTH,,,,052,2006-10-18T00:00:00,2020-02-25T08:31:54,0,new,active
1980SN121045,sohagmp,,,Maybush Corner,,,,,,Romsey Road,,,,NW-bound,,NW,E0042000,Maybush,Southampton,,,,,,false,UKOS,438842,114820,-1.44865,50.93153,BCT,MKD,OTH,,,,052,2006-10-18T00:00:00,2020-02-25T08:31:54,0,new,active
1980SN120196,sohagpt,,,Maybush Corner,,,,,,Romsey Road,,,,SE-bound,,SE,E0042000,Maybush,Southampton,,,,,,false,UKOS,438917,114713,-1.4476,50.93056,BCT,MKD,OTH,,,,052,2006-10-18T00:00:00,2020-02-25T08:31:54,0,new,active
1980SN120194,sohagpg,,,Maybush Corner,,,,,,Rownhams Road,,,,N-bound,,N,E0042000,Maybush,Southampton,,,,,,false,UKOS,438897,114806,-1.44787,50.9314,BCT,MKD,OTH,,,,052,2006-10-18T00:00:00,2020-02-25T08:31:54,0,new,active
1980SN121003,sohawpm,,,Bargate WestQuay,,,,,,Bargate Street,,,,Stop BL,,W,N0077117,Southampton City Centre,Southampton,,,,,,false,UKOS,441918,111641,-1.40525,50.90273,BCT,MKD,OTH,,,,052,2005-12-15T00:00:00,2014-04-08T16:05:28,14,new,active
1980SN122003,sohjgda,,,Tenterton Avenue,,,,,,Newtown Road,,,,SE-bound,,SE,N0073222,Weston,Southampton,,,,,,false,UKOS,445647,110128,-1.35241,50.88884,BCT,MKD,OTH,,,,052,2009-03-24T00:00:00,2020-02-25T08:31:53,0,new,active
1980SN122002,sohjgaw,,,Tenterton Avenue,,,,,,Newtown Road,,,,NW-bound,,NW,N0073222,Weston,Southampton,,,,,,false,UKOS,445617,110191,-1.35283,50.88941,BCT,MKD,OTH,,,,052,2006-10-16T00:00:00,2020-02-25T08:31:53,0,new,active
1980SN12272A,sohdmdp,,,Portswood Broadway,,,,,,Portswood Road,,,,Stop PH,,NE,E0042013,Portswood,Southampton,,,,,,false,UKOS,442821,114276,-1.3921,50.92636,BCT,MKD,OTH,,,,052,2007-01-25T00:00:00,2015-12-08T13:18:52,8,new,active
1980SN120273,sohdmgm,,,Portswood Broadway,,,,,,St Denys Road,,,,Stop PA,,SE,E0042013,Portswood,Southampton,,,,,,false,UKOS,442896,114282,-1.39103,50.9264,BCT,MKD,OTH,,,,052,2005-10-07T00:00:00,2014-04-11T11:14:43,15,new,active
1980SN12275A,sohdmdm,,,Portswood Broadway,,,,,,Portswood Road,,,,Stop PB,,SW,E0042013,Portswood,Southampton,,,,,,false,UKOS,442820,114260,-1.39212,50.92621,BCT,MKD,OTH,,,,052,2007-01-25T00:00:00,2021-07-07T13:30:46,0,new,active
1980SN121062,sohjgmj,,,St Francis Avenue,,,,,,West End Road,,,,W-bound,,W,E0041988,Harefield,Southampton,,,,,,false,UKOS,445890,113810,-1.3485,50.92193,BCT,MKD,OTH,,,,052,2007-01-25T00:00:00,2020-02-25T08:31:53,0,new,active
1980SN121060,sohjgjw,,,St Francis Avenue,,,,,,West End Road,,,,E-bound,,E,E0041988,Harefield,Southampton,,,,,,false,UKOS,445879,113819,-1.34865,50.92201,BCT,MKD,OTH,,,,052,2007-01-25T00:00:00,2020-02-25T08:31:53,0,new,active
1980SN121063,sohjdwg,,,Hatley Road,,,,,,West End Road,,,,E-bound,,E,E0041988,Harefield,Southampton,,,,,,false,UKOS,445540,113762,-1.35348,50.92153,BCT,MKD,OTH,,,,052,2007-01-25T00:00:00,2020-02-25T08:31:53,0,new,active
1980SN121061,sohjdwa,,,Hatley Road,,,,,,West End Road,,,,W-bound,,W,E0041988,Harefield,Southampton,,,,,,false,UKOS,445532,113754,-1.3536,50.92146,BCT,MKD,OTH,,,,052,2007-01-25T00:00:00,2020-02-25T08:31:53,0,new,active
1980SN121066,sohadtm,,,Severn Road,,,,,,Wimpson Lane,,,,NE-bound,,NE,N0080447,Millbrook Estate,Southampton,,,,,,false,UKOS,438329,113788,-1.45606,50.92228,BCT,MKD,OTH,,,,052,2006-10-11T00:00:00,2020-02-25T08:31:53,0,new,active
1980SN121067,sohagam,,,Pickles Copse,,,,,,Wimpson Lane,,,,NE-bound,,NE,N0080447,Millbrook Estate,Southampton,,,,,,false,UKOS,438582,114261,-1.45241,50.92652,BCT,MKD,OTH,,,,052,2007-01-25T00:00:00,2020-02-25T08:31:53,0,new,active
1980SN121068,sohadwg,,,Oakley Road,,,,,,Wimpson Lane,,,,NE-bound,,NE,N0080447,Millbrook Estate,Southampton,,,,,,false,UKOS,438476,114054,-1.45394,50.92467,BCT,MKD,OTH,,,,052,2007-01-25T00:00:00,2020-02-25T08:31:53,0,new,active
1980SN121006,sohawja,,,Ridgemount Avenue,,,,,,Bassett Avenue,,,,N-bound,,N,E0041967,Bassett,Southampton,,,,,,false,UKOS,441847,116422,-1.40571,50.94572,BCT,MKD,OTH,,,,052,2006-09-29T00:00:00,2020-02-25T08:31:53,0,new,active
1980SN121010,sohawjd,,,Ridgemount Avenue,,,,,,Bassett Avenue,,,,opp,,S,E0041967,Bassett,Southampton,,,,,,false,UKOS,441857,116404,-1.40557,50.94556,BCT,MKD,OTH,,,,052,2006-09-29T00:00:00,2015-04-25T12:19:16,0,new,active
1980SNA09464,sohjwga,,,WestQuay,,,,,,Castle Way,,,,Stop BG,,S,N0077117,Southampton City Centre,Southampton,,,,,,false,UKOS,441907,111607,-1.40541,50.90242,BCT,MKD,OTH,,,,052,2006-10-13T00:00:00,2024-10-16T16:18:05,55,new,active
1980HAA13647,sohawmw,,,WestQuay,,,,,,Castle Way,,,,Stop BF,,N,N0077117,Southampton City Centre,Southampton,,,,,,false,UKOS,441896,111615,-1.40557,50.9025,BCT,MKD,OTH,,,,052,2007-04-16T00:00:00,2024-10-16T16:17:00,59,new,active
1980SN121016,sohawpd,,,WestQuay,,,,,,Castle Way,,,,Stop BJ,,N,N0077117,Southampton City Centre,Southampton,,,,,,false,UKOS,441900,111600,-1.40551,50.90236,BCT,MKD,OTH,,,,052,2007-04-16T00:00:00,2024-10-16T16:17:27,56,delete,inactive
1980SN120P14,sohajwg,,,Whinchat Close H&R area,,,,,,Sandpiper Road,,,,opp,,,N0073217,Lords Hill,Southampton,,,,,,false,UKOS,439615,116600,-1.43746,50.94748,BCT,HAR,OTH,,,,052,2005-10-07T00:00:00,2020-09-16T09:59:30,36,new,active
1980SN121007,sohawam,,,Holly Hill,,,,,,Bassett Avenue,,,,N-bound,,N,E0041967,Bassett,Southampton,,,,,,false,UKOS,441799,116105,-1.40643,50.94288,BCT,MKD,OTH,,,,052,2006-09-29T00:00:00,2020-02-25T08:31:53,0,new,active
1980SN120116,sohawaw,,,Holly Hill,,,,,,Bassett Avenue,,,,S-bound,,S,E0041967,Bassett,Southampton,,,,,,false,UKOS,441793,115974,-1.40653,50.9417,BCT,MKD,OTH,,,,052,2006-09-29T00:00:00,2020-02-25T08:31:53,0,new,active
1980SN121008,sohawpt,,,Saxholm Way,,,,,,Bassett Avenue,,,,adj,,N,E0041967,Bassett,Southampton,,,,,,false,UKOS,441905,116808,-1.40484,50.94919,BCT,MKD,OTH,,,,052,2006-09-29T00:00:00,2015-04-25T12:19:16,0,new,active
1980SN121009,sohawtj,,,Saxholm Way,,,,,,Bassett Avenue,,,,S-bound,,S,E0041967,Bassett,Southampton,,,,,,false,UKOS,441929,116888,-1.40449,50.94991,BCT,MKD,OTH,,,,052,2005-10-07T00:00:00,2014-04-08T16:24:20,20,new,active
1980SN12619A,sohdapa,,,Bargate,,,,,,Hanover Buildings,,,,Stop CU,,E,N0077117,Southampton City Centre,Southampton,,,,,,false,UKOS,442066,111683,-1.40314,50.9031,BCT,MKD,OTH,,,,052,2007-04-18T00:00:00,2014-04-08T16:04:13,14,new,active
1980SN121033,sohjgwj,,,Ashley Crescent,,,,,,Portsmouth Road,,,,E-bound,,E,E0042023,Sholing,Southampton,,,,,,false,UKOS,446251,110590,-1.34377,50.89295,BCT,MKD,OTH,,,,052,2007-04-18T00:00:00,2021-07-07T13:30:46,0,new,active
1980SN121035,sohjgwd,,,Ashley Crescent,,,,,,Portsmouth Road,,,,W-bound,,W,E0042023,Sholing,Southampton,,,,,,false,UKOS,446194,110604,-1.34458,50.89308,BCT,MKD,OTH,,,,052,2007-04-18T00:00:00,2020-02-25T08:31:54,0,new,active
1980SN121038,sohagpj,,,Redbridge Fire Station,,,,,,Redbridge Hill,,,,E-bound,,E,N0080447,Millbrook Estate,Southampton,,,,,,false,UKOS,438881,114296,-1.44816,50.92681,BCT,MKD,OTH,,,,052,2006-10-18T00:00:00,2014-04-11T12:00:34,17,new,active
1980SN121036,sohagta,,,Redbridge Fire Station,,,,,,Redbridge Hill,,,,W-bound,,W,N0080447,Millbrook Estate,Southampton,,,,,,false,UKOS,438919,114277,-1.44762,50.92664,BCT,MKD,OTH,,,,052,2006-10-09T00:00:00,2020-02-25T08:31:53,0,new,active
1980SN121041,sohagja,,,Holy Family Church,,,,,,Redbridge Hill,,,,E-bound,,E,N0080447,Millbrook Estate,Southampton,,,,,,false,UKOS,438739,114300,-1.45018,50.92686,BCT,MKD,OTH,,,,052,2006-10-18T00:00:00,2020-02-25T08:31:53,0,new,active
1980SN121039,sohagjt,,,Holy Family Church,,,,,,Redbridge Hill,,,,W-bound,,W,N0080447,Millbrook Estate,Southampton,,,,,,false,UKOS,438709,114289,-1.4506,50.92676,BCT,MKD,OTH,,,,052,2006-10-18T00:00:00,2020-02-25T08:31:53,0,new,active
1980SN121037,sohajaw,,,Irving Road,,,,,,Redbridge Hill,,,,E-bound,,E,N0080447,Millbrook Estate,Southampton,,,,,,false,UKOS,439076,114278,-1.44538,50.92664,BCT,MKD,OTH,,,,052,2006-10-09T00:00:00,2020-02-25T08:31:53,0,new,active
1980SN121040,sohajam,,,Irving Road,,,,,,Redbridge Hill,,,,W-bound,,W,N0080447,Millbrook Estate,Southampton,,,,,,false,UKOS,439125,114262,-1.44469,50.92649,BCT,MKD,OTH,,,,052,2006-10-09T00:00:00,2020-02-25T08:31:53,0,new,active
1980SN121025,sohajdp,,,Regents Park Road,,,,,,Millbrook Road West,,,,E-bound,,E,E0042004,Millbrook,Southampton,,,,,,false,UKOS,439187,112825,-1.44396,50.91357,BCT,MKD,OTH,,,,052,2005-10-07T00:00:00,2020-02-25T08:31:54,0,new,active
1980HA121024,sohajgt,,,Regents Park Road,,,,,,Millbrook Road West,,,,W-bound,,W,E0042004,Millbrook,Southampton,,,,,,false,UKOS,439172,112787,-1.44418,50.91323,BCT,MKD,OTH,,,,052,2005-10-07T00:00:00,2019-08-19T08:33:19,4,new,active
1980SN121026,sohagmw,,,King Georges Avenue,,,,,,Millbrook Road West,,,,E-bound,,E,E0042004,Millbrook,Southampton,,,,,,false,UKOS,438850,112873,-1.44875,50.91402,BCT,MKD,OTH,,,,052,2009-03-24T00:00:00,2014-04-08T14:52:49,18,new,active
1980SN121027,sohagmj,,,King Georges Avenue,,,,,,Millbrook Road West,,,,NW-bound,,NW,E0042004,Millbrook,Southampton,,,,,,false,UKOS,438785,112876,-1.44967,50.91405,BCT,MKD,OTH,,,,052,2006-10-16T00:00:00,2016-05-12T08:25:07,23,new,active
1980SN121031,sohawgd,,,Marlands,,,,,,Portland Terrace,,,,Stop AK,,S,N0077117,Southampton City Centre,Southampton,,,,,,false,UKOS,441840,111964,-1.40632,50.90564,BCT,MKD,OTH,,,,052,2007-04-18T00:00:00,2021-07-07T13:30:46,0,new,active
1980SN120553,sohawdj,,,ASDA & Marlands,,,,,,Portland Terrace,,,,N-bound,,N,N0077117,Southampton City Centre,Southampton,,,,,,false,UKOS,441816,112003,-1.40666,50.90599,BCT,MKD,OTH,,,,052,2007-04-18T00:00:00,2014-04-11T11:32:18,16,new,active
1980SN12619C,sohdatp,,,Vincent's Walk,,,,,,Vincents Walk,,,,Stop CO,,NW,N0077117,Southampton City Centre,Southampton,,,,,,false,UKOS,442056,111844,-1.40326,50.90454,BCT,MKD,OTH,,,,052,2006-10-18T00:00:00,2015-02-05T13:12:20,3,new,active
1980SN12619D,sohdgag,,,Vincent's Walk,,,,,,Vincent's Walk,,,,Stop CJ,,S,N0077117,Southampton City Centre,Southampton,,,,,,false,UKOS,442100,111747,-1.40265,50.90367,BCT,MKD,OTH,,,,052,2007-01-25T00:00:00,2020-02-25T08:31:53,0,new,active
1980SN12619E,sohdawt,,,Vincent's Walk,,,,,,Vincent's Walk,,,,Stop CK,,S,N0077117,Southampton City Centre,Southampton,,,,,,false,UKOS,442098,111726,-1.40268,50.90348,BCT,MKD,OTH,,,,052,2007-01-25T00:00:00,2020-02-25T08:31:53,0,new,active
1980SN12616C,sohdgaj,,,Vincent's Walk,,,,,,Vincent's Walk,,,,Stop CI,,S,N0077117,Southampton City Centre,Southampton,,,,,,false,UKOS,442103,111774,-1.4026,50.90391,BCT,MKD,OTH,,,,052,2007-01-25T00:00:00,2020-02-25T08:31:53,0,new,active
1980SN12618A,sohdgat,,,Vincent's Walk,,,,,,Vincent's Walk,,,,Stop CG,,S,N0077117,Southampton City Centre,Southampton,,,,,,false,UKOS,442107,111861,-1.40254,50.90469,BCT,MKD,OTH,,,,052,2007-01-25T00:00:00,2021-07-07T13:30:46,0,new,active
1980SN12618B,sohdgam,,,Vincent's Walk,,,,,,Vincent's Walk,,,,Stop CH,,S,N0077117,Southampton City Centre,Southampton,,,,,,false,UKOS,442106,111796,-1.40256,50.90411,BCT,MKD,OTH,,,,052,2007-01-25T00:00:00,2020-02-25T08:31:53,0,new,active
1980HAA13371,sohdawp,,,Vincent's Walk,,,,,,Vincent's Walk,,,,Stop CM,,N,N0077117,Southampton City Centre,Southampton,,,,,,false,UKOS,442092,111780,-1.40276,50.90397,BCT,MKD,OTH,,,,052,2007-01-25T00:00:00,2020-02-25T08:31:53,0,new,active
1980SN12616D,sohdgmj,,,Pound Tree Road,,,,,,Pound Tree Road,,,,Stop CE,,W,N0077117,Southampton City Centre,Southampton,,,,,,false,UKOS,442158,111882,-1.40181,50.90488,BCT,MKD,OTH,,,,052,2006-10-18T00:00:00,2020-02-25T08:31:53,0,new,active
1980SNA09195,sohjptj,,,King Edward School,,,,,,Hill Lane,,,,N-bound,,N,E0042031,Upper Shirley,Southampton,,,,,,false,UKOS,441213,113815,-1.41503,50.92233,BCT,MKD,OTH,,,,052,2007-02-23T00:00:00,2020-02-25T08:31:53,0,new,active
1980SN120519,sohatmg,,,Central Station,,,,,,Wyndham Place,,,,Stop SA,,S,N0077117,Southampton City Centre,Southampton,,,,,,false,UKOS,441381,112239,-1.41282,50.90814,BCT,MKD,OTH,,,,052,2006-08-03T00:00:00,2016-01-11T13:25:00,26,new,active
1980SN12518A,sohatjw,,,Central Station,,,,,,Blechynden Terrace,,,,Stop SC,,W,N0077117,Southampton City Centre,Southampton,,,,,,false,UKOS,441419,112217,-1.41228,50.90794,BCT,MKD,OTH,,,,052,2010-06-30T00:00:00,2023-07-27T09:50:35,46,new,active
1980SN120518,sohatma,,,Central Station,,,,,,Wyndham Place,,,,Stop SB,,N,N0077117,Southampton City Centre,Southampton,,,,,,false,UKOS,441369,112270,-1.41299,50.90842,BCT,MKD,OTH,,,,052,2010-06-30T00:00:00,2018-05-01T11:44:25,28,new,active
1980SNA09196,sohjptm,,,Central Station,,,,,,Wyndham Place,,,,Stop SD,,S,N0077117,Southampton City Centre,Southampton,,,,,,false,UKOS,441380,112265,-1.41283,50.90838,BCT,MKD,OTH,,,,052,2010-06-30T00:00:00,2018-02-27T06:45:42,43,new,active
1980SNA09207,sohjpwd,,,Turning Circle,,,,,,Aldermoor Road,,,,SW-bound,,SW,E0041964,Aldermoor,Southampton,,,,,,false,UKOS,440230,115718,-1.42881,50.93951,BCT,MKD,OTH,,,,052,2007-02-05T00:00:00,2024-03-19T09:45:51,54,new,active
1980SNA09017,sohjtwm,,,Wellington Court,,,,,,Waterloo Road,,,,E-bound,,E,E0041986,Freemantle,Southampton,,,,,,false,UKOS,440810,112488,-1.42091,50.91042,BCT,MKD,OTH,,,,052,2007-01-25T00:00:00,2020-02-25T08:31:54,0,new,active
1980SN12369B,sohamdt,,,Park Street,,,,,,Park Street,,,,Stop SE,,NE,E0042018,Shirley,Southampton,,,,,,false,UKOS,439849,113832,-1.43443,50.92258,BCT,MKD,OTH,,,,052,2007-01-25T00:00:00,2017-07-04T12:17:27,0,new,active
1980SN12370A,sohamdw,,,Park Street,,,,,,Park Street,,,,Stop SB,,SW,E0042018,Shirley,Southampton,,,,,,false,UKOS,439849,113821,-1.43443,50.92248,BCT,MKD,OTH,,,,052,2007-01-25T00:00:00,2021-07-07T13:30:46,0,new,active
1980SN12370B,sohamdp,,,Park Street,,,,,,Park Street,,,,Stop SC,,SW,E0042018,Shirley,Southampton,,,,,,false,UKOS,439829,113804,-1.43472,50.92233,BCT,MKD,OTH,,,,052,2007-01-25T00:00:00,2020-02-25T08:31:53,0,new,active
1980HA120420,sohdtgj,,,Bullar Road,,,,,,Bitterne Road West,,,,W-bound,,W,E0041975,Bitterne,Southampton,,,,,,false,UKOS,443969,113317,-1.37588,50.91765,BCT,MKD,OTH,,,,052,2010-06-30T00:00:00,2020-02-25T08:31:54,0,new,active
1980SNA90865,sohmawa,,,Bullar Road,,,,,,Bitterne Road West,,,,E-bound,,E,E0041975,Bitterne,Southampton,,,,,,false,UKOS,444073,113320,-1.3744,50.91767,BCT,MKD,OTH,,,,052,2009-10-07T00:00:00,2025-01-06T09:53:58,55,new,active
1980SN12426C,sohdtpa,,,Bullar Road,,,,,,Bullar Road,,,,SE-bound,,SE,E0041975,Bitterne,Southampton,,,,,,false,UKOS,444108,113398,-1.3739,50.91836,BCT,MKD,OTH,,,,052,2010-06-30T00:00:00,2025-01-06T09:54:20,46,new,active
1980SN12441A,sohawdm,,,Art Gallery,,,,,,Commercial Road,,,,Stop HF,,W,N0077117,Southampton City Centre,Southampton,,,,,,false,UKOS,441841,112316,-1.40627,50.9088,BCT,MKD,OTH,,,,052,2007-04-16T00:00:00,2021-07-07T13:30:46,0,new,active
1980SN12441B,sohawdg,,,Art Gallery,,,,,,Commercial Road,,,,Stop HG,,W,N0077117,Southampton City Centre,Southampton,,,,,,false,UKOS,441805,112319,-1.40678,50.90883,BCT,MKD,OTH,,,,052,2007-04-16T00:00:00,2020-02-25T08:31:54,0,new,active
1980SN120523,sohawjg,,,Art Gallery,,,,,,Commercial Road,,,,Stop HE,,E,N0077117,Southampton City Centre,Southampton,,,,,,false,UKOS,441770,112328,-1.40728,50.90892,BCT,MKD,OTH,,,,052,2009-01-16T00:00:00,2021-07-07T13:30:46,0,new,active
1980SN12368B,sohamap,,,Shirley Precinct,,,,,,Shirley High Street,,,,Stop SG,,NW,E0042018,Shirley,Southampton,,,,,,false,UKOS,439805,113930,-1.43505,50.92346,BCT,MKD,OTH,,,,052,2006-10-09T00:00:00,2014-04-08T14:04:00,2,new,active
1980SN120367,sohamdg,,,Shirley Precinct,,,,,,Shirley High Street,,,,Stop SI,,SE,E0042018,Shirley,Southampton,,,,,,false,UKOS,439815,113942,-1.43491,50.92357,BCT,MKD,OTH,,,,052,2006-10-09T00:00:00,2014-04-08T14:05:56,11,new,active
1980SN12367A,sohamat,,,Shirley Precinct,,,,,,Shirley High Street,,,,Stop SH,,SE,E0042018,Shirley,Southampton,,,,,,false,UKOS,439803,113956,-1.43507,50.92369,BCT,MKD,OTH,,,,052,2006-10-09T00:00:00,2014-04-08T14:05:08,11,new,active
1980SN12367B,sohapat,,,Mcdonalds,,,,,,Shirley Road,,,,SE-bound,,SE,E0042018,Shirley,Southampton,,,,,,false,UKOS,440236,113427,-1.42897,50.91891,BCT,MKD,OTH,,,,052,2006-10-09T00:00:00,2020-02-25T08:31:53,0,new,active
1980SN120494,sohapdm,,,Christ Church,,,,,,Waterloo Road,,,,E-bound,,E,E0041986,Freemantle,Southampton,,,,,,false,UKOS,440341,112583,-1.42757,50.91131,BCT,MKD,OTH,,,,052,2007-01-25T00:00:00,2022-02-02T07:38:34,4,new,active
1980SN12493A,sohapdg,,,Christ Church,,,,,,Waterloo Road,,,,W-bound,,W,E0041986,Freemantle,Southampton,,,,,,false,UKOS,440330,112576,-1.42773,50.91125,BCT,MKD,OTH,,,,052,2005-10-07T00:00:00,2020-02-25T08:31:54,0,new,active
1980SN12544B,sohdgwm,,,Solent University,,,,,,New Road,,,,Stop IE,,NE,N0077117,Southampton City Centre,Southampton,,,,,,false,UKOS,442337,112167,-1.39923,50.90743,BCT,MKD,OTH,,,,052,2006-10-09T00:00:00,2020-02-25T08:31:53,0,new,active
1980SN120545,sohdjap,,,Solent University,,,,,,New Road,,,,Stop IA,,W,N0077117,Southampton City Centre,Southampton,,,,,,false,UKOS,442292,112133,-1.39988,50.90713,BCT,MKD,OTH,,,,052,2006-04-13T00:00:00,2020-02-25T08:31:54,0,new,active
1980SN120913,sohdgjg,,,Solent University,,,,,,East Park Terrace,,,,Stop ID,,N,N0077117,Southampton City Centre,Southampton,,,,,,false,UKOS,442165,112232,-1.40167,50.90802,BCT,MKD,OTH,,,,052,2006-10-16T00:00:00,2021-07-07T13:30:46,0,new,active
1980SN120914,sohdgjm,,,Solent University,,,,,,East Park Terrace,,,,Stop IC,,S,N0077117,Southampton City Centre,Southampton,,,,,,false,UKOS,442175,112291,-1.40152,50.90855,BCT,MKD,OTH,,,,052,2007-04-16T00:00:00,2021-07-07T13:30:46,0,new,active
1980SN12550B,sohdmtm,,,Princes Street,,,,,,Northam Road,,,,NE-bound,,NE,E0042008,Northam,Southampton,,,,,,false,UKOS,443124,112722,-1.38797,50.91236,BCT,MKD,OTH,,,,052,2006-10-16T00:00:00,2023-12-04T11:08:44,48,new,active
1980SN120551,sohdmtd,,,Princes Street,,,,,,Northam Road,,,,S-bound,,S,E0042008,Northam,Southampton,,,,,,false,UKOS,443103,112582,-1.38829,50.9111,BCT,MKD,OTH,,,,052,2006-10-16T00:00:00,2014-04-08T15:08:26,14,new,active
1980SN12524D,sohawtd,,,Cenotaph,,,,,,Above Bar Street,,,,Stop HD,,N,N0077117,Southampton City Centre,Southampton,,,,,,false,UKOS,441936,112450,-1.4049,50.91,BCT,MKD,OTH,,,,052,2007-04-18T00:00:00,2021-07-07T13:30:46,0,new,active
1980SN120525,sohdadg,,,Cenotaph,,,,,,Above Bar Street,,,,Stop HA,,S,N0077117,Southampton City Centre,Southampton,,,,,,false,UKOS,441949,112385,-1.40472,50.90942,BCT,MKD,OTH,,,,052,2007-04-18T00:00:00,2014-11-10T15:17:41,10,new,active
1980SN12524B,sohawtp,,,Cenotaph,,,,,,Above Bar Street,,,,Stop HC,,N,N0077117,Southampton City Centre,Southampton,,,,,,false,UKOS,441940,112397,-1.40485,50.90952,BCT,MKD,OTH,,,,052,2007-04-18T00:00:00,2020-02-25T08:31:54,0,new,active
1980SN12532A,sohdagm,,,Above Bar,,,,,,Above Bar Street,,,,Stop AC,,N,N0077117,Southampton City Centre,Southampton,,,,,,false,UKOS,441966,111977,-1.40453,50.90575,BCT,MKD,OTH,,,,052,2006-10-11T00:00:00,2020-02-25T08:31:53,0,new,active
1980SN12531B,sohdagj,,,Above Bar,,,,,,Above Bar Street,,,,Stop AD,,N,N0077117,Southampton City Centre,Southampton,,,,,,false,UKOS,441965,112004,-1.40454,50.90599,BCT,MKD,OTH,,,,052,2006-10-11T00:00:00,2020-02-25T08:31:53,0,new,active
1980SN12617B,sohdadw,,,Above Bar,,,,,,Above Bar Street,,,,Stop AF,,N,N0077117,Southampton City Centre,Southampton,,,,,,false,UKOS,441962,112047,-1.40458,50.90638,BCT,MKD,OTH,,,,052,2007-04-18T00:00:00,2020-02-25T08:31:53,0,new,active
1980SN12531A,sohdagd,,,Above Bar,,,,,,Above Bar Street,,,,Stop AE,,N,N0077117,Southampton City Centre,Southampton,,,,,,false,UKOS,441963,112026,-1.40457,50.90619,BCT,MKD,OTH,,,,052,2007-04-18T00:00:00,2021-07-07T13:30:46,0,new,active
1980SN12532B,sohdaja,,,Above Bar,,,,,,Above Bar Street,,,,Stop AB,,S,N0077117,Southampton City Centre,Southampton,,,,,,false,UKOS,441981,111967,-1.40432,50.90566,BCT,MKD,OTH,,,,052,2007-04-18T00:00:00,2021-07-07T13:30:46,0,new,active
1980SN120094,sohapjt,,,Dunkirk Road,,,,,,Lordswood Road,,,,NW-bound,,NW,E0042031,Upper Shirley,Southampton,,,,,,false,UKOS,440593,115464,-1.42367,50.9372,BCT,MKD,OTH,,,,052,2006-10-16T00:00:00,2014-04-08T12:54:22,20,new,active
1980SN120093,sohapja,,,Dunkirk Road,,,,,,Lordswood Road,,,,SE-bound,,SE,E0042031,Upper Shirley,Southampton,,,,,,false,UKOS,440519,115527,-1.42471,50.93777,BCT,MKD,OTH,,,,052,2005-10-07T00:00:00,2018-08-10T07:43:36,30,new,active
1980SNA90927,sohmgaw,,,Dunkirk Road,,,,,,Dale Valley Road,,,,NE-bound,,NE,E0042031,Upper Shirley,Southampton,,,,,,false,UKOS,440550,115449,-1.42428,50.93707,BCT,MKD,OTH,,,,052,2014-10-13T00:00:00,2014-10-13T10:24:42,70,new,active
1980SN120096,sohapwg,,,Rockleigh Road,,,,,,Hill Lane,,,,opp,,N,E0042031,Upper Shirley,Southampton,,,,,,false,UKOS,440883,115258,-1.41956,50.93533,BCT,MKD,OTH,,,,052,2006-09-30T00:00:00,2024-10-21T07:44:21,41,new,active
1980SN120095,sohapwd,,,Rockleigh Road,,,,,,Hill Lane,,,,adj,,S,E0042031,Upper Shirley,Southampton,,,,,,false,UKOS,440911,115220,-1.41917,50.93498,BCT,MKD,OTH,,,,052,2006-09-30T00:00:00,2024-10-21T07:44:38,41,new,active
1980SN120979,sohamgj,,,General Hospital,,,,,,Coxford Road,,,,Stop A,,NE,E0042020,Shirley Warren,Southampton,,,,,,false,UKOS,439852,115196,-1.43424,50.93484,BCT,MKD,OTH,,,,052,2006-10-16T00:00:00,2014-04-11T10:11:49,23,new,active
1980SN120083,sohamjd,,,General Hospital,,,,,,Coxford Road,,,,Stop B,,SW,E0042020,Shirley Warren,Southampton,,,,,,false,UKOS,439905,115221,-1.43349,50.93506,BCT,MKD,OTH,,,,052,2006-09-29T00:00:00,2014-04-11T10:12:13,23,new,active
1980SN120082,sohamjg,,,General Hospital and Cemetery,,,,,,Tremona Road,,,,Stop D,,NW,N0080795,Southampton General,Southampton,,,,,,false,UKOS,439923,115166,-1.43324,50.93457,BCT,MKD,OTH,,,,052,2006-10-09T00:00:00,2014-04-11T10:19:48,23,new,active
1980SN120084,sohampa,,,General Hospital and Cemetery,,,,,,Tremona Road,,,,Stop C,,SE,N0080795,Southampton General,Southampton,,,,,,false,UKOS,440009,115117,-1.43202,50.93412,BCT,MKD,OTH,,,,052,2006-10-09T00:00:00,2014-04-11T10:20:16,19,new,active
1980SN120085,sohamtd,,,Springford Crescent,,,,,,Coxford Road,,,,NE-bound,,NE,E0041964,Aldermoor,Southampton,,,,,,false,UKOS,440080,115388,-1.43098,50.93655,BCT,MKD,OTH,,,,052,2006-09-29T00:00:00,2021-07-07T13:30:46,0,new,active
1980SN120086,sohamtw,,,Springford Crescent,,,,,,Coxford Road,,,,SW-bound,,SW,E0041964,Aldermoor,Southampton,,,,,,false,UKOS,440113,115430,-1.4305,50.93693,BCT,MKD,OTH,,,,052,2006-09-29T00:00:00,2021-07-07T13:30:46,0,new,active
1980SN120090,sohamwt,,,Shopping Parade,,,,,,Lords Hill Way,,,,nr,,NW,E0041964,Aldermoor,Southampton,,,,,,false,UKOS,440203,115842,-1.42918,50.94063,BCT,MKD,OTH,,,,052,2006-04-13T00:00:00,2024-03-19T09:43:00,46,new,active
1980SN120089,sohapaj,,,Shopping Parade,,,,,,Lords Hill Way,,,,SE-bound,,SE,E0041964,Aldermoor,Southampton,,,,,,false,UKOS,440208,115852,-1.4291,50.94071,BCT,MKD,OTH,,,,052,2006-04-13T00:00:00,2024-03-19T09:43:49,37,new,active
1980SN120087,sohamwm,,,Shopping Parade,,,,,,Aldermoor Road,,,,adj,,S,E0041964,Aldermoor,Southampton,,,,,,false,UKOS,440193,115818,-1.42932,50.94041,BCT,MKD,OTH,,,,052,2005-11-11T00:00:00,2024-03-19T09:43:16,60,new,active
1980SN120088,sohamwa,,,Shopping Parade,,,,,,Aldermoor Road,,,,opp,,W,E0041964,Aldermoor,Southampton,,,,,,false,UKOS,440124,115822,-1.4303,50.94045,BCT,MKD,OTH,,,,052,2007-04-16T00:00:00,2024-03-19T09:44:05,54,new,active
1980SN120111,sohatwm,,,Great Oaks School,,,,,,Winchester Road,,,,NE-bound,,NE,E0041967,Bassett,Southampton,,,,,,false,UKOS,441671,115811,-1.40829,50.94024,BCT,MKD,OTH,,,,052,2005-10-07T00:00:00,2019-09-24T08:02:32,13,new,active
1980SN120114,sohatwp,,,Great Oaks School,,,,,,Winchester Road,,,,SW-bound,,SW,E0041967,Bassett,Southampton,,,,,,false,UKOS,441697,115818,-1.40792,50.9403,BCT,MKD,OTH,,,,052,2005-10-07T00:00:00,2019-09-24T08:03:01,13,new,active
1980SN120112,sohatmj,,,Butterfield Road,,,,,,Winchester Road,,,,NE-bound,,NE,E0041967,Bassett,Southampton,,,,,,false,UKOS,441420,115580,-1.41189,50.93818,BCT,MKD,OTH,,,,052,2005-10-07T00:00:00,2021-07-07T13:30:46,0,new,active
1980SN120113,sohatmd,,,Butterfield Road,,,,,,Winchester Road,,,,SW-bound,,SW,E0041967,Bassett,Southampton,,,,,,false,UKOS,441363,115503,-1.41271,50.9375,BCT,MKD,OTH,,,,052,2005-10-07T00:00:00,2021-07-07T13:30:46,0,new,active
1980SN120117,sohawaj,,,Bassett Crescent,,,,,,Bassett Avenue,,,,N-bound,,N,E0041967,Bassett,Southampton,,,,,,false,UKOS,441774,115683,-1.40684,50.93908,BCT,MKD,OTH,,,,052,2006-09-29T00:00:00,2021-07-07T13:30:46,0,new,active
1980SN120115,sohawap,,,Bassett Crescent,,,,,,Bassett Avenue,,,,S-bound,,S,E0041967,Bassett,Southampton,,,,,,false,UKOS,441784,115702,-1.40669,50.93925,BCT,MKD,OTH,,,,052,2006-09-29T00:00:00,2021-07-07T13:30:46,0,new,active
1980SN120097,sohatad,,,Hill Lane,,,,,,Winchester Road,,,,NE-bound,,NE,E0042031,Upper Shirley,Southampton,,,,,,false,UKOS,440987,115201,-1.41809,50.93481,BCT,MKD,OTH,,,,052,2006-10-11T00:00:00,2021-07-07T13:30:46,0,new,active
1980SN120098,sohapwt,,,Hill Lane,,,,,,Winchester Road,,,,SW-bound,,SW,E0042031,Upper Shirley,Southampton,,,,,,false,UKOS,440981,115180,-1.41818,50.93462,BCT,MKD,OTH,,,,052,2006-10-11T00:00:00,2021-07-07T13:30:46,0,new,active
1980SN120099,sohapwp,,,Bassett Sainsburys,,,,,,Hill Lane,,,,opp,,S,E0042031,Upper Shirley,Southampton,,,,,,false,UKOS,440977,115042,-1.41825,50.93338,BCT,MKD,OTH,,,,052,2006-09-30T00:00:00,2024-10-21T07:42:45,41,new,active
1980SN120100,sohapwm,,,Bassett Sainsburys,,,,,,Hill Lane,,,,adj,,N,E0042031,Upper Shirley,Southampton,,,,,,false,UKOS,440969,115036,-1.41837,50.93332,BCT,MKD,OTH,,,,052,2005-10-07T00:00:00,2024-10-21T07:42:26,41,new,active
1980SN120102,sohajwm,,,Vine Road,,,,,,Coxford Road,,,,Stop E,,W,N0080795,Southampton General,Southampton,,,,,,false,UKOS,439627,115110,-1.43745,50.93408,BCT,MKD,OTH,,,,052,2006-09-29T00:00:00,2014-04-11T10:22:59,14,new,active
1980SN120054,sohadtp,,,Baronsmead,,,,,,Lower Brownhill Road,,,,NE-bound,,NE,N0073217,Lords Hill,Southampton,,,,,,false,UKOS,438379,115347,-1.45519,50.9363,BCT,MKD,OTH,,,,052,2006-10-09T00:00:00,2020-02-25T08:31:54,0,new,active
1980SN120055,sohadtw,,,Baronsmead,,,,,,Lower Brownhill Road,,,,SW-bound,,SW,N0073217,Lords Hill,Southampton,,,,,,false,UKOS,438414,115351,-1.45469,50.93633,BCT,MKD,OTH,,,,052,2006-10-09T00:00:00,2020-02-25T08:31:53,0,new,active
1980SN120056,sohagda,,,Mercury Close,,,,,,Upper Brownhill Road,,,,NE-bound,,NE,N0073217,Lords Hill,Southampton,,,,,,false,UKOS,438652,115446,-1.45129,50.93717,BCT,MKD,OTH,,,,052,2007-01-25T00:00:00,2025-03-27T14:46:59,0,new,active
1980SN120057,sohagmd,,,Gemini Close,,,,,,Upper Brownhill Road,,,,NE-bound,,NE,N0073217,Lords Hill,Southampton,,,,,,false,UKOS,438798,115505,-1.44921,50.93769,BCT,MKD,OTH,,,,052,2007-01-25T00:00:00,2020-02-25T08:31:54,0,new,active
1980SN120059,sohagdt,,,Gemini Close,,,,,,Upper Brownhill Road,,,,SW-bound,,SW,N0073217,Lords Hill,Southampton,,,,,,false,UKOS,438769,115486,-1.44962,50.93752,BCT,MKD,OTH,,,,052,2007-01-25T00:00:00,2020-02-25T08:31:54,0,new,active
1980SN120061,sohagtm,,,Alder Road,,,,,,Upper Brownhill Road,,,,SW-bound,,SW,N0073217,Lords Hill,Southampton,,,,,,false,UKOS,438947,115557,-1.44708,50.93815,BCT,MKD,OTH,,,,052,2006-10-09T00:00:00,2025-03-27T14:48:12,0,new,active
1980SN120066,sohajda,,,Olive Road,,,,,,Aldermoor Road,,,,SW-bound,,SW,N0073217,Lords Hill,Southampton,,,,,,false,UKOS,439160,115638,-1.44404,50.93886,BCT,MKD,OTH,,,,052,2006-09-29T00:00:00,2020-02-25T08:31:54,0,new,active
1980SN120063,sohagwj,,,Olive Road,,,,,,Aldermoor Road,,,,NE-bound,,NE,N0073217,Lords Hill,Southampton,,,,,,false,UKOS,439074,115616,-1.44527,50.93867,BCT,MKD,OTH,,,,052,2006-10-09T00:00:00,2014-09-25T11:12:23,6,new,active
1980SN120049,sohagjm,,,Library,,,,,,Lord's Hill Centre West,,,,Stop LE,,NW,N0073217,Lords Hill,Southampton,,,,,,false,UKOS,438751,115737,-1.44985,50.93978,BCT,MKD,OTH,,,,052,2006-10-16T00:00:00,2021-07-07T13:30:46,0,new,active
1980SN120048,sohagjp,,,Library,,,,,,Lord's Hill Centre West,,,,Stop LD,,SE,N0073217,Lords Hill,Southampton,,,,,,false,UKOS,438762,115742,-1.4497,50.93982,BCT,MKD,OTH,,,,052,2006-10-16T00:00:00,2020-02-25T08:31:54,0,new,active
1980SNA90935,sohmgja,,,Library,,,,,,Lord's Hill Centre East,,,,near,,NE,N0073217,Lords Hill,Southampton,,,,,,false,UKOS,438831,115725,-1.44872,50.93967,BCT,MKD,OTH,,,,052,2015-06-23T00:00:00,2015-06-23T10:18:05,64,new,active
1980SN120050,sohagaj,,,Andromeda Road,,,,,,Lord's Hill Way,,,,SW-bound,,SW,N0073217,Lords Hill,Southampton,,,,,,false,UKOS,438562,115781,-1.45254,50.94019,BCT,MKD,OTH,,,,052,2006-10-16T00:00:00,2020-02-25T08:31:54,0,new,active
1980SN120043,sohagad,,,Andromeda Road,,,,,,Lord's Hill Way,,,,NE-bound,,NE,N0073217,Lords Hill,Southampton,,,,,,false,UKOS,438547,115803,-1.45275,50.94039,BCT,MKD,OTH,,,,052,2006-10-16T00:00:00,2020-02-25T08:31:54,0,new,active
1980SN120053,sohadmj,,,Corbiere Close,,,,,,Lower Brownhill Road,,,,SW-bound,,SW,E0042000,Maybush,Southampton,,,,,,false,UKOS,438162,115256,-1.45829,50.93549,BCT,MKD,OTH,,,,052,2006-10-09T00:00:00,2020-02-25T08:31:54,0,new,active
1980SN120052,sohadpa,,,Corbiere Close,,,,,,Lower Brownhill Road,,,,NE-bound,,NE,E0042000,Maybush,Southampton,,,,,,false,UKOS,438117,115248,-1.45893,50.93543,BCT,MKD,OTH,,,,052,2006-10-09T00:00:00,2020-02-25T08:31:54,0,new,active
1980SN120071,sohamgm,,,Springford Road,,,,,,Aldermoor Road,,,,NW-bound,,NW,E0041964,Aldermoor,Southampton,,,,,,false,UKOS,439869,115850,-1.43393,50.94072,BCT,MKD,OTH,,,,052,2006-10-11T00:00:00,2020-02-25T08:31:54,0,new,active
1980SN120065,sohamja,,,Springford Road,,,,,,Aldermoor Road,,,,E-bound,,E,E0041964,Aldermoor,Southampton,,,,,,false,UKOS,439895,115845,-1.43356,50.94067,BCT,MKD,OTH,,,,052,2006-10-11T00:00:00,2020-02-25T08:31:54,0,new,active
1980SN120080,sohajpg,,,Laundry Road,,,,,,Warren Avenue,,,,NW-bound,,NW,E0042020,Shirley Warren,Southampton,,,,,,false,UKOS,439423,114962,-1.44037,50.93277,BCT,MKD,OTH,,,,052,2006-10-09T00:00:00,2020-02-25T08:31:54,0,new,active
1980SN120081,sohajmw,,,Laundry Road,,,,,,Warren Avenue,,,,S-bound,,S,E0042020,Shirley Warren,Southampton,,,,,,false,UKOS,439410,115019,-1.44055,50.93328,BCT,MKD,OTH,,,,052,2006-10-09T00:00:00,2020-02-25T08:31:54,0,new,active
1980SN120069,sohajmd,,,Aldermoor Avenue,,,,,,Aldermoor Road,,,,NE-bound,,NE,E0041964,Aldermoor,Southampton,,,,,,false,UKOS,439330,115710,-1.44162,50.9395,BCT,MKD,OTH,,,,052,2008-12-23T00:00:00,2020-02-25T08:31:54,0,new,active
1980HAA13386,sohdwdg,,,Walnut Avenue,,,,,,Wide Lane,,,,NE-bound,,NE,E0042028,Swaythling,Southampton,,,,,,false,UKOS,444258,116171,-1.37143,50.94329,BCT,MKD,OTH,,,,052,2006-10-11T00:00:00,2021-07-07T13:30:46,0,new,active
1980SN120164,sohdwat,,,Walnut Avenue,,,,,,Wide Lane,,,,SW-bound,,SW,E0042028,Swaythling,Southampton,,,,,,false,UKOS,444236,116130,-1.37174,50.94292,BCT,MKD,OTH,,,,052,2007-01-25T00:00:00,2021-07-07T13:30:46,0,new,active
1980SN120177,sohadgt,,,The Saints,,,,,,Kendal Avenue,,,,SW-bound,,SW,N0080447,Millbrook Estate,Southampton,,,,,,false,UKOS,437832,114569,-1.46305,50.92934,BCT,MKD,OTH,,,,052,2006-09-30T00:00:00,2020-02-25T08:31:53,0,new,active
1980SN120175,sohadjd,,,The Saints,,,,,,Windermere Avenue,,,,NE-bound,,NE,N0080447,Millbrook Estate,Southampton,,,,,,false,UKOS,437887,114662,-1.46226,50.93017,BCT,MKD,OTH,,,,052,2006-10-11T00:00:00,2020-02-25T08:31:53,0,new,active
1980SN120179,sohadgd,,,Sedbergh Road,,,,,,Kendal Avenue,,,,S-bound,,S,N0080447,Millbrook Estate,Southampton,,,,,,false,UKOS,437760,114215,-1.46411,50.92616,BCT,MKD,OTH,,,,052,2007-03-06T00:00:00,2020-02-25T08:31:53,0,new,active
1980SN120178,sohadga,,,Sedbergh Road,,,,,,Kendal Avenue,,,,N-bound,,N,N0080447,Millbrook Estate,Southampton,,,,,,false,UKOS,437750,114290,-1.46425,50.92683,BCT,MKD,OTH,,,,052,2006-09-30T00:00:00,2020-02-25T08:31:53,0,new,active
1980SN120158,sohdpda,,,Mayfield Road,,,,,,Portswood Road,,,,SW-bound,,SW,E0042028,Swaythling,Southampton,,,,,,false,UKOS,443491,115121,-1.38247,50.9339,BCT,MKD,OTH,,,,052,2006-10-18T00:00:00,2021-07-07T13:30:46,0,new,active
1980SN120157,sohdpdt,,,Mayfield Road,,,,,,Portswood Road,,,,NE-bound,,NE,E0042028,Swaythling,Southampton,,,,,,false,UKOS,443533,115192,-1.38186,50.93454,BCT,MKD,OTH,,,,052,2006-10-09T00:00:00,2021-07-07T13:30:46,0,new,active
1980SN120159,sohdpad,,,Sirdar Road,,,,,,Portswood Road,,,,NE-bound,,NE,E0042028,Swaythling,Southampton,,,,,,false,UKOS,443395,115007,-1.38385,50.93289,BCT,MKD,OTH,,,,052,2005-10-07T00:00:00,2021-07-07T13:30:46,0,new,active
1980SN120287,sohdpag,,,Sirdar Road,,,,,,Portswood Road,,,,SW-bound,,SW,E0042028,Swaythling,Southampton,,,,,,false,UKOS,443397,114987,-1.38382,50.93271,BCT,MKD,OTH,,,,052,2006-10-18T00:00:00,2021-07-07T13:30:46,0,new,active
1980SN120163,sohdtjg,,,Swaythling Station,,,,,,Wessex Lane,,,,SW-bound,,SW,E0042028,Swaythling,Southampton,,,,,,false,UKOS,444008,115989,-1.37501,50.94167,BCT,MKD,OTH,,,,052,2010-06-30T00:00:00,2014-04-08T13:32:10,20,new,active
1980SN120162,sohdtjd,,,Swaythling Station,,,,,,Wessex Lane,,,,NE-bound,,NE,E0042028,Swaythling,Southampton,,,,,,false,UKOS,444005,115999,-1.37505,50.94176,BCT,MKD,OTH,,,,052,2005-10-07T00:00:00,2021-07-07T13:30:46,0,new,active
1980SN120187,sohadwm,,,Borrowdale Road,,,,,,Windermere Avenue,,,,NW-bound,,NW,N0080447,Millbrook Estate,Southampton,,,,,,false,UKOS,438477,114378,-1.45389,50.92758,BCT,MKD,OTH,,,,052,2007-01-25T00:00:00,2020-02-25T08:31:53,0,new,active
1980SN120186,sohadwt,,,Borrowdale Road,,,,,,Windermere Avenue,,,,SE-bound,,SE,N0080447,Millbrook Estate,Southampton,,,,,,false,UKOS,438472,114391,-1.45396,50.9277,BCT,MKD,OTH,,,,052,2007-01-25T00:00:00,2020-02-25T08:31:53,0,new,active
1980SN120188,sohagmt,,,Maybush Road,,,,,,Wimpson Lane,,,,SW-bound,,SW,E0042000,Maybush,Southampton,,,,,,false,UKOS,438828,114622,-1.44887,50.92975,BCT,MKD,OTH,,,,052,2007-01-25T00:00:00,2020-02-25T08:31:53,0,new,active
1980SN120203,sohagwp,,,Maybush Court,,,,,,Romsey Road,,,,SE-bound,,SE,E0042000,Maybush,Southampton,,,,,,false,UKOS,439087,114459,-1.44521,50.92827,BCT,MKD,OTH,,,,052,2005-10-07T00:00:00,2020-02-25T08:31:53,0,new,active
1980SN120204,sohagwm,,,Maybush Court,,,,,,Romsey Road,,,,NW-bound,,NW,E0042000,Maybush,Southampton,,,,,,false,UKOS,439118,114413,-1.44477,50.92785,BCT,MKD,OTH,,,,052,2005-10-07T00:00:00,2020-02-25T08:31:53,0,new,active
1980SN120207,sohajdj,,,Arliss Road,,,,,,Romsey Road,,,,NW-bound,,NW,E0042000,Maybush,Southampton,,,,,,false,UKOS,439216,114314,-1.44339,50.92695,BCT,MKD,OTH,,,,052,2005-10-07T00:00:00,2020-02-25T08:31:53,0,new,active
1980SN120208,sohajdm,,,Arliss Road,,,,,,Romsey Road,,,,SE-bound,,SE,E0042000,Maybush,Southampton,,,,,,false,UKOS,439196,114349,-1.44367,50.92727,BCT,MKD,OTH,,,,052,2005-10-07T00:00:00,2020-02-25T08:31:53,0,new,active
1980SN120180,sohadgm,,,Kendal Avenue Shops,,,,,,Kendal Avenue,,,,SE-bound,,SE,N0080447,Millbrook Estate,Southampton,,,,,,false,UKOS,437789,114019,-1.46372,50.9244,BCT,MKD,OTH,,,,052,2009-03-24T00:00:00,2020-02-25T08:31:54,0,new,active
1980SN120181,sohadgj,,,Kendal Avenue Shops,,,,,,Kendal Avenue,,,,NW-bound,,NW,N0080447,Millbrook Estate,Southampton,,,,,,false,UKOS,437779,114010,-1.46386,50.92432,BCT,MKD,OTH,,,,052,2006-10-16T00:00:00,2020-02-25T08:31:54,0,new,active
1980SN120182,sohadma,,,Millbrook Towers,,,,,,Windermere Avenue,,,,opp,,SE,N0080447,Millbrook Estate,Southampton,,,,,,false,UKOS,438150,114659,-1.45852,50.93013,BCT,MKD,OTH,,,,052,2007-01-25T00:00:00,2023-07-05T12:50:22,59,new,active
1980SN120183,sohadjw,,,Millbrook Towers,,,,,,Windermere Avenue,,,,adj,,NW,N0080447,Millbrook Estate,Southampton,,,,,,false,UKOS,438104,114673,-1.45917,50.93026,BCT,MKD,OTH,,,,052,2006-10-11T00:00:00,2023-07-05T12:50:10,41,new,active
1980SN120185,sohadtg,,,Ullswater Road,,,,,,Windermere Avenue,,,,SE-bound,,SE,N0080447,Millbrook Estate,Southampton,,,,,,false,UKOS,438331,114485,-1.45596,50.92855,BCT,MKD,OTH,,,,052,2006-10-11T00:00:00,2020-02-25T08:31:54,0,new,active
1980SN120184,sohadtd,,,Ullswater Road,,,,,,Windermere Avenue,,,,NW-bound,,NW,N0080447,Millbrook Estate,Southampton,,,,,,false,UKOS,438291,114510,-1.45653,50.92878,BCT,MKD,OTH,,,,052,2006-10-11T00:00:00,2020-02-25T08:31:54,0,new,active
1980SN120128,sohdgpt,,,Glen Eyre Road,,,,,,Burgess Road,,,,SW-bound,,SW,E0041967,Bassett,Southampton,,,,,,false,UKOS,442261,115524,-1.39992,50.93762,BCT,MKD,OTH,,,,052,2005-10-07T00:00:00,2021-07-07T13:30:46,0,new,active
1980SN120127,sohdgtd,,,Glen Eyre Road,,,,,,Burgess Road,,,,NE-bound,,NE,E0041967,Bassett,Southampton,,,,,,false,UKOS,442207,115510,-1.40069,50.9375,BCT,MKD,OTH,,,,052,2005-10-07T00:00:00,2021-07-07T13:30:46,0,new,active
1980SN120136,sohdjwg,,,Library,,,,,,Burgess Road,,,,W-bound,,W,E0041989,Highfield,Southampton,,,,,,false,UKOS,442682,115591,-1.39393,50.93819,BCT,MKD,OTH,,,,052,2006-09-29T00:00:00,2021-07-07T13:30:46,0,new,active
1980SN120131,sohdjpa,,,Library,,,,,,Burgess Road,,,,E-bound,,E,E0041989,Highfield,Southampton,,,,,,false,UKOS,442543,115581,-1.3959,50.93811,BCT,MKD,OTH,,,,052,2006-09-29T00:00:00,2014-04-08T12:31:47,19,new,active
1980SN120134,sohdjmg,,,Future Worlds,,,,,,University Road,,,,S-bound,,S,E0041989,Highfield,Southampton,,,,,,false,UKOS,442514,115535,-1.39632,50.9377,BCT,MKD,OTH,,,,052,2006-10-09T00:00:00,2019-04-01T16:17:08,27,new,active
1980SN120145,sohdmtg,,,Tulip Road,,,,,,Burgess Road,,,,W-bound,,W,E0042028,Swaythling,Southampton,,,,,,false,UKOS,443109,115635,-1.38784,50.93855,BCT,MKD,OTH,,,,052,2007-04-16T00:00:00,2015-07-16T14:40:08,6,new,active
1980SN120137,sohdmjw,,,Tulip Road,,,,,,Burgess Road,,,,E-bound,,E,E0042028,Swaythling,Southampton,,,,,,false,UKOS,443050,115646,-1.38868,50.93866,BCT,MKD,OTH,,,,052,2006-09-29T00:00:00,2021-07-07T13:30:46,0,new,active
1980SN120118,sohawat,,,Bassett Crossroads,,,,,,Bassett Avenue,,,,N-bound,,N,E0041967,Bassett,Southampton,,,,,,false,UKOS,441788,115452,-1.40666,50.93701,BCT,MKD,OTH,,,,052,2006-10-11T00:00:00,2021-02-18T10:02:05,8,new,active
1980SN120119,sohawda,,,Bassett Crossroads,,,,,,Bassett Avenue,,,,S-bound,,S,E0041967,Bassett,Southampton,,,,,,false,UKOS,441802,115432,-1.40647,50.93683,BCT,MKD,OTH,,,,052,2007-04-16T00:00:00,2021-02-18T10:02:27,8,new,active
1980SN120125,sohdgjw,,,Hartley Grove,,,,,,Glen Eyre Road,,,,NW-bound,,NW,E0041967,Bassett,Southampton,,,,,,false,UKOS,442185,115891,-1.40096,50.94092,BCT,MKD,OTH,,,,052,2006-09-30T00:00:00,2014-04-11T11:44:14,20,new,active
1980SN120124,sohdgmd,,,Hartley Grove,,,,,,Glen Eyre Road,,,,SE-bound,,SE,E0041967,Bassett,Southampton,,,,,,false,UKOS,442185,115927,-1.40096,50.94125,BCT,MKD,OTH,,,,052,2006-09-30T00:00:00,2014-04-11T11:44:36,20,new,active
1980SN120147,sohdmwd,,,Aster Road,,,,,,Burgess Road,,,,W-bound,,W,E0042028,Swaythling,Southampton,,,,,,false,UKOS,443304,115621,-1.38507,50.93841,BCT,MKD,OTH,,,,052,2006-09-29T00:00:00,2021-07-07T13:30:46,0,new,active
1980SN120146,sohdmwt,,,Aster Road,,,,,,Burgess Road,,,,E-bound,,E,E0042028,Swaythling,Southampton,,,,,,false,UKOS,443384,115636,-1.38393,50.93854,BCT,MKD,OTH,,,,052,2005-10-07T00:00:00,2021-07-07T13:30:46,0,new,active
1980HAA13379,sohdpaj,,,Aster Road,,,,,,Langhorn Road,,,,SE-bound,,SE,E0042028,Swaythling,Southampton,,,,,,false,UKOS,443406,115585,-1.38362,50.93808,BCT,MKD,OTH,,,,052,2006-10-16T00:00:00,2014-06-12T06:33:33,22,new,active
1980SN120148,sohdpmd,,,Market Buildings,,,,,,Stoneham Lane,,,,NW-bound,,NW,E0042028,Swaythling,Southampton,,,,,,false,UKOS,443673,115850,-1.37979,50.94045,BCT,MKD,OTH,,,,052,2005-10-07T00:00:00,2020-02-25T08:31:53,0,new,active
1980SN120149,sohdpmg,,,Market Buildings,,,,,,Stoneham Lane,,,,SE-bound,,SE,E0042028,Swaythling,Southampton,,,,,,false,UKOS,443678,115869,-1.37972,50.94062,BCT,MKD,OTH,,,,052,2005-10-07T00:00:00,2020-02-25T08:31:53,0,new,active
1980SN120151,sohdpjp,,,Fleming Road,,,,,,High Road,,,,adj,,S,E0042028,Swaythling,Southampton,,,,,,false,UKOS,443654,115639,-1.38009,50.93855,BCT,MKD,OTH,,,,052,2005-10-07T00:00:00,2024-10-14T12:21:02,41,new,active
1980SN120150,sohdpjm,,,Fleming Road,,,,,,High Road,,,,opp,,N,E0042028,Swaythling,Southampton,,,,,,false,UKOS,443649,115681,-1.38015,50.93893,BCT,MKD,OTH,,,,052,2005-10-07T00:00:00,2024-10-14T12:20:35,41,new,active
1980SN120153,sohdpja,,,Woodmill Lane,,,,,,High Road,,,,opp,,N,E0042028,Swaythling,Southampton,,,,,,false,UKOS,443629,115469,-1.38046,50.93702,BCT,MKD,OTH,,,,052,2005-10-07T00:00:00,2021-03-04T09:41:19,14,new,active
1980HA120154,sohdpgj,,,Woodmill Lane,,,,,,Portswood Road,,,,nr,,SW,E0042028,Swaythling,Southampton,,,,,,false,UKOS,443601,115333,-1.38088,50.9358,BCT,MKD,OTH,,,,052,2005-10-07T00:00:00,2021-03-04T09:41:40,14,new,active
1980SN120139,sohdmgt,,,Bealing Close,,,,,,Burgess Road,,,,E-bound,,E,E0041989,Highfield,Southampton,,,,,,false,UKOS,442905,115635,-1.39075,50.93857,BCT,MKD,OTH,,,,052,2005-10-07T00:00:00,2021-07-07T13:30:46,0,new,active
1980SN120140,sohdmdt,,,Bealing Close,,,,,,Burgess Road,,,,W-bound,,W,E0041989,Highfield,Southampton,,,,,,false,UKOS,442830,115614,-1.39182,50.93839,BCT,MKD,OTH,,,,052,2007-03-06T00:00:00,2021-07-07T13:30:46,0,new,active
1980SN120142,sohdmpd,,,Daisy Dip,,,,,,Lobelia Road,,,,adj,,N,E0041968,Bassett Green,Southampton,,,,,,false,UKOS,443066,115963,-1.38842,50.94151,BCT,MKD,OTH,,,,052,2005-10-07T00:00:00,2023-01-18T15:11:17,41,new,active
1980SN120144,sohdmtw,,,Woodcote Road,,,,,,Burgess Road,,,,E-bound,,E,E0042028,Swaythling,Southampton,,,,,,false,UKOS,443180,115639,-1.38683,50.93859,BCT,MKD,OTH,,,,052,2007-03-06T00:00:00,2021-07-07T13:30:46,0,new,active
1980SN120045,sohagaw,,,Lord's Hill Centre,,,,,,Lord's Hill Way,,,,Stop LA,,NE,N0073217,Lords Hill,Southampton,,,,,,false,UKOS,438645,115952,-1.45134,50.94172,BCT,MKD,OTH,,,,052,2006-10-16T00:00:00,2021-07-07T13:30:46,0,new,active
1980SN120046,sohagjw,,,Lord's Hill Centre,,,,,,Lord's Hill Way,,,,Stop LB,,SW,N0073217,Lords Hill,Southampton,,,,,,false,UKOS,438739,115976,-1.45,50.94193,BCT,MKD,OTH,,,,052,2006-10-16T00:00:00,2021-07-07T13:30:46,0,new,active
1980SN120047,sohagdw,,,Lord's Hill Centre,,,,,,Lord's Hill Way,,,,Stop LC,,SW,N0073217,Lords Hill,Southampton,,,,,,false,UKOS,438720,115965,-1.45027,50.94183,BCT,MKD,OTH,,,,052,2006-10-16T00:00:00,2020-02-25T08:31:54,0,new,active
1980HA120721,sohdtjp,,,Swift Road,,,,,,Archery Road,,,,SE-bound,,SE,E0042037,Woolston,Southampton,,,,,,false,UKOS,444027,110409,-1.37541,50.89149,BCT,MKD,OTH,,,,052,2006-09-29T00:00:00,2020-02-25T08:31:54,0,new,active
1980HA120720,sohdtgt,,,Swift Road,,,,,,Archery Road,,,,NW-bound,,NW,E0042037,Woolston,Southampton,,,,,,false,UKOS,444042,110379,-1.3752,50.89122,BCT,MKD,OTH,,,,052,2006-09-29T00:00:00,2020-02-25T08:31:54,0,new,active
1980HA120746,sohdwdp,,,Duncan Close,,,,,,Weston Lane,,,,opp,,NE,N0073222,Weston,Southampton,,,,,,false,UKOS,444299,110026,-1.37159,50.88803,BCT,MKD,OTH,,,,052,2006-10-11T00:00:00,2020-02-25T08:31:52,0,new,active
1980HA120777,sohjmwt,,,Browning Avenue,,,,,,Hinkler Road,,,,S-bound,,S,E0042030,Thornhill Park,Southampton,,,,,,false,UKOS,447135,112973,-1.33089,50.9143,BCT,MKD,OTH,,,,052,2009-03-24T00:00:00,2021-07-07T13:30:46,0,new,active
1980HA120776,sohjmwp,,,Browning Avenue,,,,,,Hinkler Road,,,,N-bound,,N,E0042030,Thornhill Park,Southampton,,,,,,false,UKOS,447121,113009,-1.33109,50.91463,BCT,MKD,OTH,,,,052,2006-10-16T00:00:00,2021-07-07T13:30:46,0,new,active
1980HA121017,sohawpw,,,Chilworth Roundabout,,,,,,Bassett Avenue,,,,N-bound,,N,E0041967,Bassett,Southampton,,,,,,false,UKOS,441931,117140,-1.40443,50.95217,BCT,MKD,OTH,,,,052,2006-09-29T00:00:00,2020-02-25T08:31:53,0,new,active
1980HA120625,sohdamp,,,Holyrood Church,,,,,,High Street,,,,Stop BK,,N,N0077117,Southampton City Centre,Southampton,,,,,,false,UKOS,442009,111345,-1.40399,50.90006,BCT,MKD,OTH,,,,052,2005-12-16T00:00:00,2024-10-16T16:13:09,52,new,active
1980HA120626,sohdapd,,,Holyrood Church,,,,,,High Street,,,,Stop BJ,,S,N0077117,Southampton City Centre,Southampton,,,,,,false,UKOS,442025,111337,-1.40376,50.89999,BCT,MKD,OTH,,,,052,2005-12-16T00:00:00,2024-10-16T16:12:29,52,new,active
1980HAA13381,sohdpdw,,,High Road,,,,,,Langhorn Road,,,,NW-bound,,NW,E0042028,Swaythling,Southampton,,,,,,false,UKOS,443547,115467,-1.38163,50.93701,BCT,MKD,OTH,,,,052,2006-08-11T00:00:00,2022-02-02T09:01:03,4,new,active
1980HAA13380,sohdpga,,,High Road,,,,,,Langhorn Road,,,,SE-bound,,SE,E0042028,Swaythling,Southampton,,,,,,false,UKOS,443547,115479,-1.38163,50.93712,BCT,MKD,OTH,,,,052,2005-10-07T00:00:00,2020-02-25T08:31:54,0,new,active
1980HA121056,sohjpag,,,Moorhill Gardens,,,,,,Thornhill Park Road,,,,NW-bound,,NW,E0042030,Thornhill Park,Southampton,,,,,,false,UKOS,447248,113017,-1.32928,50.91469,BCT,MKD,OTH,,,,052,2009-03-24T00:00:00,2020-02-25T08:31:53,0,new,active
1980HA121057,sohjpda,,,Moorhill Gardens,,,,,,Thornhill Park Road,,,,SE-bound,,SE,E0042030,Thornhill Park,Southampton,,,,,,false,UKOS,447273,113016,-1.32892,50.91468,BCT,MKD,OTH,,,,052,2009-03-24T00:00:00,2020-02-25T08:31:53,0,new,active
1980HA122972,sohjtgm,,,Redbridge Roundabout,,,,,,Redbridge Causeway,,,,E-bound,,E,E0042016,Redbridge,Southampton,,,,,,false,UKOS,437238,113777,-1.47158,50.92226,BCT,MKD,OTH,,,,052,2006-10-18T00:00:00,2020-02-25T08:31:54,0,new,active
1980SN120843,sohadaj,,,Redbridge Roundabout,,,,,,Redbridge Causeway,,,,NW-bound,,NW,E0042016,Redbridge,Southampton,,,,,,false,UKOS,437431,113714,-1.46885,50.92168,BCT,MKD,OTH,,,,052,2005-10-07T00:00:00,2020-02-25T08:31:53,0,new,active
1980HA12549A,sohatwd,,,Coach Station,,,,,,,,,,NE-bound,,NE,N0077117,Southampton City Centre,Southampton,,,,,,false,UKOS,441626,111999,-1.40936,50.90597,BCT,MKD,OTH,,,,052,2009-03-24T00:00:00,2017-08-21T07:57:13,11,new,active
1980HA120323,sohjdpa,,,Townhill Way,,,,,,Meggeson Avenue,,,,SE-bound,,SE,E0042002,Midanbury,Southampton,,,,,,false,UKOS,445424,114337,-1.35506,50.92671,BCT,MKD,OTH,,,,052,2007-04-16T00:00:00,2014-06-12T07:29:15,12,new,active
1980HA120324,sohjdpj,,,Townhill Way,,,,,,Meggeson Avenue,,,,NW-bound,,NW,E0042002,Midanbury,Southampton,,,,,,false,UKOS,445446,114298,-1.35475,50.92635,BCT,MKD,OTH,,,,052,2007-04-16T00:00:00,2014-05-09T07:19:29,17,new,active
1980HA120416,sohdpat,,,Quayside Road,,,,,,Bitterne Road West,,,,NE-bound,,NE,N0077162,Bitterne Manor,Southampton,,,,,,false,UKOS,443438,113289,-1.38344,50.91743,BCT,MKD,OTH,,,,052,2006-10-11T00:00:00,2020-02-25T08:31:53,0,new,active
1980HA120417,sohdpam,,,Quayside Road,,,,,,Bitterne Road,,,,SW-bound,,SW,N0077162,Bitterne Manor,Southampton,,,,,,false,UKOS,443413,113213,-1.3838,50.91675,BCT,MKD,OTH,,,,052,2006-10-11T00:00:00,2020-02-25T08:31:53,0,new,active
1980HA120419,sohdptg,,,Rampart Road,,,,,,Bitterne Road West,,,,E-bound,,E,N0077162,Bitterne Manor,Southampton,,,,,,false,UKOS,443727,113366,-1.37932,50.91811,BCT,MKD,OTH,,,,052,2005-10-07T00:00:00,2020-02-25T08:31:53,0,new,active
1980HA120418,sohdpjt,,,Rampart Road,,,,,,Bitterne Road West,,,,W-bound,,W,N0077162,Bitterne Manor,Southampton,,,,,,false,UKOS,443658,113345,-1.3803,50.91792,BCT,MKD,OTH,,,,052,2005-10-07T00:00:00,2020-02-25T08:31:53,0,new,active
1980HA120303,sohdmpt,,,Belmont Road,,,,,,St Denys' Road,,,,NW-bound,,NW,E0042013,Portswood,Southampton,,,,,,false,UKOS,443001,114189,-1.38955,50.92556,BCT,MKD,OTH,,,,052,2005-10-07T00:00:00,2024-01-16T10:06:34,0,new,active
1980SN120302,sohdmpg,,,Belmont Road,,,,,,St Denys' Road,,,,SE-bound,,SE,E0042013,Portswood,Southampton,,,,,,false,UKOS,443076,114160,-1.38849,50.92529,BCT,MKD,OTH,,,,052,2005-10-07T00:00:00,2020-02-25T08:31:53,0,new,active
1980HA120304,sohdpdm,,,St Denys Church,,,,,,St Denys Road,,,,opp,,E,E0042026,St Denys,Southampton,,,,,,false,UKOS,443506,114115,-1.38237,50.92486,BCT,MKD,OTH,,,,052,2005-10-07T00:00:00,2015-04-25T12:19:33,0,new,active
1980HA120305,sohdpap,,,St Denys Church,,,,,,St Denys' Road,,,,o/s,,NW,E0042026,St Denys,Southampton,,,,,,false,UKOS,443464,114119,-1.38297,50.9249,BCT,MKD,OTH,,,,052,2005-10-07T00:00:00,2015-04-25T12:19:33,0,new,active
1980HA120307,sohdpma,,,Priory Road,,,,,,St Denys' Road,,,,W-bound,,W,N0073216,Bitterne Park,Southampton,,,,,,false,UKOS,443636,114070,-1.38053,50.92444,BCT,MKD,OTH,,,,052,2006-10-18T00:00:00,2020-02-25T08:31:54,0,new,active
1980HA120306,sohdpjw,,,Priory Road,,,,,,St Denys' Road,,,,E-bound,,E,N0073216,Bitterne Park,Southampton,,,,,,false,UKOS,443643,114080,-1.38043,50.92453,BCT,MKD,OTH,,,,052,2005-10-07T00:00:00,2020-02-25T08:31:54,0,new,active
1980HA120546,sohawtm,,,Red Funnel Terminal,,,,,,,,,,Stop TB,,NE,N0077173,Town Quay,Southampton,,,,,,false,UKOS,441948,110910,-1.40491,50.89615,BCT,MKD,OTH,,,,052,2006-04-11T00:00:00,2016-04-08T12:29:19,19,new,active
1980HAA13580,sohdaga,,,Red Funnel Terminal,,,,,,,,,,Stop TA,,SW,N0077173,Town Quay,Southampton,,,,,,false,UKOS,441962,110906,-1.40471,50.89612,BCT,MKD,OTH,,,,052,2007-01-25T00:00:00,2015-06-08T13:01:14,15,new,active
1980HA120611,sohjpdm,,,Fairfax Court,,,,,,Hinkler Road,,,,S-bound,,S,N0073220,Thornhill,Southampton,,,,,,false,UKOS,447280,112733,-1.32886,50.91213,BCT,MKD,OTH,,,,052,2006-10-16T00:00:00,2014-04-08T13:22:36,17,new,active
1980HA120610,sohjpam,,,Fairfax Court,,,,,,Hinkler Road,,,,NW-bound,,NW,N0073220,Thornhill,Southampton,,,,,,false,UKOS,447254,112744,-1.32923,50.91224,BCT,MKD,OTH,,,,052,2006-10-16T00:00:00,2021-07-07T13:30:46,0,new,active
1980HA120613,sohjpdp,,,Holcroft Road,,,,,,Hinkler Road,,,,opp,,N,N0073220,Thornhill,Southampton,,,,,,false,UKOS,447359,112423,-1.32778,50.90934,BCT,MKD,OTH,,,,052,2006-10-16T00:00:00,2021-07-07T13:30:44,0,new,active
1980HA120612,sohjpdt,,,Holcroft Road,,,,,,Hinkler Road,,,,adj,,S,N0073220,Thornhill,Southampton,,,,,,false,UKOS,447364,112409,-1.32771,50.90921,BCT,MKD,OTH,,,,052,2006-10-16T00:00:00,2021-07-07T13:30:44,0,new,active
1980HA120462,sohjgwt,,,Melchet Road,,,,,,Beauworth Avenue,,,,S-bound,,S,E0041988,Harefield,Southampton,,,,,,false,UKOS,446293,113917,-1.34275,50.92286,BCT,MKD,OTH,,,,052,2006-10-11T00:00:00,2020-02-25T08:31:54,0,new,active
1980HA120466,sohjmpm,,,Meon Court,,,,,,Minstead Avenue,,,,adj,,SE,E0041988,Harefield,Southampton,,,,,,false,UKOS,446809,113570,-1.33545,50.9197,BCT,MKD,OTH,,,,052,2006-10-16T00:00:00,2023-01-11T14:13:00,16,new,active
1980HA120481,sohamam,,,Waterhouse Lane,,,,,,Millbrook Road West,,,,adj,,E,E0041986,Freemantle,Southampton,,,,,,false,UKOS,439728,112740,-1.43627,50.91277,BCT,MKD,OTH,,,,052,2006-10-16T00:00:00,2015-04-25T12:22:11,0,new,active
1980HA120483,sohamgt,,,Millbrook Station,,,,,,Paynes Road,,,,NW-bound,,NW,E0041986,Freemantle,Southampton,,,,,,false,UKOS,439889,112633,-1.434,50.91179,BCT,MKD,OTH,,,,052,2010-06-30T00:00:00,2019-08-19T08:32:51,10,new,active
1980HA120482,sohamjm,,,Millbrook Station,,,,,,Millbrook Road West,,,,SE-bound,,SE,E0041986,Freemantle,Southampton,,,,,,false,UKOS,439934,112645,-1.43335,50.9119,BCT,MKD,OTH,,,,052,2005-10-07T00:00:00,2020-02-25T08:31:54,0,new,active
1980SN120010,sohajap,,,Kinloss Court,,,,,,Lords Hill Way,,,,W-bound,,W,N0073217,Lords Hill,Southampton,,,,,,false,UKOS,439128,116151,-1.44444,50.94348,BCT,MKD,OTH,,,,052,2006-10-09T00:00:00,2014-04-08T15:36:39,17,new,active
1980SN120011,sohajdt,,,Kinloss Court,,,,,,Lords Hill Way,,,,SE-bound,,SE,N0073217,Lords Hill,Southampton,,,,,,false,UKOS,439201,116126,-1.44341,50.94325,BCT,MKD,OTH,,,,052,2006-10-09T00:00:00,2014-04-08T15:36:17,17,new,active
1980HAA13389,sohajwj,,,Tanners Brook,,,,,,Lord's Hill Way,,,,SW-bound,,SW,E0041997,Lordswood,Southampton,,,,,,false,UKOS,439620,116021,-1.43745,50.94227,BCT,MKD,OTH,,,,052,2007-03-06T00:00:00,2021-07-07T13:30:46,0,new,active
1980SN120013,sohajwt,,,Tanners Brook,,,,,,Lord's Hill Way,,,,NE-bound,,NE,E0041997,Lordswood,Southampton,,,,,,false,UKOS,439674,116062,-1.43668,50.94264,BCT,MKD,OTH,,,,052,2006-10-16T00:00:00,2021-07-07T13:30:46,0,new,active
1980SN120014,sohampm,,,Woburn Road Flyover,,,,,,Lords Hill Way,,,,E-bound,,E,E0041997,Lordswood,Southampton,,,,,,false,UKOS,439998,116178,-1.43206,50.94366,BCT,MKD,OTH,,,,052,2006-10-16T00:00:00,2014-04-11T11:24:28,21,new,active
1980HAA13388,sohampg,,,Woburn Road Flyover,,,,,,Lord's Hill Way,,,,W-bound,,W,E0041997,Lordswood,Southampton,,,,,,false,UKOS,439995,116149,-1.4321,50.9434,BCT,MKD,OTH,,,,052,2006-10-16T00:00:00,2014-04-08T15:11:56,20,new,active
1980SN120006,sohagjg,,,Crabwood Road,,,,,,Wimpson Lane,,,,NE-bound,,NE,E0042000,Maybush,Southampton,,,,,,false,UKOS,438747,114505,-1.45004,50.9287,BCT,MKD,OTH,,,,052,2007-01-25T00:00:00,2020-02-25T08:31:53,0,new,active
1980SN120007,sohagdj,,,Crabwood Road,,,,,,Wimpson Lane,,,,SW-bound,,SW,E0042000,Maybush,Southampton,,,,,,false,UKOS,438719,114449,-1.45044,50.9282,BCT,MKD,OTH,,,,052,2007-01-25T00:00:00,2020-02-25T08:31:53,0,new,active
1980SN120009,sohagpd,,,Blackbushe Close,,,,,,Lords Hill Way,,,,SW-bound,,SW,N0073217,Lords Hill,Southampton,,,,,,false,UKOS,438879,116149,-1.44799,50.94348,BCT,MKD,OTH,,,,052,2006-10-09T00:00:00,2014-04-08T15:23:41,24,new,active
1980SN120008,sohagpa,,,Blackbushe Close,,,,,,Lords Hill Way,,,,NE-bound,,NE,N0073217,Lords Hill,Southampton,,,,,,false,UKOS,438860,116157,-1.44826,50.94355,BCT,MKD,OTH,,,,052,2006-10-16T00:00:00,2014-04-08T15:38:36,27,new,active
1980SN120041,sohadjm,,,Boniface Crescent,,,,,,Lower Brownhill Road,,,,NE-bound,,NE,E0042000,Maybush,Southampton,,,,,,false,UKOS,437956,115185,-1.46122,50.93487,BCT,MKD,OTH,,,,052,2006-10-09T00:00:00,2020-02-25T08:31:53,0,new,active
1980SN120042,sohadja,,,Boniface Crescent,,,,,,Lower Brownhill Road,,,,SW-bound,,SW,E0042000,Maybush,Southampton,,,,,,false,UKOS,437893,115149,-1.46212,50.93455,BCT,MKD,OTH,,,,052,2006-10-16T00:00:00,2020-02-25T08:31:54,0,new,active
1980SN120031,sohdmta,,,Poppy Road,,,,,,Lobelia Road,,,,N-bound,,N,E0041968,Bassett Green,Southampton,,,,,,false,UKOS,443092,116215,-1.38802,50.94377,BCT,MKD,OTH,,,,052,2005-10-07T00:00:00,2014-04-08T12:41:53,20,new,active
1980SN120032,sohdmwj,,,Ethelburt Avenue,,,,,,Bassett Green Road,,,,opp,,E,E0041968,Bassett Green,Southampton,,,,,,false,UKOS,443306,116198,-1.38497,50.9436,BCT,MKD,OTH,,,,052,2005-10-07T00:00:00,2023-08-07T10:26:30,39,new,active
1980SNA90967,sohmgwm,,,Ethelburt Avenue,,,,,,Bassett Green Road,,,,adj,,W,E0041968,Bassett Green,Southampton,,,,,,false,UKOS,443268,116192,-1.38551,50.94355,BCT,MKD,OTH,,,,052,2019-07-17T00:00:00,2023-08-07T10:27:31,72,new,active
1980SN120034,sohdpdp,,,Leaside Way,,,,,,Bassett Green Road,,,,adj,,E,E0041968,Bassett Green,Southampton,,,,,,false,UKOS,443528,116178,-1.38182,50.94341,BCT,MKD,OTH,,,,052,2005-10-07T00:00:00,2019-07-17T07:30:59,11,new,active
1980SNA90966,sohmgwj,,,Leaside Way,,,,,,Bassett Green Road,,,,opp,,W,E0041968,Bassett Green,Southampton,,,,,,false,UKOS,443493,116170,-1.38231,50.94334,BCT,MKD,OTH,,,,052,2019-07-17T00:00:00,2023-08-07T10:28:19,56,new,active
1980HAA13649,sohatmw,,,Leisure World,,,,,,West Quay Road,,,,SE-bound,,SE,N0077117,Southampton City Centre,Southampton,,,,,,false,UKOS,441463,111684,-1.41172,50.90315,BCT,MKD,OTH,,,,052,2007-01-25T00:00:00,2020-02-25T08:31:54,0,new,active
1980HAA13650,sohdtdt,,,Friars Way,,,,,,Wessex Lane,,,,N-bound,,N,E0042028,Swaythling,Southampton,,,,,,false,UKOS,443951,115734,-1.37585,50.93938,BCT,MKD,OTH,,,,052,2006-10-11T00:00:00,2021-07-07T13:30:46,0,new,active
1980HAA13651,sohdtga,,,Friars Way,,,,,,Wessex Lane,,,,S-bound,,S,E0042028,Swaythling,Southampton,,,,,,false,UKOS,443958,115735,-1.37575,50.93939,BCT,MKD,OTH,,,,052,2007-01-25T00:00:00,2021-07-07T13:30:46,0,new,active
1980HAA13387,sohdpdj,,,St George School - SCH ONLY,,,,,,Leaside Way,,,,E-bound,,E,E0041968,Bassett Green,Southampton,,,,,,false,UKOS,443505,116397,-1.38212,50.94538,BCT,MKD,OTH,,,,052,2005-10-07T00:00:00,2023-12-06T12:30:10,58,new,active
1980HAA13579,sohdjwm,,,Southampton NOCS,,,,,,,,,,o/s,,NW,E0041983,Eastern Docks,Southampton,,,,,,false,UKOS,442630,110615,-1.39524,50.89345,BCT,MKD,OTH,,,,052,2009-05-21T00:00:00,2024-03-08T07:18:54,54,new,active
1980HAA13652,sohdwaw,,,Ticonderoga Gardens,,,,,,Archery Road,,,,N-bound,,N,N0073222,Weston,Southampton,,,,,,false,UKOS,444238,110076,-1.37245,50.88848,BCT,MKD,OTH,,,,052,2006-10-11T00:00:00,2020-02-25T08:31:54,0,new,active
1980HAA13653,sohdtwd,,,Mayfield Garage,,,,,,Archery Road,,,,SE-bound,,SE,E0042037,Woolston,Southampton,,,,,,false,UKOS,444183,110206,-1.37321,50.88966,BCT,MKD,OTH,,,,052,2006-09-29T00:00:00,2020-02-25T08:31:54,0,new,active
1980SN120410,sohdjpg,,,Aldi Store,,,,,,Bevois Valley Road,,,,SW-bound,,SW,E0041974,Bevois Valley,Southampton,,,,,,false,UKOS,442572,113223,-1.39577,50.91691,BCT,MKD,OTH,,,,052,2006-09-29T00:00:00,2021-07-07T13:30:46,0,new,active
1980SN120409,sohdjpm,,,Aldi Store,,,,,,Bevois Valley Road,,,,N-bound,,N,E0041974,Bevois Valley,Southampton,,,,,,false,UKOS,442581,113321,-1.39563,50.91779,BCT,MKD,OTH,,,,052,2006-10-11T00:00:00,2021-07-07T13:30:46,0,new,active
1980SN120411,sohdjtj,,,Forster Road,,,,,,Bevois Hill,,,,S-bound,,S,E0041974,Bevois Valley,Southampton,,,,,,false,UKOS,442604,113489,-1.39528,50.9193,BCT,MKD,OTH,,,,052,2005-10-07T00:00:00,2014-04-08T16:30:26,20,new,active
1980SN120413,sohdjpt,,,Spring Crescent,,,,,,Portswood Road,,,,N-bound,,N,E0042013,Portswood,Southampton,,,,,,false,UKOS,442584,113736,-1.39554,50.92152,BCT,MKD,OTH,,,,052,2006-10-09T00:00:00,2021-07-07T13:30:46,0,new,active
1980SN120412,sohdjtd,,,Spring Crescent,,,,,,Portswood Road,,,,S-bound,,S,E0042013,Portswood,Southampton,,,,,,false,UKOS,442598,113668,-1.39534,50.92091,BCT,MKD,OTH,,,,052,2005-10-07T00:00:00,2021-07-07T13:30:46,0,new,active
1980SN120278,sohdjwj,,,Waitrose,,,,,,Brookvale Road,,,,Stop PE,,NW,E0042013,Portswood,Southampton,,,,,,false,UKOS,442651,114101,-1.39454,50.92479,BCT,MKD,OTH,,,,052,2006-01-10T00:00:00,2020-02-25T08:31:53,0,new,active
1980SN120279,sohdjwp,,,Waitrose,,,,,,Portswood Road,,,,Stop PD,,NE,E0042013,Portswood,Southampton,,,,,,false,UKOS,442656,114041,-1.39448,50.92426,BCT,MKD,OTH,,,,052,2007-01-25T00:00:00,2021-07-07T13:30:46,0,new,active
1980SN120276,sohdjwd,,,Waitrose,,,,,,Brookvale Road,,,,Stop PF,,SE,E0042013,Portswood,Southampton,,,,,,false,UKOS,442647,114112,-1.3946,50.92489,BCT,MKD,OTH,,,,052,2006-09-29T00:00:00,2020-02-25T08:31:53,0,new,active
1980SN120415,sohdjwa,,,Waitrose,,,,,,Portswood Road,,,,Stop PC,,SW,E0042013,Portswood,Southampton,,,,,,false,UKOS,442638,113981,-1.39474,50.92372,BCT,MKD,OTH,,,,052,2006-01-10T00:00:00,2021-07-07T13:30:46,0,new,active
1980SN120402,sohawdp,,,St Annes Gate,,,,,,Carlton Road,,,,opp,,S,E0041965,Banister Park,Southampton,,,,,,false,UKOS,441826,113147,-1.40639,50.91628,BCT,MKD,OTH,,,,052,2006-10-13T00:00:00,2024-10-21T07:56:49,41,new,active
1980SN120397,sohawad,,,St Annes Gate,,,,,,Archers Road,,,,adj,,W,E0041965,Banister Park,Southampton,,,,,,false,UKOS,441733,113178,-1.40771,50.91656,BCT,MKD,OTH,,,,052,2005-10-07T00:00:00,2024-10-21T07:57:05,41,new,active
1980SN120403,sohdapw,,,Stag Gates,,,,,,Lodge Road,,,,E-bound,,E,E0041965,Banister Park,Southampton,,,,,,false,UKOS,442040,113437,-1.40331,50.91887,BCT,MKD,OTH,,,,052,2007-04-16T00:00:00,2020-02-25T08:31:54,0,new,active
1980SN120404,sohdgjd,,,Stag Gates,,,,,,The Avenue,,,,SE-bound,,SE,E0041965,Banister Park,Southampton,,,,,,false,UKOS,442050,113346,-1.40318,50.91805,BCT,MKD,OTH,,,,052,2006-10-18T00:00:00,2022-02-02T07:31:50,6,new,active
1980SN120401,sohdajg,,,Stag Gates,,,,,,The Avenue,,,,N-bound,,N,E0041965,Banister Park,Southampton,,,,,,false,UKOS,441985,113442,-1.40409,50.91892,BCT,MKD,OTH,,,,052,2007-03-06T00:00:00,2020-02-25T08:31:54,0,new,active
1980SN120405,sohdawd,,,Archers Road,,,,,,The Avenue,,,,adj,,N,E0041965,Banister Park,Southampton,,,,,,false,UKOS,442072,113104,-1.40289,50.91587,BCT,MKD,OTH,,,,052,2006-10-18T00:00:00,2020-02-04T07:51:20,8,new,active
1980SN120406,sohdgap,,,Archers Road,,,,,,The Avenue,,,,opp,,S,E0041965,Banister Park,Southampton,,,,,,false,UKOS,442107,113164,-1.40239,50.91641,BCT,MKD,OTH,,,,052,2007-01-25T00:00:00,2020-02-04T07:51:34,8,new,active
1980SN120407,sohdgpd,,,Cedar Road,,,,,,Lodge Road,,,,E-bound,,E,E0042013,Portswood,Southampton,,,,,,false,UKOS,442234,113468,-1.40055,50.91913,BCT,MKD,OTH,,,,052,2006-10-16T00:00:00,2021-07-07T13:30:46,0,new,active
1980SN120408,sohdgwp,,,Cedar Road,,,,,,Lodge Road,,,,W-bound,,W,E0042013,Portswood,Southampton,,,,,,false,UKOS,442328,113480,-1.39921,50.91923,BCT,MKD,OTH,,,,052,2006-10-09T00:00:00,2021-07-07T13:30:46,0,new,active
1980SN120447,sohjdja,,,Dean Road,,,,,,West End Road,,,,N-bound,,N,E0041975,Bitterne,Southampton,,,,,,false,UKOS,445305,113620,-1.35684,50.92027,BCT,MKD,OTH,,,,052,2006-06-09T00:00:00,2015-08-13T14:34:26,3,new,active
1980SN120449,sohjdjp,,,Dean Road,,,,,,West End Road,,,,S-bound,,S,E0041975,Bitterne,Southampton,,,,,,false,UKOS,445314,113615,-1.35671,50.92022,BCT,MKD,OTH,,,,052,2007-01-25T00:00:00,2020-02-25T08:31:53,0,new,active
1980SN120451,sohjdap,,,Chichester Road,,,,,,West End Road,,,,SW-bound,,SW,E0041975,Bitterne,Southampton,,,,,,false,UKOS,445149,113306,-1.3591,50.91746,BCT,MKD,OTH,,,,052,2007-01-25T00:00:00,2020-02-25T08:31:53,0,new,active
1980SN120450,sohjdat,,,Chichester Road,,,,,,West End Road,,,,N-bound,,N,E0041975,Bitterne,Southampton,,,,,,false,UKOS,445159,113359,-1.35895,50.91793,BCT,MKD,OTH,,,,052,2007-01-25T00:00:00,2021-07-07T13:30:46,0,new,active
1980SN120473,sohjgpt,,,Sunningdale Gardens,,,,,,Somerset Avenue,,,,opp,,SW,E0041988,Harefield,Southampton,,,,,,false,UKOS,446026,113079,-1.34665,50.91535,BCT,MKD,OTH,,,,052,2007-01-25T00:00:00,2018-04-26T07:33:09,9,new,active
1980SN120460,sohjgpa,,,Sunningdale Gardens,,,,,,Somerset Avenue,,,,adj,,NE,E0041988,Harefield,Southampton,,,,,,false,UKOS,445989,113059,-1.34718,50.91517,BCT,MKD,OTH,,,,052,2007-01-25T00:00:00,2018-04-26T07:32:47,13,new,active
1980SN120438,sohjatj,,,Vale Drive,,,,,,Witts Hill,,,,N-bound,,N,E0042002,Midanbury,Southampton,,,,,,false,UKOS,445002,113964,-1.36111,50.92338,BCT,MKD,OTH,,,,052,2007-01-25T00:00:00,2020-02-25T08:31:53,0,new,active
1980SN120442,sohjdma,,,Bramble Mews,,,,,,Townhill Way,,,,opp,,N,E0041975,Bitterne,Southampton,,,,,,false,UKOS,445336,113778,-1.35638,50.92169,BCT,MKD,OTH,,,,052,2007-01-25T00:00:00,2021-03-17T07:54:12,14,new,active
1980SN120443,sohjdjt,,,Bramble Mews,,,,,,Townhill Way,,,,adj,,SW,E0041975,Bitterne,Southampton,,,,,,false,UKOS,445331,113741,-1.35646,50.92135,BCT,MKD,OTH,,,,052,2007-01-25T00:00:00,2021-03-17T07:54:35,14,new,active
1980SN120380,sohapdj,,,Grove Road,,,,,,Shirley Road,,,,NW-bound,,NW,E0042018,Shirley,Southampton,,,,,,false,UKOS,440352,113272,-1.42734,50.91751,BCT,MKD,OTH,,,,052,2006-10-09T00:00:00,2020-02-25T08:31:53,0,new,active
1980SN120381,sohapga,,,Grove Road,,,,,,Shirley Road,,,,SE-bound,,SE,E0042018,Shirley,Southampton,,,,,,false,UKOS,440408,113222,-1.42655,50.91705,BCT,MKD,OTH,,,,052,2006-10-09T00:00:00,2020-02-25T08:31:53,0,new,active
1980SN120385,sohapjp,,,Bridlington Avenue,,,,,,St Jame's Road,,,,NW-bound,,NW,E0042018,Shirley,Southampton,,,,,,false,UKOS,440578,113891,-1.42406,50.92306,BCT,MKD,OTH,,,,052,2005-10-07T00:00:00,2021-07-07T13:30:46,0,new,active
1980SN120384,sohapjg,,,Bridlington Avenue,,,,,,St Jame's Road,,,,SE-bound,,SE,E0042018,Shirley,Southampton,,,,,,false,UKOS,440554,113928,-1.42439,50.92339,BCT,MKD,OTH,,,,052,2005-10-07T00:00:00,2021-07-07T13:30:46,0,new,active
1980SN120386,sohaptm,,,St John's Church,,,,,,St Jame's Road,,,,NW-bound,,NW,E0042018,Shirley,Southampton,,,,,,false,UKOS,440799,113586,-1.42095,50.9203,BCT,MKD,OTH,,,,052,2009-03-24T00:00:00,2021-07-07T13:30:46,0,new,active
1980SN120387,sohaptj,,,St John's Church,,,,,,St Jame's Road,,,,SE-bound,,SE,E0042018,Shirley,Southampton,,,,,,false,UKOS,440788,113619,-1.4211,50.9206,BCT,MKD,OTH,,,,052,2006-10-18T00:00:00,2021-07-07T13:30:46,0,new,active
1980SN120372,sohampd,,,Church Street,,,,,,Shirley High Street,,,,Stop SJ,,SE,E0042018,Shirley,Southampton,,,,,,false,UKOS,439999,113714,-1.43231,50.9215,BCT,MKD,OTH,,,,052,2007-01-25T00:00:00,2021-07-07T13:30:46,0,new,active
1980SN120371,sohamjp,,,Church Street,,,,,,Shirley High Street,,,,Stop SA,,NW,E0042018,Shirley,Southampton,,,,,,false,UKOS,439944,113766,-1.43309,50.92198,BCT,MKD,OTH,,,,052,2007-01-25T00:00:00,2021-07-07T13:30:46,0,new,active
1980SN120378,sohapdp,,,St James Road - del nov 24,,,,,,Shirley Avenue,,,,SW-bound,,SW,E0042018,Shirley,Southampton,,,,,,false,UKOS,440374,113968,-1.42695,50.92376,BCT,MKD,OTH,,,,052,2005-10-07T00:00:00,2024-11-14T07:49:59,40,delete,inactive
1980SN120375,sohamwd,,,Vincent Road,,,,,,Shirley Avenue,,,,opp,,SW,E0042018,Shirley,Southampton,,,,,,false,UKOS,440140,113690,-1.43031,50.92128,BCT,MKD,OTH,,,,052,2005-10-07T00:00:00,2024-10-21T07:38:13,41,new,active
1980SN120374,sohamtp,,,Vincent Road,,,,,,Shirley Avenue,,,,adj,,NE,E0042018,Shirley,Southampton,,,,,,false,UKOS,440111,113668,-1.43072,50.92108,BCT,MKD,OTH,,,,052,2005-10-07T00:00:00,2024-10-21T07:37:56,41,new,active
1980SN120377,sohamtg,,,LIDL,,,,,,Shirley Road,,,,o/s,,NW,E0042018,Shirley,Southampton,,,,,,false,UKOS,440084,113596,-1.43112,50.92044,BCT,MKD,OTH,,,,052,2006-10-09T00:00:00,2021-03-04T09:53:40,44,new,active
1980SN120376,sohamwg,,,LIDL,,,,,,Shirley Road,,,,opp,,SE,E0042018,Shirley,Southampton,,,,,,false,UKOS,440143,113540,-1.43028,50.91993,BCT,MKD,OTH,,,,052,2006-10-09T00:00:00,2021-03-04T09:54:08,40,new,active
1980SN120395,sohatwj,,,Westrow Road,,,,,,Archers Road,,,,adj,,NE,E0041965,Banister Park,Southampton,,,,,,false,UKOS,441478,113101,-1.41134,50.91589,BCT,MKD,OTH,,,,052,2006-10-11T00:00:00,2024-11-14T07:47:56,64,new,active
1980SN120396,sohatpj,,,Westrow Road,,,,,,Archers Road,,,,opp,,SW,E0041965,Banister Park,Southampton,,,,,,false,UKOS,441477,113088,-1.41136,50.91577,BCT,MKD,OTH,,,,052,2006-09-29T00:00:00,2024-11-14T07:48:04,35,new,active
1980SN120398,sohawpj,,,Northlands Road,,,,,,The Avenue,,,,N-bound,,N,E0041965,Banister Park,Southampton,,,,,,false,UKOS,441905,113810,-1.40519,50.92223,BCT,MKD,OTH,,,,052,2007-01-25T00:00:00,2014-04-08T16:42:21,20,new,active
1980SN120400,sohawtg,,,Northlands Road,,,,,,The Avenue,,,,S-bound,,S,E0041965,Banister Park,Southampton,,,,,,false,UKOS,441936,113691,-1.40476,50.92116,BCT,MKD,OTH,,,,052,2007-01-25T00:00:00,2014-04-08T16:42:45,20,new,active
1980SN120788,sohdamt,,,Albany Park Court,,,,,,Winn Road,,,,NE-bound,,NE,E0042013,Portswood,Southampton,,,,,,false,UKOS,442006,113959,-1.40373,50.92357,BCT,MKD,OTH,,,,052,2007-01-25T00:00:00,2020-02-25T08:31:54,0,new,active
1980SN120399,sohdadm,,,Albany Park Court,,,,,,Winn Road,,,,W-bound,,W,E0042013,Portswood,Southampton,,,,,,false,UKOS,441927,113919,-1.40486,50.92321,BCT,MKD,OTH,,,,052,2007-01-25T00:00:00,2020-02-25T08:31:53,0,new,active
1980SN120388,sohatgw,,,Wilton Road,,,,,,Hill Lane,,,,S-bound,,S,E0042031,Upper Shirley,Southampton,,,,,,false,UKOS,441207,113721,-1.41513,50.92148,BCT,MKD,OTH,,,,052,2005-10-07T00:00:00,2020-02-25T08:31:54,0,new,active
1980SN120389,sohatdw,,,Wilton Road,,,,,,Hill Lane,,,,N-bound,,N,E0042031,Upper Shirley,Southampton,,,,,,false,UKOS,441184,113644,-1.41546,50.92079,BCT,MKD,OTH,,,,052,2005-10-07T00:00:00,2020-02-25T08:31:54,0,new,active
1980SN120390,sohatdj,,,Atherley Bowling Club,,,,,,Raymond Road,,,,E-bound,,E,E0042018,Shirley,Southampton,,,,,,false,UKOS,441117,113443,-1.41644,50.91899,BCT,MKD,OTH,,,,052,2005-10-07T00:00:00,2014-04-08T13:36:12,20,new,active
1980SN120392,sohatgm,,,Atherley Bowling Club,,,,,,Hill Lane,,,,N-bound,,N,E0042018,Shirley,Southampton,,,,,,false,UKOS,441189,113384,-1.41542,50.91845,BCT,MKD,OTH,,,,052,2005-10-07T00:00:00,2014-04-11T10:54:08,20,new,active
1980SN120391,sohatgp,,,Atherley Bowling Club,,,,,,Hill Lane,,,,S-bound,,S,E0042018,Shirley,Southampton,,,,,,false,UKOS,441193,113469,-1.41535,50.91922,BCT,MKD,OTH,,,,052,2005-10-07T00:00:00,2014-04-11T10:54:31,20,new,active
1980SN120393,sohatam,,,Greville Road,,,,,,Raymond Road,,,,W-bound,,W,E0042018,Shirley,Southampton,,,,,,false,UKOS,441032,113430,-1.41765,50.91888,BCT,MKD,OTH,,,,052,2005-10-07T00:00:00,2021-07-07T13:30:46,0,new,active
1980SN120394,sohatgt,,,Howard Road,,,,,,Hill Lane,,,,opp,,S,E0042018,Shirley,Southampton,,,,,,false,UKOS,441196,113062,-1.41536,50.91556,BCT,MKD,OTH,,,,052,2005-10-07T00:00:00,2024-10-21T07:29:23,41,new,active
1980SN120506,sohatga,,,Howard Road,,,,,,Hill Lane,,,,adj,,N,E0042018,Shirley,Southampton,,,,,,false,UKOS,441187,112904,-1.4155,50.91414,BCT,MKD,OTH,,,,052,2005-10-07T00:00:00,2024-10-21T07:29:05,41,new,active
1980SN121022,sohatwt,,,SeaCity Museum,,,,,,Havelock Road,,,,Stop AL,,NW,N0077117,Southampton City Centre,Southampton,,,,,,false,UKOS,441704,112240,-1.40823,50.90813,BCT,MKD,OTH,,,,052,2005-12-09T00:00:00,2020-02-25T08:31:54,0,new,active
1980SN120526,sohawag,,,SeaCity Museum,,,,,,Havelock Road,,,,Stop AM,,SE,N0077117,Southampton City Centre,Southampton,,,,,,false,UKOS,441735,112206,-1.40779,50.90782,BCT,MKD,OTH,,,,052,2005-12-09T00:00:00,2020-02-25T08:31:54,0,new,active
1980SNA19559,sohjwpd,,,Civic Centre,,,,,,Civic Centre Road,,,,Stop AN,,E,N0077117,Southampton City Centre,Southampton,,,,,,false,UKOS,441850,112120,-1.40616,50.90704,BCT,MKD,OTH,,,,052,2007-01-25T00:00:00,2020-02-25T08:31:54,0,new,active
1980HAA13584,sohawdt,,,Civic Centre,,,,,,Civic Centre Road,,,,Stop AI,,W,N0077117,Southampton City Centre,Southampton,,,,,,false,UKOS,441830,112094,-1.40645,50.90681,BCT,MKD,OTH,,,,052,2007-04-16T00:00:00,2021-07-07T13:30:46,0,new,active
1980SN120527,sohawgw,,,Civic Centre,,,,,,Civic Centre Road,,,,Stop AO,,E,N0077117,Southampton City Centre,Southampton,,,,,,false,UKOS,441857,112119,-1.40606,50.90703,BCT,MKD,OTH,,,,052,2007-04-18T00:00:00,2021-07-07T13:30:46,0,new,active
1980SN120513,sohatwa,,,Park View Apartments,,,,,,Handel Road,,,,opp,,E,E0042012,Polygon,Southampton,,,,,,false,UKOS,441633,112500,-1.40921,50.91047,BCT,MKD,OTH,,,,052,2006-01-18T00:00:00,2024-10-21T07:52:44,41,new,active
1980SN120514,sohatwg,,,Park View Apartments,,,,,,Handel Road,,,,o/s,,W,E0042012,Polygon,Southampton,,,,,,false,UKOS,441605,112490,-1.4096,50.91039,BCT,MKD,OTH,,,,052,2010-08-10T00:00:00,2024-10-21T07:53:10,41,new,active
1980SN120516,sohataw,,,Four Post Hill,,,,,,Shirley Road,,,,NW-bound,,NW,E0041986,Freemantle,Southampton,,,,,,false,UKOS,441072,112361,-1.4172,50.90926,BCT,MKD,OTH,,,,052,2006-10-09T00:00:00,2020-02-25T08:31:54,0,new,active
1980SN120515,sohataj,,,Four Post Hill,,,,,,Shirley Road,,,,SE-bound,,SE,E0041986,Freemantle,Southampton,,,,,,false,UKOS,441040,112403,-1.41765,50.90964,BCT,MKD,OTH,,,,052,2006-10-18T00:00:00,2014-04-11T11:28:40,17,new,active
1980SN120520,sohatjt,,,Central Station,,,,,,Station forecourt,,,,Stop SF,,E,N0077117,Southampton City Centre,Southampton,,,,,,false,UKOS,441358,112129,-1.41316,50.90716,BCT,MKD,OTH,,,,052,2007-04-16T00:00:00,2020-02-25T08:31:54,0,new,active
1980SNA90977,sohmjda,,,Central Station - Do Not Use,,,,,,Station forecourt,,,,Stop SG,,E,N0077117,Southampton City Centre,Southampton,,,,,,false,UKOS,441349,112133,-1.41329,50.90719,BCT,MKD,OTH,,,,052,2007-04-16T00:00:00,2025-05-27T07:51:08,74,delete,inactive
1980SN120535,sohdgaw,,,Law Courts,,,,,,London Road,,,,N-bound,,N,E0041969,Bedford Place,Southampton,,,,,,false,UKOS,442102,112911,-1.40249,50.91413,BCT,MKD,OTH,,,,052,2006-10-16T00:00:00,2021-07-07T13:30:46,0,new,active
1980SN120536,sohdgdm,,,Law Courts,,,,,,College Place,,,,SW-bound,,SW,E0041969,Bedford Place,Southampton,,,,,,false,UKOS,442133,112859,-1.40205,50.91366,BCT,MKD,OTH,,,,052,2007-01-09T00:00:00,2021-07-07T13:30:46,0,new,active
1980SN120537,sohdjdj,,,Denzil Avenue,,,,,,Onslow Road,,,,NE-bound,,NE,E0041974,Bevois Valley,Southampton,,,,,,false,UKOS,442441,113013,-1.39765,50.91503,BCT,MKD,OTH,,,,052,2006-10-09T00:00:00,2014-04-08T16:17:19,16,new,active
1980SN120538,sohdjam,,,Denzil Avenue,,,,,,Onslow Road,,,,SW-bound,,SW,E0041974,Bevois Valley,Southampton,,,,,,false,UKOS,442369,112879,-1.39869,50.91383,BCT,MKD,OTH,,,,052,2006-10-09T00:00:00,2014-04-08T16:17:42,14,new,active
1980SN120539,sohdgtm,,,RSH Hospital,,,,,,Saint Mary's Road,,,,N-bound,,N,E0042007,Nicholstown,Southampton,,,,,,false,UKOS,442286,112639,-1.3999,50.91168,BCT,MKD,OTH,,,,052,2006-10-18T00:00:00,2014-08-04T09:46:53,4,new,active
1980SN120540,sohdgtp,,,RSH Hospital,,,,,,Saint Mary's Road,,,,S-bound,,S,E0042007,Nicholstown,Southampton,,,,,,false,UKOS,442299,112645,-1.39972,50.91173,BCT,MKD,OTH,,,,052,2006-10-09T00:00:00,2014-08-04T09:45:42,3,new,active
1980SN120472,sohjgtw,,,Exford Avenue,,,,,,Somerset Avenue,,,,opp,,SW,E0041988,Harefield,Southampton,,,,,,false,UKOS,446188,113282,-1.34432,50.91716,BCT,MKD,OTH,,,,052,2006-10-18T00:00:00,2021-02-11T11:44:37,14,new,active
1980SN120495,sohapjm,,,Queenstown Road,,,,,,Waterloo Road,,,,E-bound,,E,E0041986,Freemantle,Southampton,,,,,,false,UKOS,440554,112540,-1.42455,50.91091,BCT,MKD,OTH,,,,052,2005-10-07T00:00:00,2020-02-25T08:31:54,0,new,active
1980SN120503,sohapmp,,,Queenstown Road,,,,,,Waterloo Road,,,,W-bound,,W,E0041986,Freemantle,Southampton,,,,,,false,UKOS,440590,112524,-1.42404,50.91076,BCT,MKD,OTH,,,,052,2005-10-07T00:00:00,2020-02-25T08:31:54,0,new,active
1980SN120468,sohjmjg,,,Faringdon Road,,,,,,Cheriton Avenue,,,,SW-bound,,SW,E0041988,Harefield,Southampton,,,,,,false,UKOS,446689,113365,-1.33719,50.91787,BCT,MKD,OTH,,,,052,2006-10-16T00:00:00,2020-02-25T08:31:54,0,new,active
1980SN120463,sohjmam,,,Bentley Green,,,,,,Beauworth Avenue,,,,NW-bound,,NW,E0041988,Harefield,Southampton,,,,,,false,UKOS,446384,113779,-1.34147,50.92161,BCT,MKD,OTH,,,,052,2007-07-05T00:00:00,2023-12-06T12:19:34,52,new,active
1980SN120467,sohjmat,,,Bentley Green,,,,,,Beauworth Avenue,,,,SE-bound,,SE,E0041988,Harefield,Southampton,,,,,,false,UKOS,446402,113775,-1.34122,50.92157,BCT,MKD,OTH,,,,052,2006-10-11T00:00:00,2023-02-01T12:40:21,33,new,active
1980SN120470,sohjmap,,,Somerset Avenue,,,,,,Cheriton Avenue,,,,NW-bound,,NW,E0041988,Harefield,Southampton,,,,,,false,UKOS,446366,113369,-1.34178,50.91793,BCT,MKD,OTH,,,,052,2006-10-16T00:00:00,2023-02-01T12:41:43,33,new,active
1980SN120496,sohapmj,,,Paynes Road,,,,,,Shirley Road,,,,opp,,SE,E0042018,Shirley,Southampton,,,,,,false,UKOS,440620,112967,-1.42356,50.91474,BCT,MKD,OTH,,,,052,2006-10-09T00:00:00,2015-04-23T07:42:38,13,new,active
1980SN120498,sohapmw,,,Paynes Road,,,,,,Shirley Road,,,,adj,,NW,E0042018,Shirley,Southampton,,,,,,false,UKOS,440681,112873,-1.4227,50.91389,BCT,MKD,OTH,,,,052,2007-03-06T00:00:00,2015-04-23T07:37:25,17,new,active
1980SN120509,sohatpa,,,Wilton Avenue,,,,,,Newcombe Road,,,,S-bound,,S,E0042012,Polygon,Southampton,,,,,,false,UKOS,441466,112830,-1.41154,50.91345,BCT,MKD,OTH,,,,052,2005-10-07T00:00:00,2020-02-25T08:31:53,0,new,active
1980SN120508,sohatmt,,,Wilton Avenue,,,,,,Newcombe Road,,,,N-bound,,N,E0042012,Polygon,Southampton,,,,,,false,UKOS,441458,112827,-1.41166,50.91343,BCT,MKD,OTH,,,,052,2005-10-07T00:00:00,2020-02-25T08:31:53,0,new,active
1980SN120511,sohatpd,,,Handel Terrace,,,,,,Newcombe Road,,,,S-bound,,S,E0042012,Polygon,Southampton,,,,,,false,UKOS,441489,112588,-1.41124,50.91127,BCT,MKD,OTH,,,,052,2005-10-07T00:00:00,2020-02-25T08:31:53,0,new,active
1980SN120512,sohatpg,,,Handel Terrace,,,,,,Newcombe Road,,,,NW-bound,,NW,E0042012,Polygon,Southampton,,,,,,false,UKOS,441492,112548,-1.41121,50.91091,BCT,MKD,OTH,,,,052,2005-10-07T00:00:00,2020-02-25T08:31:53,0,new,active
1980SN120P06,sohapjw,,,Napier House,,,,,,Paynes Road,,,,opp,,NE,E0041986,Freemantle,Southampton,,,,,,false,UKOS,440607,112890,-1.42375,50.91405,BCT,MKD,OTH,,,,052,2007-02-23T00:00:00,2024-10-21T07:58:52,63,new,active
1980SNA09224,sohjpwp,,,Napier House,,,,,,Paynes Road,,,,adj,,SW,E0041986,Freemantle,Southampton,,,,,,false,UKOS,440588,112850,-1.42403,50.91369,BCT,MKD,OTH,,,,052,2005-10-07T00:00:00,2024-10-21T07:59:09,63,new,active
1980SN120248,sohatja,,,Kineton Road,,,,,,Hill Lane,,,,N-bound,,N,E0042031,Upper Shirley,Southampton,,,,,,false,UKOS,441202,114019,-1.41516,50.92416,BCT,MKD,OTH,,,,052,2005-10-07T00:00:00,2020-02-25T08:31:53,0,new,active
1980SN120247,sohatjd,,,Kineton Road,,,,,,Hill Lane,,,,S-bound,,S,E0042031,Upper Shirley,Southampton,,,,,,false,UKOS,441208,114084,-1.41507,50.92475,BCT,MKD,OTH,,,,052,2005-10-07T00:00:00,2020-02-25T08:31:53,0,new,active
1980SN120256,sohdjmp,,,Jubilee Sports Hall,,,,,,University Road,,,,S-bound,,S,E0041989,Highfield,Southampton,,,,,,false,UKOS,442530,115139,-1.39614,50.93414,BCT,MKD,OTH,,,,052,2006-10-09T00:00:00,2020-02-25T08:31:53,0,new,active
1980SN120257,sohdjmd,,,Jubilee Sports Hall,,,,,,University Road,,,,N-bound,,N,E0041989,Highfield,Southampton,,,,,,false,UKOS,442516,115142,-1.39634,50.93417,BCT,MKD,OTH,,,,052,2007-01-25T00:00:00,2020-02-25T08:31:53,0,new,active
1980SN120234,sohapta,,,Pentire Avenue,,,,,,Bellemoor Road,,,,E-bound,,E,E0042031,Upper Shirley,Southampton,,,,,,false,UKOS,440729,114445,-1.42185,50.92803,BCT,MKD,OTH,,,,052,2005-10-07T00:00:00,2021-07-07T13:30:46,0,new,active
1980SN120240,sohaptg,,,Pentire Avenue,,,,,,Bellemoor Road,,,,W-bound,,W,E0042031,Upper Shirley,Southampton,,,,,,false,UKOS,440768,114426,-1.42129,50.92785,BCT,MKD,OTH,,,,052,2005-10-07T00:00:00,2021-07-07T13:30:46,0,new,active
1980SN120242,sohatap,,,Leicester Road,,,,,,Hill Lane,,,,NW-bound,,NW,E0042031,Upper Shirley,Southampton,,,,,,false,UKOS,441036,114753,-1.41744,50.93077,BCT,MKD,OTH,,,,052,2005-10-07T00:00:00,2021-07-07T13:30:46,0,new,active
1980SN120243,sohatat,,,Leicester Road,,,,,,Hill Lane,,,,S-bound,,S,E0042031,Upper Shirley,Southampton,,,,,,false,UKOS,441052,114726,-1.41722,50.93053,BCT,MKD,OTH,,,,052,2005-10-07T00:00:00,2021-07-07T13:30:46,0,new,active
1980SN120280,sohdgwj,,,Tennyson Court,,,,,,Winn Road,,,,SW-bound,,SW,E0042013,Portswood,Southampton,,,,,,false,UKOS,442331,114173,-1.39908,50.92547,BCT,MKD,OTH,,,,052,2006-10-11T00:00:00,2020-02-25T08:31:54,0,new,active
1980SN120281,sohdjaw,,,Tennyson Court,,,,,,Winn Road,,,,NE-bound,,NE,E0042013,Portswood,Southampton,,,,,,false,UKOS,442371,114213,-1.39851,50.92582,BCT,MKD,OTH,,,,052,2006-10-11T00:00:00,2020-02-25T08:31:54,0,new,active
1980SN120282,sohdgdj,,,Bentley Court,,,,,,Winn Road,,,,NE-bound,,NE,E0042013,Portswood,Southampton,,,,,,false,UKOS,442154,114060,-1.40162,50.92446,BCT,MKD,OTH,,,,052,2007-01-25T00:00:00,2022-02-02T09:02:38,4,new,active
1980SN120283,sohdapg,,,Bentley Court,,,,,,Winn Road,,,,SW-bound,,SW,E0042013,Portswood,Southampton,,,,,,false,UKOS,442105,114014,-1.40232,50.92405,BCT,MKD,OTH,,,,052,2006-10-11T00:00:00,2020-02-25T08:31:53,0,new,active
1980SN120266,sohdmgd,,,Upper Shaftesbury Avenue,,,,,,Welbeck Avenue,,,,E-bound,,E,E0041989,Highfield,Southampton,,,,,,false,UKOS,442867,114815,-1.39138,50.9312,BCT,MKD,OTH,,,,052,2006-10-11T00:00:00,2014-04-08T15:27:20,24,new,active
1980SN120267,sohdmgj,,,Upper Shaftesbury Avenue,,,,,,Welbeck Avenue,,,,W-bound,,W,E0041989,Highfield,Southampton,,,,,,false,UKOS,442884,114801,-1.39114,50.93107,BCT,MKD,OTH,,,,052,2006-10-11T00:00:00,2014-04-08T15:27:47,24,new,active
1980SN120268,sohdmgw,,,Highfield Crescent,,,,,,Shaftesbury Avenue,,,,N-bound,,N,E0042013,Portswood,Southampton,,,,,,false,UKOS,442913,114636,-1.39075,50.92959,BCT,MKD,OTH,,,,052,2006-10-09T00:00:00,2014-04-08T14:48:16,18,new,active
1980SN120269,sohdmgp,,,Highfield Crescent,,,,,,Shaftesbury Avenue,,,,S-bound,,S,E0042013,Portswood,Southampton,,,,,,false,UKOS,442905,114540,-1.39087,50.92872,BCT,MKD,OTH,,,,052,2006-10-09T00:00:00,2014-04-08T14:48:44,24,new,active
1980SN120217,sohajtp,,,Grange Road,,,,,,Romsey Road,,,,NW-bound,,NW,E0042019,Shirley Park,Southampton,,,,,,false,UKOS,439529,114125,-1.43895,50.92523,BCT,MKD,OTH,,,,052,2006-10-18T00:00:00,2020-02-25T08:31:54,0,new,active
1980SN120216,sohajtd,,,Grange Road,,,,,,Romsey Road,,,,SE-bound,,SE,E0042019,Shirley Park,Southampton,,,,,,false,UKOS,439498,114147,-1.43939,50.92543,BCT,MKD,OTH,,,,052,2006-10-09T00:00:00,2020-02-25T08:31:54,0,new,active
1980SN120223,sohamtm,,,Dale Valley Road,,,,,,Dale Road,,,,SE-bound,,SE,E0042020,Shirley Warren,Southampton,,,,,,false,UKOS,440106,114778,-1.43067,50.93106,BCT,MKD,OTH,,,,052,2005-10-07T00:00:00,2021-07-07T13:30:46,0,new,active
1980SN120209,sohajta,,,Jessamine Road,,,,,,Warren Avenue,,,,SE-bound,,SE,E0042020,Shirley Warren,Southampton,,,,,,false,UKOS,439496,114812,-1.43935,50.93141,BCT,MKD,OTH,,,,052,2007-01-25T00:00:00,2020-02-25T08:31:54,0,new,active
1980SN120210,sohajtg,,,Jessamine Road,,,,,,Warren Avenue,,,,NW-bound,,NW,E0042020,Shirley Warren,Southampton,,,,,,false,UKOS,439511,114747,-1.43914,50.93083,BCT,MKD,OTH,,,,052,2006-10-09T00:00:00,2020-02-25T08:31:54,0,new,active
1980SN120211,sohajwa,,,Warren Crescent,,,,,,Warren Avenue,,,,NW-bound,,NW,E0042020,Shirley Warren,Southampton,,,,,,false,UKOS,439597,114541,-1.43794,50.92897,BCT,MKD,OTH,,,,052,2006-10-09T00:00:00,2014-04-08T14:28:39,20,new,active
1980SN120213,sohajwp,,,Warren Crescent,,,,,,Warren Avenue,,,,SE-bound,,SE,E0042020,Shirley Warren,Southampton,,,,,,false,UKOS,439643,114459,-1.4373,50.92823,BCT,MKD,OTH,,,,052,2007-01-25T00:00:00,2014-04-08T14:29:52,23,new,active
1980SN120214,sohamaj,,,Winchester Road,,,,,,Warren Avenue,,,,NW-bound,,NW,E0042020,Shirley Warren,Southampton,,,,,,false,UKOS,439702,114289,-1.43648,50.9267,BCT,MKD,OTH,,,,052,2005-11-11T00:00:00,2014-04-08T14:31:34,20,new,active
1980SN120228,sohapda,,,The Range,,,,,,Winchester Road,,,,NE-bound,,NE,E0042020,Shirley Warren,Southampton,,,,,,false,UKOS,440280,114579,-1.42822,50.92926,BCT,MKD,OTH,,,,052,2007-01-25T00:00:00,2014-04-08T13:55:47,14,new,active
1980SN120232,sohapmd,,,The Malvern,,,,,,Winchester Road,,,,o/s,,NE,E0042031,Upper Shirley,Southampton,,,,,,false,UKOS,440607,114871,-1.42353,50.93187,BCT,MKD,OTH,,,,052,2007-01-25T00:00:00,2021-07-07T13:30:44,0,new,active
1980SN120233,sohapmt,,,The Malvern,,,,,,Winchester Road,,,,SW-bound,,SW,E0042031,Upper Shirley,Southampton,,,,,,false,UKOS,440679,114917,-1.42251,50.93227,BCT,MKD,OTH,,,,052,2009-08-11T00:00:00,2021-07-07T13:30:46,0,new,active
1980SN120236,sohapjd,,,Colebrook Avenue,,,,,,Wilton Road,,,,NW-bound,,NW,E0042031,Upper Shirley,Southampton,,,,,,false,UKOS,440528,114342,-1.42472,50.92711,BCT,MKD,OTH,,,,052,2005-10-07T00:00:00,2021-07-07T13:30:46,0,new,active
1980SN120235,sohapgt,,,Colebrook Avenue,,,,,,Wilton Road,,,,SE-bound,,SE,E0042031,Upper Shirley,Southampton,,,,,,false,UKOS,440505,114393,-1.42504,50.92757,BCT,MKD,OTH,,,,052,2005-10-07T00:00:00,2021-07-07T13:30:46,0,new,active
1980SN120237,sohapmg,,,Pirrie Close,,,,,,Wilton Road,,,,adj,,SE,E0042031,Upper Shirley,Southampton,,,,,,false,UKOS,440613,114222,-1.42352,50.92603,BCT,MKD,OTH,,,,052,2007-01-25T00:00:00,2024-10-21T07:40:32,41,new,active
1980SN120238,sohapma,,,Pirrie Close,,,,,,Upper Shirley Avenue,,,,opp,,NE,E0042031,Upper Shirley,Southampton,,,,,,false,UKOS,440602,114146,-1.42369,50.92535,BCT,MKD,OTH,,,,052,2005-10-07T00:00:00,2024-10-21T07:40:16,41,new,active
1980SN120344,sohjmjt,,,Orpen Road,,,,,,Bursledon Road,,,,opp,,SE,N0073220,Thornhill,Southampton,,,,,,false,UKOS,446839,111750,-1.33526,50.90333,BCT,CUS,OTH,,,,052,2007-04-16T00:00:00,2021-07-07T13:30:44,0,new,active
1980SN120345,sohjmpj,,,Orpen Road,,,,,,Bursledon Road,,,,adj,,NW,E0042023,Sholing,Southampton,,,,,,false,UKOS,446730,111803,-1.3368,50.90382,BCT,MKD,OTH,,,,052,2007-04-16T00:00:00,2015-04-25T12:19:34,0,new,active
1980SN120346,sohagap,,,Cotswold Road,,,,,,Cumbrian Way,,,,NE-bound,,NE,E0042004,Millbrook,Southampton,,,,,,false,UKOS,438606,113706,-1.45213,50.92153,BCT,MKD,OTH,,,,052,2006-10-16T00:00:00,2014-05-20T13:38:08,27,new,active
1980SN120347,sohagag,,,Cotswold Road,,,,,,Cumbrian Way,,,,W-bound,,W,E0042004,Millbrook,Southampton,,,,,,false,UKOS,438561,113678,-1.45277,50.92128,BCT,MKD,OTH,,,,052,2006-10-16T00:00:00,2014-04-08T15:17:18,24,new,active
1980SN120349,sohagdp,,,Mendip Road,,,,,,Cumbrian Way,,,,SW-bound,,SW,E0042004,Millbrook,Southampton,,,,,,false,UKOS,438717,113775,-1.45054,50.92214,BCT,MKD,OTH,,,,052,2006-10-16T00:00:00,2020-02-25T08:31:54,0,new,active
1980SN120348,sohagjd,,,Mendip Road,,,,,,Cumbrian Way,,,,NE-bound,,NE,E0042004,Millbrook,Southampton,,,,,,false,UKOS,438743,113817,-1.45017,50.92252,BCT,MKD,OTH,,,,052,2006-10-16T00:00:00,2020-02-25T08:31:54,0,new,active
1980SN120329,sohagwd,,,King George's Avenue,,,,,,King George's Avenue,,,,o/s 164,,SW,E0042004,Millbrook,Southampton,,,,,,false,UKOS,439049,113528,-1.44585,50.9199,BCT,MKD,OTH,,,,052,2006-03-31T00:00:00,2024-10-21T08:04:22,33,new,active
1980SN120354,sohagwa,,,King George's Avenue,,,,,,King George's Avenue,,,,nr 159,,NE,E0042004,Millbrook,Southampton,,,,,,false,UKOS,439024,113503,-1.44621,50.91967,BCT,MKD,OTH,,,,052,2006-10-16T00:00:00,2024-10-21T08:04:04,33,new,active
1980SN120352,sohagtg,,,Stanton Road,,,,,,King George's Avenue,,,,N-bound,,N,E0042004,Millbrook,Southampton,,,,,,false,UKOS,438930,113234,-1.44757,50.91726,BCT,MKD,OTH,,,,052,2006-10-16T00:00:00,2020-02-25T08:31:54,0,new,active
1980SN120330,sohagtj,,,Stanton Road,,,,,,King George's Avenue,,,,S-bound,,S,E0042004,Millbrook,Southampton,,,,,,false,UKOS,438942,113242,-1.4474,50.91733,BCT,MKD,OTH,,,,052,2006-10-16T00:00:00,2020-02-25T08:31:54,0,new,active
1980SN120335,sohadmd,,,Windrush Road,,,,,,Kendal Avenue,,,,W-bound,,W,N0080447,Millbrook Estate,Southampton,,,,,,false,UKOS,438130,113742,-1.4589,50.92188,BCT,MKD,OTH,,,,052,2007-01-25T00:00:00,2020-02-25T08:31:54,0,new,active
1980SN120334,sohadmw,,,Windrush Road,,,,,,Kendal Avenue,,,,SE-bound,,SE,N0080447,Millbrook Estate,Southampton,,,,,,false,UKOS,438158,113745,-1.4585,50.92191,BCT,MKD,OTH,,,,052,2006-10-16T00:00:00,2020-02-25T08:31:54,0,new,active
1980SN120338,sohadwa,,,Quantock Road,,,,,,Cumbrian Way,,,,E-bound,,E,E0042004,Millbrook,Southampton,,,,,,false,UKOS,438439,113665,-1.45451,50.92117,BCT,MKD,OTH,,,,052,2006-10-16T00:00:00,2020-02-25T08:31:54,0,new,active
1980SN120339,sohadtj,,,Quantock Road,,,,,,Cumbrian Way,,,,adj,,W,E0042004,Millbrook,Southampton,,,,,,false,UKOS,438331,113665,-1.45605,50.92118,BCT,MKD,OTH,,,,052,2006-10-16T00:00:00,2020-02-25T08:31:52,0,new,active
1980SNA40406,sohjtgj,,,Tesco,,,,,,,,,,N-bound,,N,E0042004,Millbrook,Southampton,,,,,,false,UKOS,439007,113916,-1.4464,50.92339,BCT,MKD,OTH,,,,052,2009-03-24T00:00:00,2023-11-07T15:37:50,39,new,active
1980SN120350,sohagpw,,,Tesco,,,,,,Oakley Road,,,,opp,,W,E0042004,Millbrook,Southampton,,,,,,false,UKOS,438918,113793,-1.44768,50.92229,BCT,MKD,OTH,,,,052,2007-04-16T00:00:00,2021-03-04T09:59:17,26,new,active
1980SN120351,sohagtd,,,Tesco,,,,,,Oakley Road,,,,adj,,E,E0042004,Millbrook,Southampton,,,,,,false,UKOS,438915,113801,-1.44772,50.92236,BCT,MKD,OTH,,,,052,2007-04-16T00:00:00,2021-03-04T09:58:50,26,new,active
1980SN120362,sohajpj,,,Clarendon Road,,,,,,Oakley Road,,,,E-bound,,E,E0042019,Shirley Park,Southampton,,,,,,false,UKOS,439426,113718,-1.44046,50.92158,BCT,MKD,OTH,,,,052,2006-10-09T00:00:00,2020-02-25T08:31:54,0,new,active
1980SN120361,sohajmp,,,Clarendon Road,,,,,,Oakley Road,,,,W-bound,,W,E0042019,Shirley Park,Southampton,,,,,,false,UKOS,439359,113726,-1.44142,50.92166,BCT,MKD,OTH,,,,052,2006-10-09T00:00:00,2020-02-25T08:31:54,0,new,active
1980SN120364,sohajtj,,,Lansdowne Road,,,,,,Regent's Park Road,,,,SW-bound,,SW,E0042019,Shirley Park,Southampton,,,,,,false,UKOS,439510,113368,-1.43931,50.91843,BCT,MKD,OTH,,,,052,2005-10-07T00:00:00,2014-04-08T14:07:49,14,new,active
1980SN120928,sohagwt,,,Percy Road,,,,,,King George's Avenue,,,,NE-bound,,NE,E0042019,Shirley Park,Southampton,,,,,,false,UKOS,439114,113700,-1.4449,50.92144,BCT,MKD,OTH,,,,052,2006-10-16T00:00:00,2024-10-21T08:02:34,37,new,active
1980SN120355,sohajdg,,,Percy Road,,,,,,Oakley Road,,,,opp,,SW,E0042019,Shirley Park,Southampton,,,,,,false,UKOS,439163,113739,-1.4442,50.92179,BCT,MKD,OTH,,,,052,2006-10-09T00:00:00,2024-10-21T08:02:52,41,new,active
1980SN120358,sohajmg,,,Claremont Crescent,,,,,,Regent's Park Road,,,,SW-bound,,SW,E0042004,Millbrook,Southampton,,,,,,false,UKOS,439349,113143,-1.44162,50.91641,BCT,MKD,OTH,,,,052,2006-10-09T00:00:00,2020-02-25T08:31:54,0,new,active
1980SN120357,sohajmj,,,Claremont Crescent,,,,,,Regent's Park Road,,,,NE-bound,,NE,E0042004,Millbrook,Southampton,,,,,,false,UKOS,439361,113174,-1.44145,50.91669,BCT,MKD,OTH,,,,052,2006-10-18T00:00:00,2020-02-25T08:31:53,0,new,active
1980SN120360,sohajgp,,,King Edward Avenue,,,,,,Oakley Road,,,,SE-bound,,SE,E0042019,Shirley Park,Southampton,,,,,,false,UKOS,439293,113765,-1.44235,50.92201,BCT,MKD,OTH,,,,052,2006-10-09T00:00:00,2020-02-25T08:31:53,0,new,active
1980SN120292,sohdtpj,,,Dimond Road,,,,,,Oak Tree Road,,,,NE-bound,,NE,N0073216,Bitterne Park,Southampton,,,,,,false,UKOS,444127,114827,-1.37345,50.93121,BCT,MKD,OTH,,,,052,2005-10-07T00:00:00,2020-02-25T08:31:53,0,new,active
1980SN120293,sohdtwa,,,Dimond Road,,,,,,Oak Tree Road,,,,SW-bound,,SW,N0073216,Bitterne Park,Southampton,,,,,,false,UKOS,444173,114853,-1.3728,50.93144,BCT,MKD,OTH,,,,052,2005-10-07T00:00:00,2020-02-25T08:31:53,0,new,active
1980SN120294,sohdtma,,,Cobden Avenue,,,,,,St Catherine's Road,,,,S-bound,,S,N0073216,Bitterne Park,Southampton,,,,,,false,UKOS,444052,113980,-1.37462,50.9236,BCT,MKD,OTH,,,,052,2005-10-07T00:00:00,2020-02-25T08:31:53,0,new,active
1980SN120295,sohdtgw,,,Wellington Road,,,,,,Oak Tree Road,,,,SW-bound,,SW,N0073216,Bitterne Park,Southampton,,,,,,false,UKOS,444000,114611,-1.37529,50.92928,BCT,MKD,OTH,,,,052,2005-10-07T00:00:00,2020-02-25T08:31:54,0,new,active
1980SN120312,sohdtgp,,,Wellington Road,,,,,,Oak Tree Road,,,,NE-bound,,NE,N0073216,Bitterne Park,Southampton,,,,,,false,UKOS,443984,114583,-1.37552,50.92903,BCT,MKD,OTH,,,,052,2005-10-07T00:00:00,2020-02-25T08:31:54,0,new,active
1980SN120296,sohdtmg,,,Bond Road,,,,,,St Catherine's Road,,,,S-bound,,S,N0073216,Bitterne Park,Southampton,,,,,,false,UKOS,444061,114184,-1.37447,50.92544,BCT,MKD,OTH,,,,052,2005-10-07T00:00:00,2020-02-25T08:31:54,0,new,active
1980SN120297,sohdwmw,,,Northfield Road,,,,,,Woodmill Lane,,,,NW-bound,,NW,N0073216,Bitterne Park,Southampton,,,,,,false,UKOS,444510,114883,-1.368,50.93169,BCT,MKD,OTH,,,,052,2007-01-25T00:00:00,2021-10-28T13:55:20,4,new,active
1980SN120300,sohdmwg,,,Bowden Lane,,,,,,Portswood Road,,,,S-bound,,S,E0042013,Portswood,Southampton,,,,,,false,UKOS,443304,114590,-1.38519,50.92914,BCT,MKD,OTH,,,,052,2005-10-07T00:00:00,2021-07-07T13:30:46,0,new,active
1980SN120289,sohdmwa,,,Bowden Lane,,,,,,Portswood Road,,,,N-bound,,N,E0042013,Portswood,Southampton,,,,,,false,UKOS,443297,114658,-1.38528,50.92976,BCT,MKD,OTH,,,,052,2006-10-09T00:00:00,2021-07-07T13:30:46,0,new,active
1980SN120284,sohdmpj,,,Sainsbury,,,,,,Portswood Road,,,,Stop PI opp,,E,E0042013,Portswood,Southampton,,,,,,false,UKOS,443056,114415,-1.38874,50.92759,BCT,MKD,OTH,,,,052,2005-10-07T00:00:00,2021-07-07T13:30:46,0,new,active
1980SN120285,sohdmjt,,,Sainsbury,,,,,,Portswood Road,,,,Stop PJ o/s,,SW,E0042013,Portswood,Southampton,,,,,,false,UKOS,442962,114365,-1.39008,50.92715,BCT,MKD,OTH,,,,052,2005-10-07T00:00:00,2015-07-16T14:43:26,5,new,active
1980SN120290,sohdwgp,,,Hop Inn,,,,,,Woodmill Lane,,,,nr,,W,N0073216,Bitterne Park,Southampton,,,,,,false,UKOS,444366,115012,-1.37003,50.93286,BCT,MKD,OTH,,,,052,2007-02-23T00:00:00,2015-04-25T12:19:35,0,new,active
1980SN120291,sohdwdt,,,Hop Inn,,,,,,Oak Tree Road,,,,o/s,,NE,N0073216,Bitterne Park,Southampton,,,,,,false,UKOS,444318,114990,-1.37072,50.93266,BCT,MKD,OTH,,,,052,2005-10-07T00:00:00,2015-04-25T12:19:35,0,new,active
1980SN120315,sohjaja,,,Witts Hill Shops,,,,,,Witts Hill,,,,SE-bound,,SE,E0042002,Midanbury,Southampton,,,,,,false,UKOS,444780,114273,-1.36423,50.92618,BCT,MKD,OTH,,,,052,2007-04-16T00:00:00,2021-07-07T13:30:46,0,new,active
1980SN120316,sohjajg,,,Witts Hill Shops,,,,,,Witts Hill,,,,NW-bound,,NW,E0042002,Midanbury,Southampton,,,,,,false,UKOS,444790,114245,-1.36409,50.92593,BCT,MKD,OTH,,,,052,2007-01-25T00:00:00,2020-02-25T08:31:53,0,new,active
1980SN120319,sohjawt,,,Community Centre,,,,,,Meggeson Avenue,,,,SE-bound,,SE,N0073221,Townhill Park,Southampton,,,,,,false,UKOS,445117,114774,-1.35937,50.93066,BCT,MKD,OTH,,,,052,2006-10-16T00:00:00,2020-02-25T08:31:53,0,new,active
1980SN120326,sohagtp,,,South Mill Road,,,,,,South Mill Road,,,,W-bound,,W,E0042004,Millbrook,Southampton,,,,,,false,UKOS,438957,113128,-1.4472,50.91631,BCT,MKD,OTH,,,,052,2006-10-18T00:00:00,2020-02-25T08:31:53,0,new,active
1980SN120309,sohdtdm,,,Triangle,,,,,,The Triangle,,,,SE-bound,,SE,N0073216,Bitterne Park,Southampton,,,,,,false,UKOS,443947,114060,-1.37611,50.92433,BCT,MKD,OTH,,,,052,2008-09-05T00:00:00,2020-09-16T09:41:49,24,new,active
1980SN120308,sohdtdw,,,Triangle,,,,,,Manor Farm Road,,,,N-bound,,N,N0073216,Bitterne Park,Southampton,,,,,,false,UKOS,443964,114120,-1.37586,50.92487,BCT,MKD,OTH,,,,052,2005-10-07T00:00:00,2023-01-31T14:18:43,63,new,active
1980SN120310,sohdpwm,,,Triangle,,,,,,The Triangle,,,,W-bound,,W,N0073216,Bitterne Park,Southampton,,,,,,false,UKOS,443871,114062,-1.37719,50.92435,BCT,MKD,OTH,,,,052,2007-04-16T00:00:00,2020-09-16T09:42:44,24,new,active
1980SN120311,sohdtap,,,Nursery Road,,,,,,Nursery Road,,,,E-bound,,E,N0073216,Bitterne Park,Southampton,,,,,,false,UKOS,443898,114400,-1.37676,50.92739,BCT,MKD,OTH,,,,052,2005-10-07T00:00:00,2020-02-25T08:31:53,0,new,active
1980SN120313,sohdtgm,,,Ashtree Road,,,,,,St Catherine's Road,,,,SE-bound,,SE,N0073216,Bitterne Park,Southampton,,,,,,false,UKOS,443982,114348,-1.37557,50.92692,BCT,MKD,OTH,,,,052,2005-10-07T00:00:00,2020-02-25T08:31:53,0,new,active
1980SN120314,sohjadt,,,Cornwall Road,,,,,,Woodmill Lane,,,,opp,,N,N0073221,Townhill Park,Southampton,,,,,,false,UKOS,444688,114550,-1.3655,50.92868,BCT,MKD,OTH,,,,052,2007-01-25T00:00:00,2021-03-17T07:58:34,8,new,active
1980SN120790,sohjgtm,,,Mon Crescent,,,,,,Bitterne Road East,,,,opp,,W,E0042030,Thornhill Park,Southampton,,,,,,false,UKOS,446137,112994,-1.34508,50.91457,BCT,MKD,OTH,,,,052,2006-10-13T00:00:00,2023-11-07T15:15:06,35,new,active
1980SN120792,sohjgtd,,,Mon Crescent,,,,,,Bitterne Road East,,,,adj,,E,E0042030,Thornhill Park,Southampton,,,,,,false,UKOS,446105,113003,-1.34554,50.91466,BCT,MKD,OTH,,,,052,2006-10-11T00:00:00,2023-11-07T15:15:15,35,new,active
1980SN120040,sohdtwg,,,Monks Way,,,,,,Mansbridge Road,,,,SE-bound,,SE,N0080446,Mansbridge,Southampton,,,,,,false,UKOS,444260,115931,-1.37143,50.94113,BCT,MKD,OTH,,,,052,2005-10-07T00:00:00,2020-02-25T08:31:54,0,new,active
1980SN120791,sohdwam,,,Monks Way,,,,,,Mansbridge Road,,,,W-bound,,W,N0080446,Mansbridge,Southampton,,,,,,false,UKOS,444248,115925,-1.3716,50.94108,BCT,MKD,OTH,,,,052,2005-10-07T00:00:00,2020-02-25T08:31:54,0,new,active
1980SN120793,sohdwjd,,,Octavia Road,,,,,,Mansbridge Road,,,,NW-bound,,NW,N0080446,Mansbridge,Southampton,,,,,,false,UKOS,444389,115884,-1.3696,50.9407,BCT,MKD,OTH,,,,052,2006-10-16T00:00:00,2020-02-25T08:31:54,0,new,active
1980SN120165,sohdwjp,,,Octavia Road,,,,,,Mansbridge Road,,,,SE-bound,,SE,N0080446,Mansbridge,Southampton,,,,,,false,UKOS,444415,115884,-1.36923,50.94069,BCT,MKD,OTH,,,,052,2006-10-16T00:00:00,2020-02-25T08:31:54,0,new,active
1980SNA90808,sohmagw,,,Itchenside Close,,,,,,Mansbridge Road,,,,N-bound,,N,N0080446,Mansbridge,Southampton,,,,,,false,UKOS,444643,115666,-1.36601,50.93872,BCT,MKD,OTH,,,,052,2007-07-10T00:00:00,2020-02-25T08:31:54,0,new,active
1980SN120795,sohjada,,,Itchenside Close,,,,,,Mansbridge Road,,,,S-bound,,S,N0080446,Mansbridge,Southampton,,,,,,false,UKOS,444656,115687,-1.36582,50.9389,BCT,MKD,OTH,,,,052,2006-10-16T00:00:00,2020-02-25T08:31:54,0,new,active
1980HA120794,sohjawg,,,White Swan,,,,,,Mansbridge Road,,,,E-bound,,E,N0080446,Mansbridge,Southampton,,,,,,false,UKOS,445068,115569,-1.35997,50.93781,BCT,MKD,OTH,,,,052,2006-10-16T00:00:00,2014-04-08T16:44:44,19,new,active
1980SN120797,sohjapa,,,White Swan,,,,,,Mansbridge Road,,,,opp,,W,N0080446,Mansbridge,Southampton,,,,,,false,UKOS,444951,115531,-1.36164,50.93748,BCT,MKD,OTH,,,,052,2006-10-16T00:00:00,2015-04-25T12:19:11,0,new,active
1980SN120806,sohjgtp,,,Gainsborough Close,,,,,,Botley Road B3033,,,,SW-bound,,SW,E0042023,Sholing,Southampton,,,,,,false,UKOS,446161,110817,-1.34502,50.895,BCT,MKD,OTH,,,,052,2006-10-13T00:00:00,2021-07-07T13:30:46,0,new,active
1980SN120826,sohjgpm,,,Gainsborough Close,,,,,,Botley Road B3033,,,,NE-bound,,NE,E0042023,Sholing,Southampton,,,,,,false,UKOS,446020,110762,-1.34703,50.89451,BCT,MKD,OTH,,,,052,2006-10-13T00:00:00,2023-12-06T12:23:36,40,new,active
1980SN120774,sohjadg,,,Broadwater Road,,,,,,Forest Hills Drive,,,,E-bound,,E,N0073216,Bitterne Park,Southampton,,,,,,false,UKOS,444678,115199,-1.36557,50.93451,BCT,MKD,OTH,,,,052,2006-10-16T00:00:00,2020-02-25T08:31:54,0,new,active
1980SN120775,sohdwgm,,,River Walk,,,,,,Forest Hills Drive,,,,E-bound,,E,N0073216,Bitterne Park,Southampton,,,,,,false,UKOS,444356,115089,-1.37016,50.93355,BCT,MKD,OTH,,,,052,2006-10-16T00:00:00,2020-02-25T08:31:54,0,new,active
1980SN120779,sohjmta,,,Thornhill Avenue,,,,,,Thornhill Park Road,,,,W-bound,,W,E0042030,Thornhill Park,Southampton,,,,,,false,UKOS,446837,113014,-1.33513,50.9147,BCT,MKD,OTH,,,,052,2007-01-25T00:00:00,2021-07-07T13:30:46,0,new,active
1980SN120778,sohjmtg,,,Thornhill Avenue,,,,,,Thornhill Park Road,,,,E-bound,,E,E0042030,Thornhill Park,Southampton,,,,,,false,UKOS,446878,113028,-1.33454,50.91482,BCT,MKD,OTH,,,,052,2007-03-06T00:00:00,2021-07-07T13:30:46,0,new,active
1980SN120780,sohjmgp,,,The Bittern,,,,,,Thornhill Park Road,,,,adj,,W,E0042030,Thornhill Park,Southampton,,,,,,false,UKOS,446586,112996,-1.3387,50.91456,BCT,MKD,OTH,,,,052,2007-01-25T00:00:00,2025-03-04T11:18:49,41,new,active
1980SN120789,sohjmgw,,,The Bittern,,,,,,Thornhill Park Road,,,,opp,,E,E0042030,Thornhill Park,Southampton,,,,,,false,UKOS,446649,113007,-1.3378,50.91465,BCT,MKD,OTH,,,,052,2007-01-25T00:00:00,2025-03-04T11:18:26,41,new,active
1980SN120828,sohjmgm,,,Parry Road,,,,,,Sullivan Road,,,,nr,,NW,E0042023,Sholing,Southampton,,,,,,false,UKOS,446557,111467,-1.33931,50.90081,BCT,MKD,OTH,,,,052,2009-03-24T00:00:00,2023-01-11T13:39:11,12,new,active
1980SN120814,sohjmgj,,,Parry  Road,,,,,,Sullivan Road,,,,adj,,S,E0042023,Sholing,Southampton,,,,,,false,UKOS,446555,111509,-1.33933,50.90119,BCT,MKD,OTH,,,,052,2007-04-18T00:00:00,2023-01-11T13:39:02,12,new,active
1980SN120824,sohjmdg,,,Valentine Avenue,,,,,,Botley Road,,,,E-bound,,E,E0042023,Sholing,Southampton,,,,,,false,UKOS,446441,110949,-1.34102,50.89616,BCT,MKD,OTH,,,,052,2006-10-13T00:00:00,2023-12-06T12:24:17,40,new,active
1980SN120825,sohjmdj,,,Valentine Avenue,,,,,,Botley Road,,,,W-bound,,W,E0042023,Sholing,Southampton,,,,,,false,UKOS,446444,110943,-1.34098,50.89611,BCT,MKD,OTH,,,,052,2006-10-13T00:00:00,2021-07-07T13:30:46,0,new,active
1980SN121034,sohjgpg,,,Botley Road,,,,,,Portsmouth Road A3025,,,,SE-bound,,SE,E0042023,Sholing,Southampton,,,,,,false,UKOS,446010,110683,-1.34718,50.8938,BCT,MKD,OTH,,,,052,2006-10-18T00:00:00,2021-07-07T13:30:46,0,new,active
1980SN120827,sohjgmd,,,Botley Road,,,,,,Portsmouth Road A3025,,,,NW-bound,,NW,E0042023,Sholing,Southampton,,,,,,false,UKOS,445860,110729,-1.34931,50.89423,BCT,MKD,OTH,,,,052,2006-10-18T00:00:00,2021-07-07T13:30:46,0,new,active
1980SN120829,sohjgap,,,St Marys Cemetery,,,,,,Portsmouth Road,,,,opp,,W,E0042023,Sholing,Southampton,,,,,,false,UKOS,445600,110790,-1.353,50.8948,BCT,MKD,OTH,,,,052,2007-04-18T00:00:00,2015-04-25T12:19:11,0,new,active
1980SN120844,sohjgat,,,St Marys Cemetery,,,,,,Portsmouth Road,,,,o/s,,E,E0042023,Sholing,Southampton,,,,,,false,UKOS,445602,110801,-1.35297,50.8949,BCT,MKD,OTH,,,,052,2007-04-18T00:00:00,2015-04-25T12:19:11,0,new,active
1980SN120838,sohadaw,,,Redbridge School,,,,,,A33 Redbridge Road,,,,SE-bound,,SE,E0042016,Redbridge,Southampton,,,,,,false,UKOS,437652,113656,-1.46571,50.92114,BCT,MKD,OTH,,,,052,2005-10-07T00:00:00,2015-05-06T12:40:34,13,new,active
1980SN120839,sohadjg,,,Parkside Avenue,,,,,,Redbridge Road,,,,adj,,SE,E0042016,Redbridge,Southampton,,,,,,false,UKOS,437962,113449,-1.46132,50.91926,BCT,MKD,OTH,,,,052,2006-10-09T00:00:00,2022-02-02T07:39:58,22,new,active
1980SN120842,sohadgw,,,Parkside Avenue,,,,,,Redbridge Road,,,,opp,,NW,E0042016,Redbridge,Southampton,,,,,,false,UKOS,437894,113466,-1.46228,50.91942,BCT,MKD,OTH,,,,052,2007-04-18T00:00:00,2016-05-12T08:26:18,5,new,active
1980SN120819,sohjmpw,,,Montague Close,,,,,,Montague Avenue,,,,opp,,W,E0042023,Sholing,Southampton,,,,,,false,UKOS,446817,111369,-1.33562,50.89991,BCT,MKD,OTH,,,,052,2009-03-24T00:00:00,2018-05-01T11:47:40,9,new,active
1980SN120818,sohjmtd,,,Montague Close,,,,,,Montague Avenue,,,,adj,,E,E0042023,Sholing,Southampton,,,,,,false,UKOS,446810,111377,-1.33572,50.89998,BCT,MKD,OTH,,,,052,2006-10-16T00:00:00,2018-05-01T11:47:50,15,new,active
1980SN120820,sohjmtm,,,Sullivan Road Park,,,,,,Botley Road,,,,adj,,NE,E0042023,Sholing,Southampton,,,,,,false,UKOS,446878,111144,-1.33478,50.89788,BCT,MKD,OTH,,,,052,2006-10-13T00:00:00,2023-01-11T13:41:23,12,new,active
1980SN120821,sohjmtw,,,Sullivan Road Park,,,,,,Botley Road,,,,opp,,SW,E0042023,Sholing,Southampton,,,,,,false,UKOS,446976,111179,-1.33338,50.89819,BCT,MKD,OTH,,,,052,2007-01-25T00:00:00,2023-01-11T13:41:39,12,new,active
1980SN120823,sohjmjw,,,Delius Avenue,,,,,,Botley Road,,,,SW-bound,,SW,E0042023,Sholing,Southampton,,,,,,false,UKOS,446748,111079,-1.33664,50.89731,BCT,MKD,OTH,,,,052,2006-10-13T00:00:00,2021-07-07T13:30:46,0,new,active
1980SN120822,sohjmpt,,,Delius Avenue,,,,,,Botley Road,,,,E-bound,,E,E0042023,Sholing,Southampton,,,,,,false,UKOS,446687,111059,-1.33751,50.89713,BCT,MKD,OTH,,,,052,2006-10-13T00:00:00,2021-07-07T13:30:46,0,new,active
1980SN120739,sohjgag,,,Portsmouth Road,,,,,,Butt's Road,,,,NE-bound,,NE,E0042023,Sholing,Southampton,,,,,,false,UKOS,445639,110928,-1.35243,50.89604,BCT,MKD,OTH,,,,052,2009-03-24T00:00:00,2014-04-08T13:33:44,20,new,active
1980SN120740,sohjgam,,,Portsmouth Road,,,,,,Butt's Road,,,,SW-bound,,SW,E0042023,Sholing,Southampton,,,,,,false,UKOS,445583,110843,-1.35323,50.89528,BCT,MKD,OTH,,,,052,2007-04-18T00:00:00,2014-04-08T13:34:07,20,new,active
1980SN120742,sohjdwt,,,The Gardeners Arms,,,,,,Newtown Road,,,,N-bound,,N,N0073222,Weston,Southampton,,,,,,false,UKOS,445560,110352,-1.35362,50.89086,BCT,MKD,OTH,,,,052,2006-10-16T00:00:00,2020-02-25T08:31:53,0,new,active
1980SN120741,sohjgaj,,,The Gardeners Arms,,,,,,Newtown Road,,,,S-bound,,S,N0073222,Weston,Southampton,,,,,,false,UKOS,445579,110327,-1.35335,50.89064,BCT,MKD,OTH,,,,052,2006-10-16T00:00:00,2020-02-25T08:31:53,0,new,active
1980SN120744,sohjamd,,,Scott Road,,,,,,Weston Lane,,,,adj,,SW,N0073222,Weston,Southampton,,,,,,false,UKOS,444886,110355,-1.3632,50.89094,BCT,CUS,OTH,,,,052,2007-04-18T00:00:00,2021-02-11T11:55:37,4,new,active
1980SN120743,sohjajt,,,Scott Road,,,,,,Weston Lane,,,,opp,,NE,N0073222,Weston,Southampton,,,,,,false,UKOS,444846,110340,-1.36377,50.89081,BCT,MKD,OTH,,,,052,2007-04-18T00:00:00,2023-08-16T13:44:16,40,new,active
1980SN120747,sohdwpg,,,Barnfield Road,,,,,,Weston Lane,,,,NE-bound,,NE,N0073222,Weston,Southampton,,,,,,false,UKOS,444529,110190,-1.3683,50.88949,BCT,MKD,OTH,,,,052,2009-03-24T00:00:00,2014-04-08T12:52:37,20,new,active
1980SN120732,sohjdad,,,Weston Lane,,,,,,Wright's Hill,,,,W-bound,,W,N0073222,Weston,Southampton,,,,,,false,UKOS,445132,110723,-1.35966,50.89423,BCT,MKD,OTH,,,,052,2007-01-25T00:00:00,2014-04-08T12:50:07,20,new,active
1980SN120731,sohjdaw,,,Weston Lane,,,,,,Wright's Hill,,,,E-bound,,E,N0073222,Weston,Southampton,,,,,,false,UKOS,445169,110719,-1.35913,50.89419,BCT,MKD,OTH,,,,052,2007-01-09T00:00:00,2014-04-08T12:49:25,20,new,active
1980SN120734,sohjdag,,,Weston Junior School,,,,,,Weston Lane,,,,SW-bound,,SW,N0073222,Weston,Southampton,,,,,,false,UKOS,445139,110646,-1.35957,50.89354,BCT,CUS,OTH,,,,052,2007-01-25T00:00:00,2021-02-11T11:55:00,6,new,active
1980SN120733,sohjdaj,,,Weston Junior School,,,,,,Weston Lane,,,,NE-bound,,NE,N0073222,Weston,Southampton,,,,,,false,UKOS,445158,110684,-1.3593,50.89388,BCT,CUS,OTH,,,,052,2007-01-25T00:00:00,2023-08-16T13:44:48,42,new,active
1980SN120735,sohjdpd,,,Laxton Close,,,,,,Upper Weston Lane,,,,E-bound,,E,E0042023,Sholing,Southampton,,,,,,false,UKOS,445435,110780,-1.35534,50.89472,BCT,MKD,OTH,,,,052,2007-01-25T00:00:00,2020-02-25T08:31:53,0,new,active
1980SN120736,sohjdmt,,,Laxton Close,,,,,,Upper Weston Lane,,,,W-bound,,W,E0042023,Sholing,Southampton,,,,,,false,UKOS,445400,110763,-1.35584,50.89457,BCT,MKD,OTH,,,,052,2007-01-25T00:00:00,2020-02-25T08:31:53,0,new,active
1980SN120737,sohjdmj,,,Weston Infant School,,,,,,Newtown Road,,,,SE-bound,,SE,N0073222,Weston,Southampton,,,,,,false,UKOS,445395,110542,-1.35594,50.89258,BCT,MKD,OTH,,,,052,2006-10-16T00:00:00,2020-02-25T08:31:53,0,new,active
1980SN120738,sohjdmp,,,Weston Infant School,,,,,,Newtown Road,,,,NW-bound,,NW,N0073222,Weston,Southampton,,,,,,false,UKOS,445400,110528,-1.35587,50.89246,BCT,MKD,OTH,,,,052,2006-10-16T00:00:00,2020-02-25T08:31:53,0,new,active
1980SN120748,sohdwgw,,,Squires Walk,,,,,,Weston Lane,,,,adj,,SW,N0073222,Weston,Southampton,,,,,,false,UKOS,444380,110087,-1.37043,50.88857,BCT,MKD,OTH,,,,052,2007-04-18T00:00:00,2020-02-25T08:31:52,0,new,active
1980SN120677,sohjapj,,,Millers Pond,,,,,,Station Road,,,,E-bound,,E,E0042037,Woolston,Southampton,,,,,,false,UKOS,445077,111093,-1.3604,50.89756,BCT,MKD,OTH,,,,052,2006-10-18T00:00:00,2015-07-01T10:18:51,10,new,active
1980SN120764,sohjawd,,,Millers Pond,,,,,,Station Road,,,,W-bound,,W,E0042037,Woolston,Southampton,,,,,,false,UKOS,445073,111085,-1.36045,50.89749,BCT,MKD,OTH,,,,052,2006-10-18T00:00:00,2014-05-06T14:01:04,2,new,active
1980SN120766,sohdjga,,,Kingsland Market,,,,,,Kingsway,,,,Stop IG,,S,N0080456,St Marys,Southampton,,,,,,false,UKOS,442467,111867,-1.39742,50.90472,BCT,MKD,OTH,,,,052,2006-10-09T00:00:00,2020-02-25T08:31:53,0,new,active
1980SN120643,sohdjdm,,,Kingsland Market,,,,,,Kingsway,,,,Stop IF,,N,N0080456,St Marys,Southampton,,,,,,false,UKOS,442430,111961,-1.39793,50.90557,BCT,MKD,OTH,,,,052,2006-10-09T00:00:00,2019-04-17T15:26:57,13,new,active
1980SN120773,sohjama,,,Pinefield Road,,,,,,Meggeson Avenue,,,,opp,,S,N0073221,Townhill Park,Southampton,,,,,,false,UKOS,444903,114993,-1.36239,50.93265,BCT,MKD,OTH,,,,052,2007-04-18T00:00:00,2021-03-04T10:12:56,28,new,active
1980SN120751,sohdwtg,,,Kingsclere Close,,,,,,Kingsclere Avenue,,,,NE-bound,,NE,N0073222,Weston,Southampton,,,,,,false,UKOS,444612,110105,-1.36713,50.88872,BCT,MKD,OTH,,,,052,2007-04-18T00:00:00,2020-02-25T08:31:53,0,new,active
1980SN120752,sohjadj,,,Kipling Court,,,,,,Wallace Road,,,,SE-bound,,SE,N0073222,Weston,Southampton,,,,,,false,UKOS,444683,110130,-1.36612,50.88893,BCT,MKD,OTH,,,,052,2006-10-09T00:00:00,2020-02-25T08:31:54,0,new,active
1980SN120753,sohdwta,,,International Way,,,,,,Kingsclere Avenue,,,,NW-bound,,NW,N0073222,Weston,Southampton,,,,,,false,UKOS,444555,109882,-1.36797,50.88671,BCT,MKD,OTH,,,,052,2006-10-16T00:00:00,2020-02-25T08:31:54,0,new,active
1980SN120754,sohjatg,,,Poulner Close,,,,,,Kingsclere Avenue,,,,E-bound,,E,N0073222,Weston,Southampton,,,,,,false,UKOS,444995,110021,-1.36169,50.88793,BCT,MKD,OTH,,,,052,2007-01-25T00:00:00,2020-02-25T08:31:54,0,new,active
1980SN120755,sohjawm,,,Winchfield Close,,,,,,Kingsclere Avenue,,,,SW-bound,,SW,N0073222,Weston,Southampton,,,,,,false,UKOS,445105,109943,-1.36014,50.88722,BCT,MKD,OTH,,,,052,2006-10-16T00:00:00,2020-02-25T08:31:54,0,new,active
1980SN120756,sohjatm,,,Drayton Close,,,,,,Kingsclere Avenue,,,,SW-bound,,SW,N0073222,Weston,Southampton,,,,,,false,UKOS,445013,109803,-1.36146,50.88597,BCT,MKD,OTH,,,,052,2006-10-16T00:00:00,2020-02-25T08:31:54,0,new,active
1980SN120757,sohjamg,,,Fullerton Close,,,,,,Kingsclere Avenue,,,,SW-bound,,SW,N0073222,Weston,Southampton,,,,,,false,UKOS,444890,109737,-1.36322,50.88539,BCT,MKD,OTH,,,,052,2007-01-25T00:00:00,2020-02-25T08:31:54,0,new,active
1980SN120623,sohdgpa,,,East Street,,,,,,Queensway,,,,Stop CR,,S,N0077117,Southampton City Centre,Southampton,,,,,,false,UKOS,442230,111595,-1.40082,50.90229,BCT,MKD,OTH,,,,052,2006-10-09T00:00:00,2021-03-04T10:20:52,10,new,active
1980SN120986,sohajpw,,,Warren Avenue,,,,,,Coxford Road,,,,E-bound,,E,E0042020,Shirley Warren,Southampton,,,,,,false,UKOS,439478,115089,-1.43958,50.9339,BCT,MKD,OTH,,,,052,2005-10-07T00:00:00,2020-02-25T08:31:54,0,new,active
1980SN120985,sohajpm,,,Warren Avenue,,,,,,Coxford Road,,,,W-bound,,W,E0042020,Shirley Warren,Southampton,,,,,,false,UKOS,439451,115076,-1.43996,50.93379,BCT,MKD,OTH,,,,052,2006-09-29T00:00:00,2020-02-25T08:31:54,0,new,active
1980SN120966,sohjdtw,,,Pangbourne Close,,,,,,North East Road,,,,NE-bound,,NE,E0042023,Sholing,Southampton,,,,,,false,UKOS,445516,111821,-1.35406,50.90408,BCT,MKD,OTH,,,,052,2006-10-16T00:00:00,2021-07-07T13:30:46,0,new,active
1980SN120988,sohajag,,,Coxford Close,,,,,,Coxford Road,,,,opp,,E,E0042000,Maybush,Southampton,,,,,,false,UKOS,439164,115020,-1.44405,50.93331,BCT,MKD,OTH,,,,052,2006-09-29T00:00:00,2023-01-11T13:51:14,8,new,active
1980SN120989,sohajat,,,Coxford Close,,,,,,Coxford Road,,,,adj,,W,E0042000,Maybush,Southampton,,,,,,false,UKOS,439162,115009,-1.44408,50.93321,BCT,MKD,OTH,,,,052,2006-09-29T00:00:00,2023-01-11T13:51:28,8,new,active
1980SNA09226,sohjtad,,,Benoire Court,,,,,,Richmond Road,,,,opp,,W,E0041986,Freemantle,Southampton,,,,,,false,UKOS,440046,112816,-1.43174,50.91343,BCT,CUS,OTH,,,,052,2005-10-07T00:00:00,2024-10-21T08:01:07,68,new,active
1980SN120P08,sohapag,,,Benoire Court,,,,,,Richmond Road,,,,o/s,,E,E0041986,Freemantle,Southampton,,,,,,false,UKOS,440047,112823,-1.43173,50.91349,BCT,MKD,OTH,,,,052,2005-10-07T00:00:00,2024-10-21T08:00:41,64,new,active
1980SN120P09,sohampj,,,York Road,,,,,,Foundry Lane,,,,NW-bound,,NW,E0042004,Millbrook,Southampton,,,,,,false,UKOS,439992,113105,-1.43248,50.91603,BCT,MKD,OTH,,,,052,2009-03-24T00:00:00,2020-02-25T08:31:54,0,new,active
1980SN120P10,sohamda,,,Imperial Avenue,,,,,,English Road,,,,E-bound,,E,E0041986,Freemantle,Southampton,,,,,,false,UKOS,439811,113354,-1.43503,50.91828,BCT,MKD,OTH,,,,052,2005-10-07T00:00:00,2014-04-08T13:39:35,20,new,active
1980SN120P11,sohapaw,,,Hollybrook Avenue,,,,,,Dale Valley Road,,,,SW-bound,,SW,E0042020,Shirley Warren,Southampton,,,,,,false,UKOS,440279,115075,-1.42818,50.93372,BCT,MKD,OTH,,,,052,2005-10-07T00:00:00,2021-07-07T13:30:46,0,new,active
1980SNA90929,sohmgdg,,,Hollybrook Avenue,,,,,,Dale Valley Road,,,,NE-bound,,NE,E0042020,Shirley Warren,Southampton,,,,,,false,UKOS,440287,115108,-1.42806,50.93402,BCT,MKD,OTH,,,,052,2014-10-13T00:00:00,2014-10-13T10:41:49,67,new,active
1980SN120P12,sohapgp,,,Grafton Gardens,,,,,,Coxford Road,,,,NE-bound,,,E0041997,Lordswood,Southampton,,,,,,false,UKOS,440499,116062,-1.42494,50.94258,BCT,HAR,OTH,,,,052,2005-10-07T00:00:00,2025-03-27T14:50:46,47,new,active
1980SNA09239,sohjtdp,,,Dunvegan Drive,,,,,,Dunvegan Drive,,,,E-bound,,,N0073217,Lords Hill,Southampton,,,,,,false,UKOS,440425,116462,-1.42595,50.94618,BCT,HAR,OTH,,,,052,2005-10-07T00:00:00,2023-11-07T15:52:47,170,new,active
1980SN120P13,sohamwj,,,Dunvegan Drive,,,,,,Dunvegan Drive,,,,W-bound,,,N0073217,Lords Hill,Southampton,,,,,,false,UKOS,440180,116440,-1.42944,50.946,BCT,HAR,OTH,,,,052,2005-10-07T00:00:00,2020-09-16T10:11:15,81,new,active
1980SN120998,sohdwjw,,,Mountpark,,,,,,Wide Lane,,,,opp,,NE,E0042028,Swaythling,Southampton,,,,,,false,UKOS,444436,116399,-1.36887,50.94532,BCT,MKD,OTH,,,,052,2007-04-18T00:00:00,2019-01-21T10:30:33,15,new,active
1980SN120999,sohdwma,,,Mountpark,,,,,,Wide Lane,,,,adj,,SW,E0042028,Swaythling,Southampton,,,,,,false,UKOS,444420,116345,-1.3691,50.94484,BCT,MKD,OTH,,,,052,2007-04-18T00:00:00,2019-01-21T10:31:02,18,new,active
1980SN120P05,sohaptd,,,Stafford Road,,,,,,Howard Road,,,,E-bound,,,E0042018,Shirley,Southampton,,,,,,false,UKOS,440769,112979,-1.42144,50.91484,BCT,HAR,OTH,,,,052,2007-02-23T00:00:00,2019-05-21T14:14:19,19,new,active
1980SN120656,sohdpwt,,,Radstock Road,,,,,,Bridge Road,,,,S-bound,,S,E0042037,Woolston,Southampton,,,,,,false,UKOS,443863,111312,-1.37763,50.89963,BCT,MKD,OTH,,,,052,2010-06-30T00:00:00,2020-02-25T08:31:53,0,new,active
1980SN120657,sohdpwj,,,Radstock Road,,,,,,Bridge Road,,,,N-bound,,N,E0042037,Woolston,Southampton,,,,,,false,UKOS,443850,111299,-1.37782,50.89951,BCT,MKD,OTH,,,,052,2005-10-07T00:00:00,2020-02-25T08:31:53,0,new,active
1980SN120880,sohdtjw,,,Peartree Church,,,,,,Peartree Avenue,,,,SW-bound,,SW,E0042010,Peartree,Southampton,,,,,,false,UKOS,444061,111834,-1.37475,50.9043,BCT,MKD,OTH,,,,052,2005-10-07T00:00:00,2020-02-25T08:31:53,0,new,active
1980SN120881,sohdgda,,,Kings Park Road,,,,,,Brunswick Place,,,,W-bound,,W,E0041969,Bedford Place,Southampton,,,,,,false,UKOS,442114,112535,-1.40236,50.91075,BCT,MKD,OTH,,,,052,2006-10-13T00:00:00,2014-04-08T16:15:32,20,new,active
1980SNA90908,sohmdtd,,,Kings Park Road,,,,,,Brunswick Place,,,,adj,,SE,E0041969,Bedford Place,Southampton,,,,,,false,UKOS,442090,112552,-1.4027,50.91091,BCT,CUS,OTH,,,,052,2018-06-18T00:00:00,2018-06-18T16:35:46,0,new,active
1980SN120891,sohawgj,,,St Annes School,,,,,,Carlton Road,,,,o/s,,S,E0041969,Bedford Place,Southampton,,,,,,false,UKOS,441842,112950,-1.40618,50.9145,BCT,MKD,OTH,,,,052,2006-10-13T00:00:00,2024-10-21T07:54:56,59,new,active
1980SN120510,sohawdw,,,St Annes School,,,,,,Carlton Road,,,,opp,,N,E0041969,Bedford Place,Southampton,,,,,,false,UKOS,441828,112960,-1.40638,50.9146,BCT,MKD,OTH,,,,052,2006-10-13T00:00:00,2024-10-21T07:54:31,41,new,active
1980SN120841,sohadmp,,,Millbrook Roundabout,,,,,,A33,,,,NW-bound,,NW,E0042004,Millbrook,Southampton,,,,,,false,UKOS,438143,113295,-1.45876,50.91786,BCT,MKD,OTH,,,,052,2005-10-07T00:00:00,2014-08-10T07:59:34,6,new,active
1980SN120840,sohadpm,,,Millbrook Roundabout,,,,,,Millbrook Roundabout,,,,SE-bound,,SE,E0042004,Millbrook,Southampton,,,,,,false,UKOS,438239,113294,-1.45739,50.91785,BCT,MKD,OTH,,,,052,2007-04-18T00:00:00,2020-02-25T08:31:54,0,new,active
1980SN120431,sohdwga,,,Midanbury Lane,,,,,,Bitterne Road West,,,,NW-bound,,NW,E0041975,Bitterne,Southampton,,,,,,false,UKOS,444321,113240,-1.37089,50.91693,BCT,MKD,OTH,,,,052,2006-10-11T00:00:00,2014-07-24T13:57:49,7,new,active
1980SN120870,sohdwgd,,,Midanbury Lane,,,,,,Bitterne Road West,,,,SE-bound,,SE,E0041975,Bitterne,Southampton,,,,,,false,UKOS,444346,113247,-1.37053,50.91699,BCT,MKD,OTH,,,,052,2006-10-11T00:00:00,2020-02-25T08:31:54,0,new,active
1980SN120871,sohjajm,,,Lance's Hill,,,,,,Bitterne Road,,,,SE-bound,,SE,E0041975,Bitterne,Southampton,,,,,,false,UKOS,444797,113053,-1.36414,50.91521,BCT,MKD,OTH,,,,052,2006-10-16T00:00:00,2014-05-12T12:00:49,16,new,active
1980SN12921C,sohjamw,,,Lance's Hill,,,,,,Lances Hill,,,,Stop BC,,E,E0041975,Bitterne,Southampton,,,,,,false,UKOS,444918,112992,-1.36242,50.91465,BCT,MKD,OTH,,,,052,2007-04-16T00:00:00,2021-03-04T09:50:46,21,new,active
1980SN120898,sohapgd,,,Twyford Avenue,,,,,,St Jame's Road,,,,opp,,NW,E0042031,Upper Shirley,Southampton,,,,,,false,UKOS,440437,114011,-1.42605,50.92414,BCT,MKD,OTH,,,,052,2005-10-07T00:00:00,2024-10-21T07:35:19,41,new,active
1980SN120373,sohapdw,,,Twyford Avenue,,,,,,Shirley Avenue,,,,nr,,NE,E0042031,Upper Shirley,Southampton,,,,,,false,UKOS,440384,113993,-1.4268,50.92399,BCT,MKD,OTH,,,,052,2005-10-07T00:00:00,2024-10-21T07:34:49,42,new,active
1980SN120239,sohapgj,,,Twyford Avenue,,,,,,Upper Shirley Avenue,,,,adj,,SW,E0042031,Upper Shirley,Southampton,,,,,,false,UKOS,440457,114040,-1.42576,50.9244,BCT,MKD,OTH,,,,052,2005-10-07T00:00:00,2024-10-21T07:35:41,41,new,active
1980SN120920,sohatda,,,Richard Taunton College,,,,,,Bellemoor Road,,,,W-bound,,W,E0042031,Upper Shirley,Southampton,,,,,,false,UKOS,441009,114373,-1.41787,50.92736,BCT,MKD,OTH,,,,052,2005-10-07T00:00:00,2014-04-08T12:57:43,20,new,active
1980SN120246,sohatdp,,,Richard Taunton College,,,,,,Hill Lane,,,,NW-bound,,NW,E0042031,Upper Shirley,Southampton,,,,,,false,UKOS,441165,114290,-1.41566,50.9266,BCT,MKD,OTH,,,,052,2005-10-07T00:00:00,2014-04-08T12:57:28,20,new,active
1980SN120244,sohatdg,,,Richard Taunton College,,,,,,Bellemoor Road,,,,E-bound,,E,E0042031,Upper Shirley,Southampton,,,,,,false,UKOS,441095,114367,-1.41665,50.9273,BCT,MKD,OTH,,,,052,2005-11-11T00:00:00,2014-04-08T12:57:10,20,new,active
1980SN120245,sohatdm,,,Richard Taunton College,,,,,,Hill Lane,,,,SE-bound,,SE,E0042031,Upper Shirley,Southampton,,,,,,false,UKOS,441136,114423,-1.41606,50.9278,BCT,MKD,OTH,,,,052,2006-09-30T00:00:00,2022-02-08T07:49:34,10,new,active
1980SN120950,sohatgj,,,Alexandra Road,,,,,,Hill Lane,,,,S-bound,,S,E0042018,Shirley,Southampton,,,,,,false,UKOS,441186,112586,-1.41555,50.91128,BCT,MKD,OTH,,,,052,2006-10-16T00:00:00,2021-07-07T13:30:46,0,new,active
1980SN120951,sohatdt,,,Alexandra Road,,,,,,Hill Lane,,,,N-bound,,N,E0042018,Shirley,Southampton,,,,,,false,UKOS,441175,112638,-1.4157,50.91175,BCT,MKD,OTH,,,,052,2005-10-07T00:00:00,2021-07-07T13:30:46,0,new,active
1980SN120954,sohadat,,,Holy Family School,,,,,,Mansel Road West,,,,SE-bound,,SE,E0042000,Maybush,Southampton,,,,,,false,UKOS,437585,114871,-1.46654,50.93207,BCT,MKD,OTH,,,,052,2005-10-07T00:00:00,2023-12-05T10:34:17,35,new,active
1980SN120900,sohdgta,,,Elmsleigh Gardens,,,,,,Glen Eyre Road,,,,NW-bound,,NW,E0041967,Bassett,Southampton,,,,,,false,UKOS,442262,115645,-1.3999,50.93871,BCT,MKD,OTH,,,,052,2005-10-07T00:00:00,2020-02-25T08:31:53,0,new,active
1980SN120126,sohdgtj,,,Elmsleigh Gardens,,,,,,Glen Eyre Road,,,,SE-bound,,SE,E0041967,Bassett,Southampton,,,,,,false,UKOS,442276,115630,-1.3997,50.93857,BCT,MKD,OTH,,,,052,2005-10-07T00:00:00,2020-02-25T08:31:53,0,new,active
1980SN120696,sohjgma,,,Butts Road Tesco,,,,,,Butt's Road,,,,adj,,SW,E0042023,Sholing,Southampton,,,,,,false,UKOS,445903,111235,-1.34863,50.89878,BCT,MKD,OTH,,,,052,2007-01-25T00:00:00,2023-08-16T13:12:20,51,new,active
1980SN120695,sohjgjt,,,Butts Road Tesco,,,,,,Butt's Road,,,,nr,,NE,E0042023,Sholing,Southampton,,,,,,false,UKOS,445827,111155,-1.34972,50.89806,BCT,MKD,OTH,,,,052,2006-10-13T00:00:00,2023-01-11T13:54:20,12,new,active
1980SN120911,sohjgjp,,,Butts Road Tesco,,,,,,South East Road,,,,opp,,SE,E0042023,Sholing,Southampton,,,,,,false,UKOS,445825,111225,-1.34974,50.89869,BCT,CUS,OTH,,,,052,2007-01-25T00:00:00,2023-01-11T13:54:36,8,new,active
1980SN120912,sohjgdt,,,Bisley Court,,,,,,Butt's Road,,,,adj,,SW,E0042023,Sholing,Southampton,,,,,,false,UKOS,445798,111105,-1.35014,50.89761,BCT,MKD,OTH,,,,052,2006-10-13T00:00:00,2015-04-25T12:19:13,0,new,active
1980SN120603,sohjmdm,,,Byron Road,,,,,,Hinkler Road,,,,SW-bound,,SW,N0073220,Thornhill,Southampton,,,,,,false,UKOS,446446,112281,-1.34078,50.90814,BCT,MKD,OTH,,,,052,2006-10-16T00:00:00,2021-07-07T13:30:46,0,new,active
1980SN120605,sohjmdt,,,Byron Road,,,,,,Hinkler Road,,,,E-bound,,E,N0073220,Thornhill,Southampton,,,,,,false,UKOS,446470,112299,-1.34044,50.9083,BCT,MKD,OTH,,,,052,2006-10-16T00:00:00,2022-02-02T08:00:54,4,new,active
1980SN120606,sohjmjd,,,Tatwin Crescent,,,,,,Hinkler Road,,,,E-bound,,E,N0073220,Thornhill,Southampton,,,,,,false,UKOS,446728,112391,-1.33676,50.9091,BCT,MKD,OTH,,,,052,2006-10-16T00:00:00,2020-02-25T08:31:54,0,new,active
1980SN120604,sohjmgt,,,Tatwin Crescent,,,,,,Hinkler Road,,,,W-bound,,W,N0073220,Thornhill,Southampton,,,,,,false,UKOS,446645,112361,-1.33794,50.90884,BCT,MKD,OTH,,,,052,2006-10-16T00:00:00,2021-07-07T13:30:46,0,new,active
1980SN120608,sohjmtp,,,Medwall Green,,,,,,Hinkler Road,,,,SE-bound,,SE,N0073220,Thornhill,Southampton,,,,,,false,UKOS,446847,112361,-1.33507,50.90882,BCT,MKD,OTH,,,,052,2006-10-16T00:00:00,2019-02-18T13:20:37,18,new,active
1980SN120607,sohjmtj,,,Medwall Green,,,,,,Hinkler Road,,,,NW-bound,,NW,N0073220,Thornhill,Southampton,,,,,,false,UKOS,446915,112274,-1.33411,50.90804,BCT,MKD,OTH,,,,052,2006-10-16T00:00:00,2014-07-31T10:35:22,22,new,active
1980SN120709,sohjmwd,,,Chettle Road,,,,,,Warburton Road,,,,adj,,S,N0073220,Thornhill,Southampton,,,,,,false,UKOS,447011,112112,-1.33277,50.90657,BCT,MKD,OTH,,,,052,2006-10-09T00:00:00,2019-05-21T14:18:23,15,new,active
1980SN120609,sohjmwa,,,Chettle Road,,,,,,Warburton Road,,,,opp,,N,N0073220,Thornhill,Southampton,,,,,,false,UKOS,447010,112141,-1.33278,50.90683,BCT,MKD,OTH,,,,052,2006-10-09T00:00:00,2019-05-21T14:18:00,17,new,active
1980SN120614,sohjpat,,,Ellwood Avenue,,,,,,Hinkler Road,,,,opp,,SW,N0073220,Thornhill,Southampton,,,,,,false,UKOS,447264,112234,-1.32915,50.90765,BCT,MKD,OTH,,,,052,2006-10-16T00:00:00,2023-01-11T13:56:15,12,new,active
1980SN120615,sohjpaw,,,Ellwood Avenue,,,,,,Hinkler Road,,,,adj,,NE,N0073220,Thornhill,Southampton,,,,,,false,UKOS,447271,112249,-1.32905,50.90778,BCT,MKD,OTH,,,,052,2006-10-16T00:00:00,2023-01-11T13:55:59,12,new,active
1980SN120598,sohjgwg,,,Hinkler Road,,,,,,Bursledon Road,,,,opp,,NW,E0042023,Sholing,Southampton,,,,,,false,UKOS,446248,112176,-1.34361,50.90721,BCT,MKD,OTH,,,,052,2006-10-13T00:00:00,2023-01-11T13:57:39,6,new,active
1980SN120601,sohjmaj,,,Hinkler Road,,,,,,Bursledon Road,,,,adj,,SE,E0042023,Sholing,Southampton,,,,,,false,UKOS,446350,112116,-1.34217,50.90666,BCT,MKD,OTH,,,,052,2006-10-13T00:00:00,2023-01-11T13:57:47,6,new,active
1980SN120599,sohjmad,,,Springwell School,,,,,,Hinkler Road,,,,NE-bound,,NE,N0073220,Thornhill,Southampton,,,,,,false,UKOS,446316,112207,-1.34264,50.90748,BCT,MKD,OTH,,,,052,2006-10-16T00:00:00,2014-07-31T10:37:06,10,new,active
1980SN120600,sohjmag,,,Springwell School,,,,,,Hinkler Road,,,,SW-bound,,SW,N0073220,Thornhill,Southampton,,,,,,false,UKOS,446324,112204,-1.34253,50.90745,BCT,MKD,OTH,,,,052,2006-10-16T00:00:00,2014-07-31T10:37:33,10,new,active
1980SN120602,sohjgwm,,,High Firs Road,,,,,,Kathleen Road,,,,opp,,SW,E0042023,Sholing,Southampton,,,,,,false,UKOS,446287,112085,-1.34307,50.90639,BCT,MKD,OTH,,,,052,2006-10-16T00:00:00,2023-01-11T14:00:08,12,new,active
1980SNA19479,sohjwmg,,,High Firs Road,,,,,,Kathleen Road,,,,adj,,NE,E0042023,Sholing,Southampton,,,,,,false,UKOS,446264,112077,-1.34339,50.90632,BCT,MKD,OTH,,,,052,2007-02-23T00:00:00,2023-01-11T13:59:52,12,new,active
1980SN120654,sohdtaw,,,Ailsa Lane,,,,,,Bridge Road,,,,NE-bound,,NE,E0042010,Peartree,Southampton,,,,,,false,UKOS,443926,111546,-1.37671,50.90173,BCT,MKD,OTH,,,,052,2006-09-21T00:00:00,2020-02-25T08:31:54,0,new,active
1980SN120655,sohdtdj,,,Ailsa Lane,,,,,,Bridge Road,,,,SW-bound,,SW,E0042010,Peartree,Southampton,,,,,,false,UKOS,443948,111577,-1.37639,50.902,BCT,MKD,OTH,,,,052,2005-10-07T00:00:00,2020-02-25T08:31:54,0,new,active
1980SN12658B,sohdtaj,,,Bridge Link Road,,,,,,Cooper's Lane,,,,S-bound,,S,E0042037,Woolston,Southampton,,,,,,false,UKOS,443897,111150,-1.37717,50.89817,BCT,MKD,OTH,,,,052,2010-06-30T00:00:00,2017-09-15T10:59:17,5,new,active
1980SN120659,sohdtag,,,Bridge Link Road,,,,,,Cooper's Lane,,,,N-bound,,N,E0042037,Woolston,Southampton,,,,,,false,UKOS,443890,111161,-1.37727,50.89827,BCT,MKD,OTH,,,,052,2010-06-30T00:00:00,2017-09-15T10:58:50,12,new,active
1980SN12658A,sohdtam,,,Bridge Link Road,,,,,,Cooper's Lane,,,,S-bound,,S,E0042037,Woolston,Southampton,,,,,,false,UKOS,443897,111160,-1.37717,50.89826,BCT,MKD,OTH,,,,052,2010-06-30T00:00:00,2017-09-15T10:59:55,5,new,active
1980SN120660,sohdptw,,,Johns Road,,,,,,Portsmouth Road,,,,E-bound,,E,E0042037,Woolston,Southampton,,,,,,false,UKOS,443811,111140,-1.37839,50.89808,BCT,MKD,OTH,,,,052,2006-10-18T00:00:00,2014-04-08T13:21:27,17,new,active
1980SN120661,sohdptp,,,Johns Road,,,,,,Portsmouth Road,,,,W-bound,,W,E0042037,Woolston,Southampton,,,,,,false,UKOS,443811,111128,-1.37839,50.89798,BCT,MKD,OTH,,,,052,2006-10-18T00:00:00,2020-02-25T08:31:54,0,new,active
1980SN120627,sohdgjt,,,National Express stop,,,,,,Queensway,,,,N-bound,,N,E0042014,Queens Park,Southampton,,,,,,false,UKOS,442183,111177,-1.40154,50.89854,BCT,MKD,OTH,,,,052,2007-04-18T00:00:00,2023-12-08T08:35:36,51,new,active
1980SN120632,sohdgma,,,Briton Street,,,,,,Queensway,,,,Stop QE,,S,E0042014,Queens Park,Southampton,,,,,,false,UKOS,442192,111152,-1.40141,50.89831,BCT,MKD,OTH,,,,052,2006-10-09T00:00:00,2020-02-25T08:31:54,0,new,active
1980HA120630,sohdatw,,,Friary House,,,,,,Briton Street,,,,Stop TH,,E,E0042014,Queens Park,Southampton,,,,,,false,UKOS,442057,111127,-1.40333,50.8981,BCT,MKD,OTH,,,,052,2006-10-13T00:00:00,2023-12-08T08:36:14,57,new,active
1980HA120621,sohdgdp,,,Friary House,,,,,,Briton Street,,,,Stop TG,,W,E0042014,Queens Park,Southampton,,,,,,false,UKOS,442135,111111,-1.40223,50.89795,BCT,MKD,OTH,,,,052,2006-09-29T00:00:00,2014-06-20T12:39:20,16,new,active
1980SN120634,sohdjdt,,,Challis Court,,,,,,Threefield Lane,,,,Stop QH,,N,N0080456,St Marys,Southampton,,,,,,false,UKOS,442448,111390,-1.39774,50.90043,BCT,CUS,OTH,,,,052,2006-12-12T00:00:00,2023-01-11T14:01:51,16,new,active
1980SN120653,sohdmga,,,Itchen Bridge West,,,,,,Saltmarsh Road,,,,SW-bound,,SW,E0041979,Chapel,Southampton,,,,,,false,UKOS,442826,111166,-1.39239,50.89839,BCT,MKD,OTH,,,,052,2006-10-09T00:00:00,2023-01-11T14:03:34,8,new,active
1980SN120652,sohdmjd,,,Itchen Bridge West,,,,,,A3025 Itchen Bridge,,,,E-bound,,E,E0041979,Chapel,Southampton,,,,,,false,UKOS,442919,111215,-1.39107,50.89882,BCT,MKD,OTH,,,,052,2007-04-18T00:00:00,2023-01-11T14:03:04,10,new,active
1980SNA19739,sohmadj,,,Itchen Bridge West,,,,,,Albert Road North,,,,N-bound,,N,E0041979,Chapel,Southampton,,,,,,false,UKOS,442891,111296,-1.39145,50.89955,BCT,MKD,OTH,,,,052,2007-02-23T00:00:00,2023-01-11T14:03:18,8,new,active
1980SNA90892,sohmdjw,,,Itchen Bridge West,,,,,,Central Bridge,,,,W-bound,,W,E0041979,Chapel,Southampton,,,,,,false,UKOS,442764,111222,-1.39327,50.8989,BCT,MKD,OTH,,,,052,2020-02-25T00:00:00,2023-01-11T14:03:49,10,new,active
1980SN120564,sohjaga,,,Freemantle Common,,,,,,Peartree Avenue,,,,S-bound,,S,E0041975,Bitterne,Southampton,,,,,,false,UKOS,444706,112731,-1.36547,50.91232,BCT,MKD,OTH,,,,052,2006-10-16T00:00:00,2020-02-25T08:31:54,0,new,active
1980SN120563,sohdwtp,,,Freemantle Common,,,,,,Peartree Avenue,,,,NE-bound,,NE,E0041975,Bitterne,Southampton,,,,,,false,UKOS,444645,112628,-1.36635,50.9114,BCT,MKD,OTH,,,,052,2006-10-16T00:00:00,2020-02-25T08:31:54,0,new,active
1980SN120565,sohdwmg,,,Westwood House,,,,,,Peartree Avenue,,,,SW-bound,,SW,E0042010,Peartree,Southampton,,,,,,false,UKOS,444478,112422,-1.36875,50.90956,BCT,MKD,OTH,,,,052,2006-10-16T00:00:00,2023-01-31T14:24:31,33,new,active
1980SN120566,sohdwjm,,,Westwood House,,,,,,Peartree Avenue,,,,NE-bound,,NE,E0042010,Peartree,Southampton,,,,,,false,UKOS,444411,112372,-1.36971,50.90912,BCT,MKD,OTH,,,,052,2006-10-16T00:00:00,2023-01-31T14:25:42,33,new,active
1980SNA90866,sohmawd,,,Westbrook Court,,,,,,Bassett Green Road,,,,NW-bound,,NW,E0041967,Bassett,Southampton,,,,,,false,UKOS,442311,116820,-1.39906,50.94927,BCT,MKD,OTH,,,,052,2010-08-04T00:00:00,2020-02-25T08:31:54,0,new,active
1980SNA90969,sohmgwt,,,Westbrook Court,,,,,,Bassett Green Road,,,,SE-bound,,SE,E0041967,Bassett,Southampton,,,,,,false,UKOS,442250,116860,-1.39993,50.94963,BCT,MKD,OTH,,,,052,2019-07-17T00:00:00,2019-07-17T07:38:51,24,new,active
1980SN121050,sohdptd,,,Greenways,,,,,,Stoneham Lane,,,,S-bound,,S,E0042028,Swaythling,Southampton,,,,,,false,UKOS,443708,116227,-1.37925,50.94383,BCT,MKD,OTH,,,,052,2005-10-07T00:00:00,2014-04-08T13:16:25,20,new,active
1980SNA90872,sohmdad,,,Greenways,,,,,,Stoneham Lane,,,,adj,,N,E0042028,Swaythling,Southampton,,,,,,false,UKOS,443716,116283,-1.37913,50.94434,BCT,MKD,OTH,,,,052,2014-09-03T00:00:00,2014-09-03T10:32:33,2,new,active
1980SNA40502,sohjtwg,,,Lordshill Community Centre,,,,,,Rownhams Road North,,,,adj,,NW,N0073217,Lords Hill,Southampton,,,,,,false,UKOS,438635,116122,-1.45146,50.94325,BCT,MKD,OTH,,,,052,2006-10-18T00:00:00,2024-10-21T07:50:12,62,new,active
1980SNA40503,sohjtwj,,,Lordshill Community Centre,,,,,,Rownhams Road North,,,,opp,,SE,N0073217,Lords Hill,Southampton,,,,,,false,UKOS,438645,116122,-1.45132,50.94325,BCT,MKD,OTH,,,,052,2006-10-09T00:00:00,2024-10-21T07:50:30,62,new,active
1980SNA90873,sohmdag,,,Oxford Street,,,,,,Bernard Street,,,,Stop QC,,W,N0077117,Southampton City Centre,Southampton,,,,,,false,UKOS,442270,111263,-1.40029,50.8993,BCT,MKD,OTH,,,,052,2020-02-25T00:00:00,2024-10-22T12:24:50,41,new,active
1980SNA90889,sohmdjm,,,Oxford Street,,,,,,Bernard Street,,,,Stop QD,,E,N0077117,Southampton City Centre,Southampton,,,,,,false,UKOS,442253,111274,-1.40053,50.8994,BCT,MKD,OTH,,,,052,2020-02-25T00:00:00,2023-03-03T09:26:58,0,new,active
1980SNA90876,sohmdap,,,Cantell School,,,,,,Violet Road,,,,o/s,,SE,E0041967,Bassett,Southampton,,,,,,false,UKOS,442308,115934,-1.39921,50.9413,BCT,MKD,OTH,,,,052,2017-07-04T00:00:00,2017-07-04T11:34:27,0,new,active
1980SNA90885,sohmdgw,,,Centenary Quay,,,,,,John Thorneycroft Road,,,,SW-bound,,SW,E0042037,Woolston,Southampton,,,,,,false,UKOS,443600,110861,-1.38142,50.89559,BCT,MKD,OTH,,,,052,2016-08-08T00:00:00,2016-08-08T12:59:37,19,new,active
1980SNA90886,sohmdja,,,Centenary Quay,,,,,,John Thorneycroft Road,,,,NW-bound,,NW,E0042037,Woolston,Southampton,,,,,,false,UKOS,443573,110798,-1.38182,50.89503,BCT,MKD,OTH,,,,052,2016-08-08T00:00:00,2016-08-08T12:59:23,23,new,active
1980SNA90891,sohmdjt,,,Terminus Terrace,,,,,,Marsh Lane,,,,SE-bound,,SE,N0080456,St Marys,Southampton,,,,,,false,UKOS,442580,111429,-1.39586,50.90077,BCT,MKD,OTH,,,,052,2020-02-25T00:00:00,2020-02-25T08:31:53,0,new,active
1980SNA90895,sohmdmg,,,Dale Valley Road Flats,,,,,,Dale Valley Road,,,,o/s 131,,SW,E0042020,Shirley Warren,Southampton,,,,,,false,UKOS,440399,115272,-1.42645,50.93549,BCT,MKD,OTH,,,,052,2021-07-07T00:00:00,2024-10-21T07:47:32,41,new,active
1980SNA90928,sohmgda,,,Dale Valley Road Flats,,,,,,Dale Valley Road,,,,opp 131,,NE,E0042020,Shirley Warren,Southampton,,,,,,false,UKOS,440384,115266,-1.42666,50.93543,BCT,MKD,OTH,,,,052,2014-10-13T00:00:00,2024-10-21T07:47:52,115,new,active
1980SNA90897,sohmdmp,,,Luton Road,,,,,,Drove Road,,,,adj,,SE,E0042023,Sholing,Southampton,,,,,,false,UKOS,445847,111934,-1.34934,50.90507,BCT,CUS,OTH,,,,052,2018-06-18T00:00:00,2018-06-18T16:35:46,0,new,active
1980SNA19473,sohjwjm,,,Brentwood Crescent,,,,,,Litchfield Road,,,,SW-bound,,SW,N0073221,Townhill Park,Southampton,,,,,,false,UKOS,445050,114482,-1.36036,50.92804,BCT,MKD,OTH,,,,052,2007-02-23T00:00:00,2023-11-07T13:47:42,20,new,active
1980SNA90902,sohmdpg,,,United Reformed Church,,,,,,Cobden Avenue,,,,o/s,,NW,N0073216,Bitterne Park,Southampton,,,,,,false,UKOS,444034,113942,-1.37488,50.92326,BCT,CUS,OTH,,,,052,2018-06-18T00:00:00,2018-06-18T16:35:46,0,new,active
1980SN120231,sohapgm,,,Vincent Avenue,,,,,,Winchester Road,,,,o/s pets at home,,SW,E0042031,Upper Shirley,Southampton,,,,,,false,UKOS,440431,114677,-1.42606,50.93013,BCT,MKD,OTH,,,,052,2007-01-25T00:00:00,2021-07-07T13:30:46,0,new,active
1980SN121020,sohjadw,,,Hurstbourne Place,,,,,,Kingsclere Avenue,,,,adj,,NW,N0073222,Weston,Southampton,,,,,,false,UKOS,444704,109722,-1.36587,50.88526,BCT,MKD,OTH,,,,052,2006-10-16T00:00:00,2020-02-25T08:31:52,0,new,active
1980SN120222,sohampw,,,General Hospital A&E,,,,,,Tremona Road,,,,Stop G,,S,N0080795,Southampton General,Southampton,,,,,,false,UKOS,440047,114984,-1.43149,50.93292,BCT,MKD,OTH,,,,052,2006-10-09T00:00:00,2014-04-11T10:15:48,17,new,active
1980SN120221,sohampt,,,General Hospital A&E,,,,,,Tremona Road,,,,Stop H,,NE,N0080795,Southampton General,Southampton,,,,,,false,UKOS,440019,114904,-1.4319,50.9322,BCT,MKD,OTH,,,,052,2006-10-09T00:00:00,2014-04-11T10:15:21,19,new,active
1980SN120120,sohawjm,,,Global Technology Centre,,,,,,Burgess Road,,,,opp,,W,E0041989,Highfield,Southampton,,,,,,false,UKOS,441945,115382,-1.40444,50.93637,BCT,MKD,OTH,,,,052,2006-10-13T00:00:00,2015-07-01T10:24:47,8,new,active
1980SN120121,sohawmt,,,Global Technology Centre,,,,,,Burgess Road,,,,o/s,,E,E0041989,Highfield,Southampton,,,,,,false,UKOS,442030,115435,-1.40322,50.93684,BCT,MKD,OTH,,,,052,2007-04-16T00:00:00,2015-07-01T10:24:29,8,new,active
1980SN121005,sohawpa,,,Bassett Wood Road,,,,,,Bassett Avenue,,,,S-bound,,S,E0041967,Bassett,Southampton,,,,,,false,UKOS,441900,116691,-1.40493,50.94814,BCT,MKD,OTH,,,,052,2006-09-29T00:00:00,2020-02-25T08:31:53,0,new,active
1980SN120502,sohatgd,,,Hill Farm Road,,,,,,Hill Lane,,,,opp,,S,E0042018,Shirley,Southampton,,,,,,false,UKOS,441188,112775,-1.4155,50.91298,BCT,MKD,OTH,,,,052,2006-10-16T00:00:00,2021-07-07T13:30:44,0,new,active
1980SN120274,sohdmja,,,The Mitre,,,,,,St Denys' Road,,,,Stop PK,,N,E0042013,Portswood,Southampton,,,,,,false,UKOS,442933,114284,-1.39051,50.92642,BCT,MKD,OTH,,,,052,2005-10-07T00:00:00,2020-02-25T08:31:53,0,new,active
1980SN120710,sohdwpm,,,St Annes Road,,,,,,Portsmouth Road,,,,opp,,E,E0042037,Woolston,Southampton,,,,,,false,UKOS,444551,110953,-1.36789,50.89635,BCT,MKD,OTH,,,,052,2010-06-30T00:00:00,2020-02-25T08:31:52,0,new,active
1980SN120726,sohdwpd,,,St Annes Road,,,,,,Portsmouth Road,,,,adj,,W,E0042037,Woolston,Southampton,,,,,,false,UKOS,444529,110950,-1.36821,50.89632,BCT,MKD,OTH,,,,052,2010-06-30T00:00:00,2020-02-25T08:31:52,0,new,active
1980SN120872,sohdtda,,,Vineyard Close,,,,,,Radstock Road,,,,W-bound,,W,E0042037,Woolston,Southampton,,,,,,false,UKOS,443938,111347,-1.37656,50.89994,BCT,MKD,OTH,,,,052,2010-06-30T00:00:00,2020-02-25T08:31:53,0,new,active
1980SNA90896,sohmdmj,,,Dale Valley Close,,,,,,Dale Valley Road,,,,o/s 27,,SW,E0042020,Shirley Warren,Southampton,,,,,,false,UKOS,440165,114883,-1.42982,50.932,BCT,MKD,OTH,,,,052,2014-04-08T00:00:00,2024-10-18T13:36:47,54,new,active
1980SNA90988,sohmjgp,,,Dale Valley Close,,,,,,Dale Valley Road,,,,o/s 18,,NE,E0042020,Shirley Warren,Southampton,,,,,,false,UKOS,440149,114859,-1.43005,50.93179,BCT,MKD,OTH,,,,052,2014-04-08T00:00:00,2024-10-18T13:44:03,43,new,active
1980SN120092,sohapam,,,Lyburn Court,,,,,,Coxford Road,,,,SW-bound,,SW,E0041964,Aldermoor,Southampton,,,,,,false,UKOS,440232,115652,-1.42878,50.93891,BCT,MKD,OTH,,,,052,2006-09-29T00:00:00,2021-07-07T13:30:46,0,new,active
1980SN120091,sohapad,,,Lyburn Court,,,,,,Coxford Road,,,,NE-bound,,NE,E0041964,Aldermoor,Southampton,,,,,,false,UKOS,440209,115640,-1.42911,50.93881,BCT,MKD,OTH,,,,052,2005-10-07T00:00:00,2021-07-07T13:30:46,0,new,active
1980SNA90906,sohmdpw,,,Montgomery Road,,,,,,Mousehole Lane,,,,adj,,NW,E0042002,Midanbury,Southampton,,,,,,false,UKOS,445187,113796,-1.3585,50.92186,BCT,MKD,OTH,,,,052,2018-06-18T00:00:00,2025-08-19T10:25:14,13,new,active
1980SNA90996,sohjpjt,,,Montgomery Road,,,,,,Mousehole Lane,,,,opp,,SE,E0042002,Midanbury,Southampton,,,,,,false,UKOS,445194,113800,-1.3584,50.9219,BCT,MKD,OTH,,,,052,2018-06-18T00:00:00,2025-08-19T10:24:44,18,new,active
1980SNA90907,sohmdta,,,Benhams Road,,,,,,Meggeson Avenue,,,,adj,,SE,N0073221,Townhill Park,Southampton,,,,,,false,UKOS,445252,114622,-1.35747,50.92928,BCT,MKD,OTH,,,,052,2021-03-04T00:00:00,2021-03-04T10:15:21,14,new,active
1980SNA90909,sohmdtg,,,Community Centre,,,,,,OrpenRoad,,,,nr,,SE,E0042023,Sholing,Southampton,,,,,,false,UKOS,446332,111336,-1.34252,50.89965,BCT,CUS,OTH,,,,052,2018-06-18T00:00:00,2018-06-18T16:35:46,0,new,active
1980SNA90923,sohmgaj,,,Community Centre,,,,,,Orpen Road,,,,NW-bound,,NW,E0042023,Sholing,Southampton,,,,,,false,UKOS,446321,111341,-1.34268,50.8997,BCT,CUS,OTH,,,,052,2014-04-16T00:00:00,2014-04-16T10:58:09,64,new,active
1980SNA90912,sohmdtp,,,Barton Crescent,,,,,,Witts Hill,,,,NW-bound,,NW,E0042002,Midanbury,Southampton,,,,,,false,UKOS,444908,114134,-1.36243,50.92492,BCT,MKD,OTH,,,,052,2014-08-12T00:00:00,2014-08-12T07:31:04,7,new,active
1980SNA90914,sohmdwa,,,Bishops Crescent,,,,,,Bishops Road,,,,opp,,NE,E0041994,Itchen,Southampton,,,,,,false,UKOS,444564,111715,-1.36761,50.9032,BCT,CUS,OTH,,,,052,2018-06-18T00:00:00,2018-06-18T16:35:46,0,new,active
1980SNA90915,sohmdwd,,,Bishops Crescent,,,,,,Bishops Road,,,,adj,,SW,E0041994,Itchen,Southampton,,,,,,false,UKOS,444574,111716,-1.36747,50.9032,BCT,MKD,OTH,,,,052,2018-06-18T00:00:00,2023-02-01T12:27:17,39,new,active
1980SN120504,sohatjm,,,Silverdale Road,,,,,,Archers Road,,,,SW-bound,,SW,E0041965,Banister Park,Southampton,,,,,,false,UKOS,441284,113007,-1.41411,50.91506,BCT,MKD,OTH,,,,052,2006-10-11T00:00:00,2014-04-08T16:39:41,18,new,active
1980SNA90918,sohmdwm,,,Silverdale Road,,,,,,Archers Road,,,,NE-bound,,NE,E0041965,Banister Park,Southampton,,,,,,false,UKOS,441263,113010,-1.41441,50.91509,BCT,MKD,OTH,,,,052,2014-04-08T00:00:00,2014-04-08T16:40:08,20,new,active
1980SNA90919,sohmdwp,,,Atherley Road,,,,,,Howard Road,,,,adj,,W,E0042018,Shirley,Southampton,,,,,,false,UKOS,440941,112971,-1.41899,50.91476,BCT,MKD,OTH,,,,052,2020-02-25T00:00:00,2020-02-25T08:31:52,0,new,active
1980SNA90920,sohmdwt,,,Atherley Road,,,,,,Howard Road,,,,nr,,E,E0042018,Shirley,Southampton,,,,,,false,UKOS,440986,112984,-1.41835,50.91487,BCT,MKD,OTH,,,,052,2020-02-25T00:00:00,2020-02-25T08:31:52,0,new,active
1980SNA09235,sohjtdg,,,Wolseley Road,,,,,,Foundry Lane,,,,S-bound,,,E0041986,Freemantle,Southampton,,,,,,false,UKOS,440026,112987,-1.43201,50.91497,BCT,HAR,OTH,,,,052,2005-10-07T00:00:00,2020-09-16T10:07:02,10,new,active
1980SNA90921,sohmgad,,,Wolseley Road,,,,,,Foundry Lane,,,,N-bound,,N,E0041986,Freemantle,Southampton,,,,,,false,UKOS,440009,113031,-1.43225,50.91536,BCT,MKD,OTH,,,,052,2014-04-08T00:00:00,2014-04-08T15:45:50,20,new,active
1980SNA90922,sohmgag,,,Central Station Temp Stop,,,,,,Commercial Road,,,,W-bound,,S,N0077117,Southampton City Centre,Southampton,,,,,,false,UKOS,441379,112287,-1.41284,50.90858,BCT,MKD,OTH,,,,052,2014-02-11T00:00:00,2023-01-11T13:32:57,38,new,active
1980SN120729,sohjamt,,,The Swan,,,,,,Portsmouth Road,,,,o/s,,E,E0042037,Woolston,Southampton,,,,,,false,UKOS,444896,110880,-1.363,50.89566,BCT,MKD,OTH,,,,052,2010-06-30T00:00:00,2014-04-08T12:37:22,1,new,active
1980SN120730,sohjajw,,,The Swan,,,,,,Portsmouth Road,,,,opp,,W,E0042037,Woolston,Southampton,,,,,,false,UKOS,444874,110878,-1.36331,50.89565,BCT,MKD,OTH,,,,052,2010-06-30T00:00:00,2014-04-08T12:37:06,3,new,active
1980SN120225,sohamwp,,,Dale Road,,,,,,Dale Road,,,,NW-bound,,NW,E0042020,Shirley Warren,Southampton,,,,,,false,UKOS,440186,114624,-1.42955,50.92967,BCT,MKD,OTH,,,,052,2006-10-16T00:00:00,2014-04-08T13:53:57,4,new,active
1980SN120548,sohdmap,,,Brintons Road,,,,,,Northam Road A3024,,,,E-bound,,E,E0042007,Nicholstown,Southampton,,,,,,false,UKOS,442685,112232,-1.39427,50.90799,BCT,MKD,OTH,,,,052,2006-10-16T00:00:00,2020-09-16T09:49:40,19,new,active
1980SN120547,sohdjta,,,Brintons Road,,,,,,Northam Road A3024,,,,W-bound,,W,E0042007,Nicholstown,Southampton,,,,,,false,UKOS,442686,112208,-1.39426,50.90777,BCT,MKD,OTH,,,,052,2006-10-09T00:00:00,2017-11-28T07:44:56,25,new,active
1980HA120322,sohjdjm,,,Wakefield Road,,,,,,Meggeson Avenue,,,,opp,,SE,N0073221,Townhill Park,Southampton,,,,,,false,UKOS,445314,114554,-1.3566,50.92867,BCT,MKD,OTH,,,,052,2006-10-16T00:00:00,2020-02-25T08:31:52,0,new,active
1980SNA90924,sohmgam,,,Wakefield Road,,,,,,Meggeson Avenue,,,,NW-bound,,NW,N0073221,Townhill Park,Southampton,,,,,,false,UKOS,445304,114549,-1.35674,50.92862,BCT,MKD,OTH,,,,052,2014-05-09T00:00:00,2014-05-13T07:44:57,78,new,active
1980HA120633,sohdgmt,,,Queens Terrace,,,,,,Orchard Place,,,,Stop QG,,N,E0042014,Queens Park,Southampton,,,,,,false,UKOS,442188,111024,-1.40148,50.89716,BCT,MKD,OTH,,,,052,2006-10-09T00:00:00,2014-11-28T12:16:56,16,new,active
1980SNA90925,sohmgap,,,Queens Terrace,,,,,,Orchard Place,,,,Stop QB,,SW,E0042014,Queens Park,Southampton,,,,,,false,UKOS,442214,111034,-1.40111,50.89725,BCT,MKD,OTH,,,,052,2014-05-16T00:00:00,2014-11-28T12:18:03,78,new,active
1980SNA90926,sohmgat,,,Mayflower Halls,,,,,,West Park Road,,,,Stop SG,,NE,N0077117,Southampton City Centre,Southampton,,,,,,false,UKOS,441650,112265,-1.40899,50.90836,BCT,MKD,OTH,,,,052,2014-06-06T00:00:00,2024-03-11T07:34:34,104,new,active
1980TMP90978,sohmjdg,,,Mayflower Halls,,,,,,West Park Road,,,,opp,,SW,N0077117,Southampton City Centre,Southampton,,,,,,false,UKOS,441571,112200,-1.41012,50.90778,BCT,MKD,OTH,,,,052,2014-06-06T00:00:00,2024-03-20T10:57:31,120,new,active
1980SNA90930,sohmgdj,,,Chadwick Lodge,,,,,,Henstead Road,,,,adj,,E,E0042012,Polygon,Southampton,,,,,,false,UKOS,441680,112690,-1.40852,50.91218,BCT,MKD,OTH,,,,052,2014-11-13T00:00:00,2024-10-21T08:06:59,110,new,active
1980SNA90931,sohmgdm,,,Chadwick Lodge,,,,,,Henstead Road,,,,opp,,W,E0042012,Polygon,Southampton,,,,,,false,UKOS,441680,112686,-1.40852,50.91214,BCT,MKD,OTH,,,,052,2014-11-13T00:00:00,2024-10-21T08:07:13,109,new,active
1980SNA90932,sohmgdp,,,Bassett Green Primary School,,,,,,Honeysuckle Road,,,,adj,,E,E0041968,Bassett Green,Southampton,,,,,,false,UKOS,442940,115712,-1.39024,50.93926,BCT,CUS,OTH,,,,052,2015-02-03T00:00:00,2024-10-01T07:22:40,112,new,active
1980SN120499,sohaptp,,,Sir Georges Road,,,,,,Shirley Road,,,,S-bound,,S,E0041986,Freemantle,Southampton,,,,,,false,UKOS,440840,112665,-1.42047,50.91201,BCT,MKD,OTH,,,,052,2006-10-09T00:00:00,2015-05-12T08:00:02,22,new,active
1980SN120501,sohapwa,,,Sir Georges Road,,,,,,Shirley Road,,,,NW-bound,,NW,E0041986,Freemantle,Southampton,,,,,,false,UKOS,440885,112532,-1.41984,50.91081,BCT,MKD,OTH,,,,052,2006-10-09T00:00:00,2015-04-23T07:49:50,11,new,active
1980SNA90934,sohmgdw,,,Events on the Common,,,,,,Northlands Road,,,,opp,,W,E0042025,Southampton Common,Southampton,,,,,,false,UKOS,441899,113729,-1.40528,50.9215,BCT,CUS,OTH,,,,052,2015-05-12T00:00:00,2015-05-12T13:55:54,63,new,active
1980SNA90936,sohmgjd,,,Coates Road,,,,,,Orpen Road,,,,opp,,NE,E0042023,Sholing,Southampton,,,,,,false,UKOS,446665,111689,-1.33774,50.9028,BCT,MKD,OTH,,,,052,2015-08-16T00:00:00,2015-08-17T09:50:07,74,new,active
1980SNA90937,sohmgjg,,,Coates Road,,,,,,Orpen Road,,,,adj,,SW,E0042023,Sholing,Southampton,,,,,,false,UKOS,446666,111684,-1.33773,50.90275,BCT,MKD,OTH,,,,052,2015-08-17T00:00:00,2023-02-01T12:24:13,109,new,active
1980SNA90938,sohmgjm,,,Walton Road,,,,,,Montague Avenue,,,,adj,,E,E0042023,Sholing,Southampton,,,,,,false,UKOS,446693,111397,-1.33738,50.90017,BCT,MKD,OTH,,,,052,2015-08-17T00:00:00,2015-08-17T10:08:26,71,new,active
1980SNA90939,sohmgjp,,,Rosoman Road,,,,,,Spring Road,,,,N-bound,,N,E0042023,Sholing,Southampton,,,,,,false,UKOS,444709,111536,-1.36557,50.90158,BCT,CUS,OTH,,,,052,2015-09-07T00:00:00,2015-09-07T09:43:31,70,new,active
1980SNA90940,sohmgjt,,,Rosoman Road,,,,,,Spring Road,,,,S-bound,,S,E0042023,Sholing,Southampton,,,,,,false,UKOS,444736,111532,-1.36519,50.90154,BCT,CUS,OTH,,,,052,2015-09-07T00:00:00,2015-09-07T09:42:38,67,new,active
1980SN120070,sohajpt,,,Myrtle Road,,,,,,Aldermoor Road,,,,SW-bound,,SW,E0041964,Aldermoor,Southampton,,,,,,false,UKOS,439458,115749,-1.43979,50.93984,BCT,MKD,OTH,,,,052,2006-09-29T00:00:00,2015-09-24T10:54:58,26,new,active
1980SNA90943,sohmgmd,,,Myrtle Road,,,,,,Aldermoor Road,,,,opp,,NE,E0041964,Aldermoor,Southampton,,,,,,false,UKOS,439487,115773,-1.43937,50.94005,BCT,MKD,OTH,,,,052,2015-09-24T00:00:00,2015-11-03T08:54:33,74,new,active
1980SNA90944,sohmgmg,,,Houndwell Park - events temp stop,,,,,,Hanover Buildings,,,,W-bound,,W,N0077117,Southampton City Centre,Southampton,,,,,,false,UKOS,442151,111665,-1.40193,50.90293,BCT,MKD,OTH,,,,052,2015-11-06T00:00:00,2021-11-03T07:33:18,92,new,active
1980SNA90950,sohmgpd,,,Chamberlain Halls,,,,,,Glen Eyre Road,,,,W-bound,,W,E0041967,Bassett,Southampton,,,,,,false,UKOS,442111,115968,-1.40201,50.94162,BCT,MKD,OTH,,,,052,2016-07-04T00:00:00,2016-07-04T10:54:13,75,new,active
1980SNA90951,sohmgpg,,,St James Park,,,,,,St James Road,,,,outside,,NW,E0042031,Upper Shirley,Southampton,,,,,,false,UKOS,440207,114349,-1.42928,50.9272,BCT,MKD,OTH,,,,052,2016-07-18T00:00:00,2016-07-19T11:28:29,86,new,active
1980SNA90952,sohmgpj,,,St James Park,,,,,,St James Road,,,,opposite,,SE,E0042031,Upper Shirley,Southampton,,,,,,false,UKOS,440234,114325,-1.4289,50.92698,BCT,MKD,OTH,,,,052,2016-07-18T00:00:00,2016-07-19T11:28:50,79,new,active
1980SNA90958,sohmgtg,,,Nichols Road SCH Only,,,,,,Brintons Road,,,,opp,,NW,E0042007,Nicholstown,Southampton,,,,,,false,UKOS,442594,112254,-1.39557,50.90819,BCT,CUS,OTH,,,,052,2018-02-27T00:00:00,2021-11-03T07:31:54,79,new,active
1980SNA90959,sohmgtj,,,Nichols Road SCH Only,,,,,,Brintons Road,,,,adj,,SE,E0042007,Nicholstown,Southampton,,,,,,false,UKOS,442607,112264,-1.39538,50.90828,BCT,CUS,OTH,,,,052,2018-02-27T00:00:00,2021-11-03T07:31:39,77,new,active
1980SNA90960,sohmgtm,,,Argyle Road SCH Only,,,,,,St Marys Road,,,,opp,,NW,E0042007,Nicholstown,Southampton,,,,,,false,UKOS,442342,112430,-1.39913,50.90979,BCT,CUS,OTH,,,,052,2018-02-27T00:00:00,2021-11-03T07:30:55,75,new,active
1980SNA90961,sohmgtp,,,Argyle Road SCH Only,,,,,,St Marys Road,,,,nr,,SE,E0042007,Nicholstown,Southampton,,,,,,false,UKOS,442356,112438,-1.39893,50.90986,BCT,CUS,OTH,,,,052,2018-02-27T00:00:00,2021-11-03T07:30:38,76,new,active
1980SNA90962,sohmgtw,,,College Keep,,,,,,Terminus Terrace,,,,opp,,S,E0042014,Queens Park,Southampton,,,,,,false,UKOS,442534,111158,-1.39655,50.89834,BCT,MKD,OTH,,,,052,2018-07-09T00:00:00,2018-07-09T10:39:51,76,new,active
1980SNA90963,sohmgwa,,,College Keep,,,,,,Terminus Terrace,,,,o/s,,N,E0042014,Queens Park,Southampton,,,,,,false,UKOS,442521,111163,-1.39673,50.89839,BCT,MKD,OTH,,,,052,2018-07-09T00:00:00,2018-07-09T10:39:32,71,new,active
1980SNA90965,sohmgwg,,,Podium Car Park - events temp stop,,,,,,Harbour Parade,,,,opp,,N,N0077117,Southampton City Centre,Southampton,,,,,,false,UKOS,441688,111741,-1.40851,50.90364,BCT,CUS,OTH,,,,052,2019-04-05T00:00:00,2021-11-03T07:34:17,80,new,active
1980SN120899,sohdgtg,,,Hoglands Park,,,,,,Houndwell Place,,,,Stop CQ,,W,N0077117,Southampton City Centre,Southampton,,,,,,false,UKOS,442273,111656,-1.4002,50.90284,BCT,MKD,OTH,,,,052,2005-12-09T00:00:00,2021-03-04T10:22:57,11,new,active
1980SN120980,sohdgwg,,,Hoglands Park,,,,,,Houndwell Place,,,,Stop CP,,SE,N0077117,Southampton City Centre,Southampton,,,,,,false,UKOS,442310,111653,-1.39967,50.90281,BCT,MKD,OTH,,,,052,2005-12-09T00:00:00,2021-03-04T10:22:43,11,new,active
1980SNA90976,sohmjaw,,,Downside Avenue,,,,,,Brownlow Avenue,,,,nr,,W,E0041975,Bitterne,Southampton,,,,,,false,UKOS,445048,112820,-1.3606,50.91309,BCT,MKD,OTH,,,,052,2022-02-28T00:00:00,2022-02-28T08:32:36,53,new,active
1980SNA90980,sohmjdm,,,Amira House,,,,,,Bullar Road,,,,o/s,,N,E0041975,Bitterne,Southampton,,,,,,false,UKOS,444038,113456,-1.37489,50.91889,BCT,MKD,OTH,,,,052,2024-04-02T00:00:00,2024-04-02T08:24:40,42,new,active
1980SNA90981,sohmjdp,,,Albion Place,,,,,,,,,,Stand BE,,,N0077117,Southampton City Centre,Southampton,,,,,,false,UKOS,441926,111532,-1.40515,50.90175,BCS,,,,,,052,2024-06-12T00:00:00,2024-10-16T16:14:00,85,new,active
1980SNA90982,sohmjdt,,,Albion Place,,,,,,,,,,Stand BD,,,N0077117,Southampton City Centre,Southampton,,,,,,false,UKOS,441918,111550,-1.40526,50.90191,BCS,,,,,,052,2024-06-12T00:00:00,2024-10-16T16:14:30,99,new,active
1980SNA90983,sohmjdw,,,Albion Place,,,,,,,,,,Stand BC,,,N0077117,Southampton City Centre,Southampton,,,,,,false,UKOS,441909,111546,-1.40539,50.90187,BCS,,,,,,052,2024-06-12T00:00:00,2024-08-07T13:05:30,88,new,active
1980SNA90984,sohmjga,,,Albion Place,,,,,,,,,,Stand BA,,,N0077117,Southampton City Centre,Southampton,,,,,,false,UKOS,441901,111543,-1.4055,50.90185,BCS,,,,,,052,2024-06-12T00:00:00,2024-10-16T16:15:09,121,new,active
1980SNA90985,sohmjgd,,,Albion Place,,,,,,,,,,Stand BB,,,N0077117,Southampton City Centre,Southampton,,,,,,false,UKOS,441907,111530,-1.40542,50.90173,BCS,,,,,,052,2024-06-12T00:00:00,2024-10-16T16:15:32,129,new,active
1980SNA90986,sohmjgj,,,St Mary's Stadium,,,,,,Britannia Road,,,,adj,,N,N0080456,St Marys,Southampton,,,,,,false,UKOS,442998,112098,-1.38984,50.90676,BCT,CUS,OTH,,,,052,2024-09-30T00:00:00,2024-09-30T07:55:27,44,new,active
1980SNA90987,sohmjgm,,,RSH temp stop,,,,,,St Marys Road,,,,S-bound,,S,E0042007,Nicholstown,Southampton,,,,,,false,UKOS,442316,112538,-1.39949,50.91077,BCT,MKD,OTH,,,,052,2024-09-30T00:00:00,2024-09-30T13:02:19,40,new,active
1980SNA90913,sohmdtw,,,High Road,,,,,,Burgess Road,,,,adj,,W,E0042028,Swaythling,Southampton,,,,,,false,UKOS,443611,115710,-1.38069,50.93919,BCT,CUS,OTH,,,,052,2018-06-18T00:00:00,2024-10-14T12:33:28,44,new,active
1980TMP90979,sohmjdj,,,High Road,,,,,,Burgess Road,,,,nr,,E,E0042028,Swaythling,Southampton,,,,,,false,UKOS,443607,115720,-1.38075,50.93928,BCT,CUS,OTH,,,,052,2018-06-18T00:00:00,2024-10-14T12:33:02,61,new,active
1980SN00001,sohjpgm,,,Guernsey Close,,,,,,Brownhill Way,,,,opp,,NE,N0073217,Lords Hill,Southampton,,,,,,false,UKOS,438110,115527,-1.459,50.93793,BCT,MKD,OTH,,,,052,2025-01-08T00:00:00,2025-01-08T09:56:56,42,new,active
1980SN00002,sohjpgp,,,Guernsey Close,,,,,,Brownhill Way,,,,adj,,SW,N0073217,Lords Hill,Southampton,,,,,,false,UKOS,438127,115521,-1.45876,50.93788,BCT,MKD,OTH,,,,052,2025-01-08T00:00:00,2025-01-08T09:58:18,42,new,active
1980SNA90989,sohjpgt,,,Western Esplanade,,,,,,Western Esplanade,,,,E-bound,,E,E0057247,Southampton,,,,,,,false,UKOS,441450,112136,-1.41185,50.90721,BCT,MKD,OTH,,,,052,2025-07-07T00:00:00,2025-07-09T07:23:45,45,new,active
1980SNA90990,sohjpgw,,,Western Esplanade,,,,,,Western Esplanade,,,,W-bound,,W,E0057247,Southampton,,,,,,,false,UKOS,441425,112106,-1.41221,50.90695,BCT,MKD,OTH,,,,052,2025-07-07T00:00:00,2025-07-09T07:24:03,45,new,active
1980SNA90991,sohjpja,,,Admirals Quay,,,,,,Ocean Way,,,,opp,,N,N0073219,Ocean Village,Southampton,,,,,,false,UKOS,442784,110924,-1.39302,50.89622,BCT,MKD,OTH,,,,052,2025-08-19T00:00:00,2025-08-19T09:43:15,44,new,active
1980SNA90994,sohjpjm,,,Highfield Church,,,,,,Highfield Lane,,,,adj,,SE,E0041989,Highfield,Southampton,,,,,,false,UKOS,442520,114680,-1.39634,50.93001,BCT,MKD,OTH,,,,052,2025-08-19T00:00:00,2025-08-19T10:09:25,42,new,active
1980SNA90995,sohjpjp,,,Highfield Church,,,,,,Highfield Lane,,,,opp,,NW,E0041989,Highfield,Southampton,,,,,,false,UKOS,442497,114682,-1.39666,50.93003,BCT,MKD,OTH,,,,052,2025-08-19T00:00:00,2025-08-19T10:12:35,42,new,active
1980SNA90998,sohjpma,,,Roselands Gardens,,,,,,Highfield Lane,,,,opp,,NW,E0041989,Highfield,Southampton,,,,,,false,UKOS,442328,114757,-1.39906,50.93072,BCT,MKD,OTH,,,,052,2025-08-19T00:00:00,2025-08-19T10:39:25,42,new,active
1980SNA90997,sohjpjw,,,Roselands Gardens,,,,,,Highfield Lane,,,,adj,,SE,E0041989,Highfield,Southampton,,,,,,false,UKOS,442273,114787,-1.39984,50.93099,BCT,MKD,OTH,,,,052,2025-08-19T00:00:00,2025-08-19T10:37:26,42,new,active
1980SN120569,sohdwap,,,Leslie Loader House,,,,,,Peartree Avenue,,,,NE-bound,,NE,E0042010,Peartree,Southampton,,,,,,false,UKOS,444235,112168,-1.37224,50.90729,BCT,MKD,OTH,,,,052,2005-10-07T00:00:00,2020-02-25T08:31:54,0,new,active
1980SN120570,sohdwaj,,,Leslie Loader House,,,,,,Peartree Avenue,,,,SW-bound,,SW,E0042010,Peartree,Southampton,,,,,,false,UKOS,444212,112116,-1.37257,50.90683,BCT,MKD,OTH,,,,052,2005-10-07T00:00:00,2020-02-25T08:31:54,0,new,active
1980SN120571,sohdtpm,,,Osterly Road,,,,,,Peartree Avenue,,,,NE-bound,,NE,E0042010,Peartree,Southampton,,,,,,false,UKOS,444146,112024,-1.37352,50.90601,BCT,MKD,OTH,,,,052,2005-10-07T00:00:00,2020-02-25T08:31:54,0,new,active
1980SN120575,sohjdjw,,,Bitterne Leisure Centre,,,,,,Maybray King Way,,,,Stop BF,,SE,E0041975,Bitterne,Southampton,,,,,,false,UKOS,445334,112939,-1.35651,50.91414,BCT,MKD,OTH,,,,052,2007-04-16T00:00:00,2021-07-07T13:30:46,0,new,active
1980SN120576,sohjdgt,,,Bitterne Leisure Centre,,,,,,Maybray King Way,,,,Stop BG,,NW,E0041975,Bitterne,Southampton,,,,,,false,UKOS,445251,113036,-1.35768,50.91502,BCT,MKD,OTH,,,,052,2007-04-16T00:00:00,2020-02-25T08:31:53,0,new,active
1980SN120457,sohjdjd,,,Bitterne Leisure Centre,,,,,,Bitterne Road East,,,,Stop BE,,SE,E0041975,Bitterne,Southampton,,,,,,false,UKOS,445308,113022,-1.35687,50.91489,BCT,MKD,OTH,,,,052,2007-04-16T00:00:00,2021-07-07T13:30:46,0,new,active
1980SNA09318,sohjtmd,,,Britannia Road,,,,,,Northam Road,,,,SW-bound,,SW,E0042008,Northam,Southampton,,,,,,false,UKOS,442986,112393,-1.38997,50.90941,BCT,MKD,OTH,,,,052,2006-10-16T00:00:00,2014-04-08T15:05:42,20,new,active
1980SN120558,sohdmjm,,,Britannia Road,,,,,,Northam Road,,,,NE-bound,,NE,E0042008,Northam,Southampton,,,,,,false,UKOS,442985,112421,-1.38999,50.90966,BCT,MKD,OTH,,,,052,2006-10-16T00:00:00,2023-12-04T11:09:19,55,new,active
1980SN120562,sohjagm,,,Spring Road,,,,,,Peartree Avenue,,,,NE-bound,,NE,E0041975,Bitterne,Southampton,,,,,,false,UKOS,444732,112810,-1.36509,50.91303,BCT,MKD,OTH,,,,052,2006-10-16T00:00:00,2020-02-25T08:31:54,0,new,active
1980SN120589,sohjatw,,,Heath Road,,,,,,Spring Road,,,,adj,,S,E0042001,Merry Oak,Southampton,,,,,,false,UKOS,445073,112089,-1.36033,50.90652,BCT,MKD,OTH,,,,052,2006-10-18T00:00:00,2023-02-01T12:36:28,40,new,active
1980SN120588,sohjawa,,,Heath Road,,,,,,Spring Road,,,,opp,,N,E0042001,Merry Oak,Southampton,,,,,,false,UKOS,445070,112106,-1.36037,50.90667,BCT,MKD,OTH,,,,052,2006-10-18T00:00:00,2023-02-01T12:36:38,37,new,active
1980SN120594,sohjgjm,,,Upper Deacon Road,,,,,,Bursledon Road,,,,SE-bound,,SE,E0042023,Sholing,Southampton,,,,,,false,UKOS,445824,112514,-1.3496,50.91028,BCT,MKD,OTH,,,,052,2006-10-13T00:00:00,2014-04-08T13:26:59,20,new,active
1980SN120595,sohjgjg,,,Upper Deacon Road,,,,,,Bursledon Road,,,,NW-bound,,NW,E0042023,Sholing,Southampton,,,,,,false,UKOS,445800,112521,-1.34994,50.91035,BCT,MKD,OTH,,,,052,2007-03-06T00:00:00,2014-04-08T13:26:42,20,new,active
1980SN120596,sohjgmw,,,North East Road,,,,,,Bursledon Road,,,,NW-bound,,NW,E0042023,Sholing,Southampton,,,,,,false,UKOS,445991,112372,-1.34724,50.90899,BCT,MKD,OTH,,,,052,2010-08-16T00:00:00,2021-07-07T13:30:46,0,new,active
1980SN120597,sohjgta,,,North East Road,,,,,,Bursledon Road,,,,opp,,SE,E0042023,Sholing,Southampton,,,,,,false,UKOS,446084,112315,-1.34592,50.90847,BCT,MKD,OTH,,,,052,2010-08-16T00:00:00,2015-04-25T12:22:52,0,new,active
1980SN120459,sohjgjd,,,Bath Road,,,,,,Bitterne Road East,,,,E-bound,,E,E0041975,Bitterne,Southampton,,,,,,false,UKOS,445796,112997,-1.34993,50.91463,BCT,MKD,OTH,,,,052,2006-10-13T00:00:00,2014-08-08T11:29:23,1,new,active
1980SN120577,sohjgja,,,Bath Road,,,,,,Bitterne Road East,,,,W-bound,,W,E0041975,Bitterne,Southampton,,,,,,false,UKOS,445763,112989,-1.35041,50.91456,BCT,MKD,OTH,,,,052,2006-10-13T00:00:00,2021-07-07T13:30:46,0,new,active
1980SN120578,sohjdpw,,,Ruby Road,,,,,,Bursledon Road,,,,NW-bound,,NW,E0041975,Bitterne,Southampton,,,,,,false,UKOS,445482,112758,-1.35443,50.9125,BCT,MKD,OTH,,,,052,2006-10-13T00:00:00,2021-07-07T13:30:46,0,new,active
1980SN120579,sohjdwj,,,Ruby Road,,,,,,Bursledon Road,,,,SE-bound,,SE,E0041975,Bitterne,Southampton,,,,,,false,UKOS,445542,112726,-1.35358,50.91221,BCT,MKD,OTH,,,,052,2006-10-13T00:00:00,2021-07-07T13:30:46,0,new,active
1980SN120580,sohjdtj,,,Bursledon Road,,,,,,Ruby Road,,,,S-bound,,S,E0041975,Bitterne,Southampton,,,,,,false,UKOS,445502,112705,-1.35415,50.91203,BCT,MKD,OTH,,,,052,2006-10-18T00:00:00,2021-07-07T13:30:46,0,new,active
