ATCOCode,NaptanCode,PlateCode,CleardownCode,CommonName,CommonNameLang,ShortCommonName,ShortCommonNameLang,Landmark,LandmarkLang,Street,StreetLang,Crossing,CrossingLang,Indicator,IndicatorLang,Bearing,NptgLocalityCode,LocalityName,ParentLocalityName,GrandParentLocalityName,Town,TownLang,Suburb,SuburbLang,LocalityCentre,GridType,Easting,Northing,Longitude,Latitude,StopType,BusStopType,TimingStatus,DefaultWaitTime,Notes,NotesLang,AdministrativeAreaCode,CreationDateTime,ModificationDateTime,RevisionNumber,Modification,Status
268060001,rtladadw,,,Pasture Lane,,,,Barleythorpe Stud,,A606 Main Road,,,,opp,,SE,E0053629,Barleythorpe,,,,,,,1,UKOS,484957,309677,-0.744839,52.678163,BCT,CUS,TIP,,,,049,2002-12-10T00:00:00.000,2013-05-13T10:11:47.000,3,revise,active
268060002,rtladpat,,,Main Street,,,,Church,,Oakham Road,,,,opp,,NE,E0053682,Whissendine,,,,,,,1,UKOS,482529,314335,-0.779575,52.720402,BCT,MKD,TIP,,,,049,2002-12-10T00:00:00.000,2010-11-30T00:00:00.000,4,revise,active
268060003,rtladgta,,,Jubilee Drive,,,,Langham School,,Burley Road,,,,adj,,SW,E0053653,Langham,,,,,,,0,UKOS,484399,310972,-0.752759,52.689889,BCT,MKD,TIP,,,,049,2002-12-10T00:00:00.000,2013-05-08T09:18:24.000,7,revise,active
268060004,rtladpda,,,White Lion,,,,White Lion,,Main Street,,,,adj,,E,E0053682,Whissendine,,,,,,,0,UKOS,482987,314266,-0.772814,52.719712,BCT,CUS,OTH,,,,049,2002-12-10T00:00:00.000,2012-08-13T11:21:43.000,3,revise,active
268060005,rtladadm,,,Oakham Enterprise Park,,,,Oakham Enterprise Park,,Oakham Road,,,,opposite,,N,E0053627,Ashwell,,,,,,,0,UKOS,486626,311048,-0.719799,52.690221,BCT,MKD,TIP,,,,049,2002-12-10T00:00:00.000,2014-05-06T14:12:35.000,3,revise,active
268060006,rtladadj,,,Ashwell Garage,,,,Ashwell Garage,,Oakham Road,,,,opp,,N,E0053627,Ashwell,,,,,,,1,UKOS,486587,313530,-0.719723,52.712534,BCT,MKD,TIP,,,,049,2002-12-10T00:00:00.000,2016-01-20T16:28:49.466,3,revise,active
268060007,rtladadg,,,Ashwell Garage,,,,Ashwell Garage,,Oakham Road,,,,outside,,S,E0053627,Ashwell,,,,,,,1,UKOS,486599,313550,-0.719541,52.712712,BCT,MKD,TIP,,,,049,2002-12-10T00:00:00.000,2013-05-13T10:05:44.000,2,revise,active
268060008,rtladada,,,Oakham Enterprise Park,,,,Oakham Enterprise Park,,Oakham Road,,,,outside,,S,E0053627,Ashwell,,,,,,,0,UKOS,486656,311116,-0.719338,52.690827,BCT,CUS,TIP,,,,049,2002-12-10T00:00:00.000,2014-05-06T14:13:22.000,3,revise,active
268060009,rtladpap,,,Main Street,,,,Church,,Oakham Road,,,,adj,,SW,E0053682,Whissendine,,,,,,,1,UKOS,482547,314325,-0.779312,52.720309,BCT,HAR,TIP,,,,049,2002-12-10T00:00:00.000,2012-08-13T11:28:13.000,6,revise,active
268060010,rtladgtd,,,Jubilee Drive,,,,Langham School,,Burley Road,,,,opp,,NE,E0053653,Langham,,,,,,,0,UKOS,484380,310980,-0.753038,52.689963,BCT,MKD,TIP,,,,049,2002-12-10T00:00:00.000,2012-02-23T12:21:25.000,8,revise,active
268060011,rtladjgp,,,Ladywell,,,,Ladywell,,Burley Road,,,,opp,,NE,E0053664,Oakham,,,,,,,1,UKOS,486610,309347,-0.720483,52.674935,BCT,CUS,TIP,,,,049,2002-12-10T00:00:00.000,2011-09-01T11:09:03.000,5,revise,active
268060012,rtladaga,,,Pasture Lane,,,,Pasture Lane,,Main Road,,,,adj,,N,E0053629,Barleythorpe,,,,,,,1,UKOS,484955,309634,-0.74488,52.677776,BCT,CUS,TIP,,,,049,2002-12-10T00:00:00.000,2009-02-19T00:00:00.000,3,revise,active
268060013,rtladgwm,,,Cemetery Lane,,,,Wing Road,,Cemetery Lane,,,,adj,,E,E0053658,Manton,,,,,,,1,UKOS,487858,304479,-0.703325,52.630984,BCT,MKD,TIP,,,,049,2002-12-10T00:00:00.000,2014-09-25T09:51:58.200,6,revise,active
268060014,rtladmjt,,,The Green,,,,Village Green,,Ashwell Road,,,,adj,,NW,E0053674,Teigh,,,,,,,1,UKOS,486598,316078,-0.71889,52.735432,BCT,MKD,TIP,,,,049,2002-12-10T00:00:00.000,2014-11-27T12:40:28.000,7,revise,active
268060015,rtladpga,,,Middle Street,,,,Public House,,Top Street,,,,opp,,W,E0053684,Wing,,,,,,,1,UKOS,489294,302970,-0.682521,52.617187,BCT,CUS,TIP,,,,049,2002-12-10T00:00:00.000,2013-06-12T14:08:17.000,3,revise,active
268060016,rtladmpa,,,Church,,,,The Church,,Main Street,,,,adj,,NE,E0053675,Thistleton,,,,,,,1,UKOS,491344,317963,-0.648096,52.751593,BCT,CUS,TIP,,,,049,2002-12-10T00:00:00.000,2008-11-06T00:00:00.000,2,revise,active
268060017,rtladmat,,,Glaston Road,,,,Ridlington Road,,Uppingham Road,,,,opp,,NE,E0053667,Preston,,,,,,,1,UKOS,487201,302280,-0.713609,52.611326,BCT,MKD,TIP,,,,049,2002-12-10T00:00:00.000,2013-08-08T10:49:13.000,5,revise,active
268060018,rtladgwp,,,Black Bull,,,,Black Bull Public House,,Main Street,,,,outside,,SW,E0053659,Market Overton,,,,,,,1,UKOS,488696,316457,-0.687724,52.738499,BCT,CUS,TIP,,,,049,2002-12-10T00:00:00.000,2011-11-25T14:27:47.000,6,revise,active
268060019,rtladmdg,,,Rutland Water Information Centre,,,,Rutland Water Information Centre,,Sykes Lane,,,,outside,,NE,E0053643,Empingham,,,,,,,0,UKOS,493607,308283,-0.617331,52.664211,BCT,HAR,TIP,,,,049,2002-12-10T00:00:00.000,2014-09-26T10:33:39.000,14,revise,active
268060020,rtladagd,,,Main Street,,,,Bus Shelter,,Cottesmore Road,,,,adj,,N,E0053630,Barrow,,,,,,,0,UKOS,489537,315201,-0.675613,52.727072,BCT,MKD,TIP,,,,049,2002-12-10T00:00:00.000,2014-10-21T14:51:39.000,8,revise,active
268060021,rtladadp,,,Church,,,,The Church,,Ayston Road,,,,outside,,N,E0053628,Ayston,,,,,,,0,UKOS,486060,300971,-0.730795,52.599742,BCT,CUS,TIP,,,,049,2002-12-10T00:00:00.000,2008-10-13T00:00:00.000,3,revise,active
268060022,rtladatd,,,Village Shop,,,,shop,,B668,,,,opp,,SW,E0053640,Cottesmore,,,,,,,0,UKOS,490252,313581,-0.665473,52.712394,BCT,MKD,TIP,,,,049,2002-12-10T00:00:00.000,2016-01-20T16:42:31.419,5,revise,active
268060023,rtladpag,,,Orange Street,,,,Uppingham Book Store,,Orange Street,,,,adj,,N,E0053680,Uppingham,,,,,,,1,UKOS,486608,299728,-0.723031,52.588484,BCT,MKD,TIP,,,,049,2002-12-10T00:00:00.000,2014-12-22T14:09:50.589,2,revise,active
268060024,rtladmaw,,,RAF Camp,,,,Main Gate,,Rogues Lane,,,,adj,,NE,E0053640,Cottesmore,,,,,,,1,UKOS,491042,314678,-0.653479,52.722121,BCT,MKD,TIP,,,,049,2002-12-10T00:00:00.000,2015-07-31T10:30:19.305,7,revise,active
268060025,rtladgtw,,,Stoke Road,,,,White Hart car park,,Main Street,,,,adj,,N,E0053656,Lyddington,,,,,,,1,UKOS,487485,297034,-0.7108,52.564131,BCT,MKD,TIP,,,,049,2002-12-10T00:00:00.000,2014-10-21T15:19:51.000,4,revise,active
268060026,rtladgjp,,,Wheatsheaf,,,,The Wheatsheaf Public House,,Main Street,,,,opp,,E,E0053648,Greetham,,,,,,,1,UKOS,492961,314381,-0.62516,52.719126,BCT,MKD,TIP,,,,049,2002-12-10T00:00:00.000,2012-08-28T14:37:01.000,6,revise,active
268060027,rtladamp,,,Campden Close,,,,Campdon Close,,Empingham Road,,,,opp,,N,E0053645,Exton,,,,,,,1,UKOS,492772,310912,-0.628934,52.687982,BCT,MKD,OTH,,,,049,2002-12-10T00:00:00.000,2014-10-09T15:35:13.672,12,revise,active
268060028,rtladgat,,,Fox & Hounds,,,,Fox & Hounds Public House,,The Green,,,,adj,,W,E0053645,Exton,,,,,,,0,UKOS,492456,311167,-0.633536,52.690328,BCT,HAR,TIP,,,,049,2002-12-10T00:00:00.000,2012-08-28T16:37:48.000,7,revise,active
268060029,rtladamg,,,Burley Green,,,,The Green,,Oakham Road,,,,opposite,,SW,E0053637,Burley,,,,,,,1,UKOS,488221,310636,-0.6963115,52.6862640,BCT,HAR,TIP,,,,049,2002-12-10T00:00:00.000,2015-07-31T10:25:10.145,6,revise,active
268060030,rtladamj,,,Burley Green,,,,Bus Shelter,,Oakham Road,,,,outside,,E,E0053637,Burley,,,,,,,1,UKOS,488213,310648,-0.696433,52.68637,BCT,HAR,TIP,,,,049,2002-12-10T00:00:00.000,2013-05-16T14:34:06.000,5,revise,active
268060031,rtladgdg,,,Fox & Hounds,,,,Fox & Hounds Public House,,The Green,,,,opp,,E,E0053645,Exton,,,,,,,0,UKOS,492461,311177,-0.633459,52.690417,BCT,HAR,TIP,,,,049,2002-12-10T00:00:00.000,2012-08-28T16:36:40.000,7,revise,active
268060032,rtladapd,,,CS Ellis,,,,CS Ellis,,Station Road,,,,outside,,SE,E0053671,South Luffenham,,,,,,,0,UKOS,495073,302035,-0.597458,52.607805,BCT,HAR,OTH,,,,049,2002-12-10T00:00:00.000,2013-05-21T17:56:14.000,11,revise,active
268060033,rtladgjt,,,Main Street,,,,Locks Close,,Oakham Road,,,,opposite,,W,E0053648,Greetham,,,,,,,0,UKOS,492234,314368,-0.635923,52.719134,BCT,MKD,TIP,,,,049,2002-12-10T00:00:00.000,2012-08-28T14:35:05.000,4,revise,active
268060034,rtladgtp,,,Stoke Road,,,,Bus Shelter,,Main Street,,,,opp,,S,E0053656,Lyddington,,,,,,,1,UKOS,487510,297054,-0.710426,52.564307,BCT,MKD,TIP,,,,049,2002-12-10T00:00:00.000,2014-10-21T15:15:36.000,4,revise,active
268060035,rtladpmp,,,Top Hall,,,,Lyndon Wood,,Lyndon Road,,,,opp,,NE,E0053657,Lyndon,,,,,,,0,UKOS,489801,305002,-0.674483,52.635367,BCT,MKD,TIP,,,,049,2002-12-10T00:00:00.000,2014-09-25T09:33:25.827,15,revise,active
268060036,rtladpad,,,Orange Street,,,,Uppingham Book Store,,Orange Street,,,,opp,,S,E0053680,Uppingham,,,,,,,1,UKOS,486617,299718,-0.722901,52.588392,BCT,MKD,TIP,,,,049,2002-12-10T00:00:00.000,2014-12-22T14:13:52.000,4,revise,active
268060037,rtladata,,,Sun Inn,,,,Sun Inn,,Main Street,,,,opp,,NE,E0053640,Cottesmore,,,,,,,0,UKOS,490149,313524,-0.667013,52.711899,BCT,MKD,TIP,,,,049,2002-12-10T00:00:00.000,2016-01-20T16:46:15.775,3,revise,active
268060038,rtladadt,,,Church,,,,Church,,Uppingham Road,,,,opp,,S,E0053628,Ayston,,,,,,,0,UKOS,486072,300973,-0.730618,52.599758,BCT,CUS,TIP,,,,049,2002-12-10T00:00:00.000,2008-11-03T00:00:00.000,4,revise,active
268060039,rtladagj,,,Main Street,,,,Junction,,Cottesmore Road,,,,opp,,S,E0053630,Barrow,,,,,,,0,UKOS,489553,315209,-0.675374,52.727142,BCT,HAR,TIP,,,,049,2002-12-10T00:00:00.000,2015-07-31T10:28:40.886,9,revise,active
268060040,rtladmda,,,Bus Shelter,,,,Bus Shelter,,Top Road,,,,adjacent,,NE,E0053668,Ridlington,,,,,,,1,UKOS,484961,302705,-0.746573,52.6155,BCT,MKD,OTH,,,,049,2002-12-10T00:00:00.000,2008-10-09T00:00:00.000,3,revise,active
268060041,rtladgwt,,,Black Bull,,,,Black Bull Public House,,Main Street,,,,opp,,NE,E0053659,Market Overton,,,,,,,1,UKOS,488729,316493,-0.687226,52.738817,BCT,MKD,TIP,,,,049,2002-12-10T00:00:00.000,2011-11-25T14:13:37.000,6,revise,active
268060042,rtladmap,,,Glaston Road,,,,Glaston Road,,Uppingham Road,,,,adj,,SW,E0053667,Preston,,,,,,,1,UKOS,487220,302282,-0.713328,52.61134,BCT,MKD,TIP,,,,049,2002-12-10T00:00:00.000,2013-09-06T07:56:40.000,16,revise,active
268060043,rtladmpd,,,Church,,,,Church,,Main Street,,,,opp,,W,E0053675,Thistleton,,,,,,,1,UKOS,491364,317953,-0.647803,52.7515,BCT,MKD,TIP,,,,049,2002-12-10T00:00:00.000,2008-11-06T00:00:00.000,2,revise,active
268060044,rtladpdw,,,Middle Street,,,,Public House,,Top Street,,,,adj,,E,E0053684,Wing,,,,,,,1,UKOS,489292,302985,-0.682547,52.617323,BCT,CUS,TIP,,,,049,2002-12-10T00:00:00.000,2013-06-12T14:08:29.000,4,revise,active
268060045,rtladmjw,,,The Green,,,,The Green,,Ashwell Road,,,,opp,,S,E0053674,Teigh,,,,,,,1,UKOS,486608,316096,-0.718737,52.735592,BCT,CUS,TIP,,,,049,2002-12-10T00:00:00.000,2008-11-03T00:00:00.000,2,revise,active
268060046,rtladgwg,,,Stocks Hill,,,,Shelter,,Stocks Hill,,,,opp,,W,E0053658,Manton,,,,,,,1,UKOS,488102,304507,-0.699713,52.631196,BCT,MKD,TIP,,,,049,2002-12-10T00:00:00.000,2011-10-18T14:03:00.000,6,revise,active
268060047,rtladmta,,,Church,,,,Tinwell Church,,Stamford Road,,,,opposite,,E,E0053678,Tinwell,,,,,,,1,UKOS,500614,306424,-0.514326,52.646252,BCT,MKD,OTH,,,,049,2002-12-10T00:00:00.000,2013-05-16T16:50:59.000,5,revise,active
268060048,rtladmtw,,,North Street East,,,,Car Park,,North Street East,,,,Bay 3,,W,E0053680,Uppingham,,,,,,,1,UKOS,486717,299778,-0.72141,52.588916,BCT,MKD,TIP,,,,049,2002-12-10T00:00:00.000,2014-12-22T14:27:31.322,6,revise,active
268060049,rtladgpw,,,Ketton Crossroads,,,,Chater House,,High Street,,,,outside,,NE,E0053652,Ketton,,,,,,,0,UKOS,498333,305009,-0.548449,52.633953,BCT,MKD,TIP,,,,049,2002-12-10T00:00:00.000,2013-05-07T10:13:18.000,4,revise,active
268060050,rtladajw,,,Telephone Box,,,,Telephone Box,,Main Street,,,,opp,,E,E0053634,Bisbrooke,,,,,,,1,UKOS,488670,299701,-0.69261,52.587909,BCT,CUS,TIP,,,,049,2002-12-10T00:00:00.000,2016-01-20T16:45:02.756,4,revise,active
268060051,rtladgmp,,,Sharpe's Plain,,,,Northwick Road,,Empingham Road,,,,adj,,SE,E0053652,Ketton,,,,,,,0,UKOS,497655,304427,-0.5586412,52.6288466,BCT,MKD,TIP,,,,049,2002-12-10T00:00:00.000,2014-09-19T11:27:34.624,3,revise,active
268060052,rtladgdj,,,Old Pheasant,,,,Old Pheasant Public House,,Main Road,,,,opp,,SW,E0053646,Glaston,,,,,,,0,UKOS,489551,300402,-0.679421,52.594065,BCT,CUS,TIP,,,,049,2002-12-10T00:00:00.000,2013-04-25T09:33:45.000,8,revise,active
268060053,rtladjdj,,,Bungalows,,,,Bungalows,,Pinfold Lane,,,,adjacent,,N,E0053663,North Luffenham,,,,,,,1,UKOS,493431,303534,-0.621275,52.621561,BCT,MKD,TIP,,,,049,2002-12-10T00:00:00.000,2012-08-28T16:52:44.000,2,revise,active
268060054,rtladjaj,,,Weares Close,,,,White Horse Inn Public House,,High Street,,,,opp,,NW,E0053661,Morcott,,,,,,,0,UKOS,492637,300472,-0.633857,52.594178,BCT,HAR,TIP,,,,049,2002-12-10T00:00:00.000,2012-09-11T15:28:00.000,12,revise,active
268060055,rtladatm,,,Wheatsheaf,,,,Wheatsheaf,,Manton Road,,,,opp,,W,E0053641,Edith Weston,,,,,,,1,UKOS,492793,305121,-0.630252,52.635933,BCT,MKD,TIP,,,,049,2002-12-10T00:00:00.000,2013-06-26T15:24:04.000,5,revise,active
268060056,rtladagt,,,Church Lane,,,,The Green,,The Green,,,,opp,,E,E0053631,Barrowden,,,,,,,0,UKOS,494686,300100,-0.603724,52.590482,BCT,CUS,TIP,,,,049,2002-12-10T00:00:00.000,2010-10-11T00:00:00.000,6,revise,active
268060057,rtladawa,,,Barnsdale Avenue,,,,Crossroads,,A606,,,,adj,,E,E0041726,Barnsdale Hill,,,,,,,0,UKOS,490827,309289,-0.658148,52.673725,BCT,HAR,OTH,,,,049,2002-12-10T00:00:00.000,2015-07-27T11:36:05.290,10,revise,active
268060058,rtladmgm,,,The Coach House Inn,,,,Barrowden Lane,,Stamford Road,,,,opp,,SW,E0053671,South Luffenham,,,,,,,1,UKOS,494130,301705,-0.611473,52.605003,BCT,HAR,TIP,,,,049,2002-12-10T00:00:00.000,2012-08-29T09:26:49.000,8,revise,active
268060059,rtladjdg,,,School,,,,School,,Church Street,,,,outside,,NW,E0053663,North Luffenham,,,,,,,1,UKOS,493513,303365,-0.620112,52.620028,BCT,MKD,TIP,,,,049,2002-12-10T00:00:00.000,2008-10-13T00:00:00.000,2,revise,active
268060060,rtladjdm,,,Bungalows,,,,Bungalows,,Pinfold Lane,,,,opposite,,S,E0053663,North Luffenham,,,,,,,0,UKOS,493451,303543,-0.620977,52.621639,BCT,HAR,TIP,,,,049,2002-12-10T00:00:00.000,2012-08-28T16:55:38.000,2,revise,active
268060061,rtladmgw,,,The Coach House Inn,,,,Barrowden Lane Junction,,Stamford Road,,,,adj,,NE,E0053671,South Luffenham,,,,,,,1,UKOS,494137,301731,-0.611362,52.605236,BCT,HAR,TIP,,,,049,2002-12-10T00:00:00.000,2012-08-29T09:28:31.000,6,revise,active
268060062,rtladawd,,,Derwent Avenue,,,,Bus Shelter,,Windermere Road,,,,opp,,W,E0053641,Edith Weston,,,,,,,0,UKOS,492026,305137,-0.641577,52.636208,BCT,MKD,TIP,,,,049,2002-12-10T00:00:00.000,2013-04-25T09:16:29.000,3,revise,active
268060063,rtladagp,,,Church Lane,,,,The Green,,The Green,,,,adj,,W,E0053631,Barrowden,,,,,,,1,UKOS,494685,300086,-0.603743,52.590357,BCT,MKD,TIP,,,,049,2002-12-10T00:00:00.000,2010-10-11T00:00:00.000,6,revise,active
268060064,rtladatw,,,Severn Crescent,,,,Bus Shelter,,Welland Road,,,,adj,,NE,E0053641,Edith Weston,,,,,,,0,UKOS,493679,305191,-0.617144,52.636411,BCT,MKD,TIP,,,,049,2002-12-10T00:00:00.000,2011-08-11T13:35:59.000,4,revise,active
268060065,rtladjam,,,Weares Close,,,,White Horse Inn Public House,,High Street,,,,adj,,SE,E0053661,Morcott,,,,,,,0,UKOS,492646,300488,-0.63372,52.59432,BCT,HAR,TIP,,,,049,2002-12-10T00:00:00.000,2012-08-29T11:03:54.000,11,revise,active
268060066,rtladjdp,,,School,,,,School,,Church Street,,,,opp,,SE,E0053663,North Luffenham,,,,,,,1,UKOS,493522,303380,-0.619975,52.620162,BCT,MKD,TIP,,,,049,2002-12-10T00:00:00.000,2016-01-20T16:47:33.323,4,revise,active
268060067,rtladgdm,,,Old Pheasant,,,,Old Pheasant Public House,,Main Street,,,,outside,,NE,E0053646,Glaston,,,,,,,1,UKOS,489512,300418,-0.679992,52.594215,BCT,MKD,TIP,,,,049,2002-12-10T00:00:00.000,2013-05-16T16:18:57.000,5,revise,active
268060068,rtladgmj,,,Manor Green,,,,Carver Court,,Empingham Road,,,,adj,,SE,E0053652,Ketton,,,,,,,0,UKOS,497855,304371,-0.555698,52.628305,BCT,HAR,TIP,,,,049,2002-12-10T00:00:00.000,2015-04-20T13:29:02.394,4,revise,active
268060069,rtladmgj,,,Main Street,,,,Bus Shelter,,Main Street,,,,outside,,W,E0053670,Seaton,,,,,,,0,UKOS,490373,298295,-0.667863,52.574993,BCT,MKD,TIP,,,,049,2002-12-10T00:00:00.000,2013-05-16T17:01:42.000,3,revise,active
268060070,rtladgmt,,,Church Road,,,,Crossroads,,Luffenham Road,,,,adj,,W,E0053652,Ketton,,,,,,,0,UKOS,497928,304226,-0.554663,52.626989,BCT,MKD,TIP,,,,049,2002-12-10T00:00:00.000,2014-11-17T11:19:02.000,12,revise,active
268060071,rtladajt,,,Telephone Box,,,,Telephone Box,,Main Street,,,,outside,,W,E0053634,Bisbrooke,,,,,,,1,UKOS,488672,299693,-0.692583,52.587837,BCT,CUS,TIP,,,,049,2002-12-10T00:00:00.000,2013-05-15T10:41:04.000,3,revise,active
268060072,rtladmpw,,,Church,,,,Tinwell Church,,Stamford Road,,,,outside,,W,E0053678,Tinwell,,,,,,,1,UKOS,500618,306404,-0.514273,52.646071,BCT,MKD,TIP,,,,049,2002-12-10T00:00:00.000,2013-05-16T16:43:38.000,4,revise,active
268060073,rtladmtp,,,North Street East,,,,Park Gates,,North Street East,,,,Bay 1,,E,E0053680,Uppingham,,,,,,,1,UKOS,486775,299789,-0.720551,52.589005,BCT,MKD,TIP,,,,049,2002-12-10T00:00:00.000,2014-12-22T14:16:51.441,7,revise,active
268060074,rtladgmd,,,Sewage Works,,,,Sewage Works,,Stamford Road,,,,opp,,W,E0053664,Oakham,,,,,,,0,UKOS,487359,308555,-0.709618,52.667697,BCT,HAR,TIP,,,,049,2002-12-10T00:00:00.000,2015-07-31T10:14:38.004,13,revise,active
268060075,rtladmpj,,,Toll Barr,,,,Village Green,,Greetham Road,,,,opp,,SW,E0053640,Cottesmore,,,,,,,0,UKOS,490710,313625,-0.658684,52.712713,BCT,HAR,OTH,,,,049,2002-12-10T00:00:00.000,2014-03-28T15:49:38.090,4,revise,active
268060076,rtladpdp,,,The Noel,,,,The Noel Public House,,A606 Stamford Road,,,,adj,,E,E0053683,Whitwell,,,,,,,0,UKOS,492600,308742,-0.632087,52.668509,BCT,MKD,TIP,,,,049,2002-12-10T00:00:00.000,2011-11-29T16:00:45.000,4,revise,active
268060077,rtladgjm,,,The Plough,,,,The Plough,,Old Great North Road,,,,opp,,NW,E0053647,Great Casterton,,,,,,,1,UKOS,499871,309177,-0.524471,52.67113,BCT,MKD,TIP,,,,049,2002-12-10T00:00:00.000,2016-01-20T16:43:17.365,3,revise,active
268060078,rtladawm,,,Exton Road,,,,Old Forge,,Main Street,,,,adj,,E,E0053643,Empingham,,,,,,,0,UKOS,494888,308622,-0.598298,52.667036,BCT,MKD,TIP,,,,049,2002-12-10T00:00:00.000,2013-06-26T15:33:59.000,5,revise,active
268060079,rtladmpm,,,Bus Shelter,,,,Bus Shelter,,Exton Road,,,,adj,,NW,E0053677,Tickencote,,,,,,,0,UKOS,499033,309709,-0.5367,52.676064,BCT,MKD,TIP,,,,049,2002-12-10T00:00:00.000,2008-11-06T00:00:00.000,3,revise,active
268060080,rtladmpt,,,Bus Shelter,,,,Junction,,Exton Road,,,,opp,,SE,E0053677,Tickencote,,,,,,,0,UKOS,499044,309720,-0.536534,52.676161,BCT,MKD,TIP,,,,049,2002-12-10T00:00:00.000,2009-02-19T00:00:00.000,3,revise,active
268060081,rtladawp,,,Exton Road,,,,Old Forge,,Main Street,,,,opp,,W,E0053643,Empingham,,,,,,,0,UKOS,494913,308622,-0.597929,52.667031,BCT,MKD,TIP,,,,049,2002-12-10T00:00:00.000,2013-06-26T15:33:19.000,5,revise,active
268060082,rtladgjg,,,The Plough,,,,The Plough PH,,Old Great North Road,,,,outside,,SE,E0053647,Great Casterton,,,,,,,0,UKOS,499941,309165,-0.52344,52.671009,BCT,MKD,TIP,,,,049,2002-12-10T00:00:00.000,2013-04-25T10:00:26.000,3,revise,active
268060083,rtladpdt,,,The Noel,,,,The Noel Public House,,A606 Stamford Road,,,,opp,,W,E0053683,Whitwell,,,,,,,0,UKOS,492587,308723,-0.632285,52.668341,BCT,CUS,TIP,,,,049,2002-12-10T00:00:00.000,2011-11-29T16:01:03.000,3,revise,active
268060084,rtladapj,,,Holme Close,,,,Holme Close,,Casterton Lane,,,,adj,,S,E0053678,Tinwell,,,,,,,0,UKOS,500491,306520,-0.516114,52.647137,BCT,HAR,OTH,,,,049,2002-12-10T00:00:00.000,2014-02-13T09:43:01.361,5,revise,active
268060085,rtladgmg,,,Upper Hambleton Village,,,,Church,,Upper Hambleton,,,,outside,,NW,E0053650,Hambleton,,,,,,,0,UKOS,490016,307591,-0.670602,52.658599,BCT,CUS,TIP,,,,049,2002-12-10T00:00:00.000,2009-10-07T00:00:00.000,4,revise,active
268060086,rtladmjp,,,Rookery Lane,,,,Rookery Lane,,Manor Road,,,,opp,,E,E0053673,Stretton,,,,,,,1,UKOS,494913,315875,-0.595838,52.732215,BCT,CUS,OTH,,,,049,2002-12-10T00:00:00.000,2013-10-01T12:36:22.000,13,revise,active
268060087,rtladmjm,,,Rookery Lane,,,,Bus Shelter,,Manor Road,,,,adj,,NW,E0053673,Stretton,,,,,,,0,UKOS,494899,315865,-0.596049,52.732127,BCT,MKD,TIP,,,,049,2002-12-10T00:00:00.000,2010-11-30T00:00:00.000,4,revise,active
268060088,rtladjwj,,,Market Place,,,,Barclays Bank,,High Street,,,,opp,,W,E0053664,Oakham,,,,,,,0,UKOS,486147,308739,-0.727487,52.669545,BCT,MKD,TIP,,,,049,2002-12-10T00:00:00.000,2013-05-16T17:02:04.000,6,revise,active
268060089,rtladpmj,,,Rutland Way,,,,Library,,Church Street,,,,adj,,W,E0053669,Ryhall,,,,,,,0,UKOS,503636,310688,-0.468338,52.684003,BCT,HAR,TIP,,,,049,2002-12-10T00:00:00.000,2014-10-02T09:10:41.000,33,revise,active
268060090,rtladjmp,,,Manor Lane,,,,Manor Lane,,Melton Road,,,,opp,,NW,E0053653,Langham,,,,,,,0,UKOS,483887,311216,-0.76027,52.692161,BCT,HAR,TIP,,,,049,2002-12-10T00:00:00.000,2013-05-17T12:24:40.000,12,revise,active
268060091,rtladjmg,,,Market Place,,,,Market Place,,High Street,,,,adj,,E,E0053664,Oakham,,,,,,,0,UKOS,486149,308755,-0.727454,52.669688,BCT,MKD,TIP,,,,049,2002-12-10T00:00:00.000,2013-05-20T10:15:49.000,7,revise,active
268060092,rtladpaw,,,Station Road,,,,Methodist Church,,Main Street,,,,opp,,W,E0053682,Whissendine,,,,,,,0,UKOS,483418,314251,-0.766438,52.719511,BCT,CUS,OTH,,,,049,2005-07-26T00:00:00.000,2010-10-21T00:00:00.000,3,revise,active
268060093,rtladjmj,,,Bus Station,,,,New Street,,John Street,,,,adjacent,,E,E0053664,Oakham,,,,,,,1,UKOS,485844,308754,-0.7319576,52.6697306,BCT,MKD,TIP,,,,049,2002-12-10T00:00:00.000,2014-05-06T16:01:41.533,3,revise,active
268060094,rtladjgw,,,Vale of Catmose College,,,,Vale of Catmose College,,Cold Overton Road,,,,opp,,W,E0053664,Oakham,,,,,,,0,UKOS,485184,308865,-0.741692,52.670829,BCT,CUS,TIP,,,,049,2002-12-10T00:00:00.000,2016-01-20T16:39:34.703,3,revise,active
268060095,rtladpdj,,,Rutland Water Visitor Centre,,,,Rutland Water Visitor Centre,,Whitwell Road,,,,opp,,E,E0053683,Whitwell,,,,,,,0,UKOS,494446,308627,-0.604831,52.667158,BCT,MKD,OTH,,,,049,2005-07-27T00:00:00.000,2011-11-29T15:51:54.000,11,revise,active
268060096,rtladagw,,,Kings Lane,,,,Kings Lane,,Wheel Lane,,,,adj,,N,E0053631,Barrowden,,,,,,,1,UKOS,494987,300066,-0.599292,52.590124,BCT,CUS,OTH,,,,049,2002-12-10T00:00:00.000,2014-10-15T13:34:32.000,6,revise,active
268060097,rtladpmd,,,Lands End Way,,,,,,Bosal Road,,,,S Bound,,S,E0053664,Oakham,,,,,,,0,UKOS,485390,309943,-0.738367,52.680485,BCT,CUS,OTH,,,,049,2002-12-10T00:00:00.000,2011-09-01T10:27:29.000,8,revise,active
268060098,rtladpdg,,,Station Road,,,,Methodist Church,,Main Street,,,,adj,,E,E0053682,Whissendine,,,,,,,0,UKOS,483254,314286,-0.768857,52.719851,BCT,MKD,OTH,,,,049,2005-07-26T00:00:00.000,2013-11-25T11:36:08.000,7,revise,active
268060099,rtladpma,,,Lands End Way,,,,,,Bosal Road,,,,N bound,,N,E0053664,Oakham,,,,,,,0,UKOS,485330,310045,-0.739228,52.681411,BCT,CUS,OTH,,,,049,2005-03-01T00:00:00.000,2011-09-01T10:27:46.000,8,revise,active
268060100,rtladjmd,,,Lonsdale Way,,,,Lonsdale Way,,Glebe Way,,,,adj,,SE,E0053664,Oakham,,,,,,,0,UKOS,484893,308560,-0.746073,52.668133,BCT,MKD,TIP,,,,049,2002-12-10T00:00:00.000,2011-09-01T12:07:58.000,3,revise,active
268060101,rtladjpm,,,Grampian Way,,,,Grampian Way,,Snowden Avenue,,,,adj,,S,E0053664,Oakham,,,,,,,0,UKOS,485015,308812,-0.744204,52.670379,BCT,MKD,OTH,,,,049,2002-12-10T00:00:00.000,2012-01-19T11:37:09.000,5,revise,active
268060102,rtladjgj,,,Harrington Way,,,,Harrington Way,,Braunston Road,,,,opp,,NE,E0053664,Oakham,,,,,,,0,UKOS,485047,308347,-0.743851,52.666195,BCT,MKD,OTH,,,,049,2002-12-10T00:00:00.000,2012-08-29T08:50:47.000,3,revise,active
268060103,rtladpam,,,Main Street,,,,Wardley Village turn,,Uppingham Road A47,,,,adj,,W,E0053681,Wardley,,,,,,,0,UKOS,482971,300298,-0.77656,52.594173,BCT,CUS,OTH,,,,049,2005-07-26T00:00:00.000,2014-10-21T15:40:38.000,2,revise,active
268060104,rtladjpw,,,Station Approach,,,,Railway Station,,Station Road,,,,adj,,NE,E0053664,Oakham,,,,,,,0,UKOS,485704,309045,-0.733957,52.672365,BCT,CUS,OTH,,,,049,2005-08-04T00:00:00.000,2012-01-19T12:24:20.000,6,revise,active
268060105,rtladpaj,,,Main Street,,,,Wardley Village turn,,Uppingham Road A47,,,,opp,,E,E0053681,Wardley,,,,,,,0,UKOS,483062,300336,-0.775208,52.594501,BCT,CUS,OTH,,,,049,2005-07-26T00:00:00.000,2014-10-21T15:39:22.000,2,revise,active
268060106,rtladgdp,,,College,,,,College,,Ryhall Road,,,,outside,,NE,E0053647,Great Casterton,,,,,,,0,UKOS,500346,309400,-0.517381,52.673046,BCT,CUS,PPT,,,,049,2006-03-23T00:00:00.000,2010-11-30T00:00:00.000,2,revise,active
268060107,rtladjgm,,,Harrington Way,,,,Harrington Way,,Braunston Road,,,,adj,,SW,E0053664,Oakham,,,,,,,0,UKOS,485027,308319,-0.744154,52.665946,BCT,MKD,OTH,,,,049,2002-12-10T00:00:00.000,2010-11-30T00:00:00.000,2,revise,active
268060108,rtladjpt,,,Tesco,,,,Tesco,,South Street,,,,outside,,W,E0053664,Oakham,,,,,,,0,UKOS,485832,308631,-0.732172,52.668624,BCT,MKD,PPT,,,,049,2006-06-20T00:00:00.000,2007-03-19T00:00:00.000,1,revise,active
268060109,rtladjpa,,,Pillings Road,,,,Pillings Road,,Pillings Road,,,,adj,,S,E0053664,Oakham,,,,,,,0,UKOS,485530,309713,-0.7363513,52.6783994,BCT,HAR,PPT,,,,049,2006-06-20T00:00:00.000,2015-07-31T10:11:41.752,7,revise,active
268060110,rtladjmt,,,Allotments,,,,Allotments,,Lands End Way,,,,opp,,N,E0053664,Oakham,,,,,,,0,UKOS,485585,309390,-0.735627,52.675484,BCT,HAR,PPT,,,,049,2006-06-20T00:00:00.000,2016-01-20T16:28:10.208,6,revise,active
268060111,rtladjmw,,,Allotments,,,,Allotments,,Lands End Way,,,,outside,,S,E0053664,Oakham,,,,,,,0,UKOS,485612,309359,-0.735236,52.675202,BCT,HAR,PPT,,,,049,2006-06-20T00:00:00.000,2014-02-19T16:27:44.000,5,revise,active
268060112,rtladjtd,,,Trent Road,,,,Irwell Close,,Trent Road,,,,opp,,SW,E0053664,Oakham,,,,,,,0,UKOS,485313,308091,-0.739985,52.663852,BCT,CUS,TIP,,,,049,2002-12-10T00:00:00.000,2010-11-30T00:00:00.000,2,revise,active
268060113,rtladjma,,,Memorial Hospital,,,,Memorial Hospital,,Cold Overton Road,,,,opp,,W,E0053664,Oakham,,,,,,,0,UKOS,485502,308877,-0.736987,52.670887,BCT,CUS,PPT,,,,049,2006-06-20T00:00:00.000,2011-09-01T11:53:44.000,4,revise,active
268060116,rtladjta,,,Spey Drive,,,,Spey Drive,,Trent Road,,,,opp,,NE,E0053664,Oakham,,,,,,,0,UKOS,485380,307918,-0.739039,52.662287,BCT,MKD,OTH,,,,049,2005-05-06T00:00:00.000,2011-09-01T11:58:01.000,3,revise,active
268060118,rtladjtg,,,Sewage Works,,,,Sewage Works,,Stamford Road,,,,adj,,E,E0053664,Oakham,,,,,,,0,UKOS,487448,308578,-0.708296,52.66789,BCT,HAR,TIP,,,,049,2002-12-10T00:00:00.000,2013-06-12T13:58:20.000,9,revise,active
268060120,rtladjwt,,,Willow Crescent,,,,garages,,Willow Crescent,,,,adj,,W,E0053664,Oakham,,,,,,,0,UKOS,486694,309002,-0.719331,52.671821,BCT,MKD,OTH,,,,049,2002-12-10T00:00:00.000,2016-01-20T16:42:16.338,2,revise,active
268060123,rtladmag,,,Beech Road,,,,Beech Road,,Woodland View,,,,adj,,E,E0053664,Oakham,,,,,,,0,UKOS,486624,309137,-0.720331,52.673046,BCT,MKD,OTH,,,,049,2002-12-10T00:00:00.000,2011-09-01T11:00:14.000,3,revise,active
268060125,rtladmad,,,English Martyrs,,,,English Martyrs,,Willow Crescent,,,,near,,N,E0053664,Oakham,,,,,,,0,UKOS,486536,309109,-0.721639,52.672808,BCT,MKD,OTH,,,,049,2002-12-10T00:00:00.000,2007-03-19T00:00:00.000,1,revise,active
268060126,rtladjtj,,,Chip Shop,,,,Chip shop,,Ashwell Road,,,,opp,,S,E0053664,Oakham,,,,,,,0,UKOS,486278,309209,-0.725428,52.673748,BCT,MKD,OTH,,,,049,2002-12-10T00:00:00.000,2012-01-19T11:11:31.000,4,revise,active
268060127,rtladpdm,,,Rutland Water Visitor Centre,,,,Rutland Water Vistor Centre,,Whitwell Road,,,,adj,,W,E0053683,Whitwell,,,,,,,0,UKOS,494381,308593,-0.605801,52.666863,BCT,MKD,OTH,,,,049,2005-07-27T00:00:00.000,2011-11-29T15:52:14.000,9,revise,active
268060128,rtladjwg,,,Oakfield,,,,Springfield Way,,Foxfield Way,,,,opp,,S,E0053664,Oakham,,,,,,,0,UKOS,486275,309759,-0.725328,52.678692,BCT,HAR,TIP,,,,049,2002-12-10T00:00:00.000,2012-08-29T08:47:49.000,4,revise,active
268060130,rtladjga,,,Huntsmans Drive,,,,Rear Entrance Pillings Road,,Barleythorpe Road,,,,adj,,W,E0053664,Oakham,,,,,,,0,UKOS,485414,309274,-0.7381804,52.6744721,BCT,HAR,TIP,,,,049,2002-12-10T00:00:00.000,2014-10-15T10:58:06.570,5,revise,active
268060131,rtladjtm,,,Standlands,,,,Standlands,,Melton Road,,,,opp,,W,E0053682,Whissendine,,,,,,,0,UKOS,482164,314301,-0.784987,52.720152,BCT,HAR,OTH,,,,049,2002-12-10T00:00:00.000,2013-05-17T12:22:11.000,12,revise,active
268060132,rtladmtj,,,Ayston Road,,,,car park,,Ayston Road,,,,opp,,N,E0053680,Uppingham,,,,,,,1,UKOS,486611,299851,-0.722955,52.589589,BCT,MKD,TIP,,,,049,2002-12-10T00:00:00.000,2014-10-21T15:29:14.000,6,revise,active
268060133,rtladmtm,,,Ayston Road,,,,car park entrance,,Ayston Road,,,,adj,,S,E0053680,Uppingham,,,,,,,1,UKOS,486629,299849,-0.72269,52.589568,BCT,MKD,TIP,,,,049,2002-12-10T00:00:00.000,2014-10-21T15:37:47.000,5,revise,active
268060134,rtladamd,,,The Blue Ball,,,,The Blue Ball Public House,,Cedar Street,,,,opp,,NW,E0053635,Braunston-in-Rutland,,,,,,,0,UKOS,483268,306616,-0.770587,52.650913,BCT,MKD,TIP,,,,049,2002-12-10T00:00:00.000,2013-05-15T10:56:02.000,6,revise,active
268060135,rtladama,,,The Blue Ball,,,,The Blue Ball Public House,,Cedar Street,,,,adj,,SE,E0053635,Braunston-in-Rutland,,,,,,,0,UKOS,483286,306630,-0.770317,52.651036,BCT,HAR,TIP,,,,049,2002-12-10T00:00:00.000,2012-08-28T15:05:53.000,10,revise,active
268060136,rtladjaw,,,North Street East,,,,Gainsborough Road,,North Street East,,,,Bay 2,,W,E0053680,Uppingham,,,,,,,0,UKOS,486751,299778,-0.720915,52.588912,BCT,CUS,TIP,,,,049,2002-12-10T00:00:00.000,2014-12-22T14:19:26.579,8,revise,active
268060137,rtladjda,,,Bus Dept,,,,Essendine Road,,A6121,,,,outside,,NE,E0053669,Ryhall,,,,,,,0,UKOS,503825,311700,-0.465217,52.693062,BCT,CUS,TIP,,,,049,2002-12-10T00:00:00.000,2014-02-04T11:19:58.101,5,revise,active
268060138,rtladmtg,,,Cycle Shop,,,,Cycle Shop Car Park,,Bull Brig Lane,,,,adj,,N,E0053683,Whitwell,,,,,,,0,UKOS,492319,308304,-0.636357,52.664624,BCT,HAR,TIP,,,,049,2002-12-10T00:00:00.000,2016-06-29T12:30:42.705,13,revise,active
268060139,rtladmtd,,,Car Park,,,,Car Park,,Normanton Road,,,,opp,,SE,E0053641,Edith Weston,,,,,,,0,UKOS,493084,305679,-0.625796,52.640899,BCT,HAR,TIP,,,,049,2002-12-10T00:00:00.000,2013-06-26T15:39:52.000,13,revise,active
268060140,rtladgaw,,,Garden Road,,,,Garden Road,,Stamford Road,,,,adj,,SE,E0053645,Exton,,,,,,,0,UKOS,492736,311109,-0.629411,52.689759,BCT,HAR,TIP,,,,049,2002-12-10T00:00:00.000,2012-08-28T16:27:48.000,5,revise,active
268060141,rtladgda,,,Garden Road,,,,Garden Road,,Stamford Road,,,,opposite,,NW,E0053645,Exton,,,,,,,0,UKOS,492724,311106,-0.62959,52.689734,BCT,HAR,TIP,,,,049,2002-12-10T00:00:00.000,2012-08-28T16:29:34.000,3,revise,active
268060142,rtladmjg,,,Stocken Prison,,,,Hesketh Court,,Stocken Hall Road,,,,corner,,SW,E0053673,Stretton,,,,,,,0,UKOS,495253,317367,-0.590372,52.745563,BCT,MKD,TIP,,,,049,2002-12-10T00:00:00.000,2009-02-24T00:00:00.000,2,revise,active
268060143,rtladmjd,,,Stocken Prison,,,,Hesketh Court,,Hesketh Court,,,,opp,,E,E0053673,Stretton,,,,,,,0,UKOS,495237,317375,-0.590607,52.745638,BCT,MKD,TIP,,,,049,2002-12-10T00:00:00.000,2016-01-20T16:46:34.792,5,revise,active
268060144,rtladjpg,,,Co-op Superstore,,,,Co-op Superstore,,Burley Road,,,,adjacent,,NE,E0053637,Burley,,,,,,,0,UKOS,486979,309870,-0.714889,52.679577,BCT,MKD,TIP,,,,049,2002-12-10T00:00:00.000,2012-01-19T12:14:09.000,4,revise,active
268060145,rtladjpd,,,Rail Station,,,,Rail Station,,Station Road,,,,SW bound,,SW,E0053664,Oakham,,,,,,,1,UKOS,485704,308997,-0.73397,52.671934,BCT,HAR,TIP,,,,049,2002-12-10T00:00:00.000,2014-11-24T16:19:41.231,15,revise,active
268060146,rtladjdt,,,Kings Road,,,,Kings Road,,Digby Road,,,,adjacent,,E,E0053663,North Luffenham,,,,,,,1,UKOS,493804,303220,-0.615856,52.618675,BCT,MKD,TIP,,,,049,2002-12-10T00:00:00.000,2012-08-29T09:05:53.000,3,revise,active
268060147,rtladjdw,,,Kings Road,,,,Kings Road,,Digby Road,,,,opposite,,W,E0053663,North Luffenham,,,,,,,0,UKOS,493803,303204,-0.615875,52.618532,BCT,MKD,TIP,,,,049,2002-12-10T00:00:00.000,2012-08-29T09:07:22.000,2,revise,active
268060148,rtladgwd,,,Church,,,,Church,,Church Road,,,,opp,,SE,E0053657,Lyndon,,,,,,,0,UKOS,490780,304472,-0.660167,52.630441,BCT,CUS,TIP,,,,049,2002-12-10T00:00:00.000,2013-10-01T12:38:52.000,7,revise,active
268060149,rtladgwa,,,Bus Interchange,,,,Church,,Church Street,,,,opp,,E,E0053669,Ryhall,,,,,,,0,UKOS,503627,310703,-0.468466,52.684139,BCT,HAR,TIP,,,,049,2002-12-10T00:00:00.000,2014-09-25T12:03:38.180,7,revise,active
268060150,rtladaja,,,Post Office,,,,Post Office,,Church Street,,,,outside,,NE,E0053633,Belton-in-Rutland,,,,,,,1,UKOS,481593,301301,-0.796651,52.603396,BCT,MKD,TIP,,,,049,2002-12-10T00:00:00.000,2009-02-24T00:00:00.000,2,revise,active
268060151,rtladajd,,,Post Office,,,,Post Office,,Church Street,,,,opp,,SW,E0053633,Belton-in-Rutland,,,,,,,1,UKOS,481603,301298,-0.796504,52.603368,BCT,MKD,TIP,,,,049,2002-12-10T00:00:00.000,2010-08-10T00:00:00.000,3,revise,active
268060152,rtladmdj,,,Coppice Road,,,,Layby,,Stamford Road,,,,adj,,S,E0053669,Ryhall,,,,,,,0,UKOS,503321,310396,-0.473081,52.681437,BCT,CUS,OTH,,,,049,2002-12-10T00:00:00.000,2022-03-23T11:52:13.377,6,revise,active
268060153,rtladmdm,,,Coppice Road,,,,Layby,,Stamford Road,,,,opp,,N,E0053669,Ryhall,,,,,,,0,UKOS,503280,310460,-0.473672,52.68202,BCT,CUS,OTH,,,,049,2002-12-10T00:00:00.000,2022-03-23T11:50:50.347,4,revise,active
268060154,rtladmgp,,,Hall Lane,,,,Hall Lane,,Stamford Road,,,,opp,,SW,E0053671,South Luffenham,,,,,,,0,UKOS,494297,301835,-0.608971,52.606143,BCT,MKD,OTH,,,,049,2005-07-26T00:00:00.000,2009-02-25T00:00:00.000,2,revise,active
268060155,rtladmgt,,,Hall Lane,,,,Highfield Cottages,,Stamford Road,,,,adj,,NE,E0053671,South Luffenham,,,,,,,0,UKOS,494332,301886,-0.60844,52.606595,BCT,MKD,OTH,,,,049,2005-07-26T00:00:00.000,2009-02-25T00:00:00.000,2,revise,active
268060156,rtladgap,,,Village Hall,,,,Village Hall,,Stamford Road,,,,outside,,N,E0053644,Essendine,,,,,,,1,UKOS,504589,312623,-0.453631,52.701209,BCT,MKD,TIP,,,,049,2002-12-10T00:00:00.000,2007-03-19T00:00:00.000,1,revise,active
268060157,rtladgam,,,Village Hall,,,,Village Hall,,Stamford Road,,,,opp,,SW,E0053644,Essendine,,,,,,,0,UKOS,504579,312559,-0.453799,52.700635,BCT,MKD,TIP,,,,049,2002-12-10T00:00:00.000,2008-11-03T00:00:00.000,3,revise,active
268060158,rtladmpg,,,Toll Bar,,,,Village Green,,Greetham Road,,,,adj,,NE,E0053640,Cottesmore,,,,,,,0,UKOS,490710,313645,-0.658678,52.712893,BCT,HAR,OTH,,,,049,2002-12-10T00:00:00.000,2014-03-28T15:44:54.037,4,revise,active
268060160,rtladmam,,,The Nook,,,,outside 55,,Main Street,,,,adj,,W,E0053682,Whissendine,,,,,,,0,UKOS,482792,314211,-0.775714,52.719247,BCT,MKD,TIP,,,,049,2002-12-10T00:00:00.000,2014-10-06T13:57:10.162,7,revise,active
268060161,rtladmaj,,,Church,,,,Church,,Pickworth Road,,,,opp,,NE,E0053665,Pickworth,,,,,,,0,UKOS,499517,313787,-0.528312,52.712624,BCT,CUS,TIP,,,,049,2002-12-10T00:00:00.000,2013-10-01T12:45:11.000,6,revise,active
268060162,rtladjgd,,,Huntsmans Drive,,,,Rear entrance,,Barleythorpe Road,,,,opp,,E,E0053664,Oakham,,,,,,,0,UKOS,485398,309302,-0.7384097,52.6747263,BCT,MKD,OTH,,,,049,2001-10-29T00:00:00.000,2014-05-07T11:39:17.360,3,revise,active
268060163,rtladjwa,,,Cemetery Lane,,,,Wing Road,,Lyndon Road,,,,opp,,W,E0053658,Manton,,,,,,,0,UKOS,487828,304443,-0.703778,52.630665,BCT,MKD,TIP,,,,049,2002-12-10T00:00:00.000,2014-09-25T10:13:32.590,17,revise,active
268060164,rtladjgt,,,Rail Station,,,,Rail Station,,Station Road,,,,outside,,NE,E0053664,Oakham,,,,,,,0,UKOS,485702,309012,-0.733995,52.672069,BCT,CUS,TIP,,,,049,2002-12-10T00:00:00.000,2014-11-17T11:36:08.999,7,revise,active
268060165,rtladjtw,,,Ladywell,,,,Ladywell,,Burley Road,,,,adj,,SW,E0053664,Oakham,,,,,,,0,UKOS,486636,309346,-0.720098,52.674922,BCT,MKD,OTH,,,,049,2005-05-05T00:00:00.000,2011-09-01T11:08:41.000,6,revise,active
268060166,rtladmgd,,,opp Bus Shelter,,,,Bus Shelter,,Main Street,,,,opposite,,W,E0053670,Seaton,,,,,,,0,UKOS,490376,298303,-0.667817,52.575064,BCT,CUS,TIP,,,,049,2002-12-10T00:00:00.000,2008-06-26T00:00:00.000,2,revise,active
268060167,rtladawg,,,Hambleton Road,,,,Egleton Turn,,A6003,,,,opp,,N,E0053642,Egleton,,,,,,,0,UKOS,486851,307129,-0.717503,52.654962,BCT,CUS,OTH,,,,049,2005-08-04T00:00:00.000,2014-10-21T14:54:38.000,7,revise,active
268060168,rtladawj,,,Hambleton Road,,,,Egleton Turn,,A6003,,,,adj,,S,E0053642,Egleton,,,,,,,0,UKOS,486865,307137,-0.717294,52.655032,BCT,CUS,OTH,,,,049,2005-08-04T00:00:00.000,2014-10-21T14:54:12.000,5,revise,active
268060170,rtladgmw,,,Stock's Hill,,,,Crossroads,,High Street,,,,adj,,SW,E0053652,Ketton,,,,,,,0,UKOS,498031,304345,-0.553107,52.62804,BCT,HAR,TIP,,,,049,2003-12-12T00:00:00.000,2014-10-21T15:10:36.000,5,revise,active
268060171,rtladjwp,,,Council Offices,,,,Council Offices,,Catmos Road,,,,opp,,N,E0053664,Oakham,,,,,,,0,UKOS,486290,308593,-0.725411,52.66821,BCT,MKD,OTH,,,,049,2005-07-27T00:00:00.000,2019-09-23T12:21:08.056,4,revise,active
268060172,rtladjwm,,,Council Offices,,,,Council Offices,,Catmos Street,,,,outside,,S,E0053664,Oakham,,,,,,,0,UKOS,486307,308591,-0.725161,52.668189,BCT,MKD,OTH,,,,049,2005-07-27T00:00:00.000,2019-09-23T12:22:10.174,4,revise,active
268060173,rtladmwt,,,Shepherd's Way,,,,Shepherd's Way,,Leicester Road,,,,opp,,NW,E0053680,Uppingham,,,,,,,0,UKOS,485655,300334,-0.736938,52.594081,BCT,MKD,TIP,,,,049,2005-02-14T00:00:00.000,2010-04-07T00:00:00.000,2,revise,active
268060174,rtladmwm,,,Shepherd's Way,,,,Shepherd's Way,,Leicester Road,,,,adj,,SE,E0053680,Uppingham,,,,,,,0,UKOS,485702,300314,-0.73625,52.593894,BCT,MKD,TIP,,,,049,2005-02-14T00:00:00.000,2012-08-28T16:17:32.000,3,revise,active
268060175,rtladmwp,,,Queen's Road,,,,Queen's Road,,Leicester Road,,,,opp,,NW,E0053680,Uppingham,,,,,,,0,UKOS,486175,299841,-0.729392,52.589568,BCT,MKD,OTH,,,,049,2005-02-14T00:00:00.000,2010-04-07T00:00:00.000,2,revise,active
268060176,rtladmwj,,,Queen's Road,,,,Queen's Road,,Leicester Road,,,,adj,,SE,E0053680,Uppingham,,,,,,,0,UKOS,486153,299888,-0.729704,52.589994,BCT,MKD,OTH,,,,049,2005-02-14T00:00:00.000,2012-08-28T16:13:06.000,3,revise,active
268060177,rtladptw,,,Barnsdale Avenue,,,,Barnsdale Avenue,,A606,,,,opp,,W,E0041726,Barnsdale Hill,,,,,,,0,UKOS,490679,309301,-0.660333,52.673857,BCT,HAR,OTH,,,,049,2003-12-12T00:00:00.000,2015-07-27T11:32:04.900,12,revise,active
268060178,rtladpmw,,,Barnsdale Gardens,,,,Barnsdale Gardens,,Barnsdale Avenue,,,,adj,,N,E0041726,Barnsdale Hill,,,,,,,0,UKOS,491300,310793,-0.6507304,52.6871654,BCT,MKD,OTH,,,,049,2003-12-12T00:00:00.000,2014-10-14T14:02:48.532,9,revise,active
268060179,rtladpjg,,,Car Park,,,,Car Park,,Normanton Road,,,,adj,,NE,E0053641,Edith Weston,,,,,,,0,UKOS,493057,305667,-0.626198,52.640795,BCT,HAR,OTH,,,,049,2008-04-22T00:00:00.000,2013-06-26T15:23:15.000,12,revise,active
268060180,rtladagm,,,Holme Close,,,,Green,,Casterton Lane,,,,opp,,N,E0053678,Tinwell,,,,,,,1,UKOS,500478,306486,-0.51632,52.646833,BCT,HAR,OTH,,,,049,2005-03-01T00:00:00.000,2014-02-13T09:07:12.212,3,revise,active
268060181,rtladajg,,,Main Street,,,,Main Street,,New Road,,,,adj,,S,E0053633,Belton-in-Rutland,,,,,,,0,UKOS,481497,301109,-0.798116,52.601685,BCT,CUS,TIP,,,,049,2005-03-02T00:00:00.000,2011-10-18T14:49:02.000,4,revise,active
268060182,rtladajm,,,Main Street,,,,Main Street,,New Road,,,,opp,,N,E0053633,Belton-in-Rutland,,,,,,,0,UKOS,481481,301110,-0.798352,52.601696,BCT,HAR,TIP,,,,049,2005-03-02T00:00:00.000,2012-08-28T16:46:06.000,4,revise,active
268060183,rtladajp,,,Littleworth Lane,,,,Littleworth Lane,,Leicester Road,,,,adj,,W,E0053633,Belton-in-Rutland,,,,,,,0,UKOS,481950,300646,-0.791543,52.597456,BCT,CUS,OTH,,,,049,2005-03-02T00:00:00.000,2010-11-30T00:00:00.000,2,revise,active
268060184,rtladapa,,,Plough Inn,,,,Plough Inn,,Main Street,,,,outside,,E,E0053638,Caldecott,,,,,,,1,UKOS,486813,293545,-0.721623,52.53288,BCT,HAR,OTH,,,,049,2005-03-03T00:00:00.000,2012-05-02T16:44:18.000,3,revise,active
268060185,rtladapg,,,Plough Inn,,,,Plough Inn,,Main Street,,,,opp,,W,E0053638,Caldecott,,,,,,,0,UKOS,486817,293526,-0.721569,52.532709,BCT,HAR,OTH,,,,049,2005-03-03T00:00:00.000,2012-05-02T16:45:28.000,3,revise,active
268060186,rtladamt,,,Welland Close,,,,Welland Close,,Lyddington Road,,,,corner,,SW,E0053638,Caldecott,,,,,,,0,UKOS,487010,293700,-0.718679,52.534242,BCT,CUS,OTH,,,,049,2005-03-03T00:00:00.000,2007-03-19T00:00:00.000,1,revise,active
268060187,rtladamw,,,Welland Close,,,,Welland Close,,Lyddington Road,,,,opp,,NE,E0053638,Caldecott,,,,,,,0,UKOS,486992,293707,-0.718942,52.534307,BCT,HAR,OTH,,,,049,2005-03-03T00:00:00.000,2012-05-02T16:36:21.000,3,revise,active
268060188,rtladapm,,,New Road,,,,New Road,,New Road,,,,adj,,E,E0053639,Clipsham,,,,,,,1,UKOS,496987,316233,-0.565029,52.735064,BCT,CUS,OTH,,,,049,2005-03-03T00:00:00.000,2013-09-27T15:36:42.000,7,revise,active
268060189,rtladapt,,,Sun Inn,,,,Sun Inn,,Main Street,,,,outside,,SW,E0053640,Cottesmore,,,,,,,0,UKOS,490144,313494,-0.667096,52.71163,BCT,HAR,OTH,,,,049,2005-03-11T00:00:00.000,2014-10-14T16:19:05.000,2,revise,active
268060190,rtladatg,,,Heath Drive,,,,Heath Drive,,Rogues Lane,,,,opp,,N,E0053640,Cottesmore,,,,,,,1,UKOS,490609,313843,-0.660118,52.71469,BCT,MKD,TIP,,,,049,2005-03-11T00:00:00.000,2015-06-23T12:42:59.980,3,revise,active
268060191,rtladpmt,,,Nature Reserve,,,,Lyndon Wood,,Lyndon Road,,,,opp,,SW,E0053657,Lyndon,,,,,,,0,UKOS,489798,304970,-0.674536,52.635079,BCT,MKD,OTH,,,,049,2005-03-11T00:00:00.000,2014-09-25T09:29:52.814,12,revise,active
268060192,rtladapw,,,Village Shop,,,,shop,,Main Street,,,,outside,,NE,E0053640,Cottesmore,,,,,,,0,UKOS,490226,313586,-0.665864,52.712447,BCT,HAR,OTH,,,,049,2005-03-11T00:00:00.000,2014-10-14T16:16:54.254,3,revise,active
268060193,rtladatj,,,Wheatsheaf,,,,Whestsheaf,,Manton Road,,,,outside,,E,E0053641,Edith Weston,,,,,,,1,UKOS,492803,305137,-0.630099,52.636076,BCT,CUS,OTH,,,,049,2005-03-11T00:00:00.000,2013-06-26T15:23:55.000,4,revise,active
268060194,rtladatp,,,Mendip Road,,,,Mendip Road,,Pennine Drive,,,,opp,,W,E0053641,Edith Weston,,,,,,,0,UKOS,493217,305156,-0.623978,52.636175,BCT,CUS,OTH,,,,049,2005-03-14T00:00:00.000,2011-08-11T13:36:48.000,4,revise,active
268060195,rtladawt,,,Wiloughby Drive,,,,Methodist Church,,Main Street,,,,adj,,SW,E0053643,Empingham,,,,,,,0,UKOS,495185,308716,-0.593881,52.667829,BCT,MKD,OTH,,,,049,2005-03-14T00:00:00.000,2011-11-29T16:10:25.000,4,revise,active
268060196,rtladgad,,,Wiloughby Drive,,,,Willoughby Drive,,Main Street,,,,opp,,E,E0053643,Empingham,,,,,,,0,UKOS,495258,308759,-0.592789,52.668202,BCT,MKD,OTH,,,,049,2005-03-14T00:00:00.000,2011-11-29T16:10:43.000,5,revise,active
268060197,rtladgag,,,School Lane,,,,School Lane,,Main Street,,,,opp,,NE,E0053643,Empingham,,,,,,,0,UKOS,495487,308840,-0.58938,52.66889,BCT,MKD,OTH,,,,049,2005-03-14T00:00:00.000,2011-11-29T16:09:21.000,3,revise,active
268060198,rtladgaj,,,School Lane,,,,School Lane,,Main Street,,,,adj,,SW,E0053643,Empingham,,,,,,,0,UKOS,495480,308820,-0.58949,52.668711,BCT,MKD,OTH,,,,049,2005-03-14T00:00:00.000,2011-11-29T16:08:31.000,3,revise,active
268060199,rtladgja,,,Church,,,,Church,,Old Great North Road,,,,outside,,NW,E0053647,Great Casterton,,,,,,,0,UKOS,500133,308830,-0.520703,52.667963,BCT,HAR,OTH,,,,049,2005-03-14T00:00:00.000,2012-08-28T15:38:54.000,2,revise,active
268060200,rtladgjd,,,Church,,,,Church,,Old Great North Road,,,,opp,,SE,E0053647,Great Casterton,,,,,,,0,UKOS,500125,308868,-0.52081,52.668306,BCT,MKD,OTH,,,,049,2005-03-14T00:00:00.000,2012-08-28T15:36:53.000,3,revise,active
268060201,rtladgma,,,Gunthorpe Turn,,,,Gunthorpe Turn,,Uppingham Road,,,,opp,,S,E0053649,Gunthorpe,,,,,,,1,UKOS,487374,306041,-0.710061,52.6451,BCT,CUS,OTH,,,,049,2005-03-14T00:00:00.000,2013-04-25T09:08:43.000,6,revise,active
268060202,rtladgjw,,,Gunthorpe Turn,,,,Gunthorpe Turn,,Uppingham Road,,,,adjacent,,NW,E0053649,Gunthorpe,,,,,,,1,UKOS,487404,305951,-0.709642,52.644286,BCT,CUS,OTH,,,,049,2005-03-14T00:00:00.000,2013-04-25T09:07:27.000,5,revise,active
268060203,rtladmwd,,,Wheatley Avenue,,,,Wheatley Avenue,,Ayston Road A6003,,,,opp,,N,E0053680,Uppingham,,,,,,,0,UKOS,486614,300030,-0.722864,52.591197,BCT,CUS,OTH,,,,049,2005-03-18T00:00:00.000,2012-11-21T08:08:39.000,3,revise,active
268060204,rtladmwa,,,Wheatley Avenue,,,,Wheatley Avenue,,Ayston Road A6003,,,,adj,,S,E0053680,Uppingham,,,,,,,0,UKOS,486631,300018,-0.722616,52.591087,BCT,HAR,OTH,,,,049,2005-03-18T00:00:00.000,2012-08-28T16:06:32.000,3,revise,active
268060205,rtladmwg,,,Church Lane,,,,Chruch Lane,,Normanton Road,,,,adj,,NE,E0053641,Edith Weston,,,,,,,0,UKOS,492916,305420,-0.628351,52.6386,BCT,HAR,OTH,,,,049,2005-03-18T00:00:00.000,2013-05-30T11:18:15.000,10,revise,active
268060206,rtladgpa,,,Manor Green,,,,Empingham Road,,Luffenham Road,,,,opp,,W,E0053652,Ketton,,,,,,,0,UKOS,497831,304358,-0.556057,52.628193,BCT,HAR,OTH,,,,049,2005-04-08T00:00:00.000,2015-04-30T12:17:40.092,4,revise,active
268060207,rtladgpd,,,Spinney Road,,,,Spinney Road,,Northwick Road,,,,adj,,N,E0053652,Ketton,,,,,,,0,UKOS,497670,304166,-0.558491,52.626496,BCT,HAR,OTH,,,,049,2005-04-08T00:00:00.000,2015-08-21T08:32:57.069,7,revise,active
268060208,rtladgpj,,,Bull Lane,,,,Village shop,,High Street,,,,adj,,NE,E0053652,Ketton,,,,,,,0,UKOS,498061,304699,-0.552559,52.631216,BCT,MKD,OTH,,,,049,2005-04-08T00:00:00.000,2012-08-29T11:32:12.000,7,revise,active
268060209,rtladgpg,,,Northwick Arms,,,,Northwick Arms Public House,,High Street,,,,outside,,NE,E0053652,Ketton,,,,,,,0,UKOS,498184,304834,-0.550702,52.632407,BCT,MKD,OTH,,,,049,2005-04-08T00:00:00.000,2012-08-29T11:29:55.000,3,revise,active
268060210,rtladgpm,,,Pit Lane,,,,Pit Lane,,High Street,,,,adjacent,,NE,E0053652,Ketton,,,,,,,0,UKOS,498496,305109,-0.546012,52.634822,BCT,MKD,OTH,,,,049,2005-04-18T00:00:00.000,2012-08-29T11:14:22.000,3,revise,active
268060211,rtladgpt,,,Pit Lane,,,,Pit Lane,,High Street,,,,opp,,SW,E0053652,Ketton,,,,,,,0,UKOS,498476,305073,-0.546318,52.634502,BCT,MKD,OTH,,,,049,2005-04-18T00:00:00.000,2012-08-29T11:12:52.000,4,revise,active
268060212,rtladgtg,,,Melton Road,,,,Coach House,,Melton Road,,,,westbound,,W,E0053653,Langham,,,,,,,0,UKOS,484278,310916,-0.754564,52.689404,BCT,MKD,TIP,,,,049,2005-04-18T00:00:00.000,2024-12-17T17:47:47.331,7,revise,active
268060213,rtladgwj,,,Barnsdale Lodge Hotel,,,,Barnsdale Lodge Hotel,,Barnsdale Avenue,,,,opp,,N,E0053664,Oakham,,,,,,,0,UKOS,490784,309341,-0.6587619,52.6742023,BCT,MKD,OTH,,,,049,2005-04-18T00:00:00.000,2014-10-14T14:05:00.771,11,revise,active
268060214,rtladjad,,,Church Lane,,,,Church Lane,,Normanton Road,,,,opp,,S,E0053641,Edith Weston,,,,,,,0,UKOS,492932,305423,-0.6281204,52.6386263,BCT,HAR,OTH,,,,049,2005-04-18T00:00:00.000,2016-06-29T12:29:53.985,14,revise,active
268060215,rtladjag,,,Harbour Cafe,,,,Harbour Cafe Car Park,,Bull Brig Lane,,,,adj,,N,E0053683,Whitwell,,,,,,,0,UKOS,492628,308028,-0.631874,52.662088,BCT,HAR,OTH,,,,049,2005-04-18T00:00:00.000,2013-06-26T15:13:21.000,12,revise,active
268060216,rtladjap,,,Willoughby Road,,,,Willoughby Road,,High Street,,,,adj,,E,E0053661,Morcott,,,,,,,1,UKOS,492264,300760,-0.639282,52.59683,BCT,HAR,OTH,,,,049,2005-04-18T00:00:00.000,2012-08-29T10:53:02.000,9,revise,active
268060217,rtladjat,,,Willoughby Road,,,,Willoughby Road,,High Street,,,,opp,,W,E0053661,Morcott,,,,,,,1,UKOS,492253,300747,-0.639448,52.596715,BCT,HAR,OTH,,,,049,2005-04-18T00:00:00.000,2012-08-29T10:52:49.000,7,revise,active
268060218,rtladjwd,,,Rail Station,,,,Rail Station,,Barleythorpe Road,,,,adj,,S,E0053664,Oakham,,,,,,,0,UKOS,485667,309022,-0.73451,52.672164,BCT,HAR,OTH,,,,049,2005-05-05T00:00:00.000,2012-08-29T09:04:04.000,8,revise,active
268060219,rtladjtp,,,Rail Station,,,,Rail Station,,Barleythorpe Road,,,,opp,,SE,E0053664,Oakham,,,,,,,0,UKOS,485656,308982,-0.734683,52.671806,BCT,HAR,OTH,,,,049,2005-05-05T00:00:00.000,2012-08-29T09:03:14.000,7,revise,active
268060220,rtladmja,,,Level Crossing,,,,Phone Box,,Station Road,,,,adj,,N,E0053671,South Luffenham,,,,,,,0,UKOS,494508,302652,-0.605623,52.613449,BCT,MKD,OTH,,,,049,2005-07-26T00:00:00.000,2012-08-29T09:43:32.000,3,revise,active
268060221,rtladptd,,,Church Road,,,,Church Road,,Hambleton Road,,,,adj,,E,E0053642,Egleton,,,,,,,0,UKOS,487571,307253,-0.706826,52.655961,BCT,HAR,OTH,,,,049,2013-05-30T16:28:19.000,2014-01-06T14:32:38.522,2,revise,active
268060222,rtladmdw,,,Mill Street,,,,Mill Street,,Turnpike Road,,,,opp,,E,E0053669,Ryhall,,,,,,,0,UKOS,503450,311254,-0.470905,52.68912,BCT,HAR,TIP,,,,049,2005-08-22T00:00:00.000,2024-12-16T18:12:37.442,7,revise,active
268060223,rtladmga,,,Mill Street,,,,Mill Street,,Turnpike Road,,,,adj,,W,E0053669,Ryhall,,,,,,,0,UKOS,503478,311232,-0.470504,52.688924,BCT,MKD,TIP,,,,049,2005-08-22T00:00:00.000,2024-12-16T18:06:26.808,9,revise,active
268060224,rtladmdp,,,The Square,,,,Bridge Street,,New Road,,,,adj,,E,E0053669,Ryhall,,,,,,,0,UKOS,503677,310893,-0.467667,52.685837,BCT,CUS,TIP,,,,049,2005-08-22T00:00:00.000,2013-10-10T15:42:14.000,9,revise,active
268060225,rtladmdt,,,The Nook,,,,The Nook,,Main Street,,,,opp,,E,E0053682,Whissendine,,,,,,,0,UKOS,482793,314237,-0.775687,52.71948,BCT,HAR,TIP,,,,049,2005-08-22T00:00:00.000,2015-04-30T11:23:53.631,6,revise,active
268060226,rtladgtj,,,River Court,,,,Hall Farm,,Tolethorpe,,,,adj,,NE,E0053655,Little Casterton,,,,,,,1,UKOS,501863,309817,-0.494825,52.676511,BCT,CUS,TIP,,,,049,2006-03-09T00:00:00.000,2014-10-21T15:13:15.000,7,revise,active
268060227,rtladgtm,,,River Court,,,,Hall Farm,,Tolethorpe,,,,opp,,SW,E0053655,Little Casterton,,,,,,,1,UKOS,501877,309809,-0.494621,52.676436,BCT,CUS,TIP,,,,049,2006-03-09T00:00:00.000,2014-10-21T15:14:10.000,10,revise,active
268060228,rtladgdt,,,Tolethorpe,,,,Toll Bar junction,,Old Great North Road,,,,opp,,NW,E0053647,Great Casterton,,,,,,,0,UKOS,500347,308571,-0.517618,52.665596,BCT,HAR,OTH,,,,049,2006-07-13T00:00:00.000,2012-08-29T12:12:07.000,3,revise,active
268060229,rtladgdw,,,Tolethorpe,,,,Toll Bar junction,,B1081,,,,adj,,SE,E0053647,Great Casterton,,,,,,,0,UKOS,500320,308625,-0.518001,52.666086,BCT,MKD,OTH,,,,049,2006-07-13T00:00:00.000,2013-11-27T12:13:52.891,4,revise,active
268060230,rtladpjp,,,Castle Rise,,,,Castle Rise,,Shepherd's Walk,,,,adj,,SW,E0041727,Belmesthorpe,,,,,,,0,UKOS,504233,310187,-0.459667,52.679388,BCT,MKD,OTH,,,,049,2010-05-14T00:00:00.000,2022-02-16T09:38:58.760,5,revise,active
268060231,rtladpjm,,,Church Road,,,,DRT Stop,,Station Road,,,,adj,,SW,E0041725,Aldgate,,,,,,,1,UKOS,498326,304255,-0.548777,52.627178,BCT,CUS,OTH,,,,049,2010-05-14T00:00:00.000,2010-05-14T00:00:00.000,0,new,active
268060232,rtladpjt,,,Jurassic Way,,,,DRT Stop,,A47,,,,opp,,W,E0053679,Tixover,,,,,,,1,UKOS,497710,300715,-0.558919,52.595475,BCT,CUS,OTH,,,,049,2010-05-19T00:00:00.000,2010-05-19T00:00:00.000,0,new,active
268060251,rtladpjw,,,Wheatsheaf,,,,The Wheatsheaf Public House,,Main Street,,,,adj,,W,E0053648,Greetham,,,,,,,0,UKOS,492961,314361,-0.625165,52.718947,BCT,HAR,OTH,,,,049,2010-10-27T00:00:00.000,2012-08-28T14:39:13.000,3,revise,active
268060999,rtladpmg,,,Stanlands,,,,Stanlands,,Melton Road,,,,adj,,E,E0053682,Whissendine,,,,,,,0,UKOS,482210,314330,-0.7842941,52.7204096,BCT,MKD,OTH,,,,049,2002-12-10T00:00:00.000,2014-09-26T10:48:24.750,7,revise,active
268060T01,rtladpgd,,,Station Road,,,,CS Ellis,,Station Road,,,,outside,,SE,E0053671,South Luffenham,,,,,,,0,UKOS,7,0,-7.5571602,49.7668072,BCT,CUS,OTH,,,,049,2007-03-22T00:00:00.000,2013-05-10T17:13:51.000,11,revise,inactive
268060T02,rtladpgj,,,Rutland Falconry Centre,,,,Rutland Falconry Centre,,Exton Lane,,,,adj,,NW,E0041726,Barnsdale Hill,,,,,,,0,UKOS,7,0,-7.5571602,49.7668072,BCT,CUS,OTH,,,,049,2007-03-22T00:00:00.000,2011-11-30T08:56:14.000,4,revise,inactive
268060T03,rtladpgm,,,Uppingham - Community College,,,,Community College,,unamed road off London Road,,,,North Bound,,NW,E0053680,Uppingham,,,,,,,0,UKOS,486622,298783,-0.72307,52.579988,BCT,HAR,OTH,,,,049,2007-03-22T00:00:00.000,2016-10-28T16:49:18.415,16,revise,active
268060T04,rtladpgp,,,Stand 2,,,,Library,,Catmos Street,,,,Stand 2,,N,E0053664,Oakham,,,,,,,0,UKOS,7,0,-7.5571602,49.7668072,BCT,CUS,OTH,,,,049,2007-03-22T00:00:00.000,2013-11-25T15:51:57.000,9,revise,inactive
268060T05,rtladpgt,,,Sykes Lane,,,,Sykes Lane,,Whitwell Road,,,,adj,,E,E0053683,Whitwell,,,,,,,0,UKOS,7,0,-7.5571602,49.7668072,BCT,CUS,OTH,,,,049,2007-03-22T00:00:00.000,2011-11-29T15:56:32.000,3,revise,inactive
268060T06,rtladpgw,,,Sewage Works,,,,,,,,,,,,W,E0053643,Empingham,,,,,,,0,UKOS,7,0,-7.5571602,49.7668072,BCT,MKD,OTH,,,,049,2007-03-22T00:00:00.000,2013-05-29T13:42:12.000,15,revise,inactive
268060T07,rtladpja,,,Uppingham - Community College,,,,Community College,,unamed road off London Road,,,,South Bound,,SE,E0053680,Uppingham,,,,,,,0,UKOS,486624,298785,-0.723048,52.580005,BCT,HAR,OTH,,,,049,2007-03-22T00:00:00.000,2016-10-28T16:48:39.020,9,revise,active
268060T08,rtladpjd,,,The Range,,,,The Range,,Melton Road,,,,opp,,SE,E0053653,Langham,,,,,,,0,UKOS,484010,311074,-0.758486,52.690866,BCT,HAR,OTH,,,,049,2007-03-22T00:00:00.000,2013-05-17T12:24:22.000,9,revise,active
2680OAKHAM,rtladjpj,,,Oakham Rail Station,,,,Rail Station,,Station Road,,,,Entrance,,,E0053664,Oakham,,,,,,,0,UKOS,7,0,-7.5571602,49.7668072,RSE,,,,,,049,2005-08-04T00:00:00.000,2011-01-10T14:27:09.000,6,revise,inactive
2680OAKHAM0,,,,Oakham Rail Station,,,,Rail Station,,Station Road,,,,Entrance,,,E0053664,Oakham,,,,,,,0,UKOS,485706,309055,-0.733925,52.672454,RSE,,,,,,049,2009-02-19T00:00:00.000,2014-01-21T18:11:44.000,1,revise,active
268006234,rtladptg,,,Church Street,,,,Audit Hall Road,,Stamford Road,,,,adj,,SE,E0053643,Empingham,,,,,,,0,UKOS,495095,308300,-0.595331,52.664106,BCT,HAR,OTH,,,,049,2013-06-21T12:48:10.000,2014-10-21T15:05:39.000,1,revise,active
268060233,rtladpta,,,Church Street,,,,Audit Hall Road,,Stamford Road,,,,opp,,NE,E0053643,Empingham,,,,,,,0,UKOS,495070,308300,-0.595701,52.66411,BCT,HAR,OTH,,,,049,2013-06-21T12:17:10.000,2014-10-21T15:03:56.000,2,revise,active
268060235,rtladptj,,,Normanton Farm,,,,Normanton Farm,,Normanton Park Road,,,,adj,,NE,E0053662,Normanton,,,,,,,0,UKOS,494014,306493,-0.611824,52.648054,BCT,HAR,OTH,,,,049,2013-06-21T15:40:25.000,2013-06-27T09:21:16.000,1,revise,active
268060236,rtladptm,,,Normanton Farm,,,,Normanton Farm,,Normanton Park Road,,,,opp,,NE,E0053662,Normanton,,,,,,,0,UKOS,494045,306500,-0.611364,52.648112,BCT,HAR,OTH,,,,049,2013-06-21T15:42:46.000,2013-06-21T15:42:46.000,0,new,active
268060237,rtladptp,,,Withers Close,,,,RPC Containers,,Schofield Road,,,,opp,,N,E0053664,Oakham,,,,,,,0,UKOS,486130,309903,-0.727435,52.680009,BCT,HAR,TIP,,,,049,2013-07-31T10:25:04.000,2013-09-03T10:44:02.000,1,revise,active
268060234,rtladpwa,,,Northwick Arms,,,,,,High Street,,,,,,SW,E0053652,Ketton,,,,,,,,UKOS,498200,304832,-0.5504662,52.6323862,BCT,HAR,OTH,,,,049,2014-06-03T11:52:13.018,2014-06-03T11:52:13.018,0,new,active
268060239,rtladpwg,,,Nether Street,,,,Sewage Works,,Littleworth Lane,,,,adj,,S,E0053633,Belton-in-Rutland,,,,,,,,UKOS,481867,301188,-0.7926343,52.6023395,BCT,MKD,TIP,,,,049,2014-09-25T10:42:33.965,2018-01-19T14:35:07.192,2,revise,active
268060240,rtladpwj,,,Surgery,,,,,,Ayston Road,,,,adj,,S,E0053680,Uppingham,,,,,,,,UKOS,486490,300449,-0.724585,52.594983,BCT,MKD,OTH,,,,049,2014-10-13T11:06:38.803,2016-01-20T15:22:48.429,1,revise,active
268060241,rtladpwm,,,Surgery,,,,,,Ayston Road,,,,opp,,N,E0053680,Uppingham,,,,,,,,UKOS,486450,300446,-0.725176,52.594962,BCT,MKD,OTH,,,,049,2014-10-13T12:01:40.574,2017-08-04T14:37:28.563,3,revise,active
268060242,rtladpwp,,,Stocks Hill,,,,Stocks Hill,,Lyndon Road,,,,adj,,E,E0053658,Manton,,,,,,,1,UKOS,488087,304518,-0.6999319,52.6312970,BCT,HAR,OTH,,,,049,2014-11-26T10:36:27.427,2014-11-26T10:36:27.427,0,new,active
268060238,rtladpwd,,,Brooke Road,,,,Brooke Road,,Main Street,,,,adj,,W,E0053636,Brooke,,,,,,,0,UKOS,484900,305730,-0.7466968,52.6426971,BCT,HAR,OTH,,,,049,2014-08-01T16:02:57.000,2015-07-31T11:36:57.959,1,revise,active
268060244,rtladtad,,,Rutland College,,,,Rutland County College,,Main Road,,,,opp,,S,E0053629,Barleythorpe,,,,,,,,UKOS,484860,309965,-0.7461992,52.6807661,BCT,MKD,TIP,,,,049,2015-04-29T16:12:08.777,2018-01-11T15:30:20.432,2,revise,active
268060243,rtladpwt,,,Rutland College,,,,Rutland County College,,Main Road,,,,adj,,N,E0053629,Barleythorpe,,,,,,,,UKOS,484858,309903,-0.7462447,52.6802092,BCT,MKD,TIP,,,,049,2015-04-30T09:45:22.122,2018-01-11T15:30:02.961,1,revise,active
268060246,rtladtaj,,,Berrybushes,,,,,,Main Street,,,,opp,,SW,E0053659,Market Overton,,,,,,,,UKOS,488790,316366,-0.6863568,52.7376656,BCT,HAR,OTH,,,,049,2015-09-11T12:14:22.265,2016-01-20T16:29:12.692,1,revise,active
268060245,rtladtag,,,Berrybushes,,,,,,Main Street,,,,adj,,NW,E0053659,Market Overton,,,,,,,,UKOS,488787,316343,-0.6864074,52.7374594,BCT,MKD,OTH,,,,049,2015-09-11T12:20:19.558,2015-09-11T12:20:19.558,0,new,active
268060252,rtladtam,,,Oakham Library,,,,,,CATMOS STREET,,,,outside,,SE,E0053664,Oakham,,,,,,,,UKOS,486238,308704,-0.7261495,52.6692153,BCT,MKD,OTH,,,,049,2017-08-02T14:56:53.806,2017-08-02T14:56:53.806,0,new,active
268060253,rtlajamj,,,Chater Close,,,,,,LYNDON ROAD,,,,Opp,,E,E0053658,Manton,,,,,,,,UKOS,488385,304600,-0.6955128,52.6319893,BCT,HAR,OTH,,,,049,2021-08-12T14:43:22.795,2021-08-12T14:43:22.795,0,new,active
268060254,rtladtat,,,Castle Rise,,,,,,Shepherd's Walk,,,,opp,,NE,E0041727,Belmesthorpe,,,,,,,,UKOS,504223,310189,-0.4598218,52.6794030,BCT,CUS,OTH,,,,049,2022-02-16T09:51:41.797,2022-03-16T11:38:18.667,1,revise,active
268060255,,,,West Street,,,,,,Main Street,,,,opp,,W,E0053639,Clipsham,,,,,,,,UKOS,496957,316100,-0.565514,52.733879,BCT,HAR,OTH,,,,049,2022-02-16T12:53:33.628,2022-02-16T12:53:33.628,0,new,active
26806056,,,,West Street,,,,,,Main Street,,,,adj,,E,E0053639,Clipsham,,,,,,,,UKOS,496966,316108,-0.5653802,52.7339429,BCT,HAR,OTH,,,,049,2022-02-16T13:14:27.187,2022-02-16T13:14:27.187,0,new,active
268060256,rtladtap,,,Village store,,,,,,Main Street,,,,opp,,S,E0053659,Market Overton,,,,,,,,UKOS,488732,316453,-0.6871954,52.7384544,BCT,MKD,TIP,,,,049,2024-10-28T16:44:59.524,2024-10-28T16:44:59.524,0,new,active
268060257,rtlajpwt,,,Melton Road,,,,,,Melton Road,,,,eastbound,,E,E0053653,Langham,,,,,,,,UKOS,484277,310927,-0.7545696,52.6895060,BCT,MKD,TIP,,,,049,2024-12-17T17:55:14.075,2025-01-09T15:33:14.710,2,revise,active
