ATCOCode,NaptanCode,PlateCode,CleardownCode,CommonName,CommonNameLang,ShortCommonName,ShortCommonNameLang,Landmark,LandmarkLang,Street,StreetLang,Crossing,CrossingLang,Indicator,IndicatorLang,Bearing,NptgLocalityCode,LocalityName,ParentLocalityName,GrandParentLocalityName,Town,TownLang,Suburb,SuburbLang,LocalityCentre,GridType,Easting,Northing,Longitude,Latitude,StopType,BusStopType,TimingStatus,DefaultWaitTime,Notes,NotesLang,AdministrativeAreaCode,CreationDateTime,ModificationDateTime,RevisionNumber,Modification,Status
5110ABC99960,dbgjmwt,,,Clawdd Poncen,,,,,,B5437,,,,,,SE,E0036711,Clawdd Poncen,,,,,,,false,UKOS,307293,344790,-3.382612617,52.992386305,BCT,MKD,OTH,,,,016,2024-04-24T11:14:02,2024-04-24T11:17:51,1,revise,active
5110ABC99961,dbgjpad,,,Trecastell Nurseries,,,,,,Newmarket Road,,,,,,SW,E0054200,Dyserth,,,,,,,false,UKOS,306592,379415,-3.403162176,53.303413679,BCT,MKD,OTH,,,,016,2024-05-30T12:31:20,2024-05-30T12:32:12,1,revise,active
5110ABC99962,dbgjpag,,,Park Avenue,,,,,,Berwyn Street,,,,,,SE,E0054212,Llangollen,,,,,,,false,UKOS,320890,342347,-3.179494915,52.972613468,BCT,MKD,OTH,,,,016,2024-07-18T14:06:52,2024-07-18T14:05:35,,new,active
5110ABC99963,dbgjpaj,,,Berwyn Llangollen Railway Station,,Berwyn Llangollen,,Berwyn Llangollen Railway Stn,,Berwyn Road,,,,,,W,N0071191,Berwyn,,,,,,,false,UKOS,319863,343154,-3.194984752,52.979713444,BCT,MKD,OTH,,,,016,2025-06-10T12:07:39,2025-06-10T12:10:50,4,revise,inactive
5110ACX17020,dbgdgtw,,,Westminster Hotel,,,,,,East Parade,,,,o/s,,SW,E0054220,Rhyl,,,,,,,false,UKOS,300839,381704,-3.490178445,53.322939671,BCT,MKD,OTH,,,,016,2000-01-01T00:00:00,2024-04-26T16:16:48,2,revise,active
5110ACX17039,dbgdgdt,,,Morrison,,,,Rhyl Morrison,,Marsh Road,,,,before,,NE,E0054220,Rhyl,,,,,,,false,UKOS,300929,381041,-3.488620356,53.31699906,BCT,MKD,OTH,,,,016,2000-01-01T00:00:00,2024-04-26T16:16:32,3,revise,active
5110ANZ12832,dbgajmt,,,Glyndyfrdwy Llangollen Station,,Station,,Glyndyfrdwy Llangollen Station,,Unclassified Road,,,,adj,,N,E0036732,Glyndyfrdwy,,,,,,,true,UKOS,315039,342894,-3.266744816,52.976628529,BCT,MKD,OTH,,,,016,2000-01-01T00:00:00,2025-06-11T10:43:39,5,revise,active
5110ANZ12833,dbgapmd,,,Carrog Llangollen Railway Station,,Station,,Carrog Llangollen Railway Station,,B5437,,,,o/s,,SE,E0036707,Carrog,,,,,,,true,UKOS,311782,343524,-3.315408721,52.981767873,BCT,MKD,OTH,,,,016,2000-01-01T00:00:00,2025-06-11T10:43:39,6,revise,active
5110AWA03914,dbgdmtj,,,Rhyl Bus Station Stand F,,Bus Station F,,Rhyl Bus Station,,Vale Road Bridge,,,,at,,,E0054220,Rhyl,,,,,,,false,UKOS,300940,381281,-3.488530243,53.319153108,BCS,,,,,,016,2000-01-01T00:00:00,2025-06-08T15:54:52,10,revise,active
5110AWA03916,dbgdmtm,,,Rhyl Bus Station Stand A,,Bus Station A,,Rhyl Bus Station,,Vale Road Bridge,,,,at,,,E0054220,Rhyl,,,,,,,false,UKOS,300923,381229,-3.488769082,53.31868267,BCS,,,,,,016,2000-01-01T00:00:00,2025-06-08T15:54:49,9,revise,active
5110AWA03917,dbgdmtp,,,Rhyl Bus Station Stand B,,Bus Station B,,Rhyl Bus Station,,Vale Road Bridge,,,,at,,,E0054220,Rhyl,,,,,,,false,UKOS,300939,381243,-3.488533364,53.318811466,BCS,,,,,,016,2000-01-01T00:00:00,2025-06-08T15:54:47,9,revise,active
5110AWA03922,dbgdmtw,,,Moel Famau Viewpoint,,Viewpoint,,Car Park,,Bwlch Penbarras,,,,at,,SW,N0078139,Moel Famau,,,,,,,false,UKOS,316201,360594,-3.254055862,53.135884742,BCT,MKD,OTH,,,,016,2000-01-01T00:00:00,2024-04-26T16:17:00,6,revise,active
5110AWD70580,dbgamjt,,,Capel Hermon,,,,Capel Hermon,,B4401,,,,o/s,,SE,E0054207,Llandrillo,,,,,,,false,UKOS,303335,337133,-3.439278,52.922877,BCT,MKD,OTH,,,,016,2000-01-01T00:00:00,2024-04-26T16:16:07,4,revise,active
5110AWD70581,dbgamjw,,,Dudley Arms,,,,Dudley Arms PH,,High Street,,,,after,,E,E0054207,Llandrillo,,,,,,,false,UKOS,303442,337126,-3.437679262,52.922838231,BCT,MKD,OTH,,,,016,2000-01-01T00:00:00,2024-04-26T16:16:13,3,revise,active
5110AWD70582,dbgampa,,,Llandrillo War Memorial,,,,Llandrillo War Memorial,,B4401,,,,o/s,,W,E0054207,Llandrillo,,,,,,,false,UKOS,303581,337151,-3.435619764,52.923083292,BCT,CUS,OTH,,,,016,2000-01-01T00:00:00,2024-04-26T16:16:09,6,revise,active
5110AWD70583,dbgamjp,,,Pont yr Hendwr,,,,,,B4401,,,,before,,SW,E0054207,Llandrillo,,,,,,,false,UKOS,304268,338532,-3.425812521,52.935621252,BCT,CUS,OTH,,,,016,2000-01-01T00:00:00,2024-04-26T16:16:39,3,revise,active
5110AWD70584,dbgagdw,,,Blue Lion Hotel,,,,St John`s Church,,B4401,,,,after,,NE,E0054197,Cynwyd,,,,,,,false,UKOS,305672,341155,-3.405693958,52.959441739,BCT,MKD,OTH,,,,016,2000-01-01T00:00:00,2025-06-08T15:56:24,5,revise,active
5110AWD70585,dbgagda,,,Glandwr,,,,Bryn-ffynnon,,B4401,,,,nr,,SW,E0054194,Corwen,,,,,,,false,UKOS,306942,343080,-3.387347729,52.97696298,BCT,CUS,OTH,,,,016,2000-01-01T00:00:00,2025-06-08T15:56:22,4,revise,active
5110AWD70587,dbgagaw,,,Station House,,,,Corwen Police Station,,Northern Terrace,,,,o/s,,E,E0054194,Corwen,,,,,,,false,UKOS,307536,343531,-3.378633221,52.981118838,BCT,MKD,OTH,,,,016,2000-01-01T00:00:00,2025-06-08T15:56:18,4,revise,active
5110AWD70588,dbgagaj,,,The Square,,,,St Mael & St Sulien`s Church,,London Road,,,,after,,SE,E0054194,Corwen,,,,,,,false,UKOS,307929,343473,-3.37276508,52.980665348,BCT,MKD,OTH,,,,016,2000-01-01T00:00:00,2025-06-08T15:56:04,5,revise,active
5110AWD70590,dbgadtd,,,Bonwm Cottage,,,,,,A5,,,,opp,,NW,E0054194,Corwen,,,,,,,false,UKOS,310177,343302,-3.339245563,52.979505917,BCT,MKD,OTH,,,,016,2000-01-01T00:00:00,2024-04-26T16:16:04,5,revise,active
5110AWD70591,dbgapmg,,,Parc Terrace,,,,,,A5,,,,after,,W,N0075609,Llidiart-y-Parc,,,,,,,false,UKOS,311730,343287,-3.316118371,52.979634019,BCT,MKD,OTH,,,,016,2000-01-01T00:00:00,2025-06-11T10:43:40,3,revise,active
5110AWD70592,dbgapmj,,,Tai Teg,,,,Tai Teg,,A5,,,,after,,SE,N0075609,Llidiart-y-Parc,,,,,,,false,UKOS,311965,343339,-3.312633516,52.98014003,BCT,MKD,OTH,,,,016,2000-01-01T00:00:00,2024-04-26T16:16:44,2,revise,active
5110AWD70593,dbgajmp,,,St Thomas` Church,,,,St Thomas` Church,,A5,,,,before,,E,E0036732,Glyndyfrdwy,,,,,,,false,UKOS,315027,342650,-3.26685959,52.974442783,BCT,MKD,OTH,,,,016,2000-01-01T00:00:00,2025-06-11T10:43:38,4,revise,active
5110AWD70594,dbgajpa,,,Sun Inn,,,,Sun Inn PH,,A5,,,,after,,SE,E0036732,Glyndyfrdwy,,,,,,,false,UKOS,315269,342615,-3.263247527,52.974166589,BCT,MKD,OTH,,,,016,2000-01-01T00:00:00,2024-04-26T16:16:42,3,revise,active
5110AWD70595,dbgajmw,,,Bryn-hyfryd,,The Original Buttefly Man,,Bryn-hyfryd,,A5,,,,before,,SE,E0036732,Glyndyfrdwy,,,,,,,false,UKOS,315787,342472,-3.25549833,52.972963165,BCT,MKD,OTH,,,,016,2000-01-01T00:00:00,2024-04-26T16:16:04,3,revise,active
5110AWD70597,dbgadag,,,Berwyn Llangollen Railway Station,,Station,,Berwyn Llangollen Railway Stn,,Berwyn Road,,,,after,,NE,N0071191,Berwyn,,,,,,,false,UKOS,319888,343181,-3.194619193,52.979959841,BCT,MKD,OTH,,,,016,2000-01-01T00:00:00,2025-06-11T10:43:38,9,revise,active
5110AWD70598,dbgadap,,,Ystrad Hall,,,,Ystrad Hall Nursing Home,,A5,,,,before,,SE,N0071191,Berwyn,,,,,,,false,UKOS,320690,343001,-3.182632983,52.978461564,BCT,CUS,OTH,,,,016,2000-01-01T00:00:00,2024-04-26T16:16:34,5,revise,active
5110AWD70599,dbgatmp,,,Berwyn Llangollen Railway Station,,Station,,,,Berwyn Road,,,,nr,,NE,N0071191,Berwyn,,,,,,,false,UKOS,320027,343253,-3.19256727,52.980627708,BCT,MKD,OTH,,,,016,2000-01-01T00:00:00,2025-06-11T10:43:39,6,revise,active
5110AWD70600,dbgajma,,,Wild Pheasant Hotel,,,,Wild Pheasant Hotel,,Berwyn Road,,,,before,,NW,E0054212,Llangollen,,,,,,,false,UKOS,320846,342520,-3.180192349,52.974161767,BCT,CUS,OTH,,,,016,2000-01-01T00:00:00,2024-04-26T16:16:49,5,revise,active
5110AWD70601,dbgapdw,,,Bowling Green,,,,Bowling Green,,Berwyn Road,,,,nr,,NW,E0054212,Llangollen,,,,,,,false,UKOS,321038,342086,-3.177227758,52.970289629,BCT,MKD,OTH,,,,016,2000-01-01T00:00:00,2024-04-26T16:16:25,7,revise,active
5110AWD70602,dbgapgw,,,Bowling Green,,,,Bowling Green,,Berwyn Road,,,,nr,,SE,E0054212,Llangollen,,,,,,,false,UKOS,321095,342048,-3.176369922,52.969956514,BCT,MKD,OTH,,,,016,2000-01-01T00:00:00,2024-04-26T16:16:25,5,revise,active
5110AWD70603,dbgapjg,,,Market Street Car Park,,,,,,Market Street,,,,opp,,E,E0054212,Llangollen,,,,,,,false,UKOS,321399,342019,-3.171837346,52.969745188,BCT,MKD,OTH,,,,016,2000-01-01T00:00:00,2024-04-26T16:16:59,2,revise,active
5110AWD70605,dbgapjm,,,Bridge End Hotel,,,,Bridge End Hotel,,A542,,,,after,,SE,E0054212,Llangollen,,,,,,,false,UKOS,321583,342183,-3.169137844,52.971241494,BCT,MKD,OTH,,,,016,2000-01-01T00:00:00,2024-04-26T16:16:02,5,revise,active
5110AWD70606,dbgapgm,,,Bridge End Hotel,,,,Bridge End Hotel PH,,A542,,,,before,,NW,E0054212,Llangollen,,,,,,,false,UKOS,321536,342193,-3.169839979,52.971324482,BCT,MKD,OTH,,,,016,2000-01-01T00:00:00,2024-04-26T16:16:02,5,revise,active
5110AWD70607,dbgapgd,,,Bishop's Walk,,,,,,Mill Street,,,,after,,W,E0054212,Llangollen,,,,,,,false,UKOS,322081,342080,-3.161702,52.970392,BCT,MKD,OTH,,,,016,2000-01-01T00:00:00,2024-04-26T16:16:53,4,revise,active
5110AWD70608,dbgdmgd,,,Wenffrwd,,,,Wenffrwd,,A539,,,,nr,,W,E0036796,Trevor Uchaf,,,,,,,false,UKOS,325100,341968,-3.11672828,52.969812748,BCT,MKD,OTH,,,,016,2000-01-01T00:00:00,2024-10-30T13:33:15,9,revise,inactive
5110AWD70609,dbgdmdw,,,Sun Trevor Inn,,,,Sun Trevor Inn PH,,A539,,,,before,,SE,E0036796,Trevor Uchaf,,,,,,,false,UKOS,324067,342405,-3.132209432,52.973599355,BCT,MKD,OTH,,,,016,2000-01-01T00:00:00,2024-04-26T16:16:42,3,revise,active
5110AWD70610,dbgajga,,,Bryn Howel,,,,,,A 539,,,,before,,SE,E0036796,Trevor Uchaf,,,,,,,false,UKOS,325122,341952,-3.116397157,52.96967662,BCT,MKD,OTH,,,,016,2000-01-01T00:00:00,2025-06-08T16:12:25,5,revise,active
5110AWD71437,dbgatjp,,,Llysfasi College,,,,Llysfasi College,,B5429,,,,nr,,NE,E0036772,Pentre-celyn,,,,,,,false,UKOS,314588,352687,-3.276054795,53.064569929,BCT,MKD,OTH,,,,016,2000-01-01T00:00:00,2024-04-26T16:16:10,3,revise,active
5110AWD71438,dbgamwm,,,Llanfair Dyffryn Clwyd School,,,,Llanfair Dyffryn Clwyd School,,A525,,,,before,,NW,E0054210,Llanfair Dyffryn Clwyd,,,,,,,false,UKOS,313466,355372,-3.293516995,53.088518627,BCT,MKD,OTH,,,,016,2000-01-01T00:00:00,2024-04-26T16:16:51,4,revise,active
5110AWD71439,dbgdjaw,,,Castle Park,,,,,,Wrexham Road,,,,N-bound,,N,E0054221,Ruthin,,,,,,,false,UKOS,312949,357445,-3.301796831,53.107068478,BCT,MKD,OTH,,,,016,2000-01-01T00:00:00,2024-04-26T16:16:36,3,revise,active
5110AWD71440,dbgdjdw,,,Pen-y-maes,,,,,,Wrexham Road,,,,after,,NW,E0054221,Ruthin,,,,,,,false,UKOS,312789,357702,-3.304255979,53.109347307,BCT,MKD,OTH,,,,016,2000-01-01T00:00:00,2024-04-26T16:16:37,3,revise,active
5110AWD71441,dbgdjdj,,,Feathers Inn,,,,Feathers Inn PH,,Llanfair Road,,,,nr,,S,E0054221,Ruthin,,,,,,,false,UKOS,312700,358121,-3.305699223,53.113098143,BCT,MKD,OTH,,,,016,2000-01-01T00:00:00,2025-06-08T16:12:23,5,revise,active
5110AWD71443,dbgdjga,,,Town Hall,,,,Ruthin Town Hall,,Market Street,,,,o/s,,SW,E0054221,Ruthin,,,,,,,false,UKOS,312491,358364,-3.308887093,53.115247609,BCT,MKD,OTH,,,,016,2000-01-01T00:00:00,2024-04-26T16:16:34,4,revise,active
5110AWD71444,dbgdjgt,,,Ruthin War Memorial,,,,Ruthin Town Hall,,Wynnstay Road,,,,before,,SE,E0054221,Ruthin,,,,,,,false,UKOS,312486,358327,-3.308959,53.114912,BCT,MKD,OTH,,,,016,2000-01-01T00:00:00,2025-06-08T16:12:21,5,revise,active
5110AWD71445,dbgdjgp,,,Wernfechan,,,,,,Wernfechan,,,,nr,,S,E0054221,Ruthin,,,,,,,false,UKOS,312701,358393,-3.305758474,53.11554726,BCT,MKD,OTH,,,,016,2000-01-01T00:00:00,2025-06-08T16:12:20,4,revise,active
5110AWD71446,dbgdjap,,,Ysgol Brynhyfryd,,,,Ruthin School,,Mold Road,,,,opp,,SW,E0054221,Ruthin,,,,,,,false,UKOS,313221,358433,-3.298036568,53.115976628,BCT,MKD,OTH,,,,016,2000-01-01T00:00:00,2024-04-26T16:16:50,7,revise,active
5110AWD71447,dbgamgw,,,Maes Derwen,,,,,,B5429,,,,after,,SE,E0054205,Llanbedr Dyffryn Clwyd,,,,,,,false,UKOS,314207,359716,-3.283618329,53.127681359,BCT,MKD,OTH,,,,016,2000-01-01T00:00:00,2024-04-26T16:16:30,2,revise,active
5110AWD71448,dbgamja,,,Griffin Hotel,,,,Griffin Hotel PH,,B5429,,,,before,,N,E0054205,Llanbedr Dyffryn Clwyd,,,,,,,false,UKOS,314369,359243,-3.281071478,53.123456716,BCT,MKD,OTH,,,,016,2000-01-01T00:00:00,2025-06-08T16:12:19,3,revise,active
5110AWD71449,dbgamjd,,,Tan-yr-unto,,,,Tan-yr-unto,,A494,,,,nr,,SE,E0054205,Llanbedr Dyffryn Clwyd,,,,,,,false,UKOS,314978,359415,-3.272019065,53.125100013,BCT,MKD,OTH,,,,016,2000-01-01T00:00:00,2024-04-26T16:16:44,3,revise,active
5110AWD71450,dbgajwj,,,Clwyd Gate,,,,Clwyd Gate,,A494,,,,nr,,E,N0075605,Gyrn,,,,,,,false,UKOS,316468,358154,-3.249429679,53.114003418,BCT,MKD,OTH,,,,016,2000-01-01T00:00:00,2024-10-08T15:34:00,5,revise,inactive
5110AWD71451,dbgadpt,,,Clover Grange,,,,,,B5430,,,,nr,,NW,N0075593,Bryn-yr-ogof,,,,,,,false,UKOS,319484,356436,-3.203950045,53.099028124,BCT,MKD,OTH,,,,016,2000-01-01T00:00:00,2024-04-26T16:16:55,3,revise,active
5110AWD71452,dbgamgt,,,Llanarmon-yn-Ial Post Office,,,,Post Office,,B5431,,,,opp,,SW,E0054204,Llanarmon-yn-Ial,,,,,,,false,UKOS,318978,356153,-3.211433785,53.096408122,BCT,MKD,OTH,,,,016,2000-01-01T00:00:00,2025-06-08T16:12:18,5,revise,active
5110AWD71453,dbgatdj,,,Bryn-hyfryd,,,,,,B5430,,,,after,,NW,N0075611,Nant,,,,,,,false,UKOS,319135,357144,-3.209339555,53.105338086,BCT,MKD,OTH,,,,016,2000-01-01T00:00:00,2024-04-26T16:16:04,3,revise,active
5110AWD71454,dbgatdg,,,Graianrhyd Lane End,,,,,,B5430,,,,before,,S,N0075611,Nant,,,,,,,false,UKOS,318554,358199,-3.218283878,53.114730845,BCT,MKD,OTH,,,,016,2000-01-01T00:00:00,2024-04-26T16:16:29,3,revise,active
5110AWD71455,dbgapad,,,Four Crosses Crossroads,,,,,,Llanarmon Lane,,,,before,,S,E0054211,Llanferres,,,,,,,false,UKOS,318535,358954,-3.218759618,53.121513086,BCT,MKD,OTH,,,,016,2000-01-01T00:00:00,2024-04-26T16:16:57,3,revise,active
5110AWD71456,dbgapag,,,Ty`n-llan,,,,,,A494,,,,before,,SE,E0054211,Llanferres,,,,,,,false,UKOS,318884,360730,-3.213995791,53.137527177,BCT,MKD,OTH,,,,016,2000-01-01T00:00:00,2025-06-08T16:12:16,5,revise,active
5110AWD71457,dbgapaj,,,Maeshafan Lane End,,,,,,A494,,,,before,,S,E0054211,Llanferres,,,,,,,false,UKOS,318882,361123,-3.214125293,53.141058736,BCT,MKD,OTH,,,,016,2000-01-01T00:00:00,2024-04-26T16:16:29,3,revise,active
5110AWD71458,dbgdjwm,,,Tafarn-y-Gelyn,,,,Tafarn-y-Gelyn Village,,A494,,,,adj,,NE,E0036792,Tafarn-y-Gelyn,,,,,,,false,UKOS,318879,361792,-3.214339755,53.147070531,BCT,MKD,OTH,,,,016,2000-01-01T00:00:00,2024-04-26T16:16:44,4,revise,active
5110AWD71459,dbgdjwj,,,Tafarn-y-Gelyn,,,,Tafarn-y-Gelyn Village,,A494,,,,opp,,SW,E0036792,Tafarn-y-Gelyn,,,,,,,false,UKOS,318957,361845,-3.213187248,53.147558724,BCT,MKD,OTH,,,,016,2000-01-01T00:00:00,2024-04-26T16:16:44,4,revise,active
5110AWD71460,dbgaptd,,,We Three Loggerheads,,,,We Three Loggerheads PH,,A494,,,,before,,NE,E0036747,Loggerheads,,,,,,,false,UKOS,319764,362514,-3.201291968,53.153693311,BCT,MKD,OTH,,,,016,2000-01-01T00:00:00,2024-04-26T16:16:48,3,revise,active
5110AWD71461,dbgaptg,,,Country Park,,,,Loggerheads Car Park,,Grounds,,,,in,,NE,E0036747,Loggerheads,,,,,,,false,UKOS,319802,362631,-3.200753204,53.154750516,BCT,MKD,OTH,,,,016,2000-01-01T00:00:00,2025-06-08T16:12:15,3,revise,active
5110AWD71464,dbgatgm,,,Glyn Derw Farm,,,,Weighbridge,,A525,,,,nr,,N,E0036766,Pengwern,,,,,,,false,UKOS,302867,376219,-3.458062552,53.274028983,BCT,MKD,OTH,,,,016,2000-01-01T00:00:00,2025-06-08T16:12:13,3,revise,active
5110AWD71465,dbgatgt,,,Pengwern College,,,,Pengwern College,,Unclassified,,,,after,,NE,E0036766,Pengwern,,,,,,,false,UKOS,301854,376900,-3.47345838,53.279957017,BCT,MKD,OTH,,,,016,2000-01-01T00:00:00,2025-06-08T16:12:12,6,revise,active
5110AWD71466,dbgatgp,,,Meadow Brook Farm,,,,,,Unclassified Road,,,,o/s,,SW,E0036766,Pengwern,,,,,,,false,UKOS,302114,377214,-3.469657242,53.282831236,BCT,MKD,OTH,,,,016,2000-01-01T00:00:00,2024-04-26T16:16:59,2,revise,active
5110AWD71467,dbgadga,,,Bryn Carrog Farm,,,,,,Unclassifed Road,,,,before,,W,E0054189,Bodelwyddan,,,,,,,false,UKOS,301126,376659,-3.484298015,53.277660629,BCT,MKD,OTH,,,,016,2000-01-01T00:00:00,2024-04-26T16:16:14,2,revise,active
5110AWD71468,dbgadgj,,,Glan Clwyd Hospital,,,,Hospital,,Grounds,,,,in,,N,E0054189,Bodelwyddan,,,,,,,false,UKOS,300408,376066,-3.49487594,53.272193041,BCT,MKD,OTH,,,,016,2000-01-01T00:00:00,2025-06-08T16:12:10,7,revise,active
5110AWD71469,dbgadgw,,,Vicarage Close,,,,,,Unnamed,,,,before,,S,E0054189,Bodelwyddan,,,,,,,false,UKOS,300294,375575,-3.496430764,53.267764199,BCT,MKD,OTH,,,,016,2000-01-01T00:00:00,2024-04-26T16:17:05,4,revise,active
5110AWD71470,dbgadgt,,,Lowther Arms,,,,,,Unclassified,,,,nr,,NW,E0054189,Bodelwyddan,,,,,,,false,UKOS,300150,375454,-3.498551031,53.266649817,BCT,MKD,OTH,,,,016,2000-01-01T00:00:00,2024-04-26T16:16:29,4,revise,active
5110AWD71471,dbgadaw,,,Post Office,,,,Bodelwyddan PO,,Unclassified,,,,adj,,E,E0054189,Bodelwyddan,,,,,,,false,UKOS,299623,375720,-3.506533617,53.268940438,BCT,MKD,OTH,,,,016,2000-01-01T00:00:00,2025-06-08T16:12:09,3,revise,active
5110AWD71472,dbgadgd,,,Coronation Close,,,,27,,Coronation Close,,,,on,,E,E0054189,Bodelwyddan,,,,,,,false,UKOS,299135,375584,-3.513804819,53.267625727,BCT,CUS,OTH,,,,016,2000-01-01T00:00:00,2024-04-26T16:16:56,5,revise,active
5110AWD71473,dbgdpwa,,,Ffordd Terfyn,,,,,,St Asaph Road,,,,after,,SE,E0036637,St George,,,,,,,true,UKOS,298427,376086,-3.524576816,53.272001246,BCT,MKD,OTH,,,,016,2000-01-01T00:00:00,2025-06-08T16:12:07,4,revise,active
5110AWD71474,dbgadgp,,,Kinmel Camp,,,,,,Engine Hill,,,,before,,N,E0054189,Bodelwyddan,,,,,,,false,UKOS,299726,374957,-3.504748997,53.262103884,BCT,MKD,OTH,,,,016,2000-01-01T00:00:00,2024-04-26T16:16:24,3,revise,active
5110AWD71475,dbgadgm,,,Hillcrest Court,,,,,,Hillcrest Court,,,,after,,NW,E0054189,Bodelwyddan,,,,,,,false,UKOS,299662,374845,-3.505672749,53.261085378,BCT,CUS,OTH,,,,016,2000-01-01T00:00:00,2024-04-26T16:16:58,3,revise,active
5110AWD71476,dbgajmj,,,Kinmel Lodge Crossroads,,,,,,Unclassified Road,,,,at,,S,E0036731,Glascoed,,,,,,,false,UKOS,299248,374056,-3.511626781,53.253917174,BCT,MKD,OTH,,,,016,2000-01-01T00:00:00,2024-04-26T16:16:58,2,revise,active
5110AWD71477,dbgajmd,,,Bryn Celyn Lodge,,,,,,Glascoed Road,,,,after,,W,E0036731,Glascoed,,,,,,,false,UKOS,300617,373910,-3.491068924,53.252863654,BCT,MKD,OTH,,,,016,2000-01-01T00:00:00,2024-04-26T16:16:12,2,revise,active
5110AWD71478,dbgajmg,,,St Asaph Business Park,,Business Park,,St Asaph Business Park,,Glascoed Road,,,,S-bound,,SE,E0036731,Glascoed,,,,,,,false,UKOS,301612,374320,-3.476287508,53.256728837,BCT,MKD,OTH,,,,016,2000-01-01T00:00:00,2024-04-26T16:16:35,6,revise,active
5110AWD71479,dbgdmgp,,,St Asaph Business Park,,Business Park,,St Asaph Business Park,,Glascoed Road,,,,E-bound,,E,N0075623,Tyn-y-ffordd,,,,,,,false,UKOS,301861,373922,-3.47243351,53.253198644,BCT,MKD,OTH,,,,016,2000-01-01T00:00:00,2024-04-26T16:16:35,6,revise,active
5110AWD71480,dbgdjpm,,,Ega Tube,,,,,,Glascoed Road,,,,opp,,E,E0054222,St Asaph,,,,,,,false,UKOS,303279,373871,-3.451171678,53.253005529,BCT,MKD,OTH,,,,016,2000-01-01T00:00:00,2025-06-08T16:12:05,5,revise,active
5110AWD71482,dbgdgwd,,,Ashley Court,,,,,,The Roe,,,,before,,NW,E0036794,The Roe,St Asaph,,,,,,false,UKOS,303420,374272,-3.449180847,53.256634579,BCT,MKD,OTH,,,,016,2000-01-01T00:00:00,2024-04-26T16:16:53,2,revise,active
5110AWD71483,dbgdjaj,,,Plough Hotel,,,,Plough Hotel PH,,The Roe,,,,opp,,N,E0036794,The Roe,St Asaph,,,,,,false,UKOS,303324,374477,-3.450681719,53.258459187,BCT,MKD,OTH,,,,016,2000-01-01T00:00:00,2025-06-08T16:12:04,3,revise,active
5110AWD71484,dbgdgwm,,,Plas Elwy Hotel,,,,Garage,,The Roe,,,,before,,NW,E0036794,The Roe,St Asaph,,,,,,false,UKOS,303245,374632,-3.451912738,53.259837584,BCT,MKD,OTH,,,,016,2000-01-01T00:00:00,2024-04-26T16:16:37,3,revise,active
5110AWD71485,dbgdjag,,,Talardy Hotel,,,,Hotel,,The Roe,,,,opp,,NW,E0036794,The Roe,St Asaph,,,,,,false,UKOS,303077,374993,-3.454540323,53.263046216,BCT,MKD,OTH,,,,016,2000-01-01T00:00:00,2024-04-26T16:16:44,7,revise,active
5110AWD71486,dbgdgwg,,,Fountain Garage,,,,St Asaph War Memorial,,High Street,,,,o/s,,W,E0054222,St Asaph,,,,,,,false,UKOS,303608,374249,-3.446356762,53.256462123,BCT,MKD,OTH,,,,016,2000-01-01T00:00:00,2025-06-08T16:12:01,5,revise,active
5110AWD71487,dbgdjtm,,,Cathedral,,,,St Asaph Cathedral,,High Street,,,,opp,,NE,E0054222,St Asaph,,,,,,,false,UKOS,303885,374370,-3.442242615,53.257599717,BCT,MKD,OTH,,,,016,2000-01-01T00:00:00,2024-04-26T16:16:13,3,revise,active
5110AWD71488,dbgdjta,,,Holywell Road,,,,Brick Terrace,,Holywell Road,,,,in,,E,E0054222,St Asaph,,,,,,,false,UKOS,304955,374953,-3.42638293,53.263031484,BCT,MKD,OTH,,,,016,2000-01-01T00:00:00,2024-04-26T16:16:58,4,revise,active
5110AWD71489,dbgdjtd,,,Maes Rathbone,,,,,,Unclassifed Road,,,,at,,NE,E0054222,St Asaph,,,,,,,false,UKOS,305010,375382,-3.425686906,53.266896329,BCT,MKD,OTH,,,,016,2000-01-01T00:00:00,2025-06-08T16:12:00,4,revise,active
5110AWD71490,dbgdjwa,,,Ty Isaf,,,,Road Junction,,B5429,,,,nr,,SE,E0054195,Cwm,,,,,,,false,UKOS,305436,375966,-3.41947572,53.272220346,BCT,MKD,OTH,,,,016,2000-01-01T00:00:00,2025-06-08T16:11:58,4,revise,active
5110AWD71491,dbgagdp,,,Dyserth - Waen Crossroads,,,,,,Unclassified Road,,,,after,,N,E0054195,Cwm,,,,,,,false,UKOS,305531,377469,-3.418498922,53.285743227,BCT,MKD,OTH,,,,016,2000-01-01T00:00:00,2024-04-26T16:16:11,2,revise,active
5110AWD71492,dbgagdm,,,Council Houses,,,,Cwm Council Houses,,Cwm Road,,,,o/s,,SW,E0054195,Cwm,,,,,,,false,UKOS,306364,377406,-3.405989442,53.285325066,BCT,MKD,OTH,,,,016,2000-01-01T00:00:00,2024-04-26T16:16:44,3,revise,active
5110AWD71493,dbgagdg,,,Blue Lion,,,,Blue Lion PH,,Main Road,,,,opp,,SE,E0054195,Cwm,,,,,,,false,UKOS,306616,377442,-3.402221308,53.285693066,BCT,MKD,OTH,,,,016,2000-01-01T00:00:00,2024-04-26T16:16:01,3,revise,active
5110AWD71494,dbgajaj,,,Trionfa,,,,21,,St Asaph Road,,,,opp,,N,E0054200,Dyserth,,,,,,,false,UKOS,305657,378758,-3.41699292,53.297348606,BCT,MKD,OTH,,,,016,2000-01-01T00:00:00,2024-04-26T16:16:46,3,revise,active
5110AWD71495,dbgdadt,,,Smithy Arms,,,,,,B5429,,,,nr,,E,E0036781,Rhuallt,,,,,,,false,UKOS,307427,375091,-3.389374782,53.264709157,BCT,MKD,OTH,,,,016,2000-01-01T00:00:00,2025-06-08T16:11:57,4,revise,active
5110AWD71496,dbgdadm,,,Dyffryn Teg,,,,,,B5429,,,,nr,,NE,E0036781,Rhuallt,,,,,,,false,UKOS,307180,374992,-3.393047848,53.263776325,BCT,MKD,OTH,,,,016,2000-01-01T00:00:00,2025-06-08T16:11:55,3,revise,active
5110AWD71497,dbgdmat,,,St Beunos,,,,,,B5429,,,,before,,SE,E0054224,Tremeirchion,,,,,,,false,UKOS,307892,374204,-3.382148331,53.256819474,BCT,CUS,OTH,,,,016,2000-01-01T00:00:00,2025-06-11T10:43:41,5,revise,active
5110AWD71498,dbgdmap,,,Henafon,,,,,,B5429,,,,nr,,NW,E0054224,Tremeirchion,,,,,,,false,UKOS,308013,373419,-3.380108,53.249786345,BCT,MKD,OTH,,,,016,2000-01-01T00:00:00,2025-06-08T16:11:52,4,revise,active
5110AWD71499,dbgdmam,,,Groesffordd,,,,,,B5429,,,,before,,NW,E0054224,Tremeirchion,,,,,,,false,UKOS,308077,373175,-3.379078579,53.247604817,BCT,MKD,OTH,,,,016,2000-01-01T00:00:00,2025-06-08T16:11:50,3,revise,active
5110AWD71500,dbgdmaj,,,Bryn Hyfryd Arms,,,,,,B5429,,,,nr,,NE,E0054224,Tremeirchion,,,,,,,false,UKOS,308207,373010,-3.377083307,53.246144618,BCT,MKD,OTH,,,,016,2000-01-01T00:00:00,2024-04-26T16:16:03,2,revise,active
5110AWD71501,dbgajpj,,,Tan y Graig Cottage,,,,,,B5429,,,,before,,NW,E0036734,Graig,,,,,,,false,UKOS,308318,372124,-3.375165034,53.238202045,BCT,MKD,OTH,,,,016,2000-01-01T00:00:00,2025-06-08T16:11:48,3,revise,active
5110AWD71502,dbgdjmt,,,Pistyll,,,,,,B5429,,,,nr,,NW,E0054190,Bodfari,,,,,,,false,UKOS,309069,370952,-3.363581208,53.22779943,BCT,CUS,OTH,,,,016,2000-01-01T00:00:00,2025-06-08T16:11:46,5,revise,active
5110AWD71503,dbgadjd,,,St Stephen`s Church,,,,St Stephen`s Church,,B5429,,,,o/s,,E,E0054190,Bodfari,,,,,,,false,UKOS,309244,370071,-3.360709505,53.219912475,BCT,MKD,OTH,,,,016,2000-01-01T00:00:00,2025-06-11T10:43:38,5,revise,active
5110AWD71504,dbgadjg,,,Victoria Terrace,,,,,,A541,,,,o/s,,NE,E0054190,Bodfari,,,,,,,false,UKOS,309737,370133,-3.353345679,53.220553699,BCT,MKD,OTH,,,,016,2000-01-01T00:00:00,2025-06-08T16:11:37,5,revise,active
5110AWD71505,dbgdjmp,,,Fron Haul,,,,,,A541,,,,nr,,SW,E0036791,Sodom,,,,,,,false,UKOS,310643,371683,-3.340215413,53.234635866,BCT,MKD,OTH,,,,016,2000-01-01T00:00:00,2024-04-26T16:16:18,3,revise,active
5110AWD71506,dbgdjmj,,,Aber Wheeler,,,,,,A541,,,,nr,,SW,E0036791,Sodom,,,,,,,false,UKOS,310212,371171,-3.346526333,53.229962089,BCT,MKD,OTH,,,,016,2000-01-01T00:00:00,2024-04-26T16:16:00,3,revise,active
5110AWD71507,dbgajgj,,,Railway Terrace,,,,Railway Terrace,,A541,,,,opp,,SW,E0054190,Bodfari,,,,,,,false,UKOS,309642,370050,-3.354744534,53.21979167,BCT,MKD,OTH,,,,016,2000-01-01T00:00:00,2025-06-08T16:11:36,3,revise,active
5110AWD71508,dbgajgm,,,Geinas Farm,,,,Geinas Farm,,A541,,,,nr,,SW,N0075600,Geinas,,,,,,,false,UKOS,309341,369791,-3.359177392,53.217408314,BCT,CUS,OTH,,,,016,2000-01-01T00:00:00,2025-06-08T16:11:35,6,revise,active
5110AWD71509,dbgadjm,,,Pontruffydd,,,,Pontruffydd Cottages,,A541,,,,before,,SW,E0054190,Bodfari,,,,,,,false,UKOS,308224,369696,-3.375873212,53.216367241,BCT,MKD,OTH,,,,016,2000-01-01T00:00:00,2024-04-26T16:16:39,3,revise,active
5110AWD71510,dbgajta,,,Gliding Centre,,,,Denbigh Gliding Centre,,A543,,,,o/s,,SW,E0036736,Green,,,,,,,false,UKOS,306976,368815,-3.394299797,53.208233185,BCT,MKD,OTH,,,,016,2000-01-01T00:00:00,2025-06-11T10:43:38,4,revise,active
5110AWD71511,dbgajaw,,,Ty`n-yr-eithin,,,,Ty`n-yr-eithin,,A543,,,,after,,SW,E0036736,Green,,,,,,,false,UKOS,306136,367627,-3.40652325,53.197409824,BCT,MKD,OTH,,,,016,2000-01-01T00:00:00,2024-05-24T12:05:52,4,revise,active
5110AWD71512,dbgagjp,,,Gloddaeth Villas,,,,Gloddaeth Villas,,Rhyl,,,,nr,,SW,E0036724,Fron,Denbigh,,,,,,false,UKOS,306015,367129,-3.408187216,53.192913328,BCT,MKD,OTH,,,,016,2000-01-01T00:00:00,2024-04-26T16:16:57,4,revise,active
5110AWD71513,dbgagtp,,,Ysgol Frongoch,,,,Ysgol Frongoch,,Rhyl Road,,,,opp,,NE,E0036724,Fron,Denbigh,,,,,,false,UKOS,305909,366776,-3.40966906,53.189717878,BCT,MKD,OTH,,,,016,2000-01-01T00:00:00,2024-04-26T16:16:51,4,revise,active
5110AWD71514,dbgagmd,,,Abbey Road,,,,,,Rhyl Road,,,,before,,S,E0036724,Fron,Denbigh,,,,,,false,UKOS,305829,366541,-3.410796757,53.187596538,BCT,MKD,OTH,,,,016,2000-01-01T00:00:00,2024-04-26T16:16:52,2,revise,active
5110AWD71515,dbgagtj,,,Lidl,,,,,,Vale Street,,,,o/s,,NE,E0054198,Denbigh,,,,,,,false,UKOS,305664,366388,-3.413220067,53.186192393,BCT,MKD,OTH,,,,016,2000-01-01T00:00:00,2025-06-08T16:11:33,5,revise,active
5110AWD71516,dbgagpm,,,Lidl,,,,,,Vale Street,,,,opp,,SW,E0054198,Denbigh,,,,,,,false,UKOS,305612,366346,-3.413985583,53.185805741,BCT,MKD,OTH,,,,016,2000-01-01T00:00:00,2025-06-08T16:11:32,5,revise,active
5110AWD71517,dbgagmt,,,Denbigh Police Station,,,,Denbigh Police Station,,Vale Street,,,,nr,,NE,E0054198,Denbigh,,,,,,,false,UKOS,305447,366242,-3.416423088,53.184837274,BCT,MKD,OTH,,,,016,2000-01-01T00:00:00,2024-04-26T16:16:21,4,revise,active
5110AWD71518,dbgagmp,,,Library and Museum,,,,Denbigh Library Museum Gallery,,High Street,,,,before,,NE,E0054198,Denbigh,,,,,,,false,UKOS,305225,366098,-3.419701522,53.183508307,BCT,MKD,OTH,,,,016,2000-01-01T00:00:00,2024-04-26T16:16:26,3,revise,active
5110AWD71519,dbgagtg,,,Denbigh Morrisons,,Morrisons,,Morrisons Supermarket,,Grounds,,,,in,,SW,E0054198,Denbigh,,,,,,,false,UKOS,304917,365949,-3.424264609,53.182114365,BCT,MKD,OTH,,,,016,2000-01-01T00:00:00,2025-06-08T16:11:30,4,revise,active
5110AWD71520,dbgamgp,,,Maes y Goron,,,,,,Maes y Dre,,,,before,,SE,E0036741,Lenten Pool,Denbigh,,,,,,false,UKOS,304665,366024,-3.428056614,53.182743181,BCT,MKD,OTH,,,,016,2000-01-01T00:00:00,2024-04-26T16:16:31,3,revise,active
5110AWD71521,dbgagjg,,,Bryn Garth,,,,Garage,,Bryn Garth,,,,on,,SE,E0054198,Denbigh,,,,,,,false,UKOS,304593,365952,-3.429112146,53.182083264,BCT,MKD,OTH,,,,016,2000-01-01T00:00:00,2024-04-26T16:16:03,3,revise,active
5110AWD71522,dbgagad,,,Maes Celyn,,,,,,B5382,,,,nr,,NW,E0036741,Lenten Pool,Denbigh,,,,,,false,UKOS,304579,366323,-3.429432454,53.185414588,BCT,MKD,OTH,,,,016,2000-01-01T00:00:00,2024-04-26T16:16:30,3,revise,active
5110AWD71523,dbgadwp,,,Blaen-y-coed,,,,,,Bryn Seion,,,,before,,SW,E0036715,Copenhagen,Denbigh,,,,,,false,UKOS,304696,366411,-3.427708416,53.186226358,BCT,MKD,OTH,,,,016,2000-01-01T00:00:00,2024-04-26T16:16:01,2,revise,active
5110AWD71524,dbgadwt,,,Bryn Seion Uchaf,,,,,,Bryn Seion,,,,nr,,E,E0036715,Copenhagen,Denbigh,,,,,,false,UKOS,304859,366619,-3.425331899,53.188124672,BCT,MKD,OTH,,,,016,2000-01-01T00:00:00,2024-04-26T16:16:04,2,revise,active
5110AWD71525,dbgamat,,,Denbigh Golf Club,,Golf Club,,,,Unclassified,,,,o/s,,SE,E0054203,Henllan,,,,,,,false,UKOS,303988,367483,-3.438622608,53.195727373,BCT,CUS,OTH,,,,016,2000-01-01T00:00:00,2024-04-26T16:16:09,6,revise,active
5110AWD71526,dbgamdm,,,Meifod Road,,,,,,Ffordd Meifod,,,,bottom,,NW,E0054203,Henllan,,,,,,,false,UKOS,302747,368158,-3.457398022,53.201571738,BCT,MKD,OTH,,,,016,2000-01-01T00:00:00,2024-04-26T16:16:59,3,revise,active
5110AWD71527,dbgamap,,,Bryn y Garn Road,,,,,,Ffordd Bryn-y-Garn,,,,in,,NW,E0054203,Henllan,,,,,,,false,UKOS,302702,368445,-3.458159026,53.204142462,BCT,MKD,OTH,,,,016,2000-01-01T00:00:00,2025-06-08T16:11:26,4,revise,active
5110AWD71528,dbgamda,,,Henllan Day Centre,,Day Centre,,Henllan Day Centre,,B5428,,,,nr former,,SW,E0054203,Henllan,,,,,,,false,UKOS,302499,368409,-3.461186048,53.203777164,BCT,MKD,OTH,,,,016,2000-01-01T00:00:00,2024-04-26T16:16:05,4,revise,active
5110AWD71532,dbgamdg,,,Henllan Post Office,,,,Henllan Post Office,,Denbigh Street,,,,nr,,E,E0054203,Henllan,,,,,,,false,UKOS,302433,368103,-3.462080194,53.20101535,BCT,MKD,OTH,,,,016,2000-01-01T00:00:00,2025-06-11T10:43:41,5,revise,active
5110AWD71533,dbgamdp,,,Parc-y-Llan,,,,,,Denbigh Street,,,,before,,E,E0054203,Henllan,,,,,,,false,UKOS,302723,368104,-3.457740606,53.201077526,BCT,MKD,OTH,,,,016,2000-01-01T00:00:00,2024-04-26T16:16:36,5,revise,active
5110AWD71534,dbgagpa,,,Lenten Pool,,,,,,Bridge Street,,,,opp,,E,E0054198,Denbigh,,,,,,,false,UKOS,305032,366101,-3.422589558,53.183500814,BCT,MKD,OTH,,,,016,2000-01-01T00:00:00,2025-06-08T16:25:45,5,revise,active
5110AWD71535,dbgagpj,,,Myddelton Avenue,,,,,,Lon Llewelyn,,,,after,,SE,E0054198,Denbigh,,,,,,,false,UKOS,304614,365906,-3.428784271,53.181673673,BCT,MKD,OTH,,,,016,2000-01-01T00:00:00,2024-04-26T16:17:00,3,revise,active
5110AWD71536,dbgdpmt,,,Leger Farm,,,,,,A543,,,,o/s,,E,E0054198,Denbigh,,,,,,,false,UKOS,302118,365537,-3.466007366,53.17790408,BCT,MKD,OTH,,,,016,2000-01-01T00:00:00,2024-04-26T16:16:15,3,revise,active
5110AWD71537,dbgagmg,,,Gwaunynnog Bach,,,,,,A543,,,,nr,,NE,E0036790,Smithfield,,,,,,,false,UKOS,302477,365628,-3.46066556,53.178787782,BCT,CUS,OTH,,,,016,2000-01-01T00:00:00,2025-06-08T16:25:41,3,revise,active
5110AWD71538,dbgagpg,,,Llewelyn`s Estate,,,,,,Lon Llewelyn,,,,before,,NW,E0054198,Denbigh,,,,,,,false,UKOS,304951,365731,-3.423691117,53.180161474,BCT,CUS,OTH,,,,016,2000-01-01T00:00:00,2024-04-26T16:16:52,3,revise,active
5110AWD71539,dbgamgj,,,Gwynfryn,,,,,,B4501,,,,nr,,SW,E0054198,Denbigh,,,,,,,false,UKOS,304994,365386,-3.422945283,53.177068952,BCT,CUS,OTH,,,,016,2000-01-01T00:00:00,2024-04-26T16:16:24,2,revise,active
5110AWD71540,dbgamgm,,,Pont Lawnt,,,,Pont Lawnt,,B4501,,,,after,,SW,E0036740,Lawnt,,,,,,,false,UKOS,304265,365043,-3.433746127,53.173855944,BCT,CUS,OTH,,,,016,2000-01-01T00:00:00,2024-04-26T16:16:38,2,revise,active
5110AWD71541,dbgamgd,,,Derwen-gornel,,,,Derwen-gornel,,B4501,,,,nr,,N,E0036740,Lawnt,,,,,,,false,UKOS,303914,364581,-3.43885668,53.169641064,BCT,MKD,OTH,,,,016,2000-01-01T00:00:00,2024-04-26T16:16:12,2,revise,active
5110AWD71542,dbgatja,,,Waen Segrwyd,,,,,,Main Road,,,,nr,,W,E0036767,Peniel,,,,,,,false,UKOS,302069,363758,-3.466195033,53.161909036,BCT,CUS,OTH,,,,016,2000-01-01T00:00:00,2024-04-26T16:16:48,2,revise,active
5110AWD71543,dbgatdp,,,Maes Lliwen,,,,,,Main Road,,,,nr,,NE,E0054217,Nantglyn,,,,,,,false,UKOS,300559,362273,-3.488309881,53.148284844,BCT,MKD,OTH,,,,016,2000-01-01T00:00:00,2024-04-26T16:16:31,3,revise,active
5110AWD71544,dbgatdt,,,Nantglyn War Memorial,,,,Nantglyn War Memorial,,B5435,,,,o/s,,W,E0054217,Nantglyn,,,,,,,false,UKOS,300421,362040,-3.4903,53.146165327,BCT,MKD,OTH,,,,016,2000-01-01T00:00:00,2025-06-08T16:25:37,5,revise,active
5110AWD71545,dbgdmgw,,,Glyn Cottage,,,,Glyn Cottage,,B5435,,,,nr,,SE,E0054225,Waen,,,,,,,false,UKOS,299779,362305,-3.499978211,53.148426076,BCT,CUS,OTH,,,,016,2000-01-01T00:00:00,2024-05-24T12:05:53,3,revise,active
5110AWD71546,dbgadpw,,,Ceunant,,,,,,B5435,,,,nr,,NW,E0054217,Nantglyn,,,,,,,false,UKOS,301254,361544,-3.477696996,53.141863496,BCT,CUS,OTH,,,,016,2000-01-01T00:00:00,2024-05-24T12:05:54,4,revise,active
5110AWD71547,dbgadta,,,Groesffordd Nant-y-Ci,,,,Groesffordd Nant-y-Ci,,B5435,,,,before,,NW,N0075594,Cader,,,,,,,false,UKOS,301917,361107,-3.467654886,53.138059192,BCT,CUS,OTH,,,,016,2000-01-01T00:00:00,2024-04-26T16:16:23,3,revise,active
5110AWD71548,dbgdjmg,,,Capel Saron,,,,Capel Saron,,Main Road,,,,after,,NW,N0075619,Saron,,,,,,,false,UKOS,302826,360677,-3.45394094,53.134361883,BCT,CUS,OTH,,,,016,2000-01-01T00:00:00,2024-04-26T16:16:07,3,revise,active
5110AWD71549,dbgdjmd,,,Meifod Crossroads,,,,,,Unclassified Road,,,,after,,NW,N0075619,Saron,,,,,,,false,UKOS,303709,359637,-3.44043442,53.125176739,BCT,CUS,OTH,,,,016,2000-01-01T00:00:00,2025-06-08T16:25:33,4,revise,active
5110AWD71550,dbgatgj,,,Y Fron Farm,,,,,,Main Road,,,,after,,NE,N0071194,Pant-Pastynog,,,,,,,false,UKOS,304155,361485,-3.434324777,53.141863575,BCT,CUS,OTH,,,,016,2000-01-01T00:00:00,2024-04-26T16:16:16,3,revise,active
5110AWD71551,dbgatgd,,,St James` Church,,,,St James` Church,,Main Road,,,,before,,NE,N0071194,Pant-Pastynog,,,,,,,false,UKOS,304703,361793,-3.426226749,53.144729704,BCT,MKD,OTH,,,,016,2000-01-01T00:00:00,2025-06-11T10:43:38,3,revise,active
5110AWD71552,dbgawta,,,Maes Y Groes,,,,,,Unclassifed Road,,,,nr,,E,E0036775,Prion,,,,,,,false,UKOS,305264,362230,-3.417971526,53.148756821,BCT,CUS,OTH,,,,016,2000-01-01T00:00:00,2025-06-08T16:25:29,3,revise,active
5110AWD71553,dbgatwt,,,Llys Crossroads,,,,Llys Crossroads,,Main Road,,,,before,,SE,N0075618,Pont-Ystrad,,,,,,,false,UKOS,305774,364395,-3.410986441,53.168302482,BCT,CUS,OTH,,,,016,2000-01-01T00:00:00,2024-04-26T16:16:23,2,revise,active
5110AWD71554,dbgawad,,,Parc-y-Twll,,,,,,Main Road,,,,nr,,NW,E0054198,Denbigh,,,,,,,false,UKOS,305251,365205,-3.419047623,53.175488329,BCT,CUS,OTH,,,,016,2000-01-01T00:00:00,2025-06-08T16:25:26,4,revise,active
5110AWD71887,dbgdmgt,,,Wigfair Farm,,,,Farm,,Unclassified Road,,,,nr,,E,E0036803,Wigfair,,,,,,,false,UKOS,302835,371400,-3.457069638,53.23072022,BCT,CUS,OTH,,,,016,2000-01-01T00:00:00,2024-05-25T16:19:16,3,revise,active
5110AWD71888,dbgdmgm,,,Glascoed Fawr,,,,Glascoed Fawr Cottage,,Unnamed,,,,nr,,NW,E0036803,Wigfair,,,,,,,false,UKOS,302267,371790,-3.465695435,53.234120388,BCT,CUS,OTH,,,,016,2000-01-01T00:00:00,2024-04-26T16:16:20,2,revise,active
5110AWD71889,dbgdpmj,,,Cefnmeiriadog,,,,,,Maes Robert,,,,nr,,E,N0075623,Tyn-y-ffordd,,,,,,,false,UKOS,301696,371347,-3.47411028,53.230034169,BCT,MKD,OTH,,,,016,2000-01-01T00:00:00,2025-06-08T16:25:22,3,revise,active
5110AWD71890,dbgdpmp,,,St Mary's Church,,,,St Mary's Church,,Maes Robert,,,,o/s,,NE,N0075623,Tyn-y-ffordd,,,,,,,false,UKOS,301866,371467,-3.471601487,53.231143939,BCT,CUS,OTH,,,,016,2000-01-01T00:00:00,2024-04-26T16:16:13,2,revise,active
5110AWD71891,dbgamad,,,Rhodfa Clwyd,,,,,,Clwydian Park Road,,,,before,,NE,N0075606,Hafod-y-green,,,,,,,false,UKOS,304409,371090,-3.433404904,53.228220471,BCT,CUS,OTH,,,,016,2000-01-01T00:00:00,2024-04-26T16:16:40,3,revise,active
5110AWD71892,dbgajwp,,,Nant-y-Patrick,,,,,,St Asaph Road,,,,before,,N,N0075606,Hafod-y-green,,,,,,,false,UKOS,304577,371275,-3.430944579,53.229913121,BCT,MKD,OTH,,,,016,2000-01-01T00:00:00,2024-04-26T16:16:33,3,revise,active
5110AWD71893,dbgajwt,,,Nant-y-Patrick,,,,,,St Asaph Road,,,,after,,S,N0075606,Hafod-y-green,,,,,,,false,UKOS,304594,371294,-3.43069569,53.230086912,BCT,MKD,OTH,,,,016,2000-01-01T00:00:00,2024-04-26T16:16:33,3,revise,active
5110AWD71894,dbgamag,,,Thatched Cottage,,,,,,St Asaph Road,,,,nr,,SW,N0075606,Hafod-y-green,,,,,,,false,UKOS,304640,371616,-3.430103272,53.232988676,BCT,MKD,OTH,,,,016,2000-01-01T00:00:00,2024-04-26T16:16:05,3,revise,active
5110AWD71895,dbgamaj,,,Thatched Cottage,,,,,,St Asaph Road,,,,nr,,N,N0075606,Hafod-y-green,,,,,,,false,UKOS,304628,371786,-3.430333925,53.23451414,BCT,MKD,OTH,,,,016,2000-01-01T00:00:00,2024-04-26T16:16:05,3,revise,active
5110AWD71896,dbgajwm,,,Llannerch Equestrian Centre,,,,,,A525,,,,opp,,NW,N0075606,Hafod-y-green,,,,,,,false,UKOS,304533,372144,-3.431864127,53.237714039,BCT,MKD,OTH,,,,016,2000-01-01T00:00:00,2025-06-11T10:43:40,3,revise,active
5110AWD71897,dbgdjpg,,,Bryn Polyn,,,,,,St Asaph Road,,,,nr,,NW,E0054222,St Asaph,,,,,,,false,UKOS,304437,372444,-3.43339212,53.240392548,BCT,MKD,OTH,,,,016,2000-01-01T00:00:00,2025-06-08T16:25:19,6,revise,active
5110AWD71898,dbgdjtp,,,Bryn Polyn Nurseries,,Nurseries,,,,Upper Denbigh Road,,,,before,,NW,E0054222,St Asaph,,,,,,,false,UKOS,304352,372827,-3.434780482,53.243818854,BCT,MKD,OTH,,,,016,2000-01-01T00:00:00,2025-06-08T16:25:15,4,revise,active
5110AWD71899,dbgdjtj,,,Oriel House Hotel,,,,Hotel,,Upper Denbigh Road,,,,o/s,,N,E0054222,St Asaph,,,,,,,false,UKOS,304272,373143,-3.436073998,53.246643985,BCT,MKD,OTH,,,,016,2000-01-01T00:00:00,2024-04-26T16:16:34,4,revise,active
5110AWD71900,dbgdjpd,,,Bryn Asaph,,,,,,Upper Denbigh Road,,,,nr,,N,E0054222,St Asaph,,,,,,,false,UKOS,304211,373442,-3.437077906,53.24931977,BCT,MKD,OTH,,,,016,2000-01-01T00:00:00,2025-06-08T16:25:11,4,revise,active
5110AWD71901,dbgdjpw,,,HM Stanley Hospital,,,,HM Stanley Hospital,,Upper Denbigh Road,,,,nr,,S,E0054222,St Asaph,,,,,,,false,UKOS,304252,373730,-3.436550355,53.25191513,BCT,MKD,OTH,,,,016,2000-01-01T00:00:00,2024-04-26T16:16:50,4,revise,active
5110AWD71902,dbgdjpt,,,HM Stanley Hospital,,,,HM Stanley Hospital,,Upper Denbigh Road,,,,nr,,NW,E0054222,St Asaph,,,,,,,false,UKOS,304162,373847,-3.437934095,53.252950225,BCT,MKD,OTH,,,,016,2000-01-01T00:00:00,2024-04-26T16:16:50,4,revise,active
5110AWD71903,dbgdjmw,,,Bishops Walk,,,,,,Upper Denbigh Road,,,,after,,SE,E0054222,St Asaph,,,,,,,false,UKOS,304128,373902,-3.438460116,53.253438304,BCT,MKD,OTH,,,,016,2000-01-01T00:00:00,2024-04-26T16:16:53,2,revise,active
5110AWD71904,dbgdmad,,,Trefnant Village Hall,,Village Hall,,Trefnant Village Hall,,Post Office Terrace,,,,opp,,NW,E0054223,Trefnant,,,,,,,false,UKOS,305200,370610,-3.421416782,53.2240445,BCT,MKD,OTH,,,,016,2000-01-01T00:00:00,2024-04-26T16:16:34,5,revise,active
5110AWD71905,dbgdmag,,,Trefnant Village Hall,,Village Hall,,Trefnant Village Hall,,Post Office Terrace,,,,after,,SE,E0054223,Trefnant,,,,,,,false,UKOS,305238,370572,-3.420836486,53.223709817,BCT,MKD,OTH,,,,016,2000-01-01T00:00:00,2024-04-26T16:16:34,5,revise,active
5110AWD71906,dbgdjwt,,,College Farm,,,,College Farm,,A525,,,,nr,,NW,E0054223,Trefnant,,,,,,,false,UKOS,305422,370207,-3.41797313,53.220467299,BCT,MKD,OTH,,,,016,2000-01-01T00:00:00,2024-04-26T16:16:16,3,revise,active
5110AWD71907,dbgajtj,,,Plas Newydd,,,,Plas Newydd Lodge,,A525,,,,o/s,,NW,E0036736,Green,,,,,,,false,UKOS,305650,369734,-3.41441939,53.216257457,BCT,MKD,OTH,,,,016,2000-01-01T00:00:00,2024-04-26T16:16:37,3,revise,active
5110AWD71908,dbgajpw,,,Coed Estyn,,,,,,A525,,,,nr,,NW,E0036736,Green,,,,,,,false,UKOS,305953,368712,-3.409581566,53.207122836,BCT,MKD,OTH,,,,016,2000-01-01T00:00:00,2024-04-26T16:16:09,4,revise,active
5110AWD71909,dbgajtm,,,Tyddyn-y-Parc,,,,Tyddyn-y-Parc,,A525,,,,o/s,,N,E0036736,Green,,,,,,,false,UKOS,305963,368235,-3.409291323,53.202842799,BCT,MKD,OTH,,,,016,2000-01-01T00:00:00,2024-04-26T16:16:47,3,revise,active
5110AWD71911,dbgajtd,,,Plas Clough,,,,,,A525,,,,nr,,N,E0036736,Green,,,,,,,false,UKOS,305972,367752,-3.409014117,53.198499511,BCT,MKD,OTH,,,,016,2000-01-01T00:00:00,2024-04-26T16:16:37,4,revise,active
5110AWD71912,dbgdmja,,,Bro Lleweni,,,,,,B5429,,,,before,,N,E0036800,Waen Aberwheeler,,,,,,,false,UKOS,309621,369319,-3.354851596,53.213219096,BCT,MKD,OTH,,,,016,2000-01-01T00:00:00,2025-06-08T16:25:07,6,revise,active
5110AWD71913,dbgagwd,,,Dre Goch Ganol,,,,,,B5429,,,,nr,,N,N0075596,Dre-goch,,,,,,,false,UKOS,310343,368212,-3.343731808,53.20339361,BCT,CUS,OTH,,,,016,2000-01-01T00:00:00,2025-06-08T16:25:03,3,revise,active
5110AWD71915,dbgagwa,,,Cefn Bithel,,,,,,B5429,,,,nr,,SE,N0075596,Dre-goch,,,,,,,false,UKOS,310849,367108,-3.335850048,53.193557793,BCT,MKD,OTH,,,,016,2000-01-01T00:00:00,2025-06-08T16:25:00,3,revise,active
5110AWD71916,dbgadpd,,,Staverton,,,,Staverton,,Whitchurch Road,,,,nr,,W,E0054198,Denbigh,,,,,,,false,UKOS,306957,366106,-3.39379398,53.183881658,BCT,MKD,OTH,,,,016,2000-01-01T00:00:00,2024-04-26T16:16:42,3,revise,active
5110AWD71917,dbgampw,,,Rowlands Fruit Farm,,,,,,Unclassified Road,,,,nr,,NW,E0054225,Waen,,,,,,,false,UKOS,309876,365666,-3.350002131,53.180435257,BCT,CUS,OTH,,,,016,2000-01-01T00:00:00,2025-06-08T16:24:55,5,revise,active
5110AWD71918,dbgamta,,,Waen Crossroads,,,,,,B5429,,,,before,,SW,E0054225,Waen,,,,,,,false,UKOS,310848,365894,-3.335525887,53.182648097,BCT,MKD,OTH,,,,016,2000-01-01T00:00:00,2025-06-08T16:24:51,6,revise,active
5110AWD71919,dbgamtj,,,White Horse,,,,,,B5429,,,,opp,,N,E0054208,Llandyrnog,,,,,,,false,UKOS,310757,365150,-3.33667927,53.175946911,BCT,MKD,OTH,,,,016,2000-01-01T00:00:00,2024-04-26T16:16:49,3,revise,active
5110AWD71920,dbgampt,,,Maes Llan,,,,,,Unclassified Road,,,,before,,NE,E0054208,Llandyrnog,,,,,,,false,UKOS,310910,365107,-3.334378822,53.175586157,BCT,MKD,OTH,,,,016,2000-01-01T00:00:00,2025-06-08T16:24:47,3,revise,active
5110AWD71921,dbgajtp,,,Groes Efa Bach,,,,,,Unclassifed Road,,,,nr,,W,N0075602,Groes Efa,,,,,,,false,UKOS,311462,365537,-3.326241593,53.179537992,BCT,MKD,OTH,,,,016,2000-01-01T00:00:00,2025-06-08T16:24:43,4,revise,active
5110AWD71922,dbgajtw,,,Llangwyfan Sanitorium,,,,Rhiwbebyll Isaf,,Unclassifed Road,,,,nr,,SW,E0036743,Llangwyfan,,,,,,,false,UKOS,312272,365838,-3.314207963,53.182381827,BCT,MKD,OTH,,,,016,2000-01-01T00:00:00,2024-05-25T16:19:14,3,revise,active
5110AWD71923,dbgajwa,,,Groes Fawr,,,,,,Unclassifed Road,,,,nr,,E,N0075603,Groes-fawr,,,,,,,false,UKOS,312600,365199,-3.309126305,53.17669347,BCT,CUS,OTH,,,,016,2000-01-01T00:00:00,2025-06-08T16:24:38,3,revise,active
5110AWD71924,dbgapjw,,,Ty Coch,,,,Farm,,Unclassifed Road,,,,nr,,S,E0054213,Llangynhafal,,,,,,,false,UKOS,312901,363818,-3.304247543,53.164332421,BCT,CUS,OTH,,,,016,2000-01-01T00:00:00,2025-06-08T16:24:34,3,revise,active
5110AWD71925,dbgapjt,,,Golden Lion Inn,,,,Golden Lion Inn PH,,Main Road,,,,o/s,,S,E0054213,Llangynhafal,,,,,,,false,UKOS,312931,363543,-3.303724027,53.161866023,BCT,MKD,OTH,,,,016,2000-01-01T00:00:00,2024-04-26T16:16:20,2,revise,active
5110AWD71926,dbgapjp,,,Cyffion Crossroads,,,,,,Unclassified Road,,,,after,,W,E0054213,Llangynhafal,,,,,,,false,UKOS,312928,363320,-3.30370814,53.159861522,BCT,MKD,OTH,,,,016,2000-01-01T00:00:00,2024-04-26T16:16:11,2,revise,active
5110AWD71927,dbgamam,,,White Horse,,,,White Horse P H,,Unclassified Road,,,,after,,S,E0036738,Hendrerwydd,,,,,,,false,UKOS,312169,363409,-3.315080974,53.160536529,BCT,MKD,OTH,,,,016,2000-01-01T00:00:00,2025-06-08T16:24:30,3,revise,active
5110AWD71928,dbgajgp,,,Gellifor Primary School,,,,Gellifor Primary School,,Main Road,,,,o/s,,SE,E0036729,Gellifor,,,,,,,false,UKOS,312119,362520,-3.315584231,53.152539224,BCT,MKD,OTH,,,,016,2000-01-01T00:00:00,2024-04-26T16:16:51,3,revise,active
5110AWD71929,dbgawtm,,,Bryn Derw,,,,Rhos Amion,,Unclassified Road,,,,nr,,N,E0036780,Rhos,,,,,,,false,UKOS,312304,361966,-3.312666739,53.14759119,BCT,CUS,OTH,,,,016,2000-01-01T00:00:00,2025-06-08T16:24:26,3,revise,active
5110AWD71930,dbgdadj,,,Plas Yn Rhos Farm,,,,Rhos Farm,,Unclassifed Road,,,,nr,,NW,E0036780,Rhos,,,,,,,false,UKOS,312267,361699,-3.313146578,53.145185674,BCT,MKD,OTH,,,,016,2000-01-01T00:00:00,2024-04-26T16:16:15,2,revise,active
5110AWD71931,dbgawtw,,,Foxes Hollow,,,,,,B5429,,,,nr,,NW,E0036780,Rhos,,,,,,,false,UKOS,312332,361242,-3.312049843,53.141089516,BCT,CUS,OTH,,,,016,2000-01-01T00:00:00,2024-04-26T16:16:57,2,revise,active
5110AWD71933,dbgdadg,,,Plas Gwyn Farm,,,,Plas Gwyn Farm,,B5429,,,,o/s,,NW,E0036780,Rhos,,,,,,,false,UKOS,312476,361028,-3.309839205,53.139190084,BCT,MKD,OTH,,,,016,2000-01-01T00:00:00,2024-04-26T16:16:15,2,revise,active
5110AWD71935,dbgamga,,,Groes Ucha,,,,Glascoed,,B5429,,,,nr,,SE,E0036739,Hirwaen,,,,,,,false,UKOS,313244,360379,-3.298185828,53.133483484,BCT,MKD,OTH,,,,016,2000-01-01T00:00:00,2025-06-08T16:24:23,3,revise,active
5110AWD71936,dbgdjat,,,Cae Delyn,,,,,,B5429,,,,nr,,NW,E0054205,Llanbedr Dyffryn Clwyd,,,,,,,false,UKOS,313915,359954,-3.288044997,53.129773065,BCT,CUS,OTH,,,,016,2000-01-01T00:00:00,2025-06-08T16:24:19,3,revise,active
5110AWD71937,dbgamwj,,,Ffolt Crossroads,,,,Capel Salem,,B5429,,,,before,,NW,E0054210,Llanfair Dyffryn Clwyd,,,,,,,false,UKOS,314187,355804,-3.282870094,53.092522015,BCT,CUS,OTH,,,,016,2000-01-01T00:00:00,2025-06-08T16:24:15,4,revise,active
5110AWD71938,dbgajpt,,,Three Pigeons Inn,,,,Three Pigeons Inn PH,,B6429,,,,o/s,,N,E0036735,Graig-fechan,,,,,,,false,UKOS,314728,354473,-3.274440205,53.080647379,BCT,CUS,OTH,,,,016,2000-01-01T00:00:00,2025-06-08T16:24:12,3,revise,active
5110AWD71939,dbgajpm,,,Maes Hyfryd,,,,,,B5429,,,,before,,SE,E0036735,Graig-fechan,,,,,,,false,UKOS,314857,354089,-3.272413153,53.077217046,BCT,MKD,OTH,,,,016,2000-01-01T00:00:00,2025-06-08T16:24:09,3,revise,active
5110AWD71940,dbgatjm,,,Capel Bethel,,,,Capel Bethel,,B5429,,,,after,,NE,E0036772,Pentre-celyn,,,,,,,false,UKOS,314995,353451,-3.270184933,53.071505451,BCT,CUS,OTH,,,,016,2000-01-01T00:00:00,2025-06-08T16:24:06,3,revise,active
5110AWD71941,dbgatjw,,,Post Office,,,,Pentrecelyn Post Office,,B5429,,,,o/s,,S,E0036772,Pentre-celyn,,,,,,,false,UKOS,314946,353281,-3.270871087,53.069969879,BCT,CUS,OTH,,,,016,2000-01-01T00:00:00,2024-04-26T16:16:43,4,revise,active
5110AWD71942,dbgatjt,,,Pentrecelyn School,,,,Pentrecelyn Primary School,,B5429,,,,o/s,,SW,E0036772,Pentre-celyn,,,,,,,false,UKOS,314780,352962,-3.273263364,53.067076592,BCT,MKD,OTH,,,,016,2000-01-01T00:00:00,2024-04-26T16:16:51,2,revise,active
5110AWD71943,dbgatwd,,,Pennant-isaf,,,,,,Nany-y-Garth Pass,,,,nr,,NE,E0036762,Pen-llain-wen,,,,,,,false,UKOS,317153,350711,-3.237278334,53.047220598,BCT,MKD,OTH,,,,016,2000-01-01T00:00:00,2024-04-26T16:16:37,2,revise,active
5110AWD71944,dbgamjg,,,Ton-y-nant Gate House,,,,Ton-y-nant Gate House,,A525,,,,before,,W,E0036765,Pen-y-stryt,,,,,,,false,UKOS,318009,351705,-3.224765933,53.056285824,BCT,MKD,OTH,,,,016,2000-01-01T00:00:00,2024-05-25T16:19:14,3,revise,active
5110AWD71946,dbgamjm,,,Post Office,,,,Llandegla War Memorial Hall,,The Village,,,,opp,,SE,E0054206,Llandegla,,,,,,,false,UKOS,319645,352375,-3.200529982,53.062555957,BCT,MKD,OTH,,,,016,2000-01-01T00:00:00,2025-06-08T16:24:02,4,revise,active
5110AWD71948,dbgajpg,,,Rose & Crown,,,,Rose & Cown PH,,Allt Bryn-Fotty,,,,opp,,NW,E0036733,Graianrhyd,,,,,,,false,UKOS,321766,356135,-3.169803118,53.096662857,BCT,MKD,OTH,,,,016,2000-01-01T00:00:00,2024-04-26T16:16:40,3,revise,active
5110AWD71950,dbgajpd,,,Maes Gwyn,,,,,,B5430,,,,before,,NW,E0036733,Graianrhyd,,,,,,,false,UKOS,321413,356247,-3.175101062,53.097617484,BCT,MKD,OTH,,,,016,2000-01-01T00:00:00,2024-04-26T16:16:30,3,revise,active
5110AWD71951,dbgajap,,,Sun Inn,,,,Sun Inn PH,,Bryn Euron,,,,after,,NE,E0036720,Erryrys,,,,,,,false,UKOS,320396,357885,-3.190692375,53.11218737,BCT,MKD,OTH,,,,016,2000-01-01T00:00:00,2025-06-08T16:27:49,4,revise,active
5110AWD71952,dbgatga,,,Plough Inn,,,,Plough Inn PH,,A525,,,,o/s,,NW,N0075612,Pant,,,,,,,false,UKOS,320704,351848,-3.184601052,53.057978132,BCT,MKD,OTH,,,,016,2000-01-01T00:00:00,2024-04-26T16:16:38,2,revise,active
5110AWD71953,dbgatmj,,,Tai Newyddion,,,,,,A542,,,,after,,S,E0036773,Pentredwr,,,,,,,false,UKOS,319128,348830,-3.207352026,53.030618617,BCT,MKD,OTH,,,,016,2000-01-01T00:00:00,2025-06-08T16:28:08,3,revise,active
5110AWD71954,dbgatmg,,,Ponderosa Cafe,,,,Cafe,,Horseshoe Pass,,,,o/s,,S,E0036773,Pentredwr,,,,,,,false,UKOS,319257,348092,-3.205243981,53.024005625,BCT,MKD,OTH,,,,016,2000-01-01T00:00:00,2024-04-26T16:16:05,3,revise,active
5110AWD71955,dbgatma,,,Oernant Uchaf,,,,,,Horseshoe Pass,,,,nr,,N,E0036773,Pentredwr,,,,,,,false,UKOS,318561,346789,-3.215288882,53.012189813,BCT,CUS,OTH,,,,016,2000-01-01T00:00:00,2025-06-08T16:28:21,4,revise,active
5110AWD71956,dbgatmd,,,Farm,,,,Pentredwr Farm,,Unclassified Road,,,,opp,,NW,E0036773,Pentredwr,,,,,,,false,UKOS,319863,346731,-3.195872956,53.011865293,BCT,MKD,OTH,,,,016,2000-01-01T00:00:00,2025-06-08T16:28:34,3,revise,active
5110AWD71957,dbgampd,,,Britannia Inn,,,,Britannia Inn PH,,A542,,,,o/s,,N,E0036773,Pentredwr,,,,,,,false,UKOS,320009,345352,-3.193355419,52.999493804,BCT,MKD,OTH,,,,016,2000-01-01T00:00:00,2024-05-25T16:08:12,3,revise,active
5110AWD71958,dbgatmw,,,Abbey Mount,,,,Abbey Mount,,A542,,,,nr,,NW,E0036774,Pentrefelin,,,,,,,false,UKOS,320220,344380,-3.189971908,52.990789729,BCT,MKD,OTH,,,,016,2000-01-01T00:00:00,2025-06-08T16:29:00,3,revise,active
5110AWD71959,dbgadaj,,,Chain Bridge Hotel,,,,Chain Bridge Hotel PH,,B5103,,,,nr,,SW,N0071191,Berwyn,,,,,,,false,UKOS,319937,343382,-3.193939489,52.981778202,BCT,MKD,OTH,,,,016,2000-01-01T00:00:00,2024-04-26T16:16:08,2,revise,active
5110AWD71960,dbgatwg,,,Llantysilio Farm,,,,Llantysilio Farm,,Main Road,,,,o/s,,SE,E0054215,Llantysilio,,,,,,,false,UKOS,319200,343989,-3.205065879,52.98712268,BCT,MKD,OTH,,,,016,2000-01-01T00:00:00,2025-06-08T16:29:16,4,revise,active
5110AWD71961,dbgampj,,,Llantysilio School,,,,Llantysilio Controlled School,,Main Road,,,,o/s,,SE,E0054215,Llantysilio,,,,,,,false,UKOS,318988,344464,-3.208342291,52.991359539,BCT,MKD,OTH,,,,016,2000-01-01T00:00:00,2024-05-25T16:08:11,3,revise,active
5110AWD71962,dbgampg,,,Hebron,,,,Capel Hebron,,Main Road,,,,o/s,,E,E0036778,Rhewl,,,,,,,false,UKOS,318226,344939,-3.219811874,52.995512514,BCT,MKD,OTH,,,,016,2000-01-01T00:00:00,2025-06-08T16:29:30,3,revise,active
5110AWD71963,dbgampm,,,Sun Inn,,,,Sun Inn PH,,Main Road,,,,after,,NE,E0036778,Rhewl,,,,,,,false,UKOS,317877,344767,-3.224966624,52.993913271,BCT,MKD,OTH,,,,016,2000-01-01T00:00:00,2024-04-26T16:16:42,3,revise,active
5110AWD71964,dbgatmt,,,Nant y Felin,,,,Pentrefelin House,,A494,,,,nr,,S,E0036774,Pentrefelin,,,,,,,false,UKOS,320438,343699,-3.186557225,52.984701871,BCT,MKD,OTH,,,,016,2000-01-01T00:00:00,2025-06-08T16:29:43,3,revise,active
5110AWD71965,dbgajgt,,,Bryn Derwen Hotel,,,,Bryn Derwen Hotel PH,,Abbey Road,,,,nr,,N,N0075601,Geufron,,,,,,,false,UKOS,320940,342986,-3.178906962,52.978368331,BCT,MKD,OTH,,,,016,2000-01-01T00:00:00,2024-04-26T16:16:03,2,revise,active
5110AWD71966,dbgajgw,,,Eisteddfod Pavilion,,,,Llangollen International Eisteddfod Ground,,Abbey Road,,,,o/s,,N,N0075601,Geufron,,,,,,,false,UKOS,321003,342590,-3.177872093,52.974818662,BCT,MKD,OTH,,,,016,2000-01-01T00:00:00,2025-06-11T10:43:40,5,revise,active
5110AWD71967,dbgapgt,,,Coed Afon,,,,,,Queen Street,,,,after,,E,E0054212,Llangollen,,,,,,,false,UKOS,322052,341932,-3.16209522,52.969058747,BCT,MKD,OTH,,,,016,2000-01-01T00:00:00,2024-04-26T16:16:09,2,revise,active
5110AWD71968,dbgdmga,,,Vale of Llangollen Golf Club,,Golf Club,,Vale of Llangollen Golf Club,,A5,,,,o/s,,SE,E0054212,Llangollen,,,,,,,false,UKOS,323964,341601,-3.133553706,52.966354232,BCT,MKD,OTH,,,,016,2000-01-01T00:00:00,2024-04-26T16:16:09,4,revise,active
5110AWD71970,dbgajdj,,,Maes Pengwern,,,,6,,Pengwern,,,,o/s,,NE,E0054212,Llangollen,,,,,,,false,UKOS,322108,341419,-3.161137974,52.964456377,BCT,CUS,OTH,,,,016,2000-01-01T00:00:00,2024-04-26T16:16:31,3,revise,active
5110AWD71971,dbgajda,,,Erw Deg,,,,,,Pengwern,,,,before,,NE,E0054212,Llangollen,,,,,,,false,UKOS,321949,341374,-3.163493841,52.964028797,BCT,CUS,OTH,,,,016,2000-01-01T00:00:00,2024-04-26T16:16:14,2,revise,active
5110AWD71972,dbgajdg,,,Glascoed,,,,,,Bachemill Road,,,,nr,,NW,E0054212,Llangollen,,,,,,,false,UKOS,321729,341621,-3.166828316,52.966216565,BCT,CUS,OTH,,,,016,2000-01-01T00:00:00,2024-05-25T16:08:10,3,revise,active
5110AWD71973,dbgadtg,,,Post Office,,,,Carrog Post Office,,B5437,,,,nr,,E,E0036707,Carrog,,,,,,,false,UKOS,311211,343562,-3.323921544,52.982019562,BCT,MKD,OTH,,,,016,2000-01-01T00:00:00,2025-06-08T16:35:33,3,revise,active
5110AWD71974,dbgadpm,,,New Inn,,,,,,Unclassified Road,,,,opp,,SW,E0054191,Bryneglwys,,,,,,,false,UKOS,314906,347498,-3.269939067,53.017992354,BCT,MKD,OTH,,,,016,2000-01-01T00:00:00,2024-04-26T16:16:34,2,revise,active
5110AWD71975,dbgadpj,,,Bryneglwys War Memorial,,,,Bryneglwys Village,,Unclassified Road,,,,before,,SE,E0054191,Bryneglwys,,,,,,,false,UKOS,314571,347234,-3.274861582,53.01556638,BCT,MKD,OTH,,,,016,2000-01-01T00:00:00,2024-04-26T16:16:09,3,revise,active
5110AWD71976,dbgadtj,,,Ty`n-y-llidiart Ind Est,,Industrial Estate,,Ty`n-y-llidiart Ind Estate,,B5437,,,,o/s,,SE,E0036711,Clawdd Poncen,,,,,,,false,UKOS,307466,344603,-3.379982577,52.990740353,BCT,MKD,OTH,,,,016,2000-01-01T00:00:00,2025-06-08T16:35:30,4,revise,active
5110AWD71977,dbgadtm,,,Maesafallen,,,,,,B5437,,,,after,,SE,E0054194,Corwen,,,,,,,false,UKOS,308027,344224,-3.371519719,52.987431137,BCT,MKD,OTH,,,,016,2000-01-01T00:00:00,2024-04-26T16:16:32,3,revise,active
5110AWD71978,dbgadtp,,,Alwen Cottage,,,,Alwen Cottage,,A5,,,,after,,NW,E0036797,Tyn-y-cefn,,,,,,,false,UKOS,306211,343631,-3.398390796,52.981787008,BCT,MKD,OTH,,,,016,2000-01-01T00:00:00,2024-04-26T16:16:04,4,revise,active
5110AWD71979,dbgagwg,,,The Druids,,,,Druids PH,,A5,,,,nr,,E,E0036719,Druid,,,,,,,false,UKOS,304162,343522,-3.42886709,52.980444614,BCT,MKD,OTH,,,,016,2000-01-01T00:00:00,2024-04-26T16:17:04,3,revise,active
5110AWD71981,dbgadat,,,Bettws Gwerfil Goch,,,,,,Main Road,,,,at,,NE,E0054188,Betws Gwerfil Goch,,,,,,,false,UKOS,303223,346628,-3.44377876,53.00818721,BCT,MKD,OTH,,,,016,2000-01-01T00:00:00,2025-06-08T16:35:27,4,revise,active
5110AWD71982,dbgatda,,,Capel Cynfal,,,,,,Main Road,,,,after,,W,E0036754,Melin-y-wig,,,,,,,false,UKOS,303978,348740,-3.433159341,53.027302398,BCT,CUS,OTH,,,,016,2000-01-01T00:00:00,2024-04-26T16:16:07,2,revise,active
5110AWD71983,dbgajwg,,,St Beuno`s,,,,Rose & Crown,,A494,,,,o/s,,NE,E0054202,Gwyddelwern,,,,,,,false,UKOS,307536,346711,-3.379543992,53.009696111,BCT,MKD,OTH,,,,016,2000-01-01T00:00:00,2025-06-11T10:43:41,5,revise,active
5110AWD71984,dbgajwd,,,Pen y Llan,,,,Pen y Lla,,A494,,,,o/s,,S,E0054202,Gwyddelwern,,,,,,,false,UKOS,307467,346425,-3.380489903,53.007109435,BCT,MKD,OTH,,,,016,2000-01-01T00:00:00,2024-04-26T16:16:37,5,revise,active
5110AWD71985,dbgadpg,,,Bryn Saith Marchog,,,,,,A494,,,,nr,,E,E0036702,Bryn Saith-Marchog,,,,,,,false,UKOS,307702,349997,-3.378011757,53.039254508,BCT,MKD,OTH,,,,016,2000-01-01T00:00:00,2025-06-08T16:35:20,4,revise,active
5110AWD71986,dbgatdw,,,Is Awel,,,,,,A494,,,,nr,,NE,E0036761,Pandyr-Capel,,,,,,,false,UKOS,308583,350370,-3.36498214,53.042753383,BCT,MKD,OTH,,,,016,2000-01-01T00:00:00,2025-06-08T16:35:15,6,revise,active
5110AWD72072,dbgapat,,,Cross Keys Hotel,,,,Cross Keys Hotel PH,,B5105,,,,nr,,NE,N0071193,Llanfwrog,,,,,,,false,UKOS,311260,357770,-3.32710925,53.109710536,BCT,MKD,OTH,,,,016,2000-01-01T00:00:00,2025-06-08T16:35:12,4,revise,active
5110AWD72073,dbgajdt,,,Telpyn Farm,,,,,,Unclassified Road,,,,nr,,E,E0036727,Galltegfa,,,,,,,false,UKOS,310115,358088,-3.344298039,53.112376335,BCT,MKD,OTH,,,,016,2000-01-01T00:00:00,2024-04-26T16:16:15,2,revise,active
5110AWD72074,dbgadma,,,Woodlands Hall,,,,,,Unclassifed Road,,,,nr,,S,E0036699,Bont-uchel,,,,,,,false,UKOS,309570,358242,-3.35248108,53.113668033,BCT,MKD,OTH,,,,016,2000-01-01T00:00:00,2024-04-26T16:16:34,2,revise,active
5110AWD72075,dbgadjt,,,Bridge Hotel,,,,Bridge Hotel PH,,Main Road,,,,nr,,E,E0036699,Bont-uchel,,,,,,,false,UKOS,308505,357799,-3.368260865,53.109505221,BCT,MKD,OTH,,,,016,2000-01-01T00:00:00,2025-06-08T16:35:10,3,revise,active
5110AWD72076,dbgadjp,,,Llais-yr-Afon,,,,Llais-yr-Afon,,Main Road,,,,nr,,W,E0036699,Bont-uchel,,,,,,,false,UKOS,308343,357782,-3.370675303,53.109324612,BCT,MKD,OTH,,,,016,2000-01-01T00:00:00,2024-04-26T16:16:26,2,revise,active
5110AWD72077,dbgagdt,,,Red Lion,,,,,,Unclassified Road,,,,after,,NW,E0054196,Cyffylliog,,,,,,,false,UKOS,305957,357755,-3.406299151,53.108666253,BCT,MKD,OTH,,,,016,2000-01-01T00:00:00,2025-06-08T16:35:06,4,revise,active
5110AWD72078,dbgadjw,,,Pistyll Gwyn,,,,,,Unclassified Road,,,,nr,,N,E0036699,Bont-uchel,,,,,,,false,UKOS,308148,357175,-3.37341356,53.103836281,BCT,CUS,OTH,,,,016,2000-01-01T00:00:00,2025-06-08T16:35:04,3,revise,active
5110AWD72079,dbgadwg,,,Cil Llwyn,,,,,,Unclassified,,,,nr,,SW,E0054193,Clocaenog,,,,,,,false,UKOS,307963,355681,-3.375747469,53.090378654,BCT,CUS,OTH,,,,016,2000-01-01T00:00:00,2025-06-08T16:35:00,3,revise,active
5110AWD72080,dbgadwm,,,Maes Caenog,,,,St Beuno's Church,,Maes Caenog,,,,o/s,,W,E0054193,Clocaenog,,,,,,,false,UKOS,308245,354201,-3.371115122,53.077127293,BCT,CUS,OTH,,,,016,2000-01-01T00:00:00,2025-06-08T16:34:57,7,revise,active
5110AWD72081,dbgadwj,,,Ysgol Carreg Emlyn,,,,,,Unclassified,,,,o/s,,NE,E0054193,Clocaenog,,,,,,,false,UKOS,308407,354135,-3.368678823,53.076562023,BCT,MKD,OTH,,,,016,2000-01-01T00:00:00,2025-06-08T16:34:55,5,revise,active
5110AWD72082,dbgadwa,,,Glanllyn Inn,,,,Glanllyn Inn PH,,B5105,,,,before,,SW,E0036712,Clawdd-newydd,,,,,,,false,UKOS,308373,352520,-3.368725809,53.062043004,BCT,MKD,OTH,,,,016,2000-01-01T00:00:00,2025-06-08T16:34:52,4,revise,active
5110AWD72083,dbgadwd,,,Tal Borth Turn,,,,,,B5105,,,,after,,SW,E0036712,Clawdd-newydd,,,,,,,false,UKOS,306701,352293,-3.393601836,53.059713472,BCT,MKD,OTH,,,,016,2000-01-01T00:00:00,2024-04-26T16:16:46,3,revise,active
5110AWD72084,dbgatat,,,Pont Petryal,,,,,,B5105,,,,before,,NE,E0036754,Melin-y-wig,,,,,,,false,UKOS,303686,351314,-3.438281474,53.050380521,BCT,MKD,OTH,,,,016,2000-01-01T00:00:00,2024-04-26T16:16:38,3,revise,active
5110AWD72085,dbgataw,,,Bryn Celyn Turn,,,,,,B5105,,,,before,,NE,E0036754,Melin-y-wig,,,,,,,false,UKOS,302164,349946,-3.46056322,53.037810788,BCT,MKD,OTH,,,,016,2000-01-01T00:00:00,2024-04-26T16:16:46,3,revise,active
5110AWD72089,dbgadtw,,,Bryn Siriol,,,,,,Unclassified Road,,,,opp,,E,E0036712,Clawdd-newydd,,,,,,,false,UKOS,307132,351877,-3.387052674,53.056050264,BCT,MKD,OTH,,,,016,2000-01-01T00:00:00,2025-06-08T16:36:38,4,revise,active
5110AWD72091,dbgagtw,,,St Mary's Church,,,,Church,,Unclassified Road,,,,o/s,,E,E0054199,Derwen,,,,,,,false,UKOS,307006,350719,-3.388597349,53.045622032,BCT,MKD,OTH,,,,016,2000-01-01T00:00:00,2025-06-08T16:36:53,3,revise,active
5110AWD72092,dbgamtp,,,Ffynnon Bach,,,,,,Main Road,,,,nr,,NE,E0054209,Llanelidan,,,,,,,false,UKOS,310600,350350,-3.33490113,53.04291963,BCT,MKD,OTH,,,,016,2000-01-01T00:00:00,2024-04-26T16:16:17,2,revise,active
5110AWD72093,dbgamwa,,,Tan Derw,,,,Capel Carmel,,Main Road,,,,nr,,N,E0054209,Llanelidan,,,,,,,false,UKOS,310685,350472,-3.333667534,53.044030222,BCT,MKD,OTH,,,,016,2000-01-01T00:00:00,2025-06-08T16:37:12,3,revise,active
5110AWD72094,dbgdamd,,,Garth-y-groes,,,,,,B5429,,,,nr,,NW,E0036783,Rhyd-y-meudwy,,,,,,,false,UKOS,312115,350747,-3.312419001,53.046738787,BCT,MKD,OTH,,,,016,2000-01-01T00:00:00,2024-04-26T16:16:18,2,revise,active
5110AWD72095,dbgdamg,,,Bro Meudwy,,,,,,B5429,,,,nr,,N,E0036783,Rhyd-y-meudwy,,,,,,,false,UKOS,312802,351049,-3.302255855,53.049565403,BCT,MKD,OTH,,,,016,2000-01-01T00:00:00,2024-04-26T16:16:02,2,revise,active
5110AWD72096,dbgamtw,,,Nantclwyd Hall,,,,,,Unclassified Road,,,,nr,,N,E0036759,Nantclwyd,,,,,,,false,UKOS,310811,351537,-3.33208385,53.053622067,BCT,MKD,OTH,,,,016,2000-01-01T00:00:00,2024-05-26T15:27:58,3,revise,active
5110AWD72097,dbgamtm,,,Bryn Grug,,,,,,A494,,,,nr,,NE,E0036759,Nantclwyd,,,,,,,false,UKOS,310900,352015,-3.330888831,53.057932546,BCT,MKD,OTH,,,,016,2000-01-01T00:00:00,2025-06-08T16:37:32,3,revise,active
5110AWD72098,dbgawtg,,,Ty Brith,,,,,,A494,,,,nr,,N,E0036776,Pwll-glas,,,,,,,false,UKOS,311160,352773,-3.327219997,53.064787762,BCT,MKD,OTH,,,,016,2000-01-01T00:00:00,2025-06-08T16:37:45,3,revise,active
5110AWD72099,dbgawtd,,,Fox and Hounds Inn,,,,Fox & Hounds Inn PH,,A494,,,,before,,NE,E0036776,Pwll-glas,,,,,,,false,UKOS,311524,354495,-3.32226358,53.080318667,BCT,MKD,OTH,,,,016,2000-01-01T00:00:00,2024-04-26T16:16:18,5,revise,active
5110AWD72100,dbgawtj,,,Capel-y-Rhiw,,,,Pwll-glas Village Hall,,A494,,,,before,,SW,E0036776,Pwll-glas,,,,,,,false,UKOS,311822,354768,-3.317891137,53.08282137,BCT,MKD,OTH,,,,016,2000-01-01T00:00:00,2025-06-08T16:38:33,5,revise,active
5110AWD72101,dbgamwg,,,Eyarth Crossroads,,,,Railway Lodge,,Main Road,,,,before,,E,E0054210,Llanfair Dyffryn Clwyd,,,,,,,false,UKOS,312842,355290,-3.302809344,53.087684676,BCT,MKD,OTH,,,,016,2000-01-01T00:00:00,2025-06-08T16:38:29,5,revise,active
5110AWD72102,dbgamwp,,,Parc-y-Llan,,,,,,Bron-y-Clwyd Road,,,,before,,W,E0054210,Llanfair Dyffryn Clwyd,,,,,,,false,UKOS,313240,355321,-3.29687674,53.088023581,BCT,MKD,OTH,,,,016,2000-01-01T00:00:00,2025-06-08T16:38:27,8,revise,active
5110AWD72103,dbgamwd,,,Noddfa,,,,,,Bron-y-Clwyd Road,,,,nr,,NE,E0054210,Llanfair Dyffryn Clwyd,,,,,,,false,UKOS,313295,355362,-3.296062,53.088403,BCT,MKD,OTH,,,,016,2000-01-01T00:00:00,2024-04-26T16:16:34,4,revise,active
5110AWD72104,dbgdjda,,,Castle Park Loop,,,,,,Pen-y-maes,,,,o/s 33,,S,E0054221,Ruthin,,,,,,,false,UKOS,312855,357375,-3.303181557,53.106424047,BCT,CUS,OTH,,,,016,2000-01-01T00:00:00,2024-04-26T16:16:36,2,revise,active
5110AWD72105,dbgdjdm,,,Ffordd Gwynach,,,,Cerriog,,Ffordd Gwynach,,,,on,,N,E0054221,Ruthin,,,,,,,false,UKOS,312809,357531,-3.303910903,53.107818444,BCT,CUS,OTH,,,,016,2000-01-01T00:00:00,2024-04-26T16:16:16,3,revise,active
5110AWD72106,dbgdjdg,,,Erw Gerrig,,,,101,,Erw Goch,,,,on,,S,E0054221,Ruthin,,,,,,,false,UKOS,312792,357904,-3.304266228,53.111167688,BCT,CUS,OTH,,,,016,2000-01-01T00:00:00,2024-04-26T16:16:14,4,revise,active
5110AWD72107,dbgdjdt,,,Maes Cantaba,,,,25,,Maes Cantaba,,,,on,,N,E0054221,Ruthin,,,,,,,false,UKOS,313056,357632,-3.300249648,53.108766457,BCT,CUS,OTH,,,,016,2000-01-01T00:00:00,2024-04-26T16:16:30,3,revise,active
5110AWD72108,dbgdjdp,,,Llys-y-Berllan,,,,,,Ffordd Llanrhydd,,,,before,,W,E0054221,Ruthin,,,,,,,false,UKOS,313176,357945,-3.298542315,53.111598856,BCT,CUS,OTH,,,,016,2000-01-01T00:00:00,2024-04-26T16:16:28,4,revise,active
5110AWD72109,dbgdjam,,,Ruthin Hospital,,Hospital,,Ruthin Hospital,,Llanrhydd Road,,,,o/s,,SE,E0054221,Ruthin,,,,,,,false,UKOS,312751,358093,-3.304929888,53.112854871,BCT,MKD,OTH,,,,016,2000-01-01T00:00:00,2024-04-26T16:16:50,5,revise,active
5110AWD72110,dbgapam,,,Borthyn School,,,,Borthyn Primary School,,Denbigh Road,,,,opp,,SE,E0054221,Ruthin,,,,,,,false,UKOS,311919,358209,-3.317388039,53.113760419,BCT,MKD,OTH,,,,016,2000-01-01T00:00:00,2024-06-11T15:51:20,6,revise,active
5110AWD72111,dbgapda,,,Porth-y-dre,,,,,,Llys Erw,,,,after,,SE,E0054221,Ruthin,,,,,,,false,UKOS,311662,358099,-3.321196313,53.112733925,BCT,CUS,OTH,,,,016,2000-01-01T00:00:00,2024-04-26T16:16:39,2,revise,active
5110AWD72112,dbgapdm,,,Clegir,,,,Clegir,,Denbigh Road,,,,nr,,NW,E0054221,Ruthin,,,,,,,false,UKOS,311663,358366,-3.321254956,53.115133513,BCT,MKD,OTH,,,,016,2000-01-01T00:00:00,2024-05-26T15:28:01,4,revise,active
5110AWD72114,dbgapdp,,,Trem-y-Foel Playground,,,,Trem-y-Foel Playground,,Maes Hafod,,,,o/s,,N,E0054221,Ruthin,,,,,,,false,UKOS,311504,358297,-3.323610757,53.11448705,BCT,CUS,OTH,,,,016,2000-01-01T00:00:00,2024-05-26T15:28:03,3,revise,active
5110AWD72115,dbgapaw,,,Ruthin Aldi,,,,Golflinks Farm,,A525,,,,nr,,SE,E0054221,Ruthin,,,,,,,false,UKOS,311329,358803,-3.326364427,53.119000576,BCT,MKD,OTH,,,,016,2000-01-01T00:00:00,2025-06-11T10:43:40,9,revise,active
5110AWD72116,dbgapap,,,Bryn Clwyd,,,,,,A525,,,,nr,,NW,E0036778,Rhewl,,,,,,,false,UKOS,311124,359673,-3.329668058,53.126789296,BCT,MKD,OTH,,,,016,2000-01-01T00:00:00,2025-06-08T16:39:43,5,revise,active
5110AWD72117,dbgdada,,,Maes Derw,,,,,,A525,,,,after,,SE,E0036778,Rhewl,,,,,,,false,UKOS,311046,360135,-3.330961708,53.130928054,BCT,MKD,OTH,,,,016,2000-01-01T00:00:00,2024-05-26T15:28:08,4,revise,active
5110AWD72118,dbgawtp,,,Drovers Arms,,,,Drovers Arms PH,,A525,,,,before,,SE,E0036778,Rhewl,,,,,,,false,UKOS,310938,360393,-3.332647158,53.133228524,BCT,MKD,OTH,,,,016,2000-01-01T00:00:00,2024-05-26T15:28:09,4,revise,active
5110AWD72119,dbgdjwp,,,Bont Garreg Cottages,,,,Bont Garreg Cottages,,A525,,,,nr,,NW,N0075620,Three Sisters,,,,,,,false,UKOS,309009,361831,-3.361879528,53.145824804,BCT,MKD,OTH,,,,016,2000-01-01T00:00:00,2025-06-08T16:39:40,4,revise,active
5110AWD72120,dbgatjd,,,Glan Aber Farm,,,,Glan Aber Farm,,A525,,,,nr,,NW,N0075613,Pentre Llanrhaeadr,,,,,,,false,UKOS,308674,362337,-3.367030958,53.150309947,BCT,MKD,OTH,,,,016,2000-01-01T00:00:00,2024-04-26T16:16:15,4,revise,active
5110AWD72121,dbgatjg,,,Pentre Motors,,,,,,A525,,,,opp,,NW,N0075613,Pentre Llanrhaeadr,,,,,,,false,UKOS,308571,362767,-3.368693641,53.154160976,BCT,MKD,OTH,,,,016,2000-01-01T00:00:00,2025-06-08T16:39:59,4,revise,active
5110AWD72122,dbgapma,,,Kings Head Inn,,,,,,Unclassified,,,,opp,,NW,E0054214,Llanrhaeadr-yng-Nghinmeirch,,,,,,,false,UKOS,308164,363415,-3.374964159,53.15991402,BCT,MKD,OTH,,,,016,2000-01-01T00:00:00,2025-06-08T16:40:11,6,revise,active
5110AWD72123,dbgapmt,,,Llwyn-y-Rhos,,,,,,A525,,,,after,,NW,N0075610,Llwyn,,,,,,,false,UKOS,308024,364072,-3.377246402,53.16579384,BCT,MKD,OTH,,,,016,2000-01-01T00:00:00,2024-04-26T16:16:26,3,revise,active
5110AWD72124,dbgapmp,,,Llwyn Bach,,,,,,A525,,,,nr,,NW,N0075610,Llwyn,,,,,,,false,UKOS,307836,364893,-3.380294458,53.17313904,BCT,MKD,OTH,,,,016,2000-01-01T00:00:00,2024-04-26T16:16:26,3,revise,active
5110AWD72125,dbgadmd,,,Brookhouse Mill,,,,Brookhouse Mill PH,,Ruthin Road,,,,opp,,S,E0036700,Brook House,,,,,,,false,UKOS,307186,365787,-3.390275602,53.181059669,BCT,MKD,OTH,,,,016,2000-01-01T00:00:00,2024-04-26T16:16:32,3,revise,active
5110AWD72126,dbgadmj,,,Llys Catrin,,,,,,Old Ruthin Road,,,,after,,NW,E0036700,Brook House,,,,,,,false,UKOS,306850,366062,-3.395381931,53.183472099,BCT,MKD,OTH,,,,016,2000-01-01T00:00:00,2024-04-26T16:16:27,3,revise,active
5110AWD72127,dbgadmp,,,Llys Clwyd,,,,,,Lon Tywysog,,,,before,,NW,E0054198,Denbigh,,,,,,,false,UKOS,306668,366037,-3.39809724,53.183215514,BCT,MKD,OTH,,,,016,2000-01-01T00:00:00,2024-04-26T16:16:27,2,revise,active
5110AWD72128,dbgadmt,,,Llys Fammau,,,,,,Crud-y-Castell,,,,nr,,NW,E0054198,Denbigh,,,,,,,false,UKOS,306484,365962,-3.400827789,53.182509205,BCT,MKD,OTH,,,,016,2000-01-01T00:00:00,2024-04-26T16:16:27,2,revise,active
5110AWD72129,dbgadmw,,,Ysgybor Wen Cottages,,,,,,Ruthin Road,,,,o/s,,SE,E0036700,Brook House,,,,,,,false,UKOS,306632,366154,-3.398669994,53.184260577,BCT,MKD,OTH,,,,016,2000-01-01T00:00:00,2025-06-08T16:40:24,3,revise,active
5110AWD72130,dbgadpa,,,Pinetree Court,,,,Pinetree Court,,Ruthin Road,,,,o/s,,NW,E0054198,Denbigh,,,,,,,false,UKOS,306359,366191,-3.402764841,53.184545034,BCT,MKD,OTH,,,,016,2000-01-01T00:00:00,2024-04-26T16:17:01,3,revise,active
5110AWD72131,dbgagtm,,,Trewen,,,,26,,Privy Lane,,,,opp,,NE,E0054198,Denbigh,,,,,,,false,UKOS,306382,366302,-3.402453319,53.185546553,BCT,CUS,OTH,,,,016,2000-01-01T00:00:00,2024-04-26T16:16:46,4,revise,active
5110AWD72132,dbgagjd,,,Abbey Court,,,,29,,Trewen,,,,o/s,,NW,E0054198,Denbigh,,,,,,,false,UKOS,306287,366412,-3.403906824,53.186518288,BCT,CUS,OTH,,,,016,2000-01-01T00:00:00,2024-04-26T16:16:28,3,revise,active
5110AWD72133,dbgagpt,,,Llys Alawfowlia,,,,,,Parc Alawfowlia,,,,o/s,,SE,E0036724,Fron,Denbigh,,,,,,false,UKOS,306428,366688,-3.401878312,53.189023322,BCT,CUS,OTH,,,,016,2000-01-01T00:00:00,2024-04-26T16:16:27,3,revise,active
5110AWD72134,dbgadmg,,,Erw Salisbury,,,,54,,Erw Salisbury,,,,on,,S,E0036700,Brook House,,,,,,,false,UKOS,306628,366344,-3.398785407,53.185967252,BCT,CUS,OTH,,,,016,2000-01-01T00:00:00,2024-04-26T16:16:14,3,revise,active
5110AWD72135,dbgagjm,,,Pinetree Court,,,,Pinetree Court,,Ruthin Road,,,,opp,,SE,E0054198,Denbigh,,,,,,,false,UKOS,306278,366244,-3.403992143,53.185007023,BCT,MKD,OTH,,,,016,2000-01-01T00:00:00,2024-04-26T16:17:01,3,revise,active
5110AWD72136,dbgagjt,,,Denbigh High School,,High School,,Denbigh High School,,Ruthin Road,,,,o/s,,NW,E0054198,Denbigh,,,,,,,false,UKOS,306029,366349,-3.407747959,53.185902022,BCT,MKD,OTH,,,,016,2000-01-01T00:00:00,2024-04-26T16:16:52,5,revise,active
5110AWD72137,dbgagtd,,,Railway Inn,,,,Railway Inn PH,,Ruthin Road,,,,before,,W,E0054198,Denbigh,,,,,,,false,UKOS,305829,366423,-3.410761943,53.186536172,BCT,MKD,OTH,,,,016,2000-01-01T00:00:00,2025-06-08T16:40:59,4,revise,active
5110AWD72138,dbgdaja,,,Marsh Warden,,,,Marsh Warden PH,,Station Road,,,,o/s,,NE,E0054219,Rhuddlan,,,,,,,false,UKOS,302080,377855,-3.470364819,53.288584827,BCT,MKD,OTH,,,,016,2000-01-01T00:00:00,2024-04-26T16:16:59,4,revise,active
5110AWD72139,dbgdajg,,,Parliament House,,,,New Inn Hotel PH,,Station Road,,,,opp,,SW,E0054219,Rhuddlan,,,,,,,false,UKOS,302260,378064,-3.467729987,53.290496111,BCT,MKD,OTH,,,,016,2000-01-01T00:00:00,2025-06-08T16:41:22,5,revise,active
5110AWD72140,dbgdama,,,Vicarage Lane,,,,,,Rhyl Road,,,,after,,NE,E0054219,Rhuddlan,,,,,,,false,UKOS,302459,378242,-3.464800443,53.292132279,BCT,MKD,OTH,,,,016,2000-01-01T00:00:00,2024-04-26T16:17:05,2,revise,active
5110AWD72141,dbgatpm,,,Ffordd Dewi,,,,,,Rhyl Road,,,,before,,SW,E0054219,Rhuddlan,,,,,,,false,UKOS,302704,378440,-3.46118681,53.29395198,BCT,MKD,OTH,,,,016,2000-01-01T00:00:00,2024-05-26T15:46:20,4,revise,active
5110AWD72142,dbgdagw,,,Kings Head,,,,Kings Head PH,,Princes Road,,,,o/s,,SE,E0054219,Rhuddlan,,,,,,,false,UKOS,302462,378181,-3.464736581,53.29158013,BCT,MKD,OTH,,,,016,2000-01-01T00:00:00,2024-04-26T16:16:25,4,revise,active
5110AWD72143,dbgatpa,,,Llys Hendre,,,,,,Princes Road,,,,before,,SE,E0054219,Rhuddlan,,,,,,,false,UKOS,302733,378034,-3.460627502,53.290313645,BCT,MKD,OTH,,,,016,2000-01-01T00:00:00,2024-05-26T15:46:22,4,revise,active
5110AWD72144,dbgatpg,,,Bryn Crescent,,,,,,Dyserth Road,,,,before,,E,E0054219,Rhuddlan,,,,,,,false,UKOS,303006,378013,-3.456526965,53.290170458,BCT,MKD,OTH,,,,016,2000-01-01T00:00:00,2024-05-26T15:46:24,6,revise,active
5110AWD72145,dbgatpw,,,Maes y Bryn,,,,,,A547,,,,before,,S,E0054219,Rhuddlan,,,,,,,false,UKOS,302832,378692,-3.459344438,53.29624448,BCT,MKD,OTH,,,,016,2000-01-01T00:00:00,2024-05-26T15:46:26,3,revise,active
5110AWD72146,dbgdagt,,,Highland Close,,,,,,Fairlands Crescent,,,,adj,,NW,E0054219,Rhuddlan,,,,,,,false,UKOS,302785,378816,-3.460087375,53.297350088,BCT,MKD,OTH,,,,016,2000-01-01T00:00:00,2024-04-26T16:16:58,2,revise,active
5110AWD72147,dbgdagd,,,Bryn Cwybr,,,,,,A547,,,,before,,NW,E0054219,Rhuddlan,,,,,,,false,UKOS,302595,379100,-3.463024269,53.29986255,BCT,MKD,OTH,,,,016,2000-01-01T00:00:00,2024-04-26T16:16:03,4,revise,active
5110AWD72148,dbgdagp,,,Clwyd Retail Park,,,,Sainsburys,,Clwyd Retail Park,,,,on,,W,E0054220,Rhyl,,,,,,,false,UKOS,302288,379503,-3.467753477,53.303431789,BCT,MKD,OTH,,,,016,2000-01-01T00:00:00,2024-04-26T16:16:35,3,revise,active
5110AWD72149,dbgdaga,,,Derwen Hotel,,,,Derwen Hotel PH,,Rhuddlan Road,,,,after,,NW,E0054220,Rhyl,,,,,,,false,UKOS,302233,379763,-3.468658717,53.305757924,BCT,MKD,OTH,,,,016,2000-01-01T00:00:00,2024-04-26T16:16:12,3,revise,active
5110AWD72150,dbgdgpg,,,The Boulevard,,,,,,Rhuddlan Road,,,,after,,NW,E0054220,Rhyl,,,,,,,false,UKOS,302149,380111,-3.470026303,53.308869434,BCT,MKD,OTH,,,,016,2000-01-01T00:00:00,2024-04-26T16:17:03,3,revise,active
5110AWD72151,dbgdgpt,,,Tower Gardens,,,,,,Rhuddlan Road,,,,before,,N,E0054220,Rhyl,,,,,,,false,UKOS,302005,380305,-3.472246578,53.310581445,BCT,MKD,OTH,,,,016,2000-01-01T00:00:00,2024-04-26T16:16:19,4,revise,active
5110AWD72152,dbgdgam,,,Llys Morgan,,,,Llys Morgan,,Rhuddlan Road,,,,before,,S,E0054220,Rhyl,,,,,,,false,UKOS,301983,380551,-3.472652868,53.312792424,BCT,MKD,OTH,,,,016,2000-01-01T00:00:00,2024-04-26T16:16:28,3,revise,active
5110AWD72153,dbgdgjt,,,Pendyffryn Road,,,,,,Rhuddlan Road,,,,after,,NW,E0054220,Rhyl,,,,,,,false,UKOS,301837,380774,-3.474912565,53.314769166,BCT,MKD,OTH,,,,016,2000-01-01T00:00:00,2025-06-08T16:43:50,5,revise,active
5110AWD72154,dbgdawd,,,Llys Glan Aber,,,,Llys Glan Aber,,Vale Road,,,,after,,NW,E0054220,Rhyl,,,,,,,false,UKOS,301490,380975,-3.480181726,53.316510782,BCT,MKD,OTH,,,,016,2000-01-01T00:00:00,2025-06-08T16:43:46,4,revise,active
5110AWD72155,dbgdgtd,,,Victoria Road,,,,,,Vale Road,,,,after,,NW,E0054220,Rhyl,,,,,,,false,UKOS,301311,381059,-3.482893857,53.317232212,BCT,MKD,OTH,,,,016,2000-01-01T00:00:00,2024-04-26T16:17:05,2,revise,active
5110AWD72156,dbgdgmd,,,Rhyl Bus Station Stand D,,Bus Station D,,Rhyl Bus Station,,Vale Road Bridge,,,,at,,,E0054220,Rhyl,,,,,,,false,UKOS,300914,381241,-3.488902,53.318791,BCS,,,,,,016,2000-01-01T00:00:00,2025-06-08T16:43:42,8,revise,active
5110AWD72157,dbgdapa,,,Arriva Depot,,,,Arriva Bus Depot,,Ffynnongroew Road,,,,opp,,SE,E0054220,Rhyl,,,,,,,false,UKOS,300625,380962,-3.493157232,53.31623217,BCT,MKD,OTH,,,,016,2000-01-01T00:00:00,2024-04-26T16:16:12,2,revise,active
5110AWD72158,dbgdgma,,,Rhydwen Drive,,,,,,Marsh Road,,,,before,,NE,E0054220,Rhyl,,,,,,,false,UKOS,300398,380589,-3.496446132,53.31283784,BCT,MKD,OTH,,,,016,2000-01-01T00:00:00,2024-04-26T16:17:02,2,revise,active
5110AWD72159,dbgdgdw,,,Netley Road,,,,,,Marsh Road,,,,after,,SW,E0054220,Rhyl,,,,,,,false,UKOS,300615,380762,-3.493244537,53.314433165,BCT,MKD,OTH,,,,016,2000-01-01T00:00:00,2025-06-08T16:43:39,5,revise,active
5110AWD72160,dbgdawm,,,Gwynfryn Avenue,,,,,,Marsh Road,,,,after,,SW,E0054220,Rhyl,,,,,,,false,UKOS,300754,380885,-3.491197321,53.315559927,BCT,MKD,OTH,,,,016,2000-01-01T00:00:00,2024-04-26T16:16:57,4,revise,active
5110AWD72161,dbgdgad,,,Morrison,,,,Rhyl Morrison,,Ffordd Las,,,,after,,SE,E0054220,Rhyl,,,,,,,false,UKOS,300876,380931,-3.489381224,53.31600071,BCT,MKD,OTH,,,,016,2000-01-01T00:00:00,2024-04-26T16:16:33,2,revise,active
5110AWD72162,dbgdapt,,,Ffordd Las,,,,,,Ffordd Las,,,,Nw-bound,,NW,E0054220,Rhyl,,,,,,,false,UKOS,300919,380862,-3.488714421,53.315388756,BCT,MKD,OTH,,,,016,2000-01-01T00:00:00,2025-06-08T16:43:34,4,revise,active
5110AWD72163,dbgdgtg,,,Victoria Road,,,,9,,Victoria Road,,,,bottom,,NE,E0054220,Rhyl,,,,,,,false,UKOS,301069,380718,-3.486418711,53.314122896,BCT,MKD,OTH,,,,016,2000-01-01T00:00:00,2025-06-08T16:43:37,5,revise,active
5110AWD72164,dbgdawt,,,Kingsley Avenue,,,,,,Kingsley Avenue,,,,SE-bound,,SE,E0054220,Rhyl,,,,,,,false,UKOS,301217,380843,-3.484237023,53.315273762,BCT,MKD,OTH,,,,016,2000-01-01T00:00:00,2024-04-26T16:16:58,4,revise,active
5110AWD72165,dbgdapg,,,Cefndy Road,,,,,,Kingsley Avenue,,,,after,,NW,E0054220,Rhyl,,,,,,,false,UKOS,301243,380656,-3.483788485,53.313593729,BCT,MKD,OTH,,,,016,2000-01-01T00:00:00,2024-04-26T16:16:54,3,revise,active
5110AWD72166,dbgdamj,,,Ascot Drive,,,,,,Ffordd Derwen,,,,after,,NW,E0054220,Rhyl,,,,,,,false,UKOS,301447,380374,-3.480639996,53.311102377,BCT,MKD,OTH,,,,016,2000-01-01T00:00:00,2024-04-26T16:16:53,3,revise,active
5110AWD72167,dbgdgtj,,,Viola Avenue,,,,,,Frances Avenue,,,,before,,NE,E0054220,Rhyl,,,,,,,false,UKOS,301672,380317,-3.477246523,53.310632058,BCT,MKD,OTH,,,,016,2000-01-01T00:00:00,2024-04-26T16:17:05,4,revise,active
5110AWD72168,dbgdatg,,,Diane Drive,,,,,,Frances Avenue,,,,before,,NE,E0054220,Rhyl,,,,,,,false,UKOS,301799,380366,-3.475356284,53.311095945,BCT,MKD,OTH,,,,016,2000-01-01T00:00:00,2024-04-26T16:16:56,3,revise,active
5110AWD72169,dbgdgjp,,,Llys Pen-y-cefndy,,,,,,Pen-y-cefndy,,,,before,,SE,E0054220,Rhyl,,,,,,,false,UKOS,301935,380369,-3.473316734,53.311148129,BCT,MKD,OTH,,,,016,2000-01-01T00:00:00,2024-04-26T16:16:28,3,revise,active
5110AWD72170,dbgdgmw,,,South Drive,,,,,,The Boulevard,,,,before,,NE,E0054220,Rhyl,,,,,,,false,UKOS,302321,380155,-3.467459273,53.30929202,BCT,CUS,OTH,,,,016,2000-01-01T00:00:00,2024-04-26T16:17:03,4,revise,active
5110AWD72171,dbgdajm,,,Patrick Avenue,,,,,,Rosehill Road,,,,after,,NW,E0054220,Rhyl,,,,,,,false,UKOS,302452,380110,-3.465480151,53.308916398,BCT,MKD,OTH,,,,016,2000-01-01T00:00:00,2024-04-26T16:17:01,3,revise,active
5110AWD72172,dbgdajt,,,Tarquin Drive,,,,,,Bryn Cwnin Road,,,,after,,SW,E0054220,Rhyl,,,,,,,false,UKOS,302608,380111,-3.463140018,53.308954122,BCT,MKD,OTH,,,,016,2000-01-01T00:00:00,2024-04-26T16:17:03,2,revise,active
5110AWD72173,dbgdagm,,,Cambrian Walk,,,,,,Bryn Cwnin Road,,,,after,,S,E0054220,Rhyl,,,,,,,false,UKOS,302643,380338,-3.462684663,53.311000332,BCT,MKD,OTH,,,,016,2000-01-01T00:00:00,2024-04-26T16:16:54,2,revise,active
5110AWD72174,dbgdata,,,Daniel Drive,,,,,,Daniel Drive,,,,before,,SE,E0054220,Rhyl,,,,,,,false,UKOS,302617,380491,-3.463121781,53.312370367,BCT,MKD,OTH,,,,016,2000-01-01T00:00:00,2024-04-26T16:16:56,3,revise,active
5110AWD72175,dbgdawp,,,Hen-Afon Road,,,,,,Trellewelyn Road,,,,before,,SE,E0054220,Rhyl,,,,,,,false,UKOS,302529,380706,-3.464508283,53.314286097,BCT,MKD,OTH,,,,016,2000-01-01T00:00:00,2024-04-26T16:16:58,2,revise,active
5110AWD72176,dbgawdt,,,Ffordd Bruton,,,,,,Bro Deg,,,,after,,W,E0054220,Rhyl,,,,,,,false,UKOS,302729,380644,-3.461488303,53.313765793,BCT,MKD,OTH,,,,016,2000-01-01T00:00:00,2025-06-08T16:44:22,3,revise,active
5110AWD72177,dbgdamw,,,Bruton Park,,,,,,Maes Menlli,,,,at,,E,E0054220,Rhyl,,,,,,,false,UKOS,302777,380527,-3.460732181,53.312723283,BCT,MKD,OTH,,,,016,2000-01-01T00:00:00,2024-04-26T16:16:34,4,revise,active
5110AWD72178,dbgawaw,,,Clement Drive,,,,,,Pen-y-Maes Avenue,,,,before,,SW,E0054220,Rhyl,,,,,,,false,UKOS,302576,380915,-3.46386734,53.316172776,BCT,MKD,OTH,,,,016,2000-01-01T00:00:00,2024-04-26T16:16:55,3,revise,active
5110AWD72179,dbgawmd,,,Rhodfa Maen Gwyn,,,,,,Pen-y-maes Avenue,,,,after,,NW,E0054220,Rhyl,,,,,,,false,UKOS,302665,381041,-3.462570582,53.317321365,BCT,MKD,OTH,,,,016,2000-01-01T00:00:00,2024-04-26T16:16:40,3,revise,active
5110AWD72180,dbgawgw,,,Llys Tegid,,,,,,Ffordd Elan,,,,before,,N,E0054220,Rhyl,,,,,,,false,UKOS,302664,381263,-3.462653815,53.319316017,BCT,MKD,OTH,,,,016,2000-01-01T00:00:00,2024-04-26T16:16:28,3,revise,active
5110AWD72181,dbgdgaj,,,Llys Gwynant,,,,,,Ffordd Elan,,,,before,,N,E0054220,Rhyl,,,,,,,false,UKOS,302637,381399,-3.463100802,53.320533109,BCT,MKD,OTH,,,,016,2000-01-01T00:00:00,2024-04-26T16:16:28,3,revise,active
5110AWD72182,dbgdgat,,,Lon Bedw,,,,,,Llys Brenig,,,,before,,NE,E0054220,Rhyl,,,,,,,false,UKOS,302658,381600,-3.462847445,53.322343109,BCT,MKD,OTH,,,,016,2000-01-01T00:00:00,2024-04-26T16:16:29,3,revise,active
5110AWD72183,dbgdgap,,,Llys-y-Tywysog,,,,,,Ffordd Elan,,,,before,,NE,E0054220,Rhyl,,,,,,,false,UKOS,302734,381820,-3.461774457,53.324333956,BCT,MKD,OTH,,,,016,2000-01-01T00:00:00,2024-04-26T16:16:28,3,revise,active
5110AWD72184,dbgdgag,,,Llys Dewi,,,,,,Ffordd Elan,,,,before,,S,E0054220,Rhyl,,,,,,,false,UKOS,302899,381748,-3.459276013,53.323717306,BCT,MKD,OTH,,,,016,2000-01-01T00:00:00,2024-04-26T16:16:27,3,revise,active
5110AWD72185,dbgawja,,,Lon Celynnen,,,,,,Ffordd Elan,,,,before,,S,E0054220,Rhyl,,,,,,,false,UKOS,302805,381499,-3.460610219,53.321458019,BCT,MKD,OTH,,,,016,2000-01-01T00:00:00,2024-04-26T16:16:29,3,revise,active
5110AWD72186,dbgdamt,,,Rhyl Cemetery,,Cemetery,,Rhyl Cemetery,,Ffordd Dyserth,,,,before,,W,E0054220,Rhyl,,,,,,,false,UKOS,302548,381196,-3.464373833,53.318688045,BCT,MKD,OTH,,,,016,2000-01-01T00:00:00,2024-04-26T16:16:33,5,revise,active
5110AWD72187,dbgdapm,,,Chiropodists,,,,Chiropodists,,Dyserth Road,,,,after,,W,E0054220,Rhyl,,,,,,,false,UKOS,302184,381196,-3.46983621,53.318625419,BCT,MKD,OTH,,,,016,2000-01-01T00:00:00,2024-04-26T16:16:08,3,revise,active
5110AWD72188,dbgdgjm,,,Parry`s Corner,,,,,,Grange Road,,,,after,,NW,E0054220,Rhyl,,,,,,,false,UKOS,301991,381247,-3.472748183,53.319047962,BCT,MKD,OTH,,,,016,2000-01-01T00:00:00,2024-04-26T16:17:01,3,revise,active
5110AWD72189,dbgdgtm,,,War Memorial Court,,,,,,Grange Road,,,,before,,E,E0054220,Rhyl,,,,,,,false,UKOS,301679,381360,-3.477465225,53.320005437,BCT,MKD,OTH,,,,016,2000-01-01T00:00:00,2024-04-26T16:16:09,3,revise,active
5110AWD72190,dbgdgdp,,,Millbank Road,,,,,,B5119,,,,before,,NW,E0054220,Rhyl,,,,,,,false,UKOS,301364,381424,-3.482212235,53.320521867,BCT,MKD,OTH,,,,016,2000-01-01T00:00:00,2024-04-26T16:16:59,2,revise,active
5110AWD72191,dbgdgpj,,,Tongs Funeral Directors,,,,,,Brighton Road,,,,opp,,E,E0054220,Rhyl,,,,,,,false,UKOS,301206,381519,-3.484612939,53.321346013,BCT,MKD,OTH,,,,016,2000-01-01T00:00:00,2024-04-26T16:16:11,3,revise,active
5110AWD72192,dbgdgjw,,,Highfield Park Post Office,,Post Office,,,,Churton Road,,,,after,,SE,E0054220,Rhyl,,,,,,,false,UKOS,301410,381680,-3.481601513,53.322826208,BCT,MKD,OTH,,,,016,2000-01-01T00:00:00,2025-06-11T10:43:41,8,revise,active
5110AWD72193,dbgdapd,,,Cae Uchaf,,,,,,Highfield Park,,,,after,,SW,E0054220,Rhyl,,,,,,,false,UKOS,301549,381787,-3.479548844,53.323818137,BCT,MKD,OTH,,,,016,2000-01-01T00:00:00,2024-04-26T16:16:05,2,revise,active
5110AWD72195,dbgdgpa,,,St George`s Crescent North,,,,6,,St George`s Crescent,,,,on,,E,E0054220,Rhyl,,,,,,,false,UKOS,301645,381847,-3.47812672,53.324375141,BCT,CUS,OTH,,,,016,2000-01-01T00:00:00,2024-04-26T16:17:03,3,revise,active
5110AWD72196,dbgdgjg,,,Parc Esmor Middle,,,,9,,Parc Esmor,,,,on,,E,E0054220,Rhyl,,,,,,,false,UKOS,301696,381705,-3.477317215,53.323108658,BCT,CUS,OTH,,,,016,2000-01-01T00:00:00,2024-04-26T16:16:35,3,revise,active
5110AWD72197,dbgdgaw,,,Rees Avenue,,,,,,Lynton Walk,,,,after,,N,E0054220,Rhyl,,,,,,,false,UKOS,301793,381835,-3.47590179,53.32429482,BCT,CUS,OTH,,,,016,2000-01-01T00:00:00,2024-04-26T16:17:02,2,revise,active
5110AWD72198,dbgdgja,,,Oakville Avenue Middle,,,,6,,Oakville Avenue,,,,on,,E,E0054220,Rhyl,,,,,,,false,UKOS,302137,381998,-3.470789369,53.325823264,BCT,CUS,OTH,,,,016,2000-01-01T00:00:00,2024-04-26T16:17:00,3,revise,active
5110AWD72199,dbgdatm,,,Eaton Avenue Middle,,,,,,Eaton Avenue,,,,on,,E,E0054220,Rhyl,,,,,,,false,UKOS,302319,382328,-3.468159615,53.328822202,BCT,CUS,OTH,,,,016,2000-01-01T00:00:00,2024-04-26T16:16:56,3,revise,active
5110AWD72201,dbgdatp,,,Clifton Park Road South,,,,,,Clifton Park Road,,,,NE-bound,,NE,E0054220,Rhyl,,,,,,,false,UKOS,301570,381379,-3.479106851,53.32015589,BCT,MKD,OTH,,,,016,2000-01-01T00:00:00,2024-05-26T16:21:52,5,revise,active
5110AWD72203,dbgdgdg,,,Clifton Park Road North,,,,42,,Clifton Park Road,,,,NE-bound,,NE,E0054220,Rhyl,,,,,,,false,UKOS,301693,381557,-3.477316289,53.321778219,BCT,MKD,OTH,,,,016,2000-01-01T00:00:00,2024-04-26T16:16:55,4,revise,active
5110AWD72204,dbgdapw,,,Hadley Crescent,,,,,,Hadley Crescent,,,,E-bound,,SE,E0054220,Rhyl,,,,,,,false,UKOS,301868,381632,-3.474713263,53.322484648,BCT,MKD,OTH,,,,016,2000-01-01T00:00:00,2024-04-26T16:16:08,4,revise,active
5110AWD72205,dbgdgdm,,,Mayfield Grove,,,,,,Bridgegate Road,,,,before,,E,E0054220,Rhyl,,,,,,,false,UKOS,302080,381607,-3.471523822,53.322294735,BCT,MKD,OTH,,,,016,2000-01-01T00:00:00,2024-04-26T16:16:59,4,revise,active
5110AWD72206,dbgdatw,,,Ffordd Anwyl,,,,,,Cheltenham Avenue,,,,before,,SE,E0054220,Rhyl,,,,,,,false,UKOS,302232,381477,-3.469202663,53.321159281,BCT,MKD,OTH,,,,016,2000-01-01T00:00:00,2024-04-26T16:16:16,3,revise,active
5110AWD72207,dbgdapj,,,Cheltenham Avenue South,,,,,,Cheltenham Avenue,,,,S-bound,,S,E0054220,Rhyl,,,,,,,false,UKOS,302283,381236,-3.468362938,53.319003148,BCT,MKD,OTH,,,,016,2000-01-01T00:00:00,2024-04-26T16:16:55,4,revise,active
5110AWD72208,dbgdgpm,,,Tots` Corner,,,,Tots` Corner Nursery,,Grosvenor Avenue,,,,opp,,S,E0054220,Rhyl,,,,,,,false,UKOS,302141,381191,-3.470479931,53.318572536,BCT,MKD,OTH,,,,016,2000-01-01T00:00:00,2024-04-26T16:17:04,3,revise,active
5110AWD72209,dbgdgtp,,,Westminster Avenue,,,,,,Grosvenor Avenue,,,,after,,N,E0054220,Rhyl,,,,,,,false,UKOS,302108,380973,-3.470907757,53.316607544,BCT,MKD,OTH,,,,016,2000-01-01T00:00:00,2024-04-26T16:17:06,3,revise,active
5110AWD72210,dbgdawj,,,Ysgol Llewelyn,,,,Ysgol Llewelyn,,Grosvenor Avenue,,,,after,,N,E0054220,Rhyl,,,,,,,false,UKOS,302082,380798,-3.471243803,53.315030231,BCT,MKD,OTH,,,,016,2000-01-01T00:00:00,2024-04-26T16:16:51,3,revise,active
5110AWD72211,dbgdgpw,,,Trellewelyn Road,,,,,,Trellewelyn Road,,,,W-bound,,W,E0054220,Rhyl,,,,,,,false,UKOS,302295,380793,-3.468046211,53.315024687,BCT,MKD,OTH,,,,016,2000-01-01T00:00:00,2024-04-26T16:17:04,7,revise,active
5110AWD72212,dbgdawa,,,Trellewelyn Road,,,,,,Trellewelyn Road,,,,E-bound,,E,E0054220,Rhyl,,,,,,,false,UKOS,302301,380804,-3.467959574,53.315124638,BCT,MKD,OTH,,,,016,2000-01-01T00:00:00,2024-05-26T16:21:53,7,revise,active
5110AWD72213,dbgdptd,,,Crescent Road,,,,,,Wellington Road,,,,before,,SW,E0054220,Rhyl,,,,,,,false,UKOS,300482,381086,-3.49534193,53.317319502,BCT,MKD,OTH,,,,016,2000-01-01T00:00:00,2024-04-26T16:16:56,3,revise,active
5110AWD72214,dbgdptm,,,Palace Avenue,,,,,,Wellington Road,,,,after,,NE,E0054220,Rhyl,,,,,,,false,UKOS,300286,380931,-3.498234222,53.315889821,BCT,MKD,OTH,,,,016,2000-01-01T00:00:00,2024-04-26T16:17:00,3,revise,active
5110AWD72215,dbgdptw,,,Westbourne Avenue,,,,,,Wellington Road,,,,after,,NE,E0054220,Rhyl,,,,,,,false,UKOS,300087,380798,-3.501178272,53.314657187,BCT,MKD,OTH,,,,016,2000-01-01T00:00:00,2024-04-26T16:17:05,3,revise,active
5110AWD72216,dbgdptg,,,Marine Lake,,,,,,Wellington Road,,,,opp,,NE,E0054220,Rhyl,,,,,,,false,UKOS,299882,380707,-3.504225449,53.31380074,BCT,MKD,OTH,,,,016,2000-01-01T00:00:00,2024-04-26T16:16:27,3,revise,active
5110AWD72217,dbgdptj,,,Ocean Beach,,,,Ocean Beach Fun Fair,,West Parade,,,,before,,NE,E0054220,Rhyl,,,,,,,false,UKOS,299889,380963,-3.504201319,53.316102374,BCT,MKD,OTH,,,,016,2000-01-01T00:00:00,2024-04-26T16:16:45,3,revise,active
5110AWD72218,dbgdpta,,,Butterton Road,,,,,,West Parade,,,,before,,NE,E0054220,Rhyl,,,,,,,false,UKOS,300123,381170,-3.5007554,53.318006627,BCT,MKD,OTH,,,,016,2000-01-01T00:00:00,2024-04-26T16:16:54,2,revise,active
5110AWD72219,dbgdptp,,,Palace Fun Centre,,,,,,West Parade,,,,opp,,NE,E0054220,Rhyl,,,,,,,false,UKOS,300416,381422,-3.496437944,53.320326246,BCT,MKD,OTH,,,,016,2000-01-01T00:00:00,2024-04-26T16:16:06,3,revise,active
5110AWD72220,dbgdgmt,,,Sea Life Aquarium Stand 1,,,,,,Off East Parade,,,,o/s,,NE,E0054220,Rhyl,,,,,,,false,UKOS,300773,381700,-3.49116769,53.322891349,BCT,MKD,OTH,,,,016,2000-01-01T00:00:00,2024-04-26T16:17:02,3,revise,active
5110AWD72221,dbgdgwa,,,White Rose Centre,,,,White Rose Centre,,West Parade,,,,o/s,,SW,E0054220,Rhyl,,,,,,,false,UKOS,300772,381656,-3.491168909,53.322495794,BCT,MKD,OTH,,,,016,2000-01-01T00:00:00,2024-04-26T16:16:06,2,revise,active
5110AWD72222,dbgdamp,,,Garden of Remembrance,,,,Garden of Remembrance,,East Parade,,,,o/s,,NE,E0054220,Rhyl,,,,,,,false,UKOS,301011,381864,-3.487647165,53.324409597,BCT,MKD,OTH,,,,016,2000-01-01T00:00:00,2024-04-26T16:16:18,3,revise,active
5110AWD72223,dbgdgpd,,,Pavilion Theatre,,,,,,East Parade,,,,before,,NE,E0054220,Rhyl,,,,,,,false,UKOS,301234,382003,-3.484380648,53.325689958,BCT,MKD,OTH,,,,016,2000-01-01T00:00:00,2024-04-26T16:16:45,4,revise,active
5110AWD72224,dbgdgmp,,,Royal Alexandra Hospital,,,,Royal Alexandra Hospital,,East Parade,,,,opp,,NE,E0054220,Rhyl,,,,,,,false,UKOS,301445,382127,-3.481215512,53.32685389,BCT,MKD,OTH,,,,016,2000-01-01T00:00:00,2024-04-26T16:16:50,3,revise,active
5110AWD72225,dbgdgjd,,,Old Golf Road,,,,,,Old Golf Road,,,,SE-bound,,SE,E0054220,Rhyl,,,,,,,false,UKOS,301640,382066,-3.478269801,53.326342074,BCT,MKD,OTH,,,,016,2000-01-01T00:00:00,2024-04-26T16:17:00,4,revise,active
5110AWD72226,dbgdgda,,,Medea Drive,,,,Rhyl Ambulance Station,,Rhyl Coast Road,,,,after,,NE,E0054220,Rhyl,,,,,,,false,UKOS,301952,382097,-3.473596523,53.32667401,BCT,MKD,OTH,,,,016,2000-01-01T00:00:00,2025-06-08T16:46:18,6,revise,active
5110AWD72227,dbgdatd,,,Denmore Stores,,,,,,Rhyl Coast Road,,,,after,,NE,N0075624,Y-Ffrith,Prestatyn,,,,,,false,UKOS,302253,382163,-3.469099192,53.327322796,BCT,MKD,OTH,,,,016,2000-01-01T00:00:00,2024-05-26T16:21:53,5,revise,active
5110AWD72230,dbgdawg,,,Rhyl Golf Club,,Golf Club,,Rhyl Golf Club,,Rhyl Coast Road,,,,o/s,,NE,N0075624,Y-Ffrith,Prestatyn,,,,,,false,UKOS,302662,382251,-3.462987459,53.328188993,BCT,MKD,OTH,,,,016,2000-01-01T00:00:00,2024-05-26T16:21:54,6,revise,active
5110AWD72231,dbgdgdj,,,Lyons Holiday Camp,,,,Lyons Holiday Camp,,Rhyl Coast Road,,,,opp,,E,N0075624,Y-Ffrith,Prestatyn,,,,,,false,UKOS,303028,382328,-3.457523918,53.32897135,BCT,MKD,OTH,,,,016,2000-01-01T00:00:00,2024-05-26T16:21:55,2,revise,active
5110AWD72232,dbgdgmj,,,Robin Hood Camp,,,,Robin Hood Holiday Camp,,Rhyl Coast Road,,,,opp,,NE,N0075624,Y-Ffrith,Prestatyn,,,,,,false,UKOS,303457,382425,-3.451107861,53.329898282,BCT,MKD,OTH,,,,016,2000-01-01T00:00:00,2024-05-26T16:21:56,5,revise,active
5110AWD72233,dbgdmpm,,,Sherwood Avenue,,,,,,Rhyl Coast Road,,,,before,,SW,N0075624,Y-Ffrith,Prestatyn,,,,,,false,UKOS,303647,382448,-3.448263024,53.330144183,BCT,MKD,OTH,,,,016,2000-01-01T00:00:00,2024-04-26T16:17:02,3,revise,active
5110AWF80109,dbgagwt,,,Pendref Farm,,,,,,Ffordd Ffrainc,,,,nr,,NW,E0054200,Dyserth,,,,,,,false,UKOS,305684,379017,-3.416664986,53.299680781,BCT,MKD,OTH,,,,016,2000-01-01T00:00:00,2024-04-26T16:16:15,4,revise,active
5110AWF80110,dbgagwp,,,Castle View,,,,Castle View,,Newmarket Road,,,,at,,NE,E0054200,Dyserth,,,,,,,false,UKOS,306178,379202,-3.409309768,53.301430993,BCT,MKD,OTH,,,,016,2000-01-01T00:00:00,2024-04-26T16:16:54,3,revise,active
5110AWF80111,dbgajad,,,Post Office,,,,Dyserth Post Office,,High Street,,,,nr,,W,E0054200,Dyserth,,,,,,,false,UKOS,305942,379089,-3.412816256,53.300369118,BCT,MKD,OTH,,,,016,2000-01-01T00:00:00,2024-04-26T16:16:43,3,revise,active
5110AWF80112,dbgajag,,,Trecastell Nurseries,,,,Trecastell Nurseries,,Newmarket Road,,,,after,,NE,E0054200,Dyserth,,,,,,,false,UKOS,306585,379430,-3.403271718,53.303551802,BCT,MKD,OTH,,,,016,2000-01-01T00:00:00,2024-04-26T16:16:32,2,revise,active
5110AWF80113,dbgajam,,,Pendref Farm,,,,,,Waterfall Road,,,,nr,,SE,E0054200,Dyserth,,,,,,,false,UKOS,305686,379026,-3.416637663,53.299762011,BCT,MKD,OTH,,,,016,2000-01-01T00:00:00,2024-04-26T16:16:15,4,revise,active
5110AWF80114,dbgatad,,,Red Lion Hotel,,,,St Bridget`s Church,,Waterfall Road,,,,after,,N,E0054200,Dyserth,,,,,,,false,UKOS,305601,379301,-3.41799454,53.302217993,BCT,MKD,OTH,,,,016,2000-01-01T00:00:00,2025-06-08T16:46:44,3,revise,active
5110AWF80115,dbgapwp,,,Parc Gwelfor,,,,,,Parc Gwelfor,,,,junct,,E,E0054200,Dyserth,,,,,,,false,UKOS,305577,379503,-3.418414729,53.304028873,BCT,CUS,OTH,,,,016,2000-01-01T00:00:00,2025-06-08T16:46:59,7,revise,active
5110AWF80116,dbgatap,,,The Croft,,,,The Croft,,Waterfall Road,,,,o/s,,NW,E0054200,Dyserth,,,,,,,false,UKOS,305515,379661,-3.419391916,53.305437584,BCT,MKD,OTH,,,,016,2000-01-01T00:00:00,2024-04-26T16:17:04,3,revise,active
5110AWF80117,dbgapwg,,,Graig Park Hotel,,,,Graig Park Hotel & Country Club,,A547,,,,nr,,S,E0054200,Dyserth,,,,,,,false,UKOS,305589,380136,-3.418423285,53.309719114,BCT,MKD,OTH,,,,016,2000-01-01T00:00:00,2024-04-26T16:16:22,3,revise,active
5110AWF80118,dbgataj,,,Ffordd Ty Newydd,,,,,,Ffordd Tylargoch,,,,after,,NE,E0036753,Meliden,,,,,,,false,UKOS,305826,380604,-3.415006585,53.313966777,BCT,MKD,OTH,,,,016,2000-01-01T00:00:00,2024-04-26T16:16:17,4,revise,active
5110AWF80119,dbgatag,,,Caravan Site,,,,Meliden Caravan Site,,Ffordd Talargoch,,,,nr,,NE,E0036753,Meliden,,,,,,,false,UKOS,305909,380694,-3.413787909,53.314790282,BCT,MKD,OTH,,,,016,2000-01-01T00:00:00,2025-06-08T16:48:01,3,revise,active
5110AWF80120,dbgapwm,,,Melyd Arms,,,,Melyd Arms PH,,Ffordd Talargoch,,,,o/s,,N,E0036753,Meliden,,,,,,,false,UKOS,306223,380950,-3.409152059,53.31714645,BCT,MKD,OTH,,,,016,2000-01-01T00:00:00,2025-06-08T16:48:17,4,revise,active
5110AWF80121,dbgapwj,,,Manod Road,,,,,,Meliden Road,,,,after,,S,E0036753,Meliden,,,,,,,false,UKOS,306304,381018,-3.407956684,53.317771851,BCT,MKD,OTH,,,,016,2000-01-01T00:00:00,2024-04-26T16:16:59,2,revise,active
5110AWF80122,dbgapwa,,,Ffordd Penrhwylfa,,,,,,Pwll-y-bont,,,,on,,NW,E0036753,Meliden,,,,,,,false,UKOS,305984,381244,-3.412825782,53.319745888,BCT,MKD,OTH,,,,016,2000-01-01T00:00:00,2025-06-08T16:48:29,6,revise,active
5110AWF80124,dbgatam,,,Roundwood Avenue,,,,,,Roundwood Avenue,,,,after,,NW,E0036753,Meliden,,,,,,,false,UKOS,305838,381418,-3.415068536,53.321283466,BCT,MKD,OTH,,,,016,2000-01-01T00:00:00,2024-04-26T16:17:02,3,revise,active
5110AWF80125,dbgawmg,,,Penrhwylfa Crossroads,,,,,,Fforddisa,,,,after,,NE,E0054218,Prestatyn,,,,,,,false,UKOS,305672,381790,-3.417670603,53.324596644,BCT,MKD,OTH,,,,016,2000-01-01T00:00:00,2024-04-26T16:16:12,3,revise,active
5110AWF80126,dbgawpg,,,Tip Lane,,,,,,Fforddisa,,,,nr,,NE,E0054218,Prestatyn,,,,,,,false,UKOS,305991,382032,-3.412954598,53.326823485,BCT,MKD,OTH,,,,016,2000-01-01T00:00:00,2024-04-26T16:17:04,4,revise,active
5110AWF80127,dbgawmw,,,St Andrews Drive,,,,,,Fforddisa,,,,after,,NE,E0054218,Prestatyn,,,,,,,false,UKOS,306135,382159,-3.410831012,53.327994849,BCT,MKD,OTH,,,,016,2000-01-01T00:00:00,2024-04-26T16:17:03,3,revise,active
5110AWF80128,dbgawjm,,,Maes Tegid Stores,,,,,,Ffordd Isa,,,,after,,SW,E0054218,Prestatyn,,,,,,,false,UKOS,306395,382278,-3.406963637,53.329110274,BCT,MKD,OTH,,,,016,2000-01-01T00:00:00,2025-06-11T10:43:40,4,revise,active
5110AWF80129,dbgawdm,,,Elmsway Drive,,,,,,Fforddisa,,,,adj,,NE,E0054218,Prestatyn,,,,,,,false,UKOS,306589,382407,-3.404089715,53.330303776,BCT,MKD,OTH,,,,016,2000-01-01T00:00:00,2024-04-26T16:16:56,3,revise,active
5110AWF80130,dbgawdj,,,Eden Avenue,,,,,,Ffordd Pendyffryn,,,,before,,S,E0054218,Prestatyn,,,,,,,false,UKOS,306569,382584,-3.404442187,53.331890756,BCT,MKD,OTH,,,,016,2000-01-01T00:00:00,2024-04-26T16:16:56,3,revise,active
5110AWF80131,dbgawaj,,,Prestatyn Bus Station Stand 3,,Bus Station 3,,,,Penisardre Road,,,,at,,,E0054218,Prestatyn,,,,,,,false,UKOS,306480,382915,-3.405875908,53.334844802,BCS,,,,,,016,2000-01-01T00:00:00,2025-06-08T16:49:03,7,revise,active
5110AWF80132,dbgawpj,,,Royal Victoria Hotel,,,,,,Bastion Road,,,,o/s,,NW,E0054218,Prestatyn,,,,,,,false,UKOS,306391,383161,-3.407284904,53.337044154,BCT,MKD,OTH,,,,016,2000-01-01T00:00:00,2024-04-26T16:16:40,3,revise,active
5110AWF80133,dbgawgp,,,Highbury Avenue,,,,,,Marine Avenue,,,,after,,NE,E0054218,Prestatyn,,,,,,,false,UKOS,306878,383457,-3.400060666,53.339790029,BCT,MKD,OTH,,,,016,2000-01-01T00:00:00,2024-04-26T16:16:58,4,revise,active
5110AWF80135,dbgawjw,,,Nant Drive,,,,,,Prestatyn Road,,,,after,,W,E0054218,Prestatyn,,,,,,,false,UKOS,307421,383245,-3.391845952,53.337980403,BCT,MKD,OTH,,,,016,2000-01-01T00:00:00,2024-04-26T16:16:33,3,revise,active
5110AWF80136,dbgawdw,,,Rhodfa Bedwen,,,,,,Ffordd Onnen,,,,before,,SE,E0054218,Prestatyn,,,,,,,false,UKOS,307616,383099,-3.38887568,53.336702569,BCT,CUS,OTH,,,,016,2000-01-01T00:00:00,2024-04-26T16:16:40,2,revise,active
5110AWF80137,dbgawpt,,,Warren Close,,,,25,,Warren Drive,,,,nr former,,NE,E0054218,Prestatyn,,,,,,,false,UKOS,307316,383594,-3.393524636,53.341098109,BCT,CUS,OTH,,,,016,2000-01-01T00:00:00,2024-04-26T16:17:05,4,revise,active
5110AWF80138,dbgawmj,,,Pontins Holiday Camp,,,,,,Barkby Avenue,,,,NW-bound,,NW,E0054218,Prestatyn,,,,,,,false,UKOS,306894,383733,-3.399906227,53.342291867,BCT,MKD,OTH,,,,016,2000-01-01T00:00:00,2024-04-26T16:16:24,1,revise,active
5110AWF80139,dbgawmp,,,Sands Hotel,,,,Sands Hotel,,Beach Road East,,,,o/s,,NE,E0054218,Prestatyn,,,,,,,true,UKOS,306665,383959,-3.403406815,53.344263398,BCT,MKD,OTH,,,,016,2000-01-01T00:00:00,2024-04-26T16:16:41,3,revise,active
5110AWF80140,dbgawpd,,,Third Avenue,,,,8,,Third Avenue,,,,on,,S,E0054218,Prestatyn,,,,,,,false,UKOS,305793,383569,-3.416384198,53.34060415,BCT,CUS,OTH,,,,016,2000-01-01T00:00:00,2024-04-26T16:17:04,3,revise,active
5110AWF80141,dbgawma,,,Nova Centre,,,,,,Bastion Road,,,,after,,SE,E0054218,Prestatyn,,,,,,,false,UKOS,306115,383650,-3.411573646,53.341389312,BCT,MKD,OTH,,,,016,2000-01-01T00:00:00,2024-04-26T16:16:06,3,revise,active
5110AWF80142,dbgawmt,,,Sea Road,,,,,,Victoria Road,,,,after,,E,E0054218,Prestatyn,,,,,,,false,UKOS,306066,383149,-3.412160576,53.336878661,BCT,MKD,OTH,,,,016,2000-01-01T00:00:00,2024-04-26T16:17:02,3,revise,active
5110AWF80143,dbgawpm,,,Prestatyn Police Station,,Police Station,,Prestatyn Police Station,,Victoria Road,,,,nr,,W,E0054218,Prestatyn,,,,,,,false,UKOS,305900,383091,-3.414635362,53.336323384,BCT,MKD,OTH,,,,016,2000-01-01T00:00:00,2024-04-26T16:16:21,4,revise,active
5110AWF80144,dbgawdg,,,Coniston Drive,,,,,,Victoria Road,,,,after,,SW,E0054218,Prestatyn,,,,,,,false,UKOS,305680,383049,-3.417925757,53.335911328,BCT,MKD,OTH,,,,016,2000-01-01T00:00:00,2024-04-26T16:16:55,4,revise,active
5110AWF80145,dbgdmjm,,,Glandwr,,,,,,Victoria Road,,,,after,,W,E0054218,Prestatyn,,,,,,,false,UKOS,305271,382995,-3.424049725,53.335352947,BCT,MKD,OTH,,,,016,2000-01-01T00:00:00,2024-04-26T16:16:19,3,revise,active
5110AWF80146,dbgdmjt,,,Ffrith Beach,,,,,,Victoria road,,,,o/s,,E,N0075624,Y-Ffrith,Prestatyn,,,,,,false,UKOS,304918,382958,-3.429337958,53.334957089,BCT,MKD,OTH,,,,016,2000-01-01T00:00:00,2025-06-11T10:43:41,4,revise,active
5110AWF80147,dbgdmjg,,,Brig-y-Don,,,,,,Victoria Road West,,,,after,,SW,N0075624,Y-Ffrith,Prestatyn,,,,,,false,UKOS,304553,382700,-3.434739454,53.332568395,BCT,MKD,OTH,,,,016,2000-01-01T00:00:00,2024-04-26T16:16:02,4,revise,active
5110AWF80148,dbgdmjp,,,Earlswood Avenue,,,,,,Victoria Road West,,,,after,,NE,N0075624,Y-Ffrith,Prestatyn,,,,,,false,UKOS,304285,382604,-3.438733443,53.331657298,BCT,MKD,OTH,,,,016,2000-01-01T00:00:00,2024-04-26T16:16:56,4,revise,active
5110AWF80149,dbgdmjd,,,Arfon Avenue,,,,,,Victoria Road West,,,,before,,E,N0075624,Y-Ffrith,Prestatyn,,,,,,false,UKOS,303833,382501,-3.445487197,53.330654296,BCT,MKD,OTH,,,,016,2000-01-01T00:00:00,2024-04-26T16:16:53,3,revise,active
5110AWF80150,dbgdmpd,,,Cherry Close,,,,,,Garnett Drive,,,,on,,NW,N0075624,Y-Ffrith,Prestatyn,,,,,,false,UKOS,303884,382374,-3.444683089,53.329522374,BCT,CUS,OTH,,,,016,2000-01-01T00:00:00,2024-04-26T16:16:55,3,revise,active
5110AWF80151,dbgdmpt,,,The Boulevard,,,,,,The Boulevard,,,,on,,N,N0075624,Y-Ffrith,Prestatyn,,,,,,false,UKOS,304252,382470,-3.439188377,53.330451788,BCT,CUS,OTH,,,,016,2000-01-01T00:00:00,2024-04-26T16:17:03,3,revise,active
5110AWF80152,dbgdmpj,,,Lon Dyfi West,,,,,,Lon Dyfi,,,,on,,E,N0075624,Y-Ffrith,Prestatyn,,,,,,false,UKOS,304896,382781,-3.429615024,53.333362635,BCT,CUS,OTH,,,,016,2000-01-01T00:00:00,2024-04-26T16:16:29,3,revise,active
5110AWF80153,dbgdmjw,,,Ffrith Hotel,,,,,,Ceg-y-Ffordd,,,,before,,N,N0075624,Y-Ffrith,Prestatyn,,,,,,false,UKOS,304927,382832,-3.429164988,53.33382649,BCT,MKD,OTH,,,,016,2000-01-01T00:00:00,2024-04-26T16:16:17,2,revise,active
5110AWF80154,dbgawda,,,Seabank Community Centre,,,,Seabank Community Centre,,Seabank Drive,,,,o/s,,E,E0054218,Prestatyn,,,,,,,false,UKOS,305260,382879,-3.424180126,53.334308614,BCT,CUS,OTH,,,,016,2000-01-01T00:00:00,2024-04-26T16:16:06,2,revise,active
5110AWF80155,dbgawjt,,,Milmor Way Shops,,,,,,Milmor Way,,,,o/s,,S,E0054218,Prestatyn,,,,,,,false,UKOS,305367,382805,-3.42255171,53.333662826,BCT,CUS,OTH,,,,016,2000-01-01T00:00:00,2024-04-26T16:17:00,2,revise,active
5110AWF80157,dbgawga,,,Glan y Gors Middle,,,,,,Glan y Gors,,,,on,,E,E0054218,Prestatyn,,,,,,,false,UKOS,305807,382855,-3.415961399,53.33419071,BCT,CUS,OTH,,,,016,2000-01-01T00:00:00,2024-04-26T16:16:19,3,revise,active
5110AWF80158,dbgawam,,,Canterbury Drive,,,,,,Canterbury Drive,,,,on,,S,E0054218,Prestatyn,,,,,,,false,UKOS,305739,381916,-3.416702543,53.325740818,BCT,CUS,OTH,,,,016,2000-01-01T00:00:00,2024-04-26T16:16:54,4,revise,active
5110AWF80159,dbgawpa,,,The Broadway,,,,,,Broadway,,,,on,,SE,E0054218,Prestatyn,,,,,,,false,UKOS,305205,382401,-3.42486248,53.329998939,BCT,CUS,OTH,,,,016,2000-01-01T00:00:00,2024-05-30T13:12:31,7,revise,active
5110AWF80160,dbgawdp,,,Exeter Close,,,,,,Llandaff Drive,,,,before,,SW,E0054218,Prestatyn,,,,,,,false,UKOS,305297,382623,-3.423548064,53.332014859,BCT,CUS,OTH,,,,016,2000-01-01T00:00:00,2024-04-26T16:16:57,2,revise,active
5110AWF80161,dbgawjg,,,Lon Tilsli,,,,1,,Lon Tilsli,,,,on,,NE,E0054218,Prestatyn,,,,,,,false,UKOS,305317,381962,-3.423050098,53.32607877,BCT,CUS,OTH,,,,016,2000-01-01T00:00:00,2025-06-08T16:50:05,5,revise,active
5110AWF80162,dbgawap,,,Cardiff Way,,,,,,Cardiff Way,,,,before,,NW,E0054218,Prestatyn,,,,,,,false,UKOS,305561,381952,-3.419384887,53.326032548,BCT,MKD,OTH,,,,016,2000-01-01T00:00:00,2024-04-26T16:16:54,2,revise,active
5110AWF80163,dbgawjd,,,Lon Taliesin,,,,,,Lon Taliesin,,,,o/s,,NW,E0054218,Prestatyn,,,,,,,false,UKOS,305400,382164,-3.42186471,53.327908778,BCT,MKD,OTH,,,,016,2000-01-01T00:00:00,2025-06-08T16:50:56,6,revise,active
5110AWF80164,dbgawag,,,The Broadway,,,,,,Ffordd Penrhiwylfa,,,,SE-bound,,NW,E0054218,Prestatyn,,,,,,,false,UKOS,305182,382419,-3.425213114,53.33015656,BCT,MKD,OTH,,,,016,2000-01-01T00:00:00,2024-05-30T13:11:49,6,revise,active
5110AWF80165,dbgagwm,,,Pont Melin-Rug,,,,,,A5,,,,after,,SW,E0036719,Druid,,,,,,,false,UKOS,305214,343615,-3.413231034,52.981467634,BCT,MKD,OTH,,,,016,2000-01-01T00:00:00,2024-04-26T16:16:38,3,revise,active
5110AWF80166,dbgagwj,,,Fourcrosses Farm,,,,Fourcrosses Farm,,A494,,,,o/s,,SW,E0036719,Druid,,,,,,,false,UKOS,303359,342969,-3.440657568,52.975330821,BCT,CUS,OTH,,,,016,2000-01-01T00:00:00,2024-04-26T16:16:14,3,revise,active
5110AWP26605,dbgagmw,,,Denbigh Shopping Park,,,,Denbigh Shopping Park,,,,,,Grounds,,SW,E0054198,Denbigh,,,,,,,false,UKOS,305719,366706,-3.412527358,53.189046426,BCT,MKD,OTH,,,,016,2000-01-01T00:00:00,2025-06-08T16:51:21,5,revise,active
5110AWP26606,dbgagpw,,,Denbigh Police Station,,Police Station,,Denbigh Police Station,,Vale Street,,,,nr,,SW,E0054198,Denbigh,,,,,,,false,UKOS,305492,366260,-3.415755226,53.185007029,BCT,MKD,OTH,,,,016,2000-01-01T00:00:00,2024-04-26T16:16:21,5,revise,active
5110AWP26607,dbgagmj,,,Library and Museum,,,,Denbigh Library Museum Gallery,,High Street,,,,after,,SW,E0054198,Denbigh,,,,,,,false,UKOS,305228,366084,-3.419652488,53.183383037,BCT,MKD,OTH,,,,016,2000-01-01T00:00:00,2024-04-26T16:16:26,3,revise,active
5110AWP26608,dbgagpd,,,Lenten Pool,,,,Lenten Pool,,Pwll-y-grawys,,,,o/s,,SW,E0054198,Denbigh,,,,,,,false,UKOS,305031,366082,-3.422598866,53.1833299,BCT,MKD,OTH,,,,016,2000-01-01T00:00:00,2024-04-26T16:16:39,3,revise,active
5110AWP26609,dbgamaw,,,Denbigh Golf Club,,,,Denbigh Golf Club,,Unclassified,,,,opp,,NW,E0054203,Henllan,,,,,,,false,UKOS,303965,367496,-3.43897068,53.195840034,BCT,MKD,OTH,,,,016,2000-01-01T00:00:00,2024-04-26T16:16:09,5,revise,active
5110AWP26610,dbgamdj,,,Post Office,,,,Henllan Post Office,,Denbigh Street,,,,nr,,W,E0054203,Henllan,,,,,,,false,UKOS,302387,368099,-3.46276748,53.200975531,BCT,MKD,OTH,,,,016,2000-01-01T00:00:00,2024-04-26T16:16:43,3,revise,active
5110AWP26612,dbgamdt,,,Parc-y-Llan,,,,,,Denbigh Street,,,,after,,NW,E0054203,Henllan,,,,,,,false,UKOS,302723,368112,-3.457743046,53.201149413,BCT,MKD,OTH,,,,016,2000-01-01T00:00:00,2024-04-26T16:16:36,6,revise,active
5110AWP26613,dbgdpmw,,,Leger Farm,,,,,,A543,,,,opp,,W,N0075615,Pen-y-ffordd,Rhuddlan,,,,,,false,UKOS,302104,365522,-3.466212167,53.177766713,BCT,MKD,OTH,,,,016,2000-01-01T00:00:00,2024-05-26T17:09:13,4,revise,active
5110AWQ26465,dbgdgwp,,,Roe Park,,,,5,,The Roe,,,,at,,S,E0036794,The Roe,St Asaph,,,,,,false,UKOS,303155,374874,-3.453335083,53.261991156,BCT,MKD,OTH,,,,016,2000-01-01T00:00:00,2024-04-26T16:16:36,5,revise,active
5110AWQ26468,dbgaptm,,,Miners` Arms,,,,Miners` Arms PH,,Main Road,,,,nr former,,W,E0036749,Maeshafn,,,,,,,false,UKOS,320197,360994,-3.194439289,53.140098234,BCT,MKD,OTH,,,,016,2000-01-01T00:00:00,2025-06-08T16:51:41,3,revise,active
5110AWQ26469,dbgaptj,,,Maeshafn Youth Hostel,,Youth Hostel,,Maeshafn Youth Hostel,,Ffordd Maeshafn,,,,nr,,SE,E0036749,Maeshafn,,,,,,,false,UKOS,320907,360590,-3.183727955,53.136568886,BCT,MKD,OTH,,,,016,2000-01-01T00:00:00,2024-04-26T16:16:06,5,revise,active
5110AWQ26470,dbgaptp,,,Pant Du Quarry,,,,,,Main Road,,,,opp,,NE,E0036749,Maeshafn,,,,,,,false,UKOS,320856,359988,-3.184341391,53.13115569,BCT,MKD,OTH,,,,016,2000-01-01T00:00:00,2024-04-26T16:16:08,4,revise,active
5110AWQ26471,dbgawgj,,,Windermere Drive,,,,,,Grosvenor Road,,,,after,,E,E0054218,Prestatyn,,,,,,,false,UKOS,305800,383230,-3.416178141,53.337559177,BCT,MKD,OTH,,,,016,2000-01-01T00:00:00,2024-04-26T16:17:06,2,revise,active
5110AWQ26472,dbgdmpg,,,Green Lanes Middle,,,,37,,Green Lanes,,,,on,,W,N0075624,Y-Ffrith,Prestatyn,,,,,,false,UKOS,303924,382656,-3.444168292,53.332063641,BCT,MKD,OTH,,,,016,2000-01-01T00:00:00,2024-04-26T16:16:57,3,revise,active
5110AWQ26473,dbgawgt,,,Beach Avenue,,,,,,Highbury Avenue,,,,before,,W,E0054218,Prestatyn,,,,,,,false,UKOS,306569,383449,-3.404697643,53.339663603,BCT,MKD,OTH,,,,016,2000-01-01T00:00:00,2024-04-26T16:16:53,2,revise,active
5110AWQ26474,dbgawgd,,,The Avenue,,,,,,Gronant Road,,,,before,,SW,E0054218,Prestatyn,,,,,,,false,UKOS,307141,382817,-3.395924095,53.33408528,BCT,MKD,OTH,,,,016,2000-01-01T00:00:00,2024-04-26T16:16:49,2,revise,active
5110AWQ26475,dbgapwt,,,Princes Avenue,,,,14,,Princes Avenue,,,,on,,SE,E0054218,Prestatyn,,,,,,,false,UKOS,306270,381903,-3.408728875,53.325718397,BCT,MKD,OTH,,,,016,2000-01-01T00:00:00,2024-05-26T17:09:16,5,revise,active
5110AWQ26476,dbgawpw,,,Winchester Drive,,,,71,,Winchester Drive,,,,on,,SE,E0054218,Prestatyn,,,,,,,false,UKOS,305747,382249,-3.416681627,53.328734554,BCT,MKD,OTH,,,,016,2000-01-01T00:00:00,2024-04-26T16:17:06,3,revise,active
5110AWQ26477,dbgawat,,,North Avenue,,,,,,Central Avenue,,,,after,,N,E0054218,Prestatyn,,,,,,,false,UKOS,306352,382601,-3.40770466,53.332005119,BCT,MKD,OTH,,,,016,2000-01-01T00:00:00,2024-04-26T16:17:00,2,revise,active
5110AWQ26478,dbgagdj,,,Blue Lion,,,,Blue Lion PH,,Main Road,,,,before,,NW,E0054195,Cwm,,,,,,,false,UKOS,306637,377409,-3.401896701,53.28540023,BCT,MKD,OTH,,,,016,2000-01-01T00:00:00,2025-06-08T16:54:15,4,revise,active
5110AWQ26479,dbgdjpa,,,Llys Alun,,,,,,Bishops Walk,,,,before,,N,E0054222,St Asaph,,,,,,,false,UKOS,304008,373967,-3.440277768,53.254000675,BCT,MKD,OTH,,,,016,2000-01-01T00:00:00,2024-04-26T16:16:27,2,revise,active
5110AWQ26480,dbgagma,,,Aldi Car Park,,,,Denbigh Kwiksave Car Park,,Grounds,,,,in,,S,E0054198,Denbigh,,,,,,,false,UKOS,305721,366501,-3.412400411,53.187208956,BCT,MKD,OTH,,,,016,2000-01-01T00:00:00,2025-06-11T10:43:38,5,revise,active
5110AWQ26482,dbgdjwd,,,Ysgol Glan Clwyd,,,,Ysgol Glan Clwyd,,Grounds,,,,in,,NE,E0054222,St Asaph,,,,,,,false,UKOS,304092,374187,-3.439085502,53.255992785,BCT,MKD,OTH,,,,016,2000-01-01T00:00:00,2024-04-26T16:16:51,2,revise,active
5110AWQ26522,dbgamwt,,,Llanfair Dyffryn Clwyd War Memorial,,War Memorial,,Llanfair Dyffryn Clwyd War Memorial,,A525,,,,opp,,SE,E0054210,Llanfair Dyffryn Clwyd,,,,,,,false,UKOS,313443,355418,-3.293872829,53.088932869,BCT,MKD,OTH,,,,016,2000-01-01T00:00:00,2025-06-08T16:54:33,5,revise,active
5110AWQ26523,dbgagjw,,,Ysgol Plas Brondyffryn High School Bus Park,,,,,,Ruthin Road,,,,in,,SW,E0054198,Denbigh,,,,,,,false,UKOS,306157,366216,-3.405793951,53.18472948,BCT,MKD,OTH,,,,016,2000-01-01T00:00:00,2024-05-26T17:09:18,4,revise,active
5110AWQ26524,dbgagta,,,Lenten Pool,,,,,,Pwll-y-Grawys,,,,o/s,,W,E0054198,Denbigh,,,,,,,false,UKOS,305025,366080,-3.422688026,53.183310855,BCT,MKD,OTH,,,,016,2000-01-01T00:00:00,2024-04-26T16:16:39,2,revise,active
5110AWQ26525,dbgapdg,,,Maes Hafod South,,,,26,,Maes Hafod,,,,on,,E,E0054221,Ruthin,,,,,,,false,UKOS,311599,358179,-3.322159301,53.113442404,BCT,MKD,OTH,,,,016,2000-01-01T00:00:00,2025-06-11T10:43:40,5,revise,active
5110AWQ26526,dbgapdt,,,Ty`n-y-Parc Middle,,,,14,,Ty`n-y-Parc,,,,on,,NE,E0054221,Ruthin,,,,,,,false,UKOS,311816,358093,-3.318894617,53.112705517,BCT,MKD,OTH,,,,016,2000-01-01T00:00:00,2025-06-11T10:43:41,5,revise,active
5110AWQ26527,dbgdjgd,,,Ruthin Fire Station,,Fire Station,,Ruthin Fire Station,,Park Road,,,,opp,,SW,E0054221,Ruthin,,,,,,,false,UKOS,312164,358374,-3.313773994,53.115283661,BCT,MKD,OTH,,,,016,2000-01-01T00:00:00,2024-04-26T16:16:21,5,revise,active
5110AWQ26528,dbgadam,,,St Tysilio`s,,,,St Tysilio`s Church,,Berwyn Road,,,,before,,NW,N0071191,Berwyn,,,,,,,false,UKOS,319535,343512,-3.199957994,52.982886256,BCT,MKD,OTH,,,,016,2000-01-01T00:00:00,2025-06-11T10:43:41,4,revise,active
5110AWQ26530,dbgdajp,,,Rhyl Park & Ride,,,,Rhyl Park & Ride Car Park,,Clwyd Retail Park,,,,Grounds,,W,E0054220,Rhyl,,,,,,,false,UKOS,302178,379666,-3.469453758,53.304871575,BCT,CUS,OTH,,,,016,2000-01-01T00:00:00,2025-06-08T16:55:47,6,revise,active
5110AWQ26532,dbgdmpa,,,Ffrith Post Office,,,,Ffrith Post Office,,Victoria Road,,,,after,,W,N0075624,Y-Ffrith,Prestatyn,,,,,,false,UKOS,304824,382892,-3.430729135,53.33434254,BCT,MKD,OTH,,,,016,2000-01-01T00:00:00,2025-06-11T10:43:41,6,revise,active
5110AWQ26533,dbgdgta,,,Spruce Avenue,,,,,,Tynewydd Road,,,,before,,NW,E0054220,Rhyl,,,,,,,false,UKOS,302124,381870,-3.47094491,53.324670688,BCT,MKD,OTH,,,,016,2000-01-01T00:00:00,2024-04-26T16:17:03,2,revise,active
5110AWQ26535,dbgajat,,,Colomendy Industrial Estate,,,,D Jones Plant Hire,,Estate Road,,,,in,,E,E0036724,Fron,Denbigh,,,,,,false,UKOS,305654,367215,-3.413614154,53.193622152,BCT,MKD,OTH,,,,016,2000-01-01T00:00:00,2024-04-26T16:16:52,3,revise,active
5110AWQ26537,dbgagja,,,Ifor Wiliams Trailers,,,,Ifor Williams Trailers,,Pig y Bont,,,,nr,,NW,E0054197,Cynwyd,,,,,,,false,UKOS,305558,341152,-3.407389624,52.959394697,BCT,MKD,OTH,,,,016,2000-01-01T00:00:00,2024-04-26T16:16:25,2,revise,active
5110AWQ26538,dbgagap,,,Corwen Car Park,,Car Park,,Corwen Car Park,,Green Lane,,,,in,,SW,E0054194,Corwen,,,,,,,false,UKOS,307965,343537,-3.372247179,52.981242087,BCT,MKD,OTH,,,,016,2000-01-01T00:00:00,2024-04-26T16:16:31,6,revise,active
5110DGX17011,dbgdjad,,,Swan Inn,,,,Swan Inn PH,,The Roe,,,,nr,,SE,E0036794,The Roe,St Asaph,,,,,,false,UKOS,303325,374493,-3.4506716,53.258603143,BCT,MKD,OTH,,,,016,2000-01-01T00:00:00,2025-06-08T16:57:50,3,revise,active
5110DGX17013,dbgdgwt,,,The Roe Health Centre,,Health Centre,,The Roe Health Centre,,The Roe,,,,o/s,,SE,E0036794,The Roe,St Asaph,,,,,,false,UKOS,303407,374329,-3.449392854,53.257139834,BCT,MKD,OTH,,,,016,2000-01-01T00:00:00,2024-04-26T16:16:06,4,revise,active
5110DGX17014,dbgdjpj,,,St Asaph Cathedral,,Cathedral,,St Asaph Cathedral,,High Street,,,,o/s,,SW,E0054222,St Asaph,,,,,,,false,UKOS,303868,374354,-3.442492407,53.257448287,BCT,MKD,OTH,,,,016,2000-01-01T00:00:00,2024-04-26T16:16:13,5,revise,active
5110DGX17015,dbgdjtg,Y,,Oriel House,,,,,,Upper Denbigh Road,,,,before,,S,E0054222,St Asaph,,,,,,,false,UKOS,304283,373129,-3.435904878,53.246515594,BCT,MKD,OTH,,,,016,2000-01-01T00:00:00,2024-04-26T16:16:47,3,revise,active
5110DGX17016,dbgdjtw,,,Bryn Polyn Nurseries,,The Nurseries,,,,Upper Denbigh Road,,,,after,,SE,E0054222,St Asaph,,,,,,,false,UKOS,304373,372810,-3.434460787,53.24366988,BCT,MKD,OTH,,,,016,2000-01-01T00:00:00,2024-04-26T16:16:32,4,revise,active
5110DGX17018,dbgawjp,,,Russell Drive,,,,,,Marion Road,,,,after,,E,N0075624,Y-Ffrith,Prestatyn,,,,,,false,UKOS,304872,382600,-3.42992089,53.331731876,BCT,CUS,OTH,,,,016,2000-01-01T00:00:00,2024-04-26T16:17:02,2,revise,active
5110DGX17019,dbgawgm,,,King`s Avenue,,,,,,High Street,,,,after,,SE,E0054218,Prestatyn,,,,,,,false,UKOS,306592,382876,-3.404183128,53.33451872,BCT,MKD,OTH,,,,016,2000-01-01T00:00:00,2024-04-26T16:16:58,2,revise,active
5110DGX17021,dbgamtd,Y,,Waen Crossroads,,,,,,Unclassified,,,,after,,NE,E0054225,Waen,,,,,,,false,UKOS,310841,365899,-3.335632001,53.182691854,BCT,MKD,OTH,,,,016,2000-01-01T00:00:00,2025-06-08T16:58:13,4,revise,active
5110DGX17022,dbgamtg,,,Waen Crossroads,,,,,,B5429,,,,after,,N,E0054225,Waen,,,,,,,false,UKOS,310898,365946,-3.334792424,53.183123777,BCT,MKD,OTH,,,,016,2000-01-01T00:00:00,2025-06-08T16:58:10,5,revise,active
5110DGX17024,dbgdatj,,,Denmore Stores,,,,,,Rhyl Coast Road,,,,after,,SW,E0054220,Rhyl,,,,,,,false,UKOS,302192,382135,-3.470006219,53.327064482,BCT,MKD,OTH,,,,016,2000-01-01T00:00:00,2024-04-26T16:16:56,3,revise,active
5110DGX17025,dbgajtg,,,Plas Clough,,,,,,A525,,,,nr,,S,E0036736,Green,,,,,,,false,UKOS,305980,367755,-3.408895397,53.198532463,BCT,MKD,OTH,,,,016,2000-01-01T00:00:00,2024-04-26T16:16:37,3,revise,active
5110DGX17026,dbgdagj,,,Bryn Cwybr,,,,Bryn Cwybr Nursing Home,,A547,,,,after,,SE,E0054219,Rhuddlan,,,,,,,false,UKOS,302610,379097,-3.462798352,53.299838353,BCT,MKD,OTH,,,,016,2000-01-01T00:00:00,2024-04-26T16:16:03,4,revise,active
5110DGX17028,dbgatpt,,,Haulfre,,,,Haulfre,,Rhyl Road,,,,nr,,NE,E0054219,Rhuddlan,,,,,,,false,UKOS,302759,378491,-3.460377578,53.294420361,BCT,CUS,OTH,,,,016,2000-01-01T00:00:00,2024-05-27T16:20:24,5,revise,active
5110DGX17029,dbgdadw,,,Derwen Hotel,,,,Derwen Hotel PH,,Rhuddlan Road,,,,before,,SE,E0054220,Rhyl,,,,,,,false,UKOS,302221,379828,-3.46885879,53.30633978,BCT,MKD,OTH,,,,016,2000-01-01T00:00:00,2024-04-26T16:16:12,3,revise,active
5110DGX17030,dbgdajd,,,Marsh Warden,,,,Marsh Warden PH,,Station Road,,,,opp,,SW,E0054219,Rhuddlan,,,,,,,false,UKOS,302095,377853,-3.470139267,53.288569629,BCT,MKD,OTH,,,,016,2000-01-01T00:00:00,2024-04-26T16:16:59,4,revise,active
5110DGX17032,dbgdajw,,,Treetops Court,,,,,,Rhyl Road,,,,after,,SW,E0054219,Rhuddlan,,,,,,,false,UKOS,302539,378294,-3.463616665,53.292614273,BCT,MKD,OTH,,,,016,2000-01-01T00:00:00,2025-06-08T17:00:42,4,revise,active
5110DGX17033,dbgatdm,,,Dolwen,,,,,,Main Road,,,,nr,,E,E0054217,Nantglyn,,,,,,,false,UKOS,301199,363015,-3.478973193,53.155071609,BCT,MKD,OTH,,,,016,2000-01-01T00:00:00,2024-04-26T16:16:12,2,revise,active
5110DGX17034,dbgdjma,,,Brynglas Crossroads,,,,Brynglas Crossroads,,B5435,,,,after,,SE,E0036706,Capel Saron,,,,,,,false,UKOS,302136,361043,-3.464362757,53.13752439,BCT,MKD,OTH,,,,016,2000-01-01T00:00:00,2024-04-26T16:16:10,2,revise,active
5110DGX17035,dbgapdj,,,Plas Einws Turn,,,,,,A525,,,,after,,SE,E0036778,Rhewl,,,,,,,false,UKOS,311153,359653,-3.329229136,53.126609822,BCT,MKD,OTH,,,,016,2000-01-01T00:00:00,2024-05-27T16:20:25,5,revise,active
5110DGX17037,dbgatgw,,,Ty Isaf,,,,,,Unclassified Road,,,,nr,,E,E0036766,Pengwern,,,,,,,false,UKOS,301585,376793,-3.47745833,53.278950198,BCT,MKD,OTH,,,,016,2000-01-01T00:00:00,2025-06-08T17:00:37,4,revise,active
5110DGX17038,dbgdjgw,,,Ysgol Brynhyfryd,,,,,,Grounds,,,,in,,SE,E0054221,Ruthin,,,,,,,false,UKOS,313085,358277,-3.299991424,53.114567595,BCT,MKD,OTH,,,,016,2000-01-01T00:00:00,2024-04-26T16:16:50,4,revise,active
5110DGX17039,dbgdadp,,,Farmers Arms,,,,,,Unclassified Road,,,,before,,SE,E0036781,Rhuallt,,,,,,,false,UKOS,306126,373334,-3.408354931,53.248691783,BCT,MKD,OTH,,,,016,2000-01-01T00:00:00,2024-04-26T16:16:14,2,revise,active
5110DGX17041,dbgdpwd,,,Presthaven Sands,,,,,,Grounds,,,,in,,W,E0054218,Prestatyn,,,,,,,false,UKOS,309017,384182,-3.368153702,53.346672965,BCT,MKD,OTH,,,,016,2000-01-01T00:00:00,2025-06-08T17:00:32,6,revise,active
5110DGX17048,dbgdjwg,,,Moel Famau Car Park,,Car Park,,Moel Famau Car Park,,Bwlch Penbarras,,,,before,,E,N0078139,Moel Famau,,,,,,,false,UKOS,317091,361049,-3.240873711,53.140113124,BCT,MKD,OTH,,,,016,2000-01-01T00:00:00,2024-04-26T16:16:31,4,revise,active
5110DGZ00221,dbgaptw,,,Carreg Heilin,,,,,,Waterfall Road,,,,before,,S,E0054200,Dyserth,,,,,,,false,UKOS,305591,379457,-3.418191009,53.303618017,BCT,MKD,OTH,,,,016,2000-01-01T00:00:00,2024-04-26T16:16:07,2,revise,active
5110DGZ00222,dbgapwd,,,Glan Ffyddion,,,,,,Waterfall Road,,,,o/s,,NW,E0054200,Dyserth,,,,,,,false,UKOS,305562,379505,-3.418640346,53.304044168,BCT,MKD,OTH,,,,016,2000-01-01T00:00:00,2024-04-26T16:16:19,3,revise,active
5110DGZ00223,dbgapmw,,,County Boundary,,,,,,A494,,,,adj,,NE,E0036747,Loggerheads,,,,,,,false,UKOS,320219,362649,-3.194523275,53.154974991,BCT,CUS,OTH,,,,016,2000-01-01T00:00:00,2024-04-26T16:16:16,3,revise,active
5110DGZ00224,dbgapta,,,County Boundary,,,,,,A494,,,,adj,,SW,E0036747,Loggerheads,,,,,,,false,UKOS,320239,362644,-3.194223013,53.154933056,BCT,CUS,OTH,,,,016,2000-01-01T00:00:00,2024-04-26T16:16:16,3,revise,active
5110DGZ00225,dbgadja,,,Glan-y-morfa,,,,,,Ronald's Way,,,,nr,,S,E0054189,Bodelwyddan,,,,,,,true,UKOS,299592,376630,-3.507285967,53.277111493,BCT,MKD,OTH,,,,016,2000-01-01T00:00:00,2024-04-26T16:16:19,2,revise,active
5110DGZ00226,dbgdjgm,,,Ruthin Co-op,,Co-op,,,,Station Road,,,,o/s,,N,E0054221,Ruthin,,,,,,,false,UKOS,312654,358308,-3.306437214,53.114771107,BCT,MKD,OTH,,,,016,2000-01-01T00:00:00,2025-06-11T10:43:40,7,revise,active
5110PSTA0,,,,Prestatyn Rail Station (Main Entrance),,,,,,Sandy Lane,,,,Main Entrance,,,E0054218,Prestatyn,,,,,,,false,UKOS,306425,383091,-3.40675852,53.336439899,RSE,,,,,,016,2014-03-04T15:08:42,2025-06-11T10:43:39,3,revise,active
5110PSTA1,,,,Prestatyn Rail Station,,,,,,Sandy Lane,,,,North Entrance,,,E0054218,Prestatyn,,,,,,,false,UKOS,306422,383093,-3.406804152,53.336457341,RSE,,,,,,016,2014-03-04T15:09:13,2025-06-11T10:43:39,2,revise,active
5110PSTA2,,,,Prestatyn Rail Station,,,,,,High Street,,,,South Entrance,,,E0054218,Prestatyn,,,,,,,false,UKOS,306441,383069,-3.406511803,53.336245035,RSE,,,,,,016,2014-03-04T15:09:45,2025-06-11T10:43:39,2,revise,active
5110PSTA3,,,,Prestatyn Rail Station,,,,,,High Street,,,,Back Entrance,,,E0054218,Prestatyn,,,,,,,false,UKOS,306437,383071,-3.406572447,53.336262299,RSE,,,,,,016,2014-03-04T15:10:10,2025-06-11T10:43:39,2,revise,active
5110RHYL0,,,,Rhyl Rail Station (Main Entrance),,,,,,Elwy Street,,,,Main Entrance,,,E0054220,Rhyl,,,,,,,false,UKOS,300948,381237,-3.488403769,53.318782211,RSE,,,,,,016,2014-03-04T15:11:59,2025-06-11T10:43:39,3,revise,active
5110RHYL1,,,,Rhyl Rail Station,,,,,,Elwy Street,,,,Side Entrance,,,E0054220,Rhyl,,,,,,,false,UKOS,300865,381151,-3.489622397,53.317993876,RSE,,,,,,016,2014-03-04T15:12:39,2025-06-11T10:43:39,2,revise,active
5110WDB21519,dbgmtg,,,Rhyl Railway Station Stand E,,Railway Station E,,Rhyl Bus Station,,Vale Road Bridge,,,,at,,,E0054220,Rhyl,,,,,,,false,UKOS,300927,381251,-3.48871594,53.318881103,BCS,,,,,,016,2000-01-01T00:00:00,2025-06-11T10:43:39,10,revise,active
5110WDB21527,dbgdtam,,,Little Chef,,,,Little Chef,,A55,,,,NW-bound,,NW,E0054189,Bodelwyddan,,,,,,,false,UKOS,298824,375645,-3.518485513,53.26811456,BCT,MKD,OTH,,,,016,2000-01-01T00:00:00,2024-04-26T16:16:26,6,revise,active
5110WDB21528,dbgdtap,,,Little Chef,,,,Little Chef,,A55,,,,SE-bound,,SE,E0054189,Bodelwyddan,,,,,,,false,UKOS,298776,375852,-3.519270905,53.26996541,BCT,MKD,OTH,,,,016,2000-01-01T00:00:00,2024-04-26T16:16:26,4,revise,active
5110WDB21563,dbgdtaw,,,Queen's Walk,,,,,,Russell Road,,,,after,,SW,E0054220,Rhyl,,,,,,,false,UKOS,301312,381856,-3.483127228,53.324393971,BCT,MKD,OTH,,,,016,2000-01-01T00:00:00,2024-04-26T16:17:01,2,revise,active
5110WDB21564,dbgdtda,,,St Asaph Business Park,,Business Park,,St Asaph Business Park,,Ffordd William Morgan,,,,N-bound,,NW,E0054222,St Asaph,,,,,,,false,UKOS,301589,374283,-3.476620696,53.256392094,BCT,MKD,OTH,,,,016,2000-01-01T00:00:00,2024-04-26T16:16:35,7,revise,active
5110WDB21565,dbgdtdg,,,Highfield Park,,St. Gwyfan's Church,,,,Llangwyfan,,,,nr,,N,E0036743,Llangwyfan,,,,,,,false,UKOS,312051,366255,-3.317628916,53.186092671,BCT,MKD,OTH,,,,016,2000-01-01T00:00:00,2024-04-26T16:16:35,4,revise,active
5110WDB21566,dbgdtdj,,,Kings Head Inn,,,,,,Main Road,,,,o/s,,SE,E0054214,Llanrhaeadr-yng-Nghinmeirch,,,,,,,false,UKOS,308175,363420,-3.37480113,53.159960851,BCT,CUS,OTH,,,,016,2000-01-01T00:00:00,2024-04-26T16:16:25,4,revise,active
5110WDB21596,dbgdtdp,,,Duke`s Stores,,,,Duke`s Stores,,Mwrog Street,,,,o/s,,NE,N0071193,Llanfwrog,,,,,,,false,UKOS,311772,357965,-3.319516546,53.111547947,BCT,CUS,OTH,,,,016,2000-01-01T00:00:00,2025-06-08T17:06:04,4,revise,active
5110WDB21735,dbgdtdt,,,Prestatyn Bus Station Stand 1,,Bus Station 1,,,,Penisardre Road,,,,at,,,E0054218,Prestatyn,,,,,,,false,UKOS,306454,382948,-3.406275,53.335141,BCS,,,,,,016,2000-01-01T00:00:00,2025-06-08T17:06:00,11,revise,active
5110WDB21736,dbgdtdw,,,Prestatyn Bus Station Stand 2,,Bus Station 2,,,,Penisardre Road,,,,at,,,E0054218,Prestatyn,,,,,,,false,UKOS,306467,382928,-3.406074911,53.334959319,BCS,,,,,,016,2000-01-01T00:00:00,2025-06-08T17:05:57,9,revise,active
5110WDB21737,dbgdtga,,,Prestatyn Bus Station Stand 4,,Bus Station 4,,,,Penisardre Road,,,,at,,,E0054218,Prestatyn,,,,,,,false,UKOS,306493,382897,-3.405675428,53.334685355,BCS,,,,,,016,2000-01-01T00:00:00,2025-06-08T17:05:53,9,revise,active
5110WDB21742,dbgdtgj,,,Llandegla Crossroads,,,,Pisgah Chapel,,A5104,,,,before,,SW,E0036765,Pen-y-stryt,,,,,,,false,UKOS,319965,351967,-3.195654436,53.058937301,BCT,CUS,OTH,,,,016,2000-01-01T00:00:00,2025-06-08T17:05:50,5,revise,active
5110WDB21743,dbgdtgm,,,Llandegla Crossroads,,,,Pen-y-Stryt Farm,,A5104,,,,after,,NE,E0036765,Pen-y-stryt,,,,,,,false,UKOS,319957,351980,-3.195777011,53.059052934,BCT,CUS,OTH,,,,016,2000-01-01T00:00:00,2025-06-08T17:04:42,5,revise,active
5110WDB21744,dbgdtgp,,,Llangollen Railway Station,,,,Llangollen Railway Station,,Abbey Road,,,,opp,,SE,E0054212,Llangollen,,,,,,,false,UKOS,321437,342229,-3.171322583,52.971633509,BCT,CUS,OTH,,,,016,2000-01-01T00:00:00,2025-06-11T10:43:39,9,revise,active
5110WDB21745,dbgdtgt,,,Llangollen Railway Station,,,,Llangollen Railway Station,,Abbey Road,,,,o/s,,NW,E0054212,Llangollen,,,,,,,false,UKOS,321442,342216,-3.171244986,52.971517407,BCT,CUS,OTH,,,,016,2000-01-01T00:00:00,2025-06-11T10:43:39,7,revise,active
5110WDB22410,dbgdtgw,,,Pont Cwm Pydew,,,,,,B4391,,,,after,,NE,N0078267,Pont Cwm Pydew,,,,,,,false,UKOS,300928,331452,-3.473329009,52.871391401,BCT,CUS,OTH,,,,016,2000-01-01T00:00:00,2024-04-26T16:16:38,3,revise,active
5110WDB22411,dbgdtja,,,Pont Cwm Pydew,,,,,,B4391,,,,before,,SW,N0078267,Pont Cwm Pydew,,,,,,,false,UKOS,300928,331437,-3.47332444,52.871256605,BCT,CUS,OTH,,,,016,2000-01-01T00:00:00,2024-04-26T16:16:38,3,revise,active
5110WDB22619,dbgdtjd,,,Community Hospital,,,,,,The Avenue,,,,nr,,SE,E0054218,Prestatyn,,,,,,,false,UKOS,306809,381903,-3.400638961,53.325813671,BCT,CUS,OTH,,,,016,2000-01-01T00:00:00,2024-04-26T16:16:50,2,revise,active
5110WDB22620,dbgdtjg,,,Alexandra Drive,,,,15,,Alexandra Drive,,,,on,,NW,E0054218,Prestatyn,,,,,,,false,UKOS,305372,381611,-3.422119682,53.322934566,BCT,CUS,OTH,,,,016,2000-01-01T00:00:00,2024-04-26T16:16:53,3,revise,active
5110WDB22631,dbgdtjm,,,Fron Haul,,,,,,A541,,,,nr,,NE,E0036791,Sodom,,,,,,,false,UKOS,310629,371684,-3.34042538,53.234642494,BCT,MKD,OTH,,,,016,2000-01-01T00:00:00,2024-04-26T16:16:18,3,revise,active
5110WDB22632,dbgdtjp,,,Aber Wheeler,,,,,,A541,,,,nr,,NE,E0036791,Sodom,,,,,,,false,UKOS,310207,371174,-3.346602059,53.229988202,BCT,MKD,OTH,,,,016,2000-01-01T00:00:00,2024-04-26T16:16:01,3,revise,active
5110WDB22633,dbgdtjt,,,Geinas Farm,,Farm,,Geinas Farm,,A541,,,,nr,,NE,N0075600,Geinas,,,,,,,false,UKOS,309332,369804,-3.359315835,53.217523598,BCT,CUS,OTH,,,,016,2000-01-01T00:00:00,2025-06-08T17:07:33,7,revise,active
5110WDB22634,dbgdtjw,,,St Stephen`s Church,,,,St Stephen`s Church,,B5429,,,,opp,,W,E0054190,Bodfari,,,,,,,false,UKOS,309244,370066,-3.36070808,53.219867543,BCT,MKD,OTH,,,,016,2000-01-01T00:00:00,2025-06-11T10:43:38,5,revise,active
5110WDB22635,dbgdtma,,,Pontruffydd,,,,Pontruffydd Cottages,,A541,,,,after,,NE,N0075600,Geinas,,,,,,,false,UKOS,308223,369706,-3.375891063,53.216456931,BCT,MKD,OTH,,,,016,2000-01-01T00:00:00,2024-05-27T16:40:46,4,revise,active
5110WDB22636,dbgdtmd,,,Gliding Centre,,,,Denbigh Gliding Centre,,A543,,,,opp,,NE,E0036736,Green,,,,,,,false,UKOS,306968,368824,-3.394422169,53.208312659,BCT,MKD,OTH,,,,016,2000-01-01T00:00:00,2025-06-11T10:43:38,4,revise,active
5110WDB22637,dbgdtmg,,,College Farm,,,,College Farm,,A525,,,,nr,,SE,E0054223,Trefnant,,,,,,,false,UKOS,305432,370228,-3.417829642,53.220657788,BCT,MKD,OTH,,,,016,2000-01-01T00:00:00,2024-04-26T16:16:16,3,revise,active
5110WDB22639,dbgdtmj,,,Ty`n-yr-eithin,,,,Ty`n-yr-eithin,,A543,,,,before,,NE,E0036724,Fron,Denbigh,,,,,,false,UKOS,306132,367631,-3.406584284,53.197445062,BCT,MKD,OTH,,,,016,2000-01-01T00:00:00,2024-04-26T16:16:47,3,revise,active
5110WDB22640,dbgdtmp,,,Plas Newydd,,,,Plas Newydd Lodge,,A525,,,,opp,,SE,E0036736,Green,,,,,,,false,UKOS,305702,369647,-3.413615052,53.215480331,BCT,MKD,OTH,,,,016,2000-01-01T00:00:00,2024-04-26T16:16:37,4,revise,active
5110WDB22641,dbgdtmt,,,Rhodfa Clwyd,,,,,,Clwydian Park Road,,,,before,,SW,N0075606,Hafod-y-green,,,,,,,false,UKOS,304434,371093,-3.433031434,53.228251932,BCT,CUS,OTH,,,,016,2000-01-01T00:00:00,2024-04-26T16:16:40,3,revise,active
5110WDB22710,dbgdtpd,,,The Drovers Arms,,,,Drovers Arms PH,,A525,,,,after,,NW,E0036778,Rhewl,,,,,,,false,UKOS,310879,360438,-3.333541175,53.133618463,BCT,MKD,OTH,,,,016,2000-01-01T00:00:00,2024-05-27T16:40:47,6,revise,active
5110WDB22948,dbgdtpg,,,Fourcrosses Farm,,,,Fourcrosses Farm,,A494,,,,opp,,NE,E0036719,Druid,,,,,,,false,UKOS,303353,342972,-3.440747788,52.975356698,BCT,CUS,OTH,,,,016,2000-01-01T00:00:00,2024-04-26T16:16:14,3,revise,active
5110WDB22949,dbgdtpj,,,The Druids,,,,Druids PH,,A5,,,,nr,,W,E0036719,Druid,,,,,,,false,UKOS,304156,343506,-3.428951679,52.980299758,BCT,MKD,OTH,,,,016,2000-01-01T00:00:00,2024-04-26T16:17:04,3,revise,active
5110WDB22950,dbgdtpm,,,Pont Melin-Rug,,,,,,A5,,,,before,,NE,E0036719,Druid,,,,,,,false,UKOS,305241,343626,-3.412832244,52.981571265,BCT,MKD,OTH,,,,016,2000-01-01T00:00:00,2024-04-26T16:16:38,3,revise,active
5110WDB22951,dbgdtpt,,,Alwen Cottage,,,,Alwen Cottage,,A5,,,,before,,SE,E0036797,Tyn-y-cefn,,,,,,,false,UKOS,306253,343635,-3.39776659,52.98183031,BCT,MKD,OTH,,,,016,2000-01-01T00:00:00,2024-04-26T16:16:04,4,revise,active
5110WDB22953,dbgdtwa,,,Station House,,,,,,Northern Terrace,,,,opp,,W,E0054194,Corwen,,,,,,,false,UKOS,307527,343518,-3.378763506,52.981000458,BCT,MKD,OTH,,,,016,2000-01-01T00:00:00,2025-06-08T17:08:05,5,revise,active
5110WDB22954,dbgdtwd,,,Bonwm Cottage,,,,,,A5,,,,o/s,,SE,E0054194,Corwen,,,,,,,false,UKOS,310160,343321,-3.339504072,52.979678407,BCT,MKD,OTH,,,,016,2000-01-01T00:00:00,2024-04-26T16:16:05,3,revise,active
5110WDB22958,dbgdtwj,,,Capel Hermon,,,,Capel Hermon,,B4401,,,,opp,,NW,E0054207,Llandrillo,,,,,,,false,UKOS,303320,337134,-3.439495687,52.922888152,BCT,MKD,OTH,,,,016,2000-01-01T00:00:00,2024-04-26T16:16:07,3,revise,active
5110WDB22959,dbgdtwm,,,Dudley Arms,,,,Dudley Arms PH,,High Street,,,,opp,,W,E0054207,Llandrillo,,,,,,,false,UKOS,303432,337113,-3.437824082,52.922719607,BCT,MKD,OTH,,,,016,2000-01-01T00:00:00,2024-04-26T16:16:13,3,revise,active
5110WDB22960,dbgdtwp,,,Llandrillo War Memorial,,,,Llandrillo War Memorial,,B4401,,,,opp,,NE,E0054207,Llandrillo,,,,,,,false,UKOS,303541,337146,-3.436213048,52.92303117,BCT,CUS,OTH,,,,016,2000-01-01T00:00:00,2024-04-26T16:16:10,5,revise,active
5110WDB22961,dbgdtwt,,,Pont yr Hendwr,,,,,,B4401,,,,before,,NE,E0054207,Llandrillo,,,,,,,false,UKOS,304241,338509,-3.426207312,52.935409742,BCT,CUS,OTH,,,,016,2000-01-01T00:00:00,2024-04-26T16:16:39,3,revise,active
5110WDB22962,dbgdwad,,,Blue Lion Hotel,,,,Blue Lion Hotel PH,,B4401,,,,before,,SW,E0054197,Cynwyd,,,,,,,false,UKOS,305690,341162,-3.405428123,52.959507813,BCT,MKD,OTH,,,,016,2000-01-01T00:00:00,2025-06-08T17:08:51,4,revise,active
5110WDB22963,dbgdwag,,,Glandwr,,,,,,B4401,,,,nr,,NE,E0054194,Corwen,,,,,,,false,UKOS,306926,343085,-3.387587378,52.977005132,BCT,CUS,OTH,,,,016,2000-01-01T00:00:00,2025-06-08T17:09:09,5,revise,active
5110WDB22964,dbgdwaj,,,St Thomas` Church,,,,St Thomas` Church,,A5,,,,after,,W,E0036732,Glyndyfrdwy,,,,,,,false,UKOS,315025,342642,-3.266887263,52.97437057,BCT,MKD,OTH,,,,016,2000-01-01T00:00:00,2025-06-11T10:43:38,4,revise,active
5110WDB22965,dbgdwam,,,The Sun Inn,,,,Sun Inn PH,,A5,,,,after,,NW,E0036732,Glyndyfrdwy,,,,,,,false,UKOS,315194,342623,-3.264366109,52.974222016,BCT,MKD,OTH,,,,016,2000-01-01T00:00:00,2024-04-26T16:16:45,7,revise,active
5110WDB22966,dbgdwap,,,Bryn-hyfryd,,,,Bryn-hyfryd,,A5,,,,after,,NW,E0036732,Glyndyfrdwy,,,,,,,false,UKOS,315782,342461,-3.255569902,52.972863521,BCT,MKD,OTH,,,,016,2000-01-01T00:00:00,2025-06-08T17:09:26,4,revise,active
5110WDB22968,dbgdwaw,,,Ystrad Hall,,,,Ystrad Hall Nursing Home,,A5,,,,after,,NW,N0071191,Berwyn,,,,,,,false,UKOS,320676,342997,-3.182840458,52.97842354,BCT,CUS,OTH,,,,016,2000-01-01T00:00:00,2024-04-26T16:16:34,5,revise,active
5110WDB22969,dbgdwda,,,Wild Pheasant Hotel,,,,Wild Pheasant Hotel,,Berwyn Road,,,,after,,SE,E0054212,Llangollen,,,,,,,false,UKOS,320854,342539,-3.180077895,52.974333709,BCT,CUS,OTH,,,,016,2000-01-01T00:00:00,2024-04-26T16:16:49,5,revise,active
5110WDB23880,dbgdwdj,,,We Three Loggerheads,,,,We Three Loggerheads PH,,A494,,,,o/s,,SW,E0036747,Loggerheads,,,,,,,false,UKOS,319818,362543,-3.200491926,53.153962076,BCT,MKD,OTH,,,,016,2000-01-01T00:00:00,2024-04-26T16:16:48,3,revise,active
5110WDB23881,dbgdwdm,,,Maeshafan Lane End,,,,,,A494,,,,after,,N,E0054211,Llanferres,,,,,,,false,UKOS,318873,361124,-3.214260059,53.141066351,BCT,MKD,OTH,,,,016,2000-01-01T00:00:00,2024-04-26T16:16:29,3,revise,active
5110WDB23882,dbgdwdp,,,Ty`n-llan,,,,,,A494,,,,after,,NW,E0054211,Llanferres,,,,,,,false,UKOS,318875,360727,-3.214129426,53.137494262,BCT,MKD,OTH,,,,016,2000-01-01T00:00:00,2025-06-08T17:09:41,6,revise,active
5110WDB23883,dbgdwdt,,,Four Crosses Crossroads,,,,,,Llanarmon Lane,,,,after,,N,E0054211,Llanferres,,,,,,,false,UKOS,318527,358960,-3.218880656,53.121565784,BCT,MKD,OTH,,,,016,2000-01-01T00:00:00,2024-04-26T16:16:57,3,revise,active
5110WDB23884,dbgdwdw,,,Graianrhyd Lane End,,,,,,B5430,,,,after,,N,N0075611,Nant,,,,,,,false,UKOS,318546,358201,-3.218403879,53.114747596,BCT,MKD,OTH,,,,016,2000-01-01T00:00:00,2024-04-26T16:16:29,3,revise,active
5110WDB23885,dbgdwga,,,Bryn-hyfryd,,,,,,B5430,,,,before,,SE,N0075611,Nant,,,,,,,false,UKOS,319143,357148,-3.209221096,53.105375248,BCT,MKD,OTH,,,,016,2000-01-01T00:00:00,2024-04-26T16:16:04,3,revise,active
5110WDB23886,dbgdwgd,,,Clover Grange,,,,,,B5430,,,,nr,,SE,N0075593,Bryn-yr-ogof,,,,,,,false,UKOS,319500,356427,-3.203708886,53.098949658,BCT,MKD,OTH,,,,016,2000-01-01T00:00:00,2024-04-26T16:16:55,3,revise,active
5110WDB23887,dbgdwgj,,,Post Office,,,,Llanarmon-yn-Ial Post Office,,B5431,,,,adj Phone Box,,NE,E0054204,Llanarmon-yn-Ial,,,,,,,false,UKOS,318980,356163,-3.21140645,53.096498296,BCT,MKD,OTH,,,,016,2000-01-01T00:00:00,2025-06-08T17:10:05,4,revise,active
5110WDB23957,dbgdwgm,,,Pant Du Quarry,,,,,,Main Road,,,,adj,,SW,E0036749,Maeshafn,,,,,,,false,UKOS,320868,359990,-3.184162575,53.131175448,BCT,MKD,OTH,,,,016,2000-01-01T00:00:00,2024-04-26T16:16:08,4,revise,active
5110WDB23958,dbgdwgp,,,Youth Hostel,,,,,,Ffordd Maeshafn,,,,nr,,NW,E0036749,Maeshafn,,,,,,,false,UKOS,320906,360585,-3.183741768,53.136528384,BCT,MKD,OTH,,,,016,2000-01-01T00:00:00,2025-06-08T17:10:50,4,revise,active
5110WDB23959,dbgdwgt,,,The Sun Inn,,,,Sun Inn PH,,Bryn Euron,,,,before,,SW,E0036720,Erryrys,,,,,,,false,UKOS,320418,357902,-3.190367901,53.112338853,BCT,MKD,OTH,,,,016,2000-01-01T00:00:00,2025-06-08T17:11:02,8,revise,active
5110WDB23960,dbgdwgw,,,Maes Gwyn,,,,,,B5430,,,,after,,SE,E0036733,Graianrhyd,,,,,,,false,UKOS,321415,356252,-3.175072425,53.097662715,BCT,MKD,OTH,,,,016,2000-01-01T00:00:00,2024-04-26T16:16:30,3,revise,active
5110WDB23961,dbgdwja,,,Rose & Crown,,,,Rose & Crown PH,,Allt Bryn-Fotty,,,,adj,,SE,E0036733,Graianrhyd,,,,,,,false,UKOS,321767,356141,-3.16978965,53.096716926,BCT,MKD,OTH,,,,016,2000-01-01T00:00:00,2024-04-26T16:16:40,3,revise,active
5110WDB23962,dbgdwjd,,,Bettws Gwerfil Goch,,,,,,Main Road,,,,at,,SW,E0054188,Betws Gwerfil Goch,,,,,,,false,UKOS,303236,346632,-3.44358628,53.008225507,BCT,MKD,OTH,,,,016,2000-01-01T00:00:00,2025-06-08T17:11:19,4,revise,active
5110WDB23963,dbgdwjg,,,Bryn Celyn Turn,,,,,,B5105,,,,after,,SW,E0036754,Melin-y-wig,,,,,,,false,UKOS,302162,349936,-3.460589999,53.03772056,BCT,MKD,OTH,,,,016,2000-01-01T00:00:00,2024-04-26T16:16:46,3,revise,active
5110WDB23964,dbgdwjm,,,Pont Petryal,,,,,,B5105,,,,before,,SW,E0036754,Melin-y-wig,,,,,,,false,UKOS,303702,351310,-3.438041668,53.050347462,BCT,MKD,OTH,,,,016,2000-01-01T00:00:00,2024-04-26T16:16:38,3,revise,active
5110WDB23965,dbgdwjp,,,Tal Borth Turn,,,,,,B5105,,,,before,,NE,E0036712,Clawdd-newydd,,,,,,,false,UKOS,306691,352299,-3.393752742,53.059765643,BCT,MKD,OTH,,,,016,2000-01-01T00:00:00,2024-04-26T16:16:46,3,revise,active
5110WDB23966,dbgdwjt,,,Glanllyn Inn,,,,Glanllyn Inn PH,,B5105,,,,after,,NE,E0036712,Clawdd-newydd,,,,,,,false,UKOS,308365,352527,-3.368847144,53.062104536,BCT,CUS,OTH,,,,016,2000-01-01T00:00:00,2024-04-26T16:16:19,3,revise,active
5110WDB23967,dbgdwjw,,,Cross Keys Hotel,,,,Cross Keys Hotel PH,,B5105,,,,nr,,SW,N0071193,Llanfwrog,,,,,,,false,UKOS,311264,357763,-3.327047576,53.109648296,BCT,MKD,OTH,,,,016,2000-01-01T00:00:00,2025-06-08T17:11:33,4,revise,active
5110WDB23968,dbgdwma,,,Duke`s Stores,,,,Duke`s Stores,,Mwrog Street,,,,opp,,SW,N0071193,Llanfwrog,,,,,,,false,UKOS,311739,357931,-3.31999993,53.111232353,BCT,CUS,OTH,,,,016,2000-01-01T00:00:00,2025-06-08T17:11:42,6,revise,active
5110WDB23969,dbgdwmd,,,Clegir,,,,Clegir,,Denbigh Road,,,,nr,,SE,E0054221,Ruthin,,,,,,,false,UKOS,311671,358369,-3.321136293,53.115161799,BCT,MKD,OTH,,,,016,2000-01-01T00:00:00,2024-05-27T16:52:03,4,revise,active
5110WDB23970,dbgdwmg,,,Ruthin Aldi,,,,Golflinks Farm,,A525,,,,,,NW,E0054221,Ruthin,,,,,,,false,UKOS,311285,358928,-3.327056282,53.120116571,BCT,MKD,OTH,,,,016,2000-01-01T00:00:00,2025-06-11T10:43:40,11,revise,active
5110WDB23971,dbgdwmj,,,Maes Derw,,,,,,A525,,,,before,,N,E0036778,Rhewl,,,,,,,false,UKOS,311022,360190,-3.331335479,53.131413721,BCT,MKD,OTH,,,,016,2000-01-01T00:00:00,2024-05-27T16:52:00,6,revise,active
5110WDB23972,dbgdwmp,,,Bont Garreg Cottages,,,,Bont Garreg Cottages,,A525,,,,nr,,SE,N0075613,Pentre Llanrhaeadr,,,,,,,false,UKOS,309015,361842,-3.361792976,53.14592468,BCT,MKD,OTH,,,,016,2000-01-01T00:00:00,2025-06-08T17:11:53,5,revise,active
5110WDB23973,dbgdwmt,,,Glan Aber Farm,,,,Glan Aber Farm,,A525,,,,nr,,SE,N0075613,Pentre Llanrhaeadr,,,,,,,false,UKOS,308697,362311,-3.36667973,53.150080248,BCT,MKD,OTH,,,,016,2000-01-01T00:00:00,2024-04-26T16:16:15,4,revise,active
5110WDB23974,dbgdwmw,,,Pentre Motors,,,,,,A525,,,,o/s,,SE,N0075613,Pentre Llanrhaeadr,,,,,,,false,UKOS,308576,362778,-3.368622039,53.154260685,BCT,MKD,OTH,,,,016,2000-01-01T00:00:00,2025-06-08T17:12:23,4,revise,active
5110WDB23975,dbgdwpa,,,Llwyn-y-Rhos,,,,,,A525,,,,after,,SE,E0054214,Llanrhaeadr-yng-Nghinmeirch,,,,,,,false,UKOS,308045,364041,-3.376923461,53.165518896,BCT,MKD,OTH,,,,016,2000-01-01T00:00:00,2024-05-27T16:51:58,4,revise,active
5110WDB23976,dbgdwpd,,,Llwyn Bach,,,,,,A525,,,,nr,,SE,N0075610,Llwyn,,,,,,,false,UKOS,307848,364898,-3.380116429,53.173186052,BCT,MKD,OTH,,,,016,2000-01-01T00:00:00,2024-04-26T16:16:26,3,revise,active
5110WDB23977,dbgdwpg,,,Myddelton Avenue,,,,,,Lon Llewelyn,,,,before,,NW,E0036741,Lenten Pool,Denbigh,,,,,,false,UKOS,304613,365899,-3.428797138,53.181610591,BCT,MKD,OTH,,,,016,2000-01-01T00:00:00,2024-05-27T16:51:57,4,revise,active
5110WDB23978,dbgdwpj,,,Llewelyn`s Estate,,,,,,Lon Llewelyn,,,,after,,SE,E0054198,Denbigh,,,,,,,false,UKOS,304957,365733,-3.423601964,53.18018052,BCT,CUS,OTH,,,,016,2000-01-01T00:00:00,2024-04-26T16:16:52,3,revise,active
5110WDB23979,dbgdwpm,,,Nantglyn War Memorial,,,,Nantglyn War Memorial,,B5435,,,,opp,,E,E0054217,Nantglyn,,,,,,,false,UKOS,300413,362046,-3.490421434,53.146217745,BCT,MKD,OTH,,,,016,2000-01-01T00:00:00,2025-06-08T17:12:37,5,revise,active
5110WDB23980,dbgdwpt,,,Ceunant,,,,,,B5435,,,,nr,,SE,E0054217,Nantglyn,,,,,,,false,UKOS,301259,361549,-3.477623816,53.141909353,BCT,CUS,OTH,,,,016,2000-01-01T00:00:00,2024-05-27T16:51:55,4,revise,active
5110WDB23981,dbgdwpw,,,Groesffordd Nant-y-Ci,,,,,,B5435,,,,after,,SE,N0075619,Saron,,,,,,,false,UKOS,301921,361110,-3.467596032,53.138086887,BCT,CUS,OTH,,,,016,2000-01-01T00:00:00,2024-05-27T16:51:54,4,revise,active
5110WDB23982,dbgdwta,,,Capel Saron,,,,Capel Saron,,Main Road,,,,before,,SE,N0075619,Saron,,,,,,,false,UKOS,302832,360679,-3.453851895,53.13438095,BCT,CUS,OTH,,,,016,2000-01-01T00:00:00,2024-04-26T16:16:07,3,revise,active
5110WDB23983,dbgdwtd,,,Y Fron Farm,,,,,,Main Road,,,,before,,SW,N0071194,Pant-Pastynog,,,,,,,false,UKOS,304162,361479,-3.434218367,53.141810919,BCT,CUS,OTH,,,,016,2000-01-01T00:00:00,2024-04-26T16:16:16,3,revise,active
5110WDB23984,dbgdwtg,,,St James` Church,,,,St James` Church,,Main Road,,,,after,,SW,N0071194,Pant-Pastynog,,,,,,,false,UKOS,304712,361797,-3.426093428,53.14476726,BCT,MKD,OTH,,,,016,2000-01-01T00:00:00,2025-06-11T10:43:38,4,revise,active
5110WDB23985,dbgdwtj,,,Maes Lliwen,,,,,,Main Road,,,,nr,,SW,E0054217,Nantglyn,,,,,,,false,UKOS,300568,362274,-3.488175672,53.148295511,BCT,MKD,OTH,,,,016,2000-01-01T00:00:00,2024-04-26T16:16:31,3,revise,active
5110WDB24206,dbgdwtm,,,Pontins Holiday Camp,,,,,,Barkby Avenue,,,,opp,,SE,E0054218,Prestatyn,,,,,,,false,UKOS,306911,383742,-3.399649088,53.342356842,BCT,MKD,OTH,,,,016,2000-01-01T00:00:00,2024-04-26T16:16:24,3,revise,active
5110WDB24207,dbgdwtp,,,Sands Hotel,,,,Sands Hotel,,Beach Road East,,,,opp,,SW,E0054218,Prestatyn,,,,,,,true,UKOS,306667,383953,-3.403375013,53.344209836,BCT,MKD,OTH,,,,016,2000-01-01T00:00:00,2024-04-26T16:16:41,3,revise,active
5110WDB24208,dbgdwtw,,,Nova Centre,,,,,,Bastion Road,,,,before,,NW,E0054218,Prestatyn,,,,,,,false,UKOS,306107,383647,-3.411692872,53.341360933,BCT,MKD,OTH,,,,016,2000-01-01T00:00:00,2024-04-26T16:16:06,3,revise,active
5110WDB24227,dbgjadg,,,Maes Celyn,,,,,,B5382,,,,nr,,SE,E0036741,Lenten Pool,Denbigh,,,,,,false,UKOS,304587,366337,-3.429316959,53.185541829,BCT,MKD,OTH,,,,016,2000-01-01T00:00:00,2024-04-26T16:16:30,3,revise,active
5110WDB24228,dbgjadj,,,Maes y Goron,,,,,,Maes y Dre,,,,after,,NW,E0036741,Lenten Pool,Denbigh,,,,,,false,UKOS,304602,366022,-3.428998433,53.182713905,BCT,MKD,OTH,,,,016,2000-01-01T00:00:00,2024-04-26T16:16:32,3,revise,active
5110WDB24247,dbgjadm,,,Marine Lake,,,,,,Wellington Road,,,,o/s,,SW,E0054220,Rhyl,,,,,,,false,UKOS,299881,380697,-3.504237293,53.313710695,BCT,MKD,OTH,,,,016,2000-01-01T00:00:00,2024-04-26T16:16:27,3,revise,active
5110WDB24248,dbgjadp,,,Westbourne Avenue,,,,,,Wellington Road,,,,before,,SW,E0054220,Rhyl,,,,,,,false,UKOS,300098,380785,-3.501009122,53.314542451,BCT,MKD,OTH,,,,016,2000-01-01T00:00:00,2024-04-26T16:17:06,3,revise,active
5110WDB24249,dbgjadt,,,Palace Avenue,,,,,,Wellington Road,,,,before,,SW,E0054220,Rhyl,,,,,,,false,UKOS,300268,380897,-3.498493492,53.315576349,BCT,CUS,OTH,,,,016,2000-01-01T00:00:00,2024-05-30T12:15:14,4,revise,active
5110WDB24250,dbgjadw,,,Crescent Road,,,,,,Wellington Road,,,,after,,NE,E0054220,Rhyl,,,,,,,false,UKOS,300558,381169,-3.49422745,53.318075035,BCT,MKD,OTH,,,,016,2000-01-01T00:00:00,2024-05-30T12:18:21,4,revise,active
5110WDB24251,dbgjaga,,,Queen`s Walk,,,,,,Russell Road,,,,before,,NE,E0054220,Rhyl,,,,,,,false,UKOS,301309,381875,-3.483178175,53.324564139,BCT,MKD,OTH,,,,016,2000-01-01T00:00:00,2024-04-26T16:17:01,2,revise,active
5110WDB24252,dbgjagd,,,Palace Fun Centre,,,,,,West Parade,,,,o/s,,SW,E0054220,Rhyl,,,,,,,false,UKOS,300428,381412,-3.49625472,53.320238649,BCT,MKD,OTH,,,,016,2000-01-01T00:00:00,2024-04-26T16:16:06,3,revise,active
5110WDB24253,dbgjagj,,,Bullerton Road,,,,,,West Parade,,,,after,,SW,E0054220,Rhyl,,,,,,,false,UKOS,300123,381147,-3.500748147,53.317799958,BCT,MKD,OTH,,,,016,2000-01-01T00:00:00,2024-04-26T16:16:54,2,revise,active
5110WDB24254,dbgjagm,,,Ocean Beach,,,,Ocean Beach Funfair,,Rhodfa Gorllewin,,,,after,,SW,E0054220,Rhyl,,,,,,,false,UKOS,299889,380942,-3.504194682,53.315913677,BCT,MKD,OTH,,,,016,2000-01-01T00:00:00,2024-04-26T16:16:45,4,revise,active
5110WDB46464,dbgdmwa,,,New Pines Caravan Park,,,,New Pines Caravan Park,,Grounds,,,,in,,NE,E0054220,Rhyl,,,,,,,false,UKOS,303130,381330,-3.455681274,53.320003621,BCT,MKD,OTH,,,,016,2000-01-01T00:00:00,2024-04-26T16:17:00,3,revise,active
5110WDB46584,dbgdmwd,,,Royal Victoria Hotel,,,,,,Bastion Road,,,,opp,,SE,E0054218,Prestatyn,,,,,,,false,UKOS,306395,383172,-3.407228106,53.337143708,BCT,MKD,OTH,,,,016,2000-01-01T00:00:00,2024-04-26T16:16:40,3,revise,active
5110WDB46585,dbgdmwg,,,Tip Lane,,,,,,Fforddisa,,,,nr,,SW,E0054218,Prestatyn,,,,,,,false,UKOS,305984,382015,-3.413054615,53.326669479,BCT,MKD,OTH,,,,016,2000-01-01T00:00:00,2024-04-26T16:17:04,4,revise,active
5110WDB46586,dbgdmwj,,,Eden Avenue,,,,,,Ffordd Pendyffryn,,,,after,,N,E0054218,Prestatyn,,,,,,,false,UKOS,306561,382584,-3.404562278,53.331889342,BCT,MKD,OTH,,,,016,2000-01-01T00:00:00,2024-04-26T16:16:56,3,revise,active
5110WDB46587,dbgdmwm,,,Maesafallen,,,,,,B5437,,,,before,,NW,E0036711,Clawdd Poncen,,,,,,,false,UKOS,308028,344214,-3.37150198,52.987341442,BCT,MKD,OTH,,,,016,2000-01-01T00:00:00,2024-05-28T16:13:00,4,revise,active
5110WDB46588,dbgdmwp,,,Ty`n-y-llidiart Ind Est,,Industrial Estate,,,,B5437,,,,opp,,NW,E0036711,Clawdd Poncen,,,,,,,false,UKOS,307446,344599,-3.380279288,52.990700948,BCT,MKD,OTH,,,,016,2000-01-01T00:00:00,2024-04-26T16:16:52,4,revise,active
5110WDB46589,dbgdmwt,,,St Bueno's,,,,,,A494,,,,opp,,SW,E0054202,Gwyddelwern,,,,,,,false,UKOS,307551,346722,-3.379323543,53.009792965,BCT,MKD,OTH,,,,016,2000-01-01T00:00:00,2025-06-11T10:43:41,7,revise,active
5110WDB46590,dbgdpad,,,Is Awel,,,,,,A494,,,,nr,,SW,E0036761,Pandyr-Capel,,,,,,,false,UKOS,308579,350353,-3.365037066,53.042604517,BCT,MKD,OTH,,,,016,2000-01-01T00:00:00,2024-04-26T16:16:25,3,revise,active
5110WDB46591,dbgdpag,,,Fox and Hounds Inn,,,,,,A494,,,,after,,SW,E0036776,Pwll-glas,,,,,,,false,UKOS,311578,354527,-3.32146335,53.0806144,BCT,MKD,OTH,,,,016,2000-01-01T00:00:00,2024-04-26T16:16:18,4,revise,active
5110WDB46592,dbgdpaj,,,Eyarth Crossroads,,,,,,Main Road,,,,after,,W,E0054210,Llanfair Dyffryn Clwyd,,,,,,,false,UKOS,312831,355280,-3.302970823,53.08759301,BCT,MKD,OTH,,,,016,2000-01-01T00:00:00,2024-04-26T16:16:12,3,revise,active
5110WDB46593,dbgdpam,,,Borthyn School,,,,Borthyn Primary School,,Denbigh Road,,,,o/s,,NW,E0054221,Ruthin,,,,,,,false,UKOS,311880,358218,-3.317973115,53.113839433,BCT,MKD,OTH,,,,016,2000-01-01T00:00:00,2024-05-28T16:13:01,4,revise,active
5110WDB46594,dbgdpap,,,Nant Drive,,,,,,Prestatyn Road,,,,before,,E,E0054218,Prestatyn,,,,,,,false,UKOS,307471,383267,-3.391101713,53.338186851,BCT,MKD,OTH,,,,016,2000-01-01T00:00:00,2024-04-26T16:16:33,3,revise,active
5110WDB46595,dbgdpat,,,Highbury Avenue,,,,,,Marine Road,,,,before,,SW,E0054218,Prestatyn,,,,,,,false,UKOS,306877,383448,-3.40007303,53.33970898,BCT,MKD,OTH,,,,016,2000-01-01T00:00:00,2024-04-26T16:16:58,4,revise,active
5110WDB46596,dbgdpaw,,,Glandwr,,,,,,Victoria Road,,,,before,,E,E0054218,Prestatyn,,,,,,,false,UKOS,305305,383012,-3.423544393,53.3355118,BCT,MKD,OTH,,,,016,2000-01-01T00:00:00,2024-04-26T16:16:19,3,revise,active
5110WDB46600,dbgdpda,,,Denbigh High School,,High School,,Denbigh High School,,Ruthin Road,,,,opp,,SE,E0054198,Denbigh,,,,,,,false,UKOS,306077,366337,-3.407026337,53.185802674,BCT,MKD,OTH,,,,016,2000-01-01T00:00:00,2024-04-26T16:16:52,5,revise,active
5110WDB46601,dbgdpdg,,,Tyddyn-y-Parc,,,,Tyddyn-y-Parc,,A525,,,,before,,S,E0036736,Green,,,,,,,false,UKOS,305973,368250,-3.409146085,53.202979361,BCT,MKD,OTH,,,,016,2000-01-01T00:00:00,2024-04-26T16:16:47,3,revise,active
5110WDB46602,dbgdpdj,,,Coed Estyn,,,,,,A525,,,,nr,,SE,E0036736,Green,,,,,,,false,UKOS,305947,368787,-3.409693611,53.207800308,BCT,MKD,OTH,,,,016,2000-01-01T00:00:00,2024-04-26T16:16:09,3,revise,active
5110WDB46603,dbgdpdm,,,Gloddaeth Villas,,,,,,Rhyl Road,,,,nr,,NE,E0036724,Fron,Denbigh,,,,,,false,UKOS,306001,367092,-3.408385793,53.192578363,BCT,MKD,OTH,,,,016,2000-01-01T00:00:00,2024-04-26T16:16:57,4,revise,active
5110WDB46621,dbgdpdp,,,Pengwern College,,,,Pengwern College,,Unclassified,,,,before,,SW,E0036766,Pengwern,,,,,,,false,UKOS,301859,376896,-3.47338218,53.279922001,BCT,MKD,OTH,,,,016,2000-01-01T00:00:00,2025-06-08T17:14:21,6,revise,active
5110WDB46622,dbgdpdt,,,Bryn Asaph,,,,,,Upper Denbigh Road,,,,nr,,S,E0054222,St Asaph,,,,,,,false,UKOS,304224,373443,-3.436883439,53.249331104,BCT,MKD,OTH,,,,016,2000-01-01T00:00:00,2024-04-26T16:16:02,3,revise,active
5110WDB46623,dbgdpdw,,,Bryn Polyn,,,,,,Upper Denbigh Road,,,,nr,,SE,E0054222,St Asaph,,,,,,,false,UKOS,304439,372461,-3.433367267,53.24054567,BCT,MKD,OTH,,,,016,2000-01-01T00:00:00,2024-04-26T16:16:04,4,revise,active
5110WDB46624,dbgdpga,,,Lowther Arms,,,,,,St Asaph Road,,,,nr,,E,E0054189,Bodelwyddan,,,,,,,false,UKOS,300179,375459,-3.498117957,53.266700209,BCT,MKD,OTH,,,,016,2000-01-01T00:00:00,2024-04-26T16:16:29,4,revise,active
5110WDB46625,dbgdpgd,,,Fountain Garage,,,,St Asaph War Memorial,,High Street,,,,opp,,E,E0054222,St Asaph,,,,,,,false,UKOS,303620,374258,-3.446179676,53.256545178,BCT,MKD,OTH,,,,016,2000-01-01T00:00:00,2025-06-08T17:14:50,5,revise,active
5110WDB46626,dbgdpgj,,,Vicarage Close,,,,,,Unnamed Road,,,,after,,N,E0054189,Bodelwyddan,,,,,,,false,UKOS,300289,375589,-3.496510099,53.267889058,BCT,MKD,OTH,,,,016,2000-01-01T00:00:00,2024-04-26T16:17:05,4,revise,active
5110WDB46627,dbgdpgm,,,The Boulevard,,,,,,Rhuddlan Road,,,,after,,S,E0054220,Rhyl,,,,,,,false,UKOS,302183,380062,-3.469501084,53.30843542,BCT,MKD,OTH,,,,016,2000-01-01T00:00:00,2024-04-26T16:17:03,3,revise,active
5110WDB46628,dbgdpgp,,,Tower Gardens,,,,,,Rhuddlan Road,,,,after,,S,E0054220,Rhyl,,,,,,,false,UKOS,302020,380313,-3.472024117,53.310660677,BCT,MKD,OTH,,,,016,2000-01-01T00:00:00,2024-04-26T16:16:19,3,revise,active
5110WDB46629,dbgdpgt,,,Pendyffryn Road,,,,,,Rhuddlan Road,,,,before,,SE,E0054220,Rhyl,,,,,,,false,UKOS,301932,380725,-3.473471939,53.314346486,BCT,MKD,OTH,,,,016,2000-01-01T00:00:00,2024-04-26T16:17:01,3,revise,active
5110WDB46630,dbgdpgw,,,War Memorial Court,,,,,,Grange Road,,,,after,,W,E0054220,Rhyl,,,,,,,false,UKOS,301666,381345,-3.477655654,53.319868235,BCT,MKD,OTH,,,,016,2000-01-01T00:00:00,2024-04-26T16:16:09,3,revise,active
5110WDB46631,dbgdpja,,,Westminster Avenue,,,,,,Grosvenor Avenue,,,,after,,S,E0054220,Rhyl,,,,,,,false,UKOS,302114,380956,-3.47081247,53.316455897,BCT,MKD,OTH,,,,016,2000-01-01T00:00:00,2024-04-26T16:17:06,3,revise,active
5110WDB46632,dbgdpjd,,,Ysgol Llewelyn,,,,Ysgol Llewelyn,,Grosvenor Avenue,,,,before,,S,E0054220,Rhyl,,,,,,,false,UKOS,302091,380797,-3.47110845,53.315022911,BCT,MKD,OTH,,,,016,2000-01-01T00:00:00,2024-04-26T16:16:51,3,revise,active
5110WDB46633,dbgdpjg,,,Llys Morgan,,,,,,Rhuddlan Road,,,,after,,N,E0054220,Rhyl,,,,,,,false,UKOS,301969,380578,-3.47287128,53.313032445,BCT,MKD,OTH,,,,016,2000-01-01T00:00:00,2024-04-26T16:16:28,3,revise,active
5110WDB46634,dbgdpjm,,,Bryn Crescent,,,,,,Dyserth Road,,,,after,,W,E0054219,Rhuddlan,,,,,,,false,UKOS,302976,377996,-3.456971654,53.290012202,BCT,MKD,OTH,,,,016,2000-01-01T00:00:00,2024-05-28T16:13:03,6,revise,active
5110WDB46635,dbgdpjp,,,Royal Alexandra Hospital,,,,Royal Alexandra Hospital,,East Parade,,,,o/s,,SW,E0054220,Rhyl,,,,,,,false,UKOS,301495,382144,-3.480470352,53.327015963,BCT,MKD,OTH,,,,016,2000-01-01T00:00:00,2024-04-26T16:16:50,3,revise,active
5110WDB46636,dbgdpjt,,,Old Golf Road,,,,,,Old Golf Road,,,,NW-bound,,NW,E0054220,Rhyl,,,,,,,false,UKOS,301627,382064,-3.478464295,53.326321684,BCT,MKD,OTH,,,,016,2000-01-01T00:00:00,2024-04-26T16:17:00,4,revise,active
5110WDB46637,dbgdpjw,,,Medea Drive,,,,Rhyl Ambulance Station,,Rhyl Coast Road,,,,before,,SW,E0054220,Rhyl,,,,,,,false,UKOS,301911,382073,-3.47420457,53.326455315,BCT,MKD,OTH,,,,016,2000-01-01T00:00:00,2025-06-08T17:15:08,5,revise,active
5110WDB46638,dbgdpma,,,Rhyl Golf Club,,,,,,Rhyl Coast Road,,,,after,,SW,N0075624,Y-Ffrith,Prestatyn,,,,,,false,UKOS,302560,382218,-3.464508278,53.327873676,BCT,MKD,OTH,,,,016,2000-01-01T00:00:00,2024-05-28T16:13:04,6,revise,active
5110WDB46639,dbgdpmd,,,Pavilion Theatre,,,,Plastirion Hotel,,East Parade,,,,after,,SW,E0054220,Rhyl,,,,,,,false,UKOS,301208,381974,-3.48476183,53.325424512,BCT,MKD,OTH,,,,016,2000-01-01T00:00:00,2025-06-08T17:16:01,6,revise,active
5110WDB46640,dbgdpmg,,,Garden of Remembrance,,,,Glendower Court,,East Parade,,,,opp,,SW,E0054220,Rhyl,,,,,,,false,UKOS,301037,381866,-3.48725758,53.324432434,BCT,MKD,OTH,,,,016,2000-01-01T00:00:00,2025-06-08T17:16:15,5,revise,active
5110WDB46672,dbgdpwg,,,Sea Life Aquarium Stand 2,,,,Sea Life Aquarium,,East Parade,,,,at,,NE,E0054220,Rhyl,,,,,,,false,UKOS,300782,381715,-3.491037206,53.323023255,BCT,MKD,OTH,,,,016,2000-01-01T00:00:00,2024-04-26T16:17:02,6,revise,active
5110WDB46673,dbgdpwj,,,Sea Life Aquarium Stand 3,,,,Sea Life Aquarium,,East Parade,,,,at,,NE,E0054220,Rhyl,,,,,,,false,UKOS,300797,381724,-3.490815,53.323105,BCT,MKD,OTH,,,,016,2000-01-01T00:00:00,2024-04-26T16:17:02,4,revise,active
5110WDB46674,dbgdpwm,,,Sea Life Aquarium Stand 4,,,,Sea Life Aquarium,,East Parade,,,,at,,NE,E0054220,Rhyl,,,,,,,false,UKOS,300813,381733,-3.490582,53.323187,BCT,MKD,OTH,,,,016,2000-01-01T00:00:00,2024-04-26T16:17:02,5,revise,active
5110WDB46677,dbgdtdm,,,Arfon Avenue,,,,,,Victoria Road West,,,,after,,W,N0075624,Y-Ffrith,Prestatyn,,,,,,false,UKOS,303828,382490,-3.445558907,53.330554543,BCT,MKD,OTH,,,,016,2000-01-01T00:00:00,2024-04-26T16:16:53,3,revise,active
5110WDB46678,dbgdpwp,,,Earlswood Avenue,,,,,,Victoria Road West,,,,after,,SW,N0075624,Y-Ffrith,Prestatyn,,,,,,false,UKOS,304184,382567,-3.440238461,53.331311093,BCT,MKD,OTH,,,,016,2000-01-01T00:00:00,2024-04-26T16:16:56,3,revise,active
5110WDB46679,dbgdpwt,,,Brig-y-Don,,,,,,Victoria Road West,,,,before,,NE,N0075624,Y-Ffrith,Prestatyn,,,,,,false,UKOS,304534,382704,-3.435025876,53.332600907,BCT,MKD,OTH,,,,016,2000-01-01T00:00:00,2024-04-26T16:16:02,4,revise,active
5110WDB46680,dbgdtad,,,Ffordd Ty Newydd,,,,,,Ffordd Talargoch,,,,before,,SW,E0036753,Meliden,,,,,,,false,UKOS,305857,380626,-3.414547971,53.314169986,BCT,MKD,OTH,,,,016,2000-01-01T00:00:00,2024-04-26T16:16:17,4,revise,active
5110WDB46681,dbgdtag,,,Robin Hood Camp,,,,Robin Hood Holiday Camp,,Rhyl Coast Road,,,,o/s,,SW,N0075624,Y-Ffrith,Prestatyn,,,,,,false,UKOS,303306,382375,-3.453359248,53.329425964,BCT,MKD,OTH,,,,016,2000-01-01T00:00:00,2024-05-28T16:12:56,4,revise,active
5110WDB46682,dbgdtaj,,,Llys Glan Aber,,,,,,Vale Road,,,,before,,SE,E0054220,Rhyl,,,,,,,true,UKOS,301497,380983,-3.480079177,53.316583971,BCT,MKD,OTH,,,,016,2000-01-01T00:00:00,2024-04-26T16:16:27,3,revise,active
5110WDB47451,dbgjagp,,,Business Park,,,,St Asaph Business Park,,Glascoed Road,,,,W--bound,,W,E0036714,Coed Esgob,,,,,,,false,UKOS,301861,373916,-3.472431773,53.253149301,BCT,CUS,OTH,,,,016,2000-01-01T00:00:00,2024-04-26T16:16:34,4,revise,active
5110WDB47452,dbgjagt,,,Bryn Celyn Lodge,,,,,,Glascoed Road,,,,before,,W,E0036737,Groesffordd Marli,,,,,,,false,UKOS,300617,373905,-3.491067362,53.252818725,BCT,CUS,OTH,,,,016,2000-01-01T00:00:00,2024-04-26T16:16:12,2,revise,active
5110WDB47563,dbgjaja,,,Prestatyn High School,,,,,,Princes Avenue,,,,o/s,,E,E0054218,Prestatyn,,,,,,,false,UKOS,306400,381901,-3.406777103,53.325723454,BCT,CUS,OTH,,,,016,2000-01-01T00:00:00,2024-06-02T16:42:11,3,revise,active
5110WDB48296,dbgjajg,,,Station Road,,,,St John`s Methodist Church,,Station Road,,,,on,,N,E0054218,Prestatyn,,,,,,,false,UKOS,306463,383187,-3.406211651,53.337290536,BCT,CUS,OTH,,,,016,2000-01-01T00:00:00,2025-06-08T17:16:33,5,revise,active
5110WDB48297,dbgjajm,,,Beaches Hotel,,,,,,Beach Road East,,,,opp,,SW,E0054218,Prestatyn,,,,,,,false,UKOS,306363,383854,-3.407910433,53.343266444,BCT,MKD,OTH,,,,016,2000-01-01T00:00:00,2024-04-26T16:16:01,2,revise,active
5110WDB48298,dbgjajp,,,Norman Drive,,,,,,Norman Drive,,,,on,,N,E0054218,Prestatyn,,,,,,,false,UKOS,307538,382966,-3.390007826,53.33549379,BCT,MKD,OTH,,,,016,2000-01-01T00:00:00,2024-04-26T16:17:00,4,revise,active
5110WDB48299,dbgjajt,,,Talton Crescent,,,,,,Talton Crescent,,,,on,,N,E0054218,Prestatyn,,,,,,,false,UKOS,307499,382649,-3.390500641,53.332638402,BCT,MKD,OTH,,,,016,2000-01-01T00:00:00,2024-04-26T16:16:08,4,revise,active
5110WDB48300,dbgjajw,,,Linden Walk,,,,,,Linden Walk,,,,on,,NW,E0054218,Prestatyn,,,,,,,false,UKOS,307055,382654,-3.397167253,53.33260545,BCT,CUS,OTH,,,,016,2000-01-01T00:00:00,2024-04-26T16:16:58,3,revise,active
5110WDB48301,dbgjama,,,Aldi Supermarket,,,,,,Meliden Road,,,,opp,,N,E0054218,Prestatyn,,,,,,,false,UKOS,306718,382463,-3.402169839,53.330829768,BCT,MKD,OTH,,,,016,2000-01-01T00:00:00,2024-04-26T16:16:01,3,revise,active
5110WDB48302,dbgjamd,,,Rhyl Bus Station Stand C,,,,Rhyl Bus Station,,Vale Road Bridge,,,,at,,,E0054220,Rhyl,,,,,,,false,UKOS,300960,381262,-3.488224177,53.318986126,BCS,,,,,,016,2000-01-01T00:00:00,2024-04-26T16:16:20,6,revise,active
5110WDB48303,dbgjamg,,,Parade Street 1,,,,,,Parade Street,,,,at,,E,E0054212,Llangollen,,,,,,,false,UKOS,321479,342090,-3.170663644,52.970395026,BCT,MKD,OTH,,,,016,2000-01-01T00:00:00,2025-06-08T17:16:58,5,revise,active
5110WDB48304,dbgjamj,,,Parade Street 2,,,,,,Parade Street,,,,at,,E,E0054212,Llangollen,,,,,,,false,UKOS,321467,342092,-3.170842775,52.970411241,BCT,MKD,OTH,,,,016,2000-01-01T00:00:00,2025-06-08T17:17:07,5,revise,active
5110WDB48305,dbgjamp,,,Cardiff Way,,,,,,Cardiff Way,,,,after,,SE,E0054218,Prestatyn,,,,,,,false,UKOS,305577,381946,-3.419142952,53.32598149,BCT,MKD,OTH,,,,016,2000-01-01T00:00:00,2024-06-02T16:42:13,3,revise,active
5110WDB48306,dbgjamt,,,Lyons Holiday Camp,,,,Lyons Holiday Camp,,Rhyl Coast Road,,,,o/s,,W,N0075624,Y-Ffrith,Prestatyn,,,,,,false,UKOS,302987,382305,-3.458132292,53.328757151,BCT,MKD,OTH,,,,016,2000-01-01T00:00:00,2024-06-02T16:42:14,2,revise,active
5110WDB48307,dbgjamw,,,Sherwood Avenue,,,,,,Rhyl Coast Road,,,,after,,E,N0075624,Y-Ffrith,Prestatyn,,,,,,false,UKOS,303652,382465,-3.448193148,53.330297852,BCT,MKD,OTH,,,,016,2000-01-01T00:00:00,2024-04-26T16:17:02,3,revise,active
5110WDB48308,dbgjapa,,,Angorfa Court,,,,Angorfa Court,,Upper Denbigh Road,,,,opp,,SE,E0054222,St Asaph,,,,,,,false,UKOS,304035,374191,-3.439947017,53.256034924,BCT,MKD,OTH,,,,016,2009-12-22T11:01:10,2024-04-26T16:16:11,1,revise,active
5110WDB48309,dbgjapd,,,Plas Pigot,,,,Plas Pigot Country Club,,Ruthin Road,,,,o/s,,SE,E0054198,Denbigh,,,,,,,false,UKOS,305912,366412,-3.409516985,53.186452026,BCT,MKD,OTH,,,,016,2000-01-01T00:00:00,2024-06-02T16:42:16,3,revise,active
5110WDB48310,dbgjapg,,,Angorfa Court,,,,Angorfa Court,,Upper Denbigh Road,,,,o/s,,NW,E0054222,St Asaph,,,,,,,false,UKOS,304002,374230,-3.440446975,53.256358317,BCT,MKD,OTH,,,,016,2009-12-22T13:26:23,2024-04-26T16:16:11,2,revise,active
5110WDB48311,dbgjapt,,,Tongs Funeral Directors,,,,,,Brighton Road,,,,o/s,,W,E0054220,Rhyl,,,,,,,false,UKOS,301200,381500,-3.484697054,53.321174165,BCT,MKD,OTH,,,,016,2010-04-06T08:22:51,2024-04-26T16:16:11,4,revise,active
5110WDB48312,dbgjapw,,,Millbank Road,,,,,,B5119,,,,after,,SE,E0054220,Rhyl,,,,,,,false,UKOS,301378,381429,-3.482003697,53.320569406,BCT,MKD,OTH,,,,016,2000-01-01T00:00:00,2024-06-02T16:42:17,3,revise,active
5110WDB48313,dbgjata,,,Clifton Park Road South,,,,1,,Clifton Park Road,,,,SW-bound,,SW,E0054220,Rhyl,,,,,,,false,UKOS,301587,381382,-3.47885267,53.320186011,BCT,MKD,OTH,,,,016,2000-01-01T00:00:00,2024-04-26T16:16:55,3,revise,active
5110WDB48314,dbgjatg,,,Clifton Park Road North,,,,,,Clifton Park Road,,,,SW-bound,,SW,E0054220,Rhyl,,,,,,,false,UKOS,301707,381553,-3.477104946,53.321744879,BCT,MKD,OTH,,,,016,2000-01-01T00:00:00,2024-04-26T16:16:55,4,revise,active
5110WDB48315,dbgjatj,,,Hadley Crescent,,,,,,Hadley Crescent,,,,W-bound,,NW,E0054220,Rhyl,,,,,,,false,UKOS,301847,381629,-3.475027491,53.322453793,BCT,MKD,OTH,,,,016,2000-01-01T00:00:00,2024-04-26T16:16:08,4,revise,active
5110WDB48316,dbgjatm,,,Mayfield Grove,,,,,,Bridgegate Road,,,,after,,W,E0054220,Rhyl,,,,,,,false,UKOS,302126,381608,-3.470833788,53.322312236,BCT,MKD,OTH,,,,016,2000-01-01T00:00:00,2024-04-26T16:16:59,4,revise,active
5110WDB48317,dbgjatp,,,Ffordd Anwyl,,,,,,Cheltenham Avenue,,,,after,,NW,E0054220,Rhyl,,,,,,,false,UKOS,302220,381480,-3.469383675,53.32118402,BCT,MKD,OTH,,,,016,2000-01-01T00:00:00,2024-04-26T16:16:16,3,revise,active
5110WDB48318,dbgjatw,,,Parry`s Corner,,,,,,Grange Road,,,,before,,SE,E0054220,Rhyl,,,,,,,false,UKOS,301997,381263,-3.472663096,53.319192845,BCT,MKD,OTH,,,,016,2000-01-01T00:00:00,2024-04-26T16:17:01,3,revise,active
5110WDB48319,dbgjawa,,,Cheltenham Avenue South,,,,,,Cheltenham Avenue,,,,N-bound,,N,E0054220,Rhyl,,,,,,,false,UKOS,302265,381232,-3.468631818,53.318963879,BCT,MKD,OTH,,,,016,2000-01-01T00:00:00,2024-04-26T16:16:55,4,revise,active
5110WDB48320,dbgjawd,,,Tots` Corner,,,,,,Grosvenor Avenue,,,,o/s,,N,E0054220,Rhyl,,,,,,,false,UKOS,302130,381172,-3.470639012,53.318395205,BCT,MKD,OTH,,,,016,2000-01-01T00:00:00,2024-05-30T12:23:08,4,revise,active
5110WDB48321,dbgjawg,,,Chiropodists,,,,,,Dyserth Road,,,,before,,E,E0054220,Rhyl,,,,,,,false,UKOS,302191,381204,-3.469733637,53.318698599,BCT,MKD,OTH,,,,016,2000-01-01T00:00:00,2024-04-26T16:16:08,3,revise,active
5110WDB48322,dbgjawj,,,Cemetery,,,,Rhyl Cemetery,,Ffordd Dyserth,,,,after,,E,E0054220,Rhyl,,,,,,,false,UKOS,302549,381213,-3.464364173,53.318845554,BCT,MKD,OTH,,,,016,2000-01-01T00:00:00,2024-04-26T16:16:33,3,revise,active
5110WDB48323,dbgjawm,,,Llys Tegid,,,,,,Ffordd Elan,,,,after,,S,E0054220,Rhyl,,,,,,,false,UKOS,302681,381264,-3.462399012,53.319328131,BCT,MKD,OTH,,,,016,2000-01-01T00:00:00,2024-04-26T16:16:28,3,revise,active
5110WDB48324,dbgjawp,,,Llys Gwynant,,,,,,Ffordd Elan,,,,after,,S,E0054220,Rhyl,,,,,,,false,UKOS,302651,381403,-3.462891935,53.320571629,BCT,MKD,OTH,,,,016,2000-01-01T00:00:00,2024-04-26T16:16:28,3,revise,active
5110WDB48325,dbgjawt,,,Lon Bedw,,,,,,Llys Brenig,,,,after,,SW,E0054220,Rhyl,,,,,,,false,UKOS,302675,381607,-3.462594469,53.322409138,BCT,MKD,OTH,,,,016,2000-01-01T00:00:00,2024-04-26T16:16:29,3,revise,active
5110WDB48326,dbgjdad,,,Llys-y-Tywysog,,,,,,Ffordd Elan,,,,before,,SW,E0054220,Rhyl,,,,,,,false,UKOS,302754,381809,-3.461470913,53.324238791,BCT,MKD,OTH,,,,016,2000-01-01T00:00:00,2024-04-26T16:16:28,4,revise,active
5110WDB48327,dbgjdag,,,Llys Dewi,,,,,,Ffordd Elan,,,,after,,N,E0054220,Rhyl,,,,,,,false,UKOS,302884,381752,-3.45950236,53.323750495,BCT,MKD,OTH,,,,016,2000-01-01T00:00:00,2024-04-26T16:16:27,3,revise,active
5110WDB48328,dbgjdaj,,,Llys Celynnen,,,,,,Ffordd Elan,,,,after,,N,E0054220,Rhyl,,,,,,,false,UKOS,302803,381507,-3.460642689,53.321529537,BCT,MKD,OTH,,,,016,2000-01-01T00:00:00,2024-04-26T16:16:27,3,revise,active
5110WDB48329,dbgjdam,,,Rhodfa Maen Gwyn,,,,,,Pen-y-maes Avenue,,,,before,,SE,E0054220,Rhyl,,,,,,,false,UKOS,302678,381050,-3.462378272,53.317404629,BCT,MKD,OTH,,,,016,2000-01-01T00:00:00,2024-04-26T16:16:40,3,revise,active
5110WDB48330,dbgjdap,,,Clement Drive,,,,,,Pen-y-maes Avenue,,,,after,,NE,E0054220,Rhyl,,,,,,,false,UKOS,302572,380930,-3.463931975,53.316306825,BCT,MKD,OTH,,,,016,2000-01-01T00:00:00,2024-04-26T16:16:55,4,revise,active
5110WDB48331,dbgjdaw,,,Llyn Brenig Trail,,,,,,Unclassified,,,,nr,,NE,N0075594,Cader,,,,,,,false,UKOS,298665,358287,-3.515357426,53.112110119,BCT,CUS,OTH,,,,016,2011-04-05T18:18:30,2025-06-08T17:17:44,4,revise,active
5110WDB48332,dbgjdga,,,Llyn Brenig Trail,,,,,,Unclassified,,,,nr,,SW,N0075594,Cader,,,,,,,false,UKOS,298680,358279,-3.51513089,53.112041085,BCT,CUS,OTH,,,,016,2011-04-05T18:28:28,2025-06-08T17:17:40,4,revise,active
5110WDB48333,dbgjdgd,,,Bryn Llewelyn,,,,,,Bryn Llewelyn,,,,after,,NE,E0054194,Corwen,,,,,,,false,UKOS,307599,343406,-3.377659432,52.980006392,BCT,MKD,OTH,,,,016,2011-04-05T19:16:54,2024-04-26T16:16:03,3,revise,active
5110WDB48334,dbgjdgj,,,Bryn Llewelyn,,,,,,Bryn Llewelyn,,,,opp,,SW,E0054194,Corwen,,,,,,,false,UKOS,307605,343394,-3.377566666,52.979899588,BCT,MKD,OTH,,,,016,2011-04-05T19:21:47,2024-04-26T16:16:03,3,revise,active
5110WDB48335,dbgjdgm,,,Penybryn,,,,,,Penybryn,,,,W-bound,,E,E0054194,Corwen,,,,,,,false,UKOS,307422,343358,-3.380281066,52.979544458,BCT,MKD,OTH,,,,016,2011-04-05T19:25:12,2024-04-26T16:16:37,4,revise,active
5110WDB48336,dbgjdgp,,,Penybryn,,,,,,Penybryn,,,,E-bound,,W,E0054194,Corwen,,,,,,,false,UKOS,307427,343351,-3.380204616,52.979482417,BCT,MKD,OTH,,,,016,2011-04-05T19:27:44,2024-04-26T16:16:37,4,revise,active
5110WDB48337,dbgjdgt,,,Uwch-y-dre,,,,,,Uwch-y-dre,,,,before,,SW,E0036799,Uwch y Dre,,,,,,,false,UKOS,307170,343241,-3.383999485,52.978449395,BCT,MKD,OTH,,,,016,2011-04-05T19:30:08,2024-04-26T16:16:48,3,revise,active
5110WDB48338,dbgjdgw,,,Uwch-y-dre,,,,,,Uwch-y-dre,,,,before,,NE,E0036799,Uwch y Dre,,,,,,,false,UKOS,307133,343222,-3.384544794,52.97826764,BCT,MKD,OTH,,,,016,2011-04-05T19:32:27,2024-04-26T16:16:48,4,revise,active
5110WDB48339,dbgjdjd,,,Pont y Brenig,,,,,,B4501,,,,before,,NE,N0075594,Cader,,,,,,,false,UKOS,295906,357170,-3.556196869,53.10154134,BCT,MKD,OTH,,,,016,2011-04-12T20:28:45,2024-04-26T16:16:38,3,revise,active
5110WDB48340,dbgjdja,,,Pont y Brenig,,,,,,B4501,,,,after,,SW,N0075594,Cader,,,,,,,false,UKOS,295930,357171,-3.555838875,53.101555011,BCT,MKD,OTH,,,,016,2011-04-12T20:36:22,2024-04-26T16:16:39,3,revise,active
5110WDB48341,dbgjdjg,,,Ruthin Tesco,,Tesco,,,,Lon Parcwr,,,,opp,,SE,E0054221,Ruthin,,,,,,,false,UKOS,312603,358578,-3.307272689,53.117193721,BCT,MKD,OTH,,,,016,2011-09-01T10:18:56,2025-06-08T17:18:07,3,revise,active
5110WDB48345,dbgjdtm,,,Tweedmill Shopping Outlet,,,,Tweedmill Shopping Outlet,,Grounds,,,,in,,S,N0075606,Hafod-y-green,,,,,,,false,UKOS,304665,371937,-3.429824891,53.235873103,BCT,MKD,OTH,,,,016,2012-06-19T14:52:44,2024-04-26T16:16:35,3,revise,active
5110WDB48346,dbgjdjw,,,Sandy Lane,,,,,,Sandy Lane,,,,W-bound,,W,E0054218,Prestatyn,,,,,,,false,UKOS,306203,383053,-3.410075335,53.336040343,BCT,CUS,OTH,,,,016,2012-09-18T11:30:13,2024-04-26T16:17:02,4,revise,active
5110WDB48347,dbgjdma,,,Sandy Lane,,,,,,Sandy Lane,,,,E-bound,,E,E0054218,Prestatyn,,,,,,,false,UKOS,306205,383061,-3.410047681,53.336112585,BCT,CUS,OTH,,,,016,2012-09-18T11:35:33,2024-04-26T16:17:02,4,revise,active
5110WDB48348,dbgjdmd,,,Pen Tywyn,,,,,,Pen Tywyn,,,,on,,NE,E0054218,Prestatyn,,,,,,,false,UKOS,305816,382928,-3.415848022,53.334848285,BCT,CUS,OTH,,,,016,2012-09-18T12:20:29,2024-04-26T16:16:36,3,revise,active
5110WDB48349,dbgjdmg,,,Bro Lleweni,,,,,,B4529,,,,after,,S,E0036800,Waen Aberwheeler,,,,,,,false,UKOS,309628,369323,-3.35474794,53.213256233,BCT,CUS,OTH,,,,016,2013-01-17T07:43:46,2025-06-08T17:18:54,6,revise,active
5110WDB48350,dbgjdmj,,,Eisteddfod Field,,,,The Maes,,Ffordd Eglwyswen,,,,o/s,,E,N0071192,Clywedog,,,,,,,false,UKOS,308283,366007,-3.373929073,53.183227086,BCT,CUS,OTH,,,,016,2013-06-12T11:42:59,2025-06-08T17:19:15,9,revise,active
5110WDB48351,dbgjdmp,,,Ffrith Hotel,,,,,,Ceg-y-Ffordd,,,,after,,S,N0075624,Y-Ffrith,Prestatyn,,,,,,false,UKOS,304924,382866,-3.429220239,53.33413147,BCT,MKD,OTH,,,,016,2013-10-30T13:55:47,2024-04-26T16:16:17,3,revise,active
5110WDB48352,dbgjdmt,,,Ffordd Penrhwylfa,,,,,,Ffordd Penrhwylfa,,,,before,,SE,E0054218,Prestatyn,,,,,,,false,UKOS,305432,382150,-3.421380215,53.3277887,BCT,MKD,OTH,,,,016,2013-11-01T16:27:04,2024-04-26T16:16:17,2,revise,active
5110WDB48353,dbgjdmw,,,Penrhwylfa Crossroads,,,,,,Fforddisa,,,,before,,SW,E0054218,Prestatyn,,,,,,,false,UKOS,305688,381787,-3.417429572,53.324572541,BCT,MKD,OTH,,,,016,2013-11-06T17:10:19,2024-04-26T16:16:12,3,revise,active
5110WDB48354,dbgjdpa,,,St Andrews Drive,,,,,,Fforddisa,,,,after,,SW,E0054218,Prestatyn,,,,,,,false,UKOS,306121,382136,-3.411034329,53.327785687,BCT,MKD,OTH,,,,016,2013-11-06T17:17:01,2024-04-26T16:17:03,3,revise,active
5110WDB48355,dbgjdpd,,,Maes Tegid Stores,,,,,,Ffordd Isa,,,,before,,NE,E0054218,Prestatyn,,,,,,,false,UKOS,306415,382303,-3.406670824,53.329338463,BCT,MKD,OTH,,,,016,2013-11-14T17:17:31,2025-06-11T10:43:40,4,revise,active
5110WDB48356,dbgjdpg,,,Coniston Drive,,,,,,Victoria Drive,,,,before,,NE,E0054218,Prestatyn,,,,,,,false,UKOS,305693,383063,-3.417734766,53.336039451,BCT,MKD,OTH,,,,016,2013-11-14T17:43:41,2024-04-26T16:16:55,3,revise,active
5110WDB48357,dbgjdpj,,,Bryntirion Drive,,,,,,Meliden Road,,,,after,,NE,E0054218,Prestatyn,,,,,,,false,UKOS,306662,382369,-3.402982726,53.329975203,BCT,MKD,OTH,,,,016,2013-11-14T18:07:13,2024-04-26T16:16:54,2,revise,active
5110WDB48358,dbgjdpm,,,St Elmo's Drive,,,,St Elmo's Drive,,Meliden Road,,,,before,,NE,E0054218,Prestatyn,,,,,,,false,UKOS,306624,382245,-3.403516544,53.328854233,BCT,MKD,OTH,,,,016,2013-11-14T18:19:22,2024-04-26T16:17:03,3,revise,active
5110WDB48359,dbgjdpt,,,St Elmo's Drive,,,,St Elmo's Drive,,Meliden Road,,,,before,,SW,E0054218,Prestatyn,,,,,,,false,UKOS,306641,382264,-3.403266975,53.329027969,BCT,MKD,OTH,,,,016,2013-11-14T18:25:11,2024-04-26T16:17:03,3,revise,active
5110WDB48360,dbgjdpw,,,Prestatyn High School,,,,,,Meliden Road,,,,before,,SW,E0036753,Meliden,,,,,,,false,UKOS,306542,381959,-3.404662935,53.326269759,BCT,MKD,OTH,,,,016,2013-11-14T18:38:37,2025-06-08T17:19:55,4,revise,active
5110WDB48361,dbgjdta,,,Prestatyn High School,,,,,,Meliden Road,,,,o/s,,NE,E0036753,Meliden,,,,,,,false,UKOS,306521,381937,-3.404971633,53.326068355,BCT,MKD,OTH,,,,016,2013-11-14T18:49:24,2025-06-08T17:19:51,4,revise,active
5110WDB48362,dbgjdtd,,,Star Inn,,,,,,Ffordd Talargoch,,,,o/s,,SW,E0036753,Meliden,,,,,,,false,UKOS,306064,380819,-3.41149917,53.315941075,BCT,MKD,OTH,,,,016,2013-11-14T19:04:50,2024-04-26T16:16:42,3,revise,active
5110WDB48363,dbgjdtg,,,Trading Estate,,,,Sea View Garage,,Ffordd Talargoch,,,,opp,,NE,E0036753,Meliden,,,,,,,false,UKOS,305679,380376,-3.417144424,53.311891792,BCT,MKD,OTH,,,,016,2013-11-14T19:15:01,2025-06-08T17:20:22,6,revise,active
5110WDB48364,dbgjdtj,,,Trading Estate,,,,Sea View Garage,,Ffordd Talargoch,,,,o/s,,SW,E0036753,Meliden,,,,,,,false,UKOS,305670,380320,-3.417262788,53.311386975,BCT,MKD,OTH,,,,016,2013-11-14T19:22:07,2025-06-08T17:20:35,6,revise,active
5110WDB48365,dbgjdwj,,,Marsh Road,,,,173,,Marsh Road,,,,on,,NE,E0054220,Rhyl,,,,,,,false,UKOS,300322,380529,-3.497567557,53.312284389,BCT,MKD,OTH,,,,016,2013-11-14T20:01:04,2025-06-08T17:20:47,5,revise,active
5110WDB48366,dbgjdtp,,,Ffordd Las,,,,,,Ffordd Las,,,,SE-bound,,SE,E0054220,Rhyl,,,,,,,false,UKOS,301021,380748,-3.4871483,53.314383487,BCT,MKD,OTH,,,,016,2013-11-14T20:24:42,2024-06-02T16:42:22,4,revise,active
5110WDB48367,dbgjdtw,,,Victoria Road,,,,Driving Test Centre,,Victoria Road,,,,SW-bound,,SW,E0054220,Rhyl,,,,,,,false,UKOS,301124,380764,-3.485607821,53.314546519,BCT,MKD,OTH,,,,016,2013-11-14T20:39:26,2024-06-02T16:42:23,6,revise,active
5110WDB48368,dbgjdwa,,,Kingsley Avenue,,,,,,Kingsley Avenue,,,,NW-bound,,NW,E0054220,Rhyl,,,,,,,false,UKOS,301215,380824,-3.484261108,53.315102661,BCT,MKD,OTH,,,,016,2013-11-14T20:53:29,2024-06-02T16:42:25,5,revise,active
5110WDB48369,dbgjdwd,,,Ascot Drive,,,,,,Ffordd Derwen,,,,before,,SE,E0054220,Rhyl,,,,,,,false,UKOS,301451,380386,-3.480583715,53.311210951,BCT,MKD,OTH,,,,016,2013-11-14T21:06:32,2024-06-02T16:42:26,4,revise,active
5110WDB48370,dbgjdwm,,,Viola Avenue,,,,,,Frances Avenue,,,,after,,SW,E0054220,Rhyl,,,,,,,false,UKOS,301675,380306,-3.477198099,53.310533772,BCT,MKD,OTH,,,,016,2013-11-14T21:22:35,2024-06-02T16:42:27,4,revise,active
5110WDB48371,dbgjdwg,,,Diane Drive,,,,,,Frances Avenue,,,,after,,SW,E0054220,Rhyl,,,,,,,false,UKOS,301792,380352,-3.47545697,53.310968846,BCT,MKD,OTH,,,,016,2013-11-14T21:29:01,2024-06-02T16:42:29,4,revise,active
5110WDB48372,dbgjdwp,,,Celyn,,,,,,Waterfall Road,,,,nr,,SE,N0071198,Dyserth,,,,,,,false,UKOS,305546,379635,-3.418919109,53.305209484,BCT,MKD,OTH,,,,016,2013-11-21T19:23:19,2024-04-26T16:16:07,2,revise,active
5110WDB48373,dbgjdwt,,,Llys Pen-y-cefndy,,,,,,Pen-y-cefndy,,,,after,,NW,E0054220,Rhyl,,,,,,,false,UKOS,301955,380356,-3.473012526,53.311030454,BCT,MKD,OTH,,,,016,2013-11-21T19:43:21,2024-06-02T16:42:30,5,revise,active
5110WDB48374,dbgjgad,,,Patrick Avenue,,,,,,Rosehill Road,,,,before,,SE,E0054220,Rhyl,,,,,,,false,UKOS,302481,380100,-3.465041992,53.308831887,BCT,MKD,OTH,,,,016,2013-11-21T19:50:42,2024-06-02T16:42:31,4,revise,active
5110WDB48375,dbgjgaw,,,Foel View Road,,,,,,Trellewelyn Road,,,,before,,W,E0054220,Rhyl,,,,,,,false,UKOS,302460,380788,-3.465568855,53.315010209,BCT,MKD,OTH,,,,016,2013-11-21T20:10:47,2024-06-02T16:42:34,5,revise,active
5110WDB48376,dbgjgag,,,Trellewelyn Road,,,,,,Trellewelyn Road,,,,E-bound,,E,E0054220,Rhyl,,,,,,,false,UKOS,302003,380777,-3.472422694,53.314826901,BCT,MKD,OTH,,,,016,2013-11-21T20:20:39,2024-06-02T16:42:35,6,revise,active
5110WDB48377,dbgjgaj,,,Trellewelyn Road,,,,,,Trellewelyn Road,,,,E-bound,,W,E0054220,Rhyl,,,,,,,false,UKOS,302004,380767,-3.472404596,53.314737229,BCT,MKD,OTH,,,,016,2013-11-21T20:28:46,2024-06-02T16:42:40,6,revise,active
5110WDB48378,dbgjgam,,,Hen-Afon Road,,,,,,Trellewelyn Road,,,,after,,NW,E0054220,Rhyl,,,,,,,false,UKOS,302518,380698,-3.464670873,53.314212184,BCT,MKD,OTH,,,,016,2013-11-21T20:53:02,2024-06-02T16:42:41,3,revise,active
5110WDB48379,dbgjgap,,,Pendyffryn Road,,,,,,Trellewelyn Road,,,,before,,W,E0054220,Rhyl,,,,,,,false,UKOS,301919,380755,-3.473676288,53.314613648,BCT,MKD,OTH,,,,016,2013-11-21T21:15:00,2025-06-08T17:21:05,5,revise,active
5110WDB48380,dbgjgat,,,Daniel Drive,,,,,,Colin Drive,,,,after,,NW,E0054220,Rhyl,,,,,,,false,UKOS,302602,380491,-3.463346841,53.312367606,BCT,MKD,OTH,,,,016,2013-11-21T21:30:59,2024-06-02T16:42:44,4,revise,active
5110WDB48381,dbgjgda,,,Abbey Road,,,,6,,Abbey Road,,,,on,,NW,E0054219,Rhuddlan,,,,,,,false,UKOS,302766,377923,-3.460098603,53.289322283,BCT,MKD,OTH,,,,016,2013-11-28T17:48:20,2024-04-26T16:16:52,3,revise,active
5110WDB48382,dbgjgdg,,,Castle Street,,,,,,Princes Road,,,,o/s,,NW,E0054219,Rhuddlan,,,,,,,false,UKOS,302574,378091,-3.46302942,53.290796601,BCT,MKD,OTH,,,,016,2013-11-28T18:08:41,2024-04-26T16:16:54,4,revise,active
5110WDB48383,dbgjgdj,,,Bryn Carrog Farm,,,,,,Unclassifed Road,,,,after,,NE,E0036766,Pengwern,,,,,,,false,UKOS,301143,376675,-3.484048138,53.277807574,BCT,MKD,OTH,,,,016,2013-11-28T18:27:34,2024-04-26T16:16:14,2,revise,active
5110WDB48384,dbgjgdm,,,Victoria Garage,,,,,,Grenville Row,,,,o/s,,W,E0054189,Bodelwyddan,,,,,,,false,UKOS,299608,375713,-3.506756233,53.268874697,BCT,MKD,OTH,,,,016,2013-11-28T18:39:00,2024-04-26T16:16:18,2,revise,active
5110WDB48385,dbgjgdp,,,Artillery Row,,,,,,Abergele Road,,,,adj,,NW,E0054189,Bodelwyddan,,,,,,,false,UKOS,299398,375734,-3.509910466,53.269023567,BCT,MKD,OTH,,,,016,2013-11-28T18:45:53,2024-04-26T16:16:53,2,revise,active
5110WDB48386,dbgjgdt,,,St Barbara's Avenue,,,,,,Abergele Road,,,,after,,SE,E0054189,Bodelwyddan,,,,,,,false,UKOS,299342,375772,-3.510761865,53.269354385,BCT,MKD,OTH,,,,016,2013-11-28T18:50:54,2024-04-26T16:17:03,2,revise,active
5110WDB48387,dbgjgdw,,,Ffordd Terfyn,,,,,,St Asaph Road,,,,before,,NW,E0036637,St George,,,,,,,false,UKOS,298416,376080,-3.524739781,53.271945224,BCT,MKD,OTH,,,,016,2013-11-28T18:58:24,2024-04-26T16:16:17,3,revise,active
5110WDB48388,dbgjgjt,,,Tudor Cottage,,,,,,Allt Goch,,,,nr,,NW,E0054223,Trefnant,,,,,,,false,UKOS,304495,371241,-3.432162363,53.229592843,BCT,MKD,OTH,,,,016,2013-11-28T19:44:31,2024-04-26T16:16:05,2,revise,active
5110WDB48389,dbgjgjw,,,Masons Arms,,,,,,Rhyl Road,,,,opp,,SW,E0036724,Fron,Denbigh,,,,,,false,UKOS,305863,366635,-3.410315814,53.188447261,BCT,MKD,OTH,,,,016,2013-11-28T20:05:50,2024-04-26T16:16:32,2,revise,active
5110WDB48390,dbgjgma,,,Crud-y-Castell,,,,,,Ruthin Road,,,,before,,NW,E0036700,Brook House,,,,,,,false,UKOS,306607,366143,-3.399040769,53.184157336,BCT,MKD,OTH,,,,016,2013-11-28T20:32:59,2024-04-26T16:16:11,2,revise,active
5110WDB48391,dbgjgmd,,,Llys Catrin,,,,,,Old Ruthin Road,,,,after,,SE,E0036700,Brook House,,,,,,,false,UKOS,306883,366058,-3.394887102,53.183441937,BCT,MKD,OTH,,,,016,2013-11-28T21:03:06,2024-04-26T16:16:27,3,revise,active
5110WDB48392,dbgjgmg,,,Brookhouse Mill,,,,,,Ruthin Road,,,,after,,N,E0036700,Brook House,,,,,,,false,UKOS,307179,365831,-3.390393104,53.181453841,BCT,MKD,OTH,,,,016,2013-11-28T21:12:35,2024-04-26T16:16:32,3,revise,active
5110WDB48393,dbgjgmj,,,Nant Glyd,,,,,,Unclassified Road,,,,before,,SW,E0054208,Llandyrnog,,,,,,,false,UKOS,310922,365103,-3.334198221,53.175552222,BCT,MKD,OTH,,,,016,2013-12-04T19:09:28,2024-04-26T16:16:33,2,revise,active
5110WDB48394,dbgjgmp,,,Ysgol Bro Elwern Primary School,,,,Ysgol Bro Elwern Primary School,,A494,,,,opp,,NE,E0054202,Gwyddelwern,,,,,,,false,UKOS,307485,346539,-3.38026,53.008136,BCT,MKD,OTH,,,,016,2013-12-04T19:34:16,2024-04-26T16:16:50,4,revise,active
5110WDB48395,dbgjgja,,,Wern Ddu,,,,,,A494,,,,nr,,NW,E0054202,Gwyddelwern,,,,,,,false,UKOS,306844,348122,-3.390261975,53.022255962,BCT,MKD,OTH,,,,016,2013-12-04T19:50:45,2024-04-26T16:16:48,2,revise,active
5110WDB48396,dbgjgjd,,,Ty Ucha'r Llyn,,,,,,A494,,,,nr,,SE,E0054202,Gwyddelwern,,,,,,,false,UKOS,306837,348188,-3.390385377,53.02284785,BCT,MKD,OTH,,,,016,2013-12-04T19:57:17,2024-04-26T16:16:47,2,revise,active
5110WDB48398,dbgjgjm,,,Liverpool Terrace,,,,,,London Road,,,,o/s,,W,E0054194,Corwen,,,,,,,false,UKOS,308118,343371,-3.369921857,52.979776588,BCT,MKD,OTH,,,,016,2013-12-04T21:10:31,2024-04-26T16:16:44,5,revise,active
5110WDB48399,dbgjgjp,,,Victoria Terrace,,,,,,London Road,,,,opp,,E,E0054194,Corwen,,,,,,,false,UKOS,308188,343386,-3.368883987,52.979927991,BCT,MKD,OTH,,,,016,2013-12-04T21:18:32,2024-04-26T16:16:44,2,revise,active
5110WDB48400,dbgjgmt,,,Cedar Avenue,,,,,,Ffordd Anwyl,,,,opp,,NE,E0054220,Rhyl,,,,,,,false,UKOS,302324,381449,-3.467813375,53.32092468,BCT,CUS,OTH,,,,016,2014-06-04T17:20:14,2024-06-02T17:04:22,5,revise,active
5110WDB48401,dbgjgmw,,,Cedar Avenue,,,,,,Ffordd Anwyl,,,,before,,SW,E0054220,Rhyl,,,,,,,false,UKOS,302342,381444,-3.467541707,53.320883076,BCT,CUS,OTH,,,,016,2014-06-04T17:34:41,2024-06-02T17:04:24,4,revise,active
5110WDB48402,dbgjgpa,,,Kingsley Avenue,,,,,,Kingsley Avenue,,,,S-bound,,S,E0054220,Rhyl,,,,,,,false,UKOS,301250,380668,-3.48368731,53.313707431,BCT,CUS,OTH,,,,016,2014-06-04T17:39:26,2024-06-02T17:04:25,5,revise,active
5110WDB48403,dbgjgpd,,,Lon Ystrad,,,,,,Ffordd Dyserth,,,,after,,NE,E0054220,Rhyl,,,,,,,false,UKOS,302840,381219,-3.459999174,53.318953005,BCT,CUS,OTH,,,,016,2014-06-04T17:56:16,2024-06-02T17:04:26,5,revise,active
5110WDB48404,dbgjgpg,,,Lon Ystrad,,,,,,Ffordd Dyserth,,,,before,,SW,E0054220,Rhyl,,,,,,,false,UKOS,302844,381208,-3.459935774,53.318854897,BCT,CUS,OTH,,,,016,2014-06-04T17:58:40,2024-06-02T17:04:27,5,revise,active
5110WDB48405,dbgjgpj,,,Ffordd Elan,,,,,,Ffordd Dyserth,,,,before,,W,E0054220,Rhyl,,,,,,,false,UKOS,302720,381192,-3.461791643,53.318688332,BCT,CUS,OTH,,,,016,2014-06-04T18:02:21,2024-06-02T17:04:28,5,revise,active
5110WDB48406,dbgjgpm,,,Aspen Walk,,,,,,Ffordd Anwyl,,,,after,,NE,E0054220,Rhyl,,,,,,,false,UKOS,302548,381786,-3.464555521,53.323994196,BCT,CUS,OTH,,,,016,2014-06-04T18:07:06,2024-06-02T17:04:29,4,revise,active
5110WDB48407,dbgjgpt,,,Aspen Walk,,,,,,Ffordd Anwyl,,,,before,,SW,E0054220,Rhyl,,,,,,,false,UKOS,302527,381771,-3.464866073,53.32385554,BCT,CUS,OTH,,,,016,2014-06-04T18:14:16,2024-06-02T17:04:30,4,revise,active
5110WDB48408,dbgjgpw,,,Hazel Court,,,,,,Ffordd Anwyl,,,,after,,NW,E0054220,Rhyl,,,,,,,false,UKOS,302399,381645,-3.466748262,53.322699729,BCT,CUS,OTH,,,,016,2014-06-04T18:18:12,2024-06-02T17:04:31,4,revise,active
5110WDB48409,dbgjgta,,,Hazel Court,,,,,,Ffordd Anwyl,,,,after,,SE,E0054220,Rhyl,,,,,,,false,UKOS,302420,381600,-3.466419234,53.322299247,BCT,CUS,OTH,,,,016,2014-06-04T18:22:45,2024-06-02T17:04:32,4,revise,active
5110WDB48410,dbgjgtd,,,Hadley Crescent,,,,,,Regent Road,,,,nr,,NE,E0054220,Rhyl,,,,,,,false,UKOS,301801,381623,-3.475715975,53.32239134,BCT,CUS,OTH,,,,016,2014-06-04T18:26:27,2024-06-02T17:04:33,4,revise,active
5110WDB48411,dbgjgtg,,,Hadley Crescent,,,,,,Regent Road,,,,nr,,SW,E0054220,Rhyl,,,,,,,false,UKOS,301803,381607,-3.475680998,53.32224794,BCT,CUS,OTH,,,,016,2014-06-04T18:34:58,2024-06-02T17:04:16,5,revise,active
5110WDB48412,dbgjgtj,,,Glasdir,,,,,,Link Road,,,,nr,,NE,E0054221,Ruthin,,,,,,,false,UKOS,311700,358802,-3.32082244,53.119057802,BCT,MKD,OTH,,,,016,2014-07-31T16:30:47,2025-06-08T17:23:46,4,revise,active
5110WDB48413,dbgjgtm,,,Glasdir,,,,,,Link Road,,,,nr,,SW,E0054221,Ruthin,,,,,,,false,UKOS,311720,358776,-3.320516527,53.118827465,BCT,MKD,OTH,,,,016,2014-07-31T16:34:30,2025-06-08T17:23:43,4,revise,active
5110WDB48414,dbgjgtp,,,Roundwood Avenue,,,,,,Fford Penrhwylfa,,,,before,,SE,E0036753,Meliden,,,,,,,false,UKOS,305850,381436,-3.414893798,53.321447349,BCT,MKD,OTH,,,,016,2014-08-12T11:50:54,2025-06-08T17:23:39,4,revise,active
5110WDB48415,dbgjgtw,,,Feathers Inn,,,,,,Llanfair Road,,,,opp,,N,E0054221,Ruthin,,,,,,,false,UKOS,312689,358110,-3.305860626,53.113002071,BCT,MKD,OTH,,,,016,2015-07-14T13:59:49,2025-06-08T17:23:36,5,revise,active
5110WDB48416,dbgjgwa,,,Pen y Maes,,,,,,Llanfair Road,,,,opp,,SE,E0054221,Ruthin,,,,,,,false,UKOS,312868,357629,-3.303056441,53.108708788,BCT,MKD,OTH,,,,016,2015-07-14T14:11:54,2025-06-08T17:23:33,5,revise,active
5110WDB48417,dbgjgwd,,,Castle Park,,,,,,Llanfair Road,,,,nr,,S,E0054221,Ruthin,,,,,,,false,UKOS,312956,357455,-3.301695011,53.107159489,BCT,MKD,OTH,,,,016,2015-07-14T14:30:15,2025-06-08T17:23:31,6,revise,active
5110WDB48418,dbgjgwg,,,Ruthin Fire Station,,Fire Station,,,,Park Road,,,,after,,NE,E0054221,Ruthin,,,,,,,false,UKOS,312186,358423,-3.31345882,53.115727632,BCT,MKD,OTH,,,,016,2015-07-14T14:36:41,2024-04-26T16:16:21,5,revise,active
5110WDB48419,dbgjgwj,,,High Street,,,,,,High Street,,,,on,,SE,E0054218,Prestatyn,,,,,,,false,UKOS,306780,382655,-3.401295723,53.332566011,BCT,MKD,OTH,,,,016,2015-07-17T13:45:46,2025-06-08T17:23:28,5,revise,active
5110WDB48420,dbgjgwm,,,Ysgol Brynhyfryd,,,,,,A494 Mold Road,,,,o/s,,NE,E0054221,Ruthin,,,,,,,false,UKOS,313209,358445,-3.29821906,53.116082515,BCT,MKD,OTH,,,,016,2015-07-17T13:57:08,2025-06-08T17:23:25,6,revise,active
5110WDB48421,dbgjgwp,,,Smithy,,,,,,A494 Mold Road,,,,nr,,SW,E0054221,Ruthin,,,,,,,false,UKOS,314137,358810,-3.284421354,53.119528113,BCT,MKD,OTH,,,,016,2015-07-17T14:15:48,2025-06-08T17:23:22,5,revise,active
5110WDB48422,dbgjgwt,,,Smithy,,,,,,A494 Mold Road,,,,nr,,NE,E0054221,Ruthin,,,,,,,false,UKOS,314115,358808,-3.284749452,53.119506593,BCT,MKD,OTH,,,,016,2015-07-17T14:33:12,2025-06-08T17:23:20,4,revise,active
5110WDB48423,dbgjmad,,,The Nant,,,,,,A494 Mold Road,,,,after,,N,E0054211,Llanferres,,,,,,,false,UKOS,318705,359843,-3.216445628,53.129528458,BCT,MKD,OTH,,,,016,2015-07-17T14:46:05,2025-06-08T17:23:17,4,revise,active
5110WDB48424,dbgjmag,,,The Nant,,,,,,A494 Mold Road,,,,after,,S,E0054211,Llanferres,,,,,,,false,UKOS,318719,359826,-3.216232128,53.129377817,BCT,MKD,OTH,,,,016,2015-07-17T14:54:50,2025-06-08T17:23:15,4,revise,active
5110WDB48425,dbgjmaj,,,Brynhyfryd Ave,,,,,,Vale Road,,,,before,,SE,E0054220,Rhyl,,,,,,,false,UKOS,301243,381094,-3.483925151,53.317534018,BCT,MKD,OTH,,,,016,2015-07-29T14:45:01,2024-04-26T16:16:54,4,revise,active
5110WDB48426,dbgjmam,,,Marine Drive,,,,,,Marine Drive,,,,on,,NE,E0054220,Rhyl,,,,,,,false,UKOS,301723,382284,-3.477091749,53.328316384,BCT,MKD,OTH,,,,016,2015-07-29T14:58:34,2024-04-26T16:16:59,5,revise,active
5110WDB48427,dbgjmap,,,Marine Drive,,,,,,Marine Drive,,,,on,,SW,E0054220,Rhyl,,,,,,,false,UKOS,301728,382272,-3.477012975,53.328209486,BCT,CUS,OTH,,,,016,2015-07-29T15:03:16,2024-04-26T16:16:59,5,revise,active
5110WDB48428,dbgjmat,,,Tynewydd Road,,,,,,Tynewydd Road,,,,in,,S,E0054220,Rhyl,,,,,,,false,UKOS,302055,382238,-3.47209434,53.327964649,BCT,MKD,OTH,,,,016,2015-07-29T15:08:53,2024-04-26T16:17:05,4,revise,active
5110WDB48429,dbgjmaw,,,Tynewydd Road,,,,,,Tynewydd Road,,,,in,,N,E0054220,Rhyl,,,,,,,false,UKOS,302044,382237,-3.472259135,53.327953625,BCT,MKD,OTH,,,,016,2015-07-29T15:24:22,2024-04-26T16:17:05,3,revise,active
5110WDB48430,dbgjmda,,,Fairfield Avenue,,,,,,Russell Road,,,,after,,SW,E0054220,Rhyl,,,,,,,false,UKOS,301089,381660,-3.486412805,53.322591121,BCT,MKD,OTH,,,,016,2015-07-29T15:29:52,2024-04-26T16:16:57,4,revise,active
5110WDB48431,dbgjmdg,,,Fairfield Avenue,,,,,,Ffordd Russell,,,,before,,NE,E0054220,Rhyl,,,,,,,false,UKOS,301080,381662,-3.486548497,53.322607409,BCT,MKD,OTH,,,,016,2015-07-29T15:40:24,2024-04-26T16:16:57,4,revise,active
5110WDB48432,dbgjmdj,,,Beechwood Road,,,,,,Beechwood Road,,,,in,,NE,E0054220,Rhyl,,,,,,,false,UKOS,301453,381955,-3.481041897,53.325309847,BCT,CUS,OTH,,,,016,2015-07-29T16:06:53,2024-04-26T16:16:53,3,revise,active
5110WDB48433,dbgjmdm,,,Beechwood Road,,,,,,Beechwood Road,,,,in,,SW,E0054220,Rhyl,,,,,,,false,UKOS,301464,381951,-3.480875559,53.325275954,BCT,MKD,OTH,,,,016,2015-08-04T13:27:47,2024-04-26T16:16:53,4,revise,active
5110WDB48434,dbgjmdp,,,Voel Depot,,Depot,,,,A547,,,,opp,,NE,E0054200,Dyserth,,,,,,,false,UKOS,305402,379690,-3.421095784,53.305677987,BCT,CUS,OTH,,,,016,2015-08-10T11:17:17,2024-04-26T16:16:12,4,revise,active
5110WDB48435,dbgjmdt,,,Ffordd y Ffrainc,,,,,,Ffordd y Ffrainc,,,,in,,E,E0054200,Dyserth,,,,,,,false,UKOS,305645,378990,-3.417241947,53.299431209,BCT,MKD,OTH,,,,016,2016-01-20T13:17:01,2024-04-26T16:16:17,2,revise,active
5110WDB48436,dbgjmdw,,,Ffordd y Ffrainc,,,,,,Ffordd y Ffrainc,,,,in,,W,E0054200,Dyserth,,,,,,,false,UKOS,305645,378977,-3.417238078,53.299314391,BCT,MKD,OTH,,,,016,2016-01-20T13:23:50,2024-04-26T16:16:17,3,revise,active
5110WDB48437,dbgjmga,,,Bastion Gardens,,,,,,Bastion Road,,,,opp,,NW,E0054218,Prestatyn,,,,,,,false,UKOS,306228,383404,-3.409804066,53.339198839,BCT,MKD,OTH,,,,016,2016-03-31T11:45:32,2025-06-08T17:25:21,3,revise,active
5110WDB48438,dbgjmgd,,,Bastion Gardens,,,,,,Bastion Road,,,,o/s,,SE,E0054218,Prestatyn,,,,,,,false,UKOS,306259,383379,-3.409331229,53.338979691,BCT,MKD,OTH,,,,016,2016-03-31T11:51:28,2025-06-08T17:25:31,3,revise,active
5110WDB48439,dbgjmgj,,,Marine Road,,,,,,Marine Road,,,,in,,W,E0054218,Prestatyn,,,,,,,false,UKOS,306596,383292,-3.404245904,53.338257582,BCT,MKD,OTH,,,,016,2016-03-31T11:56:52,2025-06-08T17:25:39,3,revise,active
5110WDB48440,dbgjmgm,,,Marine Road,,,,,,Marine Road,,,,in,,E,E0054218,Prestatyn,,,,,,,false,UKOS,306646,383338,-3.403508804,53.33867977,BCT,MKD,OTH,,,,016,2016-03-31T11:59:39,2025-06-08T17:25:48,3,revise,active
5110WDB48441,dbgjmgp,,,Community Centre,,,,Froncysyllte Community Centre,,Gate Street,,,,opp,,S,E0054212,Llangollen,,,,,,,false,UKOS,326974,341497,-3.088753959,52.965824488,BCT,MKD,OTH,,,,016,2017-01-09T11:53:50,2025-06-08T17:26:09,3,revise,active
5110WDB48442,dbgjmgt,,,Beverley Drive,,,,,,Beverley Drive,,,,in,,,E0054218,Prestatyn,,,,,,,false,UKOS,305431,382768,-3.421615498,53.333331501,BCT,HAR,OTH,,,,016,2017-07-26T14:34:53,2025-06-08T17:26:40,4,revise,active
5110WDB48443,dbgjmgw,,,Beverley Drive,,,,,,Beverley Drive,,,,in,,,E0054218,Prestatyn,,,,,,,false,UKOS,305433,382759,-3.421582785,53.333250984,BCT,HAR,OTH,,,,016,2017-07-26T14:39:45,2025-06-08T17:26:37,4,revise,active
5110WDB48444,dbgjmja,,,Cwm Crossroads,,,,,,Cwm Road,,,,at,,,E0054195,Cwm,,,,,,,false,UKOS,306293,377385,-3.407083437,53.285112468,BCT,HAR,OTH,,,,016,2017-07-26T14:46:06,2025-06-08T17:26:51,3,revise,active
5110WDB48445,dbgjmjd,,,Cwm Crossroads,,,,,,Cwm Road,,,,at,,,E0054195,Cwm,,,,,,,false,UKOS,306298,377404,-3.407014071,53.285284091,BCT,HAR,OTH,,,,016,2017-07-26T14:53:04,2025-06-08T17:27:01,3,revise,active
5110WDB48446,dbgjmjg,,,Cae Seren Bungalows,,,,,,Cae Seren,,,,at,,,E0054221,Ruthin,,,,,,,false,UKOS,311941,358412,-3.317115221,53.115588338,BCT,HAR,OTH,,,,016,2020-02-10T10:17:25,2025-06-08T17:27:14,5,revise,active
5110WDB48447,dbgjmjm,,,Wenffrwd Nature Reserve,,,,A539,,Llangollen Road,,,,,,SW,E0036796,Trevor Uchaf,,,,,,,false,UKOS,323209,342477,-3.145000633,52.97411947,BCT,MKD,OTH,,,,016,2023-08-13T21:32:20,2024-06-02T17:17:10,2,revise,active
5110WDB48448,dbgjmjp,,,Wenffrwd Nature Reserve,,,,,,A539 Llangollen Road,,,,,,NE,E0036796,Trevor Uchaf,,,,,,,false,UKOS,323202,342481,-3.145105803,52.974154415,BCT,MKD,OTH,,,,016,2023-08-13T21:35:48,2024-06-02T17:17:12,2,revise,active
5110WDB48449,dbgjmjt,,,Wenffrwd,,,,,,A539,,,,,,W,E0036796,Trevor Uchaf,,,,,,,false,UKOS,323729,342548,-3.13727535,52.974831915,BCT,MKD,OTH,,,,016,2023-08-15T15:28:50,2024-10-30T12:59:25,7,revise,active
5110WDB48450,dbgjmjw,,,Swn Y Dail,,,,,,Ronaldsway,,,,Near,,SE,E0054189,Bodelwyddan,,,,,,,false,UKOS,299635,375774,-3.5063707,53.269423365,BCT,MKD,OTH,,,,016,2024-01-11T11:37:59,2024-04-26T16:16:42,2,revise,active
5110WDB48451,dbgjmpa,,,Swn Y Dail,,,,,,Ronaldsway,,,,Opp,,NW,E0054189,Bodelwyddan,,,,,,,false,UKOS,299632,375763,-3.50641219,53.269323955,BCT,MKD,OTH,,,,016,2024-01-11T11:49:25,2024-04-26T16:16:42,1,revise,active
5110WDB48452,dbgjmpd,,,Llysfasi College,,,,Llysfasi College,,,,,,,,SW,E0036772,Pentre-celyn,,,,,,,false,UKOS,314582,352658,-3.276136603,53.064308351,BCT,MKD,OTH,,,,016,2024-01-16T12:42:17,2024-04-26T16:16:10,2,revise,active
5110WDB48453,dbgjmpg,,,Llandegla,,,,opp Pen Llan,,Allt Yr Efail,,,,,,SE,E0054206,Llandegla,,,,,,,false,UKOS,319862,352090,-3.197221483,53.060022673,BCT,MKD,OTH,,,,016,2024-01-16T13:25:18,2024-04-26T16:16:26,1,revise,active
5110WDB48454,dbgjmpj,,,The Lodge,,,,,,A525,,,,,,SE,E0054214,Llanrhaeadr-yng-Nghinmeirch,,,,,,,false,UKOS,308350,363220,-3.372127187,53.158189185,BCT,MKD,OTH,,,,016,2024-01-16T16:15:08,2024-04-26T16:17:04,1,revise,active
5110WDB48455,dbgjmpm,,,Staverton,,,,Staverton,,Whitchurch Road,,,,nr,,E,E0054198,Denbigh,,,,,,,false,UKOS,306897,366100,-3.394689806,53.183817233,BCT,MKD,OTH,,,,016,2024-01-17T10:51:36,2024-04-26T16:16:42,1,revise,active
5110WDB48456,dbgjmpt,,,Ysgol Frongoch,,,,Ysgol Frongoch,,Rhyl Road,,,,,,SW,E0054198,Denbigh,,,,,,,false,UKOS,305917,366756,-3.409543472,53.189539571,BCT,MKD,OTH,,,,016,2024-01-17T12:08:20,2024-04-26T16:16:51,2,revise,active
5110WDB48457,dbgjmpw,,,Llannerch Equestrian Centre,,,,Llannerch Equestrian Centre,,A525,,,,,,S,N0075606,Hafod-y-green,,,,,,,false,UKOS,304555,372116,-3.431526097,53.237461816,BCT,MKD,OTH,,,,016,2024-01-17T13:57:11,2025-06-11T10:43:40,4,revise,active
5110WDB48458,dbgjmta,,,Glascoed Road,,,,,,Glascoed Road,,,,,,W,E0036794,The Roe,St Asaph,,,,,,false,UKOS,302890,373885,-3.457004345,53.253055648,BCT,MKD,OTH,,,,016,2024-01-18T11:23:57,2024-04-26T16:16:57,1,revise,active
5110WDB48459,dbgjmtd,,,Grenville Avenue,,,,,,Dyserth Road,,,,opp,,W,E0054219,Rhuddlan,,,,,,,false,UKOS,302802,377992,-3.459579773,53.289944344,BCT,MKD,OTH,,,,016,2024-01-18T12:01:56,2024-04-26T16:16:57,2,revise,active
5110WDB48460,dbgjmtg,,,Post Office,,,,Dyserth Post Office,,High Street,,,,nr,,E,E0054200,Dyserth,,,,,,,false,UKOS,305935,379101,-3.412924817,53.300475705,BCT,MKD,OTH,,,,016,2024-01-18T14:40:54,2024-04-26T16:16:43,1,revise,active
5110WDB48461,dbgjmtj,,,Netley Road,,,,Morfa Clwyd Business Centre,,Marsh Road,,,,opp,,NE,E0054220,Rhyl,,,,,,,false,UKOS,300635,380792,-3.49295374,53.314701924,BCT,MKD,OTH,,,,016,2024-01-18T15:29:38,2024-04-26T16:17:00,1,revise,active
5110WRX02153,dbgajdw,,,Bryn Howel,,,,,,A 539,,,,before,,NW,E0036796,Trevor Uchaf,,,,,,,false,UKOS,325121,341944,-3.116410089,52.969599985,BCT,MKD,OTH,,,,016,2000-01-01T00:00:00,2025-06-08T17:27:39,7,revise,active
5110WRX02154,dbgdmdt,,,Sun Trevor Inn,,,,Sun Trevor Inn PH,,A539,,,,opp,,NW,E0036796,Trevor Uchaf,,,,,,,false,UKOS,324091,342388,-3.131848016,52.973445377,BCT,MKD,OTH,,,,016,2000-01-01T00:00:00,2024-04-26T16:16:42,5,revise,active
5110WRX02155,dbgdmgj,,,Wenffrwd,,,,Wenffrwd,,A539,,,,nr,,SE,E0036796,Trevor Uchaf,,,,,,,false,UKOS,323737,342556,-3.137158128,52.974904954,BCT,MKD,OTH,,,,016,2000-01-01T00:00:00,2024-04-26T16:16:48,5,revise,active
5110WRX02156,dbgapgj,,,Bishop's Walk,,,,,,Mill Street,,,,before,,E,E0054212,Llangollen,,,,,,,false,UKOS,321984,342102,-3.163148543,52.970576694,BCT,MKD,OTH,,,,016,2000-01-01T00:00:00,2024-04-26T16:16:54,3,revise,active
5110WRX02158,dbgjmtm,,,Plough Inn,,,,Plough Inn,,,,,,o/s,,E,N0075612,Pant,,,,,,,false,UKOS,320703,351857,-3.184618085,53.05805428,BCT,MKD,OTH,,,,016,2024-01-19T13:34:37,2024-06-02T17:17:16,2,revise,active
5110WRX02159,dbgjmtp,,,The Meadows,,,,,,Fforddisa,,,,,,NE,E0054218,Prestatyn,,,,,,,false,UKOS,305852,381914,-3.415005813,53.325738413,BCT,MKD,OTH,,,,016,2024-01-23T15:19:33,2024-04-26T16:16:49,2,revise,active
5110WRX02160,dbgjmtw,,,The Meadows,,,,,,Fforddisa,,,,,,SW,E0054218,Prestatyn,,,,,,,false,UKOS,305857,381908,-3.414928984,53.325685387,BCT,MKD,OTH,,,,016,2024-01-23T15:22:31,2024-04-26T16:16:49,1,revise,active
5110WRX02161,dbgjmwa,,,Ffordd Onnen,,,,Nant Mill Touring Caravan and Tent Park,,Nant Drive,,,,,,NE,E0054218,Prestatyn,,,,,,,false,UKOS,307506,383198,-3.39055595,53.337568378,BCT,MKD,OTH,,,,016,2024-01-23T16:27:08,2024-04-26T16:16:17,3,revise,active
5110WRX02162,dbgjmwd,,,Beachcomber,,,,Beachcomber Inn,,Shore Road,,,,,,S,E0054218,Prestatyn,,,,,,,false,UKOS,309059,383808,-3.36741543,53.343319403,BCT,MKD,OTH,,,,016,2024-01-23T16:42:53,2024-04-26T16:16:01,2,revise,active
5110WRX02163,dbgjmwg,,,Shore Road,,,,,,Shore Road,,,,,,S,E0054218,Prestatyn,,,,,,,false,UKOS,309087,383547,-3.366919961,53.340978854,BCT,MKD,OTH,,,,016,2024-01-23T16:59:41,2024-04-26T16:17:02,1,revise,active
5110WRX02164,dbgjmwj,,,Shore Road,,,,,,Shore Road,,,,,,N,E0054218,Prestatyn,,,,,,,false,UKOS,309079,383548,-3.367040366,53.340986464,BCT,MKD,OTH,,,,016,2024-01-23T17:03:08,2024-04-26T16:17:02,1,revise,active
5110WRX02165,dbgjmwm,,,Bryn Grug,,,,,,,,,,,,SW,E0054209,Llanelidan,,,,,,,false,UKOS,310919,352011,-3.330604204,53.057895182,BCT,MKD,OTH,,,,016,2024-04-18T16:00:05,2024-04-18T15:58:38,,new,active
5110WRX02166,dbgjmwp,,,Bryn Saith Marchog,,,,,,,,,,,,SW,E0036702,Bryn Saith-Marchog,,,,,,,false,UKOS,307740,350003,-3.3774468,53.039310402,BCT,MKD,OTH,,,,016,2024-04-18T16:11:25,2024-04-18T16:09:23,,new,active
