ATCOCode,NaptanCode,PlateCode,CleardownCode,CommonName,CommonNameLang,ShortCommonName,ShortCommonNameLang,Landmark,LandmarkLang,Street,StreetLang,Crossing,CrossingLang,Indicator,IndicatorLang,Bearing,NptgLocalityCode,LocalityName,ParentLocalityName,GrandParentLocalityName,Town,TownLang,Suburb,SuburbLang,LocalityCentre,GridType,Easting,Northing,Longitude,Latitude,StopType,BusStopType,TimingStatus,DefaultWaitTime,Notes,NotesLang,AdministrativeAreaCode,CreationDateTime,ModificationDateTime,RevisionNumber,Modification,Status
5320ANZ16837,blgajpw,,,Hermitage,,,,,,George Street,,,,nr,,NW,E0053945,Brynmawr,,,,,,,true,UKOS,318686,211766,-3.180566269,51.798607469,BCT,MKD,OTH,,,,004,2000-01-01T00:00:00,2025-05-29T11:52:52,3,revise,active
5320AWA16979,blgaptj,,,Morrisons,,,,Morrisons Superstore,,Grounds,,,,in,,SW,E0053947,Ebbw Vale,,,,,,,false,UKOS,315835,211164,-3.221753262,51.792769052,BCT,MKD,OTH,,,,004,2000-01-01T00:00:00,2025-05-29T11:53:36,10,revise,active
5320AWA17064,blgaga,,,Queen Street Schools,,,,Queen Street Schools,,Princess Street,,,,o/s,,SE,E0053943,Abertillery,,,,,,,false,UKOS,322046,203754,-3.130052014,51.72706431,BCT,MKD,OTH,,,,004,2000-01-01T00:00:00,2024-04-26T15:51:15,2,revise,active
5320AWA17065,blgagd,,,Ty Cornel,,,,Ty Cornel,,Richmond Road,,,,nr,,SE,E0053943,Abertillery,,,,,,,false,UKOS,322138,203553,-3.128675266,51.725270249,BCT,MKD,OTH,,,,004,2000-01-01T00:00:00,2024-04-26T15:51:01,2,revise,active
5320AWA17066,blgagj,,,Six Bells Surgery,,,,Six Bells Surgery,,Eastville Road,,,,nr,,SW,E0035346,Six Bells,,,,,,,false,UKOS,322208,203116,-3.127564172,51.721346936,BCT,MKD,OTH,,,,004,2000-01-01T00:00:00,2024-04-26T15:51:16,3,revise,active
5320AWA17067,blgagm,,,Bryn Gardens,,,,,,Bryn Heulog,,,,nr,,SE,E0035309,Brynithel,,,,,,,false,UKOS,321469,201071,-3.137798702,51.702865229,BCT,MKD,OTH,,,,004,2000-01-01T00:00:00,2024-04-26T15:50:48,2,revise,active
5320AWA17070,blgagp,,,Brynithel Community Centre,,Brynithel Community,,Brynithel Community Centre,,Bryn Heulog,,,,after,,S,E0035309,Brynithel,,,,,,,false,UKOS,321487,201119,-3.137549109,51.703299242,BCT,MKD,OTH,,,,004,2000-01-01T00:00:00,2025-05-29T11:58:47,4,revise,active
5320AWA17071,blgajmg,,,Mount Pleasant Entrance,,Mount Pleasant,,,,Mount Pleasant,,,,at,,NE,E0035309,Brynithel,,,,,,,false,UKOS,321576,201217,-3.136283553,51.704192664,BCT,MKD,OTH,,,,004,2000-01-01T00:00:00,2025-05-29T11:59:40,3,revise,active
5320AWA17072,blgagt,,,Tyleri Court,,,,,,Tillery Road,,,,o/s 23,,S,E0035337,Pen-y-bont,Abertillery,,,,,,false,UKOS,321856,204835,-3.133045374,51.736755304,BCT,MKD,OTH,,,,004,2000-01-01T00:00:00,2024-04-26T15:50:45,3,revise,active
5320AWA17073,blgagw,,,Peniel Pentecostals,,,,,,Tillery Street,,,,before,,S,E0053943,Abertillery,,,,,,,false,UKOS,321821,204504,-3.133477655,51.733774945,BCT,MKD,OTH,,,,004,2000-01-01T00:00:00,2024-04-26T15:51:14,3,revise,active
5320AWA17090,blgdpjm,,,Attlee Avenue Middle,,,,,,Attlee Avenue,,,,o/s 36,,NW,E0035305,Blaenau Gwent,Abertillery,,,,,,false,UKOS,321078,205101,-3.144370011,51.739037288,BCT,CUS,OTH,,,,004,2000-01-01T00:00:00,2024-04-26T15:51:04,3,revise,active
5320AWB32428,blgdpjt,,,Pont Harri Isaac,,,,,,A465,,,,nr,,SW,E0053945,Brynmawr,,,,,,,true,UKOS,320480,212320,-3.154683856,51.803845808,BCT,MKD,OTH,,,,004,2000-01-01T00:00:00,2024-04-26T15:50:55,3,revise,active
5320AWB32429,blgdptg,,,Pont Harri Isaac,,,,,,A465,,,,nr,,NE,E0053945,Brynmawr,,,,,,,true,UKOS,320446,212324,-3.155177771,51.803876921,BCT,MKD,OTH,,,,004,2000-01-01T00:00:00,2024-04-26T15:50:55,2,revise,active
5320AWB32430,blgajwa,,,Trafalgar House,,,,,,Alma Street,,,,opp,,SW,E0053945,Brynmawr,,,,,,,true,UKOS,319449,211977,-3.169553324,51.800614751,BCT,MKD,OTH,,,,004,2000-01-01T00:00:00,2024-04-26T15:51:01,3,revise,active
5320AWB32431,blgajwd,,,Trafalgar House,,,,,,Alma Street,,,,o/s,,NE,E0053945,Brynmawr,,,,,,,true,UKOS,319449,211989,-3.169556116,51.80072262,BCT,MKD,OTH,,,,004,2000-01-01T00:00:00,2024-04-26T15:51:01,3,revise,active
5320AWB32542,blgadtp,,,Bryn Farm Estate,,,,,,King Street,,,,at,,W,E0053945,Brynmawr,,,,,,,true,UKOS,318275,211864,-3.186548081,51.799428404,BCT,MKD,OTH,,,,004,2000-01-01T00:00:00,2024-04-26T15:51:03,3,revise,active
5320AWB32543,blgadtw,,,Bryn Farm Estate,,,,,,King Street,,,,at,,E,E0053945,Brynmawr,,,,,,,true,UKOS,318297,211875,-3.186231715,51.799530503,BCT,MKD,OTH,,,,004,2000-01-01T00:00:00,2024-04-26T15:51:03,3,revise,active
5320AWB32544,blgadwt,,,Farmers Arms,,,,Farmers Arms PH,,Beaufort Hill,,,,before,,SW,E0053944,Beaufort,,,,,,,true,UKOS,317831,211895,-3.192992655,51.799641912,BCT,MKD,OTH,,,,004,2000-01-01T00:00:00,2024-04-26T15:50:47,3,revise,active
5320AWB32545,blgagad,,,Farmers Arms,,,,Farmers Arms PH,,Beaufort Hill,,,,before,,NE,E0053944,Beaufort,,,,,,,true,UKOS,317732,211871,-3.194422284,51.799411599,BCT,MKD,OTH,,,,004,2000-01-01T00:00:00,2024-04-26T15:50:47,3,revise,active
5320AWB32546,blgapgp,,,Beaufort Hill Post Office,,Post Office,,Beaufort Hill Post Office,,Beaufort Hill,,,,nr former,,SW,E0053944,Beaufort,,,,,,,true,UKOS,317447,211625,-3.198495523,51.797153558,BCT,MKD,OTH,,,,004,2000-01-01T00:00:00,2024-04-26T15:51:05,5,revise,active
5320AWB32547,blgapgt,,,Beaufort Hill Post Office,,Post Office,,Beaufort Hill Post Office,,Beaufort Hill,,,,nr former,,NE,E0053944,Beaufort,,,,,,,true,UKOS,317484,211657,-3.197966742,51.797446675,BCT,MKD,OTH,,,,004,2000-01-01T00:00:00,2024-04-26T15:51:05,6,revise,active
5320AWB32548,blgapwd,,,Vale View,,,,,,Beaufort Hill,,,,nr,,SE,E0053944,Beaufort,,,,,,,true,UKOS,317173,211676,-3.202480125,51.797576112,BCT,MKD,OTH,,,,004,2000-01-01T00:00:00,2024-04-26T15:51:19,3,revise,active
5320AWB32549,blgatpj,,,Soar Baptist Church,,,,Soar Baptist Church,,Beaufort Rise,,,,after,,SW,E0053944,Beaufort,,,,,,,true,UKOS,316762,211639,-3.208429729,51.797182415,BCT,MKD,OTH,,,,004,2000-01-01T00:00:00,2025-06-11T10:30:05,4,revise,active
5320AWB32550,blgatpm,,,Carmel Chapel,,,,Carmel Chapel,,Church Road,,,,opp,,SW,E0035310,Carmeltown,Ebbw Vale,,,,,,true,UKOS,316243,211535,-3.215928725,51.796169971,BCT,MKD,OTH,,,,004,2000-01-01T00:00:00,2024-04-26T15:50:42,2,revise,active
5320AWB32551,blgatpt,,,Church Crescent,,,,,,Church Crescent,,,,after garage,,E,E0035310,Carmeltown,Ebbw Vale,,,,,,true,UKOS,316400,211619,-3.213672861,51.796943886,BCT,MKD,OTH,,,,004,2000-01-01T00:00:00,2024-04-26T15:51:07,4,revise,active
5320AWB32553,blgatpg,,,Soar Baptist Church,,,,Soar Baptist Church,,Beaufort Rise,,,,before,,NE,E0053944,Beaufort,,,,,,,true,UKOS,316718,211633,-3.209066173,51.797121922,BCT,MKD,OTH,,,,004,2000-01-01T00:00:00,2025-06-11T10:30:05,4,revise,active
5320AWB32554,blgapgw,,,Beaufort Ballroom,,,,Ballroom,,Beaufort,,,,opp,,E,E0053944,Beaufort,,,,,,,true,UKOS,316908,211717,-3.206331719,51.797900617,BCT,MKD,OTH,,,,004,2000-01-01T00:00:00,2024-04-26T15:50:39,5,revise,active
5320AWB32555,blgadad,,,Aberbeeg Square,,,,Bus Shelter,,B4471,,,,at,,W,E0035301,Aberbeeg,,,,,,,false,UKOS,320906,201955,-3.146144728,51.710727935,BCT,MKD,OTH,,,,004,2000-01-01T00:00:00,2025-05-29T13:19:52,7,revise,active
5320AWB32556,blgadag,,,Aberbeeg Square,,,,Brewery Terrace,,Woodland Terrace,,,,at,,S,E0035301,Aberbeeg,,,,,,,false,UKOS,320943,201970,-3.145612742,51.710867998,BCT,MKD,OTH,,,,004,2000-01-01T00:00:00,2025-05-29T13:18:46,6,revise,active
5320AWB32557,blgadam,,,Park Place,,,,,,Aberbeeg Road,,,,after,,NE,E0035301,Aberbeeg,,,,,,,true,UKOS,321135,202339,-3.142918201,51.714216817,BCT,MKD,OTH,,,,004,2000-01-01T00:00:00,2024-04-26T15:51:13,3,revise,active
5320AWB32558,blgadap,,,Park Place,,,,,,Aberbeeg Road,,,,before,,SW,E0035301,Aberbeeg,,,,,,,true,UKOS,321163,202354,-3.142516405,51.714355599,BCT,MKD,OTH,,,,004,2000-01-01T00:00:00,2024-04-26T15:51:14,3,revise,active
5320AWB32559,blgadgj,,,Warm Turn,,,,Empress Car Sales,,Aberbeeg Road,,,,nr,,NE,E0035301,Aberbeeg,,,,,,,true,UKOS,321362,202586,-3.139689058,51.716469103,BCT,MKD,OTH,,,,004,2000-01-01T00:00:00,2025-05-29T13:55:55,4,revise,active
5320AWB32560,blgadgm,,,Warm Turn,,,,Empress Car Sales,,Aberbeeg Road,,,,nr,,SW,E0035301,Aberbeeg,,,,,,,true,UKOS,321395,202600,-3.139214647,51.716599586,BCT,MKD,OTH,,,,004,2000-01-01T00:00:00,2025-05-29T14:01:38,4,revise,active
5320AWB32561,blgadgp,,,TA Centre Abertillery,,,,TA Centre Abertillery,,Alexandra Road,,,,opp,,NW,E0053943,Abertillery,,,,,,,true,UKOS,322006,203690,-3.130616576,51.726478733,BCT,MKD,OTH,,,,004,2000-01-01T00:00:00,2025-05-29T14:03:35,5,revise,active
5320AWB32562,blgadgt,,,TA Centre Abertillery,,TA Centre,,TA Centre Abertillery,,Alexandra Road,,,,o/s,,SE,E0053943,Abertillery,,,,,,,true,UKOS,322024,203681,-3.130354004,51.726400336,BCT,MKD,OTH,,,,004,2000-01-01T00:00:00,2025-05-29T14:04:56,7,revise,active
5320AWB32563,blgdgja,,,Alexandra Road Steps,,,,,,Alexandra Road,,,,nr,,SE,E0035346,Six Bells,,,,,,,true,UKOS,322129,203368,-3.128764012,51.723601278,BCT,CUS,OTH,,,,004,2000-01-01T00:00:00,2024-04-26T15:51:04,6,revise,active
5320AWB32564,blgdgjd,,,Alexandra Road Steps,,,,,,Alexandra Road,,,,nr,,NW,E0035346,Six Bells,,,,,,,true,UKOS,322146,203257,-3.128493196,51.722610508,BCT,CUS,OTH,,,,004,2000-01-01T00:00:00,2024-04-26T15:51:04,3,revise,active
5320AWB32565,blgdgda,,,Six Bells Post Office,,,,Six Bells Post Office,,Alexandra Road,,,,after,,SE,E0035346,Six Bells,,,,,,,true,UKOS,322177,203147,-3.128019789,51.721621299,BCT,MKD,OTH,,,,004,2000-01-01T00:00:00,2025-05-29T14:10:53,5,revise,active
5320AWB32566,blgdgdg,,,Hafod-fan Road,,,,,,Bridge Street,,,,before,,NE,E0035346,Six Bells,,,,,,,true,UKOS,322163,203036,-3.128197676,51.720626219,BCT,MKD,OTH,,,,004,2000-01-01T00:00:00,2024-04-26T15:51:10,2,revise,active
5320AWB32567,blgdgat,,,Westview Terrace,,,,,,Cemetery Road,,,,nr,,NE,E0035346,Six Bells,,,,,,,true,UKOS,322121,202838,-3.128761223,51.718840483,BCT,MKD,OTH,,,,004,2000-01-01T00:00:00,2025-05-29T14:12:17,4,revise,active
5320AWB32568,blgdgaw,,,Westview Terrace,,,,,,Cemetery Road,,,,nr,,SW,E0035346,Six Bells,,,,,,,true,UKOS,322130,202846,-3.128632759,51.718913649,BCT,MKD,OTH,,,,004,2000-01-01T00:00:00,2025-05-29T14:12:57,4,revise,active
5320AWB32569,blgadga,,,Potters Club,,,,Potters Club,,Cemetery Road,,,,before,,S,E0035301,Aberbeeg,,,,,,,true,UKOS,321189,201896,-3.142036422,51.710242137,BCT,MKD,OTH,,,,004,2000-01-01T00:00:00,2024-04-26T15:50:55,3,revise,active
5320AWB32570,blgadgd,,,Potters Club,,,,Potters Club,,Cemetery Road,,,,opp,,N,E0035301,Aberbeeg,,,,,,,true,UKOS,321182,201903,-3.142139297,51.710304077,BCT,MKD,OTH,,,,004,2000-01-01T00:00:00,2024-04-26T15:50:55,3,revise,active
5320AWB32571,blgajma,,,Penrhiw Cottages,,,,,,Cemetery Road,,,,nr,,NE,E0035309,Brynithel,,,,,,,true,UKOS,321169,201484,-3.142232507,51.706535709,BCT,MKD,OTH,,,,004,2000-01-01T00:00:00,2024-04-26T15:50:41,2,revise,active
5320AWB32572,blgajmd,,,Builders Yard,,,,,,Brynithel Terrace,,,,opp,,N,E0035309,Brynithel,,,,,,,true,UKOS,321164,201453,-3.14229783,51.706256336,BCT,MKD,OTH,,,,004,2000-01-01T00:00:00,2024-04-26T15:50:51,2,revise,active
5320AWB32573,blgajgp,,,Bryn-Gaer Terrace,,,,,,Bryn-Gaer Terrace,,,,opp 109,,NW,E0035309,Brynithel,,,,,,,true,UKOS,321186,201318,-3.141948954,51.705045868,BCT,CUS,OTH,,,,004,2000-01-01T00:00:00,2025-06-11T10:30:07,4,revise,active
5320AWB32574,blgajgt,,,Bryn-Gaer Terrace,,,,,,Bryn-Gaer Terrace,,,,o/s 109,,SE,E0035309,Brynithel,,,,,,,true,UKOS,321193,201317,-3.141847449,51.705037863,BCT,CUS,OTH,,,,004,2000-01-01T00:00:00,2025-06-11T10:30:07,4,revise,active
5320AWB32575,blgajgj,,,Brynithel Post Office,,,,Brynithel Post Office,,Bryn Terrace,,,,before,,SE,E0035309,Brynithel,,,,,,,true,UKOS,321345,201162,-3.139613149,51.703661182,BCT,CUS,OTH,,,,004,2000-01-01T00:00:00,2025-06-11T10:30:06,7,revise,active
5320AWB32576,blgajgm,,,Brynithel Post Office,,,,Brynithel Post Office,,Bryn Terrace,,,,after,,NW,E0035309,Brynithel,,,,,,,true,UKOS,321330,201165,-3.139830845,51.703686044,BCT,CUS,OTH,,,,004,2000-01-01T00:00:00,2025-06-11T10:30:06,7,revise,active
5320AWB32577,blgajgw,,,Brynithel Terminus,,,,,,Mount Pleasant Estate,,,,at,,SW,E0035309,Brynithel,,,,,,,true,UKOS,321698,201320,-3.134541616,51.705135633,BCT,MKD,OTH,,,,004,2000-01-01T00:00:00,2025-06-11T10:30:04,5,revise,active
5320AWB32578,blgdadt,,,Abertillery Police Station,,Abertillery Police,,Abertillery Police Station,,Somerset Street,,,,,,NW,E0053943,Abertillery,,,,,,,true,UKOS,321828,203898,-3.133239929,51.728323693,BCT,MKD,OTH,,,,004,2000-01-01T00:00:00,2025-05-29T14:23:47,4,revise,active
5320AWB32579,blgadma,,,High Street,,,,,,High Street,,,,Stop A,,NE,E0053943,Abertillery,,,,,,,true,UKOS,321700,204114,-3.135163007,51.730251408,BCT,MKD,OTH,,,,004,2000-01-01T00:00:00,2024-04-26T15:50:57,1,revise,active
5320AWB32580,blgadmd,,,High Street,,,,,,High Street,,,,Stop B,,NE,E0053943,Abertillery,,,,,,,true,UKOS,321685,204089,-3.135374528,51.73002457,BCT,MKD,OTH,,,,004,2000-01-01T00:00:00,2024-04-26T15:50:57,1,revise,active
5320AWB32582,blgdaga,,,Bywater Row,,,,,,Bywater Row,,,,Stop 1,,S,E0053943,Abertillery,,,,,,,true,UKOS,321877,204090,-3.13259522,51.730060382,BCT,MKD,OTH,,,,004,2000-01-01T00:00:00,2024-04-26T15:51:06,2,revise,active
5320AWB32584,blgadmw,,,Glyncrug Cottages,,,,,,Tillery Street,,,,nr,,NE,E0053943,Abertillery,,,,,,,true,UKOS,321797,204360,-3.133792714,51.732477127,BCT,MKD,OTH,,,,004,2000-01-01T00:00:00,2024-04-26T15:50:41,3,revise,active
5320AWB32585,blgadpa,,,Glyncrug Cottages,,,,,,Tillery Street,,,,nr,,SW,E0053943,Abertillery,,,,,,,true,UKOS,321806,204370,-3.13366467,51.732568278,BCT,MKD,OTH,,,,004,2000-01-01T00:00:00,2024-04-26T15:50:41,3,revise,active
5320AWB32586,blgadpd,,,Peniel Pentecostals,,,,,,Tillery Street,,,,after,,N,E0053943,Abertillery,,,,,,,true,UKOS,321813,204502,-3.133593026,51.733755849,BCT,MKD,OTH,,,,004,2000-01-01T00:00:00,2024-04-26T15:51:14,3,revise,active
5320AWB32587,blgdajd,,,Tyleri Court,,,,Tyleri Court,,Tillery Road,,,,after,,N,E0035337,Pen-y-bont,Abertillery,,,,,,true,UKOS,321842,204820,-3.133244699,51.736618509,BCT,MKD,OTH,,,,004,2000-01-01T00:00:00,2024-04-26T15:50:45,3,revise,active
5320AWB32588,blgdagw,,,Tillery Road Pillar Box,,Tillery Road Pillar,,,,Tillery Road,,,,before,,N,E0035316,Cwmtillery,Abertillery,,,,,,true,UKOS,321818,205179,-3.133672962,51.739842328,BCT,MKD,OTH,,,,004,2000-01-01T00:00:00,2025-05-29T14:33:38,5,revise,active
5320AWB32589,blgdaja,,,Tillery Road Pillar Box,,Tillery Road Pillar,,,,Tillery Road,,,,before,,S,E0035316,Cwmtillery,Abertillery,,,,,,true,UKOS,321826,205207,-3.133563427,51.740095147,BCT,MKD,OTH,,,,004,2000-01-01T00:00:00,2025-05-29T14:34:16,5,revise,active
5320AWB32590,blgamwp,,,Mount Pleasant,,,,Mount Pleasant Row,,Tillery Road,,,,nr,,S,E0035316,Cwmtillery,Abertillery,,,,,,false,UKOS,321918,205438,-3.13228323,51.742184528,BCT,MKD,OTH,,,,004,2000-01-01T00:00:00,2024-04-26T15:51:12,2,revise,active
5320AWB32591,blgamtj,,,Blaentillery WM Social Club,,Blaentillery WM,,Blaentillery WM Social Club,,Tillery Road,,,,nr,,NE,E0035316,Cwmtillery,Abertillery,,,,,,false,UKOS,321946,205532,-3.131898809,51.743028746,BCT,MKD,OTH,,,,004,2000-01-01T00:00:00,2025-05-29T14:37:42,5,revise,active
5320AWB32592,blgamwm,,,Lower Gwastad Terrace,,,,,,Tillery Road,,,,opp 7,,N,E0035316,Cwmtillery,Abertillery,,,,,,true,UKOS,321980,205681,-3.131440039,51.744377584,BCT,MKD,OTH,,,,004,2000-01-01T00:00:00,2024-04-26T15:51:12,2,revise,active
5320AWB32593,blgapap,,,Woodland Terrace,,,,,,Tillery Road,,,,after,,S,E0035316,Cwmtillery,Abertillery,,,,,,true,UKOS,321984,205700,-3.131386383,51.744548939,BCT,MKD,OTH,,,,004,2000-01-01T00:00:00,2024-04-26T15:51:21,2,revise,active
5320AWB32594,blgapdw,,,Blaentillery Post Office,,,,Blaentillery Post Office,,Tillery Road,,,,after,,NW,E0035316,Cwmtillery,Abertillery,,,,,,true,UKOS,321894,205843,-3.13272183,51.745821856,BCT,MKD,OTH,,,,004,2000-01-01T00:00:00,2025-06-11T10:30:06,6,revise,active
5320AWB32595,blgamwt,,,Blaentillery Post Office,,,,Blaentillery Post Office,,Tillery Road,,,,before,,SE,E0035316,Cwmtillery,Abertillery,,,,,,false,UKOS,321901,205845,-3.13262091,51.745840812,BCT,MKD,OTH,,,,004,2000-01-01T00:00:00,2025-06-11T10:30:06,5,revise,active
5320AWB32596,blgamtm,,,Cwmtillery Church Hall,,Church Hall,,Cwmtillery Church Hall,,Bryn Terrace,,,,before,,N,E0035316,Cwmtillery,Abertillery,,,,,,false,UKOS,321856,205977,-3.133302176,51.747016434,BCT,MKD,OTH,,,,004,2000-01-01T00:00:00,2024-04-26T15:50:53,4,revise,active
5320AWB32597,blgamtp,,,Cwmtillery Church Hall,,Church Hall,,Cwmtillery Church Hall,,Bryn Terrace,,,,before,,S,E0035316,Cwmtillery,Abertillery,,,,,,false,UKOS,321867,206006,-3.133149499,51.747283345,BCT,MKD,OTH,,,,004,2000-01-01T00:00:00,2024-04-26T15:50:53,4,revise,active
5320AWB32598,blgamtw,,,Cwmtillery Lake,,,,Cwmtillery Lake,,Ty Dan y Wal Road,,,,o/s,,E,E0035316,Cwmtillery,Abertillery,,,,,,false,UKOS,321764,206076,-3.134656801,51.747893518,BCT,MKD,OTH,,,,004,2000-01-01T00:00:00,2025-05-29T14:54:56,6,revise,active
5320AWB32599,blgamwa,,,Cwmtillery Lake,,Lake,,Cwmtillery Road,,Ty Dan y Wal Road,,,,opp,,W,E0035316,Cwmtillery,Abertillery,,,,,,false,UKOS,321736,206071,-3.135061171,51.747844655,BCT,MKD,OTH,,,,004,2000-01-01T00:00:00,2024-04-26T15:50:52,6,revise,active
5320AWB32600,blgdjwm,,,Ty Dan-y-wal Top,,,,,,Ty Dan-y-wal,,,,at,,NE,E0035316,Cwmtillery,Abertillery,,,,,,true,UKOS,321626,206062,-3.136652258,51.747753037,BCT,CUS,OTH,,,,004,2000-01-01T00:00:00,2024-04-26T15:51:01,4,revise,active
5320AWB32601,blgdjwp,,,Ty Dan-y-wal Top,,,,,,Ty Dan-y-wal,,,,at,,SW,E0035316,Cwmtillery,Abertillery,,,,,,true,UKOS,321663,206069,-3.136118004,51.747821144,BCT,CUS,OTH,,,,004,2000-01-01T00:00:00,2024-04-26T15:51:01,4,revise,active
5320AWB32602,blgapaj,,,West Bank,,,,,,Ty Dan-y-wal Road,,,,nr,,S,E0035316,Cwmtillery,Abertillery,,,,,,false,UKOS,321612,205883,-3.136814601,51.746141988,BCT,MKD,OTH,,,,004,2000-01-01T00:00:00,2024-04-26T15:51:20,3,revise,active
5320AWB32603,blgapam,,,West Bank,,,,,,Ty Dan-y-wal Road,,,,nr,,N,E0035316,Cwmtillery,Abertillery,,,,,,false,UKOS,321602,205886,-3.136960093,51.746167555,BCT,MKD,OTH,,,,004,2000-01-01T00:00:00,2024-04-26T15:51:20,3,revise,active
5320AWB32604,blgapad,,,Cwmtillery Post Office,,Post Office,,Cwmtillery Post Office,,Gwern-Berthi Road,,,,before,,SE,E0035316,Cwmtillery,Abertillery,,,,,,false,UKOS,321644,205577,-3.136282062,51.743391055,BCT,MKD,OTH,,,,004,2000-01-01T00:00:00,2025-06-11T10:30:06,6,revise,active
5320AWB32605,blgapag,,,Gwern-Berthi Road Post Office,,Post Office,,Gwern-Berthi Road Post Office,,Gwern-Berthi Road,,,,opp,,NW,E0035316,Cwmtillery,Abertillery,,,,,,false,UKOS,321642,205560,-3.136307188,51.743237957,BCT,MKD,OTH,,,,004,2000-01-01T00:00:00,2024-04-26T15:51:10,5,revise,active
5320AWB32606,blgamwd,,,Gwern Berthi Road,,,,,,Gwern Berthi Road,,,,opp 55,,NE,E0035316,Cwmtillery,Abertillery,,,,,,false,UKOS,321632,205447,-3.136426597,51.742225449,BCT,MKD,OTH,,,,004,2000-01-01T00:00:00,2024-04-26T15:51:10,3,revise,active
5320AWB32607,blgamwg,,,Gwern Berthi Road,,,,,,Gwern Berthi Road,,,,o/s 33,,SW,E0035316,Cwmtillery,Abertillery,,,,,,false,UKOS,321628,205401,-3.13647414,51.74181138,BCT,MKD,OTH,,,,004,2000-01-01T00:00:00,2024-04-26T15:51:10,3,revise,active
5320AWB32608,blgdagj,,,Mount Pleasant,,,,Mount Pleasant PH,,Alma Street,,,,opp,,SE,E0053943,Abertillery,,,,,,,true,UKOS,321625,204793,-3.136380425,51.736345451,BCT,MKD,OTH,,,,004,2000-01-01T00:00:00,2024-04-26T15:51:12,3,revise,active
5320AWB32609,blgdagm,,,Mount Pleasant,,,,Mount Pleasant PH,,Alma Street,,,,o/s,,NW,E0053943,Abertillery,,,,,,,true,UKOS,321623,204784,-3.136407352,51.736264267,BCT,MKD,OTH,,,,004,2000-01-01T00:00:00,2024-04-26T15:51:12,3,revise,active
5320AWB32610,blgagmt,,,Oxford Street,,,,,,Alma Street,,,,before,,S,E0053943,Abertillery,,,,,,,true,UKOS,321691,204565,-3.135373477,51.734305122,BCT,MKD,OTH,,,,004,2000-01-01T00:00:00,2024-04-26T15:51:13,3,revise,active
5320AWB32611,blgagjw,,,Oxford Street,,,,,,Alma Street,,,,after,,NW,E0053943,Abertillery,,,,,,,true,UKOS,321686,204556,-3.135443837,51.734223518,BCT,MKD,OTH,,,,004,2000-01-01T00:00:00,2024-04-26T15:51:13,3,revise,active
5320AWB32613,blgagjt,,,Abertillery Comprehensive School,,Abertillery Comp,,Abertillery Comprehensive,,Alma Street,,,,o/s,,S,E0053943,Abertillery,,,,,,,true,UKOS,321734,204538,-3.134744759,51.734063738,BCT,MKD,OTH,,,,004,2000-01-01T00:00:00,2025-05-29T15:08:37,4,revise,active
5320AWB32626,blgdgjt,,,Rectory Road,,,,Ferncliffe (house),,Sofrydd Road,,,,before,,E,N0075347,Swffryd,,,,,,,false,UKOS,322179,198855,-3.127031612,51.683043725,BCT,MKD,OTH,,,,004,2000-01-01T00:00:00,2024-04-26T15:51:15,3,revise,active
5320AWB32627,blgdgjw,,,Rectory Road,,,,Neyland House,,Sofrydd Road,,,,after,,SW,N0075347,Swffryd,,,,,,,false,UKOS,322098,198828,-3.128196948,51.682789762,BCT,MKD,OTH,,,,004,2000-01-01T00:00:00,2024-04-26T15:51:15,3,revise,active
5320AWB32628,blgdgjg,,,Walters Avenue,,,,Sofrydd Community Centre,,Sofrydd Road,,,,before,,NW,N0075347,Swffryd,,,,,,,false,UKOS,321739,198793,-3.133380682,51.682425142,BCT,MKD,OTH,,,,004,2000-01-01T00:00:00,2025-05-29T15:10:30,3,revise,active
5320AWB32629,blgdgma,,,Sofrydd Schools,,,,Sofrydd Infants School,,Sofrydd Road,,,,o/s,,SE,N0075347,Swffryd,,,,,,,false,UKOS,321666,198822,-3.134442862,51.682675642,BCT,MKD,OTH,,,,004,2000-01-01T00:00:00,2025-05-29T15:11:38,4,revise,active
5320AWB32630,blgdgmd,,,Sofrydd Schools,,,,Sofrydd Junior School,,Sofrydd Road,,,,opp,,NW,N0075347,Swffryd,,,,,,,false,UKOS,321578,198869,-3.135726022,51.683085845,BCT,MKD,OTH,,,,004,2000-01-01T00:00:00,2025-05-29T15:12:17,4,revise,active
5320AWB32631,blgdgjm,,,Keir Hardie Terrace,,,,,,Sofrydd Road,,,,after,,SE,N0075347,Swffryd,,,,,,,false,UKOS,321527,199036,-3.136501149,51.684579941,BCT,MKD,OTH,,,,004,2000-01-01T00:00:00,2024-04-26T15:51:00,3,revise,active
5320AWB32632,blgdgjp,,,Keir Hardie Terrace,,,,,,Sofrydd Road,,,,after,,NE,N0075347,Swffryd,,,,,,,false,UKOS,321531,199113,-3.136460638,51.685272685,BCT,MKD,OTH,,,,004,2000-01-01T00:00:00,2024-04-26T15:51:00,3,revise,active
5320AWB32633,blgawdp,,,Horseshoe Bend,,,,Colliery Memorial,,High Street,,,,before,,NE,E0053948,Llanhilleth,,,,,,,false,UKOS,322157,200448,-3.127705672,51.697360828,BCT,MKD,OTH,,,,004,2000-01-01T00:00:00,2024-04-26T15:51:11,3,revise,active
5320AWB32634,blgawdt,,,Horseshoe Bend,,,,Colliery Memorial,,High Street,,,,at,,SE,E0053948,Llanhilleth,,,,,,,false,UKOS,322171,200507,-3.127516334,51.697893147,BCT,MKD,OTH,,,,004,2000-01-01T00:00:00,2024-04-26T15:51:11,3,revise,active
5320AWB32635,blgawdw,,,Llanhilleth Hotel,,,,Llanhilleth Hotel PH,,High Street,,,,before,,NW,E0053948,Llanhilleth,,,,,,,false,UKOS,321965,200684,-3.13053601,51.699455626,BCT,MKD,OTH,,,,004,2000-01-01T00:00:00,2024-04-26T15:50:51,3,revise,active
5320AWB32636,blgawga,,,Llanhilleth Hotel,,,,Llanhilleth Hotel PH,,High Street,,,,o/s,,SE,E0053948,Llanhilleth,,,,,,,false,UKOS,321935,200724,-3.130978975,51.699811024,BCT,MKD,OTH,,,,004,2000-01-01T00:00:00,2024-04-26T15:50:51,3,revise,active
5320AWB32637,blgawdj,,,Central Hotel,,,,Central Hotel PH,,High Street,,,,nr former,,NW,E0053948,Llanhilleth,,,,,,,false,UKOS,321725,200784,-3.134030465,51.700321094,BCT,MKD,OTH,,,,004,2000-01-01T00:00:00,2025-05-29T15:19:22,4,revise,active
5320AWB32638,blgawdm,,,Central Hotel,,,,Llanhilleth Post Office,,High Street,,,,nr former,,SE,E0053948,Llanhilleth,,,,,,,false,UKOS,321656,200808,-3.135034076,51.700527198,BCT,MKD,OTH,,,,004,2000-01-01T00:00:00,2025-05-29T15:21:37,4,revise,active
5320AWB32639,blgawgm,,,Llanhilleth Rugby Club,,Rugby Club,,Llanhilleth Rugby Club,,Commercial Road,,,,opp,,NW,E0053948,Llanhilleth,,,,,,,false,UKOS,321372,200887,-3.139160412,51.701192894,BCT,MKD,OTH,,,,004,2000-01-01T00:00:00,2025-05-29T15:23:52,7,revise,active
5320AWB32640,blgawgp,,,Llanhilleth Rugby Club,,Rugby Club,,Llanhilleth Rugby Club,,Commercial Road,,,,o/s,,SE,E0053948,Llanhilleth,,,,,,,false,UKOS,321350,200913,-3.139484561,51.70142353,BCT,MKD,OTH,,,,004,2000-01-01T00:00:00,2025-05-29T15:24:50,6,revise,active
5320AWB32641,blgawgt,,,Ty Graig Junior School,,,,Ty Graig Junior School,,Commercial Road,,,,nr former,,NW,E0053948,Llanhilleth,,,,,,,false,UKOS,321055,201179,-3.143812781,51.703777905,BCT,MKD,OTH,,,,004,2000-01-01T00:00:00,2025-05-29T15:25:36,7,revise,active
5320AWB32642,blgawgw,,,Ty Graig Junior School,,,,Ty Graig Junior School,,Commercial Road,,,,nr former,,SE,E0053948,Llanhilleth,,,,,,,false,UKOS,321059,201186,-3.143756496,51.703841394,BCT,MKD,OTH,,,,004,2000-01-01T00:00:00,2024-04-26T15:51:03,6,revise,active
5320AWB32643,blgadat,,,Victoria Junction,,,,,,Commercial Road,,,,before,,N,E0035301,Aberbeeg,,,,,,,false,UKOS,321071,201592,-3.143674936,51.707492762,BCT,MKD,OTH,,,,004,2000-01-01T00:00:00,2024-04-26T15:51:19,3,revise,active
5320AWB32644,blgadaw,,,Victoria Junction,,,,,,Commercial Road,,,,after,,S,E0035301,Aberbeeg,,,,,,,false,UKOS,321083,201684,-3.143522167,51.708321473,BCT,MKD,OTH,,,,004,2000-01-01T00:00:00,2024-04-26T15:51:19,3,revise,active
5320AWB32645,blgdgdj,,,Victoria Road,,,,,,Victoria Road,,,,opp 26,,NE,E0035346,Six Bells,,,,,,,true,UKOS,321944,202715,-3.131295301,51.717710147,BCT,MKD,OTH,,,,004,2000-01-01T00:00:00,2024-04-26T15:51:20,3,revise,active
5320AWB32646,blgdgdm,,,Victoria Road,,,,,,Victoria Road,,,,o/s 20,,SW,E0035346,Six Bells,,,,,,,true,UKOS,321986,202738,-3.130692618,51.717922755,BCT,MKD,OTH,,,,004,2000-01-01T00:00:00,2024-04-26T15:51:20,3,revise,active
5320AWB32647,blgadaj,,,Aberbeeg Ambulance Station,,Ambulance Station,,Aberbeeg Ambulance Station,,Aberbeeg Road,,,,nr,,NE,E0035301,Aberbeeg,,,,,,,true,UKOS,321477,202711,-3.138052997,51.717608907,BCT,MKD,OTH,,,,004,2000-01-01T00:00:00,2025-05-29T15:29:38,4,revise,active
5320AWB32648,blgdgdw,,,Arael Junior School,,,,Arael Junior School,,Aberbeeg Road,,,,nr former,,SW,E0035346,Six Bells,,,,,,,true,UKOS,321625,202780,-3.135926636,51.718249904,BCT,MKD,OTH,,,,004,2000-01-01T00:00:00,2024-04-26T15:51:03,2,revise,active
5320AWB32649,blgdgdp,,,Six Bells Quarry,,,,,,Aberbeeg Road,,,,nr,,NE,E0035346,Six Bells,,,,,,,true,UKOS,321760,202921,-3.134004459,51.719531594,BCT,MKD,OTH,,,,004,2000-01-01T00:00:00,2025-05-29T15:38:47,5,revise,active
5320AWB32650,blgdgdt,,,Six Bells Quarry,,,,,,Aberbeeg Road,,,,nr,,SW,E0035346,Six Bells,,,,,,,true,UKOS,321717,202845,-3.134609692,51.718842393,BCT,MKD,OTH,,,,004,2000-01-01T00:00:00,2025-05-29T15:38:06,6,revise,active
5320AWB32651,blgadgw,,,Arail Farm Road,,,,,,Aberbeeg Road,,,,after,,NW,E0053943,Abertillery,,,,,,,true,UKOS,321844,203426,-3.132902315,51.724087638,BCT,MKD,OTH,,,,004,2000-01-01T00:00:00,2024-04-26T15:51:04,4,revise,active
5320AWB32652,blgadja,,,Arail Farm Road,,,,,,Aberbeeg Road,,,,after,,SE,E0053943,Abertillery,,,,,,,true,UKOS,321860,203411,-3.132667353,51.723955031,BCT,MKD,OTH,,,,004,2000-01-01T00:00:00,2024-04-26T15:51:04,3,revise,active
5320AWB32653,blgadjm,,,Railway Inn,,,,Railway Inn PH,,Aberbeeg Road,,,,o/s,,NE,E0053943,Abertillery,,,,,,,true,UKOS,321498,204026,-3.138045932,51.729432837,BCT,MKD,OTH,,,,004,2000-01-01T00:00:00,2025-05-29T15:40:45,4,revise,active
5320AWB32654,blgadjp,,,Railway Inn,,,,Railway Inn PH,,Aberbeeg Road,,,,before,,S,E0053943,Abertillery,,,,,,,true,UKOS,321539,204085,-3.137465728,51.729968956,BCT,MKD,OTH,,,,004,2000-01-01T00:00:00,2025-05-29T15:42:04,4,revise,active
5320AWB32655,blgadmg,,,Chapel Street,,,,,,High Street,,,,after,,SW,E0053943,Abertillery,,,,,,,true,UKOS,321657,204036,-3.135746483,51.729545004,BCT,MKD,OTH,,,,004,2000-01-01T00:00:00,2024-04-26T15:51:07,2,revise,active
5320AWB32656,blgadmj,,,Adam Street,,,,,,Newall Street,,,,before,,E,E0053943,Abertillery,,,,,,,true,UKOS,322080,204483,-3.129723265,51.733622285,BCT,CUS,OTH,,,,004,2000-01-01T00:00:00,2024-04-26T15:51:04,2,revise,active
5320AWB32657,blgadjw,,,Gelli Grug,,,,,,Gelli-Grug Road,,,,at,,N,E0053943,Abertillery,,,,,,,true,UKOS,322094,204569,-3.129539859,51.734397318,BCT,CUS,OTH,,,,004,2000-01-01T00:00:00,2024-04-26T15:50:48,2,revise,active
5320AWB32658,blgdagp,,,Crown Inn,,,,Crown Inn PH,,Victoria Street,,,,before,,NW,E0053943,Abertillery,,,,,,,false,UKOS,321498,204664,-3.13819003,51.735168029,BCT,CUS,OTH,,,,004,2000-01-01T00:00:00,2025-05-29T15:44:12,4,revise,active
5320AWB32659,blgdagt,,,Crown Inn,,,,Crown Inn PH,,Victoria Street,,,,after,,SE,E0053943,Abertillery,,,,,,,false,UKOS,321506,204666,-3.138074659,51.735187129,BCT,CUS,OTH,,,,004,2000-01-01T00:00:00,2025-05-29T15:45:33,4,revise,active
5320AWB32660,blgagma,,,Howell Griffiths Court,,,,Newtown Methodist Church,,Ty Dan-y-Wal Road,,,,opp,,NW,E0035305,Blaenau Gwent,Abertillery,,,,,,true,UKOS,321444,204879,-3.139020443,51.737093156,BCT,CUS,OTH,,,,004,2000-01-01T00:00:00,2025-05-29T15:46:07,5,revise,active
5320AWB32661,blgagmd,,,Howell Griffiths Court,,,,Newtown Methodist Church,,Ty Dan-y-Wal Road,,,,o/s,,SE,E0035305,Blaenau Gwent,Abertillery,,,,,,false,UKOS,321457,204871,-3.138830413,51.737023066,BCT,MKD,OTH,,,,004,2000-01-01T00:00:00,2025-05-29T15:46:56,5,revise,active
5320AWB32662,blgagmg,,,Rose Heyworth Social Club,,Rose Heyworth Social,,Rose Heyworth Social Club,,Attlee Avenue,,,,nr former,,NW,E0035305,Blaenau Gwent,Abertillery,,,,,,true,UKOS,321263,204976,-3.14166304,51.737939684,BCT,CUS,OTH,,,,004,2000-01-01T00:00:00,2025-05-29T15:48:48,7,revise,active
5320AWB32663,blgdjwa,,,George Daggar,,,,,,Attlee Avenue,,,,nr,,NW,E0035305,Blaenau Gwent,Abertillery,,,,,,true,UKOS,320966,205254,-3.14602648,51.740396843,BCT,CUS,OTH,,,,004,2000-01-01T00:00:00,2024-04-26T15:50:48,4,revise,active
5320AWB32665,blgdjtj,,,Arael View,,,,,,Arael View,,,,in,,SW,E0035305,Blaenau Gwent,Abertillery,,,,,,true,UKOS,320868,205587,-3.147521333,51.743376426,BCT,CUS,OTH,,,,004,2000-01-01T00:00:00,2024-04-26T15:51:04,4,revise,active
5320AWB32667,blgagmp,,,Lawrence Avenue,,,,,,Lawrence Avenue,,,,o/s 20,,SE,E0035305,Blaenau Gwent,Abertillery,,,,,,true,UKOS,320998,205107,-3.145529707,51.739079936,BCT,CUS,OTH,,,,004,2000-01-01T00:00:00,2024-04-26T15:51:11,3,revise,active
5320AWB32668,blgagmw,,,Rose Heyworth Social Club,,Rose Heyworth Social,,Rose Heyworth Social Club,,Cross Street,,,,nr former,,E,E0035305,Blaenau Gwent,Abertillery,,,,,,true,UKOS,321237,204960,-3.142035862,51.737792196,BCT,CUS,OTH,,,,004,2000-01-01T00:00:00,2025-05-29T16:03:53,6,revise,active
5320AWB32669,blgadjd,,,Carlyle Street,,,,,,Carlyle Street,,,,o/s 12,,SE,E0053943,Abertillery,,,,,,,true,UKOS,321486,204134,-3.138244039,51.730402002,BCT,CUS,OTH,,,,004,2000-01-01T00:00:00,2024-04-26T15:51:06,3,revise,active
5320AWB32670,blgadjg,,,Carlyle Street,,,,,,Carlyle Street,,,,opp 12,,NW,E0053943,Abertillery,,,,,,,true,UKOS,321475,204135,-3.138403505,51.730409448,BCT,CUS,OTH,,,,004,2000-01-01T00:00:00,2024-04-26T15:51:06,3,revise,active
5320AWB32671,blgagmj,,,Harcourt Terrace,,,,Abertillery Park,,Glandwr Street,,,,nr,,SE,E0035305,Blaenau Gwent,Abertillery,,,,,,true,UKOS,321043,204600,-3.144762941,51.734528711,BCT,CUS,OTH,,,,004,2000-01-01T00:00:00,2024-04-26T15:51:10,3,revise,active
5320AWB32673,blgagpa,,,Antwerp Place,,,,,,Rose Heyworth Road,,,,nr,,NW,E0035305,Blaenau Gwent,Abertillery,,,,,,true,UKOS,321209,204700,-3.142382313,51.735451035,BCT,MKD,OTH,,,,004,2000-01-01T00:00:00,2024-04-26T15:51:04,4,revise,active
5320AWB32675,blgagpd,,,Antwerp Place,,,,,,Rose Heyworth Road,,,,nr,,SE,E0035305,Blaenau Gwent,Abertillery,,,,,,true,UKOS,321233,204690,-3.142032574,51.73536452,BCT,MKD,OTH,,,,004,2000-01-01T00:00:00,2024-04-26T15:51:04,4,revise,active
5320AWB32676,blgagpg,,,Smith Road,,,,,,Rose Heyworth Road,,,,before,,SE,E0035305,Blaenau Gwent,Abertillery,,,,,,true,UKOS,321029,204946,-3.14504426,51.737637034,BCT,MKD,OTH,,,,004,2000-01-01T00:00:00,2024-04-26T15:51:16,4,revise,active
5320AWB32677,blgagpj,,,Smith Road,,,,,,Rose Heyworth Road,,,,after,,NW,E0035305,Blaenau Gwent,Abertillery,,,,,,true,UKOS,320932,205059,-3.146474407,51.738639128,BCT,MKD,OTH,,,,004,2000-01-01T00:00:00,2024-04-26T15:51:16,4,revise,active
5320AWB32678,blgdjtm,,,Arael View,,,,,,Rose Heyworth Road,,,,before,,SE,E0035305,Blaenau Gwent,Abertillery,,,,,,true,UKOS,320693,205543,-3.150045376,51.742956121,BCT,MKD,OTH,,,,004,2000-01-01T00:00:00,2024-04-26T15:51:04,4,revise,active
5320AWB32679,blgdjtp,,,Arael View,,,,,,Rose Heyworth Road,,,,after,,NW,E0035305,Blaenau Gwent,Abertillery,,,,,,true,UKOS,320649,205618,-3.150699646,51.743624078,BCT,MKD,OTH,,,,004,2000-01-01T00:00:00,2024-04-26T15:51:04,4,revise,active
5320AWB32680,blgagtj,,,Bournville Hall,,,,Bournville Hall,,Bournville Road,,,,nr,,NW,E0035307,Bournville,,,,,,,true,UKOS,320319,206356,-3.15564746,51.750206565,BCT,MKD,OTH,,,,004,2000-01-01T00:00:00,2024-04-26T15:50:52,4,revise,active
5320AWB32681,blgagtm,,,Bournville Hall,,,,Bournville Hall,,Bournville Road,,,,nr,,SE,E0035307,Bournville,,,,,,,true,UKOS,320298,206424,-3.155967303,51.750819527,BCT,MKD,OTH,,,,004,2000-01-01T00:00:00,2024-04-26T15:50:52,4,revise,active
5320AWB32682,blgagtp,,,Bournville Post Office,,Post Office,,Bournville Post Office,,Bournville Road,,,,nr,,NW,E0035307,Bournville,,,,,,,false,UKOS,320230,206573,-3.156986273,51.752144546,BCT,MKD,OTH,,,,004,2000-01-01T00:00:00,2025-06-11T10:30:06,7,revise,active
5320AWB32683,blgagtw,,,Bournville Post Office,,Post Office,,Bournville Post Office,,Bournville Road,,,,nr,,SE,E0035307,Bournville,,,,,,,false,UKOS,320221,206618,-3.157126963,51.752547778,BCT,MKD,OTH,,,,004,2000-01-01T00:00:00,2025-06-11T10:30:06,6,revise,active
5320AWB32684,blgajag,,,Blaina Cemetery,,,,Blaina Cemetery,,Abertillery Road,,,,o/s,,N,E0035306,Blaina,,,,,,,false,UKOS,320109,207003,-3.158837708,51.755992647,BCT,MKD,OTH,,,,004,2000-01-01T00:00:00,2024-04-26T15:50:52,5,revise,active
5320AWB32685,blgajaj,,,Blaina Cemetery,,,,Blaina Cemetery,,Abertillery Road,,,,opp,,S,E0035306,Blaina,,,,,,,false,UKOS,320117,207000,-3.158721142,51.755966822,BCT,MKD,OTH,,,,004,2000-01-01T00:00:00,2024-04-26T15:50:52,5,revise,active
5320AWB32686,blgagwt,,,Queen`s Hotel,,,,Queen`s Hotel PH,,Abertillery Road,,,,after,,S,E0035306,Blaina,,,,,,,false,UKOS,320108,207317,-3.15892457,51.758819805,BCT,MKD,OTH,,,,004,2000-01-01T00:00:00,2024-04-26T15:50:55,3,revise,active
5320AWB32687,blgajad,,,Queen`s Hotel,,,,Queen`s Hotel PH,,Abertillery Road,,,,after,,N,E0035306,Blaina,,,,,,,false,UKOS,320097,207457,-3.159116143,51.760076724,BCT,MKD,OTH,,,,004,2000-01-01T00:00:00,2024-04-26T15:50:55,3,revise,active
5320AWB32688,blgagtd,,,Goodfellas,,,,Goodfellas PH,,High Street,,,,nr,,SE,E0035306,Blaina,,,,,,,false,UKOS,320046,207789,-3.159931419,51.763053854,BCT,MKD,OTH,,,,004,2000-01-01T00:00:00,2024-04-26T15:50:49,3,revise,active
5320AWB32689,blgagtg,,,Goodfellas,,,,Goodfellas PH,,High Street,,,,nr,,N,E0035306,Blaina,,,,,,,false,UKOS,320031,207840,-3.160160475,51.763510159,BCT,MKD,OTH,,,,004,2000-01-01T00:00:00,2024-04-26T15:50:49,3,revise,active
5320AWB32690,blgagwa,,,Cross Street,,,,,,Church Street,,,,after,,NE,E0035306,Blaina,,,,,,,false,UKOS,320114,208036,-3.159003194,51.765283909,BCT,MKD,OTH,,,,004,2000-01-01T00:00:00,2024-04-26T15:51:08,3,revise,active
5320AWB32691,blgagwd,,,Cross Street,,,,,,Church Street,,,,before,,SW,E0035306,Blaina,,,,,,,false,UKOS,320132,208042,-3.158743801,51.765340416,BCT,MKD,OTH,,,,004,2000-01-01T00:00:00,2024-04-26T15:51:08,3,revise,active
5320AWB32692,blgagwg,,,East Pentwyn,,,,Club Row,,East Pentwyn Road,,,,before,,S,E0035306,Blaina,,,,,,,false,UKOS,320370,207969,-3.155279019,51.764718151,BCT,MKD,OTH,,,,004,2000-01-01T00:00:00,2025-06-11T10:30:05,4,revise,active
5320AWB32693,blgagwj,,,East Pentwyn,,,,Club Row,,East Pentwyn Road,,,,after,,N,E0035306,Blaina,,,,,,,false,UKOS,320362,207982,-3.155397902,51.764833871,BCT,MKD,OTH,,,,004,2000-01-01T00:00:00,2025-06-11T10:30:05,4,revise,active
5320AWB32694,blgagwm,,,Blaina Junior School,,,,Blaina Junior School,,Pentwyn Road,,,,opp,,NW,E0035306,Blaina,,,,,,,false,UKOS,320338,208208,-3.155797398,51.766857333,BCT,MKD,OTH,,,,004,2000-01-01T00:00:00,2024-04-26T15:51:03,5,revise,active
5320AWB32695,blgagwp,,,Blaina Junior School,,,,Blaina Junior School,,Pentwyn Road,,,,o/s,,SE,E0035306,Blaina,,,,,,,false,UKOS,320347,208208,-3.155667006,51.766858615,BCT,MKD,OTH,,,,004,2000-01-01T00:00:00,2024-04-26T15:51:03,5,revise,active
5320AWB32697,blgamtd,,,Surgery Road Bungalows,,Surgery Road,,,,Cwmcelyn Road,,,,opp,,NW,E0035315,Cwmcelyn,Blaina,,,,,,true,UKOS,320291,208577,-3.156563231,51.770172338,BCT,MKD,OTH,,,,004,2000-01-01T00:00:00,2025-05-29T16:15:48,5,revise,active
5320AWB32698,blgamtg,,,Surgery Road Bungalows,,Surgery Road,,,,Surgery Road,,,,o/s,,SE,E0035315,Cwmcelyn,Blaina,,,,,,true,UKOS,320312,208572,-3.156257812,51.770130386,BCT,MKD,OTH,,,,004,2000-01-01T00:00:00,2025-05-29T16:16:22,5,revise,active
5320AWB32699,blgampg,,,Blaina Central Park,,,,,,Surgery Road,,,,before,,NW,E0035315,Cwmcelyn,Blaina,,,,,,true,UKOS,320135,208769,-3.158867638,51.771871316,BCT,MKD,OTH,,,,004,2000-01-01T00:00:00,2024-04-26T15:50:53,4,revise,active
5320AWB32700,blgampj,,,Blaina Central Park,,,,,,Surgery Road,,,,after,,SE,E0035315,Cwmcelyn,Blaina,,,,,,true,UKOS,320158,208741,-3.158527931,51.771622904,BCT,MKD,OTH,,,,004,2000-01-01T00:00:00,2024-04-26T15:50:53,4,revise,active
5320AWB32701,blgamga,,,Terrace House,,,,,,Surgery Road,,,,nr,,NW,E0035313,Coedcae,Nant-y-glo,,,,,,true,UKOS,319943,209078,-3.161721073,51.774626194,BCT,MKD,OTH,,,,004,2000-01-01T00:00:00,2024-04-26T15:51:18,6,revise,active
5320AWB32702,blgamgd,,,Terrace House,,,,,,Surgery Road,,,,nr,,SE,E0035313,Coedcae,Nant-y-glo,,,,,,true,UKOS,319937,209096,-3.161812172,51.77478714,BCT,MKD,OTH,,,,004,2000-01-01T00:00:00,2024-04-26T15:51:18,6,revise,active
5320AWB32703,blgamdp,,,Blaina Inn,,,,Blaina Inn PH,,High Street,,,,nr,,NW,E0035313,Coedcae,Nant-y-glo,,,,,,true,UKOS,319751,209233,-3.164539112,51.775991983,BCT,MKD,OTH,,,,004,2000-01-01T00:00:00,2024-04-26T15:50:40,4,revise,active
5320AWB32704,blgamdt,,,Blaina Inn,,,,Blaina Inn PH,,High Street,,,,nr,,SE,E0035313,Coedcae,Nant-y-glo,,,,,,true,UKOS,319726,209315,-3.16492037,51.776725505,BCT,MKD,OTH,,,,004,2000-01-01T00:00:00,2024-04-26T15:50:40,4,revise,active
5320AWB32705,blgdmpa,,,Bethel Chapel,,,,Bethel Chapel,,Queen Street,,,,nr,,N,E0035333,Nant-y-glo,,,,,,,true,UKOS,319650,209515,-3.166068048,51.778512418,BCT,MKD,OTH,,,,004,2000-01-01T00:00:00,2024-04-26T15:50:42,3,revise,active
5320AWB32706,blgdmpd,,,Bethel Chapel,,,,Bethel Chapel,,Queen Street,,,,nr,,S,E0035333,Nant-y-glo,,,,,,,true,UKOS,319658,209533,-3.165956286,51.778675373,BCT,MKD,OTH,,,,004,2000-01-01T00:00:00,2024-04-26T15:50:42,3,revise,active
5320AWB32707,blgamdw,,,Garn Cross Church,,,,Garn Cross Church,,Queen Street,,,,opp,,NW,E0035333,Nant-y-glo,,,,,,,true,UKOS,319588,209827,-3.16703891,51.78130812,BCT,MKD,OTH,,,,004,2000-01-01T00:00:00,2024-04-26T15:50:46,4,revise,active
5320AWB32708,blgdmjw,,,Garn Cross Church,,,,,,Queen Street,,,,o/s,,SE,E0035333,Nant-y-glo,,,,,,,true,UKOS,319623,209758,-3.16651567,51.780692903,BCT,MKD,OTH,,,,004,2000-01-01T00:00:00,2024-04-26T15:50:46,3,revise,active
5320AWB32709,blgawmt,,,Garn Cross,,,,Garn Cross Social Club,,Garn Cross,,,,at,,NW,E0035333,Nant-y-glo,,,,,,,true,UKOS,319444,210033,-3.169173718,51.783139145,BCT,MKD,OTH,,,,004,2000-01-01T00:00:00,2025-06-11T10:30:05,6,revise,active
5320AWB32711,blgawmw,,,Garn Cross,,,,Garn Cross Post Office,,King Street,,,,at,,SE,E0035333,Nant-y-glo,,,,,,,true,UKOS,319398,210107,-3.169857613,51.783797708,BCT,MKD,OTH,,,,004,2000-01-01T00:00:00,2025-06-11T10:30:05,6,revise,active
5320AWB32714,blgawpd,,,Nanyglo Methodist Church,,Nanyglo Church,,Nanyglo Methodist Church,,Chapel Road,,,,o/s,,NE,E0035333,Nant-y-glo,,,,,,,true,UKOS,319193,210754,-3.172979635,51.789584069,BCT,MKD,OTH,,,,004,2000-01-01T00:00:00,2025-06-02T09:03:25,6,revise,active
5320AWB32715,blgawma,,,Nanyglo Methodist Church,,Nanyglo Church,,Nantyglo Methodist Church,,Winchestown Road,,,,opp,,SW,E0035333,Nant-y-glo,,,,,,,true,UKOS,319174,210736,-3.173250844,51.789419516,BCT,MKD,OTH,,,,004,2000-01-01T00:00:00,2025-06-02T09:07:15,6,revise,active
5320AWB32716,blgawpw,,,Roundhouse Close,,,,,,Winchestown Road,,,,after,,SW,E0035362,Winchestown,,,,,,,true,UKOS,319020,210579,-3.175446395,51.787985921,BCT,MKD,OTH,,,,004,2000-01-01T00:00:00,2024-04-26T15:51:15,4,revise,active
5320AWB32717,blgawta,,,Roundhouse Close,,,,,,Winchestown Road,,,,before,,NE,E0035362,Winchestown,,,,,,,true,UKOS,319026,210593,-3.175362699,51.788112638,BCT,MKD,OTH,,,,004,2000-01-01T00:00:00,2024-04-26T15:51:16,4,revise,active
5320AWB32720,blgdmat,,,Glen View Bungalows,,,,Glen View Bungalows,,Waun-Ebbw Road,,,,o/s,,NW,E0035362,Winchestown,,,,,,,true,UKOS,318873,210604,-3.177582962,51.788189321,BCT,MKD,OTH,,,,004,2000-01-01T00:00:00,2024-04-26T15:51:10,4,revise,active
5320AWB32721,blgdmaw,,,Glen View Bungalows,,,,Glen View Bungalows,,Waun-Ebbw Road,,,,opp,,SE,E0035362,Winchestown,,,,,,,true,UKOS,318871,210611,-3.17761359,51.788251955,BCT,MKD,OTH,,,,004,2000-01-01T00:00:00,2024-04-26T15:51:10,3,revise,active
5320AWB32723,blgdmda,,,Winchestown Post Office,,Post Office,,Winchestown Post Office,,Waun-Ebbw Road,,,,opp,,SE,E0035362,Winchestown,,,,,,,true,UKOS,318678,210885,-3.180475289,51.790682227,BCT,MKD,OTH,,,,004,2000-01-01T00:00:00,2025-06-11T10:30:07,7,revise,active
5320AWB32724,blgdmdg,,,Winchestown Post Office,,Post Office,,Winchestown Post Office,,Waun-Ebbw Road,,,,o/s,,NW,E0035362,Winchestown,,,,,,,true,UKOS,318644,210922,-3.180976825,51.791009873,BCT,MKD,OTH,,,,004,2000-01-01T00:00:00,2025-06-11T10:30:07,7,revise,active
5320AWB32725,blgdmap,,,Nantyglo Comprehensive School,,Nantyglo Comp,,Nantyglo Comprehensive School,,Pond Road,,,,at,,N,E0035362,Winchestown,,,,,,,true,UKOS,318957,211011,-3.176460619,51.791860084,BCT,MKD,OTH,,,,004,2000-01-01T00:00:00,2025-06-02T09:16:33,3,revise,active
5320AWB32732,blgajpj,,,Brynmawr Comprehensive School,,Brynmawr Comp,,Brynmawr Comprehensive School,,Intermediate Road,,,,nr,,W,E0053945,Brynmawr,,,,,,,false,UKOS,319570,212362,-3.167888328,51.804088325,BCT,MKD,OTH,,,,004,2000-01-01T00:00:00,2025-06-02T09:17:24,5,revise,active
5320AWB32736,blgapwg,,,Vale View,,,,,,Beaufort Hill,,,,nr,,NW,E0053944,Beaufort,,,,,,,true,UKOS,317149,211679,-3.202828785,51.797599519,BCT,MKD,OTH,,,,004,2000-01-01T00:00:00,2024-04-26T15:51:19,3,revise,active
5320AWB32740,blgatap,,,Fernbank Close,,,,,,Queensway,,,,nr,,SW,E0035322,Garn Lydan,Ebbw Vale,,,,,,false,UKOS,316655,212580,-3.210207483,51.805625098,BCT,MKD,OTH,,,,004,2000-01-01T00:00:00,2024-04-26T15:51:09,2,revise,active
5320AWB32741,blgatag,,,Carno Close,,,,Garnlydan Presbyterian Church,,Queensway,,,,before,,SE,E0035322,Garn Lydan,Ebbw Vale,,,,,,false,UKOS,316529,212348,-3.211978553,51.803520833,BCT,MKD,OTH,,,,004,2000-01-01T00:00:00,2024-04-26T15:51:06,2,revise,active
5320AWB32742,blgatat,,,Garnlydan Post Office,,,,Garnlydan Post Office,,Queensway,,,,o/s,,NE,E0035322,Garn Lydan,Ebbw Vale,,,,,,false,UKOS,316743,212384,-3.208884228,51.803871705,BCT,MKD,OTH,,,,004,2000-01-01T00:00:00,2025-06-11T10:30:06,8,revise,active
5320AWB32743,blgataw,,,Garnlydan Post Office,,,,Garnlydan Post Office,,Queensway,,,,opp,,SW,E0035322,Garn Lydan,Ebbw Vale,,,,,,false,UKOS,316736,212368,-3.208981876,51.803726837,BCT,MKD,OTH,,,,004,2000-01-01T00:00:00,2025-06-11T10:30:07,7,revise,active
5320AWB32744,blgataj,,,Cynan Close,,,,,,Prince Philip Avenue,,,,before,,SW,E0035322,Garn Lydan,Ebbw Vale,,,,,,false,UKOS,316637,212251,-3.210389254,51.802665035,BCT,MKD,OTH,,,,004,2000-01-01T00:00:00,2024-04-26T15:51:08,3,revise,active
5320AWB32745,blgatam,,,Cynan Close,,,,,,Prince Philip Avenue,,,,after,,NE,E0035322,Garn Lydan,Ebbw Vale,,,,,,false,UKOS,316562,212247,-3.211475728,51.802617877,BCT,MKD,OTH,,,,004,2000-01-01T00:00:00,2024-04-26T15:51:08,3,revise,active
5320AWB32746,blgdajw,,,Rhymney Close,,,,,,Honeyfield Road,,,,after,,NE,E0035341,Rassau,Ebbw Vale,,,,,,true,UKOS,316073,212006,-3.218507379,51.800378256,BCT,MKD,OTH,,,,004,2000-01-01T00:00:00,2024-04-26T15:51:15,3,revise,active
5320AWB32747,blgdama,,,Rhymney Close,,,,,,Honeyfield Road,,,,after,,SW,E0035341,Rassau,Ebbw Vale,,,,,,true,UKOS,316018,211984,-3.219299455,51.80017223,BCT,MKD,OTH,,,,004,2000-01-01T00:00:00,2024-04-26T15:51:15,3,revise,active
5320AWB32749,blgdapj,,,Rassau Spar,,,,Rassau Spar,,Honeyfield Road,,,,after,,W,E0035341,Rassau,Ebbw Vale,,,,,,true,UKOS,315821,211977,-3.22215382,51.800074966,BCT,MKD,OTH,,,,004,2000-01-01T00:00:00,2025-06-11T10:30:05,8,revise,active
5320AWB32750,blgdapm,,,Rassau Spar,,,,Rassau Spar,,Honeyfield Road,,,,opp,,E,E0035341,Rassau,Ebbw Vale,,,,,,true,UKOS,315857,211988,-3.221634555,51.80017927,BCT,MKD,OTH,,,,004,2000-01-01T00:00:00,2025-06-11T10:30:06,5,revise,active
5320AWB32751,blgdamd,,,Summerfield Road,,,,,,Honeyfield Road,,,,before,,N,E0035341,Rassau,Ebbw Vale,,,,,,true,UKOS,315646,212069,-3.224713533,51.800880224,BCT,MKD,OTH,,,,004,2000-01-01T00:00:00,2024-04-26T15:51:17,3,revise,active
5320AWB32752,blgdamg,,,Summerfield Road,,,,,,Honeyfield Road,,,,before,,S,E0035341,Rassau,Ebbw Vale,,,,,,true,UKOS,315650,212096,-3.224662117,51.80112353,BCT,MKD,OTH,,,,004,2000-01-01T00:00:00,2024-04-26T15:51:17,3,revise,active
5320AWB32753,blgdamj,,,Stonebridge Road,,,,,,Stonebridge Road,,,,o/s 43,,SE,E0035341,Rassau,Ebbw Vale,,,,,,true,UKOS,315470,211775,-3.227193499,51.798210864,BCT,CUS,OTH,,,,004,2000-01-01T00:00:00,2024-04-26T15:51:17,3,revise,active
5320AWB32754,blgdamp,,,Stonebridge Road,,,,,,Stonebridge Road,,,,opp 43,,NW,E0035341,Rassau,Ebbw Vale,,,,,,true,UKOS,315462,211774,-3.227309236,51.798200664,BCT,CUS,OTH,,,,004,2000-01-01T00:00:00,2024-04-26T15:51:17,3,revise,active
5320AWB32755,blgdata,,,Stonebridge Road,,,,,,Stonebridge Road,,,,o/s 1,,S,E0035341,Rassau,Ebbw Vale,,,,,,true,UKOS,315486,211627,-3.226925417,51.796882922,BCT,MKD,OTH,,,,004,2000-01-01T00:00:00,2024-04-26T15:51:17,3,revise,active
5320AWB32756,blgdapw,,,Stonebridge Road,,,,,,Stonebridge Road,,,,opp 1,,N,E0035341,Rassau,Ebbw Vale,,,,,,true,UKOS,315474,211603,-3.227093526,51.796665372,BCT,MKD,OTH,,,,004,2000-01-01T00:00:00,2024-04-26T15:51:17,3,revise,active
5320AWB32757,blgdamt,,,Rassau Post Office,,Post Office,,Rassau Post Office,,Rassau Road,,,,o/s,,NW,E0035341,Rassau,Ebbw Vale,,,,,,true,UKOS,315579,211562,-3.225561228,51.796308024,BCT,MKD,OTH,,,,004,2000-01-01T00:00:00,2025-06-11T10:30:07,7,revise,active
5320AWB32758,blgdamw,,,Rassau Post Office,,Post Office,,Rassau Post Office,,Rassau Road,,,,after,,SE,E0035341,Rassau,Ebbw Vale,,,,,,true,UKOS,315689,211545,-3.223962412,51.796171827,BCT,MKD,OTH,,,,004,2000-01-01T00:00:00,2025-06-11T10:30:07,8,revise,active
5320AWB32759,blgagdj,,,School Lane,,,,,,Rassau Road,,,,nr,,NE,E0035341,Rassau,Ebbw Vale,,,,,,true,UKOS,315892,211539,-3.221018158,51.796153181,BCT,MKD,OTH,,,,004,2000-01-01T00:00:00,2024-04-26T15:51:16,3,revise,active
5320AWB32760,blgagdm,,,School Lane,,,,,,Rassau Road,,,,nr,,SW,E0035341,Rassau,Ebbw Vale,,,,,,true,UKOS,315829,211521,-3.221926995,51.795977207,BCT,MKD,OTH,,,,004,2000-01-01T00:00:00,2024-06-05T15:30:26,5,revise,active
5320AWB32761,blgatpw,,,Carmeltown Roundabout,,Carmeltown,,,,Rassau Road,,,,before,,SE,E0035310,Carmeltown,Ebbw Vale,,,,,,true,UKOS,316081,211536,-3.218277389,51.796149961,BCT,MKD,OTH,,,,004,2000-01-01T00:00:00,2025-06-11T10:30:04,7,revise,active
5320AWB32762,blgatwa,,,Carmeltown Roundabout,,Carmeltown,,,,Rassau Road,,,,after,,NW,E0035310,Carmeltown,Ebbw Vale,,,,,,true,UKOS,316083,211528,-3.218246456,51.79607835,BCT,MKD,OTH,,,,004,2000-01-01T00:00:00,2025-06-11T10:30:04,7,revise,active
5320AWB32763,blgawda,,,Waterloo Terrace,,,,Marine Bungalow,,A4046,,,,o/s 4,,NW,E0053946,Cwm,,,,,,,false,UKOS,318961,204098,-3.174788225,51.729718559,BCT,MKD,OTH,,,,004,2000-01-01T00:00:00,2024-04-26T15:51:20,3,revise,active
5320AWB32764,blgawdg,,,Waterloo Terrace,,,,Waterloo Terrace,,A4046,,,,opp 4,,SE,E0053946,Cwm,,,,,,,false,UKOS,318968,204095,-3.174686194,51.729692604,BCT,MKD,OTH,,,,004,2000-01-01T00:00:00,2024-04-26T15:51:20,3,revise,active
5320AWB32765,blgamjm,,,Marine Industrial Estate,,Marine Industrial,,Marine Industrial Estate,,Marine Street,,,,o/s,,NW,E0053946,Cwm,,,,,,,false,UKOS,318738,204633,-3.178141449,51.734495457,BCT,MKD,OTH,,,,004,2000-01-01T00:00:00,2025-06-02T10:00:04,4,revise,active
5320AWB32766,blgamjp,,,Marine Industrial Estate,,,,Marine Industrial Estate,,Marine Street,,,,opp,,SE,E0053946,Cwm,,,,,,,false,UKOS,318737,204658,-3.178161772,51.734720042,BCT,MKD,OTH,,,,004,2000-01-01T00:00:00,2024-04-26T15:51:12,3,revise,active
5320AWB32767,blgampa,,,Stanfield Street,,,,134 Marine Street,,Marine Street,,,,nr,,NW,E0053946,Cwm,,,,,,,false,UKOS,318592,204947,-3.180328722,51.737296847,BCT,MKD,OTH,,,,004,2000-01-01T00:00:00,2024-04-26T15:51:17,2,revise,active
5320AWB32768,blgampd,,,York Terrace,,,,,,Marine Street,,,,after,,SE,E0053946,Cwm,,,,,,,false,UKOS,318570,205011,-3.180662245,51.737868955,BCT,MKD,OTH,,,,004,2000-01-01T00:00:00,2024-04-26T15:51:21,2,revise,active
5320AWB32769,blgamgp,,,Central Garage,,,,Cwm Central Garage,,Marine Street,,,,o/s,,NW,E0053946,Cwm,,,,,,,false,UKOS,318492,205159,-3.181826292,51.739187999,BCT,MKD,OTH,,,,004,2000-01-01T00:00:00,2024-04-26T15:50:47,3,revise,active
5320AWB32770,blgamgt,,,Central Garage,,,,Cwm Central Garage,,Marine Street,,,,opp,,SE,E0053946,Cwm,,,,,,,false,UKOS,318506,205146,-3.181620537,51.739073179,BCT,MKD,OTH,,,,004,2000-01-01T00:00:00,2024-04-26T15:50:48,3,revise,active
5320AWB32771,blgamjd,,,Cwm Institute,,,,Cwm Institute,,Marine Street,,,,nr,,SE,E0053946,Cwm,,,,,,,false,UKOS,318450,205267,-3.18245966,51.740148027,BCT,MKD,OTH,,,,004,2000-01-01T00:00:00,2025-06-11T10:30:04,9,revise,active
5320AWB32772,blgamjg,,,Cwm Institute,,,,Cwm Institute,,Marine Street,,,,nr,,NW,E0053946,Cwm,,,,,,,false,UKOS,318436,205277,-3.182664718,51.740235878,BCT,MKD,OTH,,,,004,2000-01-01T00:00:00,2025-06-11T10:30:04,7,revise,active
5320AWB32773,blgamgw,,,Cwm Bridge,,,,,,Cwm Terrace,,,,nr,,NW,E0053946,Cwm,,,,,,,false,UKOS,318535,205438,-3.181269115,51.741702241,BCT,MKD,OTH,,,,004,2000-01-01T00:00:00,2024-04-26T15:50:54,3,revise,active
5320AWB32774,blgamja,,,Cwm Bridge,,,,,,Cwm Terrace,,,,nr,,SE,E0053946,Cwm,,,,,,,false,UKOS,318556,205420,-3.18096072,51.741538808,BCT,MKD,OTH,,,,004,2000-01-01T00:00:00,2025-05-14T11:47:00,4,revise,active
5320AWB32775,blgamgj,,,Bailey Arms,,,,Bailey Arms PH,,School Terrace,,,,opp,,NW,E0053946,Cwm,,,,,,,false,UKOS,318444,205589,-3.182622227,51.743046351,BCT,MKD,OTH,,,,004,2000-01-01T00:00:00,2024-04-26T15:50:39,3,revise,active
5320AWB32776,blgamgm,,,Bailey Arms,,,,Bailey Arms PH,,School Terrace,,,,o/s,,SE,E0053946,Cwm,,,,,,,false,UKOS,318444,205605,-3.182625984,51.743190178,BCT,MKD,OTH,,,,004,2000-01-01T00:00:00,2024-04-26T15:50:39,3,revise,active
5320AWB32777,blgamjt,,,St Paul`s Church,,,,St Paul`s Church,,Cwm Road,,,,after,,NW,E0053946,Cwm,,,,,,,false,UKOS,318304,205834,-3.184707082,51.745228274,BCT,MKD,OTH,,,,004,2000-01-01T00:00:00,2025-06-11T10:30:05,4,revise,active
5320AWB32778,blgamjw,,,St Paul`s Church,,,,St Paul`s Church,,Cwm Road,,,,before,,SE,E0053946,Cwm,,,,,,,false,UKOS,318301,205849,-3.184754053,51.745362673,BCT,MKD,OTH,,,,004,2000-01-01T00:00:00,2025-06-11T10:30:05,4,revise,active
5320AWB32780,blgdjpd,,,Silent Valley Turn,,,,,,Cwm Road,,,,nr,,NW,E0035358,Waunllwyd,,,,,,,false,UKOS,317851,206581,-3.191443634,51.751876832,BCT,MKD,OTH,,,,004,2000-01-01T00:00:00,2024-04-26T15:51:00,3,revise,active
5320AWB32781,blgdjmp,,,Park View Street,,,,Park Hotel,,Station Road,,,,opp,,NW,E0035358,Waunllwyd,,,,,,,false,UKOS,317733,206828,-3.193211157,51.754079804,BCT,MKD,OTH,,,,004,2000-01-01T00:00:00,2024-04-26T15:51:14,3,revise,active
5320AWB32782,blgdjmt,,,Park Hotel,,,,Park Hotel,,Station Road,,,,nr,,NW,E0035358,Waunllwyd,,,,,,,false,UKOS,317569,207095,-3.195649885,51.756455752,BCT,MKD,OTH,,,,004,2000-01-01T00:00:00,2024-04-26T15:50:53,3,revise,active
5320AWB32783,blgdjpm,,,Innovation Centre,,,,,,A4046,,,,nr,,E,E0035358,Waunllwyd,,,,,,,true,UKOS,317296,207404,-3.199677765,51.75919308,BCT,MKD,OTH,,,,004,2000-01-01T00:00:00,2024-04-26T15:50:41,2,revise,active
5320AWB32784,blgdjmw,,,Park Hotel,,,,Park Hotel,,Station Road,,,,nr,,SE,E0035358,Waunllwyd,,,,,,,false,UKOS,317612,207043,-3.195014711,51.755994654,BCT,MKD,OTH,,,,004,2000-01-01T00:00:00,2024-04-26T15:50:53,3,revise,active
5320AWB32785,blgdjpa,,,Park View Street,,,,Park Hotel,,Station Road,,,,before,,SE,E0035358,Waunllwyd,,,,,,,false,UKOS,317721,206906,-3.193403448,51.75477919,BCT,MKD,OTH,,,,004,2000-01-01T00:00:00,2024-04-26T15:51:14,3,revise,active
5320AWB32786,blgdjpj,,,Wood Bank,,,,Wood Bank (house),,Cwm Road,,,,nr,,SE,E0035358,Waunllwyd,,,,,,,false,UKOS,317792,206707,-3.192327966,51.753000794,BCT,MKD,OTH,,,,004,2000-01-01T00:00:00,2025-06-02T10:59:46,3,revise,active
5320AWB32787,blgdjpg,,,Silent Valley Turn,,,,,,Cwm Road,,,,nr,,SE,E0035358,Waunllwyd,,,,,,,false,UKOS,317927,206481,-3.190319287,51.750989074,BCT,MKD,OTH,,,,004,2000-01-01T00:00:00,2024-04-26T15:51:00,3,revise,active
5320AWB32790,blgdjmd,,,Festival Park Shopping Centre,,Festival Park Shops,,Festival Park Shopping Centre,,Festival Park,,,,at,,S,E0035358,Waunllwyd,,,,,,,false,UKOS,317528,206096,-3.196006451,51.747469584,BCT,MKD,OTH,,,,004,2000-01-01T00:00:00,2025-06-11T10:30:04,4,revise,active
5320AWB32791,blgdjmg,,,Bryn Terrace,,,,,,Dyffryn Road,,,,before,,NW,E0035358,Waunllwyd,,,,,,,false,UKOS,317630,207144,-3.194777961,51.756905205,BCT,MKD,OTH,,,,004,2000-01-01T00:00:00,2024-04-26T15:50:59,3,revise,active
5320AWB32792,blgdjmj,,,Bryn Terrace,,,,,,Dyffryn Road,,,,after,,S,E0035358,Waunllwyd,,,,,,,false,UKOS,317624,207190,-3.194875786,51.75731782,BCT,MKD,OTH,,,,004,2000-01-01T00:00:00,2024-04-26T15:50:59,3,revise,active
5320AWB32793,blgdjgw,,,Ty Llwyn Hall,,,,Ty Llwyn Hall,,Steelworks Road,,,,former,,NW,E0035354,Tyllwyn,,,,,,,false,UKOS,317520,208270,-3.196638811,51.767006033,BCT,MKD,OTH,,,,004,2000-01-01T00:00:00,2024-04-26T15:50:53,4,revise,active
5320AWB32794,blgdjma,,,Ty Llwyn Hall,,,,Ty Llwyn Hall,,Steelworks Road,,,,former,,SE,E0035354,Tyllwyn,,,,,,,false,UKOS,317560,208191,-3.196040524,51.766301794,BCT,MKD,OTH,,,,004,2000-01-01T00:00:00,2024-04-26T15:50:53,5,revise,active
5320AWB32795,blgdjga,,,Clovelly Avenue,,,,,,Steelworks Road,,,,nr,,NW,E0035354,Tyllwyn,,,,,,,false,UKOS,317416,208531,-3.198207783,51.769341515,BCT,MKD,OTH,,,,004,2000-01-01T00:00:00,2024-04-26T15:51:07,3,revise,active
5320AWB32796,blgdjgd,,,Clovelly Avenue,,,,,,Steelworks Road,,,,nr,,SE,E0035354,Tyllwyn,,,,,,,false,UKOS,317443,208510,-3.197811593,51.769156732,BCT,MKD,OTH,,,,004,2000-01-01T00:00:00,2024-04-26T15:51:07,3,revise,active
5320AWB32797,blgdjgt,,,Ty Llwyn Post Office,,,,Ty Llwyn Post Office,,Steelworks Road,,,,former,,S,E0035354,Tyllwyn,,,,,,,true,UKOS,317392,208594,-3.198570413,51.769899598,BCT,MKD,OTH,,,,004,2000-01-01T00:00:00,2025-06-11T10:30:07,7,revise,active
5320AWB32798,blgdjgp,,,Ty Llwyn Post Office,,,,Ty Llwyn Post Office,,Steelworks Road,,,,former,,N,E0035354,Tyllwyn,,,,,,,false,UKOS,317372,208690,-3.198883058,51.770759593,BCT,MKD,OTH,,,,004,2000-01-01T00:00:00,2025-06-11T10:30:07,7,revise,active
5320AWB32799,blgdjgj,,,Hill Street,,,,,,Steelworks Road,,,,before,,SE,E0035354,Tyllwyn,,,,,,,false,UKOS,317371,208813,-3.198926952,51.771869785,BCT,MKD,OTH,,,,004,2000-01-01T00:00:00,2024-04-26T15:51:10,3,revise,active
5320AWB32800,blgdjgm,,,Hill Street,,,,,,Steelworks Road,,,,after,,NW,E0035354,Tyllwyn,,,,,,,false,UKOS,317321,208896,-3.199671208,51.772608485,BCT,MKD,OTH,,,,004,2000-01-01T00:00:00,2024-04-26T15:51:10,3,revise,active
5320AWB32801,blgapma,,,Corus General Offices,,,,Corus General Offices,,Steelworks Road,,,,former,,N,E0053947,Ebbw Vale,,,,,,,false,UKOS,317179,209338,-3.201834202,51.776555945,BCT,MKD,OTH,,,,004,2000-01-01T00:00:00,2024-06-14T12:39:47,4,revise,active
5320AWB32802,blgapmd,,,Corus General Offices,,,,Corus General Offices,,Steelworks Road,,,,former,,SE,E0053947,Ebbw Vale,,,,,,,false,UKOS,317195,209314,-3.2015967000027956,51.77634969702075,BCT,MKD,OTH,,,,004,2000-01-01T00:00:00,2024-04-26T15:50:59,3,revise,active
5320AWB32803,blgaptd,,,Corus Main Gates,,,,Corus Main Gates,,Steelworks Road,,,,former,,NW,E0053947,Ebbw Vale,,,,,,,false,UKOS,317068,209705,-3.20353058,51.77984315,BCT,MKD,OTH,,,,004,2000-01-01T00:00:00,2024-04-26T15:50:55,3,revise,active
5320AWB32804,blgaptg,,,Corus Main Gates,,,,Corus Main Gates,,Steelworks Road,,,,former,,SE,E0053947,Ebbw Vale,,,,,,,false,UKOS,317086,209708,-3.203270344,51.779868105,BCT,MKD,OTH,,,,004,2000-01-01T00:00:00,2024-06-05T15:27:43,5,revise,active
5320AWB32805,blgdadg,,,Libanus Corner,,,,,,Steelworks Road,,,,nr,,NW,E0053947,Ebbw Vale,,,,,,,true,UKOS,316813,210085,-3.20731721,51.783221082,BCT,MKD,OTH,,,,004,2000-01-01T00:00:00,2024-04-26T15:51:12,3,revise,active
5320AWB32806,blgawtp,,,Eugene Cross Park,,,,Eugene Cross Park,,Steelworks Road,,,,nr,,SE,E0053947,Ebbw Vale,,,,,,,true,UKOS,316800,210195,-3.207532027,51.784207939,BCT,MKD,OTH,,,,004,2000-01-01T00:00:00,2025-06-02T11:25:31,3,revise,active
5320AWB32807,blgdadj,,,Ebbw Vale War Memorial,,,,Ebbw Vale War Memorial,,Libanus Road,,,,opp,,SE,E0053947,Ebbw Vale,,,,,,,true,UKOS,316791,210074,-3.207633314,51.783114245,BCT,MKD,OTH,,,,004,2000-01-01T00:00:00,2024-04-26T15:50:44,5,revise,active
5320AWB32808,blgdadm,,,Ebbw Vale War Memorial,,,,Ebbw Vale War Memorial,,Libanus Road,,,,o/s,,NW,E0053947,Ebbw Vale,,,,,,,true,UKOS,316785,210071,-3.207719652,51.783091066,BCT,MKD,OTH,,,,004,2000-01-01T00:00:00,2024-04-26T15:50:44,6,revise,active
5320AWB32809,blgapmj,,,Ebbw Vale Bus Station Stand 4,,Ebbw Vale Station 4,,,,A4046,,,,Stand 4,,N,E0053947,Ebbw Vale,,,,,,,false,UKOS,316847,209736,-3.206740623,51.780084288,BCT,MKD,OTH,,,,004,2000-01-01T00:00:00,2025-06-02T11:27:14,11,revise,active
5320AWB32810,blgapmp,,,Ebbw Vale Bus Station Stand 5,,Ebbw Vale Station 5,,,,A4046,,,,Stand 5,,N,E0053947,Ebbw Vale,,,,,,,false,UKOS,316844,209713,-3.206778581,51.779877093,BCT,CUS,OTH,,,,004,2000-01-01T00:00:00,2025-06-02T11:28:25,9,revise,active
5320AWB32811,blgapmt,,,Ebbw Vale Bus Station Stand 1,,Ebbw Vale Station 1,,,,A4046,,,,Stand 1,,S,E0053947,Ebbw Vale,,,,,,,false,UKOS,316832,209684,-3.206945526,51.779614626,BCT,MKD,OTH,,,,004,2000-01-01T00:00:00,2025-06-02T11:30:44,10,revise,active
5320AWB32812,blgapmw,,,Ebbw Vale Bus Station Stand 2,,Ebbw Vale Station 2,,,,A4046,,,,Stand 2,,S,E0053947,Ebbw Vale,,,,,,,false,UKOS,316834,209710,-3.20692278,51.779848638,BCT,MKD,OTH,,,,004,2000-01-01T00:00:00,2025-06-02T11:31:15,9,revise,active
5320AWB32813,blgapta,,,Ebbw Vale Bus Station Stand 3,,Ebbw Vale Station 3,,,,A4046,,,,Stand 3,,S,E0053947,Ebbw Vale,,,,,,,false,UKOS,316838,209735,-3.20687081,51.780073959,BCT,MKD,OTH,,,,004,2000-01-01T00:00:00,2025-06-02T11:35:41,7,revise,active
5320AWB32814,blgapwm,,,Festival Drive North,,,,,,Park Drive,,,,after,,S,E0035321,Garden City,Ebbw Vale,,,,,,true,UKOS,316975,208124,-3.204499816,51.765617648,BCT,MKD,OTH,,,,004,2000-01-01T00:00:00,2024-04-26T15:51:09,8,revise,active
5320AWB32815,blgapwp,,,Festival Drive North,,,,,,Park Road,,,,opp junct,,N,E0035321,Garden City,Ebbw Vale,,,,,,true,UKOS,316959,208178,-3.204744438,51.766095998,BCT,MKD,OTH,,,,004,2000-01-01T00:00:00,2024-06-05T15:20:03,7,revise,active
5320AWB32816,blgapwt,,,Red Rose Nursing Home,,,,,,A4046,,,,after,,SE,E0035321,Garden City,Ebbw Vale,,,,,,true,UKOS,317030,207828,-3.203632227,51.762965048,BCT,MKD,OTH,,,,004,2000-01-01T00:00:00,2025-06-02T11:36:56,5,revise,active
5320AWB32817,blgatad,,,Red Rose Nursing Home,,,,,,A4048,,,,before,,NW,E0035321,Garden City,Ebbw Vale,,,,,,true,UKOS,317015,207840,-3.203852395,51.763070691,BCT,MKD,OTH,,,,004,2000-01-01T00:00:00,2024-04-26T15:50:42,4,revise,active
5320AWB32818,blgapwj,,,Innovation Centre,,,,,,A4046,,,,nr,,NW,E0035321,Garden City,Ebbw Vale,,,,,,true,UKOS,317131,207425,-3.202072853,51.759357426,BCT,MKD,OTH,,,,004,2000-01-01T00:00:00,2025-06-02T11:37:27,3,revise,active
5320AWB32819,blgajga,,,RTB Club,,,,RTB Rugby Club,,Commercial Street,,,,opp,,SE,E0035308,Briery Hill,Ebbw Vale,,,,,,false,UKOS,316736,208635,-3.208084942,51.770175513,BCT,MKD,OTH,,,,004,2000-01-01T00:00:00,2025-06-11T10:30:05,5,revise,active
5320AWB32820,blgajgd,,,RTB Club,,,,RTB Rugby Club,,Commercial Street,,,,o/s,,NW,E0035308,Briery Hill,Ebbw Vale,,,,,,false,UKOS,316721,208647,-3.208305155,51.770281147,BCT,MKD,OTH,,,,004,2000-01-01T00:00:00,2025-06-11T10:30:05,5,revise,active
5320AWB32821,blgajat,,,Bethesda Place,,,,,,Drysiog Street,,,,nr,,SE,E0035308,Briery Hill,Ebbw Vale,,,,,,true,UKOS,316667,208808,-3.209126235,51.771720336,BCT,MKD,OTH,,,,004,2000-01-01T00:00:00,2024-04-26T15:51:05,3,revise,active
5320AWB32822,blgajaw,,,Bethesda Place,,,,,,Drysiog Street,,,,nr,,NW,E0035308,Briery Hill,Ebbw Vale,,,,,,true,UKOS,316662,208806,-3.209198201,51.771701612,BCT,MKD,OTH,,,,004,2000-01-01T00:00:00,2024-04-26T15:51:05,3,revise,active
5320AWB32823,blgajda,,,Woodside Crescent,,,,,,Drysiog Street,,,,nr,,NW,E0035308,Briery Hill,Ebbw Vale,,,,,,true,UKOS,316581,209029,-3.210425472,51.773694086,BCT,MKD,OTH,,,,004,2000-01-01T00:00:00,2024-04-26T15:51:21,3,revise,active
5320AWB32824,blgajdg,,,Woodside Crescent,,,,,,Drysiog Street,,,,nr,,SE,E0035308,Briery Hill,Ebbw Vale,,,,,,true,UKOS,316592,209016,-3.210262957,51.77357887,BCT,MKD,OTH,,,,004,2000-01-01T00:00:00,2024-04-26T15:51:21,3,revise,active
5320AWB32825,blgapjm,,,Hilltop Gate,,,,,,Bryn Deri,,,,nr,,NW,N0075344,Hilltop,Ebbw Vale,,,,,,true,UKOS,316488,209371,-3.211855402,51.776754446,BCT,MKD,OTH,,,,004,2000-01-01T00:00:00,2024-04-26T15:51:11,3,revise,active
5320AWB32826,blgapjp,,,Hilltop Gate,,,,,,Bryn Deri,,,,nr,,SE,N0075344,Hilltop,Ebbw Vale,,,,,,true,UKOS,316504,209358,-3.211620418,51.776639979,BCT,MKD,OTH,,,,004,2000-01-01T00:00:00,2024-04-26T15:51:11,3,revise,active
5320AWB32827,blgaptp,,,Bron-y-De,,,,,,Bryn Deri,,,,before,,NW,N0075344,Hilltop,Ebbw Vale,,,,,,true,UKOS,316295,209541,-3.214693181,51.778253707,BCT,MKD,OTH,,,,004,2000-01-01T00:00:00,2024-04-26T15:50:40,3,revise,active
5320AWB32828,blgaptw,,,Bron-y-De,,,,,,Bryn Deri,,,,after,,SE,N0075344,Hilltop,Ebbw Vale,,,,,,true,UKOS,316322,209538,-3.214301191,51.778230783,BCT,MKD,OTH,,,,004,2000-01-01T00:00:00,2024-04-26T15:50:40,3,revise,active
5320AWB32829,blgapmg,,,Hilltop Shopping Centre,,Hilltop Shopping,,Hilltop Shopping Centre,,Tredegar Road,,,,o/s,,NE,N0075344,Hilltop,Ebbw Vale,,,,,,true,UKOS,316190,209605,-3.216230242,51.778813268,BCT,MKD,OTH,,,,004,2000-01-01T00:00:00,2025-06-02T11:55:33,5,revise,active
5320AWB32830,blgawaj,,,Mountain Air Playground,,Mountain Air,,Mountain Air Playground,,Darby Crescent,,,,opp,,W,N0075345,Mountain Air,Ebbw Vale,,,,,,true,UKOS,315949,209658,-3.219735439,51.779248809,BCT,MKD,OTH,,,,004,2000-01-01T00:00:00,2025-06-02T11:58:12,7,revise,active
5320AWB32831,blgawja,,,Bryn-y-Gwynt,,,,,,Darby Crescent,,,,after,,SE,N0075345,Mountain Air,Ebbw Vale,,,,,,true,UKOS,315567,209607,-3.225258909,51.778737473,BCT,MKD,OTH,,,,004,2000-01-01T00:00:00,2024-04-26T15:50:40,2,revise,active
5320AWB32832,blgawjd,,,Milton Close,,,,,,Greenways,,,,before,,NW,N0075345,Mountain Air,Ebbw Vale,,,,,,true,UKOS,315647,209705,-3.22412344,51.779630473,BCT,CUS,OTH,,,,004,2000-01-01T00:00:00,2024-04-26T15:51:12,2,revise,active
5320AWB32833,blgawam,,,All Saints RC Primary School,,All Saints RC Primary,,All Saints RC Primary School,,Heol-yr-Ysgol,,,,o/s,,SE,N0075345,Mountain Air,Ebbw Vale,,,,,,true,UKOS,315713,209555,-3.223130516,51.778292084,BCT,MKD,OTH,,,,004,2000-01-01T00:00:00,2025-06-02T12:01:35,3,revise,active
5320AWB32834,blgawap,,,Mountain Air Gate,,,,,,Tredegar Road,,,,nr,,NE,N0075344,Hilltop,Ebbw Vale,,,,,,true,UKOS,315857,209376,-3.221000325,51.776704753,BCT,MKD,OTH,,,,004,2000-01-01T00:00:00,2024-04-26T15:51:13,2,revise,active
5320AWB32835,blgaptm,,,Pentwyn,,,,,,Pentwyn,,,,o/s 29,,SE,N0075344,Hilltop,Ebbw Vale,,,,,,true,UKOS,316319,209419,-3.214315942,51.777160641,BCT,MKD,OTH,,,,004,2000-01-01T00:00:00,2024-04-26T15:50:54,2,revise,active
5320AWB32836,blgawat,,,Mount Pleasant,,,,,,Off Mount Pleasant Road,,,,before,,SE,E0035361,Willowtown,Ebbw Vale,,,,,,true,UKOS,316556,209887,-3.210994228,51.781402938,BCT,MKD,OTH,,,,004,2000-01-01T00:00:00,2024-04-26T15:51:13,3,revise,active
5320AWB32837,blgawaw,,,Mount Pleasant,,,,,,Off Mount Pleasant Road,,,,after,,NW,E0035361,Willowtown,Ebbw Vale,,,,,,true,UKOS,316586,209862,-3.210553441,51.781182691,BCT,MKD,OTH,,,,004,2000-01-01T00:00:00,2024-04-26T15:51:13,3,revise,active
5320AWB32842,blgagam,,,Clos Bronwydd,,,,,,Beaufort Road,,,,after,,SW,N0071076,Glyncoed,Ebbw Vale,,,,,,true,UKOS,316893,210821,-3.206334296,51.789848909,BCT,MKD,OTH,,,,004,2000-01-01T00:00:00,2024-04-26T15:50:43,3,revise,active
5320AWB32843,blgagap,,,Clos Bronwydd,,,,,,Beaufort Road,,,,after,,N,N0071076,Glyncoed,Ebbw Vale,,,,,,true,UKOS,316888,210863,-3.206416847,51.790225704,BCT,MKD,OTH,,,,004,2000-01-01T00:00:00,2024-04-26T15:50:43,3,revise,active
5320AWB32844,blgapgd,,,Beaufort Arms,,,,Beaufort Arms PH,,Beaufort Road,,,,nr,,S,N0071076,Glyncoed,Ebbw Vale,,,,,,true,UKOS,316850,210612,-3.206907425,51.787963806,BCT,MKD,OTH,,,,004,2000-01-01T00:00:00,2024-04-26T15:50:39,4,revise,active
5320AWB32845,blgapgj,,,Beaufort Arms,,,,Beaufort Arms PH,,Beaufort Road,,,,nr,,NE,N0071076,Glyncoed,Ebbw Vale,,,,,,true,UKOS,316830,210578,-3.207189153,51.787655202,BCT,MKD,OTH,,,,004,2000-01-01T00:00:00,2024-04-26T15:50:39,4,revise,active
5320AWB32846,blgapjd,,,Bowling Green,,,,Eugene Cross Park,,Beaufort Road,,,,nr,,SW,E0053947,Ebbw Vale,,,,,,,true,UKOS,316803,210399,-3.207537523,51.786042147,BCT,MKD,OTH,,,,004,2000-01-01T00:00:00,2024-04-26T15:50:51,3,revise,active
5320AWB32847,blgapjg,,,Bowling Green,,,,Eugene Cross Park,,Beaufort Road,,,,nr,,NE,E0053947,Ebbw Vale,,,,,,,true,UKOS,316789,210393,-3.207738996,51.785986128,BCT,MKD,OTH,,,,004,2000-01-01T00:00:00,2024-04-26T15:50:51,3,revise,active
5320AWB32853,blgagag,,,Fitzroy Avenue,,,,,,Fitzroy Avenue,,,,o/s 1,,SW,N0071076,Glyncoed,Ebbw Vale,,,,,,true,UKOS,316733,210870,-3.208665286,51.790265546,BCT,MKD,OTH,,,,004,2000-01-01T00:00:00,2024-04-26T15:51:09,3,revise,active
5320AWB32854,blgagaj,,,Fitzroy Avenue,,,,,,Fitzroy Avenue,,,,opp 1,,NE,N0071076,Glyncoed,Ebbw Vale,,,,,,true,UKOS,316735,210880,-3.208638699,51.790355734,BCT,MKD,OTH,,,,004,2000-01-01T00:00:00,2024-04-26T15:51:09,3,revise,active
5320AWB32855,blgatwm,,,Glyncoed Primary School,,Glyncoed Primary,,Glyncoed Primary School,,Badminton Grove,,,,opp,,NW,N0071076,Glyncoed,Ebbw Vale,,,,,,true,UKOS,316470,211118,-3.21253722,51.792450873,BCT,MKD,OTH,,,,004,2000-01-01T00:00:00,2025-06-02T13:13:12,5,revise,active
5320AWB32856,blgatwp,,,Glyncoed Primary School,,Glyncoed Primary,,Glyncoed Primary School,,Badminton Grove,,,,o/s,,SE,N0071076,Glyncoed,Ebbw Vale,,,,,,true,UKOS,316489,211111,-3.212260111,51.792390791,BCT,MKD,OTH,,,,004,2000-01-01T00:00:00,2025-06-02T13:14:25,5,revise,active
5320AWB32857,blgatpa,,,Bevan Crescent,,,,,,Badminton Grove,,,,after,,SE,E0035310,Carmeltown,Ebbw Vale,,,,,,true,UKOS,316244,211339,-3.215866828,51.79440828,BCT,MKD,OTH,,,,004,2000-01-01T00:00:00,2024-04-26T15:50:43,3,revise,active
5320AWB32858,blgatpd,,,Barham Chapel,,,,Barham Chapel,,Badminton Grove,,,,nr,,NW,E0035310,Carmeltown,Ebbw Vale,,,,,,true,UKOS,316170,211435,-3.216962805,51.795260121,BCT,MKD,OTH,,,,004,2000-01-01T00:00:00,2024-04-26T15:50:42,3,revise,active
5320AWB32862,blgadwd,,,Carn y Cefn,,,,,,Waun-y-pound Road,,,,O/S,,SE,E0053947,Ebbw Vale,,,,,,,true,UKOS,316221,210639,-3.216030857,51.788107858,BCT,MKD,OTH,,,,004,2000-01-01T00:00:00,2024-04-26T15:50:42,5,revise,active
5320AWB32863,blgadwg,,,Carn y Cefn,,,,,,Waun-y-pound Road,,,,Opp,,NW,E0053947,Ebbw Vale,,,,,,,true,UKOS,316161,210655,-3.216904397,51.788242682,BCT,MKD,OTH,,,,004,2000-01-01T00:00:00,2024-04-26T15:50:42,4,revise,active
5320AWB32864,blgagat,,,Cemetery Corner,,,,,,Waun-y-pound Road,,,,at,,NW,E0053947,Ebbw Vale,,,,,,,true,UKOS,315787,210967,-3.222401277,51.790995673,BCT,MKD,OTH,,,,004,2000-01-01T00:00:00,2025-06-11T10:30:04,4,revise,active
5320AWB32865,blgagaw,,,Cemetery Corner,,,,,,Waun-y-pound Road,,,,at,,SE,E0053947,Ebbw Vale,,,,,,,true,UKOS,315802,210968,-3.22218409,51.791006923,BCT,MKD,OTH,,,,004,2000-01-01T00:00:00,2025-06-11T10:30:04,4,revise,active
5320AWB32866,blgdawd,,,Taylors Corner,,,,,,Chartist Way,,,,at,,NW,E0035345,Sirhowy,Tredegar,,,,,,true,UKOS,314882,210316,-3.235359614,51.785006725,BCT,MKD,OTH,,,,004,2000-01-01T00:00:00,2024-04-26T15:51:18,4,revise,active
5320AWB32867,blgdawg,,,Taylors Corner,,,,,,Beaufort Road,,,,at,,NE,E0035345,Sirhowy,Tredegar,,,,,,false,UKOS,314886,210291,-3.2352955,51.784782611,BCT,MKD,OTH,,,,004,2000-01-01T00:00:00,2024-04-26T15:51:18,3,revise,active
5320AWB32868,blgdawj,,,Taylors Corner,,,,,,Beaufort Road,,,,at,,SW,E0035345,Sirhowy,Tredegar,,,,,,false,UKOS,314894,210287,-3.235178571,51.784747873,BCT,MKD,OTH,,,,004,2000-01-01T00:00:00,2024-04-26T15:51:18,3,revise,active
5320AWB32869,blgdawm,,,Taylors Corner,,,,,,Chartist Way,,,,at,,SE,E0035345,Sirhowy,Tredegar,,,,,,true,UKOS,314881,210372,-3.235387862,51.785509952,BCT,MKD,OTH,,,,004,2000-01-01T00:00:00,2024-04-26T15:51:18,3,revise,active
5320AWB32870,blgdawp,,,Ysguborwen Shops,,,,,,Chartist Way,,,,o/s,,SE,N0078215,Ysguborwen,Tredegar,,,,,,true,UKOS,314695,210475,-3.238108912,51.786402764,BCT,MKD,OTH,,,,004,2000-01-01T00:00:00,2025-06-02T13:27:29,5,revise,active
5320AWB32871,blgdawt,,,Ysguborwen Shops,,,,,,Chartist Way,,,,after,,NW,N0078215,Ysguborwen,Tredegar,,,,,,true,UKOS,314628,210464,-3.239077287,51.786293652,BCT,MKD,OTH,,,,004,2000-01-01T00:00:00,2025-06-02T13:28:22,6,revise,active
5320AWB32872,blgdjdg,,,Shepherds Close,,,,,,Chartist Way,,,,before,,NE,N0078215,Ysguborwen,Tredegar,,,,,,true,UKOS,314472,210365,-3.241313982,51.785384575,BCT,MKD,OTH,,,,004,2000-01-01T00:00:00,2024-04-26T15:51:16,3,revise,active
5320AWB32873,blgdjdj,,,Shepherds Close,,,,,,Chartist Way,,,,after,,SW,N0078215,Ysguborwen,Tredegar,,,,,,true,UKOS,314466,210343,-3.241395513,51.785185901,BCT,MKD,OTH,,,,004,2000-01-01T00:00:00,2024-04-26T15:51:16,3,revise,active
5320AWB32874,blgdgad,,,Green Meadow,,,,,,Chartist Way,,,,before,,SE,E0035345,Sirhowy,Tredegar,,,,,,true,UKOS,314453,210226,-3.241555046,51.784132208,BCT,MKD,OTH,,,,004,2000-01-01T00:00:00,2024-04-26T15:51:10,4,revise,active
5320AWB32875,blgdgag,,,Green Meadow,,,,,,Chartist Way,,,,after,,NW,E0035345,Sirhowy,Tredegar,,,,,,true,UKOS,314442,210246,-3.241719407,51.784310302,BCT,MKD,OTH,,,,004,2000-01-01T00:00:00,2024-04-26T15:51:10,4,revise,active
5320AWB32876,blgdatw,,,Sirhowy Inn,,,,Sirhowy Inn PH,,Beaufort Road,,,,opp former,,NE,E0035345,Sirhowy,Tredegar,,,,,,false,UKOS,314696,210099,-3.238001969,51.783027764,BCT,MKD,OTH,,,,004,2000-01-01T00:00:00,2025-06-02T13:42:37,5,revise,active
5320AWB32877,blgdawa,,,Sirhowy Inn,,,,Sirhowy Inn PH,,Beaufort Road,,,,o/s former,,SW,E0035345,Sirhowy,Tredegar,,,,,,false,UKOS,314700,210090,-3.237941783,51.782947474,BCT,MKD,OTH,,,,004,2000-01-01T00:00:00,2025-06-02T13:43:24,5,revise,active
5320AWB32878,blgdatm,,,Railway Inn,,,,Railway Inn PH,,Beaufort Road,,,,opp,,NW,E0035345,Sirhowy,Tredegar,,,,,,false,UKOS,314401,209788,-3.242200518,51.780187101,BCT,MKD,OTH,,,,004,2000-01-01T00:00:00,2024-04-26T15:50:56,3,revise,active
5320AWB32879,blgdatp,,,Railway Inn,,,,Railway Inn PH,,Beaufort Road,,,,before,,SE,E0035345,Sirhowy,Tredegar,,,,,,false,UKOS,314332,209819,-3.243208113,51.780455185,BCT,MKD,OTH,,,,004,2000-01-01T00:00:00,2024-04-26T15:50:56,3,revise,active
5320AWB32880,blgdjap,,,Tredegar Bus Station Stand 1,,Tredegar Bus Stand 1,,Tredegar Bus Station,,Bank Lane,,,,Stand 1,,,E0053950,Tredegar,,,,,,,false,UKOS,314174,209145,-3.245330881,51.774367735,BCS,,,,,,004,2000-01-01T00:00:00,2025-06-02T13:55:12,7,revise,active
5320AWB32881,blgdjda,,,Tredegar Bus Station Stand 4,,Tredegar Bus Stand 4,,Tredegar Bus Station,,Bank Lane,,,,Stand 4,,,E0053950,Tredegar,,,,,,,false,UKOS,314161,209078,-3.245502666,51.773763482,BCS,,,,,,004,2000-01-01T00:00:00,2025-06-02T13:59:11,6,revise,active
5320AWB32882,blgdjaw,,,Tredgar Bus Station Stand 3,,Tredgar Bus Station 3,,Tredgar Bus Station,,Bank Lane,,,,Stand 3,,,E0053950,Tredegar,,,,,,,false,UKOS,314163,209082,-3.245474676,51.773799744,BCS,,,,,,004,2000-01-01T00:00:00,2025-06-02T14:04:29,10,revise,active
5320AWB32883,blgdjat,,,Tredegar Bus Station Stand 2,,Tredegar Bus Stand 2,,Tredegar Bus Station,,Bank Lane,,,,Stand 2,,,E0053950,Tredegar,,,,,,,false,UKOS,314172,209120,-3.245353528,51.774138399,BCS,,,,,,004,2000-01-01T00:00:00,2025-06-02T14:05:35,7,revise,active
5320AWB32884,blgdgwg,,,Laburnam Avenue,,,,,,Stockton Way,,,,after,,SE,E0053950,Tredegar,,,,,,,true,UKOS,313823,209927,-3.250611312,51.781347729,BCT,MKD,OTH,,,,004,2000-01-01T00:00:00,2024-04-26T15:51:11,3,revise,active
5320AWB32885,blgdgwj,,,Laburnam Avenue,,,,,,Stockton Way,,,,before,,NW,E0053950,Tredegar,,,,,,,true,UKOS,313813,209928,-3.250756481,51.781355175,BCT,MKD,OTH,,,,004,2000-01-01T00:00:00,2024-04-26T15:51:11,3,revise,active
5320AWB32886,blgapdp,,,Maple Avenue,,,,,,Sycamore Avenue,,,,after,,SE,E0053950,Tredegar,,,,,,,true,UKOS,313643,210145,-3.253274205,51.783279518,BCT,MKD,OTH,,,,004,2000-01-01T00:00:00,2024-04-26T15:51:12,3,revise,active
5320AWB32887,blgapat,,,Charles Street Top,,,,,,Sycamore Avenue,,,,at,,NW,E0035302,Ashvale,Tredegar,,,,,,true,UKOS,313571,210223,-3.254337132,51.783969518,BCT,MKD,OTH,,,,004,2000-01-01T00:00:00,2024-04-26T15:51:07,4,revise,active
5320AWB32888,blgadpg,,,Crown Inn,,,,Crown Inn PH,,Merthyr Road,,,,before,,NW,E0035302,Ashvale,Tredegar,,,,,,true,UKOS,313259,210419,-3.258907981,51.785682989,BCT,MKD,OTH,,,,004,2000-01-01T00:00:00,2024-04-26T15:50:45,3,revise,active
5320AWB32889,blgadpj,,,Crown Inn,,,,Crown Inn PH,,Merthyr Road,,,,after,,SE,E0035302,Ashvale,Tredegar,,,,,,true,UKOS,313280,210410,-3.258601366,51.785605349,BCT,MKD,OTH,,,,004,2000-01-01T00:00:00,2024-04-26T15:50:45,3,revise,active
5320AWB32890,blgagpm,,,Highfield Close,,,,,,Llwynhelyg,,,,after,,SE,N0078214,Waundeg,Tredegar,,,,,,true,UKOS,313115,210806,-3.261092075,51.789139298,BCT,MKD,OTH,,,,004,2000-01-01T00:00:00,2024-04-26T15:51:10,4,revise,active
5320AWB32891,blgagpt,,,Pen-y-bont,,,,,,Llwynhelyg,,,,before,,NW,N0078214,Waundeg,Tredegar,,,,,,true,UKOS,313087,210861,-3.261506,51.789627,BCT,MKD,OTH,,,,004,2000-01-01T00:00:00,2024-04-26T15:50:54,5,revise,active
5320AWB32892,blgagpw,,,Tynewydd,,,,,,Waundeg,,,,after,,SW,N0078214,Waundeg,Tredegar,,,,,,true,UKOS,312882,210997,-3.264517331,51.79081988,BCT,MKD,OTH,,,,004,2000-01-01T00:00:00,2024-04-26T15:51:01,3,revise,active
5320AWB32893,blgawjw,,,Waundeg Middle,,,,,,Waundeg,,,,o/s 63,,SE,N0078214,Waundeg,Tredegar,,,,,,true,UKOS,312777,210798,-3.265989215,51.789014722,BCT,MKD,OTH,,,,004,2000-01-01T00:00:00,2025-06-11T10:30:08,4,revise,active
5320AWB32894,blgagta,,,Waundeg,,,,,,Waundeg,,,,in,,NE,N0078214,Waundeg,Tredegar,,,,,,true,UKOS,313049,210860,-3.262062267,51.789614427,BCT,MKD,OTH,,,,004,2000-01-01T00:00:00,2024-04-26T15:51:01,2,revise,active
5320AWB32895,blgadtj,,,Brynbach Street,,,,,,Pembroke Street,,,,after,,SE,E0035302,Ashvale,Tredegar,,,,,,true,UKOS,313207,210258,-3.25962132,51.78422771,BCT,MKD,OTH,,,,004,2000-01-01T00:00:00,2024-04-26T15:51:06,4,revise,active
5320AWB32896,blgadtm,,,Brynbach Street,,,,,,Penbroke Street,,,,before,,NW,E0035302,Ashvale,Tredegar,,,,,,true,UKOS,313195,210268,-3.259797741,51.784315735,BCT,MKD,OTH,,,,004,2000-01-01T00:00:00,2024-04-26T15:51:06,4,revise,active
5320AWB32897,blgadpw,,,Griffiths Gardens,,,,,,Pembroke Street,,,,before,,SE,E0035302,Ashvale,Tredegar,,,,,,true,UKOS,313258,210175,-3.258861404,51.783489554,BCT,MKD,OTH,,,,004,2000-01-01T00:00:00,2025-06-02T14:20:24,5,revise,active
5320AWB32898,blgadta,,,Griffiths Gardens,,,,,,North Avenue,,,,before,,NW,E0035302,Ashvale,Tredegar,,,,,,true,UKOS,313271,210148,-3.258666242,51.783248873,BCT,MKD,OTH,,,,004,2000-01-01T00:00:00,2025-06-02T14:20:53,5,revise,active
5320AWB32899,blgadtd,,,Fair View,,,,,,North Avenue,,,,after,,W,E0035302,Ashvale,Tredegar,,,,,,true,UKOS,313457,210134,-3.255967002,51.783147183,BCT,MKD,OTH,,,,004,2000-01-01T00:00:00,2024-06-05T15:58:12,5,revise,active
5320AWB32900,blgadtg,,,Fair View,,,,,,North Avenue,,,,after,,NE,E0035302,Ashvale,Tredegar,,,,,,true,UKOS,313475,210145,-3.255708982,51.78325353,BCT,MKD,OTH,,,,004,2000-01-01T00:00:00,2024-04-26T15:51:09,3,revise,active
5320AWB32901,blgdgtp,,,Gwent Way,,,,,,Gwent Way,,,,before,,SW,E0053950,Tredegar,,,,,,,true,UKOS,313839,209815,-3.250351599,51.78034344,BCT,MKD,OTH,,,,004,2000-01-01T00:00:00,2024-04-26T15:50:47,2,revise,active
5320AWB32903,blgdgwa,,,Cwm Glas,,,,,,Gwent Way,,,,nr,,SE,E0053950,Tredegar,,,,,,,true,UKOS,313784,209645,-3.251106369,51.778806848,BCT,MKD,OTH,,,,004,2000-01-01T00:00:00,2024-04-26T15:50:45,2,revise,active
5320AWB32905,blgdgpd,,,Cefn Glas,,,,,,Gwent Way,,,,nr,,SE,E0053950,Tredegar,,,,,,,true,UKOS,313843,209495,-3.250214106,51.777467612,BCT,MKD,OTH,,,,004,2000-01-01T00:00:00,2024-04-26T15:50:43,2,revise,active
5320AWB32907,blgajam,,,Christ Church,,,,Christ Church,,Church Street,,,,opp,,NW,E0035308,Briery Hill,Ebbw Vale,,,,,,true,UKOS,316803,208870,-3.207170567,51.772297914,BCT,MKD,OTH,,,,004,2000-01-01T00:00:00,2024-04-26T15:51:07,6,revise,active
5320AWB32908,blgajap,,,Christ Church,,,,Christ Church,,Church Street,,,,o/s,,SE,E0035308,Briery Hill,Ebbw Vale,,,,,,true,UKOS,316817,208863,-3.206966036,51.772237074,BCT,MKD,OTH,,,,004,2000-01-01T00:00:00,2024-04-26T15:51:07,5,revise,active
5320AWB32909,blgajdp,,,Ebbw Vale Institute,,,,Ebbw Vale Institute,,Church Street,,,,o/s,,N,E0035308,Briery Hill,Ebbw Vale,,,,,,true,UKOS,316776,209030,-3.207600081,51.773727458,BCT,MKD,OTH,,,,004,2000-01-01T00:00:00,2024-06-05T15:22:53,7,revise,active
5320AWB32910,blgajdt,,,Ebbw Vale Institute,,,,Ebbw Vale Institute,,Church Street,,,,opp,,NW,E0035308,Briery Hill,Ebbw Vale,,,,,,true,UKOS,316773,209015,-3.207640051,51.773596859,BCT,MKD,OTH,,,,004,2000-01-01T00:00:00,2024-04-26T15:50:56,5,revise,active
5320AWB32911,blgajdw,,,Ebbw Vale Institute,,,,Ebbw Vale Institute,,Church Street,,,,opp,,SE,E0035308,Briery Hill,Ebbw Vale,,,,,,true,UKOS,316786,208996,-3.207447123,51.773428003,BCT,MKD,OTH,,,,004,2000-01-01T00:00:00,2024-04-26T15:50:56,4,revise,active
5320AWB32913,blgdpta,,,The Walk,,,,,,The Walk,,,,o/s Aldi,,SW,E0053947,Ebbw Vale,,,,,,,true,UKOS,316854,209305,-3.20653591,51.776215736,BCT,MKD,OTH,,,,004,2000-01-01T00:00:00,2024-04-26T15:51:18,3,revise,active
5320AWB32914,blgdmjt,,,The Walk,,,,,,The Walk,,,,o/s St John,,NE,E0053947,Ebbw Vale,,,,,,,true,UKOS,316883,209357,-3.206128145,51.77668748,BCT,MKD,OTH,,,,004,2000-01-01T00:00:00,2024-04-26T15:51:18,3,revise,active
5320AWB32915,blgdjaj,,,St Clears Place,,,,,,Dukestown Road,,,,nr,,NW,E0035344,Scwrfa,Tredegar,,,,,,true,UKOS,314189,210078,-3.245344568,51.782761372,BCT,MKD,OTH,,,,004,2000-01-01T00:00:00,2024-04-26T15:51:17,3,revise,active
5320AWB32916,blgdjam,,,St Clears Place,,,,,,Dukestown Road,,,,nr,,SE,E0035344,Scwrfa,Tredegar,,,,,,true,UKOS,314213,210072,-3.244995261,51.782711123,BCT,MKD,OTH,,,,004,2000-01-01T00:00:00,2024-04-26T15:51:17,3,revise,active
5320AWB32917,blgdjdm,,,Ystad Deri,,,,,,Dukestown Road,,,,junct,,N,E0035344,Scwrfa,Tredegar,,,,,,true,UKOS,314247,210391,-3.244581443,51.785583801,BCT,CUS,OTH,,,,004,2000-01-01T00:00:00,2024-04-26T15:51:03,3,revise,active
5320AWB32918,blgapdj,,,Royal Oak,,,,Royal Oak PH,,St Luke`s Road,,,,after,,W,E0035317,Dukestown,Tredegar,,,,,,true,UKOS,314116,210585,-3.246528173,51.787307526,BCT,CUS,OTH,,,,004,2000-01-01T00:00:00,2024-04-26T15:50:56,3,revise,active
5320AWB32919,blgapdt,,,Evan`s Terrace,,,,Dukestown Wokkmen`s Club,,St Luke`s Road,,,,nr,,W,E0035317,Dukestown,Tredegar,,,,,,true,UKOS,313957,210581,-3.248831733,51.787247108,BCT,CUS,OTH,,,,004,2000-01-01T00:00:00,2024-04-26T15:51:09,3,revise,active
5320AWB32920,blgadpm,,,Meadow Crescent,,,,,,Glanhowy Street,,,,before,,S,E0035344,Scwrfa,Tredegar,,,,,,true,UKOS,313542,210588,-3.254848489,51.787245967,BCT,CUS,OTH,,,,004,2000-01-01T00:00:00,2024-04-26T15:51:12,4,revise,active
5320AWB32921,blgapdm,,,Cross Way,,,,,,Glanhowy Street,,,,before,,SE,E0035344,Scwrfa,Tredegar,,,,,,true,UKOS,313840,210402,-3.250483028,51.785620069,BCT,CUS,OTH,,,,004,2000-01-01T00:00:00,2024-04-26T15:51:08,3,revise,active
5320AWB32922,blgdgwt,,,Belle Vue Inn,,,,Belle Vue Inn PH,,Scwrfa Road,,,,after,,SE,E0035344,Scwrfa,Tredegar,,,,,,true,UKOS,314052,210197,-3.247359564,51.783809996,BCT,CUS,OTH,,,,004,2000-01-01T00:00:00,2024-04-26T15:50:39,3,revise,active
5320AWB32923,blgdgpj,,,Tredegar Clock,,,,Tredegar Library,,The Circle,,,,at,,SE,E0053950,Tredegar,,,,,,,false,UKOS,314166,208845,-3.245372549,51.771669832,BCT,MKD,OTH,,,,004,2000-01-01T00:00:00,2025-06-02T14:31:27,5,revise,active
5320AWB32924,blgdgpm,,,Tredegar Clock,,,,Clock Tower,,The Circle,,,,at,,NE,E0053950,Tredegar,,,,,,,false,UKOS,314143,208831,-3.245702332,51.771540455,BCT,MKD,OTH,,,,004,2000-01-01T00:00:00,2025-06-02T14:32:06,5,revise,active
5320AWB32925,blgdptd,,,Coach House,,,,Coach House PH,,Morgan Street,,,,nr former,,SE,E0053950,Tredegar,,,,,,,true,UKOS,314218,208754,-3.244596713,51.770864505,BCT,MKD,OTH,,,,004,2000-01-01T00:00:00,2024-04-26T15:50:44,2,revise,active
5320AWB32926,blgatja,,,Promenade d`Orvault,,,,,,Promenade d`Orvault,,,,in,,SE,E0053950,Tredegar,,,,,,,true,UKOS,314409,208599,-3.241791101,51.769500495,BCT,MKD,OTH,,,,004,2000-01-01T00:00:00,2024-04-26T15:51:15,3,revise,active
5320AWB32928,blgatjd,,,Promenade d`Orvault,,,,,,Promenade d`Orvault,,,,in,,NW,E0053950,Tredegar,,,,,,,true,UKOS,314377,208613,-3.242258185,51.76962144,BCT,MKD,OTH,,,,004,2000-01-01T00:00:00,2024-04-26T15:51:15,3,revise,active
5320AWB32929,blgatjg,,,Tredegar Comprehensive School,,Tredegar Comp,,Tredegar Comprehensive School,,Stable Lane,,,,at,,S,E0053950,Tredegar,,,,,,,true,UKOS,314453,208354,-3.241093091,51.767300256,BCT,MKD,OTH,,,,004,2000-01-01T00:00:00,2025-06-02T14:33:41,5,revise,active
5320AWB32932,blgatdg,,,Georgetown Playground,,Georgetown,,Georgetown Playground,,Park Place,,,,nr,,N,E0035325,Georgetown,Tredegar,,,,,,true,UKOS,314527,208554,-3.240070282,51.769109362,BCT,MKD,OTH,,,,004,2000-01-01T00:00:00,2025-06-02T14:34:51,5,revise,active
5320AWB32933,blgatdj,,,Georgetown Post Office,,Post Office,,Georgetown Post Office,,Park Road,,,,nr,,NW,E0035325,Georgetown,Tredegar,,,,,,true,UKOS,314513,208755,-3.240322657,51.770913998,BCT,MKD,OTH,,,,004,2000-01-01T00:00:00,2025-06-11T10:30:07,8,revise,active
5320AWB32934,blgatdp,,,Presbyterian Church,,,,Georgetown Presbyterian Church,,Park Place,,,,o/s,,SE,E0035325,Georgetown,Tredegar,,,,,,true,UKOS,314589,208286,-3.239106126,51.766714483,BCT,MKD,OTH,,,,004,2000-01-01T00:00:00,2025-06-02T14:37:07,4,revise,active
5320AWB32935,blgatdt,,,Presbyterian Church,,,,Georgetown Presbyterian Church,,Park Place,,,,opp,,NW,E0035325,Georgetown,Tredegar,,,,,,true,UKOS,314573,208297,-3.239340634,51.766810917,BCT,MKD,OTH,,,,004,2000-01-01T00:00:00,2025-06-02T14:37:39,4,revise,active
5320AWB32936,blgatjt,,,Garibaldi Bridge,,,,,,Vale Terrace,,,,nr,,SE,E0035325,Georgetown,Tredegar,,,,,,true,UKOS,314701,208012,-3.23741616,51.764268607,BCT,MKD,OTH,,,,004,2000-01-01T00:00:00,2025-06-02T14:38:15,5,revise,active
5320AWB32937,blgatjw,,,Garibaldi Bridge,,,,,,Vale Terrace,,,,nr,,NW,E0035325,Georgetown,Tredegar,,,,,,true,UKOS,314687,208015,-3.237619712,51.764293438,BCT,MKD,OTH,,,,004,2000-01-01T00:00:00,2025-06-02T14:38:41,5,revise,active
5320AWB32938,blgatgj,,,Glyn Terrace,,,,,,Pochin Crescent,,,,nr,,NW,E0035325,Georgetown,Tredegar,,,,,,true,UKOS,314838,207804,-3.235380427,51.762419784,BCT,MKD,OTH,,,,004,2000-01-01T00:00:00,2024-04-26T15:51:00,5,revise,active
5320AWB32939,blgatma,,,Glyn Terrace,,,,,,Vale Terrace,,,,nr,,SE,E0035325,Georgetown,Tredegar,,,,,,true,UKOS,314816,207844,-3.235708942,51.762775992,BCT,MKD,OTH,,,,004,2000-01-01T00:00:00,2024-04-26T15:51:00,5,revise,active
5320AWB32941,blgatdm,,,Glyn Chapel,,,,,,Pochin Crescent,,,,after,,SE,E0035325,Georgetown,Tredegar,,,,,,true,UKOS,315039,207624,-3.23242464,51.760832342,BCT,MKD,OTH,,,,004,2000-01-01T00:00:00,2024-04-26T15:50:42,3,revise,active
5320AWB32951,blgdjwt,,,Blaina Post Office,,Post Office,,Blaina Post Office,,High Street,,,,after,,N,E0035306,Blaina,,,,,,,true,UKOS,320038,208116,-3.160122582,51.765987498,BCT,MKD,OTH,,,,004,2000-01-01T00:00:00,2025-06-11T10:30:06,7,revise,active
5320AWB32952,blgdmad,,,Blaina Post Office,,Post Office,,Blaina Post Office,,High Street,,,,after,,S,E0035306,Blaina,,,,,,,true,UKOS,320059,208046,-3.15980221,51.765361257,BCT,MKD,OTH,,,,004,2000-01-01T00:00:00,2025-06-11T10:30:06,7,revise,active
5320AWB32953,blgampm,,,Coedcae Community Centre,,Coedcae Community,,Coedcae Community Centre,,Attlee Road,,,,opp,,SE,E0035313,Coedcae,Nant-y-glo,,,,,,true,UKOS,320153,209163,-3.158697553,51.775415633,BCT,MKD,OTH,,,,004,2000-01-01T00:00:00,2025-06-02T15:03:50,6,revise,active
5320AWB32954,blgampt,,,Coedcae Community Centre,,Coedcae Community,,Coedcae Community Centre,,Attlee Road,,,,o/s,,NW,E0035313,Coedcae,Nant-y-glo,,,,,,true,UKOS,320144,209164,-3.1588282,51.775423336,BCT,MKD,OTH,,,,004,2000-01-01T00:00:00,2025-06-02T15:04:41,6,revise,active
5320AWB32955,blgdpjd,,,Attlee Road Shops,,,,,,Attlee Road,,,,nr,,NW,E0035313,Coedcae,Nant-y-glo,,,,,,true,UKOS,319987,209476,-3.161175347,51.778210191,BCT,MKD,OTH,,,,004,2000-01-01T00:00:00,2024-04-26T15:51:05,3,revise,active
5320AWB32956,blgdpja,,,Attlee Road Shops,,,,,,Attlee Road,,,,nr,,SE,E0035313,Coedcae,Nant-y-glo,,,,,,true,UKOS,319955,209553,-3.161656858,51.778897776,BCT,MKD,OTH,,,,004,2000-01-01T00:00:00,2025-06-02T15:06:02,4,revise,active
5320AWB32957,blgamdj,,,Verwey Road,,,,,,Attlee Road,,,,before,,NW,E0035313,Coedcae,Nant-y-glo,,,,,,true,UKOS,319895,209733,-3.162567965,51.780507231,BCT,MKD,OTH,,,,004,2000-01-01T00:00:00,2024-04-26T15:51:19,3,revise,active
5320AWB32958,blgamdm,,,Verwey Road,,,,,,Attlee Road,,,,after,,SE,E0035313,Coedcae,Nant-y-glo,,,,,,true,UKOS,319900,209735,-3.162495965,51.780525926,BCT,MKD,OTH,,,,004,2000-01-01T00:00:00,2024-04-26T15:51:19,3,revise,active
5320AWB32959,blgawmj,,,Ffoesmaen Inn,,,,Ffoesmaen Inn PH,,Gwent Terrace,,,,after,,SE,E0035333,Nant-y-glo,,,,,,,true,UKOS,319715,210050,-3.165250013,51.783330965,BCT,MKD,OTH,,,,004,2000-01-01T00:00:00,2024-04-26T15:50:47,4,revise,active
5320AWB32960,blgawmp,,,Ffoesmaen Inn,,,,Ffoesmaen Inn PH,,Gwent Errace,,,,before,,NW,E0035333,Nant-y-glo,,,,,,,true,UKOS,319703,210058,-3.165425785,51.783401154,BCT,MKD,OTH,,,,004,2000-01-01T00:00:00,2024-04-26T15:50:47,4,revise,active
5320AWB32961,blgawpg,,,School Avenue,,,,,,Milfraen Avenue,,,,after,,SW,E0035333,Nant-y-glo,,,,,,,true,UKOS,319570,210161,-3.16737729,51.784307908,BCT,MKD,OTH,,,,004,2000-01-01T00:00:00,2024-04-26T15:51:16,3,revise,active
5320AWB32962,blgawpj,,,School Avenue,,,,,,Milfraen Avenue,,,,before,,NE,E0035333,Nant-y-glo,,,,,,,true,UKOS,319581,210172,-3.167220414,51.784408372,BCT,MKD,OTH,,,,004,2000-01-01T00:00:00,2024-04-26T15:51:16,3,revise,active
5320AWB32963,blgawtj,,,Brynhyfryd Terrace,,,,,,Vincent Avenue,,,,nr,,NE,E0035333,Nant-y-glo,,,,,,,true,UKOS,319514,210263,-3.168212618,51.785216738,BCT,MKD,OTH,,,,004,2000-01-01T00:00:00,2025-06-02T15:13:44,3,revise,active
5320AWB32964,blgawtm,,,Brynhyfryd Terrace,,,,,,Vincent Avenue,,,,nr,,SW,E0035333,Nant-y-glo,,,,,,,true,UKOS,319527,210309,-3.168034881,51.785632111,BCT,MKD,OTH,,,,004,2000-01-01T00:00:00,2024-04-26T15:50:59,2,revise,active
5320AWB32965,blgawtd,,,Twynderwyn Flats,,,,,,Garn Road,,,,before,,NE,E0035333,Nant-y-glo,,,,,,,true,UKOS,319519,210542,-3.168204952,51.787725431,BCT,MKD,OTH,,,,004,2000-01-01T00:00:00,2024-04-26T15:50:47,3,revise,active
5320AWB32966,blgawtg,,,Twynderwyn Flats,,,,,,Garn Road,,,,after,,SW,E0035333,Nant-y-glo,,,,,,,true,UKOS,319531,210546,-3.168031946,51.787763116,BCT,MKD,OTH,,,,004,2000-01-01T00:00:00,2024-04-26T15:50:47,3,revise,active
5320AWB32971,blgajmw,,,Brynmawr Bus Station Stand1,,Brynmawr Bus Station,,,,Catholic Road,,,,Stand 1,,,E0053945,Brynmawr,,,,,,,true,UKOS,319106,211630,-3.174445213,51.797441265,BCS,,,,,,004,2000-01-01T00:00:00,2025-06-02T15:18:46,4,revise,active
5320AWB32972,blgajpa,,,Brynmawr Bus Station Stand 2,,Brynmawr Bus Station,,,,Catholic Road,,,,Stand 2,,,E0053945,Brynmawr,,,,,,,true,UKOS,319125,211629,-3.174166,51.797435,BCS,,,,,,004,2000-01-01T00:00:00,2025-06-02T15:19:43,9,revise,active
5320AWB32973,blgapga,,,Bangor Road,,,,,,Bangor Road,,,,in,,NW,E0053944,Beaufort,,,,,,,true,UKOS,317336,211500,-3.200075004,51.796018193,BCT,CUS,OTH,,,,004,2000-01-01T00:00:00,2024-04-26T15:51:05,2,revise,active
5320AWB32974,blgapjt,,,Awelfryn Close,,,,,,Frost Road,,,,after,,NW,E0053944,Beaufort,,,,,,,true,UKOS,317047,211622,-3.204293884,51.797072005,BCT,CUS,OTH,,,,004,2000-01-01T00:00:00,2024-04-26T15:50:43,3,revise,active
5320AWB32975,blgapjw,,,Awelfryn Close,,,,,,Frost Road,,,,before,,SE,E0053944,Beaufort,,,,,,,true,UKOS,317028,211639,-3.204573408,51.797221996,BCT,CUS,OTH,,,,004,2000-01-01T00:00:00,2024-04-26T15:50:43,3,revise,active
5320AWB32976,blgatwt,,,Church View,,,,,,Hawthorn Road,,,,before,,SE,E0053944,Beaufort,,,,,,,true,UKOS,317018,211431,-3.204668543,51.795350795,BCT,CUS,OTH,,,,004,2000-01-01T00:00:00,2024-04-26T15:51:07,3,revise,active
5320AWB32977,blgawad,,,Church View,,,,,,Hawthorn Road,,,,before,,NW,E0053944,Beaufort,,,,,,,true,UKOS,317029,211418,-3.204505963,51.795235572,BCT,CUS,OTH,,,,004,2000-01-01T00:00:00,2024-04-26T15:51:07,3,revise,active
5320AWB32978,blgdjdt,,,Tafarn Ty Uchaf,,,,Tafarn Ty Uchaf,,Trefil Road,,,,at,,SE,E0035350,Trefil,,,,,,,true,UKOS,311983,212918,-3.278036631,51.807946384,BCT,CUS,OTH,,,,004,2000-01-01T00:00:00,2024-04-26T15:50:59,2,revise,active
5320AWB32979,blgawjp,,,Bryn Rhosyn,,,,Plymouth Arms PH,,Merthyr Road,,,,after,,SW,E0035332,Nant-y-bwch,Tredegar,,,,,,true,UKOS,312714,210413,-3.26680539,51.785544188,BCT,MKD,OTH,,,,004,2000-01-01T00:00:00,2024-04-26T15:50:40,6,revise,active
5320AWB32980,blgawjt,,,Bryn Rhosyn,,,,Plymouth Arms PH,,Merthyr Road,,,,after,,NE,E0035332,Nant-y-bwch,Tredegar,,,,,,true,UKOS,312805,210439,-3.265493033,51.785792105,BCT,MKD,OTH,,,,004,2000-01-01T00:00:00,2024-04-26T15:50:40,5,revise,active
5320AWB32981,blgawjg,,,Nag's Head,,,,Nag`s Head PH,,Merthyr Road,,,,opp,,SW,E0035348,Tafarnaubach,,,,,,,true,UKOS,312118,210316,-3.275418823,51.784578857,BCT,MKD,OTH,,,,004,2000-01-01T00:00:00,2025-06-02T15:29:43,4,revise,active
5320AWB32982,blgawjm,,,Nag's Head,,,,Nag`s Head PH,,Merthyr Road,,,,o/s,,NE,E0035348,Tafarnaubach,,,,,,,true,UKOS,312097,210319,-3.275723937,51.78460252,BCT,MKD,OTH,,,,004,2000-01-01T00:00:00,2025-06-02T15:30:23,4,revise,active
5320AWB32990,blgdgpt,,,Coach & Horses,,,,Coach & Horses PH,,Charles Street,,,,opp,,SE,E0053950,Tredegar,,,,,,,true,UKOS,313897,210050,-3.249569448,51.782464768,BCT,CUS,OTH,,,,004,2000-01-01T00:00:00,2024-04-26T15:50:44,3,revise,active
5320AWB32991,blgdgpw,,,Coach & Horses,,,,Coach & Horses PH,,Charles Street,,,,o/s,,NW,E0053950,Tredegar,,,,,,,true,UKOS,313878,210052,-3.249845302,51.782479818,BCT,CUS,OTH,,,,004,2000-01-01T00:00:00,2024-04-26T15:50:44,3,revise,active
5320AWB32992,blgamda,,,Cefn Rhos,,,,,,Queen Victoria Street,,,,before,,NE,N0075342,Cefn Golau,Tredegar,,,,,,true,UKOS,313835,208713,-3.250135729,51.770437061,BCT,MKD,OTH,,,,004,2000-01-01T00:00:00,2024-04-26T15:50:43,3,revise,active
5320AWB32993,blgamdg,,,Cefn Rhos,,,,,,Queen Victoria Street,,,,after,,SW,N0075342,Cefn Golau,Tredegar,,,,,,true,UKOS,313835,208704,-3.250133493,51.770356161,BCT,MKD,OTH,,,,004,2000-01-01T00:00:00,2024-04-26T15:50:43,3,revise,active
5320AWB32994,blgamat,,,Attlee Way Middle,,,,,,Attlee Way,,,,o/s Post Office,,N,N0075342,Cefn Golau,Tredegar,,,,,,true,UKOS,313652,208419,-3.252713961,51.767766091,BCT,CUS,OTH,,,,004,2000-01-01T00:00:00,2024-04-26T15:51:05,3,revise,active
5320AWB32995,blgamaw,,,Attlee Way Middle,,,,,,Attlee Way,,,,opp Shops,,S,N0075342,Cefn Golau,Tredegar,,,,,,true,UKOS,313661,208432,-3.252586807,51.767884337,BCT,CUS,OTH,,,,004,2000-01-01T00:00:00,2024-04-26T15:51:05,3,revise,active
5320AWB32996,blgajwt,,,Park Hill,,,,,,Attlee Way,,,,nr,,SE,N0075342,Cefn Golau,Tredegar,,,,,,true,UKOS,313882,208069,-3.249294894,51.764655444,BCT,CUS,OTH,,,,004,2000-01-01T00:00:00,2024-04-26T15:51:13,3,revise,active
5320AWB32997,blgamad,,,Park Hill,,,,,,Attlee Way,,,,nr,,NW,N0075342,Cefn Golau,Tredegar,,,,,,true,UKOS,313864,208073,-3.249556649,51.764688628,BCT,CUS,OTH,,,,004,2000-01-01T00:00:00,2024-04-26T15:51:13,3,revise,active
5320AWB32998,blgamag,,,Gainsborough Road,,,,,,Gainsborough Road,,,,in,,S,N0075342,Cefn Golau,Tredegar,,,,,,true,UKOS,313484,208504,-3.255169102,51.768504176,BCT,MKD,OTH,,,,004,2000-01-01T00:00:00,2024-04-26T15:51:10,2,revise,active
5320AWB32999,blgamaj,,,Walter Conway Avenue,,,,,,Walter Conway Avenue,,,,in,,N,N0075342,Cefn Golau,Tredegar,,,,,,true,UKOS,313551,208375,-3.25416626,51.767354973,BCT,CUS,OTH,,,,004,2000-01-01T00:00:00,2024-04-26T15:51:20,3,revise,active
5320AWB33000,blgamam,,,Cefn Golau Cemetery,,,,Cefn Golau Cemetery,,B4256,,,,o/s,,SW,N0075342,Cefn Golau,Tredegar,,,,,,true,UKOS,313834,207833,-3.249931655,51.762526666,BCT,CUS,OTH,,,,004,2000-01-01T00:00:00,2024-04-26T15:50:52,4,revise,active
5320AWB33001,blgamap,,,Cefn Golau Cemetery,,,,Cefn Golau Cemetery,,B4256,,,,opp,,NE,N0075342,Cefn Golau,Tredegar,,,,,,true,UKOS,313844,207846,-3.24978992,51.762640379,BCT,CUS,OTH,,,,004,2000-01-01T00:00:00,2024-04-26T15:50:52,4,revise,active
5320AWB33004,blgdgta,,,Congregational Church,,Congregational,,Castle St Congregationalists,,Queen Victoria Street,,,,nr,,NE,E0053950,Tredegar,,,,,,,false,UKOS,314050,208944,-3.247077915,51.772546595,BCT,CUS,OTH,,,,004,2000-01-01T00:00:00,2025-06-02T15:38:35,4,revise,active
5320AWB33005,blgdgtd,,,Congregational Church,,Castle Street Congregational Church,,Castle St Congregationalists,,Queen Victoria Street,,,,nr,,SW,E0053950,Tredegar,,,,,,,false,UKOS,314051,208928,-3.247059461,51.772402926,BCT,CUS,OTH,,,,004,2000-01-01T00:00:00,2024-04-26T15:50:46,2,revise,active
5320AWB33006,blgatmj,,,The Glen,,,,,,Whitworth Terrace,,,,nr,,S,E0035325,Georgetown,Tredegar,,,,,,true,UKOS,314964,208070,-3.233620361,51.764830024,BCT,MKD,OTH,,,,004,2000-01-01T00:00:00,2024-04-26T15:51:18,4,revise,active
5320AWB33007,blgatmp,,,The Glen,,,,,,Whitworth Terrace,,,,nr,,N,E0035325,Georgetown,Tredegar,,,,,,true,UKOS,314953,208083,-3.233782904,51.764945208,BCT,MKD,OTH,,,,004,2000-01-01T00:00:00,2024-04-26T15:51:18,4,revise,active
5320AWB33008,blgatgt,,,Ty Gwyn,,,,,,Rhyd Terrace,,,,nr,,SE,E0035325,Georgetown,Tredegar,,,,,,true,UKOS,315067,207800,-3.232062117,51.762418655,BCT,CUS,OTH,,,,004,2000-01-01T00:00:00,2025-06-02T15:40:14,5,revise,active
5320AWB33009,blgatgw,,,Ty Gwyn,,,,,,Rhyd Terrace,,,,nr,,NW,E0054827,Peacehaven,Tredegar,,,,,,true,UKOS,315043,207822,-3.232415171,51.762612767,BCT,CUS,OTH,,,,004,2000-01-01T00:00:00,2024-04-26T15:51:01,4,revise,active
5320AWB33010,blgatdw,,,Peacehaven Allotments,,Peacehaven,,,,Peacehaven,,,,opp,,NW,E0054827,Peacehaven,Tredegar,,,,,,true,UKOS,315153,207494,-3.230741492,51.759681081,BCT,MKD,OTH,,,,004,2000-01-01T00:00:00,2025-06-02T15:42:07,5,revise,active
5320AWB33011,blgatga,,,Peacehaven Allotments,,Peacehaven,,,,Peacehaven,,,,o/s,,SE,E0054827,Peacehaven,Tredegar,,,,,,true,UKOS,315168,207496,-3.230524701,51.759701334,BCT,MKD,OTH,,,,004,2000-01-01T00:00:00,2025-06-02T15:41:21,5,revise,active
5320AWB33012,blgatgd,,,Peacehaven Court,,,,,,Peacehaven,,,,before,,NW,E0054827,Peacehaven,Tredegar,,,,,,true,UKOS,315277,207441,-3.228932376,51.759223463,BCT,MKD,OTH,,,,004,2000-01-01T00:00:00,2024-04-26T15:51:14,3,revise,active
5320AWB33013,blgdjdw,,,Troedrhiw-gwair,,,,,,The Rhyd,,,,at,,S,E0035351,Troedrhiw-gwair,,,,,,,true,UKOS,315821,206666,-3.220864495,51.752339113,BCT,CUS,OTH,,,,004,2000-01-01T00:00:00,2025-06-02T15:59:35,4,revise,active
5320AWB33014,blgatgm,,,Pochin Crescent,,,,,,Pochin Crescent,,,,opp 72,,NW,E0054827,Peacehaven,Tredegar,,,,,,true,UKOS,315073,207520,-3.231906677,51.759902652,BCT,MKD,OTH,,,,004,2000-01-01T00:00:00,2024-04-26T15:51:14,3,revise,active
5320AWB33015,blgatgp,,,Woodfield Road,,,,,,Poplar Road,,,,before,,E,E0035325,Georgetown,Tredegar,,,,,,true,UKOS,314827,208172,-3.235630109,51.765726047,BCT,MKD,OTH,,,,004,2000-01-01T00:00:00,2024-04-26T15:51:21,2,revise,active
5320AWB33018,blgdmjg,,,Thomas Ellis Way,,,,,,Thomas Ellis Way,,,,o/s 1,,N,E0035325,Georgetown,Tredegar,,,,,,true,UKOS,314662,208914,-3.238203042,51.772370687,BCT,MKD,OTH,,,,004,2000-01-01T00:00:00,2024-04-26T15:51:19,3,revise,active
5320AWB33019,blgdmjm,,,St James Way,,,,,,Thomas Ellis Way,,,,after,,N,E0035325,Georgetown,Tredegar,,,,,,true,UKOS,314688,209152,-3.23788487,51.774514024,BCT,MKD,OTH,,,,004,2000-01-01T00:00:00,2024-04-26T15:51:17,3,revise,active
5320AWB33020,blgdmjp,,,St James Way,,,,,,Thomas Ellis Way,,,,after,,N,E0035325,Georgetown,Tredegar,,,,,,true,UKOS,314693,209261,-3.237839235,51.775494581,BCT,MKD,OTH,,,,004,2000-01-01T00:00:00,2024-04-26T15:51:17,3,revise,active
5320AWB33021,blgdatj,,,Fairfield,,,,,,Thomas Ellis Way,,,,after,,N,E0035345,Sirhowy,Tredegar,,,,,,true,UKOS,314663,209924,-3.238437143,51.781449663,BCT,MKD,OTH,,,,004,2000-01-01T00:00:00,2024-04-26T15:51:09,3,revise,active
5320AWB33022,blgdjad,,,Sirhowy Bridge,,,,Britannia Inn PH,,Church Street,,,,nr,,N,E0035345,Sirhowy,Tredegar,,,,,,true,UKOS,314179,209809,-3.245422893,51.780341821,BCT,MKD,OTH,,,,004,2000-01-01T00:00:00,2025-06-02T16:03:31,5,revise,active
5320AWB33023,blgdjag,,,Sirhowy Bridge,,,,Britannia Inn PH,,Church Street,,,,nr,,S,E0035345,Sirhowy,Tredegar,,,,,,true,UKOS,314188,209810,-3.245292714,51.780352192,BCT,MKD,OTH,,,,004,2000-01-01T00:00:00,2025-06-02T16:04:02,5,revise,active
5320AWB33188,blgagja,,,New Road Garage,,,,Acorn Motors,,A4048,,,,o/s former,,N,E0035303,Bedwellty Pits,,,,,,,true,UKOS,315140,206959,-3.230799005,51.754869999,BCT,MKD,OTH,,,,004,2000-01-01T00:00:00,2024-04-26T15:51:13,8,revise,active
5320AWB33189,blgagjd,,,New Road Garage,,,,Acorn Motors,,A4048,,,,opp former,,S,E0035303,Bedwellty Pits,,,,,,,true,UKOS,315152,206920,-3.230615668,51.754521249,BCT,MKD,OTH,,,,004,2000-01-01T00:00:00,2024-04-26T15:51:13,6,revise,active
5320AWB33190,blgagjg,,,Coronation Villas,,,,Coronation Villas,,A4048,,,,o/s,,NW,E0035303,Bedwellty Pits,,,,,,,true,UKOS,315221,206457,-3.229503243,51.750369803,BCT,MKD,OTH,,,,004,2000-01-01T00:00:00,2024-04-26T15:51:08,5,revise,active
5320AWB33191,blgagjm,,,Coronation Villas,,,,Coronation Villas,,A4048,,,,opp,,SE,E0035303,Bedwellty Pits,,,,,,,true,UKOS,315222,206472,-3.229492423,51.75050479,BCT,MKD,OTH,,,,004,2000-01-01T00:00:00,2024-04-26T15:51:08,6,revise,active
5320AWB33192,blgagdt,,,Bedwellty Pits,,,,,,A4048,,,,before,,NW,E0035303,Bedwellty Pits,,,,,,,true,UKOS,315549,205990,-3.224639472,51.746221538,BCT,MKD,OTH,,,,004,2000-01-01T00:00:00,2024-04-26T15:50:55,3,revise,active
5320AWB33193,blgagdw,,,Bedwellty Pits,,,,,,A4048,,,,after,,SE,E0035303,Bedwellty Pits,,,,,,,true,UKOS,315554,205992,-3.224567553,51.746240271,BCT,MKD,OTH,,,,004,2000-01-01T00:00:00,2024-04-26T15:50:55,3,revise,active
5320AWB33194,blgdajg,,,Pochin Houses,,,,,,A4048,,,,at,,NW,N0075346,Pochin,,,,,,,true,UKOS,316036,204677,-3.217269895,51.734492194,BCT,MKD,OTH,,,,004,2000-01-01T00:00:00,2024-04-26T15:51:14,3,revise,active
5320AWB33195,blgdajm,,,Pochin Houses,,,,,,A4048,,,,at,,SE,N0075346,Pochin,,,,,,,true,UKOS,316044,204682,-3.217155284,51.734538339,BCT,MKD,OTH,,,,004,2000-01-01T00:00:00,2024-04-26T15:51:15,3,revise,active
5320AWB33196,blgdajp,,,Water Meter,,,,,,Newport Road,,,,nr,,SE,N0075346,Pochin,,,,,,,true,UKOS,316292,204308,-3.213474835,51.731213562,BCT,MKD,OTH,,,,004,2000-01-01T00:00:00,2024-04-26T15:51:20,3,revise,active
5320AWB33197,blgdajt,,,Water Meter,,,,,,Newport Road,,,,nr,,NW,N0075346,Pochin,,,,,,,true,UKOS,316285,204307,-3.213575928,51.731203527,BCT,MKD,OTH,,,,004,2000-01-01T00:00:00,2024-04-26T15:51:20,3,revise,active
5320AWL26204,blgdgwm,,,Tredegar Lidl Stand 1,,,,Lidl,,Stockton Way,,,,o/s,,NW,E0053950,Tredegar,,,,,,,true,UKOS,314109,209338,-3.246320532,51.776092611,BCT,MKD,OTH,,,,004,2000-01-01T00:00:00,2025-06-02T16:08:23,10,revise,active
5320AWM26238,blgdadp,,,Libanus Corner,,,,,,Steelworks Road,,,,nr,,SE,E0053947,Ebbw Vale,,,,,,,true,UKOS,316820,210102,-3.20721984,51.783374937,BCT,MKD,OTH,,,,004,2000-01-01T00:00:00,2024-04-26T15:51:12,3,revise,active
5320AWZ26355,blgajtp,,,Brynmawr Comprehensive School,,Brynmawr Comp,,Brynmawr Comprehensive School,,Intermediate Road,,,,nr,,E,E0053945,Brynmawr,,,,,,,false,UKOS,319571,212367,-3.16787499,51.804133415,BCT,MKD,OTH,,,,004,2000-01-01T00:00:00,2025-06-02T16:09:40,5,revise,active
5320CPZ03837,blgdapd,,,Reservoir Road,,,,,,Honeyfield Road,,,,before,,SW,E0035341,Rassau,Ebbw Vale,,,,,,true,UKOS,316301,212104,-3.215225331,51.801288713,BCT,MKD,OTH,,,,004,2000-01-01T00:00:00,2024-06-05T15:56:19,5,revise,active
5320CPZ03838,blgdapg,,,Rowan Way,,,,,,Honeyfield Road,,,,after,,NE,E0035341,Rassau,Ebbw Vale,,,,,,true,UKOS,316260,212088,-3.215816009,51.801143424,BCT,MKD,OTH,,,,004,2000-01-01T00:00:00,2024-04-26T15:51:16,3,revise,active
5320CPZ03840,blgdapa,,,Stonebridge Road,,,,,,Stonebridge Road,,,,opp,,SW,E0035341,Rassau,Ebbw Vale,,,,,,true,UKOS,315493,212103,-3.226940105,51.801162716,BCT,MKD,OTH,,,,004,2000-01-01T00:00:00,2024-04-26T15:51:17,3,revise,active
5320CPZ03841,blgawmd,,,Cwm Crachen,,,,,,Porters Road,,,,nr,,NW,E0035333,Nant-y-glo,,,,,,,true,UKOS,319363,210801,-3.170526393,51.790031123,BCT,MKD,OTH,,,,004,2000-01-01T00:00:00,2024-04-26T15:50:45,3,revise,active
5320CPZ03842,blgawmg,,,Cwm Crachen,,,,,,Porters Road,,,,nr,,SE,E0035333,Nant-y-glo,,,,,,,true,UKOS,319366,210805,-3.170483838,51.790067513,BCT,MKD,OTH,,,,004,2000-01-01T00:00:00,2024-04-26T15:50:45,3,revise,active
5320CPZ03843,blgdpjg,,,Tredegar Bus Station,,,,Tredegar Bus Station,,Bank Lane,,,,o/s,,,E0053950,Tredegar,,,,,,,true,UKOS,314115,209011,-3.2461526,51.773154159,BCS,,,,,,004,2000-01-01T00:00:00,2024-04-26T15:50:50,7,revise,active
5320CPZ03844,blgatmd,,,Vale View,,,,,,Rhyd Terrace,,,,before,,NW,E0054827,Peacehaven,Tredegar,,,,,,true,UKOS,315206,207606,-3.230001135,51.760695886,BCT,MKD,OTH,,,,004,2000-01-01T00:00:00,2024-04-26T15:51:19,4,revise,active
5320CPZ03845,blgatmg,,,Vale View,,,,Rhyd Cottage,,Rhyd Terrace,,,,after,,SE,E0054827,Peacehaven,Tredegar,,,,,,true,UKOS,315212,207609,-3.229914955,51.760723762,BCT,MKD,OTH,,,,004,2000-01-01T00:00:00,2024-04-26T15:51:19,4,revise,active
5320EBWVPWY0,,,,Ebbw Vale Parkway Rail Station,,,,,,Glan Ebbw Terrace,,,,Car Park Entrance,,,E0053947,Ebbw Vale,,,,,,,false,UKOS,317467,207184,-3.197148461,51.75724074,RSE,,,,,,004,2014-03-04T09:42:38,2024-04-26T15:50:50,6,revise,active
5320EBWVPWY1,,,,Ebbw Vale Parkway Rail Station,,,,,,Glan Ebbw Terrace,,,,Footpath Entrance,,,E0053947,Ebbw Vale,,,,,,,false,UKOS,317494,207176,-3.196755472,51.757172811,RSE,,,,,,004,2014-03-04T09:44:18,2024-04-26T15:50:50,5,revise,active
5320GWX16377,blgajpd,,,Brynmawr Bus Station Stand 3,,Brynmawr Bus Station,,,,Catholic Road,,,,Stand 3,,,E0053945,Brynmawr,,,,,,,true,UKOS,319143,211627,-3.173908098,51.797419655,BCS,,,,,,004,2000-01-01T00:00:00,2025-06-02T16:19:17,5,revise,active
5320GWX16384,blgajdj,,,Penuel Square,,,,,,A4046,,,,nr,,N,E0053947,Ebbw Vale,,,,,,,true,UKOS,316970,208929,-3.204764952,51.772853098,BCT,MKD,OTH,,,,004,2000-01-01T00:00:00,2024-04-26T15:50:57,4,revise,active
5320GWX16385,blgajdm,,,Penuel Square,,,,,,A4046,,,,nr,,S,E0053947,Ebbw Vale,,,,,,,true,UKOS,316978,208975,-3.204660047,51.773267783,BCT,MKD,OTH,,,,004,2000-01-01T00:00:00,2024-04-26T15:50:57,4,revise,active
5320GWX16386,blgdjpt,,,Wetlands,,,,,,Victoria Street,,,,nr,,SE,E0035358,Waunllwyd,,,,,,,true,UKOS,317435,206328,-3.197408396,51.749541342,BCT,MKD,OTH,,,,004,2000-01-01T00:00:00,2024-04-26T15:51:21,2,revise,active
5320GWX16387,blgdjpw,,,Brecon Heights,,,,,,Queen Street,,,,before,,S,E0035358,Waunllwyd,,,,,,,true,UKOS,317237,206892,-3.200410317,51.754581937,BCT,MKD,OTH,,,,004,2000-01-01T00:00:00,2024-04-26T15:51:06,4,revise,active
5320GWX16388,blgdjtg,,,Howard`s Way,,,,,,Augusta Street,,,,nr,,S,E0035358,Waunllwyd,,,,,,,true,UKOS,317201,207107,-3.200983018,51.756509264,BCT,MKD,OTH,,,,004,2000-01-01T00:00:00,2024-04-26T15:51:11,2,revise,active
5320GWX16389,blgajpg,,,Brynmawr Bus Station Stand 4,,Brynmawr Bus Station,,,,Catholic Road,,,,Stand 4,,,E0053945,Brynmawr,,,,,,,true,UKOS,319141,211641,-3.173940362,51.797545213,BCS,,,,,,004,2000-01-01T00:00:00,2024-04-26T15:50:49,4,revise,active
5320GWZ02705,blgadmt,,,Abertillery Tesco,,,,Abertillery Tesco,,Grounds,,,,in,,SE,E0053943,Abertillery,,,,,,,true,UKOS,321588,203956,-3.136727195,51.728811511,BCT,MKD,OTH,,,,004,2000-01-01T00:00:00,2024-04-26T15:51:00,4,revise,active
5320GWZ02733,blgawpa,,,Garn Cross Medical Centre,,Garn Cross,,Garn Cross Medical Centre,,Garn Cross,,,,o/s,,SE,E0035333,Nant-y-glo,,,,,,,true,UKOS,319539,209933,-3.167773654,51.782253917,BCT,MKD,OTH,,,,004,2000-01-01T00:00:00,2025-06-02T16:22:51,3,revise,active
5320GWZ02734,blgdjwg,,,Roseheyworth Primary,,,,Rose Heyworth Millenium School,,Rose Heyworth Road,,,,opp,,SE,E0035305,Blaenau Gwent,Abertillery,,,,,,true,UKOS,320841,205251,-3.147835742,51.740352207,BCT,MKD,OTH,,,,004,2000-01-01T00:00:00,2025-06-02T16:26:04,6,revise,active
5320GWZ02735,blgdjwj,,,Roseheyworth Primary,,,,Rose Heyworth Millenium School,,Rose Heyworth Road,,,,o/s,,NW,E0035305,Blaenau Gwent,Abertillery,,,,,,true,UKOS,320836,205226,-3.147902443,51.740126768,BCT,MKD,OTH,,,,004,2000-01-01T00:00:00,2025-06-02T16:25:22,6,revise,active
5320GWZ02736,blgdgap,,,Browns Corner,,,,Old Post Office,,Bridge Street,,,,nr,,SE,E0035346,Six Bells,,,,,,,true,UKOS,322183,202945,-3.127887849,51.719810965,BCT,MKD,OTH,,,,004,2000-01-01T00:00:00,2024-04-26T15:51:06,2,revise,active
5320GWZ02737,blgampw,,,Blaina Community Centre,,Blaina Community,,Blaina Community Centre,,High Street,,,,before,,SE,E0035306,Blaina,,,,,,,false,UKOS,319942,208545,-3.161612415,51.769830127,BCT,MKD,OTH,,,,004,2000-01-01T00:00:00,2025-06-02T16:28:16,5,revise,active
5320GWZ02738,blgamta,,,Blaina Community Centre,,Blaina Community,,Blaina Community Centre,,High Street,,,,after,,NW,E0035306,Blaina,,,,,,,false,UKOS,319936,208541,-3.161698425,51.769793311,BCT,MKD,OTH,,,,004,2000-01-01T00:00:00,2025-06-02T16:28:58,5,revise,active
5320LLHLETH0,,,,Llanhilleth Rail Station,,,,,,Commercial Road,,,,Entrance,,,E0053948,Llanhilleth,,,,,,,false,UKOS,321690,200763,-3.134532081,51.700127427,RSE,,,,,,004,2014-03-04T09:46:37,2024-04-26T15:50:50,3,revise,active
5320MTZ04816,blgapwa,,,Tesco,,,,Ebbw Vale Tesco,,A4046,,,,o/s,,NW,E0053947,Ebbw Vale,,,,,,,false,UKOS,316384,210483,-3.21363071,51.786734675,BCT,MKD,OTH,,,,004,2000-01-01T00:00:00,2024-04-26T15:51:00,2,revise,active
5320MTZ04818,blgdatd,,,Aneurin Bevan Memorial,,Aneurin Bevan,,Aneurin Bevan Momorial,,Beaufort Road,,,,nr,,NE,E0035345,Sirhowy,Tredegar,,,,,,false,UKOS,315250,210620,-3.230100391,51.787795302,BCT,MKD,OTH,,,,004,2000-01-01T00:00:00,2025-06-02T16:30:57,6,revise,active
5320MTZ04819,blgdatg,,,Tredegar Aneurin Bevan Memorial,,Aneurin Bevan,,Aneurin Bevan Memorial,,Beaufort Road,,,,nr,,SW,E0053950,Tredegar,,,,,,,false,UKOS,315412,210710,-3.227774183,51.788624175,BCT,MKD,OTH,,,,004,2000-01-01T00:00:00,2025-06-23T10:30:02,13,revise,active
5320MTZ04820,blgdgwp,,,Tredegar Lidl Stand 3,,,,Lidl,,Stockton Way,,,,opp,,SE,E0053950,Tredegar,,,,,,,false,UKOS,314109,209376,-3.246329945,51.776434189,BCT,MKD,OTH,,,,004,2000-01-01T00:00:00,2025-06-02T16:32:42,6,revise,active
5320MTZ04821,blgdgtg,,,Deighton Ground,,,,Deighton Sports Ground,,Stockton Way,,,,opp,,NW,E0053950,Tredegar,,,,,,,false,UKOS,313973,209671,-3.248373962,51.779069682,BCT,MKD,OTH,,,,004,2000-01-01T00:00:00,2024-04-26T15:51:08,3,revise,active
5320MTZ04822,blgdgtj,,,Deighton Ground,,,,Deighton Sports Ground,,Stockton Way,,,,o/s,,SE,E0053950,Tredegar,,,,,,,false,UKOS,313979,209675,-3.248288006,51.779106561,BCT,MKD,OTH,,,,004,2000-01-01T00:00:00,2024-04-26T15:51:08,5,revise,active
5320SRX16370,blgapda,,,Cross Way,,,,,,Glanhowy Street,,,,before,,NW,E0035344,Scwrfa,Tredegar,,,,,,true,UKOS,313835,210396,-3.250554003,51.785565365,BCT,MKD,OTH,,,,004,2000-01-01T00:00:00,2024-04-26T15:51:08,3,revise,active
5320SRX16371,blgapdg,,,Evan`s Terrace,,,,Dukestown Wokkmen`s Club,,St Luke`s Road,,,,after,,E,E0035317,Dukestown,Tredegar,,,,,,true,UKOS,313956,210588,-3.248847966,51.787309876,BCT,CUS,OTH,,,,004,2000-01-01T00:00:00,2024-04-26T15:51:09,3,revise,active
5320SRX16372,blgapgm,,,Beaufort Ballroom,,,,Beaufort Ballroom,,Beaufort Hill,,,,before,,SW,E0053944,Beaufort,,,,,,,true,UKOS,316911,211706,-3.206285586,51.797802184,BCT,MKD,OTH,,,,004,2000-01-01T00:00:00,2025-06-03T08:36:56,7,revise,active
5320SRX16374,blgapaw,,,Royal Oak,,,,Royal Oak PH,,St Luke`s Road,,,,before,,E,E0035317,Dukestown,Tredegar,,,,,,true,UKOS,314115,210593,-3.24654465,51.787379284,BCT,MKD,OTH,,,,004,2000-01-01T00:00:00,2024-04-26T15:50:56,3,revise,active
5320SRX16375,blgdjdp,,,Ystad Deri,,,,,,Dukestown Road,,,,before,,S,E0035317,Dukestown,Tredegar,,,,,,true,UKOS,314254,210392,-3.244480236,51.785593864,BCT,CUS,OTH,,,,004,2000-01-01T00:00:00,2024-04-26T15:51:03,4,revise,active
5320SRX16376,blgdgtm,,,Belle Vue Inn,,,,Belle Vue Inn PH,,Scwrfa Road,,,,before,,NW,E0035344,Scwrfa,Tredegar,,,,,,true,UKOS,314043,210194,-3.247489256,51.783781645,BCT,CUS,OTH,,,,004,2000-01-01T00:00:00,2024-04-26T15:50:39,3,revise,active
5320SRX16377,blgadpt,,,Meadow Crescent,,,,,,Glanhowy Street,,,,before,,N,E0035344,Scwrfa,Tredegar,,,,,,true,UKOS,313535,210589,-3.254950196,51.787253873,BCT,MKD,OTH,,,,004,2000-01-01T00:00:00,2024-04-26T15:51:12,4,revise,active
5320WDB21917,blgdpma,,,Hillcrest View South,,,,,,Valley View Road,,,,end,,SW,E0035337,Pen-y-bont,Abertillery,,,,,,false,UKOS,321943,205116,-3.131848874,51.73929345,BCT,MKD,OTH,,,,004,2000-01-01T00:00:00,2024-04-26T15:51:11,4,revise,active
5320WDB21918,blgdpmd,,,Valley View Road,,,,,,Valley View Road,,,,in,,SE,E0035337,Pen-y-bont,Abertillery,,,,,,false,UKOS,321981,204916,-3.131253751,51.737500881,BCT,MKD,OTH,,,,004,2000-01-01T00:00:00,2024-04-26T15:51:19,5,revise,active
5320WDB21919,blgdpmg,,,Valley View Road,,,,,,Valley View Road,,,,in,,SE,E0035337,Pen-y-bont,Abertillery,,,,,,false,UKOS,322081,204817,-3.129783678,51.736624867,BCT,MKD,OTH,,,,004,2000-01-01T00:00:00,2024-04-26T15:51:19,5,revise,active
5320WDB21920,blgdpmj,,,Cefn Crescent,,,,,,Cefn Crescent,,,,in,,NW,E0035337,Pen-y-bont,Abertillery,,,,,,false,UKOS,321947,204828,-3.13172626,51.736705078,BCT,MKD,OTH,,,,004,2000-01-01T00:00:00,2024-04-26T15:50:43,4,revise,active
5320WDB21921,blgdpmp,,,Portland Street,,,,,,Oxford Street,,,,before,,SW,E0053943,Abertillery,,,,,,,false,UKOS,321607,204526,-3.136580805,51.733942779,BCT,MKD,OTH,,,,004,2000-01-01T00:00:00,2024-04-26T15:51:15,4,revise,active
5320WDB21923,blgdpmw,,,Arael View Terminus,,,,,,Arael View,,,,at,,S,E0035305,Blaenau Gwent,Abertillery,,,,,,false,UKOS,320856,205701,-3.147721075,51.744399506,BCT,MKD,OTH,,,,004,2000-01-01T00:00:00,2024-04-26T15:51:04,4,revise,active
5320WDB21936,blgdptj,,,Hillcrest View North,,,,,,Valley View Road,,,,in,,S,E0035337,Pen-y-bont,Abertillery,,,,,,false,UKOS,321956,205248,-3.131690297,51.740481855,BCT,MKD,OTH,,,,004,2000-01-01T00:00:00,2024-04-26T15:51:10,3,revise,active
5320WDB22860,blgdptm,,,Roderick Hill Court,,,,Roderick Hill Court,,St Luke's Road,,,,in,,N,E0035317,Dukestown,Tredegar,,,,,,false,UKOS,313426,210539,-3.256517549,51.786787552,BCT,CUS,OTH,,,,004,2000-01-01T00:00:00,2024-04-26T15:51:15,3,revise,active
5320WDB22898,blgdptp,,,Castle Street,,,,,,Castle Street,,,,in,,SE,E0053943,Abertillery,,,,,,,false,UKOS,321652,204006,-3.135812102,51.729274624,BCT,CUS,OTH,,,,004,2000-01-01T00:00:00,2024-04-26T15:51:07,2,revise,active
5320WDB23317,blgdpwd,,,Bank House,,,,Bank House Nursing Home,,Llangynidr Road,,,,opp,,NW,E0035322,Garn Lydan,Ebbw Vale,,,,,,false,UKOS,316856,212485,-3.207270135,51.804801112,BCT,CUS,OTH,,,,004,2000-01-01T00:00:00,2024-04-26T15:51:05,3,revise,active
5320WDB24192,blgdtag,,,Alma Street,,,,Health Centre,,Alma Street,,,,opp 28,,S,E0053943,Abertillery,,,,,,,false,UKOS,321694,204362,-3.135284306,51.732480706,BCT,MKD,OTH,,,,004,2000-01-01T00:00:00,2024-04-26T15:51:04,2,revise,active
5320WDB46462,blgdmtd,,,Ty Scott,,,,Ty Scott Nursing Home,,Earl Street,,,,nr,,N,E0053950,Tredegar,,,,,,,false,UKOS,313975,209223,-3.248233824,51.775042963,BCT,CUS,OTH,,,,004,2000-01-01T00:00:00,2025-06-03T08:51:31,3,revise,active
5320WDB46500,blgdmtg,,,St George's Court,,,,St George's Court,,Church Street,,,,o/s,,S,E0053950,Tredegar,,,,,,,false,UKOS,314170,209454,-3.24546543,51.777149377,BCT,MKD,OTH,,,,004,2000-01-01T00:00:00,2024-04-26T15:51:17,2,revise,active
5320WDB46501,blgdmtj,,,Tredegar Constitutional Club,,Constitutional Club,,Constitutional Club,,Church Street,,,,o/s,,N,E0053950,Tredegar,,,,,,,false,UKOS,314158,209477,-3.245644767,51.777345291,BCT,MKD,OTH,,,,004,2000-01-01T00:00:00,2025-06-03T08:53:04,4,revise,active
5320WDB46502,blgdmtm,,,Bill Harry Court,,,,Bill Harry Court,,Charles Street,,,,before,,NW,E0053950,Tredegar,,,,,,,false,UKOS,313983,209990,-3.248308204,51.781938679,BCT,MKD,OTH,,,,004,2000-01-01T00:00:00,2024-04-26T15:51:05,2,revise,active
5320WDB46503,blgdmtp,,,Charles Street Top,,,,Vogherra,,Charles Street,,,,at,,SE,E0035302,Ashvale,Tredegar,,,,,,false,UKOS,313668,210183,-3.252921352,51.783624958,BCT,MKD,OTH,,,,004,2000-01-01T00:00:00,2024-04-26T15:51:07,4,revise,active
5320WDB46504,blgdmtw,,,Attlee Way South,,,,,,Attlee Way,,,,nr 49,,SE,N0075342,Cefn Golau,Tredegar,,,,,,false,UKOS,313713,208234,-3.251784194,51.766112561,BCT,MKD,OTH,,,,004,2000-01-01T00:00:00,2024-04-26T15:51:05,3,revise,active
5320WDB46505,blgdmwa,,,Attlee Way South,,,,,,Attlee Way,,,,nr 59,,NW,N0075342,Cefn Golau,Tredegar,,,,,,false,UKOS,313697,208245,-3.252018726,51.76620897,BCT,MKD,OTH,,,,004,2000-01-01T00:00:00,2024-04-26T15:51:05,3,revise,active
5320WDB46506,blgdmwd,,,Walter Conway Avenue,,,,,,Walter Conway Avenue,,,,in,,S,N0075342,Cefn Golau,Tredegar,,,,,,false,UKOS,313557,208529,-3.254117709,51.76874019,BCT,MKD,OTH,,,,004,2000-01-01T00:00:00,2024-04-26T15:51:20,3,revise,active
5320WDB46507,blgdmwg,,,Ironsides Club,,,,Ironsides Club,,Gainsborough Road,,,,before,,W,N0075342,Cefn Golau,Tredegar,,,,,,false,UKOS,313689,208721,-3.252253058,51.770486451,BCT,MKD,OTH,,,,004,2000-01-01T00:00:00,2024-04-26T15:50:51,3,revise,active
5320WDB46508,blgdmwj,,,Ironsides Club,,,,Ironsides Club,,Gainsborough Road,,,,o/s,,E,N0075342,Cefn Golau,Tredegar,,,,,,false,UKOS,313677,208729,-3.252428913,51.77055651,BCT,MKD,OTH,,,,004,2000-01-01T00:00:00,2024-04-26T15:50:51,3,revise,active
5320WDB46509,blgdmwm,,,Park Place Playground,,,,,,Park Place,,,,nr,,S,E0035325,Georgetown,Tredegar,,,,,,false,UKOS,314542,208470,-3.239832264,51.768356584,BCT,MKD,OTH,,,,004,2000-01-01T00:00:00,2025-06-03T09:03:15,5,revise,active
5320WDB46510,blgdmwp,,,Georgetown Post Office,,Post Office,,Georgetown Post Office,,Park Place,,,,nr,,SE,E0035325,Georgetown,Tredegar,,,,,,false,UKOS,314522,208760,-3.240193489,51.770960319,BCT,MKD,OTH,,,,004,2000-01-01T00:00:00,2025-06-11T10:30:07,8,revise,active
5320WDB46511,blgdmwt,,,Thomas Ellis Way,,,,,,Thomas Ellis Way,,,,opp 1,,S,E0035325,Georgetown,Tredegar,,,,,,false,UKOS,314672,208921,-3.238059871,51.772435136,BCT,MKD,OTH,,,,004,2000-01-01T00:00:00,2024-04-26T15:51:19,3,revise,active
5320WDB46512,blgdpad,,,Harford Gardens,,,,,,Thomas Ellis Way,,,,after,,SW,E0035345,Sirhowy,Tredegar,,,,,,false,UKOS,314655,209525,-3.238454851,51.777861859,BCT,MKD,OTH,,,,004,2000-01-01T00:00:00,2024-04-26T15:50:48,3,revise,active
5320WDB46513,blgdpag,,,Harford Gardens,,,,,,Thomas Ellis Way,,,,before,,NE,E0035345,Sirhowy,Tredegar,,,,,,false,UKOS,314648,209526,-3.238556534,51.777869779,BCT,MKD,OTH,,,,004,2000-01-01T00:00:00,2024-04-26T15:50:48,3,revise,active
5320WDB46514,blgdpaj,,,Fairfield,,,,,,Thomas Ellis Way,,,,before,,S,E0035345,Sirhowy,Tredegar,,,,,,false,UKOS,314672,209923,-3.238306467,51.781442048,BCT,MKD,OTH,,,,004,2000-01-01T00:00:00,2024-04-26T15:51:09,3,revise,active
5320WDB46515,blgdpam,,,Butleigh Terrace,,,,Butleigh Terrace,,Dukestown Road,,,,nr,,SW,E0035317,Dukestown,Tredegar,,,,,,false,UKOS,314218,210206,-3.244955963,51.783916404,BCT,MKD,OTH,,,,004,2000-01-01T00:00:00,2024-04-26T15:51:06,5,revise,active
5320WDB46516,blgdpap,,,Butleigh Terrace,,,,Butleigh Terrace,,Dukestown Road,,,,nr,,NE,E0035317,Dukestown,Tredegar,,,,,,false,UKOS,314204,210195,-3.245156142,51.783815376,BCT,MKD,OTH,,,,004,2000-01-01T00:00:00,2024-04-26T15:51:06,4,revise,active
5320WDB46517,blgdpat,,,Police Row,,,,Police Row,,St Luke's Road,,,,opp,,W,E0035317,Dukestown,Tredegar,,,,,,false,UKOS,313789,210595,-3.251270211,51.787347055,BCT,MKD,OTH,,,,004,2000-01-01T00:00:00,2024-04-26T15:51:15,2,revise,active
5320WDB46518,blgdpaw,,,Pen-y-Twyn,,,,Pen-y-Twyn,,St Luke's Road,,,,nr,,E,E0035317,Dukestown,Tredegar,,,,,,false,UKOS,313750,210603,-3.25183747,51.787412947,BCT,MKD,OTH,,,,004,2000-01-01T00:00:00,2024-04-26T15:50:54,2,revise,active
5320WDB46519,blgdpda,,,Brooklands,,,,Greenacre Hostel,,St Luke's Road,,,,nr,,SW,E0035317,Dukestown,Tredegar,,,,,,false,UKOS,313381,210579,-3.25717977,51.787140132,BCT,MKD,OTH,,,,004,2000-01-01T00:00:00,2024-04-26T15:50:40,4,revise,active
5320WDB46520,blgdpdg,,,Brooklands,,,,Brooklands,,St Luke's Road,,,,nr,,NE,E0035317,Dukestown,Tredegar,,,,,,false,UKOS,313373,210583,-3.257296721,51.787174847,BCT,MKD,OTH,,,,004,2000-01-01T00:00:00,2024-04-26T15:50:40,4,revise,active
5320WDB46521,blgdpdj,,,Waundeg Bottom,,,,,,Waundeg,,,,nr 116,,NE,N0078214,Waundeg,Tredegar,,,,,,false,UKOS,312934,210819,-3.263718855,51.789227976,BCT,MKD,OTH,,,,004,2000-01-01T00:00:00,2025-06-11T10:30:07,4,revise,active
5320WDB46522,blgdpdm,,,Llwyn Helyg,,,,Mountain Air Inn,,Llwyn Helyg,,,,opp Pub,,N,N0078214,Waundeg,Tredegar,,,,,,false,UKOS,313010,211074,-3.262677,51.791531,BCT,MKD,OTH,,,,004,2000-01-01T00:00:00,2024-04-26T15:50:51,5,revise,active
5320WDB46523,blgdpdp,,,Bryn Bach Park,,,,,,Merthyr Road,,,,before,,SW,E0035348,Tafarnaubach,,,,,,,false,UKOS,312340,210326,-3.272203898,51.784703615,BCT,MKD,OTH,,,,004,2000-01-01T00:00:00,2024-04-26T15:50:53,3,revise,active
5320WDB46524,blgdpdt,,,Bryn Bach Park,,,,,,Merthyr Road,,,,after,,NE,E0035348,Tafarnaubach,,,,,,,false,UKOS,312332,210329,-3.272320602,51.784729326,BCT,MKD,OTH,,,,004,2000-01-01T00:00:00,2024-04-26T15:50:53,3,revise,active
5320WDB47564,blgdtap,,,Foundry Bridge,,,,,,Foundry Bridge,,,,nr,,E,E0053943,Abertillery,,,,,,,false,UKOS,321770,204321,-3.134174818,51.73212277,BCT,MKD,OTH,,,,004,2000-01-01T00:00:00,2024-04-26T15:51:09,2,revise,active
5320WDB47565,blgdtat,,,Clynmawr Road,,,,,,Gladstone Street,,,,before,,NW,E0053943,Abertillery,,,,,,,false,UKOS,321416,204423,-3.139322727,51.732990095,BCT,MKD,OTH,,,,004,2000-01-01T00:00:00,2024-04-26T15:51:07,3,revise,active
5320WDB47566,blgdtaw,,,Clynmawr Road,,,,,,Gladstone Street,,,,after,,SE,E0053943,Abertillery,,,,,,,false,UKOS,321422,204428,-3.139236994,51.733035884,BCT,MKD,OTH,,,,004,2000-01-01T00:00:00,2024-04-26T15:51:07,3,revise,active
5320WDB47567,blgdtda,,,Portland Street,,,,,,Gladstone Street,,,,after,,NW,E0053943,Abertillery,,,,,,,false,UKOS,321614,204306,-3.136429844,51.731966106,BCT,MKD,OTH,,,,004,2000-01-01T00:00:00,2024-04-26T15:51:15,4,revise,active
5320WDB47568,blgdtdg,,,Portland Street,,,,Gladstone Street,,Portland Street,,,,before,,SE,E0053943,Abertillery,,,,,,,false,UKOS,321616,204313,-3.136402469,51.732029311,BCT,MKD,OTH,,,,004,2000-01-01T00:00:00,2024-04-26T15:51:15,4,revise,active
5320WDB47569,blgdtdj,,,Commercial Street,,,,,,Commercial Street,,,,in,,W,E0053943,Abertillery,,,,,,,false,UKOS,321727,204055,-3.134737429,51.729725594,BCT,MKD,OTH,,,,004,2000-01-01T00:00:00,2024-04-26T15:51:08,2,revise,active
5320WDB47570,blgdtdm,,,Park Road,,,,,,Augusta Street,,,,before,,SW,E0035358,Waunllwyd,,,,,,,false,UKOS,317211,207288,-3.200881345,51.75813777,BCT,MKD,OTH,,,,004,2000-01-01T00:00:00,2024-04-26T15:51:14,4,revise,active
5320WDB47571,blgdtdp,,,Park Road,,,,,,Park Road,,,,after,,N,E0035358,Waunllwyd,,,,,,,false,UKOS,317213,207331,-3.200862532,51.758519912,BCT,MKD,OTH,,,,004,2000-01-01T00:00:00,2024-06-05T15:16:49,6,revise,active
5320WDB47572,blgdtdt,,,Asda,,,,Brynmawr Asda,,Blaina Road,,,,before,,N,E0053945,Brynmawr,,,,,,,false,UKOS,319014,211297,-3.175701225,51.794439238,BCT,MKD,OTH,,,,004,2000-01-01T00:00:00,2024-04-26T15:50:39,4,revise,active
5320WDB47573,blgdtdw,,,Festival Drive,,,,,,Festival Drive,,,,in,,S,E0035321,Garden City,Ebbw Vale,,,,,,false,UKOS,317197,207789,-3.201203674,51.762639228,BCT,MKD,OTH,,,,004,2010-12-13T12:00:56,2024-04-26T15:51:09,3,revise,active
5320WDB47574,blgdtga,,,Festival Drive,,,,,,Festival Drive,,,,in,,N,E0035321,Garden City,Ebbw Vale,,,,,,false,UKOS,317221,207698,-3.200834292,51.761824775,BCT,MKD,OTH,,,,004,2010-12-13T12:02:52,2024-04-26T15:51:09,3,revise,active
5320WDB47575,blgdtgd,,,Ysbyty Aneurin Bevan,,,,,,Lime Avenue,,,,opp,,N,E0053947,Ebbw Vale,,,,,,,false,UKOS,317163,208475,-3.201859911,51.768796013,BCT,MKD,OTH,,,,004,2010-12-13T12:07:06,2025-07-18T15:48:20,3,revise,active
5320WDB47577,blgdtgm,,,Bank House,,,,Bank House Nursing Home,,Llangynidr Road,,,,opp,,SE,E0035322,Garn Lydan,Ebbw Vale,,,,,,false,UKOS,316864,212487,-3.207154617,51.804820281,BCT,CUS,OTH,,,,004,2011-04-27T11:34:58,2024-04-26T15:51:05,3,revise,active
5320WDB47578,blgdtgp,,,Heol Peny-cae,,,,,,Emlyn Avenue,,,,after,,SE,N0071076,Glyncoed,Ebbw Vale,,,,,,false,UKOS,316437,210940,-3.212972747,51.790850578,BCT,MKD,OTH,,,,004,2011-10-20T09:32:41,2024-04-26T15:50:51,2,revise,active
5320WDB47579,blgdtgt,,,Glanffrwd,,,,blgdtgt,,Emlyn Avenue,,,,before,,NW,N0071076,Glyncoed,Ebbw Vale,,,,,,false,UKOS,316533,210773,-3.211540956,51.789363766,BCT,MKD,OTH,,,,004,2011-10-20T09:35:19,2024-04-26T15:50:48,3,revise,active
5320WDB47580,blgdtgw,,,Glanffrwd,,,,,,Emlyn Avenue,,,,after,,SE,N0071076,Glyncoed,Ebbw Vale,,,,,,false,UKOS,316534,210783,-3.21152887,51.789453806,BCT,MKD,OTH,,,,004,2011-10-20T09:37:44,2024-04-26T15:50:49,3,revise,active
5320WDB47581,blgdtja,,,Lillian Grove,,,,,,Emlyn Avenue,,,,before,,SE,N0071076,Glyncoed,Ebbw Vale,,,,,,false,UKOS,316692,210539,-3.20918,51.78728407,BCT,MKD,OTH,,,,004,2011-10-20T09:39:31,2024-04-26T15:51:12,3,revise,active
5320WDB47582,blgdtjd,,,Lillian Grove,,,,,,Emlyn Avenue,,,,after,,NW,N0071076,Glyncoed,Ebbw Vale,,,,,,false,UKOS,316690,210530,-3.209206825,51.787202871,BCT,MKD,OTH,,,,004,2011-10-20T09:42:39,2024-04-26T15:51:12,3,revise,active
5320WDB47583,blgdtjg,,,Brook Place,,,,,,Brook Place,,,,in,,SW,E0053946,Cwm,,,,,,,false,UKOS,318410,205367,-3.183062416,51.741045799,BCT,MKD,OTH,,,,004,2011-11-14T15:17:10,2024-04-26T15:51:06,2,revise,active
5320WDB47584,blgdtjm,,,Oak Street,,,,,,Canning Street,,,,nr,,NW,E0053946,Cwm,,,,,,,false,UKOS,318291,205497,-3.184816062,51.742197028,BCT,MKD,OTH,,,,004,2011-11-14T15:24:12,2024-04-26T15:51:13,2,revise,active
5320WDB47585,blgdtjp,,,Ash Street,,,,,,Canning Street,,,,nr,,NW,E0053946,Cwm,,,,,,,false,UKOS,318205,205622,-3.18609077,51.743308109,BCT,MKD,OTH,,,,004,2011-11-14T15:27:01,2024-04-26T15:51:04,2,revise,active
5320WDB47586,blgdtjt,,,Curre Street,,,,,,Curre Street,,,,nr,,SE,E0053946,Cwm,,,,,,,false,UKOS,318254,205695,-3.185398414,51.743971478,BCT,MKD,OTH,,,,004,2011-11-14T15:29:31,2024-04-26T15:51:08,3,revise,active
5320WDB47587,blgdtjw,,,Curre Street,,,,,,Curre Street,,,,nr,,SE,E0053946,Cwm,,,,,,,false,UKOS,318429,205437,-3.182803739,51.741677811,BCT,MKD,OTH,,,,004,2011-11-14T15:33:33,2024-04-26T15:51:08,3,revise,active
5320WDB47588,blgdtma,,,Ebbw Vale Learning Zone Stand 1,,Learning Zone 1,,Ebbw Vale Learning Zone,,Grounds,,,,Stop 1,,N,E0053947,Ebbw Vale,,,,,,,false,UKOS,317042,209396,-3.203833326,51.777056992,BCT,MKD,OTH,,,,004,2012-06-11T15:33:09,2025-06-03T09:27:58,5,revise,active
5320WDB47589,blgdtmt,,,Ebbw Vale Learning Zone Stand 2,,Learning Zone 2,,Ebbw Vale Learning Zone,,Grounds,,,,Stop 2,,N,E0053947,Ebbw Vale,,,,,,,false,UKOS,317045,209378,-3.203785546,51.776895635,BCT,MKD,OTH,,,,004,2012-06-11T15:35:28,2025-06-03T09:28:40,5,revise,active
5320WDB47590,blgdtmg,,,Ebbw Vale Learning Zone Stand 3,,Learning Zone 3,,Ebbw Vale Learning Zone,,Grounds,,,,Stop 3,,N,E0053947,Ebbw Vale,,,,,,,false,UKOS,317047,209362,-3.203752736,51.776752107,BCT,MKD,OTH,,,,004,2012-06-11T15:37:28,2025-06-03T09:29:17,7,revise,active
5320WDB47591,blgdtmj,,,Ebbw Vale Learning Zone Stand 4,,Learning Zone 4,,Ebbw Vale Learning Zone,,Grounds,,,,Stop 4,,S,E0053947,Ebbw Vale,,,,,,,false,UKOS,317058,209326,-3.203584724,51.776430134,BCT,MKD,OTH,,,,004,2012-06-11T15:39:22,2025-06-03T09:29:58,7,revise,active
5320WDB47592,blgdtmp,,,Ebbw Vale Learning Zone Stand 5,,Learning Zone 5,,Ebbw Vale Learning Zone,,Grounds,,,,Stop 5,,S,E0053947,Ebbw Vale,,,,,,,false,UKOS,317061,209310,-3.203537424,51.776286754,BCT,MKD,OTH,,,,004,2012-06-11T15:41:08,2025-06-03T09:30:32,7,revise,active
5320WDB47594,blgdtmw,,,Ysbyty Aneurin Bevan,,,,,,Lime Avenue,,,,adj,,S,E0053947,Ebbw Vale,,,,,,,false,UKOS,317134,208323,-3.202252501,51.767430616,BCT,MKD,OTH,,,,004,2012-11-16T13:54:19,2025-06-03T09:31:08,2,revise,active
5320WDB47595,blgdtpa,,,Ebbw Vale Sports Centre,,,,Sports Centre,,Lime Avenue,,,,opp,,SE,E0053947,Ebbw Vale,,,,,,,false,UKOS,317062,209056,-3.203462178,51.774003683,BCT,MKD,OTH,,,,004,2014-04-24T11:56:57,2025-06-03T09:31:56,5,revise,active
5320WDB47596,blgdtpd,,,Leisure Centre,,,,Sports Centre,,Lime Avenue,,,,o/s,,SE,E0053947,Ebbw Vale,,,,,,,false,UKOS,317075,209057,-3.203274047,51.7740146,BCT,MKD,OTH,,,,004,2014-04-24T12:04:38,2025-06-03T09:32:32,6,revise,active
5320WDB47597,blgdtpg,,,Ebbw Vale Bus Station Stand 6,,Ebbw Vale Bus Station 6,,,,A4046,,,,Stand 6,,N,E0053947,Ebbw Vale,,,,,,,false,UKOS,316840,209689,-3.206830791,51.779660761,BCT,CUS,OTH,,,,004,2014-07-02T09:52:14,2025-06-03T09:33:55,9,revise,active
5320WDB47598,blgdtpj,,,Peacehaven Court,,,,,,Peacehaven Court,,,,Opposite car park,,SE,E0054827,Peacehaven,Tredegar,,,,,,false,UKOS,315272,207388,-3.228991761,51.758741604,BCT,MKD,OTH,,,,004,2018-05-31T13:47:55,2024-04-26T15:51:14,5,revise,active
5320WDB47601,blgdtwg,,,Ebbw Vale Parkway,,,,,,Glan Ebbw Terrace,,,,nr,,S,E0053947,Ebbw Vale,,,,,,,false,UKOS,317424,207215,-3.197778578,51.757508371,BCT,MKD,OTH,,,,004,2021-07-13T11:29:26,2025-06-03T09:35:15,2,revise,active
5320WDB47603,blgdtwm,,,Commercial Street,,,,,,Commercial Street,,,,at,,S,E0035308,Briery Hill,Ebbw Vale,,,,,,false,UKOS,316792,208655,-3.207278268,51.770358948,BCT,MKD,OTH,,,,004,2021-07-27T14:49:46,2024-04-26T15:51:08,4,revise,active
5320WDB47604,blgdtwp,,,Spencer Street,,,,,,Commercial Street,,,,nr,,N,E0035308,Briery Hill,Ebbw Vale,,,,,,false,UKOS,316809,208774,-3.207060502,51.771431175,BCT,MKD,OTH,,,,004,2021-07-27T14:54:21,2024-04-26T15:51:17,4,revise,active
5320WDB47605,blgdtwt,,,Hermatage,,,,,,George Street,,,,after Well Street,,SE,E0053945,Brynmawr,,,,,,,false,UKOS,318735,211743,-3.179850368,51.798403171,BCT,MKD,OTH,,,,004,2021-08-12T09:47:16,2024-04-26T15:50:51,1,revise,active
5320WDB47606,blgdwad,,,New Road,,,,,,New Road,,,,opp 30,,N,E0035333,Nant-y-glo,,,,,,,false,UKOS,319323,210431,-3.171019948,51.786694684,BCT,CUS,OTH,,,,004,2022-02-24T12:59:53,2024-04-26T15:51:13,4,revise,active
5320WDB47607,blgdwag,,,New Road,,,,,,New Road,,,,,,S,E0035333,Nant-y-glo,,,,,,,false,UKOS,319335,210447,-3.170849742,51.786840243,BCT,CUS,OTH,,,,004,2022-02-24T16:56:51,2024-04-26T15:51:13,1,revise,active
5320WDB47608,blgdwaj,,,Ebbw Fawr Learning Community,,Ebbw Fawr  Community,,,,Strand Annealing Lane,,,,,,N,E0053947,Ebbw Vale,,,,,,,false,UKOS,317414,208213,-3.19816095,51.766478008,BCT,MKD,OTH,,,,004,2022-04-25T15:46:10,2025-06-03T09:38:32,4,revise,active
5320WDB47609,blgdwam,,,Ebbw Fawr Learning Community,,Ebbw Fawr Community,,,,Strand Annealing Lane,,,,,,SE,E0053947,Ebbw Vale,,,,,,,false,UKOS,317447,208109,-3.197658109,51.765548016,BCT,MKD,OTH,,,,004,2022-04-25T15:52:21,2025-06-03T09:39:19,2,revise,active
5320WDB47610,blgdwap,,,Llanhilleth Railway Station,,Llanhilleth Station,,Llanhilleth Railway Station,,,,,,at,,W,E0053948,Llanhilleth,,,,,,,false,UKOS,321586,200783,-3.136041032,51.700287984,BCT,MKD,OTH,,,,004,2022-05-10T12:17:58,2025-06-03T09:40:05,3,revise,active
5320WDB47611,blgdwat,,,Kingdom Hall,,,,,,Newtown,,,,opp,,SW,E0035335,Newtown,Ebbw Vale,,,,,,false,UKOS,317002,209921,-3.204538666,51.781770302,BCT,MKD,OTH,,,,004,2022-10-06T14:50:47,2025-06-03T09:40:46,6,revise,active
5320WDB47612,blgdwaw,,,Brecon Heights North,,,,,,Queen Street,,,,opp,,N,E0053947,Ebbw Vale,,,,,,,false,UKOS,317240,206840,-3.200354369,51.754110264,BCT,MKD,OTH,,,,004,2022-12-22T12:40:09,2024-04-26T15:51:06,2,revise,active
5320WDB47613,blgdwda,,,Ebbw Vale Parkway,,,,,,Parkway Car park,,,,Nr,,N,E0053947,Ebbw Vale,,,,,,,false,UKOS,317413,207215,-3.19793791,51.757506747,BCT,CUS,OTH,,,,004,2022-12-22T13:55:47,2025-06-03T09:42:09,3,revise,active
5320WDB47614,blgdwdg,,,Tredegar Lidl Stand 2,,,,Lidl,,Stockton Way,,,,Opp,,NW,E0053950,Tredegar,,,,,,,false,UKOS,314116,209315,-3.246213402,51.775886942,BCT,MKD,OTH,,,,004,2023-03-01T10:38:04,2025-06-03T09:43:02,5,revise,active
5320WDB47615,blgdwdj,,,Central Garage,,,,Central Garage,,Abertillery Road,,,,,,S,E0035306,Blaina,,,,,,,false,UKOS,320076,207664,-3.159467924,51.761929807,BCT,MKD,OTH,,,,004,2023-06-14T16:27:35,2025-06-03T09:43:34,3,revise,active
5320WDB47616,blgdwdm,,,Rassau Industrial Estate,,Rassau Industrial,,,,,,,,O/S Unit 37,,SW,E0035341,Rassau,Ebbw Vale,,,,,,false,UKOS,315342,212373,-3.229195316,51.803562174,BCT,MKD,OTH,,,,004,2023-06-22T11:51:03,2025-06-03T09:44:35,4,revise,active
5320WDB47617,blgdwdp,,,Beaufort Ballroom,,,,,,Llangynidr Road,,,,opp Glen View,,W,E0053944,Beaufort,,,,,,,false,UKOS,316794,211737,-3.207989258,51.798063424,BCT,MKD,OTH,,,,004,2023-07-17T15:41:34,2025-06-03T09:45:26,3,revise,active
5320WDB47618,blgdwdt,,,Bryn Coch,,,,,,Llangynidr Road,,,,after,,N,E0053944,Beaufort,,,,,,,false,UKOS,316700,212039,-3.209424697,51.800764089,BCT,MKD,OTH,,,,004,2023-07-17T15:52:01,2024-04-26T15:50:40,2,revise,active
5320WDB47619,blgdwdw,,,Bryn Coch,,,,,,Llangynidr Road,,,,after,,S,E0053944,Beaufort,,,,,,,false,UKOS,316680,211977,-3.209699748,51.800203788,BCT,MKD,OTH,,,,004,2023-07-17T16:00:29,2024-04-26T15:50:40,3,revise,active
5320WDB47620,blgdwga,,,Ebbw Vale Morrisons,,,,,,A4047,,,,opp,,SW,E0053947,Ebbw Vale,,,,,,,false,UKOS,315848,211100,-3.221549267,51.792195716,BCT,MKD,OTH,,,,004,2024-07-03T16:49:49,2024-07-03T16:51:04,1,revise,active
5320WDB47621,blgdwgd,,,Ebbw Vale Morrisons,,,,,,A4047,,,,,,NE,E0053947,Ebbw Vale,,,,,,,false,UKOS,315853,211113,-3.221479946,51.792313326,BCT,MKD,OTH,,,,004,2024-07-03T16:52:56,2024-07-03T16:51:52,,new,active
5320WDB47622,blgdwgj,,,Llanhilleth Railway Station,,Llanhilleth Station,,,,,,,,,,NW,E0053948,Llanhilleth,,,,,,,false,UKOS,321801,200702,-3.132912473,51.699589886,BCT,MKD,OTH,,,,004,2024-12-06T12:11:03,2025-06-03T09:47:21,1,revise,active
5320WDB47623,blgdwgm,,,Glanyrafon,,,,,,Glanyrafon,,,,at,,E,N0071076,Glyncoed,Ebbw Vale,,,,,,false,UKOS,316897,374074,-3.24716717,53.257135108,BCT,MKD,OTH,,,,004,2025-06-09T11:54:46,2025-06-09T11:49:41,,new,active
5320WDB47624,blgdwgp,,,Beaufort Close,,,,,,Beaufort Road,,,,,,SW,E0035345,Sirhowy,Tredegar,,,,,,false,UKOS,314795,210205,-3.236593146,51.783991012,BCT,MKD,OTH,,,,004,2025-06-23T08:55:17,2025-06-23T09:01:45,5,revise,active
