ATCOCode,NaptanCode,PlateCode,CleardownCode,CommonName,CommonNameLang,ShortCommonName,ShortCommonNameLang,Landmark,LandmarkLang,Street,StreetLang,Crossing,CrossingLang,Indicator,IndicatorLang,Bearing,NptgLocalityCode,LocalityName,ParentLocalityName,GrandParentLocalityName,Town,TownLang,Suburb,SuburbLang,LocalityCentre,GridType,Easting,Northing,Longitude,Latitude,StopType,BusStopType,TimingStatus,DefaultWaitTime,Notes,NotesLang,AdministrativeAreaCode,CreationDateTime,ModificationDateTime,RevisionNumber,Modification,Status
5340ANZ12709,toramap,,,Cwmbran Depot,,,,,,Depot Yard,,,,not in use,,N,E0042757,Cwmbran,,,,,,,false,UKOS,329694,195801,-3.017735605,51.656581652,BCT,CUS,OTH,,,,061,2000-01-01T00:00:00,2024-05-02T09:56:00,3,revise,inactive
5340ANZ12716,tordadm,,,Ty Pwca Road,,,,,,Ty Pwca Road,,,,opp 5,,SE,E0042792,Pontnewydd,Cwmbran,,,,,,false,UKOS,328418,196780,-3.036378958,51.665221297,BCT,MKD,OTH,,,,061,2000-01-01T00:00:00,2024-05-02T09:56:41,4,revise,active
5340ANZ16754,tordapa,,,Russell Close,,,,,,Golf Road,,,,before,,SW,E0054743,New Inn,,,,,,,false,UKOS,330660,199945,-3.004597686,51.693955622,BCT,MKD,OTH,,,,061,2000-01-01T00:00:00,2024-05-02T09:56:37,3,revise,active
5340AWA16982,torada,,,Capel Newydd,,,,,,Capel Newydd Avenue,,,,o/s 60,,SE,E0042755,Coed Cae,Blaenavon,,,,,,false,UKOS,325787,208490,-3.076911053,51.770146964,BCT,MKD,OTH,,,,061,2000-01-01T00:00:00,2024-05-02T09:55:58,3,revise,active
5340AWA16983,toradj,,,Capel Newydd,,,,,,Capel Newydd Avenue,,,,opp 61,,NW,E0042755,Coed Cae,Blaenavon,,,,,,false,UKOS,325787,208481,-3.076909127,51.770066059,BCT,MKD,OTH,,,,061,2000-01-01T00:00:00,2024-05-02T09:55:58,4,revise,active
5340AWA16984,toramgw,,,Trem-y-Mynydd,,,,7 Coed Road,,Coed Road,,,,before,,SW,E0042755,Coed Cae,Blaenavon,,,,,,false,UKOS,325768,208622,-3.077214609,51.771331049,BCT,MKD,OTH,,,,061,2000-01-01T00:00:00,2024-05-02T09:56:15,2,revise,active
5340AWA16986,toramgm,,,Llanfoist Crescent,,,,,,Hillside Avenue,,,,after,,NW,E0042763,Elgam,Blaenavon,,,,,,false,UKOS,325636,209306,-3.079273977,51.777462282,BCT,CUS,OTH,,,,061,2000-01-01T00:00:00,2024-05-02T09:55:59,2,revise,active
5340AWA16987,toramga,,,Elgam Avenue,,,,,,Elgam Avenue,,,,after,,NE,E0042763,Elgam,Blaenavon,,,,,,false,UKOS,325533,209536,-3.080816042,51.779516135,BCT,MKD,OTH,,,,061,2000-01-01T00:00:00,2024-05-02T09:56:24,3,revise,active
5340AWA16988,toramgd,,,Elgam Avenue,,,,,,Elgam Avenue,,,,before,,SW,E0042763,Elgam,Blaenavon,,,,,,false,UKOS,325532,209520,-3.080827097,51.77937217,BCT,MKD,OTH,,,,061,2000-01-01T00:00:00,2024-05-02T09:56:24,3,revise,active
5340AWA16989,toramgp,,,Rifle Street,,,,Rifle Green,,Elgam Avenue,,,,before,,SW,E0042763,Elgam,Blaenavon,,,,,,false,UKOS,325335,209495,-3.083676705,51.779121146,BCT,MKD,OTH,,,,061,2000-01-01T00:00:00,2024-05-02T09:56:36,3,revise,active
5340AWA16990,toramgt,,,Rifle Street,,,,Rifle Green,,Elgam Avenue,,,,after,,NE,E0042763,Elgam,Blaenavon,,,,,,false,UKOS,325356,209506,-3.083374736,51.779222835,BCT,MKD,OTH,,,,061,2000-01-01T00:00:00,2024-05-02T09:56:36,3,revise,active
5340AWA16991,torampw,,,Glantorfaen House,,,,Glantorfaen House,,Forgeside Road,,,,nr,,SE,E0042765,Forgeside,,,,,,,false,UKOS,324830,208710,-3.090825076,51.771996754,BCT,MKD,OTH,,,,061,2000-01-01T00:00:00,2024-05-02T09:56:26,2,revise,active
5340AWA17030,toradad,,,Park Road,,,,Town Bridge Buildings,,Park Road,,,,opp Bank,,SE,E0057271,Pontypool,,,,,,,false,UKOS,328172,200991,-3.040803098,51.703045461,BCT,MKD,OTH,,,,061,2000-01-01T00:00:00,2024-05-02T09:56:34,3,revise,active
5340AWA17033,toradm,,,Ty`r Pwll,,,,Ty`r Pwll Farm,,B4598,,,,nr,,SE,E0042809,Upper Coedcae,Blaenavon,,,,,,false,UKOS,327179,209464,-3.056946253,51.779085836,BCT,MKD,OTH,,,,061,2000-01-01T00:00:00,2024-05-02T09:56:16,3,revise,inactive
5340AWA17034,toradp,,,Cae Capel Q,,,,,,Main Road,,,,not in use,,NW,E0042809,Upper Coedcae,Blaenavon,,,,,,false,UKOS,327197,209480,-3.05668875,51.779232014,BCT,MKD,OTH,,,,061,2000-01-01T00:00:00,2024-05-02T09:55:57,3,revise,inactive
5340AWA17038,toramw,,,Cwmfrwdoer Primary,,School,,Cwmfrwdoer Primary School,,Waunddu,,,,after,,E,E0042758,Cwmffrwdoer,,,,,,,false,UKOS,326535,201918,-3.064682995,51.711166551,BCT,MKD,OTH,,,,061,2000-01-01T00:00:00,2024-05-02T09:56:18,2,revise,active
5340AWA17039,torapa,,,Bryn Cottage,,,,Bryn Cottage,,Pentrepiod Road,,,,nr,,W,E0042789,Pentre Piod,,,,,,,false,UKOS,326817,202032,-3.060626249,51.712228281,BCT,MKD,OTH,,,,061,2000-01-01T00:00:00,2024-05-02T09:55:57,3,revise,active
5340AWA17040,torapd,,,Bryn Cottage,,,,Bryn Cottage,,Pentrepiod Road,,,,nr,,E,E0042789,Pentre Piod,,,,,,,false,UKOS,326791,202037,-3.061003547,51.712269831,BCT,MKD,OTH,,,,061,2000-01-01T00:00:00,2024-05-02T09:55:57,3,revise,active
5340AWA17045,toradgt,,,Incline,,,,Bybrook House,,Manor Road,,,,nr,,NW,E0054735,Abersychan,,,,,,,false,UKOS,326750,203882,-3.061985469,51.72885024,BCT,MKD,OTH,,,,061,2000-01-01T00:00:00,2024-05-02T09:56:07,3,revise,active
5340AWA17046,toradgw,,,Incline,,,,,,Manor Road,,,,nr,,SE,E0054735,Abersychan,,,,,,,false,UKOS,326722,203914,-3.062397551,51.729134242,BCT,MKD,OTH,,,,061,2000-01-01T00:00:00,2024-05-02T09:56:07,3,revise,active
5340AWA17047,toramtd,,,Pleasant Court,,,,,,Limekiln Road,,,,nr,,SW,E0042802,Snatchwood,Abersychan,,,,,,false,UKOS,327048,202924,-3.057470519,51.720277137,BCT,MKD,OTH,,,,061,2000-01-01T00:00:00,2024-05-02T09:56:35,4,revise,active
5340AWA17050,tordmwd,,,Gordon Road,,,,Gordon Road Turn,,Wellington Road,,,,before,,SW,E0042764,Fairfield,Abersychan,,,,,,false,UKOS,326446,203719,-3.066351768,51.727345079,BCT,MKD,OTH,,,,061,2000-01-01T00:00:00,2024-05-02T09:56:26,4,revise,active
5340AWA17051,torgamj,,,Raglan Close,,,,,,Waterloo Road,,,,opp junct,,SE,E0054735,Abersychan,,,,,,,false,UKOS,326400,203883,-3.067052377,51.72881332,BCT,MKD,OTH,,,,061,2000-01-01T00:00:00,2024-05-02T09:56:36,2,revise,active
5340AWA17052,tordmwg,,,Raglan Close,,,,,,Waterloo Road,,,,after,,NW,E0042805,Talywain,Abersychan,,,,,,false,UKOS,326375,203883,-3.067414283,51.728810032,BCT,MKD,OTH,,,,061,2000-01-01T00:00:00,2024-05-02T09:56:36,2,revise,active
5340AWA17053,tordmwa,,,British Constitution Inn,,Constitution Inn,,British Constitution Inn PH,,Commercial Road,,,,o/s,,SE,E0042805,Talywain,Abersychan,,,,,,false,UKOS,326203,203991,-3.069927127,51.729758253,BCT,MKD,OTH,,,,061,2000-01-01T00:00:00,2025-07-15T13:05:21,3,revise,active
5340AWA17054,torapgt,,,Lewis Close,,,,Graveyard,,Bailey Street,,,,nr,,SE,E0042769,Garndiffaith,,,,,,,false,UKOS,326247,204671,-3.069434471,51.735876937,BCT,MKD,OTH,,,,061,2000-01-01T00:00:00,2024-05-02T09:56:30,3,revise,active
5340AWA17055,toramwp,,,Lewis Close,,,,,,Bailey Street,,,,nr,,NW,E0042769,Garndiffaith,,,,,,,false,UKOS,326233,204678,-3.069638656,51.735938018,BCT,MKD,OTH,,,,061,2000-01-01T00:00:00,2024-05-02T09:56:30,3,revise,active
5340AWA17059,torapgp,,,Lasgarn View,,,,,,Lasgarn View,,,,opp 89,,NE,E0042769,Garndiffaith,,,,,,,false,UKOS,326554,205292,-3.065120853,51.741499817,BCT,MKD,OTH,,,,061,2000-01-01T00:00:00,2024-05-02T09:56:30,3,revise,active
5340AWA17060,torapgw,,,Lasgarn View,,,,,,Lasgarn View,,,,o/s 81,,SW,E0042769,Garndiffaith,,,,,,,false,UKOS,326564,205324,-3.064982815,51.741788794,BCT,MKD,OTH,,,,061,2000-01-01T00:00:00,2024-05-02T09:56:30,3,revise,active
5340AWA17085,torampg,,,Big Pit Mining Museum,,,,Big Pit Mining Museum,,Colliery Approach,,,,o/s,,S,E0042765,Forgeside,,,,,,,false,UKOS,323825,208915,-3.105432461,51.773703508,BCT,MKD,OTH,,,,061,2000-01-01T00:00:00,2024-05-02T09:56:20,2,revise,active
5340AWA24992,torjwda,,,Ashton Villa,,,,Ashton Villa,,Broadway,,,,nr,,SE,E0042813,Wainfelin,Pontypool,,,,,,false,UKOS,327903,201125,-3.044722782,51.704215522,BCT,MKD,OTH,,,,061,2000-01-01T00:00:00,2024-05-02T09:56:19,2,revise,active
5340AWA24993,torjwdg,,,Forgehammer,,,,,,High Street,,,,opp former,,W,E0042806,Tranch,Pontypool,,,,,,false,UKOS,327802,200716,-3.046099278,51.700525749,BCT,MKD,OTH,,,,061,2000-01-01T00:00:00,2024-05-02T09:56:02,3,revise,active
5340AWA24994,torjwdj,,,Labour in Vain,,,,Labour in Vain PH,,High Street,,,,o/s,,NW,E0042806,Tranch,Pontypool,,,,,,false,UKOS,327599,200755,-3.049044253,51.700850151,BCT,MKD,OTH,,,,061,2000-01-01T00:00:00,2024-05-02T09:56:30,2,revise,active
5340AWA24995,torjwdm,,,Sunnyside,,,,,,Tranch Road,,,,nr,,W,E0042806,Tranch,Pontypool,,,,,,false,UKOS,327490,200777,-3.050625783,51.701033827,BCT,MKD,OTH,,,,061,2000-01-01T00:00:00,2024-05-02T09:56:39,2,revise,active
5340AWA24996,torjwdp,,,Avalon Court,,,,,,Penywain Lane,,,,opp junct,,S,E0042806,Tranch,Pontypool,,,,,,false,UKOS,327499,200983,-3.050538476,51.702886858,BCT,MKD,OTH,,,,061,2000-01-01T00:00:00,2024-05-02T09:56:20,3,revise,active
5340AWA24997,torjwdt,,,Bryngelly House,,,,Bryngelly House,,Wainfelin Road,,,,o/s,,SE,E0042813,Wainfelin,Pontypool,,,,,,false,UKOS,327717,201434,-3.047478094,51.706969354,BCT,MKD,OTH,,,,061,2000-01-01T00:00:00,2024-05-02T09:56:16,2,revise,active
5340AWA24998,torjwdw,,,Gorsedd,,,,,,Tranch Road,,,,nr,,E,E0042806,Tranch,Pontypool,,,,,,false,UKOS,327437,200781,-3.051393392,51.701062925,BCT,MKD,OTH,,,,061,2000-01-01T00:00:00,2024-05-02T09:56:05,2,revise,active
5340AWA24999,torjwga,,,Pine Gardens,,,,,,Parke`s Lane,,,,after,,NE,E0042806,Tranch,Pontypool,,,,,,false,UKOS,327276,200724,-3.053710748,51.700529642,BCT,MKD,OTH,,,,061,2000-01-01T00:00:00,2024-05-02T09:56:35,3,revise,active
5340AWA25000,torjwgd,,,Pine Gardens,,,,,,Parke`s Lane,,,,before,,SW,E0042806,Tranch,Pontypool,,,,,,false,UKOS,327282,200722,-3.053623527,51.700512441,BCT,MKD,OTH,,,,061,2000-01-01T00:00:00,2024-05-02T09:56:35,2,revise,active
5340AWA25001,torjwgj,,,Wentsland Road,,,,,,Wentsland Road,,,,o/s 13,,NE,E0042806,Tranch,Pontypool,,,,,,false,UKOS,327384,200668,-3.0521366,51.700040229,BCT,MKD,OTH,,,,061,2000-01-01T00:00:00,2024-05-02T09:56:43,2,revise,active
5340AWA25002,torjwgm,,,Wentsland Crescent,,,,,,Wentsland Crescent,,,,o/s 6,,SW,E0042806,Tranch,Pontypool,,,,,,false,UKOS,327348,200706,-3.052665347,51.700377169,BCT,MKD,OTH,,,,061,2000-01-01T00:00:00,2024-05-02T09:56:43,2,revise,active
5340AWA25003,torjwgp,,,St Dominic`s Retreat,,,,,,Twmpath Road,,,,nr,,NW,E0042806,Tranch,Pontypool,,,,,,false,UKOS,327563,200738,-3.049561543,51.700692674,BCT,MKD,OTH,,,,061,2000-01-01T00:00:00,2025-06-11T10:57:22,4,revise,active
5340AWA25004,torjwgt,,,St Dominic`s Retreat,,,,,,Twmpath Road,,,,nr,,SE,E0042806,Tranch,Pontypool,,,,,,false,UKOS,327570,200738,-3.049460272,51.700693579,BCT,MKD,OTH,,,,061,2000-01-01T00:00:00,2025-06-11T10:57:22,4,revise,active
5340AWA25005,torjwgw,,,Twmpath Gardens,,,,,,Twmpath Road,,,,after,,NW,E0057271,Pontypool,,,,,,,false,UKOS,327595,200527,-3.04905471,51.698799994,BCT,MKD,OTH,,,,061,2000-01-01T00:00:00,2024-05-02T09:56:03,3,revise,active
5340AWA25006,torjwja,,,Twmpath Gardens,,,,,,Twmpath Road,,,,before,,SE,E0057271,Pontypool,,,,,,,false,UKOS,327601,200528,-3.048968117,51.698809759,BCT,MKD,OTH,,,,061,2000-01-01T00:00:00,2024-05-02T09:56:03,3,revise,active
5340AWA25007,torjwjd,,,New Roundabout,,,,,,Blaendare Road,,,,after,,W,E0042762,Cwmynyscoy,Pontypool,,,,,,false,UKOS,328748,200295,-3.032326987,51.696862186,BCT,MKD,OTH,,,,061,2000-01-01T00:00:00,2024-05-02T09:56:00,2,revise,active
5340AWA25008,torjwjg,,,St Matthew`s Road,,,,Cwmynyscoy Post Office,,Blaendare Road,,,,before,,W,E0042762,Cwmynyscoy,Pontypool,,,,,,false,UKOS,328582,200332,-3.034735967,51.697173672,BCT,MKD,OTH,,,,061,2000-01-01T00:00:00,2025-07-15T13:20:36,3,revise,active
5340AWA25009,torjwjm,,,Farm Road Upper,,,,Cwm Fields Allotment Gardens,,Blaendare Road,,,,at,,SW,E0042759,Cwmfields,Pontypool,,,,,,false,UKOS,328322,200194,-3.038468799,51.6958999,BCT,MKD,OTH,,,,061,2000-01-01T00:00:00,2024-05-02T09:56:25,3,revise,active
5340AWA25010,torjwjp,,,Mynydd Court,,,,,,Blaendare Road,,,,nr,,SW,E0042759,Cwmfields,Pontypool,,,,,,false,UKOS,328108,200058,-3.041536422,51.694649891,BCT,MKD,OTH,,,,061,2000-01-01T00:00:00,2024-05-02T09:56:33,3,revise,active
5340AWA25011,torjwjt,,,Mynydd View,,,,,,Hillside Drive,,,,after,,SE,E0042759,Cwmfields,Pontypool,,,,,,false,UKOS,328135,199909,-3.041115111,51.693313892,BCT,MKD,OTH,,,,061,2000-01-01T00:00:00,2024-05-02T09:56:33,4,revise,inactive
5340AWA25013,torjwjw,,,Greys Road,,,,,,Hillside Drive,,,,after,,E,E0042762,Cwmynyscoy,Pontypool,,,,,,false,UKOS,328279,199934,-3.03903729,51.69355708,BCT,MKD,OTH,,,,061,2000-01-01T00:00:00,2024-05-02T09:56:27,2,revise,active
5340AWA25014,torjwma,,,Cwm Farm Lane,,,,,,Hillside Drive,,,,before,,E,E0042762,Cwmynyscoy,Pontypool,,,,,,false,UKOS,328429,200002,-3.036881492,51.694187555,BCT,MKD,OTH,,,,061,2000-01-01T00:00:00,2024-05-02T09:56:23,3,revise,active
5340AWA25015,torjwmd,,,Wheatsheaf Inn,,,,Wheatsheaf Inn PH,,Cwmynyscoy Road,,,,opp,,SW,E0042762,Cwmynyscoy,Pontypool,,,,,,false,UKOS,328282,199788,-3.038963739,51.692240281,BCT,MKD,OTH,,,,061,2000-01-01T00:00:00,2024-05-02T09:56:17,5,revise,active
5340AWA25016,torjwmg,,,Unicorn Inn,,,,Unicorn Inn PH,,Cwmynyscoy Road,,,,o/s,,NE,E0042762,Cwmynyscoy,Pontypool,,,,,,false,UKOS,328370,199865,-3.037706772,51.69294843,BCT,MKD,OTH,,,,061,2000-01-01T00:00:00,2024-05-02T09:56:16,2,revise,active
5340AWA25017,torjwmj,,,Folly View,,,,,,Cwmynyscoy Road,,,,nr,,NE,E0042762,Cwmynyscoy,Pontypool,,,,,,false,UKOS,328523,199990,-3.035519286,51.694091676,BCT,MKD,OTH,,,,061,2000-01-01T00:00:00,2025-07-15T13:32:37,3,revise,active
5340AWA25018,torjwmp,,,Viaduct Court Middle,,,,Viaduct Court,,Cwmynyscoy Road,,,,nr,,NE,E0042762,Cwmynyscoy,Pontypool,,,,,,false,UKOS,328613,200115,-3.034243028,51.695226859,BCT,MKD,OTH,,,,061,2000-01-01T00:00:00,2024-05-02T09:56:43,2,revise,active
5340AWA25019,torjwmt,,,Viaduct Court Lower,,,,Viaduct Court,,Cwmynyscoy Road,,,,nr,,NE,E0042762,Cwmynyscoy,Pontypool,,,,,,false,UKOS,328732,200222,-3.032543506,51.696203903,BCT,MKD,OTH,,,,061,2000-01-01T00:00:00,2024-05-02T09:56:43,2,revise,active
5340AWA25020,tordwdw,,,Railway Terrace,,,,,,Station Road,,,,nr,,NE,E0042801,Sebastopol,Pontypool,,,,,,false,UKOS,329509,198094,-3.020872863,51.677172004,BCT,MKD,OTH,,,,061,2000-01-01T00:00:00,2024-05-02T09:56:36,3,revise,active
5340AWA25021,tordwdt,,,Railway Terrace,,,,,,Station Road,,,,nr,,SW,E0042801,Sebastopol,Pontypool,,,,,,false,UKOS,329522,198127,-3.020691554,51.6774703,BCT,MKD,OTH,,,,061,2000-01-01T00:00:00,2024-05-02T09:56:36,3,revise,active
5340AWA25022,torjwmw,,,Giffithstown Rly Museum,,Museum,,Griffithstown Railway Museum,,Station Road,,,,opp,,NW,E0042772,Griffithstown,,,,,,,false,UKOS,329494,198648,-3.021201822,51.682150443,BCT,MKD,OTH,,,,061,2000-01-01T00:00:00,2025-07-15T13:35:41,6,revise,active
5340AWA25023,torjwpa,,,Giffithstown Rly Museum,,Museum,,Giffithstown Railway Museum,,Station Road,,,,o/s,,SE,E0042772,Griffithstown,,,,,,,false,UKOS,329491,198676,-3.021250871,51.682401779,BCT,MKD,OTH,,,,061,2000-01-01T00:00:00,2025-07-15T13:36:43,5,revise,active
5340AWA25024,tordwgd,,,Glenville,,,,Glenville (house),,Station Road,,,,nr,,NW,E0042772,Griffithstown,,,,,,,false,UKOS,329373,199188,-3.023061024,51.686984985,BCT,MKD,OTH,,,,061,2000-01-01T00:00:00,2024-05-02T09:56:03,5,revise,inactive
5340AWA25025,tordwga,,,Glenville,,,,Glenville (house),,Station Road,,,,nr,,SE,E0042772,Griffithstown,,,,,,,false,UKOS,329388,199155,-3.02283739,51.686690214,BCT,MKD,OTH,,,,061,2000-01-01T00:00:00,2024-05-02T09:56:03,4,revise,inactive
5340AWA25026,torjwpd,,,Griffithstown Fire Station,,Fire Station,,Griffithstown Fire Station,,New Road,,,,before,,E,E0042772,Griffithstown,,,,,,,false,UKOS,329679,199423,-3.018682738,51.689136048,BCT,MKD,OTH,,,,061,2000-01-01T00:00:00,2025-07-15T13:37:29,6,revise,active
5340AWA25027,torjwpg,,,Griffithstown Fire Station,,Fire Station,,Griffithstown Fire Station,,New Road,,,,after,,W,E0042772,Griffithstown,,,,,,,false,UKOS,329678,199416,-3.018695789,51.689072994,BCT,MKD,OTH,,,,061,2000-01-01T00:00:00,2024-05-02T09:56:04,5,revise,active
5340AWA25365,torgamp,,,St Thomas` Court,,,,,,Commercial Road,,,,nr,,NW,E0042805,Talywain,Abersychan,,,,,,false,UKOS,326210,203977,-3.069822819,51.729633322,BCT,MKD,OTH,,,,061,2000-01-01T00:00:00,2024-05-02T09:56:38,2,revise,active
5340AWB30003,tordmjw,,,Redbrook House,,,,,,St David`s Road,,,,Outside,,N,N0075716,Southville,Cwmbran,,,,,,false,UKOS,329633,195144,-3.018484741,51.650663014,BCT,MKD,OTH,,,,061,2000-01-01T00:00:00,2024-05-02T09:56:36,5,revise,active
5340AWB30004,tordmgt,,,Grange Road Ind Estate,,Grange Road Industrial Estate,,,,Llanfrechfa Grange,,,,after,,SE,N0075716,Southville,Cwmbran,,,,,,false,UKOS,329754,194777,-3.016662362,51.6473836,BCT,CUS,OTH,,,,061,2000-01-01T00:00:00,2024-05-02T09:56:27,3,revise,inactive
5340AWB30005,tordmgw,,,Grange Road Ind Estate,,Grange Road Industrial Estate,,,,Llanfrechfa Way,,,,before,,NW,N0075716,Southville,Cwmbran,,,,,,false,UKOS,329752,194769,-3.016689654,51.647311431,BCT,CUS,OTH,,,,061,2000-01-01T00:00:00,2024-05-02T09:56:27,3,revise,inactive
5340AWB30006,torawjw,,,Llanyravon Square,,,,Llanyrafon Square,,Llanfrechfa Way,,,,o/s,,SE,E0054742,Llanyrafon,Cwmbran,,,,,,false,UKOS,330398,194580,-3.00731693,51.645692821,BCT,MKD,OTH,,,,061,2000-01-01T00:00:00,2025-07-15T13:39:10,5,revise,active
5340AWB30007,torawam,,,Llanyravon Boating Lake,,Boating Lake,,Golf Course,,Llanfrechfa Way,,,,nr,,SE,E0054742,Llanyrafon,Cwmbran,,,,,,false,UKOS,330509,194217,-3.005640754,51.642443255,BCT,MKD,OTH,,,,061,2000-01-01T00:00:00,2025-07-15T13:39:58,4,revise,active
5340AWB30008,torawap,,,Llanyravon Boating Lake,,Boating Lake,,,,Llanfrechfa Way,,,,nr,,NW,E0054742,Llanyrafon,Cwmbran,,,,,,false,UKOS,330477,194262,-3.006112079,51.642843837,BCT,MKD,OTH,,,,061,2000-01-01T00:00:00,2025-07-15T13:44:55,4,revise,active
5340AWB30010,torawdg,,,Olway Close,,,,,,Beaumaris Drive,,,,before,,NW,E0054742,Llanyrafon,Cwmbran,,,,,,false,UKOS,330526,194506,-3.005452604,51.645043427,BCT,MKD,OTH,,,,061,2000-01-01T00:00:00,2024-05-02T09:56:33,2,revise,active
5340AWB30012,torawma,,,Beaumaris Drive,,,,Commodore Hotel,,Beaumaris Drive,,,,opp 13,,N,E0054742,Llanyrafon,Cwmbran,,,,,,false,UKOS,330450,194639,-3.006577278,51.646229667,BCT,CUS,OTH,,,,061,2000-01-01T00:00:00,2024-05-02T09:56:20,2,revise,active
5340AWB30013,torawgj,,,Ceredig Court,,,,,,Liswerry Drive,,,,before,,NE,E0054742,Llanyrafon,Cwmbran,,,,,,false,UKOS,330576,194749,-3.004778417,51.647234147,BCT,CUS,OTH,,,,061,2000-01-01T00:00:00,2024-05-02T09:56:22,2,revise,active
5340AWB30014,torawgp,,,Liswerry Close,,,,,,Liswerry Drive,,,,o/s 66,,N,E0054742,Llanyrafon,Cwmbran,,,,,,false,UKOS,330660,194852,-3.003585023,51.648170485,BCT,MKD,OTH,,,,061,2000-01-01T00:00:00,2024-05-02T09:56:30,2,revise,active
5340AWB30015,torawgm,,,Hawarden Green,,,,,,Liswerry Drive,,,,opp junct,,N,E0054742,Llanyrafon,Cwmbran,,,,,,false,UKOS,330664,194957,-3.003548069,51.649114913,BCT,CUS,OTH,,,,061,2000-01-01T00:00:00,2024-05-02T09:56:28,2,revise,active
5340AWB30016,torawgd,,,Dynevor Close,,,,,,Liserry Drive,,,,nr,,NW,E0054742,Llanyrafon,Cwmbran,,,,,,false,UKOS,330641,195138,-3.003916307,51.650734543,BCT,MKD,OTH,,,,061,2000-01-01T00:00:00,2024-06-05T11:05:38,3,revise,active
5340AWB30017,torawgt,,,Methodist Church,,,,Llanyrafon Methodist Church,,Lliswerry Drive,,,,opp,,NW,E0054742,Llanyrafon,Cwmbran,,,,,,false,UKOS,330603,195209,-3.004479676,51.651372817,BCT,CUS,OTH,,,,061,2000-01-01T00:00:00,2025-07-15T13:45:49,3,revise,active
5340AWB30018,torawdw,,,Tenby Close,,,,,,Caernarvon Crescent,,,,after,,SW,E0054742,Llanyrafon,Cwmbran,,,,,,false,UKOS,330408,195180,-3.007292007,51.651087966,BCT,MKD,OTH,,,,061,2000-01-01T00:00:00,2024-05-02T09:56:39,2,revise,active
5340AWB30019,torawgw,,,Llanyrafon Methodist Church,,Church,,,,Llanyravon Way,,,,o/s,,SW,E0054742,Llanyrafon,Cwmbran,,,,,,false,UKOS,330613,195250,-3.004343213,51.651737945,BCT,MKD,OTH,,,,061,2000-01-01T00:00:00,2025-07-15T13:46:53,6,revise,active
5340AWB30020,torawja,,,Llanyrafon Methodist Church,,Church,,,,Llanyravon Way,,,,after,,NE,E0054742,Llanyrafon,Cwmbran,,,,,,false,UKOS,330645,195291,-3.003888894,51.652110484,BCT,MKD,OTH,,,,061,2000-01-01T00:00:00,2025-07-15T13:47:30,6,revise,active
5340AWB30021,torawga,,,Miskin Green,,,,,,Caernarvon Crescent,,,,nr,,SW,E0054742,Llanyrafon,Cwmbran,,,,,,false,UKOS,330224,195112,-3.009937539,51.650453813,BCT,CUS,OTH,,,,061,2000-01-01T00:00:00,2024-05-02T09:56:32,2,revise,active
5340AWB30022,torawdt,,,Riversmead,,,,,,Caernarvon Cres,,,,nr,,SE,E0054742,Llanyrafon,Cwmbran,,,,,,false,UKOS,330214,194919,-3.010043481,51.648717532,BCT,MKD,OTH,,,,061,2000-01-01T00:00:00,2024-05-02T09:56:36,2,revise,active
5340AWB30023,torawmd,,,Liswerry Drive,,,,Llanyravon Mill,,Llanyravon Way,,,,After,,SW,E0054742,Llanyrafon,Cwmbran,,,,,,false,UKOS,330363,194698,-3.007846118,51.64674459,BCT,MKD,OTH,,,,061,2000-01-01T00:00:00,2024-05-02T09:56:30,5,revise,active
5340AWB30024,torawmg,,,Liswerry Drive,,,,Caernarvon Crescent,,Llanyravon Way,,,,Opp,,NE,E0054742,Llanyrafon,Cwmbran,,,,,,false,UKOS,330362,194736,-3.007868146,51.64708608,BCT,MKD,OTH,,,,061,2000-01-01T00:00:00,2024-05-02T09:56:30,5,revise,active
5340AWB30025,torawmj,,,Llanyravon Square,,,,Llanyrafon Square,,Llanfrechfa Way,,,,opp,,NW,E0054742,Llanyrafon,Cwmbran,,,,,,false,UKOS,330364,194593,-3.007810824,51.645805472,BCT,MKD,OTH,,,,061,2000-01-01T00:00:00,2025-07-15T13:48:28,4,revise,active
5340AWB30026,torawat,,,Kidwelly Road,,,,Rumney Walk,,Llanyravon Way,,,,after,,NE,E0054742,Llanyrafon,Cwmbran,,,,,,false,UKOS,330461,194997,-3.006489523,51.649444703,BCT,MKD,OTH,,,,061,2000-01-01T00:00:00,2024-05-02T09:56:29,7,revise,active
5340AWB30027,torawaw,,,Kidwelly Road,,,,Kidwelly Close,,Llanyravon Way,,,,after,,SW,E0054742,Llanyrafon,Cwmbran,,,,,,false,UKOS,330452,194951,-3.006610515,51.649034747,BCT,MKD,OTH,,,,061,2000-01-01T00:00:00,2024-05-02T09:56:30,4,revise,active
5340AWB30029,torawjp,,,Llanyravon Way,,,,,,Turnpike Road,,,,opposite Police Headquarters,,N,E0054742,Llanyrafon,Cwmbran,,,,,,false,UKOS,330760,195138,-3.002196559,51.650749236,BCT,MKD,OTH,,,,061,2000-01-01T00:00:00,2024-05-02T09:56:02,7,revise,active
5340AWB30030,torawjt,,,Llanyravon Way,,,,,,Turnpike Road,,,,Nr Police Headquarters,,S,E0054742,Llanyrafon,Cwmbran,,,,,,false,UKOS,330772,195219,-3.0020392,51.651478894,BCT,MKD,OTH,,,,061,2000-01-01T00:00:00,2024-05-02T09:56:02,9,revise,active
5340AWB30031,torawjd,,,Mill Lane,,,,,,A4042,,,,nr,,SW,E0054742,Llanyrafon,Cwmbran,,,,,,false,UKOS,330727,194782,-3.002602929,51.647549467,BCT,MKD,OTH,,,,061,2000-01-01T00:00:00,2024-05-02T09:56:32,2,revise,active
5340AWB30032,torawjg,,,Mill Lane,,,,,,Turnpike Road,,,,nr,,NE,E0054742,Llanyrafon,Cwmbran,,,,,,false,UKOS,330714,194841,-3.002802494,51.648078264,BCT,MKD,OTH,,,,061,2000-01-01T00:00:00,2024-05-02T09:56:32,2,revise,active
5340AWB30033,toragta,,,Plantation Drive,,,,Gwent County Hall,,Turnpike Road,,,,after,,NW,E0054737,Croesyceiliog,Cwmbran,,,,,,false,UKOS,330590,195680,-3.0047612,51.655605425,BCT,MKD,OTH,,,,061,2000-01-01T00:00:00,2025-07-15T13:50:31,4,revise,active
5340AWB30034,toragtd,,,Plantation Drive,,,,,,Turnpike Road,,,,after,,SE,E0054737,Croesyceiliog,Cwmbran,,,,,,false,UKOS,330618,195631,-3.00434677,51.655168385,BCT,MKD,OTH,,,,061,2000-01-01T00:00:00,2025-07-15T13:51:07,4,revise,active
5340AWB30035,toragwa,,,North Road Shops,,,,White Bungalow,,North Road,,,,before,,NW,E0054737,Croesyceiliog,Cwmbran,,,,,,false,UKOS,330620,195935,-3.004378201,51.657896852,BCT,MKD,OTH,,,,061,2000-01-01T00:00:00,2024-05-02T09:56:33,5,revise,active
5340AWB30036,toragwd,,,North Road Shops,,,,North Road Shops,,North Road,,,,after,,SE,E0054737,Croesyceiliog,Cwmbran,,,,,,false,UKOS,330602,195961,-3.004643542,51.658128362,BCT,MKD,OTH,,,,061,2000-01-01T00:00:00,2024-05-02T09:56:33,4,revise,active
5340AWB30037,toragjp,,,Bryn Eglwys,,,,,,North Road,,,,after,,SE,E0054737,Croesyceiliog,Cwmbran,,,,,,false,UKOS,330388,196144,-3.007773294,51.659751683,BCT,MKD,OTH,,,,061,2000-01-01T00:00:00,2024-05-02T09:55:57,3,revise,active
5340AWB30038,toragjt,,,Bryn Eglwys,,,,,,North Road,,,,after,,NW,E0054737,Croesyceiliog,Cwmbran,,,,,,false,UKOS,330329,196228,-3.008642882,51.660499505,BCT,MKD,OTH,,,,061,2000-01-01T00:00:00,2024-05-02T09:55:57,3,revise,active
5340AWB30039,toragtm,,,Croesyceiliog School,,,,Croesyceiliog Junior & Infants,,North Road,,,,opp,,NW,E0054737,Croesyceiliog,Cwmbran,,,,,,false,UKOS,330226,196470,-3.010180019,51.66265755,BCT,MKD,OTH,,,,061,2000-01-01T00:00:00,2025-07-15T13:53:01,6,revise,active
5340AWB30040,toragtp,,,Croesyceiliog School,,,,Croesyceiliog Junior & Infants,,North Road,,,,o/s,,SE,E0054737,Croesyceiliog,Cwmbran,,,,,,false,UKOS,330261,196401,-3.009660288,51.662041605,BCT,MKD,OTH,,,,061,2000-01-01T00:00:00,2025-07-15T13:53:43,7,revise,active
5340AWB30042,toragpa,,,Edlogan Square,,,,,,Edlogan Way,,,,after,,NE,E0054737,Croesyceiliog,Cwmbran,,,,,,false,UKOS,330219,196644,-3.010316102,51.664225598,BCT,MKD,OTH,,,,061,2000-01-01T00:00:00,2024-05-02T09:56:13,3,revise,active
5340AWB30043,toragpd,,,Edlogan Square,,,,Six in Hand PH,,Edlogan Way,,,,after,,SW,E0054737,Croesyceiliog,Cwmbran,,,,,,false,UKOS,330188,196571,-3.010749628,51.663565485,BCT,MKD,OTH,,,,061,2000-01-01T00:00:00,2024-05-02T09:56:13,2,revise,active
5340AWB30044,toragpw,,,Kinnock Court,,,,,,Caerwent Road,,,,after,,NW,E0054737,Croesyceiliog,Cwmbran,,,,,,false,UKOS,330145,196639,-3.011384839,51.664171439,BCT,MKD,OTH,,,,061,2000-01-01T00:00:00,2024-05-02T09:56:30,2,revise,active
5340AWB30045,toragpm,,,Glaslyn Court,,,,Glaslyn Court,,Cardigan Crescent,,,,after,,NW,E0054737,Croesyceiliog,Cwmbran,,,,,,false,UKOS,330038,196690,-3.012941847,51.664616586,BCT,MKD,OTH,,,,061,2000-01-01T00:00:00,2024-05-02T09:56:26,2,revise,active
5340AWB30046,toragwg,,,Terminus,,,,Grosmont Place,,Caerwent Road,,,,at,,S,E0054737,Croesyceiliog,Cwmbran,,,,,,false,UKOS,329999,197008,-3.013569445,51.667470477,BCT,MKD,OTH,,,,061,2000-01-01T00:00:00,2024-05-02T09:56:39,2,revise,active
5340AWB30047,toragma,,,Harlech Close,,,,,,Caerwent Road,,,,adj,,SE,E0054737,Croesyceiliog,Cwmbran,,,,,,false,UKOS,330079,196805,-3.012372199,51.665655525,BCT,MKD,OTH,,,,061,2000-01-01T00:00:00,2024-05-02T09:56:28,2,revise,active
5340AWB30048,toragmd,,,Chepstow Rise,,,,,,Edlogan Way,,,,after,,NE,E0054737,Croesyceiliog,Cwmbran,,,,,,false,UKOS,330281,196900,-3.009470996,51.666534698,BCT,MKD,OTH,,,,061,2000-01-01T00:00:00,2024-05-02T09:56:22,3,revise,active
5340AWB30049,toragmg,,,Chepstow Rise,,,,,,Edlogan Way,,,,after,,SW,E0054737,Croesyceiliog,Cwmbran,,,,,,false,UKOS,330281,196819,-3.009454808,51.665806523,BCT,MKD,OTH,,,,061,2000-01-01T00:00:00,2024-05-02T09:56:22,3,revise,active
5340AWB30050,torajad,,,Chepstow Rise,,,,,,Chepstow Rise,,,,in,,W,E0054737,Croesyceiliog,Cwmbran,,,,,,false,UKOS,330257,196840,-3.00980596,51.665992326,BCT,MKD,OTH,,,,061,2000-01-01T00:00:00,2024-05-02T09:56:22,3,revise,inactive
5340AWB30052,toragmj,,,Croesyceiliog School,,,,Christophers Garage,,Woodland Road,,,,Opp,,SE,E0054737,Croesyceiliog,Cwmbran,,,,,,false,UKOS,330524,195759,-3.005730836,51.656307454,BCT,MKD,OTH,,,,061,2000-01-01T00:00:00,2024-05-02T09:56:17,4,revise,active
5340AWB30053,toragmp,,,Croesyceiliog School,,,,Christophers Garage,,Woodland Road,,,,o/s,,NW,E0054737,Croesyceiliog,Cwmbran,,,,,,false,UKOS,330507,195749,-3.005974554,51.656215451,BCT,MKD,OTH,,,,061,2000-01-01T00:00:00,2024-05-02T09:56:17,4,revise,active
5340AWB30054,toragmt,,,Gwent County Hall Back,,,,Gwent County Hall Grounds,,Grounds 1,,,,not in use,,,E0054737,Croesyceiliog,Cwmbran,,,,,,false,UKOS,330790,195552,-3.001845177,51.654479426,BCT,HAR,OTH,,,,061,2000-01-01T00:00:00,2024-05-02T09:56:09,3,revise,inactive
5340AWB30055,toragmw,,,Gwent County Hall Front,,,,Gwent County Hall Grounds,,Grounds 2,,,,not in use,,E,E0054737,Croesyceiliog,Cwmbran,,,,,,false,UKOS,330843,195418,-3.001052628,51.65328132,BCT,MKD,OTH,,,,061,2000-01-01T00:00:00,2024-05-02T09:56:09,3,revise,inactive
5340AWB30056,toragtg,,,Tewdric Court,,,,,,The Highway,,,,before,,N,E0054737,Croesyceiliog,Cwmbran,,,,,,false,UKOS,330718,196060,-3.002986623,51.659037382,BCT,MKD,OTH,,,,061,2000-01-01T00:00:00,2024-06-05T11:27:35,3,revise,active
5340AWB30057,toragtj,,,Tewdric Court,,,,,,The Highway,,,,o/s,,S,E0054737,Croesyceiliog,Cwmbran,,,,,,false,UKOS,330732,196097,-3.002791514,51.659367043,BCT,MKD,OTH,,,,061,2000-01-01T00:00:00,2025-03-27T14:27:01,6,revise,active
5340AWB30058,toragwm,,,Upper Cock Inn,,,,Upper Cock Inn PH,,The Highway,,,,after,,NW,E0054737,Croesyceiliog,Cwmbran,,,,,,false,UKOS,330627,196382,-3.00436598,51.661920864,BCT,MKD,OTH,,,,061,2000-01-01T00:00:00,2024-05-02T09:56:16,3,revise,active
5340AWB30059,toragwp,,,Upper Cock Inn,,,,Upper Cock Inn PH,,The Highway,,,,opp,,S,E0054737,Croesyceiliog,Cwmbran,,,,,,false,UKOS,330644,196364,-3.004116663,51.661761149,BCT,MKD,OTH,,,,061,2000-01-01T00:00:00,2024-05-02T09:56:16,2,revise,active
5340AWB30060,toragdw,,,Ashford Hall,,,,,,The Highway,,,,before,,NW,E0054737,Croesyceiliog,Cwmbran,,,,,,false,UKOS,330561,196677,-3.005378737,51.664564698,BCT,MKD,OTH,,,,061,2000-01-01T00:00:00,2024-05-02T09:56:09,3,revise,active
5340AWB30061,toragja,,,Ashford Hall,,,,Ashford Hall,,The Highway,,,,before,,SE,E0054737,Croesyceiliog,Cwmbran,,,,,,false,UKOS,330567,196733,-3.005303146,51.665068871,BCT,MKD,OTH,,,,061,2000-01-01T00:00:00,2024-05-02T09:56:09,3,revise,active
5340AWB30062,toragjd,,,Chapel Lane,,,,Pontrhydyrun Baptist Church,,Chapel Lane,,,,opp,,NW,E0054737,Croesyceiliog,Cwmbran,,,,,,false,UKOS,330356,196897,-3.008386147,51.666517045,BCT,MKD,OTH,,,,061,2000-01-01T00:00:00,2025-07-15T14:13:54,6,revise,active
5340AWB30063,toragwj,,,The Willows,,,,Bottom of Edlogan Way,,Edlogan Way,,,,before,,S,E0054737,Croesyceiliog,Cwmbran,,,,,,false,UKOS,330109,196210,-3.011819318,51.660310327,BCT,MKD,OTH,,,,061,2000-01-01T00:00:00,2024-05-02T09:56:40,2,revise,active
5340AWB30064,toragjm,,,Bronllys Place,,,,Bottom of Edlogan Way,,Edlogan Way,,,,before,,N,E0054737,Croesyceiliog,Cwmbran,,,,,,false,UKOS,330064,196121,-3.012451942,51.659504627,BCT,MKD,OTH,,,,061,2000-01-01T00:00:00,2024-05-02T09:56:21,3,revise,active
5340AWB30065,torajmj,,,Allotments,,,,,,Edlogan Way,,,,o/s,,SW,E0054737,Croesyceiliog,Cwmbran,,,,,,false,UKOS,330021,196022,-3.01305363,51.658609275,BCT,MKD,OTH,,,,061,2000-01-01T00:00:00,2024-05-02T09:56:12,3,revise,active
5340AWB30067,tordmjp,,,Llantarnam Grange,,,,Llantarnam Grange,,St David`s Road,,,,outside,,N,E0042757,Cwmbran,,,,,,,false,UKOS,329618,195555,-3.018784372,51.654355943,BCT,MKD,OTH,,,,061,2000-01-01T00:00:00,2024-05-02T09:56:02,6,revise,active
5340AWB30068,torajwg,,,Trussel Road,,,,Somerset Rd Industrial Estate,,St David`s Road,,,,after,,NE,N0075715,Northville,Cwmbran,,,,,,false,UKOS,329594,195948,-3.019210604,51.657890615,BCT,MKD,OTH,,,,061,2000-01-01T00:00:00,2025-07-15T14:44:46,4,revise,active
5340AWB30069,torajwj,,,Trussel Road,,,,Somerset Rd Industrial Estate,,St David`s Road,,,,after,,SE,N0075715,Northville,Cwmbran,,,,,,false,UKOS,329610,195863,-3.018962199,51.65712849,BCT,MKD,OTH,,,,061,2000-01-01T00:00:00,2024-05-02T09:56:41,4,revise,active
5340AWB30070,tordapm,,,St David`s RC Church,,,,St David`s RC Church,,Station Road,,,,opp,,NW,E0042794,Pontnewynydd,,,,,,,false,UKOS,329602,196179,-3.019141571,51.659968261,BCT,MKD,OTH,,,,061,2000-01-01T00:00:00,2024-05-02T09:56:01,4,revise,active
5340AWB30071,tordapt,,,St David`s RC Church,,,,St David`s RC Church,,Station Road,,,,before,,SE,E0042792,Pontnewydd,Cwmbran,,,,,,false,UKOS,329559,196214,-3.01977018,51.660277507,BCT,MKD,OTH,,,,061,2000-01-01T00:00:00,2024-05-02T09:56:01,4,revise,active
5340AWB30072,tordjad,,,Pontnewydd Inn,,,,Pontnewydd Inn PH,,Commercial Street,,,,nr former,,W,E0042792,Pontnewydd,Cwmbran,,,,,,false,UKOS,329213,196305,-3.024789935,51.661052032,BCT,MKD,OTH,,,,061,2000-01-01T00:00:00,2024-06-05T14:27:51,4,revise,inactive
5340AWB30073,tordjag,,,Richmond Road,,,,Star of Bengal,,Richmond Road,,,,before,,N,E0042792,Pontnewydd,Cwmbran,,,,,,false,UKOS,329141,196355,-3.025840837,51.661492433,BCT,MKD,OTH,,,,061,2000-01-01T00:00:00,2024-05-02T09:56:36,2,revise,active
5340AWB30074,tordjap,,,Russell Street,,,,Pontnewydd Dental Surgery,,Russell Street,,,,o/s Dentist,,SE,E0042792,Pontnewydd,Cwmbran,,,,,,false,UKOS,329202,196392,-3.02496659,51.661832755,BCT,MKD,OTH,,,,061,2000-01-01T00:00:00,2024-05-02T09:56:37,2,revise,active
5340AWB30075,torampa,,,Pontnewydd Workingmen's Club,,Workingmen`s Club,,Pontnewydd Workingmen`s Club,,Chapel Street,,,,before,,SW,E0042792,Pontnewydd,Cwmbran,,,,,,false,UKOS,329075,195949,-3.026712258,51.657829555,BCT,MKD,OTH,,,,061,2000-01-01T00:00:00,2025-07-15T14:47:53,5,revise,active
5340AWB30076,torampd,,,Pontnewydd Workingmen`s Club,,Workingmen`s Club,,Pontnewydd Workingmen`s Club,,Chapel Street,,,,after,,NE,E0042792,Pontnewydd,Cwmbran,,,,,,false,UKOS,329069,195992,-3.02680772,51.658215357,BCT,MKD,OTH,,,,061,2000-01-01T00:00:00,2025-07-15T14:55:10,4,revise,active
5340AWB30077,tordtgt,,,Ashley House,,,,,,Mount Pleasant Road,,,,after,,SE,E0042792,Pontnewydd,Cwmbran,,,,,,false,UKOS,328964,196351,-3.028398554,51.661434092,BCT,MKD,OTH,,,,061,2000-01-01T00:00:00,2024-05-02T09:56:19,4,revise,active
5340AWB30078,tordtgw,,,Ashley House,,,,,,Mount Pleasant Road,,,,after,,NW,E0042792,Pontnewydd,Cwmbran,,,,,,false,UKOS,328869,196387,-3.029779113,51.661745688,BCT,MKD,OTH,,,,061,2000-01-01T00:00:00,2024-05-02T09:56:19,4,revise,active
5340AWB30079,tordtmg,,,Gilwern Place,,,,Brynawel,,Mount Pleasant Road,,,,after,,NW,E0042792,Pontnewydd,Cwmbran,,,,,,false,UKOS,328618,196474,-3.033425124,51.662495919,BCT,MKD,OTH,,,,061,2000-01-01T00:00:00,2024-05-02T09:56:26,4,revise,active
5340AWB30080,tordtmj,,,Gilwern Place,,,,Windsor House,,Mount Pleasant Road,,,,after,,SE,E0042792,Pontnewydd,Cwmbran,,,,,,false,UKOS,328686,196442,-3.032435626,51.662216894,BCT,MKD,OTH,,,,061,2000-01-01T00:00:00,2024-05-02T09:56:26,4,revise,active
5340AWB30081,tordtjw,,,Bryncelyn,,,,,,Maendy Wood Rise,,,,after,,NW,N0075719,West Pontnewydd,Cwmbran,,,,,,false,UKOS,328483,196439,-3.035369411,51.662164086,BCT,MKD,OTH,,,,061,2000-01-01T00:00:00,2024-05-02T09:55:57,3,revise,active
5340AWB30082,tordtma,,,Bryncelyn,,,,,,Maendy Wood Rise,,,,before,,SE,N0075719,West Pontnewydd,Cwmbran,,,,,,false,UKOS,328495,196439,-3.03519595,51.662165615,BCT,MKD,OTH,,,,061,2000-01-01T00:00:00,2024-05-02T09:55:57,3,revise,active
5340AWB30083,tordtmd,,,Yew Tree,,,,West Pontnewydd Clinic,,Maendy Wood Rise,,,,nr former,,SW,N0075719,West Pontnewydd,Cwmbran,,,,,,false,UKOS,328255,196464,-3.038670325,51.66235972,BCT,MKD,OTH,,,,061,2000-01-01T00:00:00,2025-07-15T15:05:02,3,revise,active
5340AWB30084,tordtjp,,,Trinity Road,,,,Trinity Road junction,,Maendy Way,,,,opp junct,,W,N0075719,West Pontnewydd,Cwmbran,,,,,,false,UKOS,328564,196051,-3.034119117,51.658686382,BCT,MKD,OTH,,,,061,2000-01-01T00:00:00,2024-05-02T09:56:40,3,revise,active
5340AWB30085,tordtjt,,,Trinity Road,,,,Trinity Road junction,,Maendy Way,,,,after,,SE,N0075719,West Pontnewydd,Cwmbran,,,,,,false,UKOS,328612,196045,-3.033424095,51.658638552,BCT,MKD,OTH,,,,061,2000-01-01T00:00:00,2024-05-02T09:56:40,3,revise,active
5340AWB30086,tordtjg,,,The Birches,,,,,,Maendy Way,,,,after,,NW,N0075719,West Pontnewydd,Cwmbran,,,,,,false,UKOS,328321,196311,-3.037684852,51.660992726,BCT,MKD,OTH,,,,061,2000-01-01T00:00:00,2024-05-02T09:56:39,3,revise,active
5340AWB30087,tordtjm,,,The Birches,,,,,,Maendy Way,,,,after,,SE,N0075719,West Pontnewydd,Cwmbran,,,,,,false,UKOS,328381,196269,-3.036808946,51.660622819,BCT,MKD,OTH,,,,061,2000-01-01T00:00:00,2024-05-02T09:56:40,3,revise,active
5340AWB30088,tordtja,,,Yew Tree,,,,Yew Tree PH,,Maendy Way,,,,before former,,NW,N0075719,West Pontnewydd,Cwmbran,,,,,,false,UKOS,328201,196409,-3.039439588,51.661858378,BCT,MKD,OTH,,,,061,2000-01-01T00:00:00,2025-07-15T15:06:16,4,revise,active
5340AWB30089,tordtjd,,,Yew Tree,,,,Maendy Square Shops,,Maendy Way,,,,o/s former,,SE,N0075719,West Pontnewydd,Cwmbran,,,,,,false,UKOS,328175,196462,-3.039826329,51.662331505,BCT,MKD,OTH,,,,061,2000-01-01T00:00:00,2025-07-15T15:06:52,4,revise,active
5340AWB30090,tordptw,,,Heol Newydd,,,,,,Maendy Way,,,,before,,NW,E0054750,Upper Cwmbran,Cwmbran,,,,,,false,UKOS,328046,196763,-3.041753122,51.665020883,BCT,MKD,OTH,,,,061,2000-01-01T00:00:00,2025-07-15T15:08:02,5,revise,active
5340AWB30091,tordtmp,,,Cadoc Road,,,,,,Mynydd Maen Road,,,,nr,,SE,E0054750,Upper Cwmbran,Cwmbran,,,,,,false,UKOS,328228,196691,-3.03910731,51.664396936,BCT,MKD,OTH,,,,061,2000-01-01T00:00:00,2024-05-02T09:56:22,4,revise,active
5340AWB30092,tordadj,,,Ty Trappa Place,,,,Ty Trappa,,Mynydd Maen Road,,,,after,,E,E0054750,Upper Cwmbran,Cwmbran,,,,,,false,UKOS,328498,196577,-3.035180864,51.663406582,BCT,MKD,OTH,,,,061,2000-01-01T00:00:00,2024-05-02T09:56:41,3,revise,active
5340AWB30093,tordadp,,,Ty Trappa,,,,,,Ty Trappa,,,,opp 20,,NW,E0054750,Upper Cwmbran,Cwmbran,,,,,,false,UKOS,328451,196718,-3.03588919,51.664668143,BCT,MKD,OTH,,,,061,2000-01-01T00:00:00,2024-05-02T09:56:16,3,revise,active
5340AWB30094,torawtp,,,Cross Keys,,,,Cross Keys PH,,Five Locks Road,,,,opp,,NE,E0042779,Lowlands,Cwmbran,,,,,,false,UKOS,328743,196848,-3.031694601,51.665873975,BCT,MKD,OTH,,,,061,2000-01-01T00:00:00,2024-05-02T09:56:23,4,revise,active
5340AWB30095,torawtw,,,Cross Keys,,,,Cross Keys PH,,Five Locks Road,,,,o/s,,SW,E0042779,Lowlands,Cwmbran,,,,,,false,UKOS,328755,196850,-3.031521533,51.665893478,BCT,MKD,OTH,,,,061,2000-01-01T00:00:00,2024-05-02T09:56:23,4,revise,active
5340AWB30096,torawtj,,,Clark Avenue,,,,,,Clark Avenue,,,,nr,,N,E0042779,Lowlands,Cwmbran,,,,,,false,UKOS,328990,196896,-3.028133555,51.666332112,BCT,MKD,OTH,,,,061,2000-01-01T00:00:00,2025-07-15T15:13:26,7,revise,active
5340AWB30097,torawtm,,,Clark Avenue,,,,,,Clark Avenue,,,,nr,,S,E0042779,Lowlands,Cwmbran,,,,,,false,UKOS,328996,196893,-3.028046205,51.666305902,BCT,MKD,OTH,,,,061,2000-01-01T00:00:00,2025-07-15T15:17:20,7,revise,active
5340AWB30098,torawtg,,,Parc Avenue,,,,,,Clark Avenue,,,,after,,SE,E0042779,Lowlands,Cwmbran,,,,,,false,UKOS,329032,196703,-3.02748712,51.664602403,BCT,MKD,OTH,,,,061,2000-01-01T00:00:00,2024-06-05T12:08:20,4,revise,active
5340AWB30099,torawtd,,,Fields Avenue,,,,,,Clark Avenue,,,,after,,NW,E0042779,Lowlands,Cwmbran,,,,,,false,UKOS,329053,196661,-3.027175097,51.66423218,BCT,MKD,OTH,,,,061,2000-01-01T00:00:00,2024-05-02T09:56:25,2,revise,active
5340AWB30100,tordgwp,,,Pontnewydd Surgery,,,,Pontnewydd Surgery,,Clark Avenue,,,,opp,,SE,E0042779,Lowlands,Cwmbran,,,,,,false,UKOS,329119,196623,-3.02621329,51.663898912,BCT,CUS,OTH,,,,061,2000-01-01T00:00:00,2025-07-15T15:29:37,4,revise,active
5340AWB30101,tordjaj,,,Pontnewydd War Memorial,,War Memorial,,Pontnewydd War Memorial,,Richmond Road,,,,before,,NE,E0042792,Pontnewydd,Cwmbran,,,,,,false,UKOS,329153,196580,-3.025713063,51.663516646,BCT,MKD,OTH,,,,061,2000-01-01T00:00:00,2025-07-15T15:33:28,5,revise,active
5340AWB30102,tordjam,,,Pontnewydd War Memorial,,Pontnewydd Constitutional Club,,Pontnewydd War Memorial,,Richmond Road,,,,opp,,SW,E0042792,Pontnewydd,Cwmbran,,,,,,false,UKOS,329170,196603,-3.025471986,51.663725557,BCT,MKD,OTH,,,,061,2000-01-01T00:00:00,2024-05-02T09:55:59,4,revise,active
5340AWB30103,tordada,,,Lowlands Road,,,,,,Lowlands Road,,,,after 57,,N,E0042779,Lowlands,Cwmbran,,,,,,false,UKOS,329126,196864,-3.02616106,51.666066329,BCT,MKD,OTH,,,,061,2000-01-01T00:00:00,2024-05-02T09:56:31,3,revise,active
5340AWB30104,tordadg,,,Lowlands Road,,,,,,Lowlands Road,,,,o/s 52,,S,E0042779,Lowlands,Cwmbran,,,,,,false,UKOS,329136,196851,-3.026013855,51.665950726,BCT,MKD,OTH,,,,061,2000-01-01T00:00:00,2024-05-02T09:56:31,3,revise,active
5340AWB30105,torawta,,,Ty Pwca Road,,,,,,Ty Pwca Road,,,,o/s 5,,NW,E0042779,Lowlands,Cwmbran,,,,,,false,UKOS,328402,196776,-3.036609435,51.665183297,BCT,MKD,OTH,,,,061,2000-01-01T00:00:00,2024-05-02T09:56:41,3,revise,active
5340AWB30106,tordpwm,,,Old School,,,,Upper Cwmbran Old School,,Upper Cwmbran Road,,,,opp,,W,E0054750,Upper Cwmbran,Cwmbran,,,,,,false,UKOS,328077,196854,-3.041323746,51.665842923,BCT,MKD,OTH,,,,061,2000-01-01T00:00:00,2025-07-15T15:35:53,4,revise,active
5340AWB30107,tordpwp,,,Old School,,,,Upper Cwmbran Old School,,Upper Cwmbran Road,,,,o/s,,SE,E0054750,Upper Cwmbran,Cwmbran,,,,,,false,UKOS,328020,196877,-3.0421525,51.666042376,BCT,MKD,OTH,,,,061,2000-01-01T00:00:00,2025-07-15T15:36:19,3,revise,active
5340AWB30108,tordpwa,,,Upper Cwmbran Playing Field,,Playing Field,,Upper Cwmbran Road,,Thornhill Road,,,,opp,,NE,E0054750,Upper Cwmbran,Cwmbran,,,,,,false,UKOS,327731,196814,-3.046317239,51.665434179,BCT,MKD,OTH,,,,061,2000-01-01T00:00:00,2024-05-02T09:56:07,5,revise,active
5340AWB30109,tordpwd,,,Upper Cwmbran Playing Field,,Playing Field,,Upper Cwmbran Playing Field,,Thornhill Road,,,,o/s,,SE,E0054750,Upper Cwmbran,Cwmbran,,,,,,false,UKOS,327738,196785,-3.046210039,51.665174379,BCT,MKD,OTH,,,,061,2000-01-01T00:00:00,2025-07-15T15:40:06,7,revise,active
5340AWB30110,tordpwg,,,Queen`s,,,,The Queen PH,,Upper Cwmbran Road,,,,before,,NW,E0054750,Upper Cwmbran,Cwmbran,,,,,,false,UKOS,327699,196866,-3.046790707,51.665902211,BCT,MKD,OTH,,,,061,2000-01-01T00:00:00,2024-05-02T09:56:36,3,revise,active
5340AWB30111,tordpwj,,,Queen`s,,,,The Queen PH,,Upper Cwmbran Road,,,,after,,SE,E0054750,Upper Cwmbran,Cwmbran,,,,,,false,UKOS,327682,196884,-3.047040195,51.666061834,BCT,MKD,OTH,,,,061,2000-01-01T00:00:00,2024-05-02T09:56:36,3,revise,active
5340AWB30112,tordmwt,,,Terminus,,,,Upper Cwmbran Terminus,,Upper Cwmbran Road,,,,at,,NW,E0054750,Upper Cwmbran,Cwmbran,,,,,,false,UKOS,327411,196863,-3.050953491,51.665838051,BCT,MKD,OTH,,,,061,2000-01-01T00:00:00,2024-05-02T09:56:39,2,revise,active
5340AWB30113,tordpdm,,,Woodlands,,,,,,Thornhill Road,,,,nr,,NE,N0075719,West Pontnewydd,Cwmbran,,,,,,false,UKOS,327727,196427,-3.046294994,51.661959336,BCT,MKD,OTH,,,,061,2000-01-01T00:00:00,2025-07-15T15:43:53,5,revise,active
5340AWB30114,tordpdp,,,Woodlands,,,,,,Thornhill Road,,,,nr,,SE,N0075719,West Pontnewydd,Cwmbran,,,,,,false,UKOS,327753,196336,-3.045900322,51.661144621,BCT,MKD,OTH,,,,061,2000-01-01T00:00:00,2025-07-15T15:44:23,5,revise,active
5340AWB30115,tordpaj,,,Hafod Court,,,,,,Hafren Road,,,,after,,NE,N0075719,West Pontnewydd,Cwmbran,,,,,,false,UKOS,327619,196181,-3.047805113,51.659733946,BCT,MKD,OTH,,,,061,2000-01-01T00:00:00,2024-05-02T09:56:27,4,revise,active
5340AWB30116,tordpam,,,Hafod Court,,,,,,Hafren Road,,,,before,,SW,N0075719,West Pontnewydd,Cwmbran,,,,,,false,UKOS,327621,196167,-3.047773301,51.659608348,BCT,MKD,OTH,,,,061,2000-01-01T00:00:00,2024-05-02T09:56:28,4,revise,active
5340AWB30117,toragd,,,Kingfisher,,,,Kingfisher PH,,Hafren Road,,,,nr,,SW,N0075718,Thornhill,Cwmbran,,,,,,false,UKOS,327459,196022,-3.050084756,51.658283921,BCT,MKD,OTH,,,,061,2000-01-01T00:00:00,2025-07-15T15:45:17,4,revise,active
5340AWB30118,toragj,,,Kingfisher,,,,Kingfisher PH,,Hafren Road,,,,nr,,NE,N0075718,Thornhill,Cwmbran,,,,,,false,UKOS,327370,195995,-3.05136553,51.658029687,BCT,MKD,OTH,,,,061,2000-01-01T00:00:00,2025-07-15T15:46:56,4,revise,active
5340AWB30119,toragm,,,Monnow Court,,,,,,Hafren Court,,,,before,,NW,N0075718,Thornhill,Cwmbran,,,,,,false,UKOS,327269,195790,-3.052782643,51.656173717,BCT,MKD,OTH,,,,061,2000-01-01T00:00:00,2024-05-02T09:56:32,2,revise,active
5340AWB30120,toragp,,,Stour Court,,,,,,Hafren Road,,,,before,,SE,N0075718,Thornhill,Cwmbran,,,,,,false,UKOS,327366,195736,-3.051369449,51.655700836,BCT,MKD,OTH,,,,061,2000-01-01T00:00:00,2024-05-02T09:56:39,2,revise,active
5340AWB30121,toragt,,,Trannon Court,,,,,,Hafren Road,,,,after,,SE,N0075718,Thornhill,Cwmbran,,,,,,false,UKOS,327509,195654,-3.049285636,51.654982169,BCT,MKD,OTH,,,,061,2000-01-01T00:00:00,2024-05-02T09:56:40,2,revise,active
5340AWB30122,toragw,,,Wye Court,,,,,,Hafren Road,,,,at,,SW,N0075718,Thornhill,Cwmbran,,,,,,false,UKOS,327617,195663,-3.047726599,51.655077016,BCT,MKD,OTH,,,,061,2000-01-01T00:00:00,2024-05-02T09:56:45,2,revise,active
5340AWB30123,torapmw,,,Barnets,,,,Arundel Close,,Ty Gwyn Road,,,,nr,,NE,N0075708,Greenmeadow,Cwmbran,,,,,,false,UKOS,327422,195242,-3.050457381,51.651267162,BCT,MKD,OTH,,,,061,2000-01-01T00:00:00,2024-05-02T09:55:56,3,revise,active
5340AWB30124,torapta,,,Barnets,,,,Bedford Close,,Ty Gwyn Road,,,,nr,,SW,N0075708,Greenmeadow,Cwmbran,,,,,,false,UKOS,327390,195182,-3.050907355,51.650723641,BCT,MKD,OTH,,,,061,2000-01-01T00:00:00,2024-05-02T09:55:56,3,revise,active
5340AWB30125,tordpad,,,Cwmbran Comprehensive School,,Cwmbran Comp,,Fairwater Leisure Centre,,Ty Gwyn Way,,,,before,,SW,E0054739,Fairwater,Cwmbran,,,,,,false,UKOS,327230,194913,-3.053163433,51.648279996,BCT,MKD,OTH,,,,061,2000-01-01T00:00:00,2025-07-15T15:49:55,8,revise,active
5340AWB30126,tordpag,,,Cwmbran Comprehensive School,,Cwmbran Comp,,Fairwater Leisure Centre,,Ty Gwyn Way,,,,after,,NE,E0054739,Fairwater,Cwmbran,,,,,,false,UKOS,327240,194992,-3.053035386,51.64899148,BCT,MKD,OTH,,,,061,2000-01-01T00:00:00,2025-07-15T15:50:43,7,revise,active
5340AWB30127,toraptp,,,Woolpitch,,,,,,Ty Gwyn Road,,,,nr,,SE,N0075708,Greenmeadow,Cwmbran,,,,,,false,UKOS,327649,195367,-3.047202763,51.652420184,BCT,MKD,OTH,,,,061,2000-01-01T00:00:00,2024-05-02T09:56:45,4,revise,active
5340AWB30128,toraptw,,,Woolpitch,,,,,,Ty Gwyn Road,,,,nr,,W,N0075708,Greenmeadow,Cwmbran,,,,,,false,UKOS,327633,195361,-3.047432751,51.652364183,BCT,MKD,OTH,,,,061,2000-01-01T00:00:00,2024-05-02T09:56:45,3,revise,active
5340AWB30129,toraptd,,,Golden Harvest,,,,Golden Harvest PH,,Ty Gwyn Road,,,,nr,,NW,N0075708,Greenmeadow,Cwmbran,,,,,,false,UKOS,327805,195262,-3.044926537,51.65149635,BCT,MKD,OTH,,,,061,2000-01-01T00:00:00,2024-05-02T09:56:03,3,revise,active
5340AWB30130,toraptg,,,Golden Harvest,,,,Golden Harvest PH,,Ty Gwyn Road,,,,nr,,SE,N0075708,Greenmeadow,Cwmbran,,,,,,false,UKOS,327897,195214,-3.043587066,51.651076668,BCT,MKD,OTH,,,,061,2000-01-01T00:00:00,2024-05-02T09:56:03,3,revise,active
5340AWB30131,toraptj,,,Pandy,,,,,,Ty Gwyn Road,,,,before,,SW,E0054739,Fairwater,Cwmbran,,,,,,false,UKOS,328095,195131,-3.040708556,51.650355919,BCT,MKD,OTH,,,,061,2000-01-01T00:00:00,2024-05-02T09:56:10,4,revise,active
5340AWB30132,toraptm,,,Pandy,,,,,,Ty Gwyn Road,,,,after,,NE,E0054739,Fairwater,Cwmbran,,,,,,false,UKOS,328124,195158,-3.040295024,51.650602357,BCT,MKD,OTH,,,,061,2000-01-01T00:00:00,2024-05-02T09:56:10,4,revise,active
5340AWB30133,toragpg,,,Evans Yard,,,,Evans` Builders Yard,,Woodland Road,,,,opp,,SE,E0054737,Croesyceiliog,Cwmbran,,,,,,false,UKOS,330300,195902,-3.008996959,51.657565222,BCT,MKD,OTH,,,,061,2000-01-01T00:00:00,2024-05-02T09:56:06,4,revise,active
5340AWB30134,toragpj,,,Evans Yard,,,,Evans` Builders Yard,,Woodland Road,,,,o/s,,NW,E0054737,Croesyceiliog,Cwmbran,,,,,,false,UKOS,330299,195890,-3.009009016,51.65745722,BCT,MKD,OTH,,,,061,2000-01-01T00:00:00,2024-05-02T09:56:06,3,revise,active
5340AWB30135,tordatd,,,Ebenezer,,,,Ebenezer Congregational Church,,St David`s Road,,,,nr,,SW,E0042792,Pontnewydd,Cwmbran,,,,,,false,UKOS,329638,196123,-3.018609916,51.659469348,BCT,MKD,OTH,,,,061,2000-01-01T00:00:00,2025-06-11T10:57:22,5,revise,active
5340AWB30136,torapmt,,,Parc Celyn,,,,Old Police College,,Greenmeadow Way,,,,opp,,NW,N0075708,Greenmeadow,Cwmbran,,,,,,false,UKOS,328239,195161,-3.038633723,51.65064404,BCT,MKD,OTH,,,,061,2000-01-01T00:00:00,2024-05-02T09:56:10,4,revise,active
5340AWB30137,torajtm,,,Parc Celyn,,,,Old Police College,,Greenmeadow Way,,,,o/s,,SE,N0075708,Greenmeadow,Cwmbran,,,,,,false,UKOS,328302,195141,-3.037719172,51.650472296,BCT,MKD,OTH,,,,061,2000-01-01T00:00:00,2024-05-02T09:56:10,4,revise,active
5340AWB30138,torajwp,,,St Joseph's,,,,St Joseph`s Club,,Blenheim Road,,,,before,,SW,E0042804,St Dials,Cwmbran,,,,,,false,UKOS,328324,195027,-3.037377746,51.649445582,BCT,CUS,OTH,,,,061,2000-01-01T00:00:00,2025-06-11T10:57:23,5,revise,inactive
5340AWB30139,torgjag,,,Marlborough,,,,Marlborough PH,,Blenheim Road,,,,o/s former,,SW,E0042804,St Dials,Cwmbran,,,,,,false,UKOS,328203,194919,-3.039104218,51.648463917,BCT,MKD,OTH,,,,061,2000-01-01T00:00:00,2024-05-02T09:56:08,3,revise,active
5340AWB30140,torgjaj,,,Brookside,,,,,,Blenheim Road,,,,before,,S,E0042804,St Dials,Cwmbran,,,,,,false,UKOS,328286,194700,-3.037859831,51.646505769,BCT,MKD,OTH,,,,061,2000-01-01T00:00:00,2024-05-02T09:55:56,3,revise,active
5340AWB30141,toramag,,,Gileston Walk,,,,,,Greenmeadow Way,,,,nr,,NW,E0042804,St Dials,Cwmbran,,,,,,false,UKOS,328526,194958,-3.034444592,51.648855737,BCT,MKD,OTH,,,,061,2000-01-01T00:00:00,2024-05-02T09:56:26,2,revise,active
5340AWB30142,tordmta,,,Shakespeare Road,,,,,,Greenmeadow Way,,,,before,,SE,E0042804,St Dials,Cwmbran,,,,,,false,UKOS,328634,194874,-3.032866724,51.648114337,BCT,MKD,OTH,,,,061,2000-01-01T00:00:00,2024-05-02T09:56:37,3,revise,active
5340AWB30143,tordmtd,,,Shakespeare Road,,,,,,Greenmeadow Way,,,,after,,NW,E0042804,St Dials,Cwmbran,,,,,,false,UKOS,328677,194812,-3.032232682,51.647562437,BCT,CUS,OTH,,,,061,2000-01-01T00:00:00,2024-05-02T09:56:37,3,revise,active
5340AWB30144,tordmtg,,,St Dial`s Shops,,,,St Dial`s Shops,,Greenmeadow Way,,,,opp,,SW,E0042804,St Dials,Cwmbran,,,,,,false,UKOS,328663,194559,-3.032383218,51.645281552,BCT,MKD,OTH,,,,061,2000-01-01T00:00:00,2025-07-15T15:56:23,7,revise,active
5340AWB30145,tordmtm,,,St Dial`s Shops,,,,St Dial`s Shops,,Henllys Way,,,,o/s,,SE,E0042804,St Dials,Cwmbran,,,,,,false,UKOS,328634,194537,-3.032797767,51.645080091,BCT,MKD,OTH,,,,061,2000-01-01T00:00:00,2025-07-15T15:56:53,6,revise,active
5340AWB30146,tordmpg,,,Cocker Avenue North,,,,Old Cwmbran Park,,Cocker Avenue,,,,nr 86,,NE,E0042804,St Dials,Cwmbran,,,,,,false,UKOS,328854,194563,-3.029624212,51.645346441,BCT,MKD,OTH,,,,061,2000-01-01T00:00:00,2024-05-02T09:56:22,3,revise,active
5340AWB30147,tordmpj,,,Cocker Avenue North,,,,,,Cocker Avenue,,,,opp 104,,SW,E0042804,St Dials,Cwmbran,,,,,,false,UKOS,328936,194610,-3.028448888,51.645779347,BCT,MKD,OTH,,,,061,2000-01-01T00:00:00,2024-05-02T09:56:22,3,revise,active
5340AWB30148,tordmpm,,,Mount Pleasant,,,,Mount Pleasant PH,,Wesley Street,,,,o/s,,NE,E0042804,St Dials,Cwmbran,,,,,,false,UKOS,329114,194842,-3.025923881,51.647887483,BCT,MKD,OTH,,,,061,2000-01-01T00:00:00,2024-05-02T09:56:32,2,revise,active
5340AWB30149,tordmjm,,,Old Cwmbran PO,,,,Old Cwmbran Post Office,,Commercial Street,,,,opp former,,NW,N0075716,Southville,Cwmbran,,,,,,false,UKOS,329155,194867,-3.025336475,51.648117404,BCT,MKD,OTH,,,,061,2000-01-01T00:00:00,2025-07-15T15:58:53,4,revise,active
5340AWB30150,tordmtw,,,Cwmbran Fire Station,,,,Cwmbran Fire Station,,Henllys Way,,,,after,,W,E0042804,St Dials,Cwmbran,,,,,,false,UKOS,329039,194425,-3.026922954,51.644129264,BCT,MKD,OTH,,,,061,2000-01-01T00:00:00,2025-07-15T15:59:27,3,revise,active
5340AWB30151,tordptm,,,Cwmbran Fire Station,,,,Cwmbran Fire Station,,Henllys Way,,,,opp,,NE,N0075716,Southville,Cwmbran,,,,,,false,UKOS,329087,194450,-3.026234455,51.644360074,BCT,MKD,OTH,,,,061,2000-01-01T00:00:00,2025-07-15T16:00:07,3,revise,active
5340AWB30152,tordmtp,,,Old Cwmbran Bowling Green,,Bowling Green,,Old Cwmbran Bowling Green,,Henllys Way,,,,after,,NW,E0042804,St Dials,Cwmbran,,,,,,false,UKOS,328727,194491,-3.031444648,51.644683068,BCT,MKD,OTH,,,,061,2000-01-01T00:00:00,2025-07-15T16:01:04,7,revise,active
5340AWB30153,torgjap,,,Blenheim Road,,,,,,Henllys Way,,,,after,,SW,E0042804,St Dials,Cwmbran,,,,,,false,UKOS,328246,194505,-3.038397776,51.644747655,BCT,MKD,OTH,,,,061,2000-01-01T00:00:00,2024-05-02T09:56:20,2,revise,active
5340AWB30154,torgjam,,,Blenheim Road,,,,,,Hennlys Way,,,,after,,E,E0042804,St Dials,Cwmbran,,,,,,false,UKOS,328336,194526,-3.03710162,51.644947935,BCT,MKD,OTH,,,,061,2000-01-01T00:00:00,2024-05-02T09:56:21,2,revise,active
5340AWB30155,torgjaw,,,Newton Wynd,,,,,,Fairwater Way,,,,nr,,E,E0054739,Fairwater,Cwmbran,,,,,,false,UKOS,327917,194452,-3.043140753,51.644229053,BCT,MKD,OTH,,,,061,2000-01-01T00:00:00,2024-05-02T09:56:10,3,revise,active
5340AWB30156,torgjda,,,Newton Wynd,,,,,,Fairwater Way,,,,nr,,W,E0054739,Fairwater,Cwmbran,,,,,,false,UKOS,327833,194438,-3.044351611,51.644092405,BCT,MKD,OTH,,,,061,2000-01-01T00:00:00,2024-05-02T09:56:10,3,revise,active
5340AWB30157,toramjp,,,Post Office,,,,Fairwater Shops,,Fairwater Way,,,,nr,,E,E0054739,Fairwater,Cwmbran,,,,,,false,UKOS,327650,194453,-3.04699895,51.644203699,BCT,MKD,OTH,,,,061,2000-01-01T00:00:00,2024-05-02T09:56:14,2,revise,active
5340AWB30158,torgjdg,,,Cheriton Path,,,,,,Fairhill,,,,nr,,NW,E0054739,Fairwater,Cwmbran,,,,,,false,UKOS,327766,194695,-3.045372868,51.646394153,BCT,MKD,OTH,,,,061,2000-01-01T00:00:00,2024-05-02T09:56:22,3,revise,active
5340AWB30159,toramjd,,,Cheriton Path,,,,,,Fairhill,,,,nr,,SE,E0054739,Fairwater,Cwmbran,,,,,,false,UKOS,327771,194693,-3.045300204,51.646376816,BCT,MKD,OTH,,,,061,2000-01-01T00:00:00,2024-05-02T09:56:22,3,revise,active
5340AWB30160,torapma,,,Three Penny Bit,,,,Three Penny Bit PH,,Fairhill,,,,nr,,NE,E0054739,Fairwater,Cwmbran,,,,,,false,UKOS,327757,194915,-3.045548428,51.648370737,BCT,MKD,OTH,,,,061,2000-01-01T00:00:00,2024-05-02T09:56:15,3,revise,active
5340AWB30161,torapmd,,,Three Penny Bit,,,,Three Penny Bit PH,,Fairhill,,,,nr,,SW,E0054739,Fairwater,Cwmbran,,,,,,false,UKOS,327769,194923,-3.045376674,51.648444199,BCT,MKD,OTH,,,,061,2000-01-01T00:00:00,2024-05-02T09:56:15,3,revise,active
5340AWB30162,torapmj,,,Badger`s Mead,,,,,,Fairhill,,,,before,,NE,E0054739,Fairwater,Cwmbran,,,,,,false,UKOS,327879,195072,-3.043817865,51.649797813,BCT,MKD,OTH,,,,061,2000-01-01T00:00:00,2024-05-02T09:55:55,4,revise,active
5340AWB30163,torapmp,,,Badger`s Mead,,,,,,Fairhill,,,,after,,SW,E0054739,Fairwater,Cwmbran,,,,,,false,UKOS,327876,195063,-3.04385936,51.64971652,BCT,MKD,OTH,,,,061,2000-01-01T00:00:00,2024-05-02T09:55:56,4,revise,active
5340AWB30164,tordmtj,,,Old Cwmbran Bowling Green,,Bowling Green,,Old Cwmbran Bowling Green,,Henllys Way,,,,o/s,,SE,E0042804,St Dials,Cwmbran,,,,,,false,UKOS,328825,194457,-3.030021656,51.644389848,BCT,MKD,OTH,,,,061,2000-01-01T00:00:00,2025-07-16T08:49:18,4,revise,active
5340AWB30165,torajwt,,,Cocker Avenue South,,,,,,Cocker Avenue,,,,o/s 69,,SW,E0042804,St Dials,Cwmbran,,,,,,false,UKOS,328721,194356,-3.031503796,51.643468686,BCT,MKD,OTH,,,,061,2000-01-01T00:00:00,2024-05-02T09:56:22,3,revise,active
5340AWB30166,toramad,,,Cocker Avenue South,,,,,,Cocker Avenue,,,,o/s 50,,NE,E0042804,St Dials,Cwmbran,,,,,,false,UKOS,328702,194333,-3.031773637,51.643259508,BCT,MKD,OTH,,,,061,2000-01-01T00:00:00,2024-05-02T09:56:23,3,revise,active
5340AWB30167,toratma,,,Two Locks Road,,,,,,Two Locks Road,,,,nr 61,,E,N0075713,Hollybush,Cwmbran,,,,,,false,UKOS,328640,194131,-3.032628221,51.641435695,BCT,MKD,OTH,,,,061,2000-01-01T00:00:00,2025-07-16T08:50:57,3,revise,active
5340AWB30168,toratjw,,,Two Locks Road,,,,Hollybush Corner,,Cocker Avenue,,,,after,,NE,N0075713,Hollybush,Cwmbran,,,,,,false,UKOS,328595,194136,-3.033279429,51.641474923,BCT,MKD,OTH,,,,061,2000-01-01T00:00:00,2024-05-02T09:56:41,2,revise,active
5340AWB30169,toratjp,,,Mill Tavern,,,,Mill Tavern PH,,Two Locks Road,,,,nr,,SW,N0075713,Hollybush,Cwmbran,,,,,,false,UKOS,328538,194094,-3.034094407,51.641090101,BCT,MKD,OTH,,,,061,2000-01-01T00:00:00,2025-07-16T08:51:46,3,revise,active
5340AWB30170,toratjm,,,Mill Tavern,,,,Mill Tavern PH,,Ton Road,,,,nr,,SE,N0075713,Hollybush,Cwmbran,,,,,,false,UKOS,328497,194122,-3.034692524,51.641336595,BCT,MKD,OTH,,,,061,2000-01-01T00:00:00,2025-07-16T08:57:04,3,revise,active
5340AWB30171,torgjat,,,Sandybrook Close,,,,,,Ton Road,,,,after,,SE,N0075713,Hollybush,Cwmbran,,,,,,false,UKOS,328354,194271,-3.036789222,51.642657842,BCT,MKD,OTH,,,,061,2000-01-01T00:00:00,2024-05-02T09:56:37,2,revise,active
5340AWB30172,toragad,,,Hollybush School,,,,Hollybush Junior School,,Ton Road,,,,after,,E,E0054739,Fairwater,Cwmbran,,,,,,false,UKOS,328160,194349,-3.039608357,51.643334254,BCT,MKD,OTH,,,,061,2000-01-01T00:00:00,2024-05-02T09:56:18,2,revise,active
5340AWB30173,toradwp,,,Fairwater Way,,,,,,Henllys Way,,,,after,,NE,E0054739,Fairwater,Cwmbran,,,,,,false,UKOS,328114,194452,-3.040294215,51.644254311,BCT,MKD,OTH,,,,061,2000-01-01T00:00:00,2024-05-02T09:56:25,3,revise,active
5340AWB30174,toradwt,,,Hollybush School,,,,Hollybush Junior School,,Henllys Way,,,,before,,SW,E0054739,Fairwater,Cwmbran,,,,,,false,UKOS,328036,194278,-3.041385424,51.642680102,BCT,MKD,OTH,,,,061,2000-01-01T00:00:00,2024-05-02T09:56:18,2,revise,active
5340AWB30175,toradwd,,,Rede Road,,,,Hollybush Junior School,,Henllys Way,,,,after,,NE,N0075704,Coed Eva,Cwmbran,,,,,,false,UKOS,327974,194182,-3.042261465,51.641809135,BCT,MKD,OTH,,,,061,2000-01-01T00:00:00,2024-05-02T09:56:36,3,revise,active
5340AWB30176,toradwg,,,Rede Road,,,,Coed Eva School,,Henllys Way,,,,after,,SE,N0075704,Coed Eva,Cwmbran,,,,,,false,UKOS,327975,194085,-3.042227018,51.640937257,BCT,MKD,OTH,,,,061,2000-01-01T00:00:00,2024-05-02T09:56:36,3,revise,active
5340AWB30177,torgata,,,Blinkin` Owl,,,,Blinkin` Owl PH,,Henllys Way,,,,o/s,,NE,N0075704,Coed Eva,Cwmbran,,,,,,false,UKOS,327967,193748,-3.042273127,51.637906682,BCT,MKD,OTH,,,,061,2000-01-01T00:00:00,2024-05-02T09:55:56,3,revise,active
5340AWB30178,toratgt,,,Blinkin` Owl,,,,Blinkin` Owl PH,,Henllys Way,,,,opp,,SW,N0075704,Coed Eva,Cwmbran,,,,,,false,UKOS,327976,193737,-3.042140833,51.637808949,BCT,MKD,OTH,,,,061,2000-01-01T00:00:00,2024-05-02T09:55:56,3,revise,active
5340AWB30179,toratgw,,,Perthy Close,,,,,,Henllys Way,,,,after,,NE,N0075713,Hollybush,Cwmbran,,,,,,false,UKOS,327841,193588,-3.04406046,51.636452145,BCT,MKD,OTH,,,,061,2000-01-01T00:00:00,2024-05-02T09:56:34,4,revise,active
5340AWB30180,toratja,,,Perthy Close,,,,,,Henllys Way,,,,after,,SW,N0075713,Hollybush,Cwmbran,,,,,,false,UKOS,327797,193524,-3.044682903,51.635871145,BCT,MKD,OTH,,,,061,2000-01-01T00:00:00,2024-05-02T09:56:34,4,revise,active
5340AWB30181,torajtp,,,Llys Gwyrdd,,,,,,Henllys Way,,,,opp junct,,SW,E0054740,Henllys,Cwmbran,,,,,,false,UKOS,327306,193403,-3.051751077,51.634720046,BCT,MKD,OTH,,,,061,2000-01-01T00:00:00,2024-05-02T09:56:07,3,revise,active
5340AWB30182,torajtw,,,Llys Gwyrdd,,,,,,Henllys Way,,,,after,,NE,E0054740,Henllys,Cwmbran,,,,,,false,UKOS,327313,193419,-3.051653281,51.634864788,BCT,MKD,OTH,,,,061,2000-01-01T00:00:00,2024-05-02T09:56:07,3,revise,active
5340AWB30183,torajwa,,,Pensarn Way,,,,,,Henllys Way,,,,before,,NW,E0054740,Henllys,Cwmbran,,,,,,false,UKOS,326850,193377,-3.058333163,51.634427107,BCT,MKD,OTH,,,,061,2000-01-01T00:00:00,2024-05-02T09:56:34,3,revise,active
5340AWB30184,torajwd,,,Pensarn Way,,,,,,Henllys Way,,,,after,,SE,E0054740,Henllys,Cwmbran,,,,,,false,UKOS,326850,193386,-3.058335046,51.634508015,BCT,MKD,OTH,,,,061,2000-01-01T00:00:00,2024-05-02T09:56:34,3,revise,active
5340AWB30185,toratat,,,Old School House,,,,Old School House,,Henllys Lane,,,,o/s,,NW,E0054740,Henllys,Cwmbran,,,,,,false,UKOS,326577,193529,-3.062308913,51.63575792,BCT,MKD,OTH,,,,061,2000-01-01T00:00:00,2025-07-16T09:07:46,4,revise,active
5340AWB30186,torataw,,,Old School House,,,,Henllys Nursery School,,Henllys Lane,,,,opp,,SE,E0054740,Henllys,Cwmbran,,,,,,true,UKOS,326582,193541,-3.0622392,51.63586645,BCT,MKD,OTH,,,,061,2000-01-01T00:00:00,2025-07-16T09:08:09,4,revise,active
5340AWB30187,toratdg,,,Vale View,,,,,,Henllys Village Road,,,,nr,,S,E0054740,Henllys,Cwmbran,,,,,,true,UKOS,326576,193820,-3.062384502,51.638373793,BCT,MKD,OTH,,,,061,2000-01-01T00:00:00,2024-05-02T09:56:43,2,revise,active
5340AWB30188,toratdj,,,Sunnybank,,,,,,Henllys Village Road,,,,nr,,N,E0054740,Henllys,Cwmbran,,,,,,true,UKOS,326568,193826,-3.062501342,51.638426686,BCT,MKD,OTH,,,,061,2000-01-01T00:00:00,2024-05-02T09:56:39,2,revise,active
5340AWB30189,toratda,,,Dorallt Inn,,,,Dorallt Inn PH,,Henllys Village Road,,,,after,,SW,E0054740,Henllys,Cwmbran,,,,,,true,UKOS,326589,193895,-3.062212442,51.639049721,BCT,MKD,OTH,,,,061,2000-01-01T00:00:00,2025-07-16T09:18:12,4,revise,active
5340AWB30190,toratdm,,,Dorallt Inn,,,,Dorallt Inn PH,,Henllys Village Road,,,,after,,SE,E0054740,Henllys,Cwmbran,,,,,,true,UKOS,326700,193961,-3.060622594,51.639657541,BCT,MKD,OTH,,,,061,2000-01-01T00:00:00,2024-05-02T09:56:00,3,revise,active
5340AWB30191,toramjt,,,Brunel Road,,,,,,Ty Gwyn Way,,,,before,,NW,E0054739,Fairwater,Cwmbran,,,,,,true,UKOS,327278,194579,-3.052400349,51.645288343,BCT,MKD,OTH,,,,061,2000-01-01T00:00:00,2024-05-02T09:56:21,3,revise,active
5340AWB30192,toramjw,,,Brunel Road,,,,,,Ty Gwyn Way,,,,before,,SE,E0054739,Fairwater,Cwmbran,,,,,,true,UKOS,327269,194635,-3.052542058,51.645790601,BCT,MKD,OTH,,,,061,2000-01-01T00:00:00,2024-05-02T09:56:21,3,revise,active
5340AWB30193,tordpgj,,,Pumping Station,,,,Maes-y-Rhiw Reservoir,,Ty Canol Way,,,,after,,NW,N0075718,Thornhill,Cwmbran,,,,,,true,UKOS,327091,194947,-3.055179267,51.648572302,BCT,MKD,OTH,,,,061,2000-01-01T00:00:00,2025-07-16T09:19:24,6,revise,active
5340AWB30194,tordpga,,,Penmaes Road,,,,,,Ty Canol Way,,,,after,,SE,N0075718,Thornhill,Cwmbran,,,,,,true,UKOS,327004,195025,-3.056452785,51.649262193,BCT,MKD,OTH,,,,061,2000-01-01T00:00:00,2024-05-02T09:56:34,5,revise,active
5340AWB30195,tordpgd,,,Penmaes Road,,,,,,Ty Canol Way,,,,before,,NW,N0075718,Thornhill,Cwmbran,,,,,,true,UKOS,326976,195023,-3.056856994,51.649240572,BCT,MKD,OTH,,,,061,2000-01-01T00:00:00,2024-05-02T09:56:34,5,revise,active
5340AWB30196,tordpdt,,,Bluebell Court,,,,,,Ty Canol Way,,,,before,,S,N0075718,Thornhill,Cwmbran,,,,,,false,UKOS,326727,194851,-3.060419188,51.647661898,BCT,MKD,OTH,,,,061,2000-01-01T00:00:00,2024-05-02T09:56:21,5,revise,active
5340AWB30197,tordpdw,,,Bluebell Court,,,,,,Ty Canol Way,,,,before,,N,N0075718,Thornhill,Cwmbran,,,,,,false,UKOS,326717,194774,-3.060547535,51.646968386,BCT,MKD,OTH,,,,061,2000-01-01T00:00:00,2024-05-02T09:56:21,5,revise,active
5340AWB30198,toratdt,,,Daffodil Court,,,,,,Ty Canol Way,,,,after,,SE,E0054740,Henllys,Cwmbran,,,,,,false,UKOS,326753,194598,-3.059990417,51.645390898,BCT,MKD,OTH,,,,061,2000-01-01T00:00:00,2024-05-02T09:56:23,2,revise,active
5340AWB30199,toratdw,,,Hawkes Ridge,,,,,,Ty Canol Way,,,,before,,NW,E0054740,Henllys,Cwmbran,,,,,,false,UKOS,326759,194535,-3.059890509,51.644825329,BCT,MKD,OTH,,,,061,2000-01-01T00:00:00,2024-05-02T09:56:28,2,revise,active
5340AWB30200,toratgj,,,Thistle Court,,,,,,Ty Canol Way,,,,after,,SE,E0054740,Henllys,Cwmbran,,,,,,false,UKOS,326804,194466,-3.059225821,51.644210908,BCT,MKD,OTH,,,,061,2000-01-01T00:00:00,2024-05-02T09:56:40,2,revise,active
5340AWB30201,toratga,,,Primrose Court,,,,,,Ty Canol Way,,,,before,,NW,E0054740,Henllys,Cwmbran,,,,,,false,UKOS,326931,194297,-3.057355404,51.64270819,BCT,MKD,OTH,,,,061,2000-01-01T00:00:00,2024-05-02T09:56:35,3,revise,active
5340AWB30202,toratgd,,,Primrose Court,,,,,,Ty Canol Way,,,,after,,SE,E0054740,Henllys,Cwmbran,,,,,,false,UKOS,326942,194303,-3.057197626,51.642758868,BCT,MKD,OTH,,,,061,2000-01-01T00:00:00,2024-06-05T11:54:28,4,revise,active
5340AWB30203,toratdp,,,Ty Canol Court,,,,Ty Canol Nursing Home,,Henllys Way,,,,nr,,NE,E0054739,Fairwater,Cwmbran,,,,,,false,UKOS,327037,194295,-3.055823405,51.642703995,BCT,MKD,OTH,,,,061,2000-01-01T00:00:00,2024-05-02T09:56:41,3,revise,active
5340AWB30204,toramjg,,,Tolpath,,,,,,Henllys Way,,,,before,,NW,E0054740,Henllys,Cwmbran,,,,,,true,UKOS,327280,194310,-3.052315448,51.642870366,BCT,MKD,OTH,,,,061,2000-01-01T00:00:00,2024-05-02T09:56:15,3,revise,active
5340AWB30205,toramjm,,,Neerings,,,,,,Henllys Way,,,,after,,SE,E0054740,Henllys,Cwmbran,,,,,,true,UKOS,327326,194296,-3.051647884,51.642750466,BCT,MKD,OTH,,,,061,2000-01-01T00:00:00,2024-05-02T09:56:09,3,revise,active
5340AWB30206,toratam,,,Farlays,,,,,,Penylan Way,,,,after,,SW,N0075704,Coed Eva,Cwmbran,,,,,,true,UKOS,327428,194168,-3.050147504,51.641612974,BCT,MKD,OTH,,,,061,2000-01-01T00:00:00,2024-05-02T09:56:01,3,revise,active
5340AWB30207,toratap,,,Farlays,,,,,,Penylan Way,,,,before,,NE,N0075704,Coed Eva,Cwmbran,,,,,,true,UKOS,327375,194108,-3.050900805,51.641066737,BCT,MKD,OTH,,,,061,2000-01-01T00:00:00,2024-05-02T09:56:01,3,revise,active
5340AWB30208,toradwj,,,Meyricks,,,,,,Penylan Way,,,,before,,SE,N0075704,Coed Eva,Cwmbran,,,,,,true,UKOS,327659,193757,-3.046724788,51.637947997,BCT,MKD,OTH,,,,061,2000-01-01T00:00:00,2024-05-02T09:56:08,3,revise,active
5340AWB30209,toradwm,,,Meyricks,,,,,,Penylan Way,,,,after,,NW,N0075704,Coed Eva,Cwmbran,,,,,,true,UKOS,327582,193759,-3.047837653,51.637956052,BCT,MKD,OTH,,,,061,2000-01-01T00:00:00,2024-05-02T09:56:08,3,revise,active
5340AWB30210,toratjd,,,Brynglas,,,,,,Hollybush Way,,,,nr,,W,N0075713,Hollybush,Cwmbran,,,,,,true,UKOS,328105,193595,-3.040247904,51.636548933,BCT,MKD,OTH,,,,061,2000-01-01T00:00:00,2024-05-02T09:55:57,2,revise,active
5340AWB30211,toratjg,,,Trostrey,,,,,,Hollybush Way,,,,before,,SW,N0075713,Hollybush,Cwmbran,,,,,,true,UKOS,328296,193655,-3.037500839,51.637112739,BCT,MKD,OTH,,,,061,2000-01-01T00:00:00,2024-05-02T09:56:15,2,revise,active
5340AWB30212,toratgm,,,Bryn Milwr,,,,,,Hollybush Way,,,,before,,SW,N0075713,Hollybush,Cwmbran,,,,,,true,UKOS,328408,193898,-3.035932542,51.639311545,BCT,MKD,OTH,,,,061,2000-01-01T00:00:00,2024-05-02T09:55:57,3,revise,active
5340AWB30213,toratmd,,,Two Locks Nursery School,,Nursery School,,Two Locks Nursery School,,Two Locks Road,,,,o/s,,E,N0075713,Hollybush,Cwmbran,,,,,,true,UKOS,328889,194150,-3.029034389,51.641638093,BCT,MKD,OTH,,,,061,2000-01-01T00:00:00,2025-07-16T09:36:57,4,revise,active
5340AWB30214,toratmg,,,Two Locks Nursery School,,Nursery School,,Two Locks Nursery School,,Two Locks Road,,,,opp,,W,N0075713,Hollybush,Cwmbran,,,,,,true,UKOS,328876,194138,-3.029219779,51.641528568,BCT,MKD,OTH,,,,061,2000-01-01T00:00:00,2025-07-16T09:37:36,4,revise,active
5340AWB30215,tordgdm,,,Doble's,,,,Doble & Son,,Ty Coch Way,,,,nr,,SE,E0042808,Ty Coch,Cwmbran,,,,,,true,UKOS,329189,194130,-3.024695733,51.641496212,BCT,MKD,OTH,,,,061,2000-01-01T00:00:00,2024-05-02T09:56:00,3,revise,active
5340AWB30216,tordgdp,,,Doble's,,,,Doble & Son,,Ty Coch Way,,,,nr,,NW,E0042808,Ty Coch,Cwmbran,,,,,,true,UKOS,329183,194118,-3.024779992,51.641387577,BCT,MKD,OTH,,,,061,2000-01-01T00:00:00,2024-05-02T09:56:00,3,revise,active
5340AWB30217,tordgdt,,,Marconi,,,,Marconi Systems,,Ty Coch Way,,,,nr,,SW,E0042808,Ty Coch,Cwmbran,,,,,,true,UKOS,329242,193811,-3.023865348,51.638635144,BCT,MKD,OTH,,,,061,2000-01-01T00:00:00,2024-05-02T09:56:08,3,revise,active
5340AWB30218,tordgdw,,,Marconi,,,,Marconi Systems,,Ty Coch Way,,,,nr,,NE,E0042808,Ty Coch,Cwmbran,,,,,,true,UKOS,329223,193749,-3.024127296,51.638075381,BCT,MKD,OTH,,,,061,2000-01-01T00:00:00,2024-05-02T09:56:08,3,revise,active
5340AWB30219,tordgja,,,Ty Coch Lane,,,,Ty Coch Industrial Estate,,Ty Coch Way,,,,after,,S,E0042808,Ty Coch,Cwmbran,,,,,,true,UKOS,329229,193552,-3.024000712,51.636305144,BCT,MKD,OTH,,,,061,2000-01-01T00:00:00,2024-05-02T09:56:07,3,revise,active
5340AWB30220,tordgjd,,,Ty Coch Lane,,,,Ty Coch Industrial Estate,,Ty Coch Way,,,,before,,N,E0042808,Ty Coch,Cwmbran,,,,,,true,UKOS,329222,193518,-3.024094954,51.635998608,BCT,MKD,OTH,,,,061,2000-01-01T00:00:00,2024-05-02T09:56:07,3,revise,active
5340AWB30221,tordawg,,,John Baker Close,,,,Palmer Environmental,,Llantarnam Park Way,,,,nr,,SE,E0054741,Llantarnam,,,,,,,true,UKOS,329591,193380,-3.018736148,51.634799704,BCT,MKD,OTH,,,,061,2000-01-01T00:00:00,2025-07-16T09:39:12,6,revise,active
5340AWB30222,tordawj,,,John Baker Close,,,,Palmer Enviromental,,Llantarnam Park Way,,,,nr,,NW,E0054741,Llantarnam,,,,,,,true,UKOS,329742,193332,-3.016545071,51.634387103,BCT,MKD,OTH,,,,061,2000-01-01T00:00:00,2025-07-16T09:39:41,5,revise,active
5340AWB30223,toratpg,,,William Brown Close,,,,Raglan House,,Llantarnam Park Way,,,,before,,SE,E0054741,Llantarnam,,,,,,,true,UKOS,330255,192951,-3.009058112,51.631030602,BCT,MKD,OTH,,,,061,2000-01-01T00:00:00,2024-05-02T09:56:44,3,revise,active
5340AWB30224,toratpj,,,William Brown Close,,,,Raglan House,,Llantarnam Park Way,,,,after,,NW,E0054741,Llantarnam,,,,,,,true,UKOS,330290,192936,-3.008549532,51.630900099,BCT,MKD,OTH,,,,061,2000-01-01T00:00:00,2024-05-02T09:56:44,3,revise,active
5340AWB30225,toratpa,,,Greenhouse,,,,Greenhouse PH,,Newport Road,,,,opp,,NE,E0054741,Llantarnam,,,,,,,false,UKOS,330620,193143,-3.003823561,51.632797171,BCT,MKD,OTH,,,,061,2000-01-01T00:00:00,2025-07-16T09:41:05,5,revise,active
5340AWB30227,toratpd,,,Greenhouse,,,,Greenhouse PH,,Newport Road,,,,after,,SW,E0054741,Llantarnam,,,,,,,false,UKOS,330599,193081,-3.004114708,51.632241897,BCT,MKD,OTH,,,,061,2000-01-01T00:00:00,2025-07-16T09:41:43,4,revise,active
5340AWB30228,tordatj,,,Hogarth Close,,,,Oakfield Store,,Brangwyn Avenue,,,,before,,SW,E0042783,Oakfield,Cwmbran,,,,,,true,UKOS,330194,193744,-3.010097679,51.63815198,BCT,MKD,OTH,,,,061,2000-01-01T00:00:00,2024-05-02T09:56:29,2,revise,active
5340AWB30229,tordatm,,,Hogarth Close,,,,Oakfield Store,,Brangwyn Avenue,,,,after,,NE,E0042783,Oakfield,Cwmbran,,,,,,true,UKOS,330177,193734,-3.01034129,51.638059968,BCT,MKD,OTH,,,,061,2000-01-01T00:00:00,2024-05-02T09:56:29,3,revise,inactive
5340AWB30230,tordawa,,,Court Farm Road,,,,,,Brangwyn Avenue,,,,before,,W,E0042783,Oakfield,Cwmbran,,,,,,true,UKOS,330018,193640,-3.012619631,51.637195129,BCT,MKD,OTH,,,,061,2000-01-01T00:00:00,2024-05-02T09:56:23,2,revise,active
5340AWB30231,tordawd,,,Plas Ty-coch,,,,,,Fields Road,,,,before,,NW,E0042783,Oakfield,Cwmbran,,,,,,true,UKOS,329821,193664,-3.015470572,51.6373863,BCT,MKD,OTH,,,,061,2000-01-01T00:00:00,2024-05-02T09:56:11,2,revise,active
5340AWB30232,tordgat,,,South Road Bottom,,,,,,South Road,,,,nr,,SW,E0042783,Oakfield,Cwmbran,,,,,,true,UKOS,329690,193721,-3.017374645,51.637882334,BCT,MKD,OTH,,,,061,2000-01-01T00:00:00,2024-05-02T09:56:38,2,revise,inactive
5340AWB30233,tordgap,,,South Road,,,,,,The Highway,,,,after,,NW,E0042783,Oakfield,Cwmbran,,,,,,true,UKOS,329659,193763,-3.017830974,51.638256024,BCT,MKD,OTH,,,,061,2000-01-01T00:00:00,2024-05-02T09:56:38,2,revise,active
5340AWB30234,tordgaj,,,East Road,,,,,,The Highway,,,,before,,NW,E0042783,Oakfield,Cwmbran,,,,,,true,UKOS,329550,193898,-3.019432986,51.639455986,BCT,MKD,OTH,,,,061,2000-01-01T00:00:00,2024-05-02T09:56:24,2,revise,active
5340AWB30235,tordgam,,,Flower Gardens,,,,Oakfield Flower Gardens,,The Highway,,,,nr,,NE,E0042783,Oakfield,Cwmbran,,,,,,true,UKOS,329583,194036,-3.018984016,51.640700721,BCT,MKD,OTH,,,,061,2000-01-01T00:00:00,2024-05-02T09:56:02,2,revise,active
5340AWB30236,tordawp,,,Flower Gardens,,,,Oakfield Flower Gardens,,Oakfield Road,,,,nr,,SE,E0042783,Oakfield,Cwmbran,,,,,,true,UKOS,329659,194038,-3.01788634,51.640728227,BCT,MKD,OTH,,,,061,2000-01-01T00:00:00,2024-05-02T09:56:03,3,revise,active
5340AWB30237,tordawt,,,Flower Gardens,,,,Oakfield Flower Gardens,,Oakfield Road,,,,nr,,NW,E0042783,Oakfield,Cwmbran,,,,,,true,UKOS,329586,194075,-3.018948532,51.6410517,BCT,MKD,OTH,,,,061,2000-01-01T00:00:00,2024-05-02T09:56:03,3,revise,active
5340AWB30238,tordgaw,,,Cwmbran TA Centre,,,,Chapman House,,Llandowlais Street,,,,nr,,NW,E0042808,Ty Coch,Cwmbran,,,,,,true,UKOS,329297,194187,-3.023146817,51.642022241,BCT,MKD,OTH,,,,061,2000-01-01T00:00:00,2025-07-16T09:58:24,4,revise,active
5340AWB30239,tordgda,,,Cwmbran TA Centre,,,,Chapman House,,Llandowlais Street,,,,nr,,E,E0042808,Ty Coch,Cwmbran,,,,,,true,UKOS,329231,194207,-3.024104489,51.642193722,BCT,MKD,OTH,,,,061,2000-01-01T00:00:00,2025-07-16T09:59:11,4,revise,active
5340AWB30240,tordgdg,,,Cwmbran TA Centre,,,,Chapman House,,Ty Coch Way,,,,before,,N,E0042808,Ty Coch,Cwmbran,,,,,,true,UKOS,329164,194224,-3.02507601,51.6423381,BCT,MKD,OTH,,,,061,2000-01-01T00:00:00,2025-07-16T09:59:34,4,revise,active
5340AWB30241,tordgdj,,,Cwmbran TA Centre,,,,Chapman House,,Ty Coch Way,,,,after,,SE,E0042808,Ty Coch,Cwmbran,,,,,,true,UKOS,329177,194229,-3.024889188,51.642384689,BCT,MKD,OTH,,,,061,2000-01-01T00:00:00,2025-07-16T10:00:07,4,revise,active
5340AWB30244,torajpt,,,Cwmbran Bus Station Stand H,,Cwmbran Bus Station,,Cwmbran Bus Station,,Gwent Square,,,,at,,,E0042757,Cwmbran,,,,,,,false,UKOS,329506,195531,-3.020398233,51.654126131,BCS,,,,,,061,2000-01-01T00:00:00,2025-07-16T10:34:22,7,revise,active
5340AWB30245,torajpm,,,Cwmbran Bus Station Stand G,,Cwmbran Bus Station,,Cwmbran Bus Station,,Gwent Square,,,,at,,,E0042757,Cwmbran,,,,,,,false,UKOS,329491,195530,-3.020614821,51.654115257,BCS,,,,,,061,2000-01-01T00:00:00,2025-07-16T10:35:02,7,revise,active
5340AWB30246,torajpj,,,Cwmbran Bus Station Stand F,,Cwmbran Bus Station,,Cwmbran Bus Station,,Gwent Square,,,,at,,,E0042757,Cwmbran,,,,,,,false,UKOS,329475,195530,-3.020846063,51.654113246,BCS,,,,,,061,2000-01-01T00:00:00,2025-07-16T10:35:44,7,revise,active
5340AWB30247,torajpa,,,Cwmbran Bus Station Stand C,,Cwmbran Bus Station,,Cwmbran Bus Station,,Gwent Square,,,,at,,,E0042757,Cwmbran,,,,,,,false,UKOS,329474,195562,-3.020866981,51.654400794,BCS,,,,,,061,2000-01-01T00:00:00,2025-07-16T10:36:19,7,revise,active
5340AWB30248,torajmw,,,Cwmbran Bus Station Stand B,,Cwmbran Bus Station,,Cwmbran Bus Station,,Gwent Square,,,,at,,,E0042757,Cwmbran,,,,,,,false,UKOS,329491,195565,-3.02062189,51.6544299,BCS,,,,,,061,2000-01-01T00:00:00,2025-07-16T10:36:56,7,revise,active
5340AWB30249,torajmt,,,Cwmbran Bus Station Stand A,,Cwmbran Bus Station,,Cwmbran Bus Station,,Gwent Square,,,,at,,,E0042757,Cwmbran,,,,,,,false,UKOS,329506,195566,-3.020405301,51.654440774,BCS,,,,,,061,2000-01-01T00:00:00,2025-07-16T10:37:55,8,revise,active
5340AWB30250,torajtj,,,General Rees Square,,,,Asda Superstore,,General Rees Square,,,,at,,N,E0042757,Cwmbran,,,,,,,false,UKOS,329255,195483,-3.024016215,51.653667728,BCT,MKD,OTH,,,,061,2000-01-01T00:00:00,2025-07-16T10:38:33,3,revise,active
5340AWB30251,tordapw,,,Peterson Funerals,,,,Peterson Funerals,,Maendy Way,,,,o/s,,W,N0075706,Forge Hammer,Cwmbran,,,,,,false,UKOS,328936,195934,-3.028718377,51.657681814,BCT,MKD,OTH,,,,061,2000-01-01T00:00:00,2025-07-16T10:39:40,5,revise,active
5340AWB30252,tordata,,,Peterson Funerals,,,,Peterson Funerals,,Maendy Way,,,,after,,SE,N0075706,Forge Hammer,Cwmbran,,,,,,false,UKOS,328998,195924,-3.027820209,51.657599764,BCT,MKD,OTH,,,,061,2000-01-01T00:00:00,2024-05-02T09:55:55,4,revise,active
5340AWB30253,tordgwj,,,Avondale Close,,,,,,Avondale Road,,,,before,,NW,E0042795,Pontrhydyrun,Cwmbran,,,,,,false,UKOS,329706,196958,-3.017795249,51.666984347,BCT,MKD,OTH,,,,061,2000-01-01T00:00:00,2024-05-02T09:56:20,3,revise,active
5340AWB30254,tordgwm,,,Avondale Close,,,,LG Lintels,,Avondale Road,,,,after,,SE,E0042795,Pontrhydyrun,Cwmbran,,,,,,false,UKOS,329720,196913,-3.017583788,51.666581561,BCT,MKD,OTH,,,,061,2000-01-01T00:00:00,2024-05-02T09:56:20,3,revise,active
5340AWB30255,tordjdp,,,Post Office,,,,Terrace Inn PH,,Pontrhydyrun Road,,,,nr former,,NE,E0042795,Pontrhydyrun,Cwmbran,,,,,,false,UKOS,329487,197112,-3.020992411,51.668341286,BCT,MKD,OTH,,,,061,2000-01-01T00:00:00,2025-07-16T10:42:47,4,revise,active
5340AWB30256,tordjdt,,,Post Office,,,,Pontrhydyrun Post Office,,Pontrhydyrun Road,,,,by Post Box,,SW,E0042795,Pontrhydyrun,Cwmbran,,,,,,false,UKOS,329553,197176,-3.020051162,51.668924925,BCT,MKD,OTH,,,,061,2000-01-01T00:00:00,2025-07-16T10:43:18,4,revise,active
5340AWB30257,tordjdm,,,Ashbridge,,,,Ashvale PH,,Avondale Road,,,,opp,,N,E0042795,Pontrhydyrun,Cwmbran,,,,,,false,UKOS,329679,197328,-3.018260179,51.670307182,BCT,MKD,OTH,,,,061,2000-01-01T00:00:00,2024-05-02T09:55:55,2,revise,active
5340AWB30258,toradmw,,,Upper Waun Street,,,,White Horse Cottages,,Upper Waun Street,,,,opp 24,,SE,E0054736,Blaenavon,,,,,,,false,UKOS,325160,209135,-3.086135029,51.775856861,BCT,MKD,OTH,,,,061,2000-01-01T00:00:00,2024-06-05T14:22:42,4,revise,active
5340AWB30259,toradpa,,,Kennard Crescent,,,,Blaenavon Health Centre,,Church Road,,,,after,,N,E0054736,Blaenavon,,,,,,,false,UKOS,324913,208972,-3.089679149,51.774363137,BCT,MKD,OTH,,,,061,2000-01-01T00:00:00,2025-07-16T10:43:47,3,revise,active
5340AWB30260,toradtm,,,Rifleman`s Arms,,,,Rifleman`s Arms PH,,Rifle Street,,,,o/s,,SW,E0042763,Elgam,Blaenavon,,,,,,false,UKOS,325261,209451,-3.084739645,51.778715718,BCT,CUS,OTH,,,,061,2000-01-01T00:00:00,2024-05-02T09:56:12,3,revise,active
5340AWB30261,toradpj,,,High Street,,,,58 High Street,,High Street,,,,opp 58,,SW,E0054736,Blaenavon,,,,,,,false,UKOS,325261,209026,-3.084648013,51.774895213,BCT,MKD,OTH,,,,061,2000-01-01T00:00:00,2024-05-02T09:56:28,2,revise,active
5340AWB30262,toradpw,,,Lion Street,,,,Torfaen Council Offices,,Lion Street,,,,opp 4,,NW,E0054736,Blaenavon,,,,,,,false,UKOS,325268,208961,-3.084532565,51.774311837,BCT,MKD,OTH,,,,061,2000-01-01T00:00:00,2024-05-02T09:56:30,2,revise,active
5340AWB30263,toradtd,,,Lower Hill Street Steps,,,,,,Church Road,,,,after,,SE,E0054736,Blaenavon,,,,,,,false,UKOS,325271,208637,-3.084419262,51.771399662,BCT,MKD,OTH,,,,061,2000-01-01T00:00:00,2024-05-02T09:56:31,2,revise,active
5340AWB30264,toradtg,,,Market Street,,,,,,Market Street,,,,opp 3,,NW,E0054736,Blaenavon,,,,,,,false,UKOS,325350,208759,-3.083300833,51.77250693,BCT,MKD,OTH,,,,061,2000-01-01T00:00:00,2024-05-02T09:56:13,2,revise,active
5340AWB30265,tordtwa,,,Old Butchers,,,,St Paul`s Church Hall,,Llanover Road,,,,opp 3,,SE,E0042755,Coed Cae,Blaenavon,,,,,,false,UKOS,325634,208820,-3.079198708,51.773093147,BCT,CUS,OTH,,,,061,2000-01-01T00:00:00,2024-05-02T09:56:33,2,revise,active
5340AWB30266,toragdm,,,Coedcae Cemetery,,,,Coedcae Cemetery,,Llanover Road,,,,nr,,SE,E0042755,Coed Cae,Blaenavon,,,,,,false,UKOS,325799,208678,-3.076777313,51.771833892,BCT,MKD,OTH,,,,061,2000-01-01T00:00:00,2025-07-16T10:51:06,5,revise,active
5340AWB30267,toragdp,,,Pottery,,,,Pottery PH,,Llanover Road Estate,,,,opp,,NE,E0042755,Coed Cae,Blaenavon,,,,,,true,UKOS,326132,208562,-3.071927435,51.770835223,BCT,MKD,OTH,,,,061,2000-01-01T00:00:00,2024-06-05T14:03:09,5,revise,active
5340AWB30268,toragaw,,,Giles Road,,,,,,Giles Road,,,,opp 15,,NW,E0042755,Coed Cae,Blaenavon,,,,,,true,UKOS,326112,208740,-3.072255254,51.772437389,BCT,MKD,OTH,,,,061,2000-01-01T00:00:00,2024-05-02T09:56:25,3,revise,active
5340AWB30269,toragdt,,,Bryn-welon Close,,,,,,Upper Coedcae Road,,,,after,,NW,E0042809,Upper Coedcae,Blaenavon,,,,,,true,UKOS,326014,208920,-3.073713702,51.774042527,BCT,MKD,OTH,,,,061,2000-01-01T00:00:00,2024-05-02T09:56:21,3,revise,active
5340AWB30270,toradpm,,,Hillside Avenue,,,,,,Upper Woodland Street,,,,before,,NW,E0042809,Upper Coedcae,Blaenavon,,,,,,true,UKOS,325726,209133,-3.07793265,51.775919078,BCT,MKD,OTH,,,,061,2000-01-01T00:00:00,2024-05-02T09:56:28,5,revise,active
5340AWB30271,tordjtw,,,Ty Fry Close,,,,,,Upper Woodland Street,,,,after,,NW,E0054736,Blaenavon,,,,,,,true,UKOS,325506,209241,-3.081143937,51.776860653,BCT,MKD,OTH,,,,061,2000-01-01T00:00:00,2024-05-02T09:56:41,4,revise,active
5340AWB30272,toramgj,,,Elgam Avenue Middle,,,,,,Elgam Avenue,,,,at,,W,E0042763,Elgam,Blaenavon,,,,,,false,UKOS,325425,209569,-3.082388322,51.779798382,BCT,MKD,OTH,,,,061,2000-01-01T00:00:00,2024-05-02T09:56:24,3,revise,inactive
5340AWB30274,toradmp,,,Curwood,,,,,,Varteg Road,,,,nr,,SE,E0054736,Blaenavon,,,,,,,false,UKOS,325214,208610,-3.085239357,51.771149324,BCT,MKD,OTH,,,,061,2000-01-01T00:00:00,2025-07-16T10:58:08,4,revise,active
5340AWB30275,toradmt,,,Curwood,,,,,,Varteg Road,,,,nr,,NW,E0054736,Blaenavon,,,,,,,false,UKOS,325200,208632,-3.085446959,51.771345218,BCT,MKD,OTH,,,,061,2000-01-01T00:00:00,2025-07-16T11:03:43,4,revise,active
5340AWB30276,toradtw,,,Forgeside Cemetery,,,,Forgeside Cemetery,,Varteg Road,,,,o/s,,SE,E0042765,Forgeside,,,,,,,true,UKOS,325326,207997,-3.083484426,51.765649088,BCT,CUS,OTH,,,,061,2000-01-01T00:00:00,2025-07-16T11:12:48,7,revise,active
5340AWB30277,toradwa,,,Forgeside Cemetery,,,,Forgeside Cemetery,,Varteg Road,,,,opp,,NW,E0042765,Forgeside,,,,,,,true,UKOS,325308,208020,-3.083750162,51.765853441,BCT,CUS,OTH,,,,061,2000-01-01T00:00:00,2025-07-16T11:13:29,7,revise,active
5340AWB30278,torampj,,,Coity Terrace,,,,Forgeside Club,,Coity Terrace,,,,opp 13,,SE,E0042765,Forgeside,,,,,,,false,UKOS,324398,208498,-3.097038507,51.770032735,BCT,MKD,OTH,,,,061,2000-01-01T00:00:00,2024-05-02T09:56:23,2,revise,active
5340AWB30280,torampm,,,Forgeside Inn,,,,Forgeside Inn PH,,Forgeside Road,,,,nr,,SW,E0042765,Forgeside,,,,,,,false,UKOS,324658,208506,-3.093273024,51.770139756,BCT,MKD,OTH,,,,061,2000-01-01T00:00:00,2024-05-02T09:56:02,3,revise,active
5340AWB30281,tordjdg,,,Merchant's Hill,,,,Free Press,,Osborne Road,,,,after,,NW,E0042794,Pontnewynydd,,,,,,,false,UKOS,327409,201785,-3.052007872,51.710084885,BCT,MKD,OTH,,,,061,2000-01-01T00:00:00,2024-05-02T09:56:32,3,revise,active
5340AWB30282,tordjdj,,,Merchant's Hill,,,,Pavilion Estate,,Osborne Road,,,,after,,SE,E0042794,Pontnewynydd,,,,,,,false,UKOS,327491,201747,-3.050813385,51.709753901,BCT,MKD,OTH,,,,061,2000-01-01T00:00:00,2024-05-02T09:56:32,3,revise,active
5340AWB30283,torajdm,,,Pontnewynydd Post Office,,Post Office,,Pontnewynydd Post Office,,St Luke`s Road,,,,opp Post Box,,NW,E0042794,Pontnewynydd,,,,,,,false,UKOS,327241,201964,-3.054476319,51.711672228,BCT,CUS,OTH,,,,061,2000-01-01T00:00:00,2025-07-16T11:19:59,5,revise,active
5340AWB30284,torajdp,,,St Luke's Road,,,,,,St Luke`s Road,,,,nr,,SE,E0042794,Pontnewynydd,,,,,,,false,UKOS,327309,201911,-3.053481229,51.711204608,BCT,MKD,OTH,,,,061,2000-01-01T00:00:00,2025-07-16T11:21:04,3,revise,active
5340AWB30285,tordmga,,,Snatchwood Road Bottom,,Snatchwood Road,,Snatchwood Halt,,Snatchwood Road,,,,at,,N,E0042802,Snatchwood,Abersychan,,,,,,false,UKOS,326918,202560,-3.059275598,51.716987974,BCT,MKD,OTH,,,,061,2000-01-01T00:00:00,2025-07-16T11:21:48,4,revise,active
5340AWB30286,tordmgd,,,Snatchwood Road Bottom,,Snatchwood Halt,,Snatchwood Halt,,Snatchwood Road,,,,at,,SE,E0042802,Snatchwood,Abersychan,,,,,,false,UKOS,326931,202537,-3.059082624,51.71678291,BCT,MKD,OTH,,,,061,2000-01-01T00:00:00,2024-05-02T09:56:37,3,revise,active
5340AWB30287,tordmdp,,,Snatchwood Terrace,,,,Hoylake Terrace,,Snatchwood Road,,,,o/s 5,,NE,E0042802,Snatchwood,Abersychan,,,,,,false,UKOS,326914,202929,-3.059411028,51.72030461,BCT,MKD,OTH,,,,061,2000-01-01T00:00:00,2025-07-16T11:22:47,4,revise,active
5340AWB30288,tordmdt,,,Snatchwood Terrace,,,,Opposite Hoylake Terrace,,Snatchwood Road,,,,opp 89,,S,E0042802,Snatchwood,Abersychan,,,,,,false,UKOS,326921,202911,-3.05930593,51.720143711,BCT,MKD,OTH,,,,061,2000-01-01T00:00:00,2025-07-16T11:23:28,4,revise,active
5340AWB30289,toradjw,,,Broad Street,,,,,,Broad Street,,,,after,,NW,E0042802,Snatchwood,Abersychan,,,,,,true,UKOS,326947,203232,-3.058997053,51.72303276,BCT,MKD,OTH,,,,061,2000-01-01T00:00:00,2025-07-16T11:30:53,5,revise,active
5340AWB30290,toradma,,,Broad Street,,,,,,Broad Street,,,,before,,SE,E0042802,Snatchwood,Abersychan,,,,,,true,UKOS,326959,203239,-3.05882483,51.723097253,BCT,MKD,OTH,,,,061,2000-01-01T00:00:00,2025-07-16T11:31:18,5,revise,active
5340AWB30291,torajd,,,Union Street,,,,,,Union Street,,,,at,,NE,E0054735,Abersychan,,,,,,,false,UKOS,326736,203353,-3.062076655,51.724092927,BCT,MKD,OTH,,,,061,2000-01-01T00:00:00,2024-05-02T09:56:42,2,revise,active
5340AWB30292,toradmg,,,Union Street,,,,,,Foundry Road,,,,nr,,NW,E0054735,Abersychan,,,,,,,false,UKOS,326665,203323,-3.063098036,51.723813944,BCT,MKD,OTH,,,,061,2000-01-01T00:00:00,2024-05-02T09:56:42,2,revise,active
5340AWB30293,torajg,,,Devon Place,,,,,,Foundry Road,,,,before,,E,E0054735,Abersychan,,,,,,,false,UKOS,326334,203413,-3.067908217,51.724579549,BCT,MKD,OTH,,,,061,2000-01-01T00:00:00,2025-07-16T11:39:13,3,revise,active
5340AWB30294,toradat,,,Big Arch,,,,,,Lodge Road,,,,o/s,,NW,E0054735,Abersychan,,,,,,,false,UKOS,326032,203483,-3.072294525,51.725168998,BCT,MKD,OTH,,,,061,2000-01-01T00:00:00,2024-05-02T09:56:20,3,revise,active
5340AWB30295,torajm,,,British School Close,,,,British School Close,,Church Road,,,,before,,SW,E0042764,Fairfield,Abersychan,,,,,,false,UKOS,326129,203746,-3.070946326,51.727546055,BCT,MKD,OTH,,,,061,2000-01-01T00:00:00,2025-07-16T11:40:53,4,revise,active
5340AWB30296,toradga,,,British School Close,,,,British School Close,,Church Road,,,,before,,NE,E0042764,Fairfield,Abersychan,,,,,,false,UKOS,326114,203702,-3.071154111,51.727148536,BCT,MKD,OTH,,,,061,2000-01-01T00:00:00,2025-07-16T11:41:33,5,revise,active
5340AWB30297,tordmwj,,,St Thomas` Church,,,,St Thomas` Church,,Church Road,,,,o/s,,SE,E0042805,Talywain,Abersychan,,,,,,false,UKOS,326179,204009,-3.070278291,51.729912214,BCT,MKD,OTH,,,,061,2000-01-01T00:00:00,2025-07-16T11:44:05,7,revise,active
5340AWB30298,tordmwm,,,Heol Waun,,,,St Thomas` Church Hall,,Church Road,,,,before,,N,E0042805,Talywain,Abersychan,,,,,,false,UKOS,326159,203932,-3.070551561,51.729222067,BCT,MKD,OTH,,,,061,2000-01-01T00:00:00,2025-07-16T11:44:31,3,revise,active
5340AWB30299,tordmwp,,,Commercial Road Top,,,,Railway Bungalow,,Commercial Road,,,,at,,SE,E0042805,Talywain,Abersychan,,,,,,false,UKOS,326065,204166,-3.071962115,51.73131321,BCT,MKD,OTH,,,,061,2000-01-01T00:00:00,2025-07-16T11:51:14,4,revise,active
5340AWB30300,torapja,,,Commercial Road Top,,,,Globe PH,,Commercial Road,,,,at,,NW,E0042805,Talywain,Abersychan,,,,,,false,UKOS,326007,204218,-3.072812853,51.731773001,BCT,MKD,OTH,,,,061,2000-01-01T00:00:00,2025-07-16T11:51:49,4,revise,active
5340AWB30301,toramwt,,,Bakery Houses,,,,Bakery Houses,,Emlyn Road,,,,nr,,NE,E0042769,Garndiffaith,,,,,,,false,UKOS,326024,204764,-3.072682975,51.736683529,BCT,MKD,OTH,,,,061,2000-01-01T00:00:00,2024-05-02T09:56:20,3,revise,active
5340AWB30302,torapad,,,Bakery Houses,,,,Bakery Houses,,Emlyn Road,,,,nr,,SW,E0042769,Garndiffaith,,,,,,,false,UKOS,326027,204736,-3.072633577,51.736432219,BCT,MKD,OTH,,,,061,2000-01-01T00:00:00,2024-05-02T09:56:20,3,revise,active
5340AWB30303,torapag,,,Balance Road,,,,,,New Road,,,,before,,NE,E0042769,Garndiffaith,,,,,,,false,UKOS,326178,205081,-3.070520605,51.739553544,BCT,MKD,OTH,,,,061,2000-01-01T00:00:00,2025-07-16T11:52:53,4,revise,active
5340AWB30304,torapaj,,,Balance Road,,,,,,New Road,,,,before,,SW,E0042769,Garndiffaith,,,,,,,false,UKOS,326199,205090,-3.070218444,51.73963722,BCT,MKD,OTH,,,,061,2000-01-01T00:00:00,2025-07-16T11:53:23,4,revise,active
5340AWB30305,tordtam,,,Varteg Hill Terminus,,,,Varteg Hill Terminus,,Varteg Road,,,,at,,N,E0042811,Varteg,,,,,,,false,UKOS,326342,205424,-3.068218576,51.742653879,BCT,MKD,OTH,,,,061,2000-01-01T00:00:00,2025-07-16T11:54:04,6,revise,active
5340AWB30306,tordwmt,,,Varteg Hill Terminus,,,,Varteg Hill Terminus,,Varteg Road,,,,at,,E,E0042811,Varteg,,,,,,,false,UKOS,326334,205401,-3.068329543,51.742446067,BCT,MKD,OTH,,,,061,2000-01-01T00:00:00,2025-07-16T11:54:32,6,revise,active
5340AWB30307,tordtat,,,Salisbury Terrace,,,,Crown Hotel PH,,Varteg Road,,,,before,,N,E0042811,Varteg,,,,,,,true,UKOS,326557,206076,-3.065243214,51.748548002,BCT,MKD,OTH,,,,061,2000-01-01T00:00:00,2024-05-02T09:56:37,3,revise,active
5340AWB30308,tordtaw,,,Salisbury Terrace,,,,Crown Hotel PH,,Varteg Road,,,,opp,,S,E0042811,Varteg,,,,,,,true,UKOS,326563,206076,-3.065156319,51.748548789,BCT,MKD,OTH,,,,061,2000-01-01T00:00:00,2024-05-02T09:56:37,4,revise,active
5340AWB30309,toramwj,,,Mountain Gate,,,,,,Varteg Road,,,,before,,SE,E0042811,Varteg,,,,,,,true,UKOS,326453,206943,-3.066933,51.756323561,BCT,CUS,OTH,,,,061,2000-01-01T00:00:00,2024-05-02T09:56:32,4,revise,inactive
5340AWB30310,toramwm,,,Mountain Gate,,,,,,Varteg Road,,,,after,,NW,E0042811,Varteg,,,,,,,true,UKOS,326447,206942,-3.067019698,51.756313782,BCT,CUS,OTH,,,,061,2000-01-01T00:00:00,2024-05-02T09:56:32,4,revise,inactive
5340AWB30311,toradpd,,,Health Centre,,,,Blaenavon Health Centre,,Forgeside Road,,,,o/s,,NE,E0054736,Blaenavon,,,,,,,false,UKOS,324857,209004,-3.090497565,51.774643271,BCT,CUS,OTH,,,,061,2000-01-01T00:00:00,2025-07-16T11:57:53,4,revise,active
5340AWB30312,toradpg,,,Health Centre,,,,Blaenavon Health Centre,,Forgeside Road,,,,opp,,SW,E0054736,Blaenavon,,,,,,,false,UKOS,324847,208983,-3.09063792,51.774453149,BCT,CUS,OTH,,,,061,2000-01-01T00:00:00,2024-05-02T09:55:58,3,revise,active
5340AWB30313,tordwag,,,Gwyn Crescent,,,,,,Samson`s Avenue,,,,before,,E,E0042769,Garndiffaith,,,,,,,false,UKOS,326464,205496,-3.066467272,51.743321859,BCT,CUS,OTH,,,,061,2000-01-01T00:00:00,2024-05-02T09:55:59,3,revise,active
5340AWB30314,tordwad,,,Gwyn Crescent,,,,,,Samson`s Avenue,,,,after,,W,E0042769,Garndiffaith,,,,,,,false,UKOS,326453,205490,-3.066625291,51.743266476,BCT,CUS,OTH,,,,061,2000-01-01T00:00:00,2024-05-02T09:55:59,5,revise,active
5340AWB30315,torjtat,,,Ty Dda Farm,,,,,,Samson`s Avenue,,,,nr,,SE,E0042769,Garndiffaith,,,,,,,false,UKOS,326597,205448,-3.064531167,51.742907827,BCT,CUS,OTH,,,,061,2000-01-01T00:00:00,2024-05-02T09:56:01,3,revise,active
5340AWB30316,torjtaw,,,Ty Dda Farm,,,,,,Samson`s Avenue,,,,nr,,N,E0042769,Garndiffaith,,,,,,,false,UKOS,326584,205444,-3.064718572,51.742870163,BCT,CUS,OTH,,,,061,2000-01-01T00:00:00,2024-05-02T09:56:01,3,revise,active
5340AWB30317,torapdg,,,Garndiffaith Rugby Club,,Rugby Club,,Garndiffaith Rugby Club,,Lasgarn View,,,,nr,,NW,E0042769,Garndiffaith,,,,,,,false,UKOS,326504,205100,-3.06580415,51.739762575,BCT,CUS,OTH,,,,061,2000-01-01T00:00:00,2024-05-02T09:55:59,7,revise,active
5340AWB30318,torapdj,,,Garndiffaith Rugby Club,,Rugby Club,,Garndiffaith Rugby Club,,Lasgarn View,,,,nr,,NE,E0042769,Garndiffaith,,,,,,,false,UKOS,326505,205113,-3.065792421,51.73987957,BCT,CUS,OTH,,,,061,2000-01-01T00:00:00,2024-05-02T09:55:59,5,revise,active
5340AWB30319,toramg,,,Lower Ty Gwyn Road,,,,,,Lower Ty Gwyn Road,,,,o/s 32,,SW,E0042769,Garndiffaith,,,,,,,false,UKOS,326402,205025,-3.067265291,51.739079638,BCT,CUS,OTH,,,,061,2000-01-01T00:00:00,2024-05-02T09:56:31,3,revise,active
5340AWB30320,toramj,,,Lower Ty Gwyn Road,,,,,,Lower Ty Gwyn Road,,,,after 36,,NE,E0042769,Garndiffaith,,,,,,,false,UKOS,326394,205002,-3.067376254,51.738871827,BCT,CUS,OTH,,,,061,2000-01-01T00:00:00,2024-05-02T09:56:31,3,revise,active
5340AWB30321,toramp,,,Hanbury Arms,,,,,,Herbert`s Road,,,,before,,SE,E0042769,Garndiffaith,,,,,,,false,UKOS,326218,204835,-3.069889173,51.737347397,BCT,MKD,OTH,,,,061,2000-01-01T00:00:00,2024-05-02T09:56:05,3,revise,active
5340AWB30322,toramt,,,Hanbury Arms,,,,,,Herbert`s Road,,,,before,,NW,E0042769,Garndiffaith,,,,,,,false,UKOS,326271,204715,-3.069096323,51.736275639,BCT,MKD,OTH,,,,061,2000-01-01T00:00:00,2024-05-02T09:56:05,3,revise,active
5340AWB30323,torgama,,,Garndiffaith Police Station,,Police Station,,Garndiffaith Police Station,,Stanley Road,,,,opp,,NW,E0042769,Garndiffaith,,,,,,,false,UKOS,326356,204678,-3.067857702,51.735949532,BCT,MKD,OTH,,,,061,2000-01-01T00:00:00,2024-05-02T09:56:04,4,revise,active
5340AWB30324,torapat,,,Garndiffaith Clinic,,,,Garndiffaith Clinic,,Cross Street,,,,nr,,SW,E0042769,Garndiffaith,,,,,,,true,UKOS,326400,204609,-3.06720603,51.735335043,BCT,MKD,OTH,,,,061,2000-01-01T00:00:00,2025-07-16T12:01:45,5,revise,active
5340AWB30325,torapam,,,Bailey Crescent,,,,,,Neville Street,,,,before,,SE,E0042769,Garndiffaith,,,,,,,true,UKOS,326292,204635,-3.068775301,51.735559242,BCT,MKD,OTH,,,,061,2000-01-01T00:00:00,2024-05-02T09:56:20,3,revise,active
5340AWB30326,torapap,,,Bailey Crescent,,,,,,Neville Street,,,,after,,NW,E0042769,Garndiffaith,,,,,,,true,UKOS,326268,204640,-3.069123844,51.735601028,BCT,MKD,OTH,,,,061,2000-01-01T00:00:00,2024-05-02T09:56:20,3,revise,active
5340AWB30673,torgdpj,,,Hafod Road,,,,,,Caerleon Road,,,,Opp,,NW,E0054746,Ponthir,,,,,,,true,UKOS,332941,192664,-2.970202306,51.628772912,BCT,MKD,OTH,,,,061,2000-01-01T00:00:00,2024-05-02T09:56:28,6,revise,active
5340AWB30674,torgdpm,,,The Star,,,,Star PH,,Caerleon Road,,,,before,,NW,E0054746,Ponthir,,,,,,,true,UKOS,332559,192943,-2.975774054,51.631235373,BCT,MKD,OTH,,,,061,2000-01-01T00:00:00,2024-05-02T09:56:40,5,revise,active
5340AWB30675,torgdpt,,,Lamb Lane,,,,,,Caerleon Road,,,,opposite,,NW,E0054746,Ponthir,,,,,,,true,UKOS,332347,193114,-2.978869617,51.632747157,BCT,MKD,OTH,,,,061,2000-01-01T00:00:00,2024-05-02T09:56:30,7,revise,active
5340AWB30676,torgdpw,,,Lamb Lane,,,,,,Caerleon Road,,,,after,,SE,E0054746,Ponthir,,,,,,,true,UKOS,332362,193109,-2.978651958,51.632704014,BCT,MKD,OTH,,,,061,2000-01-01T00:00:00,2024-05-02T09:56:30,7,revise,active
5340AWB30677,toratmj,,,The Gate,,,,Raj Gate PH,,Caerleon Road,,,,opp,,NW,E0042775,Llanfrechfa,,,,,,,true,UKOS,331744,193596,-2.987674808,51.637012027,BCT,MKD,OTH,,,,061,2000-01-01T00:00:00,2024-05-02T09:56:40,4,revise,active
5340AWB30678,toratmp,,,The Gate,,,,Raj Gate PH,,Caerleon Road,,,,outside,,SE,E0042775,Llanfrechfa,,,,,,,true,UKOS,331734,193627,-2.987825338,51.637289498,BCT,MKD,OTH,,,,061,2000-01-01T00:00:00,2024-05-02T09:56:40,4,revise,active
5340AWB30679,torawdm,,,Mitchell Close,,,,,,Caerleon Road,,,,opposite,,NW,E0042775,Llanfrechfa,,,,,,,true,UKOS,330947,194286,-2.999325622,51.643112907,BCT,MKD,OTH,,,,061,2000-01-01T00:00:00,2024-05-02T09:56:32,5,revise,active
5340AWB30680,torawdp,,,Mitchell Close,,,,,,Caerleon Road,,,,before,,SE,E0042775,Llanfrechfa,,,,,,,true,UKOS,330947,194319,-2.999332146,51.643409573,BCT,MKD,OTH,,,,061,2000-01-01T00:00:00,2024-05-02T09:56:32,4,revise,active
5340AWB30681,torawda,,,Twm Barlwm View,,,,Llanfrechfa Grange Hospital,,Caerleon Road,,,,Before,,N,E0042775,Llanfrechfa,,,,,,,false,UKOS,330845,194757,-3.0008928,51.647339271,BCT,MKD,OTH,,,,061,2000-01-01T00:00:00,2024-05-02T09:56:41,5,revise,active
5340AWB30682,torawdj,,,Crown Rise,,,,Llanfrechfa Grange Hospital,,Caerleon Road,,,,Opp,,S,E0042775,Llanfrechfa,,,,,,,true,UKOS,330891,194644,-3.000205711,51.646329081,BCT,MKD,OTH,,,,061,2000-01-01T00:00:00,2024-05-02T09:56:23,4,revise,active
5340AWB30683,torgdta,,,Candwr Park,,,,Ponthir Post Office,,Caerleon Road,,,,before,,SE,E0054746,Ponthir,,,,,,,true,UKOS,332731,192843,-2.973270257,51.630361697,BCT,MKD,OTH,,,,061,2000-01-01T00:00:00,2024-05-02T09:56:10,3,revise,active
5340AWB30684,torgdpg,,,Ponthir House Inn,,,,Ponthir House PH,,Caerleon Road,,,,o/s,,SE,E0054746,Ponthir,,,,,,,true,UKOS,333023,192599,-2.969005376,51.628198348,BCT,MKD,OTH,,,,061,2000-01-01T00:00:00,2024-05-02T09:56:11,6,revise,active
5340AWB30737,tordmjt,,,Goldcliff House,,,,Alfa Laval,,St David`s Road,,,,opposite,,S,N0075716,Southville,Cwmbran,,,,,,true,UKOS,329667,195026,-3.017969618,51.649606478,BCT,MKD,OTH,,,,061,2000-01-01T00:00:00,2024-05-02T09:56:26,4,revise,active
5340AWB30738,tordjpj,,,Town Hall 5,,,,Pontypool Town Hall,,Hanbury Road,,,,at,,NW,E0057271,Pontypool,,,,,,,false,UKOS,328233,200821,-3.039885494,51.701525035,BCT,MKD,OTH,,,,061,2000-01-01T00:00:00,2024-05-02T09:56:10,4,revise,active
5340AWB30739,tordjpm,,,Town Hall 4,,,,Pontypool Town Hall,,Hanbury Road,,,,at,,NW,E0057271,Pontypool,,,,,,,false,UKOS,328243,200805,-3.03973752,51.701382481,BCT,MKD,OTH,,,,061,2000-01-01T00:00:00,2024-05-02T09:56:10,4,revise,active
5340AWB30740,tordjpt,,,Town Hall 3,,,,Pontypool Registry Office,,Hanbury Road,,,,at,,SE,E0057271,Pontypool,,,,,,,false,UKOS,328312,200750,-3.038727928,51.700896881,BCT,MKD,OTH,,,,061,2000-01-01T00:00:00,2025-07-16T13:12:52,8,revise,active
5340AWB30741,tordjpw,,,Town Hall 2,,,,St James` Vicarage,,Hanbury Road,,,,at,,SE,E0057271,Pontypool,,,,,,,false,UKOS,328303,200762,-3.038860606,51.701003606,BCT,MKD,OTH,,,,061,2000-01-01T00:00:00,2025-07-16T13:16:30,5,revise,active
5340AWB30742,tordjta,,,Town Hall 1,,,,Pontypool Park Gates,,Hanbury Road,,,,at,,SE,E0057271,Pontypool,,,,,,,true,UKOS,328292,200772,-3.039021809,51.701092095,BCT,MKD,OTH,,,,061,2000-01-01T00:00:00,2025-07-16T13:17:11,5,revise,active
5340AWB30747,toragam,,,Greenfield Place,,,,Outdoor Centre,,Cwmavon Road,,,,before,,NW,E0042755,Coed Cae,Blaenavon,,,,,,true,UKOS,325533,208528,-3.080599525,51.770454781,BCT,MKD,OTH,,,,061,2000-01-01T00:00:00,2024-05-02T09:56:27,3,revise,active
5340AWB30748,toragap,,,Greenfield Place,,,,,,Cwmavon Road,,,,after,,SE,E0042755,Coed Cae,Blaenavon,,,,,,true,UKOS,325537,208534,-3.080542855,51.770509251,BCT,MKD,OTH,,,,061,2000-01-01T00:00:00,2024-05-02T09:56:27,3,revise,active
5340AWB30749,toragag,,,Glenside,,,,,,Cwmavon Road,,,,nr,,SE,E0042755,Coed Cae,Blaenavon,,,,,,true,UKOS,325858,208318,-3.07584553,51.7686102,BCT,MKD,OTH,,,,061,2000-01-01T00:00:00,2024-05-02T09:56:03,3,revise,active
5340AWB30750,toragaj,,,Glenside,,,,,,Cwmavon Road,,,,nr,,NW,E0042755,Coed Cae,Blaenavon,,,,,,true,UKOS,325839,208321,-3.076121462,51.768634647,BCT,MKD,OTH,,,,061,2000-01-01T00:00:00,2024-05-02T09:56:03,3,revise,active
5340AWB30751,toramwd,,,Cwmavon Reservoir,,,,Ty Michael Farm,,Cwmavon Road,,,,after,,NW,E0042756,Cwmavon,,,,,,,true,UKOS,326832,207253,-3.061508614,51.759164714,BCT,CUS,OTH,,,,061,2000-01-01T00:00:00,2025-07-16T13:24:08,5,revise,active
5340AWB30752,toramwg,,,Cwmavon Reservoir,,,,Ty Michael Farm,,Cwmavon Road,,,,before,,SE,E0042756,Cwmavon,,,,,,,true,UKOS,326845,207251,-3.061319874,51.759148436,BCT,CUS,OTH,,,,061,2000-01-01T00:00:00,2025-07-16T13:24:37,5,revise,active
5340AWB30753,torajgp,,,Cwmavon Bridge,,,,EMC Works,,Cwmavon Road,,,,before,,SW,E0042756,Cwmavon,,,,,,,true,UKOS,326989,206450,-3.059065386,51.751966643,BCT,MKD,OTH,,,,061,2000-01-01T00:00:00,2024-05-02T09:56:11,3,revise,active
5340AWB30754,torajgt,,,Cwmavon Bridge,,,,EMC Works,,Cwmavon Road,,,,before,,NE,E0042756,Cwmavon,,,,,,,true,UKOS,326961,206420,-3.059464617,51.751693301,BCT,MKD,OTH,,,,061,2000-01-01T00:00:00,2024-05-02T09:56:11,3,revise,active
5340AWB30755,torajmd,,,Cwmavon Community Centre,,Community Centre,,Cwmavon Community Centre,,Cwmavon Road,,,,after,,SE,E0042756,Cwmavon,,,,,,,true,UKOS,326940,206176,-3.059717328,51.749492426,BCT,MKD,OTH,,,,061,2000-01-01T00:00:00,2025-07-16T13:25:32,6,revise,active
5340AWB30756,torajmg,,,Cwmavon Community Centre,,Community Centre,,Cwmavon Community Centre,,Cwmavon Road,,,,before,,NW,E0042756,Cwmavon,,,,,,,true,UKOS,326939,206136,-3.059723394,51.749132714,BCT,MKD,OTH,,,,061,2000-01-01T00:00:00,2025-07-16T13:26:11,6,revise,active
5340AWB30757,torajgw,,,Denbridge Road,,,,,,Cwmavon Road,,,,after,,SE,E0042756,Cwmavon,,,,,,,true,UKOS,326953,205029,-3.05928789,51.739187798,BCT,MKD,OTH,,,,061,2000-01-01T00:00:00,2024-05-02T09:56:23,3,revise,active
5340AWB30758,torajma,,,Denbridge Road,,,,,,Cwmavon Road,,,,before,,NW,E0042756,Cwmavon,,,,,,,true,UKOS,326945,205035,-3.059404989,51.739240691,BCT,MKD,OTH,,,,061,2000-01-01T00:00:00,2024-05-02T09:56:24,3,revise,active
5340AWB30759,tordtdj,,,Rising Sun,,,,Rising Sun PH,,Cwmavon Road,,,,before,,SE,E0042812,Victoria Village,Abersychan,,,,,,false,UKOS,326967,204344,-3.058941192,51.733031776,BCT,MKD,OTH,,,,061,2000-01-01T00:00:00,2024-05-02T09:56:12,3,revise,active
5340AWB30760,tordtdm,,,Rising Sun,,,,Rising Sun PH,,Cwmavon Road,,,,after,,SW,E0042812,Victoria Village,Abersychan,,,,,,false,UKOS,326943,204299,-3.059279195,51.732624113,BCT,MKD,OTH,,,,061,2000-01-01T00:00:00,2024-05-02T09:56:12,3,revise,active
5340AWB30761,tordtdw,,,Village School,,,,Victoria Village School,,Cwmavon Road,,,,nr,,SE,E0042812,Victoria Village,Abersychan,,,,,,false,UKOS,327044,204017,-3.05775777,51.730102229,BCT,MKD,OTH,,,,061,2000-01-01T00:00:00,2024-05-02T09:56:19,3,revise,active
5340AWB30762,tordtga,,,Village School,,,,Victoria Village School,,Cwmavon Road,,,,nr,,NW,E0042812,Victoria Village,Abersychan,,,,,,false,UKOS,327002,204100,-3.058383224,51.730842887,BCT,MKD,OTH,,,,061,2000-01-01T00:00:00,2024-05-02T09:56:19,3,revise,active
5340AWB30763,tordtdp,,,Victoria Place,,,,Co-operative House,,Victoria Road,,,,nr,,SE,E0042812,Victoria Village,Abersychan,,,,,,false,UKOS,326773,204028,-3.061683273,51.730165726,BCT,MKD,OTH,,,,061,2000-01-01T00:00:00,2024-05-02T09:56:43,3,revise,active
5340AWB30764,tordtdt,,,Victoria Place,,,,Co-operative House,,Victoria Road,,,,nr,,NW,E0042812,Victoria Village,Abersychan,,,,,,false,UKOS,326719,204022,-3.06246375,51.730104721,BCT,MKD,OTH,,,,061,2000-01-01T00:00:00,2024-05-02T09:56:43,3,revise,active
5340AWB30765,toradag,,,Comprehensive School,,,,Abersychan Leisure Centre,,Manor Road,,,,o/s,,SW,E0054735,Abersychan,,,,,,,false,UKOS,326778,203733,-3.061548747,51.727514458,BCT,CUS,OTH,,,,061,2000-01-01T00:00:00,2025-07-16T13:28:12,4,revise,active
5340AWB30766,toradaj,,,Comprehensive School,,,,Abersychan Leisure Centre,,Manor Road,,,,opp,,NE,E0054735,Abersychan,,,,,,,true,UKOS,326785,203769,-3.061454998,51.727838998,BCT,CUS,OTH,,,,061,2000-01-01T00:00:00,2025-07-16T13:28:42,4,revise,active
5340AWB30767,tordgmj,,,Old Lane,,,,St Francis RC School,,Manor Road,,,,after,,SW,E0054735,Abersychan,,,,,,,false,UKOS,326608,203580,-3.063977343,51.726116793,BCT,MKD,OTH,,,,061,2000-01-01T00:00:00,2024-05-02T09:56:33,3,revise,active
5340AWB30768,torjtga,,,Old Lane,,,,St Francis RC School,,Manor Road,,,,before,,NE,E0054735,Abersychan,,,,,,,false,UKOS,326611,203591,-3.063936239,51.726216072,BCT,MKD,OTH,,,,061,2000-01-01T00:00:00,2024-05-02T09:56:33,3,revise,active
5340AWB30769,toradja,,,Manor Road,,,,,,Wellington Road,,,,before,,NW,E0042764,Fairfield,Abersychan,,,,,,false,UKOS,326217,203730,-3.069669056,51.727413828,BCT,MKD,OTH,,,,061,2000-01-01T00:00:00,2024-05-02T09:56:31,3,revise,active
5340AWB30770,toradjd,,,Manor Road,,,,,,Wellington Road,,,,after,,SE,E0042764,Fairfield,Abersychan,,,,,,false,UKOS,326217,203735,-3.069670117,51.727458776,BCT,CUS,OTH,,,,061,2000-01-01T00:00:00,2024-05-02T09:56:32,3,revise,active
5340AWB30771,toradgm,,,Gordon Road,,,,Gordon Road Turn,,Wellington Road,,,,before,,NE,E0042764,Fairfield,Abersychan,,,,,,false,UKOS,326412,203698,-3.066839499,51.72715183,BCT,CUS,OTH,,,,061,2000-01-01T00:00:00,2024-05-02T09:56:26,4,revise,active
5340AWB30772,toradmj,,,Coronation Terrace,,,,,,Wellington Road,,,,nr,,SW,E0054735,Abersychan,,,,,,,true,UKOS,326447,203831,-3.06636099,51.728352041,BCT,MKD,OTH,,,,061,2000-01-01T00:00:00,2024-05-02T09:56:23,2,revise,active
5340AWB30773,tordgmt,,,Pentwyn Terminus,,,,,,Pentwyn Road,,,,nr,,NW,E0042786,Pentwyn,Abersychan,,,,,,true,UKOS,326510,203235,-3.065323011,51.723002538,BCT,MKD,OTH,,,,061,2000-01-01T00:00:00,2024-10-23T15:41:32,6,revise,active
5340AWB30774,tordgpa,,,Severn View,,,,,,Pentwyn Terrace,,,,nr,,SE,E0042786,Pentwyn,Abersychan,,,,,,false,UKOS,326607,203083,-3.063886912,51.721648848,BCT,MKD,OTH,,,,061,2000-01-01T00:00:00,2024-05-02T09:56:37,3,revise,active
5340AWB30775,tordgpd,,,Severn View,,,,,,Pentwyn Terrace,,,,nr,,NW,E0042786,Pentwyn,Abersychan,,,,,,false,UKOS,326600,203084,-3.063988441,51.72165692,BCT,MKD,OTH,,,,061,2000-01-01T00:00:00,2024-05-02T09:56:37,3,revise,active
5340AWB30776,tordmgj,,,Pentwyn Terrace,,,,Pentwyn Phone Box,,Pentwyn Road,,,,after,,SW,E0042786,Pentwyn,Abersychan,,,,,,false,UKOS,326582,202883,-3.064206443,51.719842969,BCT,MKD,OTH,,,,061,2000-01-01T00:00:00,2025-07-16T13:32:18,10,revise,active
5340AWB30777,tordmdw,,,Pentwyn Terrace,,Phone Box,,Pentwyn Phone Box,,Pentwyn Road,,,,before,,NE,E0042786,Pentwyn,Abersychan,,,,,,false,UKOS,326582,202901,-3.064210243,51.720004781,BCT,MKD,OTH,,,,061,2000-01-01T00:00:00,2024-10-23T15:36:02,9,revise,active
5340AWB30778,tordmdm,,,Coopers Houses,,,,,,Pentwyn Road,,,,nr,,S,E0042786,Pentwyn,Abersychan,,,,,,true,UKOS,326528,202581,-3.064924308,51.717125723,BCT,CUS,OTH,,,,061,2000-01-01T00:00:00,2024-05-02T09:56:23,2,revise,active
5340AWB30779,tordgma,,,Highfield Close,,,,,,Pentrepiod Road,,,,after,,SE,E0042789,Pentre Piod,,,,,,,true,UKOS,326665,202132,-3.062846917,51.713107358,BCT,CUS,OTH,,,,061,2000-01-01T00:00:00,2024-05-02T09:56:28,3,revise,active
5340AWB30780,tordgmd,,,Highfield Close,,,,,,Pentrepiod Road,,,,before,,NW,E0042789,Pentre Piod,,,,,,,true,UKOS,326660,202120,-3.062916744,51.712998828,BCT,CUS,OTH,,,,061,2000-01-01T00:00:00,2024-05-02T09:56:28,3,revise,active
5340AWB30781,torajdt,,,Poplar Terrace,,,,,,Pentrepiod Road,,,,nr,,SE,E0042794,Pontnewynydd,,,,,,,true,UKOS,327097,201975,-3.056562424,51.711752389,BCT,CUS,OTH,,,,061,2000-01-01T00:00:00,2025-07-17T11:30:30,4,revise,active
5340AWB30782,torajdw,,,Poplar Terrace,,,,,,Pentrepiod Road,,,,nr,,NW,E0042794,Pontnewynydd,,,,,,,true,UKOS,327106,201964,-3.056429882,51.711654675,BCT,CUS,OTH,,,,061,2000-01-01T00:00:00,2025-07-17T11:31:04,4,revise,active
5340AWB30783,torajdj,,,Post Office,,,,Pontnewynydd Post Office,,Pentrepiod Road,,,,nr former,,NW,E0042794,Pontnewynydd,,,,,,,false,UKOS,327278,201910,-3.053929611,51.711191595,BCT,CUS,OTH,,,,061,2000-01-01T00:00:00,2025-07-17T11:31:34,5,revise,active
5340AWB30784,tordgjw,,,Cefn-Crib Road,,,,,,Cefn-Crib Road,,,,in,,E,E0042785,Pantygasseg,,,,,,,true,UKOS,325148,199781,-3.084294228,51.69177227,BCT,MKD,OTH,,,,061,2000-01-01T00:00:00,2024-05-02T09:56:22,2,revise,active
5340AWB30785,torajgj,,,Wesley Terrace,,,,Plasycoed Inn PH,,Plasycoed Road,,,,nr,,NE,E0042791,Plas-y-coed,,,,,,,true,UKOS,325959,201110,-3.07284617,51.703827138,BCT,CUS,OTH,,,,061,2000-01-01T00:00:00,2024-05-02T09:56:44,4,revise,active
5340AWB30786,torajgm,,,Wesley Terrace,,,,Plasycoed Inn PH,,Plasycoed Road,,,,nr,,SW,E0042791,Plas-y-coed,,,,,,,true,UKOS,325971,201109,-3.072672339,51.703819734,BCT,CUS,OTH,,,,061,2000-01-01T00:00:00,2024-05-02T09:56:44,4,revise,active
5340AWB30787,torajam,,,Bridgend Hotel,,,,Bridgend Hotel PH,,Chapel Road,,,,opp,,NW,E0042758,Cwmffrwdoer,,,,,,,false,UKOS,326645,201653,-3.063035363,51.708798726,BCT,MKD,OTH,,,,061,2000-01-01T00:00:00,2024-05-02T09:55:56,4,revise,active
5340AWB30788,torajap,,,Bridgend Hotel,,,,Bridgend Hotel PH,,Chapel Road,,,,o/s,,SE,E0042758,Cwmffrwdoer,,,,,,,false,UKOS,326653,201657,-3.062920446,51.708835732,BCT,MKD,OTH,,,,061,2000-01-01T00:00:00,2024-05-02T09:55:56,3,revise,active
5340AWB30789,torajga,,,Waunddu,,,,,,Waunddu,,,,opp 89,,NW,E0042758,Cwmffrwdoer,,,,,,,false,UKOS,326692,201835,-3.062393618,51.710440985,BCT,CUS,OTH,,,,061,2000-01-01T00:00:00,2024-05-02T09:56:16,2,revise,active
5340AWB30790,torajgd,,,Waunddu,,,,,,Waunddu,,,,o/s 2,,NE,E0042758,Cwmffrwdoer,,,,,,,false,UKOS,326685,201939,-3.062516824,51.711374986,BCT,CUS,OTH,,,,061,2000-01-01T00:00:00,2024-05-02T09:56:16,3,revise,active
5340AWB30791,torajda,,,Forgehammer,,,,Forgehammer PH,,Hanbury Road,,,,adj,,E,E0042794,Pontnewynydd,,,,,,,true,UKOS,327063,201758,-3.057008947,51.709797218,BCT,CUS,OTH,,,,061,2000-01-01T00:00:00,2024-05-02T09:56:02,3,revise,active
5340AWB30792,torajdg,,,Forgehammer,,,,Forgehammer PH,,Hanbury Road,,,,adj,,W,E0042794,Pontnewynydd,,,,,,,false,UKOS,327060,201751,-3.057050891,51.7097339,BCT,CUS,OTH,,,,061,2000-01-01T00:00:00,2024-05-02T09:56:02,3,revise,active
5340AWB30793,torajat,,,Bristol House,,,,,,Hanbury Road,,,,nr,,SW,E0042794,Pontnewynydd,,,,,,,false,UKOS,327266,201870,-3.054094898,51.710830452,BCT,CUS,OTH,,,,061,2000-01-01T00:00:00,2024-05-02T09:56:21,3,revise,active
5340AWB30794,torajaw,,,Bristol House,,,,,,Hanbury Road,,,,nr,,NE,E0042794,Pontnewynydd,,,,,,,false,UKOS,327261,201874,-3.054168087,51.710865761,BCT,CUS,OTH,,,,061,2000-01-01T00:00:00,2024-05-02T09:56:21,3,revise,active
5340AWB30795,tordjat,,,Horseshoe Inn,,,,Horseshoe Inn PH,,George Street,,,,o/s,,NW,E0042794,Pontnewynydd,,,,,,,false,UKOS,327409,201863,-3.052024144,51.710786076,BCT,MKD,OTH,,,,061,2000-01-01T00:00:00,2024-05-02T09:56:06,3,revise,active
5340AWB30796,tordjaw,,,Horseshoe Inn,,,,Horseshoe Inn PH,,George Street,,,,opp,,SE,E0042794,Pontnewynydd,,,,,,,false,UKOS,327422,201819,-3.051826849,51.710392217,BCT,MKD,OTH,,,,061,2000-01-01T00:00:00,2024-05-02T09:56:06,3,revise,active
5340AWB30797,toramtm,,,Royal Oak,,,,Royal Oak PH,,Freeholdland Road,,,,opp,,NW,E0042766,Freeholdland,,,,,,,false,UKOS,327231,202145,-3.054658883,51.713298049,BCT,CUS,OTH,,,,061,2000-01-01T00:00:00,2025-07-17T11:36:01,5,revise,active
5340AWB30798,toramtp,,,Royal Oak,,,,Royal Oak PH,,Freeholdland Road,,,,before,,SE,E0042766,Freeholdland,,,,,,,false,UKOS,327249,202123,-3.054393798,51.713102616,BCT,CUS,OTH,,,,061,2000-01-01T00:00:00,2025-07-17T11:36:45,5,revise,active
5340AWB30799,toramtw,,,West End,,,,Funeral Home,,Freeholdland Road,,,,nr,,N,E0042766,Freeholdland,,,,,,,false,UKOS,326999,202629,-3.058117805,51.717618821,BCT,CUS,OTH,,,,061,2000-01-01T00:00:00,2024-05-02T09:56:44,3,revise,active
5340AWB30800,toramwa,,,West End,,,,Funeral Home,,Freeholdland Road,,,,nr,,S,E0042766,Freeholdland,,,,,,,false,UKOS,327007,202613,-3.057998665,51.717476031,BCT,CUS,OTH,,,,061,2000-01-01T00:00:00,2024-05-02T09:56:44,3,revise,active
5340AWB30801,toramta,,,Pleasant Court,,,,,,Limekiln Road,,,,nr,,NE,E0042766,Freeholdland,,,,,,,false,UKOS,327047,202971,-3.057494852,51.720699517,BCT,CUS,OTH,,,,061,2000-01-01T00:00:00,2024-05-02T09:56:35,2,revise,active
5340AWB30802,toradap,,,Afon Court,,,,,,Limekiln Road,,,,after flats,,E,E0042802,Snatchwood,Abersychan,,,,,,false,UKOS,327055,203288,-3.05744556,51.723550259,BCT,MKD,OTH,,,,061,2000-01-01T00:00:00,2024-05-02T09:56:19,5,revise,active
5340AWB30803,tordptd,,,Upland Drive,,,,,,Newman Road,,,,opp 42,,NW,E0054749,Trevethin,Pontypool,,,,,,false,UKOS,328026,202115,-3.04314791,51.713131091,BCT,CUS,OTH,,,,061,2000-01-01T00:00:00,2024-05-02T09:56:42,2,revise,active
5340AWB30804,torjwaj,,,Upland Drive,,,,,,Newman Road,,,,o/s 42,,,E0054749,Trevethin,Pontypool,,,,,,false,UKOS,328005,202127,-3.043454291,51.713236268,BCT,HAR,OTH,,,,061,2000-01-01T00:00:00,2024-05-02T09:56:42,3,revise,inactive
5340AWB30805,tordptj,,,Trevethin Terminus,,,,Woodside Stores,,Glenview Road,,,,at,,NW,E0054749,Trevethin,Pontypool,,,,,,false,UKOS,327814,202669,-3.046330705,51.718079374,BCT,MKD,OTH,,,,061,2000-01-01T00:00:00,2025-07-17T11:38:56,5,revise,active
5340AWB30806,tordpgt,,,Beeches Road,,,,,,Newman Road,,,,before,,NW,E0054749,Trevethin,Pontypool,,,,,,false,UKOS,327634,202439,-3.048887978,51.715988528,BCT,CUS,OTH,,,,061,2000-01-01T00:00:00,2024-05-02T09:56:20,4,revise,active
5340AWB30807,tordpgw,,,Beeches Road,,,,,,Newman Road,,,,opp junct,,,E0054749,Trevethin,Pontypool,,,,,,false,UKOS,327631,202459,-3.048935651,51.71617262,BCT,HAR,OTH,,,,061,2000-01-01T00:00:00,2024-05-02T09:56:20,3,revise,inactive
5340AWB30808,tordpjd,,,Elmhurst Close,,,,,,Central Drive,,,,opp,,SE,E0054749,Trevethin,Pontypool,,,,,,false,UKOS,327860,202478,-3.045625335,51.716368283,BCT,CUS,OTH,,,,061,2000-01-01T00:00:00,2024-05-02T09:56:24,5,revise,active
5340AWB30809,tordpja,,,Bythway Road,,,,,,Bythway Road,,,,o/s 42,,SE,E0054749,Trevethin,Pontypool,,,,,,true,UKOS,328106,202210,-3.042009832,51.713995383,BCT,CUS,OTH,,,,061,2000-01-01T00:00:00,2024-05-02T09:56:22,2,revise,active
5340AWB30810,tordpjm,,,Trevethin Shops,,,,Trevethin Shops,,Folly Road,,,,o/s,,SW,E0054749,Trevethin,Pontypool,,,,,,false,UKOS,328290,202137,-3.039331907,51.713358041,BCT,MKD,OTH,,,,061,2000-01-01T00:00:00,2025-07-17T11:40:14,6,revise,active
5340AWB30811,tordpjp,,,Trevethin Shops,,,,Trevethin Shops,,Folly Road,,,,opp,,NE,E0054749,Trevethin,Pontypool,,,,,,false,UKOS,328284,202147,-3.039420797,51.713447169,BCT,MKD,OTH,,,,061,2000-01-01T00:00:00,2025-07-17T11:40:41,6,revise,active
5340AWB30812,tordpjg,,,Ysgol Gyfun Gwynllyw,,,,Ysgol Gyfun Gwynllyw,,Folly Road,,,,o/s,,E,E0054749,Trevethin,Pontypool,,,,,,false,UKOS,328472,202205,-3.036712081,51.713992612,BCT,MKD,OTH,,,,061,2000-01-01T00:00:00,2025-07-17T11:41:11,4,revise,active
5340AWB30813,tordpmd,,,Ridgeway,,,,,,St Cadoc`s Road,,,,after,,SE,E0054749,Trevethin,Pontypool,,,,,,false,UKOS,328580,202191,-3.035146361,51.713885228,BCT,MKD,OTH,,,,061,2000-01-01T00:00:00,2024-05-02T09:56:12,3,revise,active
5340AWB30814,tordpmg,,,Ridgeway,,,,,,St Cadoc`s Road,,,,before,,NW,E0054749,Trevethin,Pontypool,,,,,,false,UKOS,328571,202190,-3.0352764,51.713875091,BCT,MKD,OTH,,,,061,2000-01-01T00:00:00,2024-05-02T09:56:12,3,revise,active
5340AWB30815,tordpjw,,,Mount Road,,,,,,St Cadoc`s Road,,,,before,,SW,E0054749,Trevethin,Pontypool,,,,,,false,UKOS,328668,202103,-3.033854718,51.713100665,BCT,CUS,OTH,,,,061,2000-01-01T00:00:00,2024-05-02T09:56:32,4,revise,active
5340AWB30816,tordpma,,,Mount Road,,,,,,St Cadoc`s Road,,,,after,,NW,E0054749,Trevethin,Pontypool,,,,,,false,UKOS,328664,202104,-3.033912808,51.713109145,BCT,CUS,OTH,,,,061,2000-01-01T00:00:00,2025-07-17T11:42:06,5,revise,active
5340AWB30817,tordgtp,,,St Cadoc`s Road,,,,,,St Cadoc`s Road,,,,o/s 5,,NE,E0042790,Penygarn,Pontypool,,,,,,false,UKOS,328577,201956,-3.035141437,51.711767586,BCT,MKD,OTH,,,,061,2000-01-01T00:00:00,2025-07-17T11:42:37,6,revise,active
5340AWB30818,tordgtw,,,Penygarn School,,,,Penygarn Junior & Infants Schools,,St Cadoc`s Road,,,,o/s,,SW,E0042790,Penygarn,Pontypool,,,,,,false,UKOS,328571,201850,-3.035206597,51.710818604,BCT,MKD,OTH,,,,061,2000-01-01T00:00:00,2024-05-02T09:56:18,5,revise,active
5340AWB30819,tordgtg,,,James Street,,,,,,Channel View,,,,after,,N,E0042790,Penygarn,Pontypool,,,,,,false,UKOS,328683,201491,-3.033512212,51.707600895,BCT,MKD,OTH,,,,061,2000-01-01T00:00:00,2025-07-17T11:43:05,6,revise,active
5340AWB30820,tordgtj,,,James Street,,,,,,Channel View,,,,before,,S,E0042790,Penygarn,Pontypool,,,,,,false,UKOS,328692,201499,-3.033383624,51.707673958,BCT,MKD,OTH,,,,061,2000-01-01T00:00:00,2025-07-17T11:43:30,6,revise,active
5340AWB30821,tordgpj,,,Park Crescent,,,,,,Channel View,,,,after,,NE,E0042790,Penygarn,Pontypool,,,,,,false,UKOS,328671,201313,-3.033649461,51.706003892,BCT,MKD,OTH,,,,061,2000-01-01T00:00:00,2024-05-02T09:56:34,3,revise,active
5340AWB30822,tordgpm,,,Park Crescent,,,,,,Channel View,,,,before,,SW,E0042790,Penygarn,Pontypool,,,,,,false,UKOS,328670,201304,-3.033662086,51.705922857,BCT,MKD,OTH,,,,061,2000-01-01T00:00:00,2024-05-02T09:56:34,3,revise,active
5340AWB30823,tordgpt,,,Post Office,,,,Channel View Post Office,,Channel View,,,,opp,,E,E0042790,Penygarn,Pontypool,,,,,,false,UKOS,328461,201303,-3.036685921,51.705887216,BCT,MKD,OTH,,,,061,2000-01-01T00:00:00,2024-05-02T09:56:14,3,revise,active
5340AWB30824,tordgpw,,,Park Gardens,,,,,,Penygarn Road,,,,before,,W,E0042790,Penygarn,Pontypool,,,,,,false,UKOS,328379,201261,-3.037863648,51.705494484,BCT,MKD,OTH,,,,061,2000-01-01T00:00:00,2024-05-02T09:56:34,4,revise,active
5340AWB30825,tordgwd,,,Town Bridge,,,,Pontypool Salvation Army,,Park Road,,,,before,,SE,E0057271,Pontypool,,,,,,,true,UKOS,328203,201106,-3.040378305,51.704083246,BCT,MKD,OTH,,,,061,2000-01-01T00:00:00,2025-07-17T11:46:23,4,revise,active
5340AWB30826,tordgwg,,,Town Bridge,,,,Pontypool Salvation Army,,Park Road,,,,after,,NW,E0057271,Pontypool,,,,,,,true,UKOS,328191,201112,-3.040553164,51.704135646,BCT,MKD,OTH,,,,061,2000-01-01T00:00:00,2025-07-17T11:47:47,4,revise,active
5340AWB30827,tordgwa,,,Edward Street,,,,,,Broadway,,,,nr,,S,E0042813,Wainfelin,Pontypool,,,,,,true,UKOS,327941,200969,-3.044140685,51.702818025,BCT,MKD,OTH,,,,061,2000-01-01T00:00:00,2024-05-02T09:56:24,2,revise,active
5340AWB30828,torawpw,,,East View,,,,,,High Street,,,,after,,NW,E0042813,Wainfelin,Pontypool,,,,,,true,UKOS,327882,200702,-3.044938991,51.700410196,BCT,MKD,OTH,,,,061,2000-01-01T00:00:00,2024-05-02T09:56:24,2,revise,active
5340AWB30829,tordpgm,,,Coles Shop,,,,,,Tranch Road,,,,nr,,W,E0042806,Tranch,Pontypool,,,,,,true,UKOS,327517,200779,-3.050235578,51.7010553,BCT,CUS,OTH,,,,061,2000-01-01T00:00:00,2024-05-02T09:56:13,2,revise,active
5340AWB30830,tordtgm,,,St John's Church,,,,St John's Church,,Penywain Road,,,,before,,N,E0042813,Wainfelin,Pontypool,,,,,,true,UKOS,327425,201253,-3.051665405,51.705304477,BCT,MKD,OTH,,,,061,2000-01-01T00:00:00,2025-06-11T10:57:22,3,revise,active
5340AWB30831,tordtgp,,,Wainfelin Fish Shop,,,,Fish Bar,,Wainfelin Road,,,,before,,NW,E0042813,Wainfelin,Pontypool,,,,,,true,UKOS,327609,201511,-3.049056708,51.707642922,BCT,MKD,OTH,,,,061,2000-01-01T00:00:00,2025-07-17T11:59:39,5,revise,active
5340AWB30832,tordtgd,,,Amberley Place,,,,Primary School,,George Street,,,,nr,,SE,E0042813,Wainfelin,Pontypool,,,,,,true,UKOS,327821,201289,-3.045943207,51.705679266,BCT,CUS,OTH,,,,061,2000-01-01T00:00:00,2024-05-02T09:56:19,2,revise,active
5340AWB30833,tordjgt,,,Trosnant Street,,,,Ray Cowles` Motor Cycles,,Rockhill Road,,,,before,,E,E0042807,Trosnant,Pontypool,,,,,,false,UKOS,328684,200524,-3.033299726,51.698912684,BCT,MKD,OTH,,,,061,2000-01-01T00:00:00,2025-07-17T12:00:54,5,revise,active
5340AWB30834,tordjgw,,,Trosnant Street,,,,Pontymoile Mission,,Rockhill Road,,,,before,,W,E0042807,Trosnant,Pontypool,,,,,,false,UKOS,328720,200507,-3.032775438,51.69876444,BCT,MKD,OTH,,,,061,2000-01-01T00:00:00,2025-07-17T12:01:28,5,revise,active
5340AWB30835,tordjgp,,,Lower Park Gates,,,,Builders Yard,,Rockhill Road,,,,o/s,,NE,E0054748,Pontymoile,Pontypool,,,,,,false,UKOS,328966,200443,-3.029203539,51.698220339,BCT,MKD,OTH,,,,061,2000-01-01T00:00:00,2025-07-17T12:02:03,3,revise,active
5340AWB30836,tordjpd,,,Sunlea Crescent,,,,,,Usk Road,,,,before,,NE,E0054748,Pontymoile,Pontypool,,,,,,true,UKOS,329623,200701,-3.019751065,51.700622592,BCT,MKD,OTH,,,,061,2000-01-01T00:00:00,2024-05-02T09:56:39,4,revise,active
5340AWB30837,tordjpg,,,Sunlea Crescent,,,,,,Usk Road,,,,after,,SW,E0054748,Pontymoile,Pontypool,,,,,,true,UKOS,329611,200661,-3.019916587,51.700261496,BCT,MKD,OTH,,,,061,2000-01-01T00:00:00,2024-05-02T09:56:39,4,revise,active
5340AWB30838,tordadt,,,Panteg Cemetery,,,,Panteg Cemetery,,The Highway,,,,opp,,NW,E0054744,Panteg,,,,,,,false,UKOS,329587,200353,-3.020201517,51.697489644,BCT,MKD,OTH,,,,061,2000-01-01T00:00:00,2024-05-02T09:56:09,4,revise,active
5340AWB30839,tordadw,,,Panteg Cemetery,,,,Panteg Cemetery,,The Highway,,,,o/s,,SE,E0054744,Panteg,,,,,,,false,UKOS,329609,200346,-3.019881839,51.69742948,BCT,MKD,OTH,,,,061,2000-01-01T00:00:00,2024-05-02T09:56:09,4,revise,active
5340AWB30840,tordamg,,,Pontypool Railway Station,,Pontypool Station,,Pontypool Road Railway Station,,The Highway,,,,after,,NW,E0054743,New Inn,,,,,,,false,UKOS,329748,200161,-3.017833585,51.695779133,BCT,MKD,OTH,,,,061,2000-01-01T00:00:00,2025-07-17T12:03:46,8,revise,active
5340AWB30841,tordamj,,,Pontypool Railway Station,,Pontypool Railway,,Pontypool Road Railway Station,,The Highway,,,,before,,SE,E0054743,New Inn,,,,,,,false,UKOS,329808,200150,-3.016963504,51.695692453,BCT,MKD,OTH,,,,061,2000-01-01T00:00:00,2025-07-17T12:04:40,6,revise,active
5340AWB30842,tordaga,,,Panteg Church Hall,,,,Panteg Church Hall & Rectory,,The Highway,,,,o/s,,NW,E0054743,New Inn,,,,,,,false,UKOS,330217,199626,-3.010941945,51.691032899,BCT,MKD,OTH,,,,061,2000-01-01T00:00:00,2025-07-17T13:20:39,3,revise,active
5340AWB30843,tordapg,,,Ruth Road,,,,Polo Ground Industrial Estate,,The Highway,,,,after,,NW,E0054743,New Inn,,,,,,,false,UKOS,330043,199919,-3.013517608,51.693645207,BCT,MKD,OTH,,,,061,2000-01-01T00:00:00,2024-05-02T09:56:37,3,revise,active
5340AWB30844,tordapj,,,Ruth Road,,,,Polo Ground Industrial Estate,,The Highway,,,,before,,SE,E0054743,New Inn,,,,,,,false,UKOS,330026,199952,-3.013770148,51.693939746,BCT,MKD,OTH,,,,061,2000-01-01T00:00:00,2024-05-02T09:56:37,3,revise,active
5340AWB30845,tordagd,,,Infants School,,,,New Inn Infants School,,The Highway,,,,o/s,,SE,E0054743,New Inn,,,,,,,false,UKOS,330190,199700,-3.011347316,51.691694779,BCT,MKD,OTH,,,,061,2000-01-01T00:00:00,2024-05-02T09:56:19,2,revise,active
5340AWB30846,tordamp,,,Post Office,,,,New Inn Post Office,,The Highway,,,,nr,,SE,E0054743,New Inn,,,,,,,false,UKOS,330363,199406,-3.008786154,51.689073308,BCT,MKD,OTH,,,,061,2000-01-01T00:00:00,2024-05-02T09:56:14,2,revise,active
5340AWB30847,torawmp,,,Church Lane,,,,,,Newport Road,,,,after,,SW,E0042777,Lower New Inn,Pontypool,,,,,,false,UKOS,330574,198966,-3.005646604,51.685143976,BCT,MKD,OTH,,,,061,2000-01-01T00:00:00,2025-07-17T13:10:38,4,revise,active
5340AWB30848,torawmt,,,Church Lane,,,,,,Newport Road,,,,before,,NE,E0042777,Lower New Inn,Pontypool,,,,,,false,UKOS,330559,198962,-3.005862746,51.685106159,BCT,MKD,OTH,,,,061,2000-01-01T00:00:00,2025-07-17T13:11:21,4,revise,active
5340AWB30849,torawpa,,,The Lower New Inn,,,,Lower New Inn PH,,Newport Road,,,,opp,,S,E0042777,Lower New Inn,Pontypool,,,,,,false,UKOS,330528,198789,-3.006276503,51.683542395,BCT,MKD,OTH,,,,061,2000-01-01T00:00:00,2024-06-05T12:25:43,4,revise,active
5340AWB30850,torawpd,,,The Lower New Inn,,,,Lower New Inn PH,,Newport Road,,,,o/s,,NE,E0042777,Lower New Inn,Pontypool,,,,,,false,UKOS,330516,198792,-3.006450739,51.683572567,BCT,MKD,OTH,,,,061,2000-01-01T00:00:00,2024-05-02T09:56:15,3,revise,active
5340AWB30851,tordajp,,,Jerusalem Lane South,,,,Pedn-Olva,,Jerusalem Lane,,,,nr 34,,N,E0054743,New Inn,,,,,,,false,UKOS,330679,199282,-3.0041909,51.687997745,BCT,MKD,OTH,,,,061,2000-01-01T00:00:00,2024-05-02T09:56:29,3,revise,active
5340AWB30852,torawmw,,,Festival Crescent South,,Festival Crescent,,,,Jerusalem Lane,,,,o/s 6,,SE,E0054743,New Inn,,,,,,,true,UKOS,330669,199321,-3.004343296,51.68834711,BCT,MKD,OTH,,,,061,2000-01-01T00:00:00,2025-07-17T13:22:02,3,revise,active
5340AWB30853,tordagp,,,Festival Crescent South,,Festival Crescent,,,,Festival Crescent,,,,o/s 23,,NW,E0054743,New Inn,,,,,,,false,UKOS,330592,199391,-3.005470942,51.688966865,BCT,MKD,OTH,,,,061,2000-01-01T00:00:00,2025-07-17T13:22:42,3,revise,active
5340AWB30854,tordagt,,,Glosters` Parade,,,,,,Festival Crescent,,,,before,,NE,E0054743,New Inn,,,,,,,false,UKOS,330643,199588,-3.004772509,51.690744166,BCT,MKD,OTH,,,,061,2000-01-01T00:00:00,2024-05-02T09:56:26,3,revise,active
5340AWB30855,tordagw,,,Glosters` Parade,,,,,,Festival Crescent,,,,after,,SW,E0054743,New Inn,,,,,,,false,UKOS,330636,199561,-3.004868384,51.690500576,BCT,MKD,OTH,,,,061,2000-01-01T00:00:00,2024-05-02T09:56:26,3,revise,active
5340AWB30856,tordagj,,,Festival Crescent North,,Festival Crescent,,,,Festival Crescent,,,,o/s 79,,SE,E0054743,New Inn,,,,,,,false,UKOS,330810,199651,-3.002369468,51.691331164,BCT,MKD,OTH,,,,061,2000-01-01T00:00:00,2025-07-17T13:24:58,3,revise,active
5340AWB30857,tordagm,,,Festival Crescent North,,Festival Crescent,,,,Festival Cresent,,,,o/s 94,,NW,E0054743,New Inn,,,,,,,false,UKOS,330819,199641,-3.0022373,51.691242377,BCT,MKD,OTH,,,,061,2000-01-01T00:00:00,2025-07-17T13:26:29,3,revise,active
5340AWB30859,tordaja,,,Grosmont Road,,,,,,Golf Road,,,,before,,NE,E0054743,New Inn,,,,,,,false,UKOS,330869,200074,-3.001600018,51.695141126,BCT,MKD,OTH,,,,061,2000-01-01T00:00:00,2024-05-02T09:56:27,3,revise,active
5340AWB30860,tordajd,,,Grosmont Road,,,,,,Golf Road,,,,after,,SW,E0054743,New Inn,,,,,,,false,UKOS,330838,200036,-3.002040911,51.694795689,BCT,MKD,OTH,,,,061,2000-01-01T00:00:00,2024-05-02T09:56:27,3,revise,active
5340AWB30861,tordapd,,,Russell Close,,,,,,Golf Road,,,,after,,NE,E0054743,New Inn,,,,,,,false,UKOS,330663,199954,-3.004556082,51.694036901,BCT,MKD,OTH,,,,061,2000-01-01T00:00:00,2024-05-02T09:56:37,3,revise,active
5340AWB30862,tordama,,,Pine Tree Road,,,,Greenlawn Junior School,,Golf Road,,,,opp junct,,SW,E0054743,New Inn,,,,,,,false,UKOS,330527,199882,-3.006509019,51.693372794,BCT,MKD,OTH,,,,061,2000-01-01T00:00:00,2025-07-17T13:28:40,4,revise,active
5340AWB30863,tordamd,,,Pine Tree Road,,,,Greenlawn Junior School,,Golf Road,,,,before,,NE,E0054743,New Inn,,,,,,,false,UKOS,330498,199883,-3.00692871,51.693378188,BCT,MKD,OTH,,,,061,2000-01-01T00:00:00,2025-07-17T13:29:12,4,revise,active
5340AWB30864,tordamt,,,Recreation Ground,,,,New Inn Recreation Ground,,Golf Road,,,,opp,,SW,E0054743,New Inn,,,,,,,false,UKOS,330292,199786,-3.009889131,51.692480595,BCT,MKD,OTH,,,,061,2000-01-01T00:00:00,2024-05-02T09:56:15,3,revise,active
5340AWB30865,tordamw,,,Recreation Ground,,,,New Inn Recreation Ground,,Golf Road,,,,o/s,,NE,E0054743,New Inn,,,,,,,false,UKOS,330284,199789,-3.010005451,51.692506569,BCT,MKD,OTH,,,,061,2000-01-01T00:00:00,2024-05-02T09:56:15,3,revise,active
5340AWB30866,torawpg,,,Rechem,,,,Rechem Works,,Newport Road,,,,opp,,SW,E0042777,Lower New Inn,Pontypool,,,,,,false,UKOS,330126,198603,-3.012053057,51.681825026,BCT,MKD,OTH,,,,061,2000-01-01T00:00:00,2024-05-02T09:56:12,4,revise,active
5340AWB30867,torawpj,,,Rechem,,,,Rechem Works,,Newport Road,,,,o/s,,NE,E0042778,Lower Race,Pontypool,,,,,,false,UKOS,330119,198612,-3.012156093,51.681905061,BCT,MKD,OTH,,,,061,2000-01-01T00:00:00,2024-05-02T09:56:12,4,revise,active
5340AWB30868,toratag,,,Masons Arms,,,,Masons Arms PH,,Station Road,,,,opp,,SE,E0042772,Griffithstown,,,,,,,false,UKOS,329324,199419,-3.023816671,51.689060128,BCT,MKD,OTH,,,,061,2000-01-01T00:00:00,2024-05-02T09:56:08,3,revise,active
5340AWB30869,torataj,,,Masons Arms,,,,Masons Arms PH,,Station Road,,,,o/s,,NW,E0042772,Griffithstown,,,,,,,false,UKOS,329317,199401,-3.023914265,51.68889743,BCT,MKD,OTH,,,,061,2000-01-01T00:00:00,2024-05-02T09:56:08,3,revise,active
5340AWB30870,torapwa,,,Kemys Street,,,,Station Road Garage,,Station Road,,,,before,,SE,E0042772,Griffithstown,,,,,,,true,UKOS,329418,198946,-3.022361257,51.684819825,BCT,MKD,OTH,,,,061,2000-01-01T00:00:00,2024-05-02T09:56:29,3,revise,active
5340AWB30871,torapwd,,,Kemys Street,,,,Station Road Garage,,Station Road,,,,after,,NW,E0042772,Griffithstown,,,,,,,true,UKOS,329411,198944,-3.022462089,51.684800964,BCT,MKD,OTH,,,,061,2000-01-01T00:00:00,2024-05-02T09:56:29,3,revise,active
5340AWB30872,tordjwt,,,Panteg Steelworks,,,,Central Garage,,Station Road,,,,nr former,,SW,E0042801,Sebastopol,Pontypool,,,,,,true,UKOS,329551,198364,-3.020320108,51.679604517,BCT,MKD,OTH,,,,061,2000-01-01T00:00:00,2024-05-02T09:56:05,3,revise,active
5340AWB30873,tordmad,,,Panteg Steelworks,,,,Central Garage,,Station Road,,,,nr former,,NE,E0042801,Sebastopol,Pontypool,,,,,,true,UKOS,329541,198345,-3.020460875,51.679432455,BCT,MKD,OTH,,,,061,2000-01-01T00:00:00,2024-05-02T09:56:05,3,revise,active
5340AWB30874,tordmag,,,South Street,,,,South Street Halt,,South Street,,,,at,,NW,E0042801,Sebastopol,Pontypool,,,,,,false,UKOS,329458,198075,-3.021606478,51.676994785,BCT,MKD,OTH,,,,061,2000-01-01T00:00:00,2025-07-17T13:43:21,4,revise,active
5340AWB30875,tordjwd,,,South Street,,,,,,South Street,,,,opp Gospel,,SE,E0042801,Sebastopol,Pontypool,,,,,,false,UKOS,329372,198134,-3.022861985,51.677514355,BCT,MKD,OTH,,,,061,2000-01-01T00:00:00,2025-07-17T13:46:58,4,revise,active
5340AWB30876,tordmaw,,,Crown Inn,,,,Crown Inn PH,,Greenhill Road,,,,o/s,,NW,E0042801,Sebastopol,Pontypool,,,,,,false,UKOS,329239,198239,-3.024806491,51.678441511,BCT,MKD,OTH,,,,061,2000-01-01T00:00:00,2024-05-02T09:55:59,2,revise,active
5340AWB30877,tordjwa,,,Greenhill Road Middle,,,,,,Greenhill Road,,,,opp Age Concern,,SE,E0042801,Sebastopol,Pontypool,,,,,,false,UKOS,329175,198403,-3.025765277,51.679907749,BCT,MKD,OTH,,,,061,2000-01-01T00:00:00,2024-05-02T09:56:27,3,revise,active
5340AWB30878,tordjwg,,,Hawthorn Road,,,,,,Hawthorn Road,,,,o/s 3,,SW,E0042801,Sebastopol,Pontypool,,,,,,false,UKOS,329143,198304,-3.0262079,51.679013722,BCT,CUS,OTH,,,,061,2000-01-01T00:00:00,2024-05-02T09:56:28,4,revise,active
5340AWB30879,tordjwj,,,Hawthorn Road,,,,,,Hawthorn Road,,,,opp 9,,NE,E0042801,Sebastopol,Pontypool,,,,,,false,UKOS,329119,198292,-3.026552513,51.678902811,BCT,MKD,OTH,,,,061,2000-01-01T00:00:00,2024-05-02T09:56:28,3,revise,active
5340AWB30880,tordjwm,,,Kemys Fawr Infants School,,Kemys Fawr Infants,,Kemys Fawr Infants School,,Oaklands Road,,,,opp,,S,E0042767,Kemys Fawr,Sebastopol,,,,,,false,UKOS,329002,198018,-3.028188592,51.676424821,BCT,CUS,OTH,,,,061,2000-01-01T00:00:00,2025-07-17T13:47:50,5,revise,active
5340AWB30881,tordjwp,,,Kemys Fawr Infants School,,Kemys Fawr Infants,,Kemys Fawr Infants School,,Oaklands Road,,,,before,,N,E0042767,Kemys Fawr,Sebastopol,,,,,,false,UKOS,328996,198011,-3.028273925,51.676361133,BCT,MKD,OTH,,,,061,2000-01-01T00:00:00,2025-07-17T13:48:21,5,revise,active
5340AWB30882,tordmdg,,,Wellfield Lane,,,,,,Oaklands Road,,,,before,,NW,E0042767,Kemys Fawr,Sebastopol,,,,,,true,UKOS,328806,197937,-3.031006157,51.675671803,BCT,MKD,OTH,,,,061,2000-01-01T00:00:00,2024-05-02T09:56:43,4,revise,active
5340AWB30883,tordmdj,,,Wellfield Lane,,,,,,Oaklands Road,,,,before,,SE,E0042767,Kemys Fawr,Sebastopol,,,,,,true,UKOS,328786,197947,-3.031297389,51.675759161,BCT,MKD,OTH,,,,061,2000-01-01T00:00:00,2024-05-02T09:56:43,4,revise,active
5340AWB30884,tordmaj,,,Springfield Road,,,,,,Sycamore Road South,,,,before,,NE,E0042767,Kemys Fawr,Sebastopol,,,,,,true,UKOS,328607,198061,-3.033908982,51.67676123,BCT,MKD,OTH,,,,061,2000-01-01T00:00:00,2024-05-02T09:56:38,4,revise,active
5340AWB30885,tordmam,,,Springfield Road,,,,,,Sycamore Road South,,,,before,,SW,E0042767,Kemys Fawr,Sebastopol,,,,,,true,UKOS,328618,198070,-3.033751767,51.676843538,BCT,MKD,OTH,,,,061,2000-01-01T00:00:00,2024-05-02T09:56:38,4,revise,active
5340AWB30886,tordmap,,,West Avenue,,,,,,Sycamore Road South,,,,before,,NE,E0042767,Kemys Fawr,Sebastopol,,,,,,true,UKOS,328758,198383,-3.031791354,51.679675127,BCT,MKD,OTH,,,,061,2000-01-01T00:00:00,2024-05-02T09:56:44,4,revise,active
5340AWB30887,tordmat,,,West Avenue,,,,,,Sycamore Road South,,,,after,,SW,E0042767,Kemys Fawr,Sebastopol,,,,,,true,UKOS,328763,198381,-3.031718642,51.679657783,BCT,MKD,OTH,,,,061,2000-01-01T00:00:00,2024-05-02T09:56:44,4,revise,active
5340AWB30888,torapwg,,,Maple Road,,,,,,Maple Road,,,,after 52,,N,E0042772,Griffithstown,,,,,,,true,UKOS,328824,198655,-3.030892489,51.682128714,BCT,MKD,OTH,,,,061,2000-01-01T00:00:00,2024-05-02T09:56:32,3,revise,active
5340AWB30889,torapwj,,,Maple Road,,,,,,Maple Road,,,,before 43,,S,E0042772,Griffithstown,,,,,,,true,UKOS,328831,198657,-3.030791667,51.682147582,BCT,CUS,OTH,,,,061,2000-01-01T00:00:00,2024-05-02T09:56:32,3,revise,active
5340AWB30890,tordmda,,,Greenhill Road Middle,,,,,,Greenhill Road,,,,o/s Age Concern,,NW,E0042801,Sebastopol,Pontypool,,,,,,false,UKOS,329146,198448,-3.026193789,51.680308624,BCT,MKD,OTH,,,,061,2000-01-01T00:00:00,2024-05-02T09:56:27,3,revise,active
5340AWB30891,toratad,,,Panteg House,,,,Panteg House,,Greenhill Road,,,,nr,,S,E0042772,Griffithstown,,,,,,,false,UKOS,329061,198743,-3.027483015,51.682949848,BCT,MKD,OTH,,,,061,2000-01-01T00:00:00,2025-07-17T13:50:20,5,revise,active
5340AWB30892,torapwm,,,Panteg House,,,,Panteg House,,Greenhill Road,,,,nr,,N,E0042772,Griffithstown,,,,,,,false,UKOS,329049,198813,-3.027670714,51.683572921,BCT,MKD,OTH,,,,061,2000-01-01T00:00:00,2024-06-05T12:22:09,4,revise,active
5340AWB30893,torapwp,,,St Mary Street,,,,,,Sunnybank Road,,,,after,,NW,E0042772,Griffithstown,,,,,,,false,UKOS,328954,199100,-3.029103212,51.686145631,BCT,MKD,OTH,,,,061,2000-01-01T00:00:00,2024-05-02T09:56:38,3,revise,active
5340AWB30894,torapwt,,,St Mary Street,,,,,,Sunnybank Road,,,,before,,SE,E0042772,Griffithstown,,,,,,,false,UKOS,328955,199131,-3.02909507,51.686424439,BCT,MKD,OTH,,,,061,2000-01-01T00:00:00,2024-05-02T09:56:38,3,revise,active
5340AWB30895,tordjgd,,,Panteg Hospital,,,,Panteg Hospital,,Sunnybank Road,,,,nr,,SW,E0042772,Griffithstown,,,,,,,false,UKOS,328994,199581,-3.02862273,51.690474756,BCT,MKD,OTH,,,,061,2000-01-01T00:00:00,2025-07-17T13:57:58,3,revise,active
5340AWB30896,tordjgj,,,Panteg Hospital,,,,Panteg Hospital,,Stafford Road,,,,after,,NE,E0042772,Griffithstown,,,,,,,false,UKOS,328996,199652,-3.028608273,51.691113279,BCT,MKD,OTH,,,,061,2000-01-01T00:00:00,2025-07-17T13:57:25,3,revise,active
5340AWB30897,tordjdw,,,Stafford Road Top,,,,Allotment Gardens,,Stafford Road,,,,opp 97,,S,E0054748,Pontymoile,Pontypool,,,,,,false,UKOS,329016,199956,-3.028380938,51.693848686,BCT,MKD,OTH,,,,061,2000-01-01T00:00:00,2024-05-02T09:56:38,3,revise,active
5340AWB30898,tordjga,,,Stafford Road Top,,,,Allotment Gardens,,Stafford Road,,,,o/s 103,,N,E0054748,Pontymoile,Pontypool,,,,,,false,UKOS,329002,199998,-3.028592014,51.694224481,BCT,MKD,OTH,,,,061,2000-01-01T00:00:00,2024-05-02T09:56:39,3,revise,active
5340AWB30899,toramdt,,,Maesderwen,,,,,,Stafford Road,,,,nr,,NW,E0054748,Pontymoile,Pontypool,,,,,,true,UKOS,328873,200209,-3.030501143,51.696104951,BCT,MKD,OTH,,,,061,2000-01-01T00:00:00,2024-05-02T09:56:08,3,revise,active
5340AWB30900,toramdw,,,Maesderwen,,,,,,Stafford Road,,,,nr,,SE,E0054748,Pontymoile,Pontypool,,,,,,true,UKOS,328899,200203,-3.030123802,51.696054312,BCT,MKD,OTH,,,,061,2000-01-01T00:00:00,2024-05-02T09:56:08,3,revise,active
5340AWB30901,toramdj,,,West Mon School,,,,West Monmouth School,,Blaendare Road,,,,at,,N,E0042759,Cwmfields,Pontypool,,,,,,true,UKOS,328450,200333,-3.036645724,51.697165823,BCT,MKD,OTH,,,,061,2000-01-01T00:00:00,2024-05-02T09:56:19,3,revise,active
5340AWB30902,toramat,,,Farm Road Lower,,,,,,Blaendare Road,,,,at,,SW,E0042759,Cwmfields,Pontypool,,,,,,true,UKOS,328256,200150,-3.039414483,51.695495908,BCT,CUS,OTH,,,,061,2000-01-01T00:00:00,2024-05-02T09:56:25,4,revise,inactive
5340AWB30903,toramdg,,,Pontypool College,,,,Pontypool College,,Blaendare Road,,,,before,,SW,E0042759,Cwmfields,Pontypool,,,,,,true,UKOS,327989,199955,-3.043236517,51.693708677,BCT,MKD,OTH,,,,061,2000-01-01T00:00:00,2024-05-02T09:55:59,3,revise,active
5340AWB30904,tordtad,,,Race Labour Club,,,,Race Labour Club,,Blaendare Road,,,,opp,,NE,E0042759,Cwmfields,Pontypool,,,,,,true,UKOS,327806,199869,-3.045865722,51.692907333,BCT,MKD,OTH,,,,061,2000-01-01T00:00:00,2025-07-17T14:25:28,6,revise,active
5340AWB30905,tordpwt,,,Upper Race Terminus,,,,Upper Race Terminus,,Blaendare Road,,,,at,,N,E0042810,Upper Race,Pontypool,,,,,,true,UKOS,327553,199649,-3.049479583,51.690896962,BCT,MKD,OTH,,,,061,2000-01-01T00:00:00,2025-07-17T14:25:54,6,revise,active
5340AWB30906,tordjtd,,,Twympath,,,,Sycamores,,Albion Road,,,,nr,,NE,E0042807,Trosnant,Pontypool,,,,,,false,UKOS,327805,200490,-3.046009015,51.698494473,BCT,MKD,OTH,,,,061,2000-01-01T00:00:00,2024-05-02T09:56:15,4,revise,active
5340AWB30907,tordjtg,,,Twympath,,,,Ty Glyn,,Albion Road,,,,nr,,SW,E0042807,Trosnant,Pontypool,,,,,,false,UKOS,327815,200482,-3.045862596,51.698419156,BCT,MKD,OTH,,,,061,2000-01-01T00:00:00,2024-06-05T13:48:25,5,revise,active
5340AWB30908,torawpm,,,Waunwern Park,,,,Waunwern Caravan Park,,Crumlin Road,,,,opp,,NW,E0042778,Lower Race,Pontypool,,,,,,true,UKOS,327261,200370,-3.053853807,51.697345365,BCT,CUS,OTH,,,,061,2000-01-01T00:00:00,2025-07-17T14:28:03,4,revise,active
5340AWB30909,torawpt,,,Waunwern Park,,,,Waunwern Caravan Park,,Crumlin Road,,,,o/s,,SE,E0042778,Lower Race,Pontypool,,,,,,true,UKOS,327234,200383,-3.054247113,51.697458725,BCT,CUS,OTH,,,,061,2000-01-01T00:00:00,2025-07-17T14:28:55,5,revise,active
5340AWB30910,toramda,,,Mynydd Court,,,,Pontypool College,,Hillside Drive,,,,nr,,SE,E0042759,Cwmfields,Pontypool,,,,,,true,UKOS,328100,200033,-3.041646985,51.694424123,BCT,MKD,OTH,,,,061,2000-01-01T00:00:00,2024-05-02T09:56:33,3,revise,active
5340AWB30911,tordjma,,,Hillside Drive Middle,,,,,,Hillside Drive,,,,at,,N,E0042759,Cwmfields,Pontypool,,,,,,true,UKOS,328397,199995,-3.037342944,51.69412054,BCT,CUS,OTH,,,,061,2000-01-01T00:00:00,2024-05-02T09:56:29,3,revise,active
5340AWB30912,toramdm,,,Dingle Road,,,,,,Cwmynyscoy Road,,,,nr,,NE,E0054748,Pontymoile,Pontypool,,,,,,true,UKOS,328682,200200,-3.033262301,51.695999769,BCT,CUS,OTH,,,,061,2000-01-01T00:00:00,2024-05-02T09:56:24,4,revise,inactive
5340AWB30913,tordmjd,,,Brookfield Primary School,,Brookfield Primary,,Brookfield Primary School,,Llewelyn Road,,,,opp,,SE,N0075716,Southville,Cwmbran,,,,,,false,UKOS,329330,195069,-3.022848477,51.649955403,BCT,MKD,OTH,,,,061,2000-01-01T00:00:00,2025-07-17T14:30:50,4,revise,active
5340AWB30914,tordmjg,,,Brookfield Primary School,,,,Brookfield Primary School,,Llywelyn Road,,,,before,,NW,N0075716,Southville,Cwmbran,,,,,,true,UKOS,329288,195136,-3.023469001,51.650552429,BCT,MKD,OTH,,,,061,2000-01-01T00:00:00,2024-05-02T09:56:18,3,revise,active
5340AWB30915,tordmpa,,,Rose & Crown,,,,Rose & Crown PH,,Victoria Street,,,,after,,NW,E0042757,Cwmbran,,,,,,,false,UKOS,329308,194806,-3.023113163,51.647588315,BCT,MKD,OTH,,,,061,2000-01-01T00:00:00,2025-07-17T14:31:32,3,revise,active
5340AWB30916,tordmpd,,,Old Cwmbran War Memorial,,War Memorial,,War Memorial Clock,,Victoria Street,,,,o/s,,SE,N0075716,Southville,Cwmbran,,,,,,false,UKOS,329346,194785,-3.022559793,51.647404314,BCT,MKD,OTH,,,,061,2000-01-01T00:00:00,2025-07-17T14:36:39,5,revise,active
5340AWB30917,tordmgm,,,Grange Road,,,,,,Victoria Street,,,,before,,NW,E0042757,Cwmbran,,,,,,,true,UKOS,329604,194583,-3.018790838,51.645620785,BCT,MKD,OTH,,,,061,2000-01-01T00:00:00,2024-05-02T09:56:26,3,revise,active
5340AWB30918,tordmgp,,,Grange Road,,,,,,Victoria Street,,,,after,,SE,E0042757,Cwmbran,,,,,,,true,UKOS,329637,194581,-3.018313586,51.645606943,BCT,MKD,OTH,,,,061,2000-01-01T00:00:00,2024-05-02T09:56:27,2,revise,active
5340AWB30919,tordmja,,,Autopia,,,,Autopia Car Sales,,Llantarnam Road,,,,opp,,NW,E0042783,Oakfield,Cwmbran,,,,,,true,UKOS,329776,194392,-3.016267039,51.643925271,BCT,MKD,OTH,,,,061,2000-01-01T00:00:00,2024-05-02T09:55:55,3,revise,active
5340AWB30920,tordawm,,,Autopia,,,,Autopia Car Sales,,Llantarnam Road,,,,o/s,,SE,E0042783,Oakfield,Cwmbran,,,,,,true,UKOS,329839,194227,-3.015323582,51.642449826,BCT,MKD,OTH,,,,061,2000-01-01T00:00:00,2024-05-02T09:55:55,3,revise,active
5340AWB30921,tordgad,,,Oakfield Road,,,,,,Llantarnam Road,,,,after,,NW,E0042783,Oakfield,Cwmbran,,,,,,true,UKOS,329965,194008,-3.013459105,51.640496783,BCT,MKD,OTH,,,,061,2000-01-01T00:00:00,2024-05-02T09:56:33,3,revise,active
5340AWB30922,tordgag,,,Oakfield Road,,,,,,Llantarnam Road,,,,after,,SE,E0042783,Oakfield,Cwmbran,,,,,,true,UKOS,330035,193949,-3.012435903,51.63997511,BCT,MKD,OTH,,,,061,2000-01-01T00:00:00,2024-05-02T09:56:33,3,revise,active
5340AWB30923,tordatp,,,Court Farm,,,,,,Llantarnam Road,,,,nr,,NW,E0042783,Oakfield,Cwmbran,,,,,,true,UKOS,330256,193776,-3.009208313,51.63844736,BCT,MKD,OTH,,,,061,2000-01-01T00:00:00,2024-05-02T09:56:23,3,revise,active
5340AWB30924,tordatw,,,Court Farm,,,,,,Llantarnam Road,,,,nr,,SE,E0042783,Oakfield,Cwmbran,,,,,,true,UKOS,330345,193740,-3.007915194,51.63813008,BCT,MKD,OTH,,,,061,2000-01-01T00:00:00,2024-06-05T10:56:34,4,revise,active
5340AWB30925,toratpw,,,Star Row,,,,,,Llantarnam Road,,,,nr,,SE,E0042783,Oakfield,Cwmbran,,,,,,true,UKOS,330481,193586,-3.005919767,51.636767187,BCT,MKD,OTH,,,,061,2000-01-01T00:00:00,2024-05-02T09:56:39,4,revise,active
5340AWB30926,toratwa,,,Star Row,,,,,,Llantarnam Road,,,,nr,,NW,E0042783,Oakfield,Cwmbran,,,,,,true,UKOS,330538,193499,-3.005078982,51.635992122,BCT,MKD,OTH,,,,061,2000-01-01T00:00:00,2024-05-02T09:56:39,4,revise,active
5340AWB30927,toratmt,,,Burtons,,,,Burton`s Buscuits,,Newport Road,,,,before,,NW,E0054741,Llantarnam,,,,,,,false,UKOS,330718,193424,-3.002463656,51.635340118,BCT,MKD,OTH,,,,061,2000-01-01T00:00:00,2024-05-02T09:55:57,3,revise,active
5340AWB30928,toratmw,,,Burtons,,,,Burton`s Buscuits,,Newport Road,,,,after,,SE,E0054741,Llantarnam,,,,,,,false,UKOS,330729,193383,-3.002296614,51.63497289,BCT,MKD,OTH,,,,061,2000-01-01T00:00:00,2024-05-02T09:55:57,3,revise,active
5340AWB30929,torajag,,,Blackbirds,,,,St Michael`s Lodge,,Newport Road,,,,nr,,S,N0071524,Croes-Y-Mwyalch,,,,,,,false,UKOS,330264,192242,-3.00878668,51.624657901,BCT,MKD,OTH,,,,061,2000-01-01T00:00:00,2024-05-02T09:55:56,3,revise,active
5340AWB30930,torajaj,,,Blackbirds,,,,St Michael`s Lodge,,Newport Road,,,,nr,,N,N0071524,Croes-Y-Mwyalch,,,,,,,false,UKOS,330250,192251,-3.008990682,51.624737072,BCT,MKD,OTH,,,,061,2000-01-01T00:00:00,2024-05-02T09:55:56,3,revise,active
5340AWB30933,tordjmd,,,Cwmoody Cottage,,,,Park Davis,,Usk Road,,,,opp,,NE,E0042774,Llanvihangel Pontymoel,,,,,,,true,UKOS,330799,201823,-3.002960332,51.710855596,BCT,MKD,OTH,,,,061,2000-01-01T00:00:00,2024-05-02T09:55:57,3,revise,active
5340AWB30934,torgjdp,,,Waun-y-Clare Inn,,,,Waun-y-Clare Inn PH,,Usk Road,,,,nr,,NE,E0042774,Llanvihangel Pontymoel,,,,,,,true,UKOS,331239,202424,-2.996711957,51.716312643,BCT,MKD,OTH,,,,061,2000-01-01T00:00:00,2024-05-02T09:56:16,4,revise,active
5340AWB30935,tordjmw,,,Waun-y-Clare Inn,,,,Waun-y-Clare Inn PH,,Usk Road,,,,nr,,SW,E0042774,Llanvihangel Pontymoel,,,,,,,true,UKOS,331069,202238,-2.999135436,51.714619645,BCT,MKD,OTH,,,,061,2000-01-01T00:00:00,2024-05-02T09:56:17,4,revise,active
5340AWB30936,tordjmg,,,Cwmoody House,,,,,,Usk Road,,,,o/s,,SW,E0042774,Llanvihangel Pontymoel,,,,,,,true,UKOS,330775,201703,-3.003283756,51.709773859,BCT,MKD,OTH,,,,061,2000-01-01T00:00:00,2024-05-02T09:56:16,3,revise,active
5340AWB32239,torgjdt,,,Pont-y-Pia,,,,,,Usk Road,,,,nr,,NE,E0042774,Llanvihangel Pontymoel,,,,,,,true,UKOS,331600,202660,-2.991533761,51.718478445,BCT,MKD,OTH,,,,061,2000-01-01T00:00:00,2024-05-02T09:56:11,3,revise,active
5340AWB32260,torgjdw,,,Pont-y-Pia,,,,,,Usk Road,,,,nr,,SW,E0042774,Llanvihangel Pontymoel,,,,,,,true,UKOS,331677,202646,-2.990416566,51.718361989,BCT,MKD,OTH,,,,061,2000-01-01T00:00:00,2024-05-02T09:56:12,4,revise,active
5340AWB32526,toradmd,,,Abersychan Comprehensive School,,,,,,Ffrwd Road,,,,nr,,NE,E0054735,Abersychan,,,,,,,false,UKOS,327001,203678,-3.058308981,51.72704447,BCT,MKD,OTH,,,,061,2000-01-01T00:00:00,2024-05-02T09:56:17,6,revise,inactive
5340AWB32527,tordjtj,,,Bunkers Hill,,,,,,Garn Road,,,,nr,,NW,E0042751,Bunkers Hill,Blaenavon,,,,,,true,UKOS,325105,209449,-3.086999985,51.778676852,BCT,MKD,OTH,,,,061,2000-01-01T00:00:00,2024-05-02T09:56:21,4,revise,active
5340AWB32529,tordjtm,,,Bunkers Hill,,,,,,Garn Road,,,,nr,,SE,E0042751,Bunkers Hill,Blaenavon,,,,,,true,UKOS,325121,209437,-3.086765519,51.778571123,BCT,MKD,OTH,,,,061,2000-01-01T00:00:00,2024-05-02T09:56:21,4,revise,active
5340AWB32530,torapjm,,,Kays & Kears Ind Est,,,,Kays & Kears Industrial Estate,,Garn Road,,,,nr,,NW,E0042770,Garn-yr-erw,,,,,,,true,UKOS,324384,209581,-3.097477567,51.779766349,BCT,MKD,OTH,,,,061,2000-01-01T00:00:00,2025-07-17T14:44:11,5,revise,active
5340AWB32531,torapjp,,,Kays & Kears Ind Est,,,,Kays & Kears Industrial Estate,,Garn Road,,,,nr,,SE,E0042770,Garn-yr-erw,,,,,,,true,UKOS,324408,209587,-3.097131057,51.779823532,BCT,MKD,OTH,,,,061,2000-01-01T00:00:00,2025-07-17T14:44:48,5,revise,active
5340AWB32532,torapjt,,,Garn-yr-Erw,,,,,,Garn Road,,,,nr,,NW,E0042770,Garn-yr-erw,,,,,,,true,UKOS,324089,209648,-3.101767498,51.780328637,BCT,MKD,OTH,,,,061,2000-01-01T00:00:00,2025-07-17T14:45:15,4,revise,active
5340AWB32533,torapjw,,,Garn-yr-Erw,,,,,,Garn Road,,,,nr,,SE,E0042770,Garn-yr-erw,,,,,,,true,UKOS,324100,209649,-3.101608299,51.780339121,BCT,MKD,OTH,,,,061,2000-01-01T00:00:00,2025-07-17T14:45:42,4,revise,active
5340AWB32534,torgdmt,,,Upper Garn Institute,,,,Upper Garn Institute,,Garn Road,,,,nr former,,NW,E0042770,Garn-yr-erw,,,,,,,true,UKOS,323591,209966,-3.109054896,51.783119371,BCT,MKD,OTH,,,,061,2000-01-01T00:00:00,2024-05-02T09:56:13,3,revise,active
5340AWB32535,torgdmw,,,Upper Garn Institute,,,,Upper Garn Institute,,Garn Road,,,,nr former,,SE,E0042770,Garn-yr-erw,,,,,,,true,UKOS,323583,209986,-3.109175254,51.783298064,BCT,MKD,OTH,,,,061,2000-01-01T00:00:00,2024-05-02T09:56:13,3,revise,active
5340AWB32614,tordgjp,,,Finers` Arms,,,,Finers` Arms PH,,Parke`s Lane,,,,nr,,NE,E0042784,Old Furnace,,,,,,,true,UKOS,326896,200395,-3.059139239,51.697522608,BCT,MKD,OTH,,,,061,2000-01-01T00:00:00,2024-05-02T09:56:02,2,revise,active
5340AWB32615,tordgjt,,,Finers` Arms,,,,Finers` Arms PH,,Crumlin Road,,,,nr,,SW,E0042784,Old Furnace,,,,,,,true,UKOS,326860,200374,-3.059655615,51.697329129,BCT,MKD,OTH,,,,061,2000-01-01T00:00:00,2024-05-02T09:56:02,2,revise,active
5340AWB32616,tordgjg,,,High Path,,,,High Path/Crispin Cottages,,Crumlin Road,,,,nr,,NE,E0042784,Old Furnace,,,,,,,true,UKOS,326191,200111,-3.06927777,51.694877151,BCT,CUS,OTH,,,,061,2000-01-01T00:00:00,2024-05-02T09:56:28,3,revise,active
5340AWB32617,tordgjm,,,High Path,,,,High Path/Crispin Cottages,,Crumlin Road,,,,nr,,SW,E0042784,Old Furnace,,,,,,,true,UKOS,326191,200101,-3.069275651,51.694787255,BCT,CUS,OTH,,,,061,2000-01-01T00:00:00,2024-05-02T09:56:28,3,revise,active
5340AWB32621,torgdwp,,,Cefn Crib,,,,,,A472,,,,nr,,SE,E0042753,Cefn y Crib,,,,,,,false,UKOS,323853,198796,-3.102810232,51.682743177,BCT,CUS,OTH,,,,061,2000-01-01T00:00:00,2024-05-02T09:55:58,3,revise,inactive
5340AWB33512,tordtda,,,Lower Stoney Road,,,,,,Harpers Road,,,,before,,NW,E0042812,Victoria Village,Abersychan,,,,,,false,UKOS,326743,204381,-3.062191981,51.733335115,BCT,CUS,OTH,,,,061,2000-01-01T00:00:00,2024-05-02T09:56:31,3,revise,active
5340AWB33513,tordtdg,,,Lower Stoney Road,,,,17 Harpers Road,,Harpers Road,,,,after,,SE,E0042812,Victoria Village,Abersychan,,,,,,false,UKOS,326748,204383,-3.062120014,51.733353748,BCT,CUS,OTH,,,,061,2000-01-01T00:00:00,2024-05-02T09:56:31,3,revise,active
5340AWB33514,toradjp,,,Stanley Road,,,,,,Stanley Road,,,,at,,NW,E0042769,Garndiffaith,,,,,,,true,UKOS,326534,204443,-3.065230931,51.733865071,BCT,CUS,OTH,,,,061,2000-01-01T00:00:00,2025-07-17T14:51:22,4,revise,active
5340AWB33515,toradjt,,,Stanley Road,,,,,,Stanley Road,,,,at,,SE,E0042769,Garndiffaith,,,,,,,true,UKOS,326541,204433,-3.065127472,51.733776094,BCT,CUS,OTH,,,,061,2000-01-01T00:00:00,2025-07-17T14:51:59,4,revise,active
5340AWB35023,torawjm,,,Penarth Court,,,,,,Beaumaris Drive,,,,after,,N,E0054742,Llanyrafon,Cwmbran,,,,,,true,UKOS,330602,194297,-3.004312889,51.643173947,BCT,MKD,OTH,,,,061,2000-01-01T00:00:00,2024-05-02T09:56:34,3,revise,active
5340AWZ26180,tordmpw,,,Marlborough,,,,Marlborough PH,,Blenheim Road,,,,opp former,,NE,E0042804,St Dials,Cwmbran,,,,,,true,UKOS,328198,194920,-3.039176677,51.648472267,BCT,MKD,OTH,,,,061,2000-01-01T00:00:00,2024-05-02T09:56:08,3,revise,active
5340AWZ26211,toratpm,,,Llantarnam Comprehensive School,,Llantarnam Comp,,Llantarnam Comprehensive,,Grounds,,,,in,,NE,E0054741,Llantarnam,,,,,,,true,UKOS,330392,193638,-3.007215835,51.637218942,BCT,MKD,OTH,,,,061,2000-01-01T00:00:00,2025-07-17T14:55:26,7,revise,active
5340AWZ26247,tordjpa,,,Park Road,,,,Town Bridge Buildings,,Park Road,,,,o/s Bank,,NW,E0057271,Pontypool,,,,,,,false,UKOS,328162,200994,-3.040948399,51.703071148,BCT,MKD,OTH,,,,061,2000-01-01T00:00:00,2024-05-02T09:56:34,3,revise,active
5340AWZ26284,torajmp,,,Allotments,,,,,,Edlogan Way,,,,o/s,,NE,E0054737,Croesyceiliog,Cwmbran,,,,,,false,UKOS,330016,196030,-3.013127505,51.65868057,BCT,MKD,OTH,,,,061,2000-01-01T00:00:00,2024-05-02T09:56:12,4,revise,active
5340AWZ26298,tordpmw,,,Upland Drive Middle,,,,,,Upland Drive,,,,o/s 76,,NW,E0054749,Trevethin,Pontypool,,,,,,false,UKOS,327726,202201,-3.047507179,51.713865565,BCT,MKD,OTH,,,,061,2000-01-01T00:00:00,2024-05-02T09:56:42,2,revise,active
5340AWZ26299,tordpmt,,,Price Avenue,,,,The Links,,Church Avenue,,,,after,,N,E0054749,Trevethin,Pontypool,,,,,,false,UKOS,328139,202405,-3.04157255,51.715752599,BCT,MKD,OTH,,,,061,2000-01-01T00:00:00,2025-07-17T14:56:58,3,revise,active
5340AWZ26327,toramaw,,,Builders Yard,,,,Builders Yard,,Rockhill Road,,,,opp,,NW,E0054748,Pontymoile,Pontypool,,,,,,false,UKOS,328872,200435,-3.030561771,51.698136497,BCT,MKD,OTH,,,,061,2000-01-01T00:00:00,2024-05-02T09:56:06,2,revise,active
5340AWZ26345,toragtw,,,Croesyceiliog Comprehensive School,,Croesyceiliog Comp,,Croesyceiliog Comprehensive,,Grounds,,,,in,,NW,E0054737,Croesyceiliog,Cwmbran,,,,,,false,UKOS,330423,195735,-3.007185755,51.656074493,BCT,MKD,OTH,,,,061,2000-01-01T00:00:00,2025-07-17T14:58:36,6,revise,active
5340AWZ26352,tordpgp,,,Wentsland Crescent,,,,,,Wentsland Crescent,,,,not in use,,NE,E0042806,Tranch,Pontypool,,,,,,true,UKOS,327345,200711,-3.052709792,51.700421728,BCT,MKD,OTH,,,,061,2000-01-01T00:00:00,2024-05-02T09:56:43,3,revise,inactive
5340AWZ26356,toratjt,,,Bryn Milwr,,,,,,Hollybush Way,,,,after,,NE,N0075713,Hollybush,Cwmbran,,,,,,true,UKOS,328396,193894,-3.036105097,51.639274055,BCT,MKD,OTH,,,,061,2000-01-01T00:00:00,2024-05-02T09:55:57,3,revise,active
5340CWMBRAN0,,,,Cwmbran Rail Station,,,,,,Somerset Road,,,,Main Entrance,,,E0042757,Cwmbran,,,,,,,false,UKOS,329803,195870,-3.016192524,51.657212501,RSE,,,,,,061,2014-03-07T15:15:08,2025-06-11T10:57:22,2,revise,active
5340CWMBRAN1,,,,Cwmbran Rail Station,,,,,,Station Farm,,,,South Entrance,,,E0042757,Cwmbran,,,,,,,false,UKOS,329824,195843,-3.01588356,51.656972395,RSE,,,,,,061,2014-03-07T15:15:56,2025-06-11T10:57:22,2,revise,active
5340CWMBRAN2,,,,Cwmbran Rail Station,,,,,,Somerset Road,,,,Side Entrance,,,E0042757,Cwmbran,,,,,,,false,UKOS,329799,195865,-3.016249335,51.65716705,RSE,,,,,,061,2014-03-07T15:16:38,2025-06-11T10:57:22,2,revise,active
5340MTZ04801,tordajt,,,Llandegefedd Way,,,,Garage,,The Highway,,,,after,,SE,E0054743,New Inn,,,,,,,false,UKOS,330455,199266,-3.007427533,51.687826161,BCT,MKD,OTH,,,,061,2000-01-01T00:00:00,2024-05-02T09:56:31,3,revise,active
5340MTZ04802,tordajw,,,Llandegefedd Way,,,,,,The Highway,,,,before,,NW,E0054743,New Inn,,,,,,,false,UKOS,330470,199225,-3.007202306,51.687454752,BCT,MKD,OTH,,,,061,2000-01-01T00:00:00,2024-06-05T13:46:06,4,revise,active
5340MTZ04806,tordjmp,,,John Street,,,,Playing Fields,,Albion Road,,,,after,,NE,E0042807,Trosnant,Pontypool,,,,,,false,UKOS,328126,200535,-3.041374494,51.698940274,BCT,MKD,OTH,,,,061,2000-01-01T00:00:00,2024-05-02T09:56:29,4,revise,active
5340MTZ04807,tordjmt,,,John Street,,,,Playing Field,,Albion Road,,,,before,,SW,E0042807,Trosnant,Pontypool,,,,,,false,UKOS,328122,200528,-3.041430917,51.698876833,BCT,MKD,OTH,,,,061,2000-01-01T00:00:00,2024-05-02T09:56:29,4,revise,active
5340MTZ04812,toradtj,,,Engine Row,,,,,,North Street,,,,nr,,E,E0054736,Blaenavon,,,,,,,false,UKOS,325027,209187,-3.088073702,51.776311166,BCT,MKD,OTH,,,,061,2000-01-01T00:00:00,2025-07-17T15:01:07,4,revise,active
5340MTZ04813,tordtag,,,Gladstone Terrace,,,,,,Varteg Road,,,,after,,NE,E0042811,Varteg,,,,,,,false,UKOS,326406,205622,-3.067333863,51.744446913,BCT,MKD,OTH,,,,061,2000-01-01T00:00:00,2024-05-02T09:56:26,3,revise,active
5340MTZ04814,tordtaj,,,Gladstone Terrace,,,,,,Varteg Road,,,,before,,SW,E0042811,Varteg,,,,,,,false,UKOS,326416,205623,-3.067189263,51.744457218,BCT,MKD,OTH,,,,061,2000-01-01T00:00:00,2024-05-02T09:56:26,3,revise,active
5340MTZ04815,toradtp,,,Upper Waun Street,,,,,,Upper Waun Street,,,,in,,NW,E0054736,Blaenavon,,,,,,,false,UKOS,325113,209179,-3.086825717,51.776250782,BCT,MKD,OTH,,,,061,2000-01-01T00:00:00,2024-05-02T09:56:42,3,revise,active
5340PONTYPL0,,,,Pontypool & New Inn Rail Station,,Pontypool & New Inn Rail,,,,Unnamed Road,,,,Entrance,,,E0054743,New Inn,,,,,,,false,UKOS,330017,200280,-3.013984449,51.696885288,RSE,,,,,,061,2014-03-07T15:18:06,2025-07-17T15:03:40,5,revise,active
5340SRX00017,torajpg,,,Cwmbran Bus Station Stand E,,Cwmbran Bus Station,,Cwmbran Bus Station,,Gwent Square,,,,at,,,E0042757,Cwmbran,,,,,,,false,UKOS,329459,195531,-3.021077508,51.654120225,BCS,,,,,,061,2000-01-01T00:00:00,2025-07-17T15:04:29,7,revise,active
5340SRX00018,torajpd,,,Cwmbran Bus Station Stand D,,Cwmbran Bus Station,,Cwmbran Bus Station,,Gwent Square,,,,at,,,E0042757,Cwmbran,,,,,,,false,UKOS,329456,195561,-3.021126929,51.654389542,BCS,,,,,,061,2000-01-01T00:00:00,2025-07-17T15:04:55,7,revise,active
5340SRX16398,tordgwt,,,Lloyds TSB,,,,Glamorgan Building Society,,Commercial Streey,,,,o/s former,,W,E0042792,Pontnewydd,Cwmbran,,,,,,false,UKOS,329136,196324,-3.025906816,51.661213118,BCT,CUS,OTH,,,,061,2000-01-01T00:00:00,2025-07-17T15:05:21,4,revise,active
5340SRX16399,tordptp,,,Heol Newydd,,,,,,Maendy Way,,,,before,,SE,E0054750,Upper Cwmbran,Cwmbran,,,,,,false,UKOS,328052,196784,-3.041670717,51.665210437,BCT,MKD,OTH,,,,061,2000-01-01T00:00:00,2024-05-02T09:56:06,3,revise,active
5340SRX16400,toramdp,,,Prescoch Lane,,,,,,Cwmynyscoy Road,,,,before,,SW,E0042762,Cwmynyscoy,Pontypool,,,,,,true,UKOS,328700,200201,-3.033002119,51.696011049,BCT,MKD,OTH,,,,061,2000-01-01T00:00:00,2024-05-02T09:56:35,3,revise,inactive
5340SRX16401,tordgmw,,,Pentwyn Terminus,,,,,,Pentwyn Road,,,,nr,,SE,E0042786,Pentwyn,Abersychan,,,,,,true,UKOS,326523,203246,-3.065137168,51.72310313,BCT,MKD,OTH,,,,061,2000-01-01T00:00:00,2024-10-23T15:39:15,5,revise,active
5340SRX16402,toradpt,,,Hillside Avenue,,,,,,Upper Woodland Street,,,,after,,SE,E0042809,Upper Coedcae,Blaenavon,,,,,,true,UKOS,325730,209136,-3.077875328,51.775946578,BCT,CUS,OTH,,,,061,2000-01-01T00:00:00,2024-05-02T09:56:28,5,revise,active
5340SRX16403,toragat,,,Coed Llydd,,,,,,Upper Coedcae Road,,,,after,,SE,E0042809,Upper Coedcae,Blaenavon,,,,,,true,UKOS,326013,208929,-3.073730113,51.7741233,BCT,MKD,OTH,,,,061,2000-01-01T00:00:00,2024-05-02T09:55:59,3,revise,active
5340SRX16404,torampt,,,Forgeside Inn,,,,Forgeside Inn PH,,Forgeside Road,,,,nr,,NE,E0042765,Forgeside,,,,,,,false,UKOS,324648,208512,-3.093419221,51.770192344,BCT,MKD,OTH,,,,061,2000-01-01T00:00:00,2024-05-02T09:56:02,3,revise,active
5340SRX16405,tordjtp,,,Ty Fry Close,,,,,,Upper Woodland Street,,,,before,,SE,E0054736,Blaenavon,,,,,,,true,UKOS,325516,209241,-3.080999021,51.776861986,BCT,MKD,OTH,,,,061,2000-01-01T00:00:00,2024-05-02T09:56:41,5,revise,active
5340SRX16406,toragda,,,Giles Road,,,,,,Giles Road,,,,o/s 15,,SE,E0042755,Coed Cae,Blaenavon,,,,,,true,UKOS,326126,208734,-3.072051113,51.772385302,BCT,MKD,OTH,,,,061,2000-01-01T00:00:00,2024-05-02T09:56:25,3,revise,active
5340SRX16407,tordtwt,,,Coedcae Cemetery,,,,Coedcae Cemetery,,Llanover Road,,,,nr,,NW,E0042755,Coed Cae,Blaenavon,,,,,,false,UKOS,325805,208666,-3.076687805,51.771726815,BCT,MKD,OTH,,,,061,2000-01-01T00:00:00,2025-07-17T15:12:08,6,revise,active
5340SRX16408,toradgp,,,East View,,,,,,High Street,,,,nr,,NW,E0054735,Abersychan,,,,,,,false,UKOS,326728,203407,-3.062203833,51.724577317,BCT,MKD,OTH,,,,061,2000-01-01T00:00:00,2024-05-02T09:56:24,3,revise,active
5340SRX16409,torjtdt,,,East View,,,,High Street Car Park,,High Street,,,,nr,,SE,E0054735,Abersychan,,,,,,,false,UKOS,326728,203412,-3.062204887,51.724622265,BCT,MKD,OTH,,,,061,2000-01-01T00:00:00,2024-05-02T09:56:24,3,revise,active
5340SRX16410,tordpjt,,,West Hill Road,,,,,,Newman Road,,,,opp,,NW,E0054749,Trevethin,Pontypool,,,,,,false,UKOS,327718,202333,-3.047650283,51.715046476,BCT,MKD,OTH,,,,061,2000-01-01T00:00:00,2024-05-02T09:56:44,5,revise,active
5340SRX16411,tordpmj,,,Trevethin Shops,,,,Trevethin Shops,,Church Avenue,,,,nr,,NW,E0054749,Trevethin,Pontypool,,,,,,false,UKOS,328262,202104,-3.039730397,51.713062484,BCT,MKD,OTH,,,,061,2000-01-01T00:00:00,2024-05-02T09:56:14,3,revise,inactive
5340SRX16412,tordpmp,,,Trevethin Shops,,,,Trevethin Shops,,Church Avenue,,,,nr,,SE,E0054749,Trevethin,Pontypool,,,,,,false,UKOS,328270,202103,-3.03961442,51.713054519,BCT,MKD,OTH,,,,061,2000-01-01T00:00:00,2024-05-02T09:56:14,3,revise,inactive
5340SRX16413,tordpta,,,Woodside Road,,,,Allotment Gardens,,Woodside Road,,,,o/s 7,,NW,E0054749,Trevethin,Pontypool,,,,,,false,UKOS,327914,202639,-3.044877288,51.717827255,BCT,MKD,OTH,,,,061,2000-01-01T00:00:00,2025-07-17T15:13:49,3,revise,active
5340SRX16414,tordatg,,,Ebenezer,,,,Ebenezer Congregational Church,,St David`s Road,,,,nr,,NE,E0042792,Pontnewydd,Cwmbran,,,,,,false,UKOS,329629,196128,-3.018741014,51.659513168,BCT,MKD,OTH,,,,061,2000-01-01T00:00:00,2025-06-11T10:57:22,6,revise,inactive
5340SRX16415,toramtg,,,Pretoria,,,,Pretoria PH,,Freeholdland Road,,,,opp former,,NW,E0042766,Freeholdland,,,,,,,false,UKOS,327097,202423,-3.056656303,51.715779731,BCT,MKD,OTH,,,,061,2000-01-01T00:00:00,2024-05-02T09:56:12,4,revise,active
5340SRX16416,toramtj,,,Pretoria,,,,Pretoria PH,,Freeholdland Road,,,,o/s former,,SE,E0042766,Freeholdland,,,,,,,false,UKOS,327103,202427,-3.056570308,51.715816471,BCT,MKD,OTH,,,,061,2000-01-01T00:00:00,2024-05-02T09:56:12,3,revise,active
5340SRX16417,toragjg,,,Chapel Lane,,,,Pontrhydyrun Baptist Church,,Chapel Lane,,,,before,,SE,E0054737,Croesyceiliog,Cwmbran,,,,,,false,UKOS,330382,196885,-3.008007786,51.666407704,BCT,MKD,OTH,,,,061,2000-01-01T00:00:00,2025-07-17T15:14:54,7,revise,active
5340SRX16456,toragdj,,,Pottery,,,,Pottery PH,,Llanover Road,,,,o/s,,SW,E0042755,Coed Cae,Blaenavon,,,,,,true,UKOS,326144,208571,-3.071755475,51.770917714,BCT,CUS,OTH,,,,061,2000-01-01T00:00:00,2024-06-05T14:07:09,4,revise,active
5340WDB21567,torgdjp,,,Bridgend Hotel,,,,Bridgend Hotel PH,,Hanbury Road,,,,nr,,NE,E0042758,Cwmffrwdoer,,,,,,,false,UKOS,326643,201625,-3.0630584,51.708546756,BCT,CUS,OTH,,,,061,2000-01-01T00:00:00,2024-05-02T09:55:56,3,revise,active
5340WDB21568,torgdjt,,,Bridgend Hotel,,,,Bridgend Hotel PH,,Hanbury Road,,,,nr,,SW,E0042758,Cwmffrwdoer,,,,,,,false,UKOS,326652,201625,-3.062928172,51.708547934,BCT,CUS,OTH,,,,061,2000-01-01T00:00:00,2024-05-02T09:55:56,3,revise,active
5340WDB21606,torgdmd,,,Market Square,,,,,,Market Street,,,,at,,SE,E0057271,Pontypool,,,,,,,false,UKOS,328134,200880,-3.041329973,51.702042735,BCT,MKD,OTH,,,,061,2000-01-01T00:00:00,2024-05-02T09:56:13,2,revise,active
5340WDB21653,torgdmj,,,Riverside,,,,,,Riverside,,,,o/s,,NW,E0057271,Pontypool,,,,,,,false,UKOS,328064,201366,-3.042443159,51.706402726,BCT,MKD,OTH,,,,061,2000-01-01T00:00:00,2024-05-02T09:56:36,3,revise,active
5340WDB21915,torgajg,,,Llantarnum Abbey Gates,,Llantarnum Abbey,,,,Newport Road,,,,before,,NE,E0054741,Llantarnam,,,,,,,false,UKOS,330375,192726,-3.007279758,51.629018076,BCT,MKD,OTH,,,,061,2000-01-01T00:00:00,2025-07-17T15:18:08,6,revise,active
5340WDB21916,torgdwa,,,Llantarnum Abbey Gates,,Llantarnum Abbey,,,,Newport Road,,,,before,,SW,E0054741,Llantarnam,,,,,,,false,UKOS,330428,192797,-3.006528317,51.629662924,BCT,MKD,OTH,,,,061,2000-01-01T00:00:00,2025-07-17T15:18:42,7,revise,active
5340WDB21964,torgdtd,,,Telephone Exchange,,,,Telephone Exchange,,Foundry Road,,,,opp,,W,E0054735,Abersychan,,,,,,,false,UKOS,326513,203344,-3.065302625,51.723982794,BCT,MKD,OTH,,,,061,2000-01-01T00:00:00,2024-05-02T09:56:00,2,revise,active
5340WDB21966,torgdtj,,,Emlyn Park,,,,Emlyn Park Rugby Ground,,Emlyn Road,,,,o/s,,NE,E0042805,Talywain,Abersychan,,,,,,false,UKOS,325930,204480,-3.073983437,51.734118071,BCT,MKD,OTH,,,,061,2000-01-01T00:00:00,2025-07-17T15:20:01,6,revise,active
5340WDB21967,torgdtm,,,Globe,,,,Globe PH,,Albert Road,,,,nr former,,SE,E0042805,Talywain,Abersychan,,,,,,false,UKOS,325957,204322,-3.073558869,51.732701299,BCT,MKD,OTH,,,,061,2000-01-01T00:00:00,2024-05-02T09:56:26,3,revise,active
5340WDB21968,torgdtp,,,Big Arch,,,,,,Lodge Road,,,,opp,,SE,E0054735,Abersychan,,,,,,,false,UKOS,326039,203486,-3.072193837,51.725196891,BCT,CUS,OTH,,,,061,2000-01-01T00:00:00,2024-05-02T09:56:20,3,revise,active
5340WDB22369,torgdwd,,,Fernleigh,,,,Fernleigh (house),,Manor Road,,,,nr,,SE,E0054735,Abersychan,,,,,,,false,UKOS,326350,203568,-3.067709453,51.725975035,BCT,MKD,OTH,,,,061,2000-01-01T00:00:00,2024-05-02T09:56:01,3,revise,active
5340WDB22370,torgdwg,,,Fernleigh,,,,Fernleigh,,Manor Road,,,,nr,,NW,E0054735,Abersychan,,,,,,,false,UKOS,326350,203560,-3.067707759,51.725903119,BCT,MKD,OTH,,,,061,2000-01-01T00:00:00,2024-05-02T09:56:01,3,revise,active
5340WDB22371,torgdwj,,,Old Castle,,,,Old Castle PH,,High Street,,,,o/s,,W,E0054735,Abersychan,,,,,,,false,UKOS,326427,203455,-3.066570939,51.72496934,BCT,MKD,OTH,,,,061,2000-01-01T00:00:00,2024-05-02T09:56:05,3,revise,active
5340WDB22372,torgdwm,,,Old Castle,,,,Old Castle PH,,High Street,,,,opp,,SE,E0054735,Abersychan,,,,,,,false,UKOS,326428,203460,-3.066557522,51.725014419,BCT,MKD,OTH,,,,061,2000-01-01T00:00:00,2024-05-02T09:56:05,3,revise,active
5340WDB23550,torgjdj,,,Wash House,,,,Old Colliery Wash House,,Crumlin Road,,,,nr former,,NE,E0042753,Cefn y Crib,,,,,,,false,UKOS,324227,198922,-3.097429056,51.683926524,BCT,CUS,OTH,,,,061,2000-01-01T00:00:00,2024-05-02T09:56:43,3,revise,active
5340WDB23551,torgjdm,,,Wash House,,,,Old Colliery Wash House,,Crumlin Road,,,,nr former,,SW,E0042753,Cefn y Crib,,,,,,,true,UKOS,324220,198902,-3.09752594,51.683745787,BCT,CUS,OTH,,,,061,2000-01-01T00:00:00,2024-05-02T09:56:43,3,revise,active
5340WDB24015,torgjga,,,Penylan Road,,,,,,Penylan Road,,,,opp Playground,,NE,E0042769,Garndiffaith,,,,,,,false,UKOS,326292,205008,-3.068854433,51.738912337,BCT,CUS,OTH,,,,061,2000-01-01T00:00:00,2024-05-02T09:56:34,2,revise,active
5340WDB24074,torgjgd,,,Cwmbran Station Car Park,,Cwmbran Station,,Cwmbran Railway Station,,Approach Road,,,,inside,,S,E0042757,Cwmbran,,,,,,,false,UKOS,329797,195826,-3.016251833,51.656814601,BCT,MKD,OTH,,,,061,2000-01-01T00:00:00,2025-07-17T15:22:48,11,revise,active
5340WDB24075,torgjgj,,,Cwmbran Retail Park,,,,Cwmbran Retail Park,,Grounds,,,,grounds,,NW,E0042757,Cwmbran,,,,,,,false,UKOS,329018,195422,-3.027429053,51.653089427,BCT,MKD,OTH,,,,061,2000-01-01T00:00:00,2024-05-02T09:56:11,3,revise,inactive
5340WDB25120,torgaga,,,King`s Head Hotel,,,,King`s Head Hotel PH,,Station Road,,,,after former,,W,E0042792,Pontnewydd,Cwmbran,,,,,,false,UKOS,329455,196229,-3.021276493,51.660399288,BCT,MKD,OTH,,,,061,2000-01-01T00:00:00,2024-05-02T09:56:07,2,revise,active
5340WDB25121,torgagd,,,Ysgol Place,,,,,,Mynydd Maen Road,,,,after,,E,E0054750,Upper Cwmbran,Cwmbran,,,,,,false,UKOS,328118,196776,-3.040714966,51.66514698,BCT,MKD,OTH,,,,061,2000-01-01T00:00:00,2024-05-02T09:56:18,4,revise,active
5340WDB25122,torgadp,,,Sirhowy Court,,,,,,Hafren Road,,,,before,,NE,N0075718,Thornhill,Cwmbran,,,,,,false,UKOS,327678,195787,-3.046870666,51.656199605,BCT,MKD,OTH,,,,061,2000-01-01T00:00:00,2024-05-02T09:56:37,2,revise,active
5340WDB25123,torgadw,,,Usk Court,,,,,,Thornhill Road,,,,nr,,S,N0075718,Thornhill,Cwmbran,,,,,,false,UKOS,327785,195650,-3.045295735,51.6549771,BCT,MKD,OTH,,,,061,2000-01-01T00:00:00,2024-06-05T11:59:51,4,revise,active
5340WDB25124,torgadt,,,Usk Court,,,,,,Thornhill Road,,,,nr,,N,N0075718,Thornhill,Cwmbran,,,,,,false,UKOS,327779,195673,-3.045387211,51.655183092,BCT,MKD,OTH,,,,061,2000-01-01T00:00:00,2024-06-05T11:57:25,4,revise,active
5340WDB25125,torgagj,,,Llanyrafon Mill,,,,,,Caernarfon Crescent,,,,nr,,SE,E0054742,Llanyrafon,Cwmbran,,,,,,false,UKOS,330303,194805,-3.008734589,51.647703748,BCT,MKD,OTH,,,,061,2000-01-01T00:00:00,2024-05-02T09:56:31,2,revise,active
5340WDB25126,torgagm,,,Woodland View,,,,,,Woodland Road,,,,before,,NW,E0054737,Croesyceiliog,Cwmbran,,,,,,false,UKOS,330174,195970,-3.010831743,51.658160864,BCT,MKD,OTH,,,,061,2000-01-01T00:00:00,2024-05-02T09:56:44,3,revise,active
5340WDB25127,torgagp,,,Woodland View,,,,,,Woodland Road,,,,before,,SE,E0054737,Croesyceiliog,Cwmbran,,,,,,false,UKOS,330135,196009,-3.011403256,51.658506613,BCT,MKD,OTH,,,,061,2000-01-01T00:00:00,2024-05-02T09:56:44,3,revise,active
5340WDB25128,torgapd,,,Raglan Court,,,,,,Cardigan Crescent,,,,after,,NE,E0054737,Croesyceiliog,Cwmbran,,,,,,false,UKOS,329957,196833,-3.014141497,51.665892019,BCT,MKD,OTH,,,,061,2000-01-01T00:00:00,2024-05-02T09:56:36,2,revise,active
5340WDB25130,torgagt,,,Wesley Manse,,,,Wesley Manse,,Cwmavon Road,,,,nr,,N,E0042812,Victoria Village,Abersychan,,,,,,false,UKOS,326921,204069,-3.059549338,51.730553641,BCT,MKD,OTH,,,,061,2000-01-01T00:00:00,2024-05-02T09:56:44,2,revise,active
5340WDB25131,torgagw,,,Wesley Manse,,,,Wesley Manse,,Cmavon Road,,,,nr,,SW,E0042812,Victoria Village,Abersychan,,,,,,false,UKOS,326926,204057,-3.059474431,51.730446419,BCT,MKD,OTH,,,,061,2000-01-01T00:00:00,2024-05-02T09:56:44,2,revise,active
5340WDB25223,torgaja,,,Crane Street Loop,,,,Argos Pontypool,,Crane Street,,,,in,,N,E0057271,Pontypool,,,,,,,false,UKOS,328057,200866,-3.042441103,51.701906998,BCT,MKD,OTH,,,,061,2000-01-01T00:00:00,2024-05-02T09:56:23,2,revise,active
5340WDB25360,torgamg,,,Chapel Close,,,,,,Percy Street,,,,before,,NW,E0042769,Garndiffaith,,,,,,,false,UKOS,326321,204599,-3.068347794,51.735239438,BCT,CUS,OTH,,,,061,2000-01-01T00:00:00,2024-05-02T09:56:22,2,revise,active
5340WDB25367,torgamt,,,New Inn,,,,New Inn Car Park,,High Street,,,,opp,,SE,E0054735,Abersychan,,,,,,,false,UKOS,326615,203435,-3.063845409,51.724814224,BCT,MKD,OTH,,,,061,2000-01-01T00:00:00,2024-05-02T09:56:10,3,revise,active
5340WDB25368,torgamw,,,New Inn,,,,New Inn Car Park,,High Street,,,,before,,NW,E0054735,Abersychan,,,,,,,false,UKOS,326642,203423,-3.063452052,51.724709888,BCT,MKD,OTH,,,,061,2000-01-01T00:00:00,2024-05-02T09:56:10,3,revise,active
5340WDB25369,torgapa,,,Grove Close,,,,,,Pentrepiod Road,,,,after,,E,E0042794,Pontnewynydd,,,,,,,false,UKOS,326904,202023,-3.059365382,51.712158735,BCT,MKD,OTH,,,,061,2000-01-01T00:00:00,2024-05-02T09:56:27,2,revise,active
5340WDB46467,torgapg,,,Ty Canol Row,,,,,,Henllys Way,,,,nr,,SE,E0054739,Fairwater,Cwmbran,,,,,,true,UKOS,327175,194334,-3.05383759,51.643072511,BCT,MKD,OTH,,,,061,2000-01-01T00:00:00,2024-05-02T09:56:41,2,revise,active
5340WDB46468,torgapj,,,Shops,,,,,,Greenmeadow Way,,,,after,,NE,E0042804,St Dials,Cwmbran,,,,,,true,UKOS,328664,194591,-3.032375397,51.645574044,BCT,MKD,OTH,,,,061,2000-01-01T00:00:00,2024-05-02T09:56:13,3,revise,active
5340WDB46469,torgapm,,,St Dial's Court,,,,St Dial's Court,,Webly Street,,,,o/s,,SW,E0042804,St Dials,Cwmbran,,,,,,false,UKOS,329077,194776,-3.026445151,51.647289484,BCT,MKD,OTH,,,,061,2000-01-01T00:00:00,2024-05-02T09:56:38,2,revise,active
5340WDB46470,torgapt,,,Fairhill Walk,,,,,,Fairhill,,,,nr,,NE,E0054739,Fairwater,Cwmbran,,,,,,true,UKOS,327722,194562,-3.045981149,51.645192854,BCT,MKD,OTH,,,,061,2000-01-01T00:00:00,2024-05-02T09:56:25,2,revise,active
5340WDB46471,torgapw,,,Brookside,,,,,,Blenheim Road,,,,before,,N,E0042804,St Dials,Cwmbran,,,,,,true,UKOS,328281,194645,-3.037920787,51.646010694,BCT,MKD,OTH,,,,061,2000-01-01T00:00:00,2024-05-02T09:55:56,3,revise,active
5340WDB46652,torgdgw,,,Henllys Way,,,,,,Henllys Way,,,,on,,NE,E0054740,Henllys,Cwmbran,,,,,,false,UKOS,326960,194086,-3.056892272,51.640815134,BCT,MKD,OTH,,,,061,2000-01-01T00:00:00,2024-05-02T09:56:28,3,revise,active
5340WDB46653,torgdja,,,Henllys Way,,,,,,Henllys Way,,,,on,,SW,E0054740,Henllys,Cwmbran,,,,,,false,UKOS,326944,194029,-3.057111526,51.640300639,BCT,MKD,OTH,,,,061,2000-01-01T00:00:00,2024-05-02T09:56:28,3,revise,active
5340WDB46711,torgdjd,,,Riverside,,,,Riverside Court,,Riverside,,,,opp,,SE,E0057271,Pontypool,,,,,,,false,UKOS,328086,201347,-3.04212091,51.706234747,BCT,MKD,OTH,,,,061,2000-01-01T00:00:00,2024-05-02T09:56:36,3,revise,active
5340WDB46712,torgdjg,,,Leigh Road,,,,,,Leigh Road,,,,in,,NW,E0054749,Trevethin,Pontypool,,,,,,false,UKOS,327581,202099,-3.049584325,51.712929893,BCT,CUS,OTH,,,,061,2000-01-01T00:00:00,2024-05-02T09:56:30,2,revise,active
5340WDB46713,torgdjm,,,Tesco,,,,Pontypool Tesco,,Lower Bridge Street,,,,at,,E,E0057271,Pontypool,,,,,,,false,UKOS,328244,200635,-3.039688015,51.699854365,BCT,CUS,OTH,,,,061,2000-01-01T00:00:00,2025-07-17T16:03:58,3,revise,active
5340WDB47312,torgjgp,,,Cwmbran Bus Station Stand D1,,Cwmbran Bus Station,,Cwmbran Bus Station,,Gwent Square,,,,at,,,E0042757,Cwmbran,,,,,,,false,UKOS,329448,195548,-3.021239923,51.654271669,BCS,,,,,,061,2008-08-13T17:00:17,2025-07-17T16:04:39,7,revise,active
5340WDB47313,torgjgt,,,Village School,,,,Victoria Village School,,Lower Harper's Road,,,,opp,,NW,E0042812,Victoria Village,Abersychan,,,,,,false,UKOS,326953,203996,-3.059070737,51.729901579,BCT,MKD,OTH,,,,061,2000-01-01T00:00:00,2024-05-02T09:56:19,3,revise,active
5340WDB47314,torgjgw,,,Village School,,,,Victoria Village School,,Lower Harper's Road,,,,o/s,,SE,E0042812,Victoria Village,Abersychan,,,,,,false,UKOS,326958,204000,-3.058999194,51.72993819,BCT,MKD,OTH,,,,061,2000-01-01T00:00:00,2024-05-02T09:56:19,3,revise,active
5340WDB47315,torgjma,,,Pontypool Leisure Centre,,Leisure Centre,,Pontypool Leisure Centre,,Trosnant Street,,,,after,,E,E0042807,Trosnant,Pontypool,,,,,,false,UKOS,328508,200598,-3.035860994,51.699550804,BCT,MKD,OTH,,,,061,2000-01-01T00:00:00,2024-05-02T09:55:58,4,revise,active
5340WDB47316,torgjmd,,,Cwmbran Stadium,,Stadium,,Cwmbran Stadium,,Henllys Way,,,,nr,,SW,E0042757,Cwmbran,,,,,,,false,UKOS,329623,194430,-3.018485366,51.644243033,BCT,MKD,OTH,,,,061,2000-01-01T00:00:00,2024-05-02T09:56:14,4,revise,active
5340WDB47317,torgjmg,,,Cwmbran Stadium,,Stadium,,Cwmbran Stadium,,Henllys Way,,,,nr,,NE,E0042757,Cwmbran,,,,,,,false,UKOS,329644,194458,-3.018187566,51.64449738,BCT,MKD,OTH,,,,061,2000-01-01T00:00:00,2024-05-02T09:56:14,4,revise,active
5340WDB47318,torgjmj,,,Ysgol Place,,,,,,Mynydd Maen Road,,,,before,,W,E0054750,Upper Cwmbran,Cwmbran,,,,,,false,UKOS,328117,196771,-3.040728392,51.665101903,BCT,MKD,OTH,,,,061,2000-01-01T00:00:00,2024-05-02T09:56:19,4,revise,active
5340WDB47319,torgjmp,,,Cadoc Road,,,,,,Mynydd Maen Road,,,,nr,,NW,E0054750,Upper Cwmbran,Cwmbran,,,,,,false,UKOS,328216,196694,-3.039281398,51.66442237,BCT,MKD,OTH,,,,061,2000-01-01T00:00:00,2024-05-02T09:56:22,4,revise,active
5340WDB47320,torgjmt,,,Ty Trappa Place,,,,Ty Trappa,,Mynydd Maen Road,,,,before,,SW,E0054750,Upper Cwmbran,Cwmbran,,,,,,false,UKOS,328500,196571,-3.035150723,51.663352898,BCT,MKD,OTH,,,,061,2000-01-01T00:00:00,2024-05-02T09:56:41,3,revise,active
5340WDB47321,torgjmw,,,World Heritage Centre,,,,World Heritage Centre,,Church Rroad,,,,o/s,,NE,E0054736,Blaenavon,,,,,,,false,UKOS,325073,208859,-3.087356072,51.773369152,BCT,MKD,OTH,,,,061,2000-01-01T00:00:00,2024-05-02T09:55:58,1,revise,active
5340WDB47322,torgjpa,,,Furnace Sidings Station,,Furnace Sidings,,Furnace Sidings Station,,Station Approach,,,,o/s,,N,E0042770,Garn-yr-erw,,,,,,,false,UKOS,323459,209453,-3.110854734,51.778489773,BCT,MKD,OTH,,,,061,2000-01-01T00:00:00,2025-07-17T16:07:56,3,revise,active
5340WDB47323,torgjpd,,,Blaenavon Ironworks,,,,Blaenavon Ironworks,,North Street,,,,nr,,SW,E0054736,Blaenavon,,,,,,,false,UKOS,324946,209219,-3.089254429,51.776587954,BCT,MKD,OTH,,,,061,2000-01-01T00:00:00,2024-05-02T09:56:05,3,revise,active
5340WDB47324,torgjpg,,,Estate Road,,,,,,Estate Road,,,,in,,E,E0042794,Pontnewynydd,,,,,,,false,UKOS,327037,201706,-3.05737427,51.709326372,BCT,MKD,OTH,,,,061,2010-12-08T17:14:12,2024-05-02T09:56:24,4,revise,active
5340WDB47325,torgjpj,,,Estate Road,,,,,,Estate Road,,,,in,,W,E0042794,Pontnewynydd,,,,,,,false,UKOS,327038,201696,-3.057357704,51.709236607,BCT,MKD,OTH,,,,061,2010-12-08T17:16:10,2024-05-02T09:56:24,4,revise,active
5340WDB47326,torgjpm,,,Cwmffrwd Square,,,,Cresswell,,Cwmavon Road,,,,after,,N,E0042812,Victoria Village,Abersychan,,,,,,false,UKOS,326956,204401,-3.059112427,51.733542746,BCT,MKD,OTH,,,,061,2012-01-25T11:06:15,2024-05-02T09:56:13,3,revise,active
5340WDB47327,torgjpt,,,Burford Street,,,,carpark,,High Street,,,,after,,SW,E0054736,Blaenavon,,,,,,,false,UKOS,325215,208915,-3.085290651,51.773891233,BCT,MKD,OTH,,,,061,2012-10-31T09:50:43,2024-05-02T09:56:21,2,revise,active
5340WDB47328,torgjpw,,,Blaenavon Active Living Centre,,Active Living Centre,,,,Middle Coedcae Road,,,,o/s,,NW,E0042809,Upper Coedcae,Blaenavon,,,,,,false,UKOS,325725,208854,-3.077887273,51.773406206,BCT,MKD,OTH,,,,061,2013-04-16T12:28:16,2025-07-17T16:10:05,4,revise,active
5340WDB47329,torgjta,,,Parc Panteg,,,,,,Avondale Road,,,,nr,,SE,E0042801,Sebastopol,Pontypool,,,,,,false,UKOS,329586,197895,-3.01971925,51.675392715,BCT,MKD,OTH,,,,061,2014-11-05T17:13:18,2024-05-02T09:56:11,4,revise,active
5340WDB47330,torgjtd,,,Parc Panteg,,,,,,Avondale Road,,,,nr,,NW,E0042801,Sebastopol,Pontypool,,,,,,false,UKOS,329566,197915,-3.02001248,51.675569998,BCT,MKD,OTH,,,,061,2014-11-05T17:28:32,2024-05-02T09:56:11,4,revise,active
5340WDB47331,torgjtg,,,Cwmbran Rail Station,,,,,,Edlogan Way,,,,nr Car Park,,E,E0042757,Cwmbran,,,,,,,false,UKOS,329764,195791,-3.016721756,51.656495828,BCT,MKD,OTH,,,,061,2018-08-08T10:33:23,2025-06-11T10:57:23,3,revise,active
5340WDB47332,torgjtm,,,Cwmbran Rail Station,,,,,,Edlogan Way,,,,opp Car Park,,W,E0042757,Cwmbran,,,,,,,false,UKOS,329755,195774,-3.016848416,51.656341875,BCT,MKD,OTH,,,,061,2018-08-08T10:37:48,2025-06-11T10:57:23,4,revise,active
5340WDB47333,torgjtp,,,Ysgol Gyfun Gwynllyw,,,,,,Folly Road,,,,Inside,,S,E0054749,Trevethin,Pontypool,,,,,,false,UKOS,328470,202259,-3.036752127,51.714477798,BCT,MKD,OTH,,,,061,2019-01-31T10:35:53,2025-07-17T16:11:28,3,revise,active
5340WDB47334,torgjtw,,,Winstone Road,,,,,,Newman Road,,,,before,,NW,E0054749,Trevethin,Pontypool,,,,,,false,UKOS,327855,202202,-3.045640457,51.7138865,BCT,MKD,OTH,,,,061,2019-01-31T13:05:13,2025-07-17T16:11:56,3,revise,active
5340WDB47335,torgjwa,,,Orchard Close,,,,,,Glen View Road,,,,opp,,E,E0054749,Trevethin,Pontypool,,,,,,false,UKOS,327664,202560,-3.048478974,51.717080148,BCT,MKD,OTH,,,,061,2019-01-31T13:38:35,2025-07-17T16:12:20,4,revise,active
5340WDB47336,torgjwd,,,Grove Crescent,,,,,,Bythway Road,,,,opp,,S,E0054749,Trevethin,Pontypool,,,,,,false,UKOS,327975,202341,-3.043932644,51.715151505,BCT,MKD,OTH,,,,061,2019-01-31T13:54:55,2025-07-17T16:12:50,4,revise,active
5340WDB47337,torgjwg,,,Orchard Farm Estate,,,,,,Church Avenue,,,,opp,,N,E0054749,Trevethin,Pontypool,,,,,,false,UKOS,328210,202239,-3.040510671,51.714264736,BCT,MKD,OTH,,,,061,2019-01-31T14:04:02,2025-07-17T16:13:17,4,revise,active
5340WDB47338,torgjwj,,,Lasgarn Lane,,,,,,Woodside Road,,,,opp,,NW,E0054749,Trevethin,Pontypool,,,,,,false,UKOS,328080,202523,-3.042450712,51.716801114,BCT,MKD,OTH,,,,061,2019-01-31T14:26:03,2025-07-17T16:13:44,4,revise,active
5340WDB47339,torgjwm,,,Greenland Road,,,,,,Greenland Road,,,,o/s 2,,NW,E0054749,Trevethin,Pontypool,,,,,,false,UKOS,328164,201973,-3.041121446,51.711867591,BCT,MKD,OTH,,,,061,2019-01-31T14:41:29,2025-07-17T16:17:04,3,revise,active
5340WDB47340,torgjwp,,,Upland Drive 1,,,,,,Upland Drive,,,,o/s 8,,W,E0054749,Trevethin,Pontypool,,,,,,false,UKOS,328102,202039,-3.042032285,51.712452952,BCT,MKD,OTH,,,,061,2019-01-31T15:09:16,2025-07-17T16:17:32,5,revise,active
5340WDB47341,torgjwt,,,Upland Drive 2,,,,,,Upland Drive,,,,o/s 40,,W,E0054749,Trevethin,Pontypool,,,,,,false,UKOS,327981,202048,-3.043785157,51.712518312,BCT,MKD,OTH,,,,061,2019-01-31T15:20:42,2025-07-17T16:18:01,4,revise,active
5340WDB47342,torgmad,,,Upland Drive 3,,,,,,Upland Drive,,,,o/s 60,,NW,E0054749,Trevethin,Pontypool,,,,,,false,UKOS,327882,202087,-3.045225885,51.712856169,BCT,MKD,OTH,,,,061,2019-01-31T15:31:01,2025-07-17T16:18:30,4,revise,active
5340WDB47343,torgmag,,,Upland Drive 5,,,,,,Upland Drive,,,,o/s 106,,NW,E0054749,Trevethin,Pontypool,,,,,,false,UKOS,327679,202261,-3.048199721,51.714394188,BCT,MKD,OTH,,,,061,2019-01-31T15:51:55,2025-07-17T16:18:55,4,revise,active
5340WDB47344,torgmaj,,,Upland Drive 6,,,,,,Upland Drive,,,,o/s146,,NW,E0054749,Trevethin,Pontypool,,,,,,false,UKOS,327581,202405,-3.049647929,51.715676029,BCT,MKD,OTH,,,,061,2019-02-01T13:59:03,2025-07-17T16:19:25,4,revise,active
5340WDB47345,torgmam,,,Cwmbran Bus Station Stand A1,,Stand A1,,Cwmbran Bus Station,,Gwent Square,,,,at,,,E0042757,Cwmbran,,,,,,,false,UKOS,329516,195569,-3.020261379,51.654468999,BCS,,,,,,061,2019-02-01T14:31:45,2024-05-02T09:56:03,7,revise,active
5340WDB47346,torgmap,,,Abersychan School,,,,,,School Grounds,,,,inside,,W,E0042812,Victoria Village,Abersychan,,,,,,false,UKOS,326844,203863,-3.060620603,51.728687045,BCT,MKD,OTH,,,,061,2019-02-01T14:47:06,2024-05-02T09:56:17,3,revise,active
5340WDB47347,torgmat,,,Upland Drive Playground,,,,,,Upland Drive 3,,,,nrr playground,,NW,E0054749,Trevethin,Pontypool,,,,,,false,UKOS,327756,202198,-3.047072314,51.713837779,BCT,MKD,OTH,,,,061,2019-02-01T15:25:25,2024-05-02T09:56:42,3,revise,inactive
5340WDB47348,torgmaw,,,Grove Park East,,,,,,Grove Park,,,,on,,NE,E0042779,Lowlands,Cwmbran,,,,,,false,UKOS,329329,196971,-3.023247984,51.667049154,BCT,MKD,OTH,,,,061,2019-12-10T14:46:21,2025-07-17T16:20:33,3,revise,active
5340WDB47349,torgmda,,,Grove Park West,,,,,,Grove Park,,,,on,,N,E0042779,Lowlands,Cwmbran,,,,,,false,UKOS,329315,196954,-3.023446934,51.666894564,BCT,MKD,OTH,,,,061,2019-12-10T14:56:02,2025-07-17T16:21:05,2,revise,active
5340WDB47350,torgmdg,,,The Grange University Hospital,,The Grange,,The Grange University Hospital,,Hospital Grounds,,,,in,,E,E0042775,Llanfrechfa,,,,,,,false,UKOS,331081,194873,-2.997505259,51.648406429,BCT,MKD,OTH,,,,061,2020-09-29T14:05:19,2025-07-17T16:21:32,6,revise,active
5340WDB47351,torgmdj,,,Fairoak Lane,,,,Bus stop Markings / pole,,North Road,,,,after,,NW,E0054737,Croesyceiliog,Cwmbran,,,,,,false,UKOS,330494,196046,-3.006221504,51.65887913,BCT,MKD,OTH,,,,061,2020-12-04T14:56:44,2024-05-02T09:56:25,3,revise,active
5340WDB47352,torgmdm,,,The Maltings,,,,,,Newport Road,,,,nr,,N,E0054741,Llantarnam,,,,,,,false,UKOS,330244,192479,-3.009122736,51.626781325,BCT,MKD,OTH,,,,061,2021-05-27T16:48:22,2024-05-02T09:56:40,2,revise,active
5340WDB47353,torgmdp,,,The Maltings,,,,,,Newport Road,,,,nr,,S,E0054741,Llantarnam,,,,,,,false,UKOS,330249,192478,-3.009050317,51.626772956,BCT,MKD,OTH,,,,061,2021-05-27T17:11:51,2024-05-02T09:56:40,2,revise,active
5340WDB47354,torgmdt,,,New Road,,,,Shop Car Park,,New Road,,,,,,SW,E0054743,New Inn,,,,,,,false,UKOS,330263,199506,-3.010252464,51.689955163,BCT,MKD,OTH,,,,061,2023-03-30T13:10:55,2025-07-17T16:22:45,3,revise,active
5340WDB47355,torgmdw,,,New Road,,,,Shop Car Park,,New Road,,,,,,NE,E0054743,New Inn,,,,,,,false,UKOS,330220,199489,-3.010871015,51.689796985,BCT,MKD,OTH,,,,061,2023-03-30T13:23:14,2025-07-17T16:23:11,3,revise,active
5340WDB47356,torgmga,,,Sycamore Road,,,,Railway Bridge,,Varteg Road,,,,,,N,E0042765,Forgeside,,,,,,,false,UKOS,325288,208305,-3.084101314,51.768412759,BCT,MKD,OTH,,,,061,2023-03-30T13:26:26,2025-07-17T16:23:42,3,revise,active
5340WDB47357,torgmgd,,,Sycamore Road,,,,Railway Bridge,,Varteg Road,,,,,,S,E0042765,Forgeside,,,,,,,false,UKOS,325290,208376,-3.084087631,51.769051276,BCT,MKD,OTH,,,,061,2023-03-30T13:29:34,2025-07-17T16:24:05,3,revise,active
5340WDB47358,torgmgj,,,Lakeside,,,,,,Llantarnam Park Way,,,,nr Lakeside Court,,NW,E0054741,Llantarnam,,,,,,,false,UKOS,330015,193140,-3.012562749,51.632695138,BCT,CUS,OTH,,,,061,2023-04-21T15:59:18,2024-05-02T09:56:07,2,revise,active
5340WDB47359,torgmgm,,,Lakeside,,,,Greggs,,Llantarnam Park Way,,,,,,SE,E0054741,Llantarnam,,,,,,,false,UKOS,330031,193118,-3.012327211,51.632499355,BCT,MKD,OTH,,,,061,2023-05-04T10:55:00,2025-07-17T16:24:50,2,revise,active
5340WDB47360,torgmgp,,,Pontypool and New Inn Railway Station,,Railway Station,,,,off of A4042,,,,,,SW,E0057271,Pontypool,,,,,,,false,UKOS,330012,200329,-3.014048338,51.697322446,BCT,MKD,OTH,,,,061,2024-05-01T11:24:04,2025-07-17T16:26:03,1,revise,active
5340WDB47361,torgmgt,,,Mamhilad Park Estate,,,,,,Old Abergavenny Road,,,,,,N,E0057271,Pontypool,,,,,,,false,UKOS,330975,202514,-3.000550485,51.717084552,BCT,MKD,OTH,,,,061,2024-05-01T11:45:44,2024-05-01T11:45:52,1,revise,active
5340WDB47362,torgmgw,,,Bevans Lane,,,,o/s 37-47,,Tir Brychiad Road,,,,,,SW,E0042795,Pontrhydyrun,Cwmbran,,,,,,false,UKOS,329404,197556,-3.022282138,51.672317613,BCT,MKD,OTH,,,,061,2025-07-29T09:25:47,2025-07-29T09:32:16,1,revise,active
5340WDB47363,torgmja,,,Bevans Lane,,,,,,Tir Brychiad Road,,,,,,NE,E0042795,Pontrhydyrun,Cwmbran,,,,,,false,UKOS,329389,197541,-3.022495978,51.672180878,BCT,MKD,OTH,,,,061,2025-07-29T09:31:56,2025-07-29T09:30:05,,new,active
