ATCOCode,NaptanCode,PlateCode,CleardownCode,CommonName,CommonNameLang,ShortCommonName,ShortCommonNameLang,Landmark,LandmarkLang,Street,StreetLang,Crossing,CrossingLang,Indicator,IndicatorLang,Bearing,NptgLocalityCode,LocalityName,ParentLocalityName,GrandParentLocalityName,Town,TownLang,Suburb,SuburbLang,LocalityCentre,GridType,Easting,Northing,Longitude,Latitude,StopType,BusStopType,TimingStatus,DefaultWaitTime,Notes,NotesLang,AdministrativeAreaCode,CreationDateTime,ModificationDateTime,RevisionNumber,Modification,Status
5410ABC99979,ynygjmg,,,St Anna's Church,,,,,,B5111,,,,,,S,E0038704,Llanerchymedd,,,,,,,false,UKOS,243105,382190,-4.356530835,53.313330891,BCT,MKD,OTH,,,,024,2024-04-17T09:54:54,2025-07-24T09:51:15,3,revise,active
5410ABC99980,ynygjgj,,,Lon Bach,,,,,,Bull Bay Road,,,,,,E,E0054325,Amlwch,,,,,,,false,UKOS,243491,393086,-4.356137685,53.411302408,BCT,MKD,OTH,,,,024,2024-04-16T14:37:56,2025-07-24T09:53:53,2,revise,active
5410ABC99981,ynygjgd,,,Lon Bach,,,,,,Bull Bay Road A5025,,,,,,W,E0054325,Amlwch,,,,,,,false,UKOS,243460,393072,-4.356596691,53.411167475,BCT,MKD,OTH,,,,024,2024-04-16T14:33:25,2025-07-24T09:54:07,3,revise,active
5410ABC99982,ynygjmt,,,Stad Y Canon,,,,,,Mountain Road,,,,,,NE,E0038710,Llanfechell,,,,,,,false,UKOS,236677,391075,-4.457511202,53.391177214,BCT,MKD,OTH,,,,024,2024-04-17T11:00:12,2025-07-24T09:54:50,3,revise,active
5410ABC99983,ynygjmw,,,Nant Y Mynydd,,,,,,,,,,,,SW,E0038710,Llanfechell,,,,,,,false,UKOS,236658,391052,-4.457784729,53.390964788,BCT,MKD,OTH,,,,024,2024-04-17T11:04:51,2025-07-24T09:55:10,2,revise,active
5410ABC99984,ynygjdp,,,Ffordd Caergybi,,,,,,Cemaes Bay,,,,,,W,E0038663,Cemaes Bay,,,,,,,false,UKOS,236895,393085,-4.4552758,53.409295024,BCT,MKD,OTH,,,,024,2024-04-11T15:09:32,2025-07-24T09:56:01,5,revise,active
5410ABC99985,ynygjdt,,,St Patrick's Church,,,,,,Ffordd Caergybi,,,,,,E,E0038663,Cemaes Bay,,,,,,,false,UKOS,236864,393103,-4.455751022,53.409447082,BCT,MKD,OTH,,,,024,2024-04-11T16:16:00,2025-07-24T09:56:27,3,revise,active
5410ABC99987,ynygjga,,,Coffee Pot,,,,,,High Street,,,,,,NE,E0038663,Cemaes Bay,,,,,,,false,UKOS,237150,393423,-4.451617996,53.412409153,BCT,MKD,OTH,,,,024,2024-04-11T16:44:11,2025-07-24T09:57:06,2,revise,active
5410ABC9999,ynygjdm,,,Morawelon Road,,,,Bryn Glas Close,,Morawelon Road,,,,after,,SW,N0075749,Morawelon,Holyhead,,,,,,false,UKOS,225482,382210,-4.620783533,53.307994289,BCT,MKD,OTH,,,,024,2024-04-11T12:45:07,2025-07-24T09:58:20,3,revise,active
5410ABC99990,ynygjma,,,Nant Newydd Caravan Park,,,,,,B5110,,,,Opp,,SW,E0038647,Brynteg,,,,,,,false,UKOS,248541,381311,-4.274585682,53.307019536,BCT,MKD,OTH,,,,024,2024-04-16T16:26:53,2025-07-24T09:58:58,2,revise,active
5410ABC99991,ynygjmd,,,Nant Newydd Caravan Park,,,,,,B5110,,,,O/s,,NE,E0038647,Brynteg,,,,,,,false,UKOS,248546,381329,-4.274519303,53.307182636,BCT,MKD,OTH,,,,024,2024-04-16T16:30:19,2025-07-24T10:01:45,3,revise,active
5410ABC99992,ynygjgm,,,Argraig,,,,,,B5110,,,,,,SW,E0054347,Llangefni,,,,,,,false,UKOS,246601,376671,-4.30143418,53.264786977,BCT,MKD,OTH,,,,024,2024-04-16T14:49:42,2025-07-24T10:02:44,3,revise,active
5410ABC99993,ynygjgp,,,Argraig,,,,,,B5110,,,,opp,,NE,E0054347,Llangefni,,,,,,,false,UKOS,246604,376690,-4.301398408,53.264958494,BCT,MKD,OTH,,,,024,2024-04-16T14:55:38,2025-07-24T10:03:12,3,revise,active
5410ABC99994,ynygjgt,,,Rhosneigir Turn,,,,,,A4080,,,,after,,SW,N0075741,Engedi,,,,,,,false,UKOS,236510,376884,-4.452695064,53.263684671,BCT,MKD,OTH,,,,024,2024-04-16T15:02:24,2025-07-24T10:03:49,2,revise,active
5410ABC99997,ynygjmj,,,Llangadwaladr,,,,,,,,,,,,SW,E0038715,Llangadwaladr,,,,,,,false,UKOS,238288,369324,-4.422225992,53.196335308,BCT,MKD,OTH,,,,024,2024-04-17T10:46:03,2025-07-24T10:04:30,3,revise,active
5410ABC99998,ynygjmp,,,Llangadwaladr,,,,,,,,,,,,NE,E0038715,Llangadwaladr,,,,,,,false,UKOS,238282,369324,-4.422315722,53.196333483,BCT,MKD,OTH,,,,024,2024-04-17T10:50:45,2025-07-24T10:05:00,2,revise,active
5410ABCC9998,ynygjdw,,,Gyferbyn Cemaes Surgery,,,,,,High Street,,,,after,,NE,E0038663,Cemaes Bay,,,,,,,false,UKOS,237022,393202,-4.453427589,53.410384972,BCT,MKD,OTH,,,,024,2024-04-11T16:34:19,2025-07-24T10:05:39,2,revise,active
5410ACX17052,ynydajt,,,Ysgol David Hughes,,,,Ysgol David Hughes,,Grounds,,,,in,,NE,E0054353,Menai Bridge,,,,,,,true,UKOS,254845,372327,-4.175947656,53.228093608,BCT,MKD,OTH,,,,024,2000-01-01T00:00:00,2025-07-23T15:44:51,4,revise,active
5410ANX17038,ynyadam,,,Gate House,,,,Ty Croes Camp Gate House,,A4080,,,,o/s,,NW,E0054324,Aberffraw,,,,,,,true,UKOS,233980,370269,-4.487141236,53.2034984,BCT,MKD,OTH,,,,024,2000-01-01T00:00:00,2025-07-23T15:48:31,5,revise,active
5410ANX17039,ynyadaj,,,Prince Llewelyn,,,,Prince Llewelyn PH,,A4080,,,,before,,NW,E0054324,Aberffraw,,,,,,,true,UKOS,235433,369187,-4.464850902,53.194233384,BCT,MKD,OTH,,,,024,2000-01-01T00:00:00,2025-07-23T15:49:24,5,revise,active
5410ANX17040,ynyadag,,,Clafdy,,,,,,A4080,,,,o/s,,SE,E0054324,Aberffraw,,,,,,,true,UKOS,235115,369841,-4.469944003,53.200008101,BCT,MKD,OTH,,,,024,2000-01-01T00:00:00,2025-07-23T15:50:57,5,revise,active
5410ANX17041,ynyapmj,,,Rehoboth,,,,Capel Rehoboth,,A4080,,,,after,,NW,E0054341,Llanfaelog,,,,,,,true,UKOS,233423,373298,-4.497054588,53.230525422,BCT,CUS,OTH,,,,024,2000-01-01T00:00:00,2025-07-23T15:51:57,5,revise,active
5410ANX17056,ynyatwj,,,Ynys Mon County Hall,,,,Ynys Mon County Hall,,Mill Street,,,,o/s,,SE,E0054347,Llangefni,,,,,,,true,UKOS,245986,375434,-4.310047851,53.253498636,BCT,CUS,OTH,,,,024,2000-01-01T00:00:00,2025-07-24T10:09:48,7,revise,active
5410ANX17059,ynyatma,,,Capel Libanus War Memorial,,Capel Libanus,,Eglwys St Mechell,,Mountain Road,,,,o/s,,SE,E0038710,Llanfechell,,,,,,,true,UKOS,236927,391231,-4.453836273,53.392660007,BCT,CUS,OTH,,,,024,2000-01-01T00:00:00,2025-07-23T15:58:46,9,revise,active
5410ANX17061,ynydmtg,,,Tabor Hall,,,,,,Gorad Road,,,,nr,,SW,E0054363,Valley,,,,,,,true,UKOS,229446,380417,-4.560390421,53.293189993,BCT,CUS,OTH,,,,024,2000-01-01T00:00:00,2025-07-24T08:17:54,4,revise,active
5410ANX17063,ynydmwd,,,Newlands Park,,,,,,Gorad Road,,,,after,,SW,E0054363,Valley,,,,,,,true,UKOS,229048,379949,-4.566103282,53.288859208,BCT,MKD,OTH,,,,024,2000-01-01T00:00:00,2025-07-24T08:20:23,5,revise,active
5410ANX17066,ynydgtw,,,Ysgol Syr Tomos Jones,,,,,,Grounds,,,,in,,NE,E0038759,Pentrefelin,Amlwch,,,,,,true,UKOS,243824,392009,-4.350598902,53.401733173,BCT,CUS,OTH,,,,024,2000-01-01T00:00:00,2025-07-24T08:21:25,4,revise,active
5410ANX17068,ynyamtw,,,Post Office,,,,Llanbedrgoch Post Office,,Main Road,,,,opp Post Box,,N,E0038699,Llanbedrgoch,,,,,,,true,UKOS,251028,380465,-4.236894537,53.300131149,BCT,MKD,OTH,,,,024,2000-01-01T00:00:00,2025-07-24T08:22:21,7,revise,active
5410ANX17069,ynyaptj,,,Maes Maethlu,,,,,,Llanfaethlu Road,,,,after,,NW,E0054342,Llanfaethlu,,,,,,,true,UKOS,231256,387000,-4.536769229,53.352884109,BCT,CUS,OTH,,,,024,2000-01-01T00:00:00,2025-07-24T08:23:04,4,revise,active
5410ANX17070,ynyawgj,,,Dolmeinir Turn,,,,,,Llangwyflog Road,,,,after,,SW,E0038718,Llangwyllog,,,,,,,true,UKOS,244114,379285,-4.339971802,53.287543204,BCT,CUS,OTH,,,,024,2000-01-01T00:00:00,2025-07-24T08:23:59,4,revise,active
5410ANX17072,ynyagaj,,,Maes-yr-Orsedd,,,,,,Llangwyllog Road,,,,before,,NE,E0054328,Bodffordd,,,,,,,true,UKOS,242808,376802,-4.35831698,53.264857209,BCT,MKD,OTH,,,,024,2000-01-01T00:00:00,2025-07-24T08:24:51,4,revise,active
5410ANX17074,ynyagmp,,,California Inn,,,,California Inn PH,,B5108,,,,before,,NW,E0038647,Brynteg,,,,,,,true,UKOS,249531,382571,-4.260338543,53.318623342,BCT,MKD,OTH,,,,024,2000-01-01T00:00:00,2025-07-24T08:27:17,4,revise,active
5410ANX17076,ynydmpa,,,Ysgol Gynradd Llandrygarn,,,,Ysgol Gynradd Llandrygarn,,Grounds,,,,in,,NW,E0038681,Glan-yr-afon,,,,,,,true,UKOS,239169,379552,-4.414218031,53.288463057,BCT,MKD,OTH,,,,024,2000-01-01T00:00:00,2025-07-24T08:27:49,5,revise,active
5410ANX17077,ynyamwg,,,Star,,,,,,Star Road,,,,before,,NE,E0038708,Llanfairpwllgwyngyll,,,,,,,true,UKOS,251261,372160,-4.229515705,53.225601631,BCT,CUS,OTH,,,,024,2000-01-01T00:00:00,2025-07-24T08:29:24,5,revise,active
5410ANX17078,ynydmam,,,Ysgol Gyfun Llangefni,,Ysgol,,,,Grounds,,,,in,,S,E0054347,Llangefni,,,,,,,true,UKOS,245288,375791,-4.32067476,53.256501874,BCT,CUS,OTH,,,,024,2000-01-01T00:00:00,2025-07-24T08:30:04,7,revise,active
5410ANX17079,ynydjpm,,,Cefn Cwmwd,,,,,,Holyhead Road,,,,o/s,,W,E0038780,Rhostrehwfa,,,,,,,true,UKOS,243568,374358,-4.345730584,53.243131837,BCT,MKD,OTH,,,,024,2000-01-01T00:00:00,2025-07-24T08:31:04,5,revise,inactive
5410ANX17082,ynyatmd,,,Sarn Estate,,,,,,Brynddu Road,,,,opp,,NW,E0038710,Llanfechell,,,,,,,true,UKOS,236792,391437,-4.455970992,53.394468222,BCT,MKD,OTH,,,,024,2000-01-01T00:00:00,2025-07-24T08:32:00,4,revise,active
5410ANX17083,ynyaptp,,,Rhydwyn Turn,,,,,,A5025,,,,before,,NE,E0054342,Llanfaethlu,,,,,,,true,UKOS,231737,387640,-4.529890703,53.358784547,BCT,CUS,OTH,,,,024,2000-01-01T00:00:00,2025-07-24T08:35:05,4,revise,active
5410ANX17084,ynyagja,,,Capel Brynrefail,,,,,,A5025,,,,opp,,SE,N0071258,Brynrefail,,,,,,,true,UKOS,248088,386871,-4.284046071,53.356826994,BCT,CUS,OTH,,,,024,2000-01-01T00:00:00,2025-07-24T08:35:45,7,revise,active
5410ANX17086,ynydjdt,,,Fron Lligwy Caravan Park,,,,Fron Lligwy Caravan Park,,A5025,,,,before,,E,N0071258,Brynrefail,,,,,,,true,UKOS,248614,386551,-4.275996337,53.354108418,BCT,MKD,OTH,,,,024,2000-01-01T00:00:00,2025-07-24T08:36:41,5,revise,active
5410ANX17089,ynydgdw,,,Tabor Hall,,,,,,Gorad Road,,,,nr,,NE,N0075751,Newlands Park,,,,,,,true,UKOS,229427,380421,-4.560677328,53.293219794,BCT,CUS,OTH,,,,024,2000-01-01T00:00:00,2025-07-24T08:38:05,3,revise,active
5410ANX17090,ynydgpj,,,Post Office,,,,Pentraeth Square,,A5025,,,,before,,SE,E0054356,Pentraeth,,,,,,,true,UKOS,252335,378465,-4.216367696,53.282533263,BCT,MKD,OTH,,,,024,2000-01-01T00:00:00,2025-07-24T08:38:39,7,revise,active
5410ANX17091,ynyatdt,,,Pili Palas,,,,,,B5420,,,,o/s,,NW,E0054353,Menai Bridge,,,,,,,true,UKOS,254191,373141,-4.186109722,53.235225956,BCT,CUS,OTH,,,,024,2000-01-01T00:00:00,2024-04-26T15:25:59,3,revise,active
5410ANX17092,ynydpdt,,,Foel Farm Park,,,,Foel Farm Park,,B4419,,,,not in use,,W,E0038673,Dwyran,,,,,,,true,UKOS,247447,364764,-4.283065229,53.158090755,BCT,MKD,OTH,,,,024,2000-01-01T00:00:00,2025-07-24T08:39:35,4,revise,inactive
5410ANX17093,ynydgma,,,Model Village,,,,,,A4080,,,,after,,SW,E0038746,Pen-Lon,,,,,,,true,UKOS,243236,365215,-4.34620969,53.160917848,BCT,MKD,OTH,,,,024,2000-01-01T00:00:00,2025-07-24T08:42:36,4,revise,active
5410ANX17094,ynyajdt,,,Tal-ponciau,,,,Tal-ponciau PH,,A4080,,,,nr,,SW,E0038673,Dwyran,,,,,,,true,UKOS,245361,365552,-4.314617099,53.164566302,BCT,MKD,OTH,,,,024,2000-01-01T00:00:00,2025-07-24T10:27:59,6,revise,active
5410ANX17095,ynydgaw,,,Newborough War Memorial,,,,Newborough Library & Institute,,Pen-dref Street,,,,o/s,,NE,E0038739,Newborough,,,,,,,true,UKOS,242555,365779,-4.356663786,53.165782289,BCT,MKD,OTH,,,,024,2000-01-01T00:00:00,2025-07-24T08:49:35,6,revise,active
5410ANX17098,ynyagtg,,,St Seiriol`s Church,,,,Penmon Priory,,Penmon Road,,,,o/s,,NE,E0038752,Penmon,,,,,,,true,UKOS,263077,380725,-4.05633598,53.305719683,BCT,MKD,OTH,,,,024,2000-01-01T00:00:00,2025-07-24T08:51:39,5,revise,active
5410ANX17099,ynyatga,,,Plas Newydd,,,,Menai Centre,,Brynsiencyn Road,,,,after,,SW,N0075747,Llanedwen,,,,,,,true,UKOS,251690,369732,-4.221965344,53.203913174,BCT,MKD,OTH,,,,024,2000-01-01T00:00:00,2025-07-24T08:56:17,6,revise,active
5410ANX17100,ynyapgt,,,Plas Cefn Mawr,,,,Plas Cefn Mawr,,A4080,,,,before,,NE,N0075747,Llanedwen,,,,,,,true,UKOS,250981,369081,-4.232267734,53.197867516,BCT,MKD,OTH,,,,024,2000-01-01T00:00:00,2025-07-24T08:57:25,6,revise,active
5410ANX17101,ynyajpt,,,Ysgol Ysceifiog Gaerwen,,,,,,Grounds,,,,not in use,,N,E0038678,Gaerwen,,,,,,,true,UKOS,248002,371774,-4.278108463,53.221211766,BCT,CUS,OTH,,,,024,2000-01-01T00:00:00,2025-07-24T08:57:57,5,revise,inactive
5410ANX17108,ynyadwj,,,Parc Glas Surgery,,,,Parc Glas Surgery,,B4422,,,,o/s,,NE,E0038635,Bethel,,,,,,,true,UKOS,239605,370341,-4.403041341,53.205872537,BCT,MKD,OTH,,,,024,2000-01-01T00:00:00,2025-07-24T09:00:53,3,revise,inactive
5410ANX17111,ynydajw,,,Ysgol David Hughes,,,,Ysgol David Hughes,,Grounds,,,,in,,NW,E0054353,Menai Bridge,,,,,,,true,UKOS,254831,372404,-4.176192165,53.228776841,BCT,MKD,OTH,,,,024,2000-01-01T00:00:00,2025-07-24T09:01:32,5,revise,active
5410ANX17112,ynyagdw,,,Bryngwran Surgery,,,,Bryngwran Surgery,,High Street,,,,before,,SE,E0054330,Bryngwran,,,,,,,true,UKOS,234730,377659,-4.479758771,53.270097248,BCT,MKD,OTH,,,,024,2000-01-01T00:00:00,2025-07-24T09:04:55,5,revise,active
5410ANZ12852,ynyatwa,,,Oriel Ynys Mon,,,,Angelsey Museum,,B5111,,,,before,,SE,E0054347,Llangefni,,,,,,,true,UKOS,245942,376435,-4.311191838,53.262480871,BCT,MKD,OTH,,,,024,2000-01-01T00:00:00,2025-07-24T09:05:39,5,revise,active
5410ANZ12853,ynyatwd,,,Oriel Ynys Mon,,,,Angelsey Museum,,B5111,,,,before,,NW,E0054347,Llangefni,,,,,,,true,UKOS,245956,376416,-4.310972924,53.26231429,BCT,MKD,OTH,,,,024,2000-01-01T00:00:00,2025-07-24T09:11:20,5,revise,active
5410AWD70023,ynydagp,,,Menai Suspension Bridge,,,,,,Mona Road,,,,before,,SE,E0054353,Menai Bridge,,,,,,,true,UKOS,255555,371631,-4.165004349,53.222035509,BCT,MKD,OTH,,,,024,2000-01-01T00:00:00,2025-07-24T09:12:03,3,revise,active
5410AWD70024,ynydagm,,,Carreg y Borth,,,,Craig Selyf,,Telford Road,,,,before,,NE,E0054353,Menai Bridge,,,,,,,true,UKOS,255601,371797,-4.164391101,53.2235391,BCT,MKD,OTH,,,,024,2000-01-01T00:00:00,2025-07-24T09:13:26,4,revise,active
5410AWD70026,ynydajm,,,Wood Street,,,,Menai Bridge Bus Station,,Wood Street,,,,opp Library,,SE,E0054353,Menai Bridge,,,,,,,true,UKOS,255622,372007,-4.164171941,53.225431115,BCT,MKD,OTH,,,,024,2000-01-01T00:00:00,2025-07-24T10:42:29,6,revise,active
5410AWD70027,ynydajp,,,Menai Bridge Bus Station,,,,,,Wood Street,,,,at,,,E0054353,Menai Bridge,,,,,,,true,UKOS,255614,371999,-4.164287919,53.225352503,BCS,,,,,,024,2000-01-01T00:00:00,2025-07-24T09:19:52,6,revise,active
5410AWD70028,ynydagj,,,Rhyd Menai,,,,,,Holyhead Road,,,,before roundabout,,E,E0054353,Menai Bridge,,,,,,,true,UKOS,255271,372106,-4.169470601,53.226224808,BCT,MKD,OTH,,,,024,2000-01-01T00:00:00,2025-07-24T09:20:28,3,revise,active
5410AWD70029,ynyawpm,,,Menai Bridge Cemetery,,,,Menai Bridge Cemetery,,Holyhead Road,,,,nr,,SW,E0054353,Menai Bridge,,,,,,,true,UKOS,255049,372078,-4.172780764,53.22591274,BCT,MKD,OTH,,,,024,2000-01-01T00:00:00,2025-07-24T09:20:58,4,revise,active
5410AWD70030,ynyawpj,,,Carreg-Bran,,,,Carreg-Bran Hotel,,Holyhead Road,,,,o/s,,W,E0038708,Llanfairpwllgwyngyll,,,,,,,true,UKOS,253736,371496,-4.192166294,53.220324998,BCT,MKD,OTH,,,,024,2000-01-01T00:00:00,2025-07-24T09:21:47,4,revise,active
5410AWD70031,ynyatjd,,,Turnpike,,,,,,Holyhead Road,,,,after,,SE,E0038708,Llanfairpwllgwyngyll,,,,,,,true,UKOS,253218,371538,-4.19993787,53.220559329,BCT,MKD,OTH,,,,024,2000-01-01T00:00:00,2025-07-24T09:22:22,4,revise,active
5410AWD70032,ynyatgj,,,Llanfair PG,,,,Llanfair PG Post Office,,Holyhead Road,,,,o/s,,SE,E0038708,Llanfairpwllgwyngyll,,,,,,,true,UKOS,252803,371621,-4.206186974,53.221189981,BCT,MKD,OTH,,,,024,2000-01-01T00:00:00,2025-07-24T09:23:04,5,revise,active
5410AWD70033,ynyatgm,,,Llanfair Pwllgwyngyll Station,,Station,,,,Holyhead Road,,,,o/s,,NW,E0038708,Llanfairpwllgwyngyll,,,,,,,true,UKOS,252581,371644,-4.209520042,53.221334988,BCT,MKD,OTH,,,,024,2000-01-01T00:00:00,2025-07-24T09:24:39,7,revise,active
5410AWD70034,ynyapwt,,,Hafod,,,,,,Holyhead Road,,,,nr,,NW,E0038708,Llanfairpwllgwyngyll,,,,,,,true,UKOS,252255,371701,-4.21442535,53.221756369,BCT,MKD,OTH,,,,024,2000-01-01T00:00:00,2025-07-24T09:26:41,4,revise,active
5410AWD70035,ynyatad,,,Hafod,,,,,,Holyhead Road,,,,nr,,SE,E0038708,Llanfairpwllgwyngyll,,,,,,,true,UKOS,252251,371710,-4.214489245,53.221831517,BCT,MKD,OTH,,,,024,2000-01-01T00:00:00,2025-07-24T09:28:02,6,revise,active
5410AWD70036,ynyapwg,,,Ffordd Penmynydd,,,,Bowling Green,,Ffordd Penmynydd,,,,opp Bowling Green,,NE,E0038708,Llanfairpwllgwyngyll,,,,,,,true,UKOS,252773,371800,-4.206718643,53.22278947,BCT,MKD,OTH,,,,024,2000-01-01T00:00:00,2025-07-24T09:41:21,5,revise,active
5410AWD70037,ynyatdp,,,Trem yr Eryri,,,,,,Lon Ty Croes,,,,after,,NW,E0038708,Llanfairpwllgwyngyll,,,,,,,true,UKOS,253042,371822,-4.202702797,53.223061592,BCT,CUS,OTH,,,,024,2000-01-01T00:00:00,2024-04-26T15:26:11,3,revise,active
5410AWD70038,ynyamwm,,,Star Crossroads,,,,,,Holyhead Road,,,,before,,SE,E0038708,Llanfairpwllgwyngyll,,,,,,,true,UKOS,251022,371915,-4.232978324,53.223334039,BCT,MKD,OTH,,,,024,2000-01-01T00:00:00,2025-07-24T09:52:37,4,revise,active
5410AWD70039,ynyamwa,,,Post Office,,,,Llanddaniel Fab Post Office,,Main Road,,,,adj,,SW,E0054335,Llanddaniel Fab,,,,,,,true,UKOS,249577,370567,-4.253968481,53.21081911,BCT,MKD,OTH,,,,024,2000-01-01T00:00:00,2025-07-06T14:51:06,6,revise,active
5410AWD70040,ynyajtp,,,Tafarn Newborough,,,,,,Chapel Street,,,,before,,SW,E0038678,Gaerwen,,,,,,,true,UKOS,248808,371867,-4.266090549,53.222277154,BCT,MKD,OTH,,,,024,2000-01-01T00:00:00,2025-07-06T14:51:27,4,revise,active
5410AWD70041,ynyajtw,,,Tafarn Newborough,,,,Tafarn Newborough PH,,Holyhead Road,,,,before,,E,E0038678,Gaerwen,,,,,,,true,UKOS,248714,371905,-4.267515218,53.222587111,BCT,MKD,OTH,,,,024,2000-01-01T00:00:00,2024-05-22T16:27:26,4,revise,active
5410AWD70042,ynyajwa,,,Tafarn Newborough,,,,Tafarn Newborough PH,,Holyhead Road,,,,after,,NW,E0038678,Gaerwen,,,,,,,true,UKOS,248780,371887,-4.266519078,53.222448817,BCT,MKD,OTH,,,,024,2000-01-01T00:00:00,2024-04-26T15:26:08,3,revise,active
5410AWD70043,ynyajtd,,,Gaerwen Police Station,,,,Gaerwen Surgery,,Holyhead Road,,,,nr,,SE,E0038678,Gaerwen,,,,,,,true,UKOS,248461,371922,-4.271309781,53.222672242,BCT,MKD,OTH,,,,024,2000-01-01T00:00:00,2025-07-06T14:52:18,5,revise,active
5410AWD70044,ynyajtg,,,Gaerwen Police Station,,,,Gaerwen Surgery,,Holyhead Road,,,,nr,,NW,E0038678,Gaerwen,,,,,,,true,UKOS,248402,371922,-4.272192761,53.222655402,BCT,MKD,OTH,,,,024,2000-01-01T00:00:00,2025-07-06T14:52:17,5,revise,active
5410AWD70045,ynyajtm,,,Rhestai Rhos,,,,Gospel Church,,Holyhead Road,,,,nr,,NW,E0038678,Gaerwen,,,,,,,true,UKOS,248112,371944,-4.276543306,53.222770132,BCT,MKD,OTH,,,,024,2000-01-01T00:00:00,2025-07-06T14:52:15,3,revise,active
5410AWD70046,ynyajtj,,,Gaerwen War Memorial,,,,Gaerwen War Memorial,,Holyhead Road,,,,before,,SE,E0038678,Gaerwen,,,,,,,true,UKOS,247964,371966,-4.278768731,53.222925377,BCT,MKD,OTH,,,,024,2000-01-01T00:00:00,2024-04-26T15:25:33,3,revise,active
5410AWD70047,ynyajpj,,,Gaerwen Industrial Estate,,Industrial Estate,,,,Holyhead Road,,,,after,,NW,E0038678,Gaerwen,,,,,,,true,UKOS,247633,372019,-4.283747587,53.223301957,BCT,MKD,OTH,,,,024,2000-01-01T00:00:00,2025-07-06T14:53:02,6,revise,active
5410AWD70048,ynyajta,,,Gaewern Industrial Estate,,Industrial Estate,,,,Holyhead Road,,,,before,,SE,E0038678,Gaerwen,,,,,,,true,UKOS,247664,372011,-4.283279821,53.223238997,BCT,MKD,OTH,,,,024,2000-01-01T00:00:00,2025-07-06T14:52:58,6,revise,active
5410AWD70049,ynydgta,,,Lon Tyddyn Mawr,,,,,,Holyhead Road,,,,before,,NW,E0038758,Pentre-Berw,,,,,,,true,UKOS,247013,372552,-4.293282421,53.227915477,BCT,MKD,OTH,,,,024,2000-01-01T00:00:00,2024-04-26T15:25:50,3,revise,active
5410AWD70050,ynydgtd,,,Lon Tyddyn Mawr,,,,,,Holyhead Road,,,,after,,SE,E0038758,Pentre-Berw,,,,,,,true,UKOS,246865,372678,-4.295558153,53.229004492,BCT,MKD,OTH,,,,024,2000-01-01T00:00:00,2024-04-26T15:25:50,3,revise,active
5410AWD70051,ynydgtj,,,Old Windmill,,,,Old Windmill,,Holyhead Road,,,,o/s,,SE,E0038758,Pentre-Berw,,,,,,,true,UKOS,247308,372262,-4.28872806,53.225395723,BCT,MKD,OTH,,,,024,2000-01-01T00:00:00,2025-06-11T10:25:58,4,revise,active
5410AWD70053,ynydgtp,,,Old Windmill,,,,Old Windmill,,Holyhead Road,,,,opp,,NW,E0038758,Pentre-Berw,,,,,,,true,UKOS,247286,372277,-4.289064512,53.225524121,BCT,MKD,OTH,,,,024,2000-01-01T00:00:00,2025-07-24T11:00:42,5,revise,active
5410AWD70054,ynydjwt,,,Stad Ty Gwyn,,,,Tafarn y Rhos,,B4422,,,,opp,,SW,E0038780,Rhostrehwfa,,,,,,,true,UKOS,243740,374490,-4.343220027,53.244363462,BCT,MKD,OTH,,,,024,2000-01-01T00:00:00,2025-07-06T14:53:20,7,revise,active
5410AWD70055,ynydjtd,,,Penrhiw,,,,Hebog y Dyffryn,,B4422,,,,after,,SW,E0038780,Rhostrehwfa,,,,,,,true,UKOS,243933,374621,-4.340394694,53.245601388,BCT,MKD,OTH,,,,024,2000-01-01T00:00:00,2025-07-24T11:18:06,5,revise,active
5410AWD70056,ynydjwm,,,Penrhiw,,,,,,B4422,,,,after,,NE,E0038780,Rhostrehwfa,,,,,,,true,UKOS,244018,374729,-4.339174915,53.246596362,BCT,MKD,OTH,,,,024,2000-01-01T00:00:00,2024-04-26T15:25:58,3,revise,active
5410AWD70057,ynydjwp,,,Tan Rallt,,,,,,B4422,,,,o/s,,NE,E0038780,Rhostrehwfa,,,,,,,true,UKOS,244516,375443,-4.332067023,53.253155202,BCT,MKD,OTH,,,,024,2000-01-01T00:00:00,2024-04-26T15:26:09,4,revise,active
5410AWD70058,ynydjpt,,,Bodelis,,,,,,B4422,,,,opp,,SW,E0054347,Llangefni,,,,,,,true,UKOS,244838,375866,-4.327451147,53.257048599,BCT,MKD,OTH,,,,024,2000-01-01T00:00:00,2024-04-26T15:25:21,4,revise,active
5410AWD70059,ynydjpw,,,Bodelis,,,,,,B4422,,,,o/s,,NE,E0054347,Llangefni,,,,,,,true,UKOS,244832,375885,-4.32755028,53.25721749,BCT,MKD,OTH,,,,024,2000-01-01T00:00:00,2024-04-26T15:25:21,4,revise,active
5410AWD70060,ynydjtp,,,Ffordd Corn Hir,,,,,,Cildwrn Road,,,,after,,NW,E0054347,Llangefni,,,,,,,true,UKOS,244965,376053,-4.325640055,53.258760675,BCT,MKD,OTH,,,,024,2000-01-01T00:00:00,2024-05-23T12:49:08,5,revise,active
5410AWD70061,ynydjtw,,,Ffordd Corn Hir,,,,,,Cildwrn Road,,,,before,,SE,E0054347,Llangefni,,,,,,,true,UKOS,245047,376024,-4.32439789,53.258528757,BCT,MKD,OTH,,,,024,2000-01-01T00:00:00,2024-04-26T15:25:39,3,revise,active
5410AWD70062,ynydjwg,,,Ty Hen,,,,,,Maes Derwydd,,,,before,,SW,E0054347,Llangefni,,,,,,,true,UKOS,244905,375749,-4.326390623,53.256017377,BCT,CUS,OTH,,,,024,2000-01-01T00:00:00,2025-07-24T11:21:41,4,revise,active
5410AWD70063,ynydjtj,,,Bryn Meurig Estate,,,,,,Maes Meurig,,,,o/s 78,,SW,E0054347,Llangefni,,,,,,,true,UKOS,244946,376227,-4.326009618,53.260322454,BCT,CUS,OTH,,,,024,2000-01-01T00:00:00,2025-07-24T11:21:07,5,revise,active
5410AWD70064,ynydjta,,,Ysgol Gyfun Llangefni,,Ysgol,,,,Cildwrn Road,,,,before,,SE,E0054347,Llangefni,,,,,,,true,UKOS,245302,375936,-4.320535609,53.25780826,BCT,MKD,OTH,,,,024,2000-01-01T00:00:00,2025-07-24T11:22:17,8,revise,active
5410AWD70065,ynydgjd,,,Llangefni Industrial Estate,,Industrial Estate,,,,Industrial Estate Road,,,,opp 2 Sisters,,NE,E0054347,Llangefni,,,,,,,true,UKOS,246127,375015,-4.307733567,53.249776315,BCT,MKD,OTH,,,,024,2000-01-01T00:00:00,2025-07-24T11:22:58,8,revise,active
5410AWD70066,ynyawat,,,Ysgol y Bont,,,,Ysgol y Bont,,Industrial Estate Road,,,,before,,N,E0054347,Llangefni,,,,,,,true,UKOS,246173,375570,-4.307313222,53.254778957,BCT,MKD,OTH,,,,024,2000-01-01T00:00:00,2025-07-24T11:23:43,4,revise,active
5410AWD70067,ynyawaw,,,Ysgol y Bont,,,,Ysgol y Bont,,Industrial Estate Road,,,,opp,,S,E0054347,Llangefni,,,,,,,true,UKOS,246187,375621,-4.30712821,53.255241072,BCT,MKD,OTH,,,,024,2000-01-01T00:00:00,2025-07-24T11:26:38,6,revise,active
5410AWD70068,ynydgjt,,,Pencraig Estate Entrance,,,,,,Pencraig,,,,o/s 15,,N,E0054347,Llangefni,,,,,,,true,UKOS,246740,375562,-4.298817592,53.254871237,BCT,CUS,OTH,,,,024,2000-01-01T00:00:00,2025-07-24T11:27:50,4,revise,active
5410AWD70069,ynydgjp,,,Pencraig Estate,,,,,,Pencraig,,,,opp 125,,S,E0054347,Llangefni,,,,,,,true,UKOS,246662,375792,-4.300096655,53.256914445,BCT,CUS,OTH,,,,024,2000-01-01T00:00:00,2025-07-24T11:29:15,4,revise,active
5410AWD70070,ynyawag,,,Plas Penlan,,,,Old Folks' Home,,Bron-y-Felin,,,,o/s,,SW,E0054347,Llangefni,,,,,,,true,UKOS,246407,375887,-4.303961768,53.257693903,BCT,CUS,OTH,,,,024,2000-01-01T00:00:00,2025-07-24T11:30:42,4,revise,active
5410AWD70071,ynyawap,,,Ty`n Coed Terminus,,,,,,Ty`n Coed Uchaf,,,,at,,S,E0054347,Llangefni,,,,,,,true,UKOS,246360,376114,-4.304775385,53.259719088,BCT,CUS,OTH,,,,024,2000-01-01T00:00:00,2025-07-24T11:32:08,3,revise,active
5410AWD70072,ynyatwg,,,Post Office,,,,Llangefni Post Office,,Church Street,,,,o/s,,SE,E0054347,Llangefni,,,,,,,true,UKOS,245929,375776,-4.311067288,53.256558319,BCT,MKD,OTH,,,,024,2000-01-01T00:00:00,2025-07-24T11:33:00,5,revise,active
5410AWD70073,ynyatwt,,,Llangefni Library,,Library,,,,High Street,,,,o/s,,NW,E0054347,Llangefni,,,,,,,true,UKOS,245767,375715,-4.313463863,53.25595879,BCT,MKD,OTH,,,,024,2000-01-01T00:00:00,2025-07-24T11:33:37,6,revise,active
5410AWD70075,ynyagag,,,Capel Sardis,,,,Capel Sardis,,B5109,,,,o/s,,SE,E0054328,Bodffordd,,,,,,,true,UKOS,242712,376848,-4.359777777,53.265241873,BCT,MKD,OTH,,,,024,2000-01-01T00:00:00,2025-07-24T11:34:32,5,revise,active
5410AWD70076,ynyawgm,,,Erddreinog House,,,,Erddreinog House,,Llangwyllog Road,,,,nr,,S,E0038718,Llangwyllog,,,,,,,true,UKOS,243784,378873,-4.344715029,53.283745751,BCT,CUS,OTH,,,,024,2000-01-01T00:00:00,2025-07-24T11:35:06,3,revise,active
5410AWD70077,ynydjmj,,,Clwch,,,,,,B5111,,,,before,,SW,E0038778,Rhosmeirch,,,,,,,true,UKOS,245877,377489,-4.312676552,53.27192841,BCT,MKD,OTH,,,,024,2000-01-01T00:00:00,2025-07-24T11:35:40,4,revise,active
5410AWD70078,ynydjmp,,,Llys y Gwynt,,,,,,B5111,,,,after,,SW,E0038778,Rhosmeirch,,,,,,,true,UKOS,245727,377209,-4.314788004,53.269369982,BCT,MKD,OTH,,,,024,2000-01-01T00:00:00,2025-07-24T12:29:45,6,revise,active
5410AWD70079,ynydmgp,,,Hafan Deg,,,,Hafan Deg,,B5110,,,,before,,SW,E0038790,Talwrn,,,,,,,true,UKOS,248403,377078,-4.274633767,53.268965372,BCT,MKD,OTH,,,,024,2000-01-01T00:00:00,2024-04-26T15:25:44,4,revise,active
5410AWD70080,ynydmgt,,,Halfway Terrace,,,,,,B5110,,,,before,,SW,E0038790,Talwrn,,,,,,,true,UKOS,248783,377416,-4.269101461,53.272109713,BCT,MKD,OTH,,,,024,2000-01-01T00:00:00,2025-07-24T12:35:33,4,revise,active
5410AWD70081,ynydmgm,,,St Deniol`s Church,,,,St Deniol`s Church,,Tai Lon Newydd,,,,after,,NW,E0038790,Talwrn,,,,,,,true,UKOS,248945,377179,-4.266561545,53.270027237,BCT,CUS,OTH,,,,024,2000-01-01T00:00:00,2025-07-24T12:36:26,4,revise,active
5410AWD70083,ynydgmj,,,Tai Louis Rodgers,,,,Tai Louis Rodgers Almshouses,,B5420,,,,opp,,SE,E0054355,Penmynydd,,,,,,,true,UKOS,251367,374254,-4.22890651,53.244439625,BCT,MKD,OTH,,,,024,2000-01-01T00:00:00,2025-07-24T12:41:38,6,revise,active
5410AWD70084,ynydadp,,,Carreg-Bran,,,,Carreg-Bran Hotel,,Holyhead Road,,,,after,,E,E0038708,Llanfairpwllgwyngyll,,,,,,,true,UKOS,253842,371523,-4.190592303,53.220596703,BCT,MKD,OTH,,,,024,2000-01-01T00:00:00,2025-07-24T12:45:48,4,revise,active
5410AWD70085,ynydagt,,,Glyn Estate,,,,,,Pentraeth Road,,,,opp,,NW,E0054353,Menai Bridge,,,,,,,true,UKOS,255064,372378,-4.172692722,53.22861154,BCT,MKD,OTH,,,,024,2000-01-01T00:00:00,2025-07-24T12:49:08,4,revise,active
5410AWD70086,ynydagw,,,Glyn Estate,,,,,,Pentraeth Road,,,,o/s,,SE,E0054353,Menai Bridge,,,,,,,true,UKOS,255109,372371,-4.17201594,53.228560947,BCT,MKD,OTH,,,,024,2000-01-01T00:00:00,2025-07-24T12:57:53,4,revise,active
5410AWD70087,ynydajg,,,Tyddyn To,,,,,,Hill Street,,,,o/s 26,,NW,E0054353,Menai Bridge,,,,,,,true,UKOS,255355,372309,-4.168305448,53.228071121,BCT,CUS,OTH,,,,024,2000-01-01T00:00:00,2025-07-24T12:58:22,4,revise,active
5410AWD70088,ynyawta,,,Menai Bridge Art Gallery,,Art Gallery,,,,Cadnant Road,,,,after,,NE,E0054353,Menai Bridge,,,,,,,true,UKOS,255836,372341,-4.161119815,53.228484815,BCT,MKD,OTH,,,,024,2000-01-01T00:00:00,2025-07-24T12:58:50,7,revise,active
5410AWD70089,ynyawtd,,,Menai Bridge Art Gallery,,Art Gallery,,,,Cadnant Road,,,,after,,SW,E0054353,Menai Bridge,,,,,,,true,UKOS,255801,372284,-4.161617927,53.227963312,BCT,MKD,OTH,,,,024,2000-01-01T00:00:00,2025-07-24T13:00:03,7,revise,active
5410AWD70090,ynyapdj,,,Cichle Hill,,,,,,Beaumaris Road,,,,after,,SW,E0038702,Llandegfan,,,,,,,true,UKOS,256201,372921,-4.155918132,53.233798201,BCT,MKD,OTH,,,,024,2000-01-01T00:00:00,2025-07-24T13:00:35,4,revise,active
5410AWD70091,ynyapgj,,,Plas Rhianfa,,,,Plas Rhianfa,,Beaumaris Road,,,,after,,SW,E0038702,Llandegfan,,,,,,,true,UKOS,256987,373389,-4.144361183,53.238214374,BCT,MKD,OTH,,,,024,2000-01-01T00:00:00,2025-07-24T13:01:12,5,revise,active
5410AWD70092,ynyapga,,,Lon Brynteg,,,,Glyn Garth Mews,,Beaumaris Road,,,,after,,NE,E0038702,Llandegfan,,,,,,,true,UKOS,257092,373472,-4.142826328,53.238988208,BCT,MKD,OTH,,,,024,2000-01-01T00:00:00,2025-07-24T13:01:43,5,revise,active
5410AWD70093,ynyadjm,,,Beaumaris Cemetery,,Cemetery,,,,A545,,,,after,,NE,E0054326,Beaumaris,,,,,,,true,UKOS,260079,375764,-4.099109499,53.260368083,BCT,MKD,OTH,,,,024,2000-01-01T00:00:00,2025-07-24T13:02:35,7,revise,active
5410AWD70094,ynyadjd,,,West End,,,,,,Townsend,,,,at,,NE,E0054326,Beaumaris,,,,,,,true,UKOS,260235,375923,-4.096842548,53.261842054,BCT,MKD,OTH,,,,024,2000-01-01T00:00:00,2025-07-24T13:03:17,4,revise,active
5410AWD70095,ynyadmp,,,West End,,,,,,Townsend,,,,at,,SW,E0054326,Beaumaris,,,,,,,true,UKOS,260268,375930,-4.096351245,53.261913631,BCT,MKD,OTH,,,,024,2000-01-01T00:00:00,2025-07-24T13:05:07,4,revise,active
5410AWD70096,ynyadjw,,,Castle Street,,,,Bakery,,Castle Street,,,,o/s,,SW,E0054326,Beaumaris,,,,,,,true,UKOS,260617,376115,-4.09120376,53.263662729,BCT,MKD,OTH,,,,024,2000-01-01T00:00:00,2025-07-24T13:11:27,5,revise,active
5410AWD70097,ynyapta,,,Burton Way,,,,Llanfaes Village Shop,,Ffordd Eglwys,,,,before,,SE,E0038705,Llanfaes,,,,,,,true,UKOS,260636,377631,-4.091584133,53.27729016,BCT,MKD,OTH,,,,024,2000-01-01T00:00:00,2025-07-24T13:12:03,4,revise,active
5410AWD70098,ynyaptd,,,Llanfaes Parc,,,,,,B5109,,,,after,,S,E0038705,Llanfaes,,,,,,,true,UKOS,260955,378502,-4.08718476,53.285197947,BCT,MKD,OTH,,,,024,2000-01-01T00:00:00,2025-07-24T13:13:08,3,revise,active
5410AWD70099,ynyawdp,,,Plas Penmon Nursing Home,,Nursing Home,,,,Main Road,,,,before,,NE,E0038752,Penmon,,,,,,,true,UKOS,262111,379518,-4.070298206,53.294626669,BCT,MKD,OTH,,,,024,2000-01-01T00:00:00,2025-07-24T13:13:46,5,revise,active
5410AWD70100,ynyawdm,,,St Cawrdaf`s Church,,Old Llangoed School,,Old Llangoed School,,Main Road,,,,not in use,,S,E0054348,Llangoed,,,,,,,true,UKOS,261181,380454,-4.084651107,53.30279157,BCT,MKD,OTH,,,,024,2000-01-01T00:00:00,2025-07-24T13:15:28,5,revise,inactive
5410AWD70101,ynyajwd,,,Glanrafon House,,,,Glanrafon House,,Main Road,,,,opp Phone Box,,SE,E0038680,Glan-yr-afon,,,,,,,true,UKOS,260505,380745,-4.094916104,53.305227854,BCT,MKD,OTH,,,,024,2000-01-01T00:00:00,2024-04-26T15:26:14,2,revise,active
5410AWD70102,ynyajwg,,,Old Mill,,,,,,Main Road,,,,not in use,,SW,E0038680,Glan-yr-afon,,,,,,,true,UKOS,260658,380988,-4.092728441,53.307450943,BCT,MKD,OTH,,,,024,2000-01-01T00:00:00,2024-04-26T15:25:44,3,revise,inactive
5410AWD70103,ynyawdg,,,Pont y Rhyd,,,,Mona House,,B5109,,,,after,,SW,E0054348,Llangoed,,,,,,,true,UKOS,261027,379644,-4.08660557,53.295475148,BCT,MKD,OTH,,,,024,2000-01-01T00:00:00,2025-07-24T13:17:16,3,revise,active
5410AWD70104,ynyawda,,,Llangoed Playing Field,,,,,,B5109,,,,o/s,,S,E0054348,Llangoed,,,,,,,true,UKOS,260895,379137,-4.088362264,53.290881671,BCT,MKD,OTH,,,,024,2000-01-01T00:00:00,2025-07-24T13:19:39,7,revise,active
5410AWD70105,ynyadjg,,,Bulkeley Hotel,,,,Bulkeley Hotel PH,,Castle Street,,,,opp,,NE,E0054326,Beaumaris,,,,,,,true,UKOS,260568,376082,-4.091923535,53.263357987,BCT,MKD,OTH,,,,024,2000-01-01T00:00:00,2025-07-24T13:23:56,3,revise,active
5410AWD70106,ynyadma,,,Maes Hyfryd,,,,Beaumaris School,,Wexham Street,,,,after,,W,E0054326,Beaumaris,,,,,,,true,UKOS,259954,376304,-4.101220099,53.265190324,BCT,MKD,OTH,,,,024,2000-01-01T00:00:00,2025-07-24T13:24:58,4,revise,active
5410AWD70107,ynyadmd,,,Maes Hyfryd,,,,Beaumaris School,,Wexham Street,,,,before,,E,E0054326,Beaumaris,,,,,,,true,UKOS,259987,376309,-4.100727885,53.265243954,BCT,MKD,OTH,,,,024,2000-01-01T00:00:00,2025-07-24T13:25:40,4,revise,active
5410AWD70108,ynyapap,,,Maes Gwyn Turn,,,,,,Llanddona Road,,,,after,,SE,E0054336,Llanddona,,,,,,,true,UKOS,257571,378932,-4.138100614,53.288161463,BCT,MKD,OTH,,,,024,2000-01-01T00:00:00,2025-07-24T13:26:57,4,revise,active
5410AWD70109,ynyapag,,,Post Office,,,,Llanddona Post Office,,Main Road,,,,nr,,S,E0054336,Llanddona,,,,,,,true,UKOS,257569,379645,-4.138450575,53.294565416,BCT,MKD,OTH,,,,024,2000-01-01T00:00:00,2025-07-24T13:27:32,5,revise,active
5410AWD70110,ynyapat,,,Ponc-y-Felin,,,,,,Main Road,,,,opp,,NW,E0054336,Llanddona,,,,,,,true,UKOS,257749,379614,-4.135738072,53.294335337,BCT,MKD,OTH,,,,024,2000-01-01T00:00:00,2025-07-24T13:28:11,5,revise,active
5410AWD70111,ynyapam,,,Maes Gwyn Estate,,,,,,Main Road,,,,o/s 24,,E,E0054336,Llanddona,,,,,,,true,UKOS,257336,378964,-4.141637498,53.288381093,BCT,MKD,OTH,,,,024,2000-01-01T00:00:00,2025-07-24T13:28:51,5,revise,active
5410AWD70112,ynyawja,,,Llys yr Ysgol,,,,,,Tan y Ffordd,,,,,,SW,E0038721,Llansadwrn,,,,,,,true,UKOS,256180,376503,-4.157851563,53.265962922,BCT,MKD,OTH,,,,024,2000-01-01T00:00:00,2025-07-24T13:29:43,6,revise,active
5410AWD70113,ynyawgw,,,Llansadwrn Hall,,,,Llansadwrn Hall,,B5109,,,,o/s,,NE,E0038721,Llansadwrn,,,,,,,true,UKOS,256174,376509,-4.157944309,53.266019762,BCT,MKD,OTH,,,,024,2000-01-01T00:00:00,2025-07-24T13:36:58,4,revise,active
5410AWD70114,ynyawjg,,,Llansadwrn Turn,,,,Merddyn-y-groes,,Pentraeth Road,,,,after,,SE,E0038721,Llansadwrn,,,,,,,true,UKOS,254585,374939,-4.181032562,53.251484182,BCT,MKD,OTH,,,,024,2000-01-01T00:00:00,2025-07-24T13:38:18,4,revise,active
5410AWD70115,ynyawpw,,,Felin Engan,,,,Pentraeth Automotive,,Pentraeth Road,,,,after Car Dealers,,S,E0054353,Menai Bridge,,,,,,,true,UKOS,255104,373709,-4.172699568,53.240577953,BCT,MKD,OTH,,,,024,2000-01-01T00:00:00,2025-07-24T13:39:21,5,revise,active
5410AWD70360,ynyawtp,,,Fron Farm,,,,Fron Farm,,Pentraeth Road,,,,before,,SE,E0054353,Menai Bridge,,,,,,,true,UKOS,254671,372679,-4.178712784,53.231207778,BCT,MKD,OTH,,,,024,2000-01-01T00:00:00,2025-07-24T13:40:45,4,revise,active
5410AWD70361,ynyawpt,,,Felin Engan,,,,Pentraeth Automotive,,Pentraeth Road,,,,o/s,,N,E0054353,Menai Bridge,,,,,,,true,UKOS,255077,373796,-4.173143447,53.241352042,BCT,MKD,OTH,,,,024,2000-01-01T00:00:00,2025-07-24T13:41:37,5,revise,active
5410AWD70362,ynyawjd,,,Llansadwrn Turn,,,,Merddyn-y-groes,,Pentraeth Road,,,,opp Car Dealer,,NW,E0038721,Llansadwrn,,,,,,,true,UKOS,254514,375060,-4.182151247,53.252551567,BCT,MKD,OTH,,,,024,2000-01-01T00:00:00,2025-07-24T13:42:48,4,revise,active
5410AWD70363,ynyamat,,,Maes Ffynnon,,,,,,Main Road,,,,o/s,,SW,N0075744,Hen Bentref Llandegfan,,,,,,,true,UKOS,257069,374816,-4.143774308,53.251054487,BCT,MKD,OTH,,,,024,2000-01-01T00:00:00,2025-07-24T13:44:12,3,revise,active
5410AWD70364,ynyapgd,,,Llandegfan War Memorial,,,,Parish Hall,,Bro Llewelyn,,,,opp,,SE,E0038702,Llandegfan,,,,,,,true,UKOS,256558,374072,-4.151091983,53.244229036,BCT,CUS,OTH,,,,024,2000-01-01T00:00:00,2025-07-24T13:45:11,7,revise,active
5410AWD70365,ynyapgm,,,Trem Arfon,,,,,,Bro Llewelyn,,,,before,,SE,E0038702,Llandegfan,,,,,,,true,UKOS,256760,374013,-4.148040713,53.243758218,BCT,MKD,OTH,,,,024,2000-01-01T00:00:00,2025-07-24T13:45:50,5,revise,active
5410AWD70366,ynyapdg,,,Bryn Teg,,,,,,Lon Ganol,,,,after,,SW,E0038702,Llandegfan,,,,,,,true,UKOS,256845,373821,-4.146681536,53.242056522,BCT,MKD,OTH,,,,024,2000-01-01T00:00:00,2025-07-24T13:47:01,4,revise,active
5410AWD70367,ynyapdp,,,Hideaway Cottage,,,,Hideaway Cottage,,Lon Ganol,,,,after,,NE,E0038702,Llandegfan,,,,,,,true,UKOS,256190,373155,-4.156188484,53.235897111,BCT,MKD,OTH,,,,024,2000-01-01T00:00:00,2025-07-24T13:48:22,5,revise,active
5410AWD70368,ynyapda,,,Old Windmill,,,,Old Windmill,,Bro Llewelyn,,,,,,NE,E0038702,Llandegfan,,,,,,,true,UKOS,256625,374074,-4.15008973,53.244269685,BCT,CUS,OTH,,,,024,2000-01-01T00:00:00,2025-07-24T13:50:35,8,revise,inactive
5410AWD70369,ynydgwg,,,Garnedd Wen,,,,,,Pentraeth Road,,,,nr,,SE,E0038747,Pen-y-garnedd,,,,,,,true,UKOS,253735,376568,-4.194511964,53.265882449,BCT,MKD,OTH,,,,024,2000-01-01T00:00:00,2025-07-24T13:52:22,4,revise,active
5410AWD70370,ynydjga,,,Cae Gamdda,,,,,,Penrorsedd Terrace,,,,not in use,,SW,E0038774,Rhos Cefn Hir,,,,,,,true,UKOS,252321,376413,-4.215623752,53.26409826,BCT,CUS,OTH,,,,024,2000-01-01T00:00:00,2025-07-24T13:53:04,5,revise,inactive
5410AWD70371,ynydjgd,,,Graig Llwyd Isaf,,,,,,Main Road,,,,not in use,,,E0038774,Rhos Cefn Hir,,,,,,,true,UKOS,252275,376633,-4.216415106,53.266061492,BCT,HAR,OTH,,,,024,2000-01-01T00:00:00,2025-07-24T13:53:41,4,revise,inactive
5410AWD70372,ynydjgj,,,Rhoscefnir Turn,,,,Bangor Lodge,,Pentraeth Road,,,,after,,NW,E0038774,Rhos Cefn Hir,,,,,,,true,UKOS,252625,377347,-4.211502677,53.272572084,BCT,MKD,OTH,,,,024,2000-01-01T00:00:00,2025-07-24T13:54:37,4,revise,active
5410AWD70374,ynydgpg,,,Penrallt,,,,Bull Inn PH,,A5025,,,,nr,,NW,E0054356,Pentraeth,,,,,,,true,UKOS,252065,379305,-4.220805651,53.290002805,BCT,MKD,OTH,,,,024,2000-01-01T00:00:00,2025-07-24T13:55:18,4,revise,active
5410AWD70375,ynyamtp,,,Post Office,,,,Llanbedrgoch Post Office,,Main Road,,,,adj junct,,S,E0038699,Llanbedrgoch,,,,,,,true,UKOS,251036,380469,-4.23677647,53.300169327,BCT,MKD,OTH,,,,024,2000-01-01T00:00:00,2025-07-24T13:56:02,6,revise,active
5410AWD70376,ynydjdg,,,Croesfryn,,,,,,A5025,,,,o/s,,SW,E0038773,Red Wharf Bay,,,,,,,true,UKOS,252025,380219,-4.221831448,53.298201138,BCT,MKD,OTH,,,,024,2000-01-01T00:00:00,2025-07-24T13:56:30,5,revise,active
5410AWD70377,ynydjdj,,,Llain Delyn,,,,Llain Delyn,,A5025,,,,at,,NE,E0038773,Red Wharf Bay,,,,,,,true,UKOS,252083,380411,-4.221051395,53.299941876,BCT,MKD,OTH,,,,024,2000-01-01T00:00:00,2025-07-24T13:57:12,5,revise,active
5410AWD70378,ynydjdm,,,Saron,,,,Bryn Tirion Hotel,,A5025,,,,after Hotel,,SW,E0038773,Red Wharf Bay,,,,,,,true,UKOS,252404,380836,-4.216436302,53.303848785,BCT,MKD,OTH,,,,024,2000-01-01T00:00:00,2025-07-24T13:57:47,6,revise,active
5410AWD70379,ynyadta,,,Parc Bach,,,,Carreg Winllan,,A5025,,,,after,,SE,E0038634,Benllech,,,,,,,true,UKOS,252021,381820,-4.2226385,53.312580094,BCT,MKD,OTH,,,,024,2000-01-01T00:00:00,2025-07-24T13:58:26,4,revise,active
5410AWD70380,ynyadpt,,,Nautilus,,,,,,Bangor Road,,,,o/s,,NW,E0038634,Benllech,,,,,,,true,UKOS,251842,382043,-4.225427321,53.314532983,BCT,MKD,OTH,,,,024,2000-01-01T00:00:00,2025-07-24T13:58:57,6,revise,active
5410AWD70381,ynyadpj,,,Breeze Hill,,,,,,Bangor Road,,,,after,,SE,E0038634,Benllech,,,,,,,true,UKOS,251790,382198,-4.226279719,53.315910617,BCT,MKD,OTH,,,,024,2000-01-01T00:00:00,2025-07-24T14:31:17,3,revise,active
5410AWD70382,ynyadpm,,,Breeze Hill Hotel,,,,Breeze Hill Hotel,,Bangor Road,,,,after,,NW,E0038634,Benllech,,,,,,,true,UKOS,251725,382356,-4.227328567,53.317311548,BCT,MKD,OTH,,,,024,2000-01-01T00:00:00,2025-07-24T14:32:02,3,revise,active
5410AWD70383,ynyadpw,,,Benllech Health Centre,,,,Benllech Health Centre,,Bangor Road,,,,after,,SW,E0038634,Benllech,,,,,,,true,UKOS,251754,382547,-4.2269828,53.319030642,BCT,MKD,OTH,,,,024,2000-01-01T00:00:00,2025-07-24T14:35:41,7,revise,active
5410AWD70384,ynyadmw,,,Benllech War Memorial,,,,Benllech War Memorial,,Amlwch Road,,,,before,,SW,E0038634,Benllech,,,,,,,true,UKOS,251854,382879,-4.225638187,53.322045205,BCT,MKD,OTH,,,,024,2000-01-01T00:00:00,2025-07-24T14:36:35,6,revise,active
5410AWD70385,ynyadtd,,,Refail Newydd,,,,The Cherries,,Amlwch Road,,,,nr,,NW,E0038634,Benllech,,,,,,,true,UKOS,251840,383254,-4.226023595,53.325409491,BCT,MKD,OTH,,,,024,2000-01-01T00:00:00,2025-07-24T14:37:28,6,revise,active
5410AWD70386,ynydmpg,,,Y Bont,,,,,,Amlwch Road,,,,after,,SE,E0038634,Benllech,,,,,,,true,UKOS,251679,383536,-4.228571002,53.327897263,BCT,MKD,OTH,,,,024,2000-01-01T00:00:00,2025-07-24T14:39:34,6,revise,active
5410AWD70387,ynydmpw,,,Fair Acre,,,,Bodafon Caravan Site,,Amlwch Road,,,,nr,,NW,E0038634,Benllech,,,,,,,true,UKOS,251511,383781,-4.231206386,53.330050684,BCT,MKD,OTH,,,,024,2000-01-01T00:00:00,2025-07-24T14:40:07,5,revise,active
5410AWD70388,ynyawpg,,,Marian-glas Turn Q,,,,,,A5025,,,,not in use,,NW,E0038729,Marianglas,,,,,,,true,UKOS,250875,384734,-4.241197628,53.338431395,BCT,MKD,OTH,,,,024,2000-01-01T00:00:00,2025-07-24T14:41:04,6,revise,inactive
5410AWD70389,ynyawmw,,,Marian-glas War Memorial,,,,Marian-glas Old School,,B5110,,,,nr,,SW,E0038729,Marianglas,,,,,,,true,UKOS,250462,384362,-4.247219582,53.334973561,BCT,MKD,OTH,,,,024,2000-01-01T00:00:00,2025-07-24T14:41:53,5,revise,active
5410AWD70390,ynyagmt,,,California Inn,,,,California Inn PH,,B5110,,,,after,,SW,E0038647,Brynteg,,,,,,,true,UKOS,249553,382627,-4.260035143,53.319132571,BCT,MKD,OTH,,,,024,2000-01-01T00:00:00,2025-07-24T14:43:33,5,revise,active
5410AWD70391,ynydmpj,,,Bryn Mair Turn,,,,,,B5108,,,,before,,SE,E0038647,Brynteg,,,,,,,true,UKOS,250002,382192,-4.253094391,53.315352985,BCT,MKD,OTH,,,,024,2000-01-01T00:00:00,2025-07-24T14:44:50,4,revise,active
5410AWD70392,ynydmpm,,,Tabernacle,,,,Tabernacle,,B5108,,,,before Phone Box,,SW,E0038806,Tynygongl,Benllech,,,,,,true,UKOS,250567,382304,-4.244673085,53.316518775,BCT,MKD,OTH,,,,024,2000-01-01T00:00:00,2025-07-24T14:46:28,4,revise,active
5410AWD70393,ynydmtd,,,Mount Pleasant,,,,,,B5108,,,,after,,NE,E0038806,Tynygongl,Benllech,,,,,,true,UKOS,250848,382632,-4.24061278,53.319544076,BCT,MKD,OTH,,,,024,2000-01-01T00:00:00,2025-07-24T14:47:57,5,revise,active
5410AWD70394,ynyadpa,,,Ysgol Goronwy Owen,,,,,,B5108,,,,before,,NW,E0038634,Benllech,,,,,,,true,UKOS,251767,382840,-4.226925025,53.321670545,BCT,MKD,OTH,,,,024,2000-01-01T00:00:00,2025-07-24T14:48:43,3,revise,active
5410AWD70395,ynyadmt,,,Beach Road,,,,Benllech Isaf,,Bay View Road,,,,after,,SE,E0038634,Benllech,,,,,,,true,UKOS,252209,382666,-4.220213459,53.320231334,BCT,MKD,OTH,,,,024,2000-01-01T00:00:00,2025-07-24T14:51:08,6,revise,active
5410AWD70396,ynydmpt,,,Maes Goronwy,,,,,,B5108,,,,after,,W,E0038634,Benllech,,,,,,,true,UKOS,251229,382814,-4.234983235,53.321286023,BCT,MKD,OTH,,,,024,2000-01-01T00:00:00,2025-07-24T14:52:19,5,revise,active
5410AWD70397,ynydama,,,Capel Paradwys,,,,Llanallgo,,A5108,,,,o/s,,SW,E0038697,Llanallgo,,,,,,,true,UKOS,250482,385431,-4.247424527,53.344580682,BCT,MKD,OTH,,,,024,2000-01-01T00:00:00,2025-07-24T14:52:54,5,revise,active
5410AWD70398,ynydamd,,,Capel Paradwys,,,,Llanallgo,,A5108,,,,opp,,NE,E0038697,Llanallgo,,,,,,,true,UKOS,250479,385438,-4.247472861,53.344642706,BCT,MKD,OTH,,,,024,2000-01-01T00:00:00,2025-07-24T15:02:14,7,revise,active
5410AWD70399,ynydamg,,,Nant Bychan Estate,,,,,,A5108,,,,after,,SW,E0054354,Moelfre,,,,,,,true,UKOS,250869,385865,-4.241820747,53.348588069,BCT,MKD,OTH,,,,024,2000-01-01T00:00:00,2025-07-24T15:04:33,5,revise,active
5410AWD70400,ynydamj,,,Moelfre Bus Station,,,,Moelfre Bus Station,,A5108,,,,at,,,E0054354,Moelfre,,,,,,,true,UKOS,251186,386228,-4.237233178,53.351933223,BCS,,,,,,024,2000-01-01T00:00:00,2025-07-24T15:05:07,5,revise,active
5410AWD70401,ynydjdp,,,Pont Lligwy Caravan Park,,,,Pont Lligwy Caravan Park,,A5025,,,,o/s,,SE,N0075754,Rhos Lligwy,,,,,,,true,UKOS,248869,386131,-4.27196762,53.350409146,BCT,MKD,OTH,,,,024,2000-01-01T00:00:00,2025-07-24T15:06:10,4,revise,active
5410AWD70402,ynydjdw,,,Fron Lligwy Caravan Park,,,,Fron Lligwy Caravan Park,,A5025,,,,before,,NW,N0075754,Rhos Lligwy,,,,,,,true,UKOS,248694,386472,-4.274757597,53.353421786,BCT,MKD,OTH,,,,024,2000-01-01T00:00:00,2025-07-24T15:06:47,4,revise,active
5410AWD70403,ynyagjd,,,Capel Brynrefail,,Capel,,,,A5025,,,,o/s,,NW,N0071258,Brynrefail,,,,,,,true,UKOS,248057,386885,-4.28451819,53.356943822,BCT,MKD,OTH,,,,024,2000-01-01T00:00:00,2025-07-24T15:07:56,7,revise,active
5410AWD70404,ynyajam,,,Pont Dulas,,,,City Dulas,,A5025,,,,after,,NW,E0038666,City Dulas,,,,,,,true,UKOS,247111,387476,-4.299006013,53.361983542,BCT,MKD,OTH,,,,024,2000-01-01T00:00:00,2025-07-24T15:08:27,5,revise,active
5410AWD70405,ynyapjt,,,Llys Dulas Turn,,,,,,A5025,,,,after,,SE,E0038666,City Dulas,,,,,,,true,UKOS,246672,388262,-4.305978628,53.36891565,BCT,MKD,OTH,,,,024,2000-01-01T00:00:00,2025-07-24T15:09:17,5,revise,active
5410AWD70406,ynyajpd,,,Gadfa Crossroads,,Crossroads,,,,A5025,,,,before,,SE,E0038677,Gadfa,,,,,,,true,UKOS,246084,389944,-4.315628007,53.383846538,BCT,MKD,OTH,,,,024,2000-01-01T00:00:00,2025-07-24T15:10:55,7,revise,active
5410AWD70407,ynydgwp,,,Y Bedol,,,,Y Bedol PH,,Chapel Street,,,,after,,NW,E0038760,Penysarn,,,,,,,true,UKOS,245980,390229,-4.317329491,53.386380422,BCT,MKD,OTH,,,,024,2000-01-01T00:00:00,2025-07-24T15:11:33,4,revise,active
5410AWD70408,ynydjad,,,Dinorben Terrace,,,,,,Chapel Street,,,,o/s 1,,N,E0038760,Penysarn,,,,,,,true,UKOS,245965,390321,-4.317599733,53.387202317,BCT,MKD,OTH,,,,024,2000-01-01T00:00:00,2025-07-24T15:12:04,5,revise,active
5410AWD70409,ynydgwt,,,Bron yr Aur,,,,,,Chapel Street,,,,nr,,NE,E0038760,Penysarn,,,,,,,true,UKOS,245995,390530,-4.317251042,53.389088145,BCT,MKD,OTH,,,,024,2000-01-01T00:00:00,2025-07-24T15:12:42,5,revise,active
5410AWD70410,ynydgaj,,,Nebo Flats,,,,Nebo Flats,,Dulas Road,,,,opp,,NW,E0038738,Nebo,,,,,,,true,UKOS,246790,390357,-4.305223206,53.387765733,BCT,MKD,OTH,,,,024,2000-01-01T00:00:00,2025-07-24T15:13:16,5,revise,active
5410AWD70411,ynydgjw,,,Pengorffwysfa,,,,Shiloh Chapel,,Main Road,,,,nr,,N,E0038744,Pen-Gorphwysfa,,,,,,,true,UKOS,246644,392009,-4.308219609,53.402555823,BCT,MKD,OTH,,,,024,2000-01-01T00:00:00,2025-07-24T15:16:09,7,revise,active
5410AWD70412,ynyapjg,,,St Eilian`s Church,,,,St Eilian`s Church,,Llaneilian Road,,,,after,,SE,E0054338,Llaneilian,,,,,,,true,UKOS,246973,392802,-4.303660348,53.409778069,BCT,MKD,OTH,,,,024,2000-01-01T00:00:00,2025-07-24T15:16:51,5,revise,active
5410AWD70413,ynyapjd,,,Capel Bethania,,,,Capel Bethania,,Llaneilian Road,,,,nr,,SW,E0038744,Pen-Gorphwysfa,,,,,,,true,UKOS,245940,392482,-4.319030853,53.406603384,BCT,MKD,OTH,,,,024,2000-01-01T00:00:00,2025-07-24T15:17:33,6,revise,active
5410AWD70414,ynyadgw,,,Lon Wen,,,,,,Chapel Street,,,,before,,E,E0038632,Amlwch Port,Amlwch,,,,,,true,UKOS,244949,393112,-4.334235133,53.411971114,BCT,MKD,OTH,,,,024,2000-01-01T00:00:00,2025-07-24T15:18:13,4,revise,active
5410AWD70415,ynyadap,,,Recreation Grounds,,,,Amlwch Recreation Grounds,,Lon Goch,,,,o/s,,NE,E0054325,Amlwch,,,,,,,true,UKOS,244366,392912,-4.342899669,53.410003197,BCT,MKD,OTH,,,,024,2000-01-01T00:00:00,2025-07-24T15:18:52,3,revise,active
5410AWD70416,ynyadgt,,,Penycefn,,,,,,B5111,,,,before,,SW,E0054325,Amlwch,,,,,,,true,UKOS,244425,392588,-4.341852786,53.407106184,BCT,CUS,OTH,,,,024,2000-01-01T00:00:00,2025-07-24T15:19:24,6,revise,active
5410AWD70417,ynyajag,,,Cerrig-man Shop,,,,,,A5025,,,,nr,,SE,N0075740,Cerrig-man,,,,,,,true,UKOS,245299,391235,-4.328053092,53.395216328,BCT,MKD,OTH,,,,024,2000-01-01T00:00:00,2025-07-24T15:20:07,4,revise,active
5410AWD70418,ynyajaj,,,Croesau-gwynion,,,,,,A5025,,,,nr,,SE,N0075740,Cerrig-man,,,,,,,true,UKOS,245563,390971,-4.323956922,53.392918058,BCT,MKD,OTH,,,,024,2000-01-01T00:00:00,2025-07-24T15:20:46,6,revise,active
5410AWD70419,ynydjag,,,Penysarn War Memorial,,,,Penysarn War Memorial,,A5025,,,,before,,SE,E0038760,Penysarn,,,,,,,true,UKOS,245782,390814,-4.32058987,53.391576615,BCT,MKD,OTH,,,,024,2000-01-01T00:00:00,2025-07-24T15:27:09,6,revise,active
5410AWD70420,ynydgwj,,,Pen-y-Lon Bach,,,,Pen Lon Farm,,Main Road,,,,nr,,NE,E0038743,Penygraigwen,,,,,,,true,UKOS,245144,387841,-4.328717389,53.364688844,BCT,MKD,OTH,,,,024,2000-01-01T00:00:00,2025-07-24T15:28:20,4,revise,active
5410AWD70421,ynyagtw,,,Maes Derwyn,,,,,,Main Road,,,,o/s 3,,NE,N0071259,Capel Parc,,,,,,,true,UKOS,244795,387103,-4.333595188,53.357958344,BCT,MKD,OTH,,,,024,2000-01-01T00:00:00,2025-07-24T15:29:26,5,revise,active
5410AWD70422,ynydmap,,,Christ Church,,Bryn Rhosyn Estate,,Christ Church,,B5111,,,,opp,,NE,E0054358,Rhosybol,,,,,,,true,UKOS,242546,388302,-4.367954738,53.36805661,BCT,MKD,OTH,,,,024,2000-01-01T00:00:00,2025-07-24T15:30:18,6,revise,active
5410AWD70423,ynydmaw,,,Christ Church,,Tai Lon Newydd,,Christ Church,,B5111,,,,after,,SW,E0054358,Rhosybol,,,,,,,true,UKOS,242576,388353,-4.36752968,53.368523578,BCT,MKD,OTH,,,,024,2000-01-01T00:00:00,2025-07-24T15:32:07,7,revise,active
5410AWD70424,ynydmat,,,Old Post Office,,,,Rhosybol Old Post Office,,B5111,,,,nr,,SW,E0054358,Rhosybol,,,,,,,true,UKOS,242703,388650,-4.365770692,53.371233315,BCT,MKD,OTH,,,,024,2000-01-01T00:00:00,2025-07-24T15:32:45,5,revise,active
5410AWD70425,ynydmdg,,,Rhosybol War Memorial,,,,Rhosybol Primary School,,B5111,,,,after,,NE,E0054358,Rhosybol,,,,,,,true,UKOS,242792,388892,-4.36455449,53.37342863,BCT,MKD,OTH,,,,024,2000-01-01T00:00:00,2025-07-24T15:33:15,7,revise,active
5410AWD70426,ynyagmw,,,Lon Tarw,,,,,,Rutland Road,,,,before,,NE,E0038648,Bull Bay,,,,,,,true,UKOS,242427,394199,-4.372687339,53.420985827,BCT,MKD,OTH,,,,024,2000-01-01T00:00:00,2025-07-24T15:33:49,4,revise,active
5410AWD70427,ynyamtm,,,Betws Council Houses,,,,,,A5025,,,,o/s,,NE,E0054334,Llanbadrig,,,,,,,true,UKOS,239368,393630,-4.418385687,53.414952863,BCT,MKD,OTH,,,,024,2000-01-01T00:00:00,2025-07-24T15:34:29,5,revise,active
5410AWD70428,ynyagwm,,,Gadlys Hotel Turn,,,,,,A5025,,,,before,,SW,E0038663,Cemaes Bay,,,,,,,true,UKOS,237979,393606,-4.43925199,53.414312441,BCT,MKD,OTH,,,,024,2000-01-01T00:00:00,2025-07-24T15:35:12,4,revise,active
5410AWD70429,ynyagwj,,,Cemaes Post Office,,,,Cemaes Post Office,,High Street,,,,after,,SW,E0038663,Cemaes Bay,,,,,,,true,UKOS,237162,393429,-4.451440732,53.41246674,BCT,MKD,OTH,,,,024,2000-01-01T00:00:00,2025-07-24T15:35:52,10,revise,active
5410AWD70430,ynyatjw,,,Llanfechell War Memorial,,,,Capel Libanus,,Brynddu Road,,,,opp,,NW,E0038710,Llanfechell,,,,,,,true,UKOS,236926,391218,-4.453844426,53.392538385,BCT,MKD,OTH,,,,024,2000-01-01T00:00:00,2025-07-24T15:36:22,8,revise,active
5410AWD70431,ynyagwd,,,Post Office,,,,Carreglefn Post Office,,Main Road,,,,nr,,N,N0071260,Carreglefn,,,,,,,true,UKOS,238323,389257,-4.431852336,53.375362019,BCT,MKD,OTH,,,,024,2000-01-01T00:00:00,2025-07-24T15:36:55,6,revise,active
5410AWD70432,ynydjgw,,,Sportsmans Lodge,,,,Sportsmans Lodge,,Main Road,,,,opp,,SW,E0038777,Rhosgoch,,,,,,,true,UKOS,240412,389001,-4.400350787,53.373698336,BCT,MKD,OTH,,,,024,2000-01-01T00:00:00,2025-07-24T15:38:29,5,revise,active
5410AWD70433,ynydjgt,,,Four Crosses,,,,Four Crosses Council Houses,,Main Road,,,,at,,NE,E0038777,Rhosgoch,,,,,,,true,UKOS,241328,389559,-4.386875207,53.378985597,BCT,MKD,OTH,,,,024,2000-01-01T00:00:00,2025-07-24T15:39:01,4,revise,active
5410AWD70434,ynydjma,,,Tally Ho,,,,The Ring,,Main Road,,,,opp,,SW,E0038777,Rhosgoch,,,,,,,true,UKOS,240935,389231,-4.392612549,53.375921678,BCT,MKD,OTH,,,,024,2000-01-01T00:00:00,2025-07-24T15:39:45,5,revise,active
5410AWD70435,ynyapjm,,,Post Office,,,,St Mary`s Church,,Market Square,,,,after,,NE,E0038704,Llanerchymedd,,,,,,,true,UKOS,241792,384151,-4.377200449,53.330556261,BCT,MKD,OTH,,,,024,2000-01-01T00:00:00,2025-07-24T15:40:23,6,revise,active
5410AWD70436,ynyamam,,,Capel Hebron,,Capel,,,,Main Road,,,,after,,E,E0038688,Hebron,,,,,,,true,UKOS,245529,384163,-4.321140404,53.331763958,BCT,CUS,OTH,,,,024,2000-01-01T00:00:00,2025-07-24T15:41:39,7,revise,active
5410AWD70437,ynyawmg,,,Post Office,,,,Maenaddwyn Post Office,,Main Road,,,,o/s,,E,E0038727,Maen-Addwyn,,,,,,,true,UKOS,245929,384070,-4.315093914,53.33104993,BCT,MKD,OTH,,,,024,2000-01-01T00:00:00,2025-07-24T15:42:08,6,revise,active
5410AWD70438,ynyagtj,,,Maes Gwynedd,,,,Capel Coch,,Main Road,,,,after,,NE,E0038655,Capel Coch,,,,,,,true,UKOS,245938,382313,-4.314104438,53.315272351,BCT,MKD,OTH,,,,024,2000-01-01T00:00:00,2025-07-24T15:42:37,5,revise,active
5410AWD70439,ynyawmd,,,Refail-newydd,,,,Refail-newydd,,B5109,,,,nr,,NW,E0038726,Llynfaes,,,,,,,true,UKOS,241346,378183,-4.380906264,53.276824526,BCT,MKD,OTH,,,,024,2000-01-01T00:00:00,2025-07-24T15:44:52,4,revise,active
5410AWD70440,ynyawjw,,,Bro Celyn,,,,Bro Celyn,,B5109,,,,before,,SE,E0038726,Llynfaes,,,,,,,true,UKOS,241050,378373,-4.385436442,53.278442219,BCT,MKD,OTH,,,,024,2000-01-01T00:00:00,2025-07-24T15:45:27,5,revise,active
5410AWD70441,ynyawjp,,,Glan-yr-afon Stores,,,,Glan-yr-afon Stores,,B5109,,,,opp Car Park,,NW,E0038681,Glan-yr-afon,,,,,,,true,UKOS,239743,379094,-4.405384148,53.284523789,BCT,MKD,OTH,,,,024,2000-01-01T00:00:00,2025-07-24T15:46:10,4,revise,active
5410AWD70442,ynydmjt,,,Capel Ebenezer,,,,Trefor Crossroads,,B5109,,,,before,,SE,E0038802,Trefor,,,,,,,true,UKOS,237403,380027,-4.440928344,53.292189786,BCT,MKD,OTH,,,,024,2000-01-01T00:00:00,2025-07-24T15:54:50,5,revise,active
5410AWD70443,ynyadwm,,,Crown Hotel,,,,St Edeyrn`s Church,,Church Street,,,,opp,,NW,E0054327,Bodedern,,,,,,,true,UKOS,233402,380405,-4.501092452,53.294341155,BCT,MKD,OTH,,,,024,2000-01-01T00:00:00,2025-07-24T15:55:47,5,revise,active
5410AWD70444,ynyagad,,,Bodedern School,,,,Bodedern Vicarage,,London Road,,,,opp,,SW,E0054327,Bodedern,,,,,,,true,UKOS,233213,380008,-4.503716627,53.290716568,BCT,MKD,OTH,,,,024,2000-01-01T00:00:00,2025-07-24T15:56:33,6,revise,active
5410AWD70445,ynydjwa,,,Lon Cae Garw,,,,,,B5109,,,,before,,SE,E0054347,Llangefni,,,,,,,true,UKOS,244567,376215,-4.331680525,53.260103731,BCT,MKD,OTH,,,,024,2000-01-01T00:00:00,2025-07-24T15:57:39,5,revise,active
5410AWD70446,ynyamwj,,,Star,,,,,,Star Road,,,,after,,SW,E0038708,Llanfairpwllgwyngyll,,,,,,,true,UKOS,251266,372151,-4.229436668,53.225522194,BCT,MKD,OTH,,,,024,2000-01-01T00:00:00,2025-07-24T15:58:21,6,revise,active
5410AWD70447,ynyatjg,,,Turnpike,,,,,,Holyhead Road,,,,after,,NW,E0038708,Llanfairpwllgwyngyll,,,,,,,true,UKOS,253124,371548,-4.201349259,53.220623161,BCT,MKD,OTH,,,,024,2000-01-01T00:00:00,2025-07-24T15:59:04,4,revise,active
5410AWD70448,ynyatam,,,Old Tollgate,,,,Old Tollgate,,Brynsiencyn Road,,,,after,,SW,E0038708,Llanfairpwllgwyngyll,,,,,,,true,UKOS,253133,371515,-4.201199361,53.220329238,BCT,MKD,OTH,,,,024,2000-01-01T00:00:00,2025-07-24T15:59:35,5,revise,active
5410AWD70449,ynyatgp,,,Victoria Cottages,,,,Victoria Cottages,,Brynsiencyn Road,,,,opp,,SW,E0038708,Llanfairpwllgwyngyll,,,,,,,true,UKOS,252436,370902,-4.211346626,53.214629975,BCT,MKD,OTH,,,,024,2000-01-01T00:00:00,2025-07-24T16:00:06,4,revise,active
5410AWD70450,ynyatdw,,,Llwynonn Lodge,,,,Llwynonn Lodge,,Brynsiencyn Road,,,,opp,,SW,N0075747,Llanedwen,,,,,,,true,UKOS,251635,369629,-4.222740234,53.202972666,BCT,MKD,OTH,,,,024,2000-01-01T00:00:00,2025-07-24T16:00:47,4,revise,active
5410AWD70451,ynyapgw,,,Plas Cefn Mawr,,,,Plas Cefn Mawr,,A4080,,,,after,,SW,N0075747,Llanedwen,,,,,,,true,UKOS,250986,369076,-4.232190612,53.197824007,BCT,MKD,OTH,,,,024,2000-01-01T00:00:00,2025-07-24T16:01:24,5,revise,active
5410AWD70452,ynyatgd,,,Plas Newydd,,,,Menai Centre,,Brynsiencyn Road,,,,before,,NE,N0075747,Llanedwen,,,,,,,true,UKOS,251682,369732,-4.222085022,53.203910941,BCT,MKD,OTH,,,,024,2000-01-01T00:00:00,2025-07-29T08:21:39,6,revise,active
5410AWD70458,ynyagmd,,,Anglesey Sea Zoo,,,,Anglesey Sea Zoo,,Main Road,,,,not in use,,NE,E0038673,Dwyran,,,,,,,true,UKOS,247944,365325,-4.27590511,53.163271769,BCT,MKD,OTH,,,,024,2000-01-01T00:00:00,2025-07-29T08:25:41,3,revise,inactive
5410AWD70459,ynyagjg,,,Bryn Llewelyn,,,,,,A4080,,,,o/s,,NE,E0038646,Brynsiencyn,,,,,,,true,UKOS,248728,367342,-4.265142634,53.181611641,BCT,MKD,OTH,,,,024,2000-01-01T00:00:00,2025-07-29T08:27:25,6,revise,active
5410AWD70460,ynyagjm,,,Groeslon Hotel,,,,Groeslon Farm,,A4080,,,,o/s,,NE,E0038646,Brynsiencyn,,,,,,,true,UKOS,248496,367168,-4.268528731,53.179978177,BCT,MKD,OTH,,,,024,2000-01-01T00:00:00,2025-07-29T08:31:48,6,revise,active
5410AWD70461,ynyagjp,,,Groeslon Hotel,,,,Groeslon Farm,,A4080,,,,opp,,SW,E0038646,Brynsiencyn,,,,,,,true,UKOS,248471,367113,-4.268876565,53.179481637,BCT,MKD,OTH,,,,024,2000-01-01T00:00:00,2025-07-29T08:32:42,5,revise,active
5410AWD70462,ynyagjt,,,Post Office,,,,Capel Horeb,,A4080,,,,after,,SE,E0038646,Brynsiencyn,,,,,,,true,UKOS,248124,367135,-4.274074778,53.179575679,BCT,MKD,OTH,,,,024,2000-01-01T00:00:00,2025-07-29T08:34:19,9,revise,active
5410AWD70463,ynyagmg,,,Ty'n Cwrt Estate,,,,Plas Siencyn,,A4080,,,,before,,SE,E0038646,Brynsiencyn,,,,,,,true,UKOS,247939,367250,-4.276895536,53.180560307,BCT,MKD,OTH,,,,024,2000-01-01T00:00:00,2025-07-29T08:35:40,4,revise,active
5410AWD70464,ynyajaw,,,Bwlch Fedwen,,,,,,Main Road,,,,opp,,NW,E0038673,Dwyran,,,,,,,true,UKOS,244987,365905,-4.320377663,53.167627972,BCT,MKD,OTH,,,,024,2000-01-01T00:00:00,2025-07-29T08:36:31,3,revise,active
5410AWD70465,ynyajdg,,,Carreg Wen,,,,Carreg Wen,,Main Road,,,,nr,,SE,E0038673,Dwyran,,,,,,,true,UKOS,245084,365836,-4.318894461,53.167036496,BCT,MKD,OTH,,,,024,2000-01-01T00:00:00,2025-07-29T08:37:37,3,revise,active
5410AWD70466,ynyajdj,,,Llwyn Helyg,,,,Llwyn Helig,,A4080,,,,o/s,,NW,E0038673,Dwyran,,,,,,,true,UKOS,244674,365400,-4.324810504,53.163001036,BCT,CUS,OTH,,,,024,2000-01-01T00:00:00,2025-07-29T08:40:41,5,revise,active
5410AWD70467,ynyajap,,,Bird World Aviaries,,,,Bird World Aviaries,,A4080,,,,nr,,NW,E0038673,Dwyran,,,,,,,true,UKOS,244220,365600,-4.331692673,53.164664631,BCT,CUS,OTH,,,,024,2000-01-01T00:00:00,2025-07-29T08:41:46,5,revise,active
5410AWD70468,ynydgap,,,Llwyn Helyg,,,,Llwyn Helyg,,Chapel Street,,,,opp,,NW,E0038739,Newborough,,,,,,,true,UKOS,242563,365492,-4.356402944,53.163207022,BCT,MKD,OTH,,,,024,2000-01-01T00:00:00,2025-07-29T08:47:24,6,revise,active
5410AWD70469,ynydgam,,,Capel Ebenezer,,,,Capel Ebeneser,,Chapel Street,,,,after,,SE,E0038739,Newborough,,,,,,,true,UKOS,242459,365613,-4.358016739,53.164262982,BCT,MKD,OTH,,,,024,2000-01-01T00:00:00,2025-07-29T08:49:36,4,revise,active
5410AWD70470,ynydgdt,,,White Lion Hotel,,,,White Lion Hotel PH,,Hendre Street,,,,after,,NW,E0038739,Newborough,,,,,,,true,UKOS,242365,365710,-4.359469335,53.165106332,BCT,MKD,OTH,,,,024,2000-01-01T00:00:00,2025-07-29T08:50:43,5,revise,active
5410AWD70471,ynydgdg,,,Rhodfa Bach,,,,Minffordd,,A4080,,,,before,,NW,E0038739,Newborough,,,,,,,true,UKOS,242195,365891,-4.362099266,53.166681557,BCT,MKD,OTH,,,,024,2000-01-01T00:00:00,2025-07-29T08:51:43,3,revise,active
5410AWD70472,ynyatpw,,,Post Office,,,,Llangaffo Post Office,,B4421,,,,before,,SW,E0038716,Llangaffo,,,,,,,true,UKOS,244428,368310,-4.329903355,53.189065235,BCT,MKD,OTH,,,,024,2000-01-01T00:00:00,2025-07-29T08:53:56,6,revise,active
5410AWD70473,ynyawmj,,,Joiners Arms,,,,Joiners Arms PH,,High Street,,,,after,,SE,E0038728,Malldraeth,,,,,,,true,UKOS,240742,368797,-4.385262892,53.19234776,BCT,MKD,OTH,,,,024,2000-01-01T00:00:00,2025-07-29T08:58:44,4,revise,active
5410AWD70474,ynyamdw,,,Tegfryn Garage,,,,Tegfryn Garage,,A4080,,,,o/s,,NW,E0038728,Malldraeth,,,,,,,true,UKOS,239933,369337,-4.397631339,53.196954538,BCT,CUS,OTH,,,,024,2000-01-01T00:00:00,2025-07-29T09:03:31,4,revise,active
5410AWD70475,ynyamdj,,,Alltfeirian,,,,,,A4080,,,,opp,,SE,E0038691,Hermon Village,,,,,,,true,UKOS,239104,368876,-4.409797,53.192564058,BCT,MKD,OTH,,,,024,2000-01-01T00:00:00,2025-07-29T09:05:28,5,revise,active
5410AWD70476,ynyamdm,,,Argraig,,,,Siop Isaf,,A4080,,,,o/s,,SW,E0038691,Hermon Village,,,,,,,true,UKOS,238894,368902,-4.412950414,53.192733966,BCT,MKD,OTH,,,,024,2000-01-01T00:00:00,2025-07-29T09:09:03,5,revise,active
5410AWD70477,ynyadwd,,,Abingerwood,,,,,,B4422,,,,after,,NE,E0038635,Bethel,,,,,,,true,UKOS,239731,370494,-4.401233428,53.207284639,BCT,MKD,OTH,,,,024,2000-01-01T00:00:00,2025-08-04T13:40:13,5,revise,active
5410AWD70478,ynyadad,,,Post Office,,Bodorgan Square,,Aberffraw Post Office,,Bodorgan Square,,,,after,,E,E0054324,Aberffraw,,,,,,,true,UKOS,235455,368935,-4.464392052,53.191977096,BCT,MKD,OTH,,,,024,2000-01-01T00:00:00,2025-07-29T09:16:22,5,revise,active
5410AWD70479,ynyapmp,,,Gwynfryn,,Brynteg Estate,,Brynteg Estate,,A4080,,,,nr,,NE,E0054341,Llanfaelog,,,,,,,true,UKOS,233426,372653,-4.496672504,53.224734086,BCT,CUS,OTH,,,,024,2000-01-01T00:00:00,2025-07-29T09:18:54,4,revise,active
5410AWD70480,ynyagam,,,Saith-lathen,,,,Plas y Felin,,Plas-buan,,,,nr,,NE,E0038644,Bryn-Du,,,,,,,true,UKOS,234229,372874,-4.484771252,53.226970018,BCT,MKD,OTH,,,,024,2000-01-01T00:00:00,2025-07-29T09:19:44,4,revise,active
5410AWD70481,ynydgja,,,Methodist Chapel,,,,Ty`n Gongl,,Village Road,,,,after,,NE,E0038749,Pencarnisiog,,,,,,,true,UKOS,235250,373603,-4.469868882,53.233834533,BCT,CUS,OTH,,,,024,2000-01-01T00:00:00,2025-07-29T09:23:47,5,revise,active
5410AWD70482,ynyapmt,,,Post Office,,,,St Maelog`s Church,,A4080,,,,nr,,N,E0054341,Llanfaelog,,,,,,,true,UKOS,233646,373003,-4.493563122,53.227946153,BCT,CUS,OTH,,,,024,2000-01-01T00:00:00,2025-07-29T09:24:16,7,revise,active
5410AWD70483,ynydjpd,,,Rhosneigr Railway Station,,,,Rhosneigr Railway Station,,Station Road,,,,before,,SW,E0038779,Rhosneigr,,,,,,,true,UKOS,232812,373858,-4.506492564,53.235357704,BCT,CUS,OTH,,,,024,2000-01-01T00:00:00,2025-07-29T09:24:53,7,revise,active
5410AWD70484,ynydjpa,,,Rhosneigr Police Station,,,,Christ Church,,Station Road,,,,nr,,NE,E0038779,Rhosneigr,,,,,,,true,UKOS,232180,373688,-4.515862482,53.23363166,BCT,MKD,OTH,,,,024,2000-01-01T00:00:00,2025-07-29T09:25:22,7,revise,active
5410AWD70485,ynydjmt,,,Rhosneigr Fire Station,,Fire Station,,,,Station Road,,,,opp,,NE,E0038779,Rhosneigr,,,,,,,true,UKOS,232060,373554,-4.517587864,53.232390375,BCT,MKD,OTH,,,,024,2000-01-01T00:00:00,2025-07-29T09:25:53,8,revise,active
5410AWD70486,ynydjmw,,,Overstrand Avenue,,,,,,Station Road,,,,after,,NE,E0038779,Rhosneigr,,,,,,,true,UKOS,231956,373412,-4.519069623,53.231086874,BCT,MKD,OTH,,,,024,2000-01-01T00:00:00,2025-07-29T09:26:48,5,revise,active
5410AWD70487,ynydjpj,,,Rhosneigr Clock Tower,,Clock Tower,,,,High Street,,,,adj War Memorial,,S,E0038779,Rhosneigr,,,,,,,true,UKOS,231885,373129,-4.519982725,53.228518442,BCT,MKD,OTH,,,,024,2000-01-01T00:00:00,2025-07-29T09:27:43,6,revise,active
5410AWD70488,ynydjpg,,,Sisial-y-Mor,,,,,,Ffordd Maelog,,,,before,,SE,E0038779,Rhosneigr,,,,,,,true,UKOS,232016,372965,-4.517935989,53.227091744,BCT,MKD,OTH,,,,024,2000-01-01T00:00:00,2025-07-29T09:28:35,4,revise,active
5410AWD70489,ynyatpg,,,Dinam Road,,,,,,Minffordd Road,,,,before,,NE,E0038713,Llanfihangel yn Nhowyn,,,,,,,true,UKOS,232250,377615,-4.51688526,53.268923252,BCT,MKD,OTH,,,,024,2000-01-01T00:00:00,2025-07-29T09:29:18,3,revise,active
5410AWD70491,ynyatmj,,,St Mihangel`s Church,,,,St Mihangel`s Church,,Minffordd Road,,,,before,,NE,E0038713,Llanfihangel yn Nhowyn,,,,,,,true,UKOS,232078,377438,-4.51936818,53.267279335,BCT,MKD,OTH,,,,024,2000-01-01T00:00:00,2025-07-29T10:26:39,4,revise,active
5410AWD70492,ynyatpa,,,Bryn Trewen Isaf,,,,,,Minffordd Road,,,,opp,,NE,E0038713,Llanfihangel yn Nhowyn,,,,,,,true,UKOS,231962,377284,-4.521024298,53.265859658,BCT,MKD,OTH,,,,024,2000-01-01T00:00:00,2025-07-29T10:27:39,4,revise,active
5410AWD70493,ynydpad,,,Valley Crossroads,,,,Valley Hotel PH,,Station Road,,,,after,,SW,E0054363,Valley,,,,,,,true,UKOS,229413,379240,-4.560252624,53.282610211,BCT,MKD,OTH,,,,024,2000-01-01T00:00:00,2025-07-29T10:28:36,6,revise,active
5410AWD70494,ynydmwm,,,Valley Railway Station,,,,Valley Railway Station,,Station Road,,,,after,,NE,E0054363,Valley,,,,,,,true,UKOS,229257,379126,-4.56252861,53.281531702,BCT,MKD,OTH,,,,024,2000-01-01T00:00:00,2025-07-29T10:30:35,7,revise,active
5410AWD70495,ynydmwt,,,Tan y Bryn,,,,Greystone Estate,,Station Road,,,,after,,NE,E0054363,Valley,,,,,,,true,UKOS,229160,379090,-4.563962763,53.281181753,BCT,MKD,OTH,,,,024,2000-01-01T00:00:00,2025-07-29T10:32:58,5,revise,active
5410AWD70496,ynydmwp,,,Cleifiog Terrace,,,,,,Station Road,,,,opp,,SW,E0054363,Valley,,,,,,,true,UKOS,228852,378989,-4.568523086,53.28017543,BCT,MKD,OTH,,,,024,2000-01-01T00:00:00,2025-07-29T10:33:44,5,revise,active
5410AWD70497,ynydmtw,,,Llifon,,,,,,B4545,,,,opp,,SW,E0054363,Valley,,,,,,,true,UKOS,228387,378822,-4.575399731,53.278525466,BCT,MKD,OTH,,,,024,2000-01-01T00:00:00,2025-07-29T10:34:53,4,revise,active
5410AWD70498,ynyajmj,,,Copperfield Close,,,,Plas Gwyn,,B4545,,,,before,,SW,N0071271,Pontrhydybont,,,,,,,true,UKOS,228184,378549,-4.578293415,53.276008261,BCT,MKD,OTH,,,,024,2000-01-01T00:00:00,2025-07-29T10:36:35,6,revise,active
5410AWD70499,ynyajmd,,,Capel Sardis,,,,Capel Sardis,,B4545,,,,before,,SW,N0071271,Pontrhydybont,,,,,,,true,UKOS,227847,378251,-4.583180546,53.273223,BCT,MKD,OTH,,,,024,2000-01-01T00:00:00,2025-07-29T10:37:34,4,revise,active
5410AWD70500,ynyajgp,,,Anchorage Hotel,,,,Anchorage Hotel PH,,B4545,,,,after,,SW,N0071271,Pontrhydybont,,,,,,,true,UKOS,227499,378115,-4.588319736,53.271888657,BCT,MKD,OTH,,,,024,2000-01-01T00:00:00,2025-07-29T10:38:13,4,revise,active
5410AWD70501,ynyajpa,,,R`Efail Estate,,,,,,Lon St Ffraid,,,,after,,NW,E0038676,Four Mile Bridge,,,,,,,true,UKOS,226831,378084,-4.598309044,53.271392523,BCT,MKD,OTH,,,,024,2000-01-01T00:00:00,2025-07-29T10:39:23,4,revise,active
5410AWD70502,ynydjgp,,,Capel Ty`n Rhos,,,,Capel Ty`n Rhos,,Rhoscolyn Road,,,,before,,SW,E0054357,Rhoscolyn,,,,,,,true,UKOS,227141,376439,-4.592771187,53.256722332,BCT,MKD,OTH,,,,024,2000-01-01T00:00:00,2025-07-29T10:40:03,4,revise,active
5410AWD70503,ynyajmg,,,Gogerddan,,,,,,Lon St Ffraid,,,,before,,NW,E0038676,Four Mile Bridge,,,,,,,true,UKOS,226525,378392,-4.603060776,53.274058163,BCT,MKD,OTH,,,,024,2000-01-01T00:00:00,2025-07-29T10:42:06,7,revise,active
5410AWD70504,ynyajma,,,Capel Farm Estate,,,,,,Lon St Ffraid,,,,before,,SE,E0054360,Trearddur,,,,,,,true,UKOS,226214,378523,-4.607791193,53.275132607,BCT,MKD,OTH,,,,024,2000-01-01T00:00:00,2025-07-29T10:42:52,4,revise,active
5410AWD70505,ynydmjd,,,Capel Farm Estate,,,,,,Lon St Ffraid,,,,after,,NW,E0054360,Trearddur,,,,,,,true,UKOS,226105,378604,-4.609468221,53.275819612,BCT,MKD,OTH,,,,024,2000-01-01T00:00:00,2025-07-29T10:43:49,5,revise,active
5410AWD70506,ynydmjm,,,Beach Car Park,,,,Old Police House,,Lon St Ffraid,,,,o/s,,NW,E0054360,Trearddur,,,,,,,true,UKOS,225735,378922,-4.615185588,53.278558129,BCT,MKD,OTH,,,,024,2000-01-01T00:00:00,2025-07-29T10:46:16,5,revise,active
5410AWD70507,ynydmjg,,,Square,,,,Peters Garage,,Lon St Ffraid,,,,o/s Boatyard,,SW,E0054360,Trearddur,,,,,,,true,UKOS,225605,379278,-4.617328618,53.281712021,BCT,MKD,OTH,,,,024,2000-01-01T00:00:00,2025-07-29T10:47:34,4,revise,active
5410AWD70508,ynyamgw,,,Penrallt Road,,,,Fairways,,Lon St Ffraid,,,,o/s Fairways,,SE,E0054360,Trearddur,,,,,,,true,UKOS,225384,379741,-4.620894314,53.285796679,BCT,MKD,OTH,,,,024,2000-01-01T00:00:00,2025-07-29T10:54:58,5,revise,active
5410AWD70509,ynyamgt,,,Hunters Chase,,,,,,Lon St Ffraid,,,,before,,SE,E0054360,Trearddur,,,,,,,true,UKOS,225330,379886,-4.621783206,53.287080882,BCT,MKD,OTH,,,,024,2000-01-01T00:00:00,2025-07-29T11:02:40,4,revise,active
5410AWD70510,ynyamja,,,Penrhyngeiriol,,,,,,Lon St Ffraid,,,,after,,NW,E0054360,Trearddur,,,,,,,true,UKOS,225152,380092,-4.624563856,53.288871909,BCT,MKD,OTH,,,,024,2000-01-01T00:00:00,2025-07-29T11:02:13,6,revise,active
5410AWD70511,ynyamjd,,,Capel Ebeneser,,,,Capel Ebeneser,,Kingsland Road,,,,after,,SE,E0038695,Kingsland,Holyhead,,,,,,true,UKOS,224962,381155,-4.6279972,53.298354125,BCT,MKD,OTH,,,,024,2000-01-01T00:00:00,2024-04-26T15:25:27,2,revise,active
5410AWD70512,ynyampg,,,Kingsland Hill,,,,,,Kingsland Road,,,,before Phone Box,,S,E0038695,Kingsland,Holyhead,,,,,,true,UKOS,224923,381525,-4.628785907,53.301663553,BCT,MKD,OTH,,,,024,2000-01-01T00:00:00,2025-07-29T11:00:33,4,revise,active
5410AWD70513,ynyampw,,,Cae Gwyn,,,,,,Treseifion Road,,,,before,,N,E0038695,Kingsland,Holyhead,,,,,,true,UKOS,224435,381406,-4.636034834,53.300433482,BCT,MKD,OTH,,,,024,2000-01-01T00:00:00,2025-07-29T11:05:01,4,revise,active
5410AWD70514,ynyamgj,,,Holyhead Clock,,Clock,,,,Victoria Terrace,,,,after,,NW,E0054333,Holyhead,,,,,,,true,UKOS,224652,382356,-4.633307417,53.309035611,BCT,MKD,OTH,,,,024,2000-01-01T00:00:00,2025-07-29T11:05:36,5,revise,active
5410AWD70515,ynydmdw,,,Hill Street Car Park,,,,,,Hill Street,,,,before,,NE,E0054333,Holyhead,,,,,,,true,UKOS,224547,382543,-4.634985033,53.310679933,BCT,MKD,OTH,,,,024,2000-01-01T00:00:00,2025-07-29T11:07:45,4,revise,active
5410AWD70516,ynydmgd,,,Summer Hill,,,,Market Buildings,,Summer Hill,,,,adj Stanley Arms,,E,E0054333,Holyhead,,,,,,,true,UKOS,224650,382694,-4.633524317,53.312069915,BCT,MKD,OTH,,,,024,2000-01-01T00:00:00,2025-07-29T11:08:46,4,revise,active
5410AWD70517,ynyamga,,,Turkey Shore Estate,,,,Turkey Shore Estate,,Turkey Shore Road,,,,opp,,NE,N0075749,Morawelon,Holyhead,,,,,,true,UKOS,225173,382478,-4.62556386,53.31030337,BCT,MKD,OTH,,,,024,2000-01-01T00:00:00,2025-07-29T11:09:47,5,revise,active
5410AWD70518,ynydawt,,,Gwelfor Community Centre,,,,Gwelfor Community Centre,,Ffordd Tudur,,,,o/s,,E,N0075749,Morawelon,Holyhead,,,,,,true,UKOS,225291,382459,-4.623784281,53.310171716,BCT,MKD,OTH,,,,024,2000-01-01T00:00:00,2025-07-29T11:10:36,4,revise,active
5410AWD70519,ynydatp,,,Priory Lane,,,,,,Ffordd Tudur,,,,before,,SW,N0075749,Morawelon,Holyhead,,,,,,true,UKOS,225333,382332,-4.623084645,53.309045208,BCT,MKD,OTH,,,,024,2000-01-01T00:00:00,2025-07-29T11:12:34,5,revise,active
5410AWD70520,ynydawa,,,Post Office,,,,Morawelon Post Office,,Ffordd Tudur,,,,o/s,,S,N0075749,Morawelon,Holyhead,,,,,,true,UKOS,225344,382207,-4.622850888,53.307926428,BCT,CUS,OTH,,,,024,2000-01-01T00:00:00,2025-07-29T11:18:35,7,revise,active
5410AWD70521,ynydatw,,,Bryn Glas Close,,,,,,Morawelon Road,,,,before,,NE,N0075749,Morawelon,Holyhead,,,,,,true,UKOS,225440,382185,-4.62139958,53.307760542,BCT,CUS,OTH,,,,024,2000-01-01T00:00:00,2025-07-29T11:19:13,3,revise,active
5410AWD70522,ynydapa,,,Industrial Estate,,,,Morawelon Industrial Estate,,Ffordd Beibio,,,,o/s 2,,SE,N0075749,Morawelon,Holyhead,,,,,,true,UKOS,225474,382308,-4.620957557,53.308876202,BCT,MKD,OTH,,,,024,2000-01-01T00:00:00,2025-07-29T11:19:50,5,revise,active
5410AWD70523,ynydapm,,,Llanfawr Cottage,,,,Llanfawr Cottage,,Llanfawr Road,,,,o/s,,E,E0038636,Blackbridge,Holyhead,,,,,,true,UKOS,225426,381934,-4.621471303,53.305502127,BCT,CUS,OTH,,,,024,2000-01-01T00:00:00,2025-07-29T11:20:31,6,revise,active
5410AWD70524,ynydawp,,,Holyhead Tesco,,Tesco,,,,Grounds,,,,in,,W,E0038754,Penrhos,,,,,,,true,UKOS,225644,381495,-4.617962005,53.301632035,BCT,MKD,OTH,,,,024,2000-01-01T00:00:00,2025-07-29T11:22:06,6,revise,active
5410AWD70525,ynydapd,,,Ffordd Feurig,,,,,,Lon Deg,,,,after,,NE,E0038636,Blackbridge,Holyhead,,,,,,true,UKOS,225523,381741,-4.619911031,53.303801093,BCT,CUS,OTH,,,,024,2000-01-01T00:00:00,2025-07-29T11:22:44,4,revise,active
5410AWD70526,ynydapg,,,Marchog,,,,,,Llanfawr Road,,,,after,,NW,E0038636,Blackbridge,Holyhead,,,,,,true,UKOS,225148,382032,-4.625692761,53.30629037,BCT,CUS,OTH,,,,024,2000-01-01T00:00:00,2025-07-29T11:26:48,4,revise,active
5410AWD70527,ynyamgd,,,Holyhead Port,,,,Holyhead Port,,Grounds,,,,in,,NE,E0054333,Holyhead,,,,,,,true,UKOS,224903,382290,-4.629507998,53.30852605,BCT,MKD,OTH,,,,024,2000-01-01T00:00:00,2025-07-29T11:30:05,3,revise,active
5410AWD70528,ynydjda,,,Walthew Avenue,,,,,,Walthew Avenue,,,,o/s 30,,NE,E0054333,Holyhead,,,,,,,true,UKOS,224363,382981,-4.637986284,53.314551793,BCT,CUS,OTH,,,,024,2000-01-01T00:00:00,2025-07-29T11:34:36,4,revise,active
5410AWD70529,ynydjam,,,Bowling Greens,,,,,,South Stack Road,,,,opp,,W,E0038696,Llaingoch,Holyhead,,,,,,true,UKOS,224024,382606,-4.642861011,53.311072038,BCT,MKD,OTH,,,,024,2000-01-01T00:00:00,2025-07-29T11:36:03,4,revise,active
5410AWD70530,ynyamtj,,,Trefonnen,,,,,,South Stack Road,,,,before,,W,E0038696,Llaingoch,Holyhead,,,,,,true,UKOS,223470,382587,-4.651156232,53.310717002,BCT,MKD,OTH,,,,024,2000-01-01T00:00:00,2025-07-29T11:40:44,4,revise,active
5410AWD70531,ynyamtg,,,Maes y Mynydd,,,,,,Tre Ambrose,,,,before,,NE,E0038696,Llaingoch,Holyhead,,,,,,true,UKOS,223101,382682,-4.656741361,53.311446844,BCT,MKD,OTH,,,,024,2000-01-01T00:00:00,2025-07-29T11:41:37,4,revise,active
5410AWD70532,ynyajwj,,,South Stack,,,,Southstack Cafe,,South Stack Road,,,,o/s Car Park,,NW,N0075743,Goferydd,,,,,,,true,UKOS,220819,382061,-4.690602518,53.30510362,BCT,MKD,OTH,,,,024,2000-01-01T00:00:00,2024-04-26T15:26:04,2,revise,active
5410AWD70533,ynydjap,,,Ysgol,,,,,,South Stack Road,,,,before,,E,E0038696,Llaingoch,Holyhead,,,,,,true,UKOS,223578,382599,-4.649543741,53.31086075,BCT,MKD,OTH,,,,024,2000-01-01T00:00:00,2025-07-29T11:42:16,5,revise,active
5410AWD70534,ynydjaj,,,Ysgol,,,,,,South Stack Road,,,,after,,W,E0038696,Llaingoch,Holyhead,,,,,,true,UKOS,223742,382586,-4.647077766,53.310798647,BCT,MKD,OTH,,,,024,2000-01-01T00:00:00,2025-07-29T11:44:06,5,revise,active
5410AWD70535,ynydmga,,,Chester Inn,,,,Chester Inn PH,,Mill Bank,,,,opp,,SE,E0038786,Stryd,Holyhead,,,,,,true,UKOS,224277,382326,-4.638912735,53.308641911,BCT,MKD,OTH,,,,024,2000-01-01T00:00:00,2025-07-29T12:40:22,5,revise,active
5410AWD70536,ynyamgm,,,Holyhead Railway Station,,,,Holyhead Railway Station,,Victoria Street,,,,o/s,,S,E0054333,Holyhead,,,,,,,true,UKOS,224709,382244,-4.632390811,53.308044234,BCT,MKD,OTH,,,,024,2000-01-01T00:00:00,2025-07-29T12:41:53,8,revise,active
5410AWD70537,ynydatj,,,Not in use,,,,,,London Road,,,,not in use,,NW,E0038636,Blackbridge,Holyhead,,,,,,true,UKOS,225155,381771,-4.625443951,53.303949096,BCT,MKD,OTH,,,,024,2000-01-01T00:00:00,2024-07-11T19:48:26,4,revise,inactive
5410AWD70538,ynydawj,,,Holyhead Arriva Depot,,,,,,London Road,,,,nr former,,SE,E0038636,Blackbridge,Holyhead,,,,,,true,UKOS,225281,381744,-4.62354031,53.303748242,BCT,MKD,OTH,,,,024,2000-01-01T00:00:00,2025-07-29T12:45:48,6,revise,active
5410AWD70539,ynydata,,,Lon Deg,,,,,,London Road,,,,before,,SE,E0038636,Blackbridge,Holyhead,,,,,,true,UKOS,225482,381684,-4.620494271,53.303275763,BCT,MKD,OTH,,,,024,2000-01-01T00:00:00,2025-07-29T12:47:50,5,revise,active
5410AWD70540,ynydgmt,,,Toll House,,,,Penrhos Toll House,,Holyhead Road,,,,before,,NW,E0038754,Penrhos,,,,,,,true,UKOS,227574,380318,-4.588392209,53.291695024,BCT,MKD,OTH,,,,024,2000-01-01T00:00:00,2025-07-29T13:05:31,5,revise,active
5410AWD70541,ynydpat,,,Cob,,,,,,Holyhead Road,,,,after,,SE,E0054363,Valley,,,,,,,true,UKOS,228565,379774,-4.573246819,53.287131707,BCT,MKD,OTH,,,,024,2000-01-01T00:00:00,2025-07-29T13:06:59,6,revise,active
5410AWD70542,ynydmwa,,,The Willows,,,,The Willows,,Gorad Road,,,,o/s,,SW,E0054363,Valley,,,,,,,true,UKOS,228969,379631,-4.567115697,53.285973588,BCT,MKD,OTH,,,,024,2000-01-01T00:00:00,2025-07-29T13:07:49,7,revise,active
5410AWD70543,ynydpap,,,Valley Police Station,,,,Valley Police Station,,London Road,,,,before,,SE,E0054363,Valley,,,,,,,true,UKOS,228985,379533,-4.566823321,53.285103322,BCT,MKD,OTH,,,,024,2000-01-01T00:00:00,2025-07-29T13:10:33,5,revise,active
5410AWD70544,ynydmtm,,,St Michael`s Church,,,,Bull Hotel,,London Road,,,,after,,NW,E0054363,Valley,,,,,,,true,UKOS,229212,379397,-4.563348734,53.28395529,BCT,MKD,OTH,,,,024,2000-01-01T00:00:00,2025-07-29T13:11:51,5,revise,active
5410AWD70546,ynydpag,,,Valley Crossroads,,,,Garage,,London Road,,,,after,,SE,E0054363,Valley,,,,,,,true,UKOS,229518,379233,-4.558675596,53.282581141,BCT,MKD,OTH,,,,024,2000-01-01T00:00:00,2025-07-29T13:12:23,4,revise,active
5410AWD70547,ynyagpg,,,Capel Siloh,,,,Capel Siloh,,Holyhead Road,,,,before,,SE,E0038652,Caergeiliog,,,,,,,true,UKOS,230668,378551,-4.541080795,53.276825562,BCT,MKD,OTH,,,,024,2000-01-01T00:00:00,2025-07-29T13:12:59,4,revise,active
5410AWD70548,ynyagpt,,,Sportsman,,,,Sportsman PH,,Holyhead Road,,,,nr,,SE,E0038652,Caergeiliog,,,,,,,true,UKOS,230790,378529,-4.539241306,53.276666964,BCT,MKD,OTH,,,,024,2000-01-01T00:00:00,2025-07-29T13:14:28,3,revise,active
5410AWD70549,ynyagpj,,,Caergeiliog Foundation School,,,,,,Holyhead Road,,,,after,,SW,E0038652,Caergeiliog,,,,,,,true,UKOS,231215,378339,-4.532773132,53.275096275,BCT,MKD,OTH,,,,024,2000-01-01T00:00:00,2025-07-29T13:16:18,6,revise,active
5410AWD70550,ynyagda,,,Bryngwran Surgery,,,,Bryngwran Surgery,,High Street,,,,opp,,NW,E0054330,Bryngwran,,,,,,,true,UKOS,234740,377648,-4.479603251,53.270001582,BCT,MKD,OTH,,,,024,2000-01-01T00:00:00,2025-07-29T13:31:25,5,revise,active
5410AWD70551,ynyagdj,,,Post Office,,,,Bryngwran Post Office,,High Street,,,,before,,NW,E0054330,Bryngwran,,,,,,,true,UKOS,234952,377558,-4.476380741,53.269259391,BCT,MKD,OTH,,,,024,2000-01-01T00:00:00,2025-07-29T13:32:46,6,revise,active
5410AWD70552,ynyagdm,,,Trinity Church,,,,Trinity Church,,High Street,,,,before,,NW,E0054330,Bryngwran,,,,,,,true,UKOS,235192,377479,-4.472744615,53.268624599,BCT,MKD,OTH,,,,024,2000-01-01T00:00:00,2025-07-29T13:33:44,4,revise,active
5410AWD70553,ynyajgj,,,Rhosneigir Turn,,,,,,Ffordd Caergybi,,,,after,,NW,N0075741,Engedi,,,,,,,true,UKOS,236504,376929,-4.452808224,53.264091524,BCT,MKD,OTH,,,,024,2000-01-01T00:00:00,2025-07-29T13:34:24,5,revise,active
5410AWD70554,ynyajgm,,,Rhosneigir Turn,,,,,,Ffordd Caergybi,,,,after,,SE,N0075741,Engedi,,,,,,,true,UKOS,236550,376914,-4.452111512,53.263970997,BCT,MKD,OTH,,,,024,2000-01-01T00:00:00,2025-07-29T13:37:09,5,revise,active
5410AWD70600,ynygjpa,,,Holyhead Road,,,,,,A5,,,,,,NW,E0038713,Llanfihangel yn Nhowyn,,,,,,,false,UKOS,232313,378314,-4.516310245,53.275215674,BCT,MKD,OTH,,,,024,2024-05-22T11:42:33,2025-07-29T13:37:53,4,revise,active
5410AWD70601,ynygjpd,,,Holyhead Road,,,,,,A5,,,,,,SE,E0038713,Llanfihangel yn Nhowyn,,,,,,,false,UKOS,232302,378354,-4.516496153,53.275571396,BCT,MKD,OTH,,,,024,2024-05-22T11:49:26,2025-07-29T13:39:06,3,revise,active
5410AWD70602,ynygjpg,,,Ty'n Rhos,,,,,,Cymyran Road,,,,,,S,E0038652,Caergeiliog,,,,,,,false,UKOS,230494,378518,-4.543669849,53.27646903,BCT,MKD,OTH,,,,024,2024-05-22T11:56:51,2025-07-29T13:45:56,4,revise,active
5410AWD70603,ynygjpj,,,Caergeiliog,,,,,,Holyhead Road,,,,,,E,E0038652,Caergeiliog,,,,,,,false,UKOS,230222,378760,-4.547874149,53.278555103,BCT,MKD,OTH,,,,024,2024-05-22T12:03:38,2025-07-29T13:46:41,3,revise,active
5410AWD70604,ynygjpm,,,The Willows,,,,,,Gorad Road,,,,,,NE,E0054363,Valley,,,,,,,false,UKOS,228961,379639,-4.567239883,53.286042844,BCT,MKD,OTH,,,,024,2024-05-22T12:43:52,2025-07-29T13:52:57,4,revise,active
5410AWD70605,ynygjpt,,,Hunters Chase,,,,,,,,,,,,N,E0054360,Trearddur,,,,,,,false,UKOS,225324,379888,-4.621874054,53.28709228,BCT,MKD,OTH,,,,024,2024-05-22T13:35:38,2025-07-29T14:28:48,1,revise,active
5410AWD70606,ynygjpw,,,Penrallt Road,,,,,,B4545,,,,,,NW,E0054360,Trearddur,,,,,,,false,UKOS,225378,379737,-4.62098186,53.285754202,BCT,MKD,OTH,,,,024,2024-05-22T13:41:20,2024-05-22T13:39:35,,new,active
5410AWD70607,ynygjta,,,Minffordd Road,,,,RAF Valley,,Minffordd Road,,,,,,SW,E0038713,Llanfihangel yn Nhowyn,,,,,,,false,UKOS,231301,376531,-4.530525132,53.258883266,BCT,MKD,OTH,,,,024,2024-05-22T15:42:18,2025-07-29T14:31:11,3,revise,active
5410AWD70608,ynygjtd,,,Penrhyn Close,,,,,,Minffordd Road,,,,,,SW,E0038713,Llanfihangel yn Nhowyn,,,,,,,false,UKOS,231679,376869,-4.525043243,53.26203861,BCT,MKD,OTH,,,,024,2024-05-22T15:52:25,2025-07-29T14:36:11,3,revise,active
5410AWD70609,ynygjtg,,,Chapel Street,,,,,,Chapel Street,,,,,,SE,E0054335,Llanddaniel Fab,,,,,,,false,UKOS,248822,370734,-4.265343609,53.212100181,BCT,MKD,OTH,,,,024,2024-05-22T16:18:22,2025-07-29T14:36:58,2,revise,active
5410AWD70610,ynygjtj,,,King George`s Field,,,,,,Mona Road,,,,,,NW,E0054353,Menai Bridge,,,,,,,false,UKOS,255454,371961,-4.166665525,53.224967638,BCT,MKD,OTH,,,,024,2024-05-22T17:10:16,2025-07-29T14:37:42,3,revise,active
5410AWD70611,ynygjtm,,,Waitrose,,,,,,Mona Road,,,,,,N,E0054353,Menai Bridge,,,,,,,false,UKOS,255484,371764,-4.166127152,53.223206272,BCT,MKD,OTH,,,,024,2024-05-22T17:21:26,2025-07-29T14:50:57,2,revise,active
5410AWD70612,ynygjtp,,,Waitrose,,,,,,Mona Road,,,,before,,S,E0054353,Menai Bridge,,,,,,,false,UKOS,255493,371801,-4.166009227,53.22354107,BCT,MKD,OTH,,,,024,2024-05-22T17:25:45,2025-07-29T14:56:05,1,revise,active
5410AWD70613,ynygjtw,,,Fryars Bay,,,,,,B5109,,,,before,,S,E0054326,Beaumaris,,,,,,,false,UKOS,261045,377988,-4.085610634,53.280599844,BCT,MKD,OTH,,,,024,2024-05-23T10:00:12,2025-07-29T14:56:53,2,revise,active
5410AWD70614,ynygjwa,,,Brynteg,,,,,,B5109,,,,,,NW,E0038721,Llansadwrn,,,,,,,false,UKOS,256170,376851,-4.158158867,53.269086075,BCT,MKD,OTH,,,,024,2024-05-23T11:40:09,2025-07-29T15:04:29,3,revise,active
5410AWD70615,ynygjwd,,,B5109,,,,,,B5109,,,,,,SE,E0038721,Llansadwrn,,,,,,,false,UKOS,256362,376645,-4.155189,53.267287762,BCT,MKD,OTH,,,,024,2024-05-23T11:49:08,2025-07-29T15:06:14,2,revise,active
5410AWD70616,ynygjwg,,,B5109,,,,,,B5109,,,,,,NW,E0038721,Llansadwrn,,,,,,,false,UKOS,256355,376641,-4.15529207,53.267249936,BCT,MKD,OTH,,,,024,2024-05-23T11:53:11,2025-07-29T15:09:34,2,revise,active
5410AWD70617,ynygjwj,,,Glanhwfa Road,,,,,,Industrial Estate Link Road,,,,,,W,E0054347,Llangefni,,,,,,,false,UKOS,245662,374623,-4.314506728,53.246120514,BCT,MKD,OTH,,,,024,2024-05-23T14:13:47,2025-07-29T15:10:46,1,revise,active
5410AWD70618,ynygjwm,,,Glanhwfa Road,,,,,,Industrial Estate Link Road,,,,,,E,E0054347,Llangefni,,,,,,,false,UKOS,245670,374632,-4.314391304,53.246203674,BCT,MKD,OTH,,,,024,2024-05-23T14:17:28,2025-07-29T15:13:09,2,revise,active
5410AWD70619,ynygjwp,,,Llanddona,,,,,,,,,,,,SW,E0054336,Llanddona,,,,,,,false,UKOS,257530,379228,-4.138847925,53.290804673,BCT,MKD,OTH,,,,024,2024-05-23T14:23:17,2025-07-29T15:14:05,2,revise,active
5410AWD70620,ynygjwt,,,Ysgol Gynradd Llangoed,,,,Ysgol Gynradd Llangoed,,,,,,,,NW,E0054348,Llangoed,,,,,,,false,UKOS,260787,379234,-4.090023886,53.291724622,BCT,MKD,OTH,,,,024,2024-05-23T14:29:55,2025-07-29T15:23:18,2,revise,active
5410AWD70621,ynygmad,,,Cynefin Bachau,,,,,,NCR5,,,,,,E,E0038704,Llanerchymedd,,,,,,,false,UKOS,243014,383840,-4.358713025,53.328122652,BCT,MKD,OTH,,,,024,2024-07-18T15:14:49,2025-07-29T15:23:58,1,revise,active
5410AWD71718,ynyagwt,,,Cerrigceinwen Main Road,,,,,,B4422,,,,before,,NE,E0038665,Cerrigceinwen,,,,,,,true,UKOS,242804,373565,-4.356777697,53.235783987,BCT,MKD,OTH,,,,024,2000-01-01T00:00:00,2025-07-29T15:25:42,6,revise,active
5410AWD71719,ynyagtp,,,Efail Henblas,,,,Efail Henblas,,B4422,,,,nr,,NE,E0038657,Capel Mawr,,,,,,,true,UKOS,241269,372139,-4.379045022,53.222520196,BCT,MKD,OTH,,,,024,2000-01-01T00:00:00,2025-07-29T15:26:23,4,revise,active
5410AWD71720,ynyamad,,,Anglesey Show Ground,,,,Anglesey Show Ground,,Holyhead Road,,,,after,,SE,E0038684,Gwalchmai Uchaf,,,,,,,true,UKOS,240797,375630,-4.387853678,53.253731559,BCT,MKD,OTH,,,,024,2000-01-01T00:00:00,2025-07-29T15:33:18,4,revise,active
5410AWD71721,ynyamag,,,Anglesey Show Ground,,,,Anglesey Show Ground,,Holyhead Road,,,,o/s,,NW,E0038684,Gwalchmai Uchaf,,,,,,,true,UKOS,240730,375647,-4.388865538,53.253864122,BCT,MKD,OTH,,,,024,2000-01-01T00:00:00,2024-04-26T15:25:52,3,revise,active
5410AWD71722,ynyajwp,,,Old Toll House,,,,Old Toll House,,Holyhead Road,,,,before,,NW,E0038684,Gwalchmai Uchaf,,,,,,,true,UKOS,239915,376062,-4.401279261,53.257345858,BCT,MKD,OTH,,,,024,2000-01-01T00:00:00,2025-07-29T15:40:39,5,revise,active
5410AWD71723,ynyamaj,,,Waverley,,,,,,Crown Street,,,,after 51,,SW,E0038684,Gwalchmai Uchaf,,,,,,,true,UKOS,239160,375719,-4.412413,53.254037033,BCT,MKD,OTH,,,,024,2000-01-01T00:00:00,2025-07-29T15:42:10,5,revise,active
5410AWD71724,ynyajwm,,,Gwalchmai Clock,,,,Gwalchmai War Memorial,,London Road,,,,before,,SE,E0038684,Gwalchmai Uchaf,,,,,,,true,UKOS,238802,376294,-4.418065511,53.259092302,BCT,MKD,OTH,,,,024,2000-01-01T00:00:00,2025-07-29T15:43:44,6,revise,active
5410AWD71725,ynyagdp,,,Ty-hen Road,,,,,,High Street,,,,before,,NW,E0054330,Bryngwran,,,,,,,true,UKOS,235291,377460,-4.471251784,53.268484736,BCT,MKD,OTH,,,,024,2000-01-01T00:00:00,2025-07-29T15:50:40,4,revise,active
5410AWD71726,ynydpaj,,,Valley Crossroads,,,,Undertakers,,A5025,,,,after,,NE,E0054363,Valley,,,,,,,true,UKOS,229492,379312,-4.55910758,53.283282177,BCT,MKD,OTH,,,,024,2000-01-01T00:00:00,2025-07-29T15:52:46,5,revise,active
5410AWD71727,ynyawjm,,,Bodedern Turn,,,,Llanynghenedl Council Houses,,A5025,,,,before,,SW,E0038722,Llanynghenedl,,,,,,,true,UKOS,231599,381002,-4.52843272,53.299132071,BCT,MKD,OTH,,,,024,2000-01-01T00:00:00,2025-07-29T15:54:34,5,revise,active
5410AWD71728,ynyapjw,,,Machraeth View,,,,,,A5025,,,,before,,SE,E0054340,Llanfachraeth,,,,,,,true,UKOS,231558,382346,-4.529761063,53.311188063,BCT,MKD,OTH,,,,024,2000-01-01T00:00:00,2025-07-29T15:55:45,5,revise,active
5410AWD71729,ynyamwt,,,Pisgah Hall,,,,,,Main Road,,,,o/s,,SW,E0038700,Llanddeusant,,,,,,,true,UKOS,234446,385131,-4.48793392,53.337130131,BCT,MKD,OTH,,,,024,2000-01-01T00:00:00,2025-07-29T15:56:42,2,revise,active
5410AWD71730,ynyapmg,,,Capel Abarim,,,,Capel Abarim,,A5025,,,,opp,,SE,E0054340,Llanfachraeth,,,,,,,true,UKOS,231388,382831,-4.532567821,53.31548462,BCT,MKD,OTH,,,,024,2000-01-01T00:00:00,2025-07-29T15:58:00,6,revise,active
5410AWD71731,ynyatpj,,,Fron Goch,,,,,,Llanfwrog Road,,,,o/s,,SE,E0038714,Llanfwrog,,,,,,,true,UKOS,230121,384018,-4.552203195,53.325743051,BCT,MKD,OTH,,,,024,2000-01-01T00:00:00,2025-07-29T16:00:47,4,revise,active
5410AWD71732,ynyaptg,,,Coffee House,,,,Old Village Hall,,Off A5025,,,,after,,SE,E0054342,Llanfaethlu,,,,,,,true,UKOS,231417,386904,-4.534301698,53.352073417,BCT,MKD,OTH,,,,024,2000-01-01T00:00:00,2025-07-29T16:04:02,6,revise,active
5410AWD71733,ynyaptm,,,Rhos Ty Mawr,,,,,,A5025,,,,nr,,SW,E0054342,Llanfaethlu,,,,,,,true,UKOS,231500,387026,-4.533121017,53.353195421,BCT,MKD,OTH,,,,024,2000-01-01T00:00:00,2025-07-30T08:14:17,6,revise,active
5410AWD71734,ynydmdm,,,Lobster Pot,,,,Lobster Pot,,Swtan Road,,,,o/s,,SE,E0038782,Rhydwyn,,,,,,,true,UKOS,230176,389129,-4.554121972,53.371655976,BCT,MKD,OTH,,,,024,2000-01-01T00:00:00,2025-07-30T08:12:34,3,revise,active
5410AWD71735,ynydmdj,,,Maes Gwelfor,,,,,,Chapel Street,,,,before,,SE,E0038782,Rhydwyn,,,,,,,true,UKOS,231364,389147,-4.536293773,53.37219821,BCT,CUS,OTH,,,,024,2000-01-01T00:00:00,2025-07-30T08:13:32,4,revise,active
5410AWD71736,ynydmdp,,,Square,,,,,,Main Road,,,,before,,SW,E0038782,Rhydwyn,,,,,,,true,UKOS,231529,388990,-4.533732533,53.370841032,BCT,MKD,OTH,,,,024,2000-01-01T00:00:00,2025-07-30T08:15:06,4,revise,active
5410AWD71737,ynyawgp,,,Llanrhyddlad Primary School,,,,Llanrhyddlad War Memorial,,Main Road,,,,o/s,,NW,E0038720,Llanrhuddlad,,,,,,,true,UKOS,232884,388811,-4.513292574,53.369664028,BCT,CUS,OTH,,,,024,2000-01-01T00:00:00,2025-07-30T08:15:50,4,revise,active
5410AWD71738,ynyawgt,,,Tyn y Gongl,,,,Tyn y Gongl,,A5025,,,,nr,,NE,E0038720,Llanrhuddlad,,,,,,,true,UKOS,233126,388998,-4.509757808,53.371419783,BCT,MKD,OTH,,,,024,2000-01-01T00:00:00,2025-07-30T08:24:23,3,revise,active
5410AWD71739,ynydmpd,,,Douglas Inn,,,,Douglas Inn PH,,Village Road,,,,o/s,,W,E0038803,Tregele,,,,,,,true,UKOS,235619,392644,-4.47422288,53.404938689,BCT,MKD,OTH,,,,024,2000-01-01T00:00:00,2025-07-30T08:28:53,9,revise,active
5410AWD71740,ynyatmg,,,Pen Llain,,,,,,Mountain Road,,,,nr,,SW,E0038710,Llanfechell,,,,,,,true,UKOS,236483,390787,-4.460276535,53.388535401,BCT,MKD,OTH,,,,024,2000-01-01T00:00:00,2025-07-30T08:29:59,4,revise,active
5410AWD71741,ynydgag,,,Siop Penllyn,,,,Siop Penllyn,,Mountain Road,,,,opp Post Box,,SW,E0038735,Mynydd Mechell,,,,,,,true,UKOS,235752,389488,-4.470581596,53.376643165,BCT,MKD,OTH,,,,024,2000-01-01T00:00:00,2025-07-30T08:31:40,4,revise,active
5410AWD71742,ynyadat,,,Fire Station,,,,Amlwch Fire Station,,Bethesda Street,,,,before,,SW,E0054325,Amlwch,,,,,,,true,UKOS,243749,392742,-4.352089277,53.408294018,BCT,CUS,OTH,,,,024,2000-01-01T00:00:00,2025-07-30T08:34:48,4,revise,active
5410AWD71743,ynydgwa,,,Sports Centre,,,,Pentrefelin Sports Centre,,Tanybryn Road,,,,after,,NW,E0038759,Pentrefelin,Amlwch,,,,,,true,UKOS,243850,392198,-4.350301783,53.403438274,BCT,MKD,OTH,,,,024,2000-01-01T00:00:00,2025-07-30T08:37:06,5,revise,active
5410AWD71744,ynyadgd,,,Maesllwyn,,,,,,Tanybryn Road,,,,after,,SE,E0038759,Pentrefelin,Amlwch,,,,,,true,UKOS,243685,392438,-4.352900445,53.405544844,BCT,MKD,OTH,,,,024,2000-01-01T00:00:00,2025-07-30T08:41:39,5,revise,active
5410AWD71745,ynydgpd,,,Lastra Farm Hotel,,,,Lastra Farm Hotel,,Main Road,,,,after,,SW,E0038755,Penrhyd Lastra,,,,,,,true,UKOS,243118,392244,-4.361325314,53.403634238,BCT,CUS,OTH,,,,024,2000-01-01T00:00:00,2025-07-30T08:45:16,4,revise,active
5410AWD71746,ynydmda,,,Carmel,,,,,,Main Road,,,,nr,,NE,E0054358,Rhosybol,,,,,,,true,UKOS,242525,389174,-4.368704928,53.375886274,BCT,CUS,OTH,,,,024,2000-01-01T00:00:00,2025-07-30T08:47:59,4,revise,active
5410AWD71747,ynydgat,,,Idan House,,,,Idan House,,Pen-dref Street,,,,o/s,,NE,E0038739,Newborough,,,,,,,true,UKOS,242439,365701,-4.358358984,53.165047415,BCT,MKD,OTH,,,,024,2000-01-01T00:00:00,2025-07-30T08:50:07,6,revise,active
5410AWD71748,ynydgdp,,,Tre Rhosyr,,,,Ucheldre Housing Estate,,B4421,,,,o/s,,SW,E0038739,Newborough,,,,,,,true,UKOS,242444,365862,-4.358363581,53.166494883,BCT,MKD,OTH,,,,024,2000-01-01T00:00:00,2025-07-30T08:56:58,4,revise,active
5410AWP26187,ynyawtg,,,Ysgol y Borth,,,,Ysgol y Borth,,Ffordd Tysilio,,,,not in use,,W,E0054353,Menai Bridge,,,,,,,true,UKOS,255321,372371,-4.168842541,53.228618764,BCT,MKD,OTH,,,,024,2000-01-01T00:00:00,2025-07-30T09:01:03,4,revise,inactive
5410AWP26188,ynydaja,,,Trem Eryri Circle,,,,,,Ffordd Tysilio,,,,not in use,,NW,E0054353,Menai Bridge,,,,,,,true,UKOS,255156,372472,-4.171358327,53.22948099,BCT,MKD,OTH,,,,024,2000-01-01T00:00:00,2025-07-30T09:02:00,4,revise,inactive
5410AWP26189,ynydadj,,,Lon Garth,,,,,,Lon-y-Bryn,,,,not in use,,N,E0054353,Menai Bridge,,,,,,,true,UKOS,254956,372511,-4.174369913,53.229776695,BCT,MKD,OTH,,,,024,2000-01-01T00:00:00,2025-07-30T09:05:35,4,revise,inactive
5410AWP26190,ynydadw,,,Lon Bulkeley,,,,,,Penlon,,,,before,,SW,E0054353,Menai Bridge,,,,,,,true,UKOS,254872,372649,-4.175690062,53.230988722,BCT,MKD,OTH,,,,024,2000-01-01T00:00:00,2025-07-30T09:06:52,5,revise,active
5410AWP26191,ynyawtw,,,Fron Farm,,,,Fron Farm,,Pentraeth Road,,,,after,,NW,E0054353,Menai Bridge,,,,,,,true,UKOS,254660,372675,-4.178875626,53.231168837,BCT,MKD,OTH,,,,024,2000-01-01T00:00:00,2025-07-30T09:08:11,4,revise,active
5410AWP26193,ynyatdg,,,Lon Refail,,,,,,Lon Refail,,,,o/s Hyfrydle,,NW,E0038708,Llanfairpwllgwyngyll,,,,,,,true,UKOS,253676,371859,-4.193230904,53.22356902,BCT,MKD,OTH,,,,024,2000-01-01T00:00:00,2025-07-30T09:11:08,4,revise,active
5410AWP26194,ynyatat,,,Bryn Bras,,,,,,Lon Dryll,,,,after,,SW,E0038708,Llanfairpwllgwyngyll,,,,,,,true,UKOS,253481,371804,-4.196124154,53.223021227,BCT,MKD,OTH,,,,024,2000-01-01T00:00:00,2025-07-30T09:13:42,4,revise,active
5410AWP26195,ynyapwa,,,Cil y Graig,,,,,,Lon Ty Croes,,,,opp 27,,NW,E0038708,Llanfairpwllgwyngyll,,,,,,,true,UKOS,253198,371752,-4.200335756,53.22247599,BCT,MKD,OTH,,,,024,2000-01-01T00:00:00,2025-07-30T09:14:27,4,revise,active
5410AWP26196,ynyaptw,,,Bowling Green,,,,,,Ffordd Penmynydd,,,,o/s,,SW,E0038708,Llanfairpwllgwyngyll,,,,,,,true,UKOS,252750,371757,-4.207042862,53.222392281,BCT,MKD,OTH,,,,024,2000-01-01T00:00:00,2025-07-30T09:17:39,4,revise,active
5410AWP26197,ynyataj,,,Bryn Salem,,,,Llanfair PG Co-op,,Holyhead Road,,,,before,,NW,E0038708,Llanfairpwllgwyngyll,,,,,,,true,UKOS,252341,371687,-4.213131783,53.22165454,BCT,MKD,OTH,,,,024,2000-01-01T00:00:00,2025-07-30T09:18:31,7,revise,active
5410AWP26198,ynyatjm,,,Llanfair PG Railway Station,,Station,,Penrhos Arms,,Holyhead Road,,,,opp,,SE,E0038708,Llanfairpwllgwyngyll,,,,,,,true,UKOS,252557,371657,-4.209885239,53.221445093,BCT,MKD,OTH,,,,024,2000-01-01T00:00:00,2025-07-30T09:37:41,7,revise,active
5410AWP26199,ynyatgt,,,Lon Ty Croes Spar,,,,Lon Ty Croes Spar,,Lon Ty Croes,,,,before,,SE,E0038708,Llanfairpwllgwyngyll,,,,,,,true,UKOS,252895,371898,-4.204937969,53.223703533,BCT,MKD,OTH,,,,024,2000-01-01T00:00:00,2025-07-30T09:38:12,3,revise,active
5410AWP26200,ynyatdm,,,Trem yr Eryri,,,,,,Lon Ty Croes,,,,before,,S,E0038708,Llanfairpwllgwyngyll,,,,,,,true,UKOS,253086,371797,-4.20203274,53.222849213,BCT,MKD,OTH,,,,024,2000-01-01T00:00:00,2025-07-30T09:40:03,4,revise,active
5410AWP26201,ynyapwd,,,Cil y Graig,,,,,,Lon Ty Croes,,,,o/s 31,,SE,E0038708,Llanfairpwllgwyngyll,,,,,,,true,UKOS,253214,371741,-4.200091227,53.222381609,BCT,MKD,OTH,,,,024,2000-01-01T00:00:00,2025-07-30T09:40:50,4,revise,active
5410AWP26202,ynyataw,,,Bryn Bras,,,,,,Lon Dryll,,,,before,,NE,E0038708,Llanfairpwllgwyngyll,,,,,,,true,UKOS,253467,371798,-4.196330928,53.22296347,BCT,MKD,OTH,,,,024,2000-01-01T00:00:00,2025-07-30T09:42:23,4,revise,active
5410AWP26203,ynyatda,,,Tyddyn Ddeici,,,,,,Lon Dryll,,,,after,,NE,E0038708,Llanfairpwllgwyngyll,,,,,,,true,UKOS,253516,371949,-4.195666974,53.224333305,BCT,MKD,OTH,,,,024,2000-01-01T00:00:00,2025-07-30T09:43:27,5,revise,active
5410AWP26204,ynyatdj,,,Lon Refail,,,,,,Lon Refail,,,,opp Hyfrydle,,SE,E0038708,Llanfairpwllgwyngyll,,,,,,,true,UKOS,253674,371876,-4.193268643,53.223721167,BCT,MKD,OTH,,,,024,2000-01-01T00:00:00,2025-07-30T09:46:43,4,revise,active
5410AWP26205,ynydaga,,,Lon Bulkeley,,,,,,Penlon,,,,not in use,,NE,E0054353,Menai Bridge,,,,,,,true,UKOS,254819,372620,-4.176470375,53.230718319,BCT,MKD,OTH,,,,024,2000-01-01T00:00:00,2025-07-30T09:47:37,4,revise,inactive
5410AWP26206,ynydadm,,,Lon Ganol,,,,,,Lon-y-Bryn,,,,opp,,S,E0054353,Menai Bridge,,,,,,,true,UKOS,254971,372559,-4.174167228,53.230211945,BCT,MKD,OTH,,,,024,2000-01-01T00:00:00,2025-07-30T09:49:10,3,revise,active
5410AWP26207,ynydajd,,,Glyn Estate,,,,,,Trem Eryri,,,,not in use,,NE,E0054353,Menai Bridge,,,,,,,true,UKOS,255098,372418,-4.172201975,53.228980115,BCT,MKD,OTH,,,,024,2000-01-01T00:00:00,2025-07-30T09:51:42,4,revise,inactive
5410AWP26209,ynyawtj,,,Trem Eryri Circle,,,,,,Ffordd Tysilio,,,,after,,SE,E0054353,Menai Bridge,,,,,,,true,UKOS,255176,372468,-4.171057125,53.229450517,BCT,MKD,OTH,,,,024,2000-01-01T00:00:00,2025-07-30T09:52:20,3,revise,active
5410AWP26210,ynyawtm,,,Ysgol y Borth,,,,Ysgol y Borth,,Ffordd Tysilio,,,,not in use,,E,E0054353,Menai Bridge,,,,,,,true,UKOS,255321,372377,-4.168845266,53.228672658,BCT,MKD,OTH,,,,024,2000-01-01T00:00:00,2025-07-30T09:53:42,4,revise,inactive
5410AWP26211,ynydadt,,,Bryn Tysilio,,Lon Pen Nebo,,,,Hill Street,,,,not in use,,NW,E0054353,Menai Bridge,,,,,,,true,UKOS,255411,372207,-4.167420908,53.227170173,BCT,MKD,OTH,,,,024,2000-01-01T00:00:00,2025-07-30T09:54:44,4,revise,inactive
5410AWP26223,ynyapdm,,,Cichle Hill,,,,,,Beaumaris Road,,,,after,,NE,E0038702,Llandegfan,,,,,,,true,UKOS,256187,372922,-4.156128035,53.233798814,BCT,MKD,OTH,,,,024,2000-01-01T00:00:00,2025-07-30T09:58:09,6,revise,active
5410AWP26224,ynyapdt,,,Gazelle Hotel,,,,Gazelle Hotel PH,,Beaumaris Road,,,,after,,NE,E0038702,Llandegfan,,,,,,,true,UKOS,258003,374093,-4.12946307,53.244810937,BCT,MKD,OTH,,,,024,2000-01-01T00:00:00,2024-04-26T15:25:40,3,revise,active
5410AWP26225,ynyadja,,,Allt Goch Lodge,,,,,,Unclassified Road,,,,before,,S,E0054326,Beaumaris,,,,,,,true,UKOS,259127,376457,-4.113678204,53.266345567,BCT,MKD,OTH,,,,024,2000-01-01T00:00:00,2024-04-26T15:25:36,3,revise,active
5410AWP26226,ynyapad,,,Bryn Felin Q,,,,,,Main Road,,,,not in use,,E,E0054336,Llanddona,,,,,,,true,UKOS,257760,379636,-4.13558302,53.294535906,BCT,MKD,OTH,,,,024,2000-01-01T00:00:00,2025-07-30T10:25:46,5,revise,inactive
5410AWP26228,ynyapaj,,,Terminus,,,,,,Penhwnllys Road,,,,at,,E,E0054336,Llanddona,,,,,,,true,UKOS,257956,379569,-4.132614542,53.293986684,BCT,MKD,OTH,,,,024,2000-01-01T00:00:00,2025-07-30T10:27:39,3,revise,active
5410AWP26229,ynyawdw,,,Llangoed Playing Field,,,,,,B5109,,,,opp,,N,E0054348,Llangoed,,,,,,,true,UKOS,260879,379108,-4.088589415,53.29061697,BCT,MKD,OTH,,,,024,2000-01-01T00:00:00,2025-07-30T10:29:07,6,revise,active
5410AWP26230,ynyawdj,,,Pont y Rhyd,,,,Mona House,,B5109,,,,before,,NE,E0054348,Llangoed,,,,,,,true,UKOS,261014,379657,-4.086806174,53.295588512,BCT,MKD,OTH,,,,024,2000-01-01T00:00:00,2025-07-30T10:29:52,4,revise,active
5410AWP26232,ynyapdw,,,Llandegfan Post Office,,Maldwyn Stores,,Maldwyn Stores,,Lon Ganol,,,,not in use,,NE,E0038702,Llandegfan,,,,,,,true,UKOS,256897,373849,-4.145915486,53.242322058,BCT,MKD,OTH,,,,024,2000-01-01T00:00:00,2025-07-30T10:32:03,7,revise,inactive
5410AWP26233,ynyamap,,,St Tegfan`s Church,,,,St Tegfan`s Church,,Main Road,,,,not in use,,NE,N0075744,Hen Bentref Llandegfan,,,,,,,true,UKOS,256421,374377,-4.153281232,53.246936199,BCT,MKD,OTH,,,,024,2000-01-01T00:00:00,2025-07-30T10:38:29,5,revise,inactive
5410AWP26234,ynyamda,,,Bryniau Duon,,,,,,Main Road,,,,before,,NE,N0075744,Hen Bentref Llandegfan,,,,,,,true,UKOS,257059,374818,-4.143924976,53.251069757,BCT,MKD,OTH,,,,024,2000-01-01T00:00:00,2025-07-30T10:40:17,3,revise,active
5410AWP26235,ynyadjt,,,Lidiart Parc,,,,,,Main Road,,,,before,,NE,N0075744,Hen Bentref Llandegfan,,,,,,,true,UKOS,258440,375264,-4.123440037,53.255446345,BCT,MKD,OTH,,,,024,2000-01-01T00:00:00,2025-07-30T10:41:04,6,revise,active
5410AWP26236,ynyadmg,,,Mile Lane,,,,,,The Mile Road,,,,junc Allt Goch Fawr,,N,E0054326,Beaumaris,,,,,,,true,UKOS,259024,376420,-4.115205,53.265985831,BCT,MKD,OTH,,,,024,2000-01-01T00:00:00,2025-07-30T11:01:46,6,revise,active
5410AWP26237,ynyapmw,,,Fryars Bay,,,,,,B5109,,,,after,,NW,E0038705,Llanfaes,,,,,,,true,UKOS,261056,377892,-4.085403904,53.279744954,BCT,MKD,OTH,,,,024,2000-01-01T00:00:00,2025-07-30T11:27:12,3,revise,active
5410AWP26240,ynyawdt,,,Ty Gwyn,,,,Ty Gwyn,,Main Road,,,,nr,,NE,E0038752,Penmon,,,,,,,true,UKOS,262193,379730,-4.069160866,53.296552376,BCT,MKD,OTH,,,,024,2000-01-01T00:00:00,2025-07-30T11:28:35,3,revise,active
5410AWP26242,ynydgpw,,,Nant y Felin,,,,,,Maes Geraint,,,,o/s School,,NE,E0054356,Pentraeth,,,,,,,true,UKOS,252185,378325,-4.218550615,53.281233961,BCT,MKD,OTH,,,,024,2000-01-01T00:00:00,2025-07-30T11:33:35,3,revise,active
5410AWP26247,ynydgwd,,,Garnedd Wen,,,,,,Pentraeth Road,,,,nr,,NW,E0038747,Pen-y-garnedd,,,,,,,true,UKOS,253634,376602,-4.196040764,53.266159969,BCT,MKD,OTH,,,,024,2000-01-01T00:00:00,2025-07-30T11:36:07,4,revise,active
5410AWP26248,ynydgpt,,,Post Office,,,,Pentraeth Square,,A5025,,,,after,,NW,E0054356,Pentraeth,,,,,,,true,UKOS,252322,378461,-4.21656067,53.282493712,BCT,MKD,OTH,,,,024,2000-01-01T00:00:00,2025-07-30T11:40:01,7,revise,active
5410AWP26250,ynyadpd,,,Benllech War Memorial,,,,Benllech War Memorial,,Amlwch Road,,,,o/s,,NE,E0038634,Benllech,,,,,,,true,UKOS,251846,382871,-4.225754454,53.32197111,BCT,MKD,OTH,,,,024,2000-01-01T00:00:00,2025-07-30T11:43:22,7,revise,active
5410AWP26251,ynydjtg,,,Gorwel Deg,,,,,,B4422,,,,after,,SW,E0038780,Rhostrehwfa,,,,,,,true,UKOS,243866,374579,-4.341377284,53.245204464,BCT,MKD,OTH,,,,024,2000-01-01T00:00:00,2025-07-30T11:44:14,5,revise,inactive
5410AWP26252,ynyagtm,,,Efail Henblas,,,,Efail Henblas,,B4422,,,,nr,,SW,E0038657,Capel Mawr,,,,,,,true,UKOS,241264,372126,-4.379113371,53.222401947,BCT,MKD,OTH,,,,024,2000-01-01T00:00:00,2025-07-30T11:45:33,3,revise,active
5410AWP26253,ynyadtm,,,Abingerwood,,,,,,B4422,,,,opp,,SW,E0038635,Bethel,,,,,,,true,UKOS,239725,370473,-4.401312632,53.20709423,BCT,MKD,OTH,,,,024,2000-01-01T00:00:00,2025-08-04T13:40:02,4,revise,active
5410AWP26254,ynyadtw,,,Bodorgan Railway Station,,,,Bodorgan Railway Station,,Station Approach,,,,after,,SE,E0054329,Bodorgan,,,,,,,true,UKOS,239166,370034,-4.409453353,53.202982712,BCT,MKD,OTH,,,,024,2000-01-01T00:00:00,2025-07-30T11:47:58,5,revise,active
5410AWP26255,ynyatpm,,,St Cadwaladr`s Church,,,,St Cadwaladr`s Church,,A4080,,,,before,,SE,E0038715,Llangadwaladr,,,,,,,true,UKOS,238287,369267,-4.422212222,53.195827681,BCT,MKD,OTH,,,,024,2000-01-01T00:00:00,2025-07-30T11:56:34,3,revise,active
5410AWP26256,ynyatpt,,,St Cadwaladr`s Church,,,,St Cadwaladr`s Church,,A4080,,,,after,,NW,E0038715,Llangadwaladr,,,,,,,true,UKOS,238325,369203,-4.421611526,53.195264466,BCT,MKD,OTH,,,,024,2000-01-01T00:00:00,2025-07-30T11:57:15,3,revise,active
5410AWP26257,ynyamdp,,,Malakoff,,,,,,A4080,,,,nr,,SE,E0038691,Hermon Village,,,,,,,true,UKOS,238769,368928,-4.41483277,53.192929575,BCT,MKD,OTH,,,,024,2000-01-01T00:00:00,2025-07-30T11:58:08,3,revise,active
5410AWP26258,ynyadtp,,,Ysgol Gynradd Bodrogan,,,,Ysgol Gynradd Bodrogan,,B4422,,,,o/s,,NW,E0038635,Bethel,,,,,,,true,UKOS,239596,369527,-4.402766799,53.198559332,BCT,MKD,OTH,,,,024,2000-01-01T00:00:00,2025-07-30T11:58:42,4,revise,active
5410AWP26259,ynyawmp,,,Tegfryn Garage,,,,Tegfryn Garage,,A4080,,,,opp,,SE,E0038728,Malldraeth,,,,,,,true,UKOS,239931,369349,-4.397667267,53.197061708,BCT,MKD,OTH,,,,024,2000-01-01T00:00:00,2025-07-30T11:59:26,3,revise,active
5410AWP26260,ynydgda,,,Penrhos,,,,Ty Gwyn,,A4080,,,,after,,SE,E0038739,Newborough,,,,,,,true,UKOS,242145,365942,-4.362871708,53.167124771,BCT,MKD,OTH,,,,024,2000-01-01T00:00:00,2025-07-30T11:59:51,3,revise,active
5410AWP26262,ynydgdm,,,White Lion Hotel,,,,Newborough Spar,,Malltraeth Street,,,,opp,,SE,E0038739,Newborough,,,,,,,true,UKOS,242386,365695,-4.359148101,53.164977833,BCT,MKD,OTH,,,,024,2000-01-01T00:00:00,2025-07-30T12:00:28,4,revise,active
5410AWP26263,ynydgmd,,,Pen-lon Roundabout,,,,White Lodge,,A4080,,,,after,,NE,E0038746,Pen-Lon,,,,,,,true,UKOS,243013,365061,-4.349466511,53.159468991,BCT,MKD,OTH,,,,024,2000-01-01T00:00:00,2025-07-30T12:01:13,3,revise,active
5410AWP26264,ynyajdm,,,Llwyn Helyg,,,,Llwyn Helyg,,A4080,,,,before,,SE,E0038673,Dwyran,,,,,,,true,UKOS,244633,365422,-4.325433913,53.163186662,BCT,MKD,OTH,,,,024,2000-01-01T00:00:00,2025-07-30T12:02:12,4,revise,active
5410AWP26265,ynyajdp,,,Post Office,,,,Dwyran Post Office,,Main Road,,,,before,,NW,E0038673,Dwyran,,,,,,,true,UKOS,244917,365966,-4.321453476,53.168155448,BCT,MKD,OTH,,,,024,2000-01-01T00:00:00,2025-07-30T13:07:32,6,revise,active
5410AWP26267,ynyajat,,,Llys Newydd,,,,Llys Newydd,,Dwyran Road,,,,nr,,NE,E0038673,Dwyran,,,,,,,true,UKOS,245704,366620,-4.310006332,53.174258207,BCT,MKD,OTH,,,,024,2000-01-01T00:00:00,2025-07-30T13:11:59,3,revise,active
5410AWP26268,ynyagma,,,Fron Caravan Park,,,,Fron Caravan Park,,A4080,,,,o/s,,NE,E0038646,Brynsiencyn,,,,,,,true,UKOS,247215,366785,-4.287497703,53.176176312,BCT,MKD,OTH,,,,024,2000-01-01T00:00:00,2025-07-30T13:14:51,3,revise,active
5410AWP26269,ynyapgp,,,Llanddaniel Fab Turn,,,,,,A4080,,,,after,,NE,N0075747,Llanedwen,,,,,,,true,UKOS,251043,369141,-4.231368369,53.198423818,BCT,MKD,OTH,,,,024,2000-01-01T00:00:00,2025-07-30T13:16:16,3,revise,active
5410AWP26270,ynyatap,,,Victoria Cottages,,,,Victoria Cottages,,Brynsiencyn Road,,,,o/s,,NE,E0038708,Llanfairpwllgwyngyll,,,,,,,true,UKOS,252459,370937,-4.211018659,53.214950739,BCT,MKD,OTH,,,,024,2000-01-01T00:00:00,2025-07-30T13:18:25,3,revise,active
5410AWP26271,ynyapwj,,,Lon y Wylan,,,,,,Ffordd Penmynydd,,,,before,,NE,E0038708,Llanfairpwllgwyngyll,,,,,,,true,UKOS,253010,372058,-4.203290589,53.225172527,BCT,MKD,OTH,,,,024,2000-01-01T00:00:00,2025-07-30T13:19:34,3,revise,active
5410AWP26272,ynyagjw,,,Post Office,,,,Capel Horeb,,A4080,,,,opp,,NW,E0038646,Brynsiencyn,,,,,,,true,UKOS,248058,367170,-4.275078171,53.179871191,BCT,MKD,OTH,,,,024,2000-01-01T00:00:00,2025-07-30T13:20:18,8,revise,active
5410AWP26273,ynyagmj,,,Ty'n Cwrt Estate,,,,Plas Siencyn,,A4080,,,,after,,NW,E0038646,Brynsiencyn,,,,,,,true,UKOS,247965,367220,-4.276492533,53.180298286,BCT,MKD,OTH,,,,024,2000-01-01T00:00:00,2025-07-30T13:21:06,3,revise,active
5410AWP26274,ynydgmg,,,Pen-lon Roundabout,,,,Minffordd,,A4080,,,,after,,NW,E0038746,Pen-Lon,,,,,,,true,UKOS,242920,365065,-4.350858169,53.159477478,BCT,MKD,OTH,,,,024,2000-01-01T00:00:00,2025-07-30T13:21:47,3,revise,active
5410AWP26275,ynydgdj,,,Ysgol Gynradd Niwbwrch,,,,Ysgol Gynradd Niwbwrch,,Pen-dref Street,,,,opp,,N,E0038739,Newborough,,,,,,,true,UKOS,242648,365945,-4.355355575,53.167300694,BCT,MKD,OTH,,,,024,2000-01-01T00:00:00,2025-07-30T13:23:03,4,revise,active
5410AWP26276,ynyajda,,,Dwyran Turn,,,,,,A4080,,,,after,,NE,E0038673,Dwyran,,,,,,,true,UKOS,245819,366602,-4.308278568,53.174129882,BCT,MKD,OTH,,,,024,2000-01-01T00:00:00,2025-07-30T13:23:52,4,revise,active
5410AWP26277,ynyawmt,,,Joiners Arms,,,,Joiners Arms PH,,High Street,,,,before,,NW,E0038728,Malldraeth,,,,,,,true,UKOS,240744,368773,-4.385221013,53.192132813,BCT,MKD,OTH,,,,024,2000-01-01T00:00:00,2025-07-30T13:25:01,3,revise,active
5410AWP26278,ynyadwa,,,Ysgol Gynradd Bodrogan,,,,Ysgol Gynradd Bodrogan,,A4080,,,,after,,SW,E0038635,Bethel,,,,,,,true,UKOS,239593,369483,-4.402789554,53.198163265,BCT,MKD,OTH,,,,024,2000-01-01T00:00:00,2025-07-30T13:35:28,4,revise,active
5410AWP26279,ynyamdt,,,Treflys,,,,Hermon Council Houses,,A4080,,,,o/s,,SE,E0038691,Hermon Village,,,,,,,true,UKOS,238812,368901,-4.414176122,53.19270013,BCT,MKD,OTH,,,,024,2000-01-01T00:00:00,2025-07-30T13:39:02,4,revise,active
5410AWP26280,ynyadwg,,,Malltraeth Turn,,,,,,Station Road,,,,before,,E,E0038635,Bethel,,,,,,,true,UKOS,239448,370250,-4.405344031,53.20500786,BCT,MKD,OTH,,,,024,2000-01-01T00:00:00,2025-07-30T13:40:18,3,revise,active
5410AWP26281,ynyagwp,,,Cerrigceinwen Main Road,,,,,,B4422,,,,before,,SW,E0038665,Cerrigceinwen,,,,,,,true,UKOS,242870,373620,-4.355816851,53.236297495,BCT,MKD,OTH,,,,024,2000-01-01T00:00:00,2025-07-30T13:41:36,3,revise,active
5410AWP26301,ynyapwm,,,Four Crosses,,,,Four Crosses PH,,B5420,,,,not in use,,NW,E0054353,Menai Bridge,,,,,,,true,UKOS,254501,372790,-4.181308334,53.232158244,BCT,MKD,OTH,,,,024,2000-01-01T00:00:00,2025-07-30T13:43:19,4,revise,inactive
5410AWP26302,ynydgjg,,,Coleg Menai,,,,Coleg Menai Llangefni,,Penmynydd Road,,,,after,,E,E0054347,Llangefni,,,,,,,true,UKOS,246817,375520,-4.297644157,53.254516256,BCT,MKD,OTH,,,,024,2000-01-01T00:00:00,2025-07-30T13:47:18,4,revise,active
5410AWP26303,ynydmgw,,,Pont Ceint,,,,,,B5420,,,,before,,SW,N0071261,Ceint,,,,,,,true,UKOS,249016,374884,-4.264408123,53.249434372,BCT,MKD,OTH,,,,024,2000-01-01T00:00:00,2025-07-30T13:47:54,5,revise,active
5410AWP26304,ynydmgj,,,Pont Ceint,,,,Pont Ceint,,B4520,,,,after,,NE,N0071261,Ceint,,,,,,,true,UKOS,249007,374899,-4.264550018,53.249566537,BCT,MKD,OTH,,,,024,2000-01-01T00:00:00,2025-07-30T13:50:30,6,revise,active
5410AWP26305,ynydgmp,,,Pen yr Allt,,,,,,B5420,,,,before,,SE,E0054355,Penmynydd,,,,,,,true,UKOS,250116,374772,-4.247882508,53.248740327,BCT,MKD,OTH,,,,024,2000-01-01T00:00:00,2025-07-30T13:51:36,5,revise,active
5410AWP26307,ynyapwp,,,Four Crosses,,,,Four Crosses PH,,B5420,,,,not in use,,SE,E0054353,Menai Bridge,,,,,,,true,UKOS,254566,372756,-4.180319759,53.231870659,BCT,MKD,OTH,,,,024,2000-01-01T00:00:00,2025-07-30T13:52:12,4,revise,inactive
5410AWP26308,ynyatgw,,,Sant Tysilio,,,,Sant Tysilio Nursing Home,,A5025,,,,after,,SW,E0038708,Llanfairpwllgwyngyll,,,,,,,true,UKOS,253929,372140,-4.189573089,53.226162692,BCT,MKD,OTH,,,,024,2000-01-01T00:00:00,2025-07-30T13:53:41,4,revise,active
5410AWP26311,ynydagd,,,Pentraeth Automotive Q,,,,,,Pentraeth Road,,,,not in use,,S,E0054353,Menai Bridge,,,,,,,true,UKOS,255121,373725,-4.172452308,53.240726312,BCT,MKD,OTH,,,,024,2000-01-01T00:00:00,2025-07-30T13:58:02,5,revise,inactive
5410AWP26313,ynyatag,,,Bryn Salem,,,,Llanfair PG Co-op,,Holyhead Road,,,,before,,SE,E0038708,Llanfairpwllgwyngyll,,,,,,,true,UKOS,252298,371700,-4.213781346,53.221759349,BCT,MKD,OTH,,,,024,2000-01-01T00:00:00,2025-07-30T14:03:10,7,revise,active
5410AWP26314,ynyatja,,,Sant Tysilio,,,,Sant Tysilio Nursing Home,,A5025,,,,before,,NE,E0038708,Llanfairpwllgwyngyll,,,,,,,true,UKOS,253904,372117,-4.189936738,53.225949222,BCT,MKD,OTH,,,,024,2000-01-01T00:00:00,2025-07-30T14:11:46,5,revise,active
5410AWP26318,ynyagtd,,,Fairholme Kirk,,,,,,Main Road,,,,nr,,SE,E0038654,Caim,,,,,,,true,UKOS,261472,380644,-4.080370364,53.304574517,BCT,MKD,OTH,,,,024,2000-01-01T00:00:00,2025-07-30T14:12:21,3,revise,active
5410AWP26319,ynyadmj,,,Castle Mews,,,,,,Ratings Row,,,,nr,,SE,E0054326,Beaumaris,,,,,,,true,UKOS,260571,376166,-4.091915433,53.264113328,BCT,MKD,OTH,,,,024,2000-01-01T00:00:00,2025-07-30T14:13:58,4,revise,active
5410AWP26320,ynyadjp,,,Market Square,,,,Beaumaris Post Office,,Church Street,,,,o/s Bold Arms,,SE,E0054326,Beaumaris,,,,,,,true,UKOS,260512,376100,-4.092770412,53.263504947,BCT,MKD,OTH,,,,024,2000-01-01T00:00:00,2025-07-30T14:14:40,4,revise,active
5410AWP26321,ynyamaw,,,St Tegfan`s Church,,,,St Tegfan`s Church,,Main Road,,,,before,,SW,N0075744,Hen Bentref Llandegfan,,,,,,,true,UKOS,256551,374428,-4.151357414,53.24742947,BCT,MKD,OTH,,,,024,2000-01-01T00:00:00,2025-07-30T14:20:29,3,revise,active
5410AWP26323,ynydgpa,,,Toll House,,,,Penrhos Toll House,,Holyhead Road,,,,after,,SE,E0038754,Penrhos,,,,,,,true,UKOS,227624,380308,-4.58763746,53.291621499,BCT,MKD,OTH,,,,024,2000-01-01T00:00:00,2025-07-30T14:29:32,5,revise,active
5410AWP26325,ynyajmw,,,R`Efail Estate,,,,,,Lon St Ffraid,,,,before,,SE,E0038676,Four Mile Bridge,,,,,,,true,UKOS,226938,378055,-4.596690326,53.271162473,BCT,MKD,OTH,,,,024,2000-01-01T00:00:00,2025-07-30T14:31:37,5,revise,active
5410AWP26326,ynyajgt,,,Anchorage Hotel,,,,Anchorage Hotel PH,,B4545,,,,before,,NE,N0071271,Pontrhydybont,,,,,,,true,UKOS,227463,378109,-4.588855738,53.271823065,BCT,MKD,OTH,,,,024,2000-01-01T00:00:00,2025-07-30T14:32:07,4,revise,active
5410AWP26327,ynyajmp,,,Llais y Mor,,,,Glan y Mor,,B4545,,,,before,,NE,N0071271,Pontrhydybont,,,,,,,true,UKOS,227926,378304,-4.582025827,53.273724568,BCT,MKD,OTH,,,,024,2000-01-01T00:00:00,2025-07-30T14:33:29,4,revise,active
5410AWP26328,ynydmtj,,,Cherry Garth,,,,,,Bryn y Mor,,,,nr,,NE,E0054363,Valley,,,,,,,true,UKOS,228501,378913,-4.573740918,53.279379514,BCT,MKD,OTH,,,,024,2000-01-01T00:00:00,2025-07-30T14:38:43,3,revise,active
5410AWP26329,ynyajpw,,,Railway Farm,,,,Gaerwen-bellaf,,Station Road,,,,before,,SE,E0038678,Gaerwen,,,,,,,true,UKOS,248466,370953,-4.270774333,53.21397034,BCT,MKD,OTH,,,,024,2000-01-01T00:00:00,2025-07-30T14:39:22,5,revise,active
5410AWP26330,ynyamwd,,,Post Office,,,,Llanddaniel Fab Post Office,,Main Road,,,,opp,,NE,E0054335,Llanddaniel Fab,,,,,,,true,UKOS,249548,370542,-4.25439058,53.210586351,BCT,MKD,OTH,,,,024,2000-01-01T00:00:00,2025-07-30T14:40:06,7,revise,active
5410AWP26331,ynydmja,,,Anglesey Aluminium,,,,,,Grounds,,,,in,,NW,E0038754,Penrhos,,,,,,,true,UKOS,226117,381108,-4.61065985,53.298312532,BCT,MKD,OTH,,,,024,2000-01-01T00:00:00,2025-07-30T14:42:30,4,revise,active
5410AWP26333,ynyadwp,,,Maes Gwynfa,,,,,,London Road,,,,,,SW,E0054327,Bodedern,,,,,,,true,UKOS,233277,380201,-4.502858676,53.292465301,BCT,MKD,OTH,,,,024,2000-01-01T00:00:00,2025-07-30T14:41:10,7,revise,active
5410AWP26334,ynydamt,,,Bryn Erw Road,,,,,,Cyttir Road,,,,before,,SW,E0038636,Blackbridge,Holyhead,,,,,,true,UKOS,225398,381549,-4.621678973,53.30203129,BCT,MKD,OTH,,,,024,2000-01-01T00:00:00,2025-07-30T14:43:58,6,revise,active
5410AWP26335,ynyagaw,,,Bodedern Turn,,,,,,Holyhead Road,,,,after,,SE,E0054330,Bryngwran,,,,,,,true,UKOS,233361,378138,-4.500517236,53.273965656,BCT,MKD,OTH,,,,024,2000-01-01T00:00:00,2025-07-30T14:49:15,5,revise,active
5410AWP26336,ynydadg,,,King George`s Field,,,,King George`s Field,,Mona Road,,,,not in use,,SE,E0054353,Menai Bridge,,,,,,,true,UKOS,255468,371962,-4.166456431,53.224980431,BCT,MKD,OTH,,,,024,2000-01-01T00:00:00,2025-07-30T14:50:51,8,revise,inactive
5410AWP26337,ynyamwp,,,Star Crossroads,,,,,,Holyhead Road,,,,after,,NW,E0038708,Llanfairpwllgwyngyll,,,,,,,true,UKOS,251026,371899,-4.232910979,53.223191449,BCT,MKD,OTH,,,,024,2000-01-01T00:00:00,2025-07-30T14:52:29,4,revise,active
5410AWP26338,ynydjtm,,,Cae Mawr,,,,,,B4422,,,,after,,SW,E0054347,Llangefni,,,,,,,true,UKOS,244671,375587,-4.329816087,53.254493925,BCT,MKD,OTH,,,,024,2000-01-01T00:00:00,2025-07-30T15:02:12,6,revise,active
5410AWP26339,ynydjwd,,,Mona Isaf,,,,,,Holyhead Road,,,,before,,NW,E0038780,Rhostrehwfa,,,,,,,true,UKOS,242638,374899,-4.359922025,53.247715676,BCT,MKD,OTH,,,,024,2000-01-01T00:00:00,2025-07-30T15:07:36,5,revise,active
5410AWP26340,ynyajwt,,,Old Toll House,,,,Old Toll House,,Holyhead Road,,,,after,,SE,E0038684,Gwalchmai Uchaf,,,,,,,true,UKOS,239916,376076,-4.401271331,53.257471892,BCT,MKD,OTH,,,,024,2000-01-01T00:00:00,2025-07-30T15:08:41,5,revise,active
5410AWP26341,ynyagdg,,,Well Street Q,,,,,,High Street,,,,not in use,,N,E0054330,Bryngwran,,,,,,,true,UKOS,234767,377629,-4.479188912,53.269839371,BCT,CUS,OTH,,,,024,2000-01-01T00:00:00,2025-07-30T15:09:34,4,revise,inactive
5410AWP26342,ynyagat,,,Bodedern Turn,,,,,,Holyhead Road,,,,before,,NW,E0054330,Bryngwran,,,,,,,true,UKOS,233357,378124,-4.500569819,53.273838676,BCT,MKD,OTH,,,,024,2000-01-01T00:00:00,2025-07-30T15:19:01,5,revise,active
5410AWP26343,ynyagpm,,,Capel Siloh,,,,Capel Siloh,,Holyhead Road,,,,before,,NW,E0038652,Caergeiliog,,,,,,,true,UKOS,230651,378546,-4.54134,53.27677,BCT,MKD,OTH,,,,024,2000-01-01T00:00:00,2025-07-30T15:20:04,5,revise,active
5410AWP26344,ynydmtp,,,Tan y Bryn,,,,Greystone Estate,,Station Road,,,,before,,SW,E0054363,Valley,,,,,,,true,UKOS,229160,379080,-4.563957384,53.281091956,BCT,MKD,OTH,,,,024,2000-01-01T00:00:00,2025-07-30T15:20:57,5,revise,active
5410AWP26346,ynydmjp,,,Square,,,,Wellington Court,,Lon St Ffraid,,,,adj Phone Box,,NE,E0054360,Trearddur,,,,,,,true,UKOS,225596,379293,-4.617471697,53.28184375,BCT,MKD,OTH,,,,024,2000-01-01T00:00:00,2025-07-30T15:21:32,4,revise,active
5410AWP26347,ynyamjm,,,Ebenezer Villas,,,,,,Kingsland Road,,,,opp Vets,,N,E0038695,Kingsland,Holyhead,,,,,,true,UKOS,224949,381188,-4.628210094,53.298641562,BCT,MKD,OTH,,,,024,2000-01-01T00:00:00,2025-07-30T15:22:34,5,revise,active
5410AWP26348,ynyamjw,,,Tyn Pwll Road Q,,,,,,Kingsland Road,,,,not in use,,N,E0038695,Kingsland,Holyhead,,,,,,true,UKOS,224920,381502,-4.628818182,53.301456039,BCT,CUS,OTH,,,,024,2000-01-01T00:00:00,2025-07-30T15:23:51,5,revise,inactive
5410AWP26349,ynyamjp,,,Foresters Q,,,,Forresters PH,,Kingsland Road,,,,not in use,,NW,E0038695,Kingsland,Holyhead,,,,,,true,UKOS,224829,381726,-4.630305895,53.303437294,BCT,CUS,OTH,,,,024,2000-01-01T00:00:00,2025-07-30T15:24:58,5,revise,inactive
5410AWP26350,ynyajpm,,,Lon Groes,,,,,,Chapel Street,,,,,,NE,E0038678,Gaerwen,,,,,,,true,UKOS,248455,370998,-4.270960167,53.214366801,BCT,MKD,OTH,,,,024,2000-01-01T00:00:00,2025-07-30T15:25:42,7,revise,active
5410AWP26351,ynyamdg,,,Bodffordd Turn,,,,Mona Industrial Park,,Holyhead Road,,,,after,,W,E0038733,Mona,,,,,,,true,UKOS,242059,375142,-4.368712289,53.249726042,BCT,MKD,OTH,,,,024,2000-01-01T00:00:00,2025-07-30T15:30:09,6,revise,active
5410AWP26352,ynyampj,,,Pont Cyttir,,,,,,Cyttir Road,,,,after,,SW,E0038695,Kingsland,Holyhead,,,,,,true,UKOS,225090,381419,-4.62622408,53.300762352,BCT,MKD,OTH,,,,024,2000-01-01T00:00:00,2025-07-30T15:31:01,5,revise,active
5410AWP26353,ynydamw,,,Bryn Erw Road,,,,,,Cyttir Road,,,,after,,NE,E0038636,Blackbridge,Holyhead,,,,,,true,UKOS,225474,381582,-4.620558075,53.302357239,BCT,MKD,OTH,,,,024,2000-01-01T00:00:00,2025-07-30T15:33:39,5,revise,active
5410AWP26354,ynyawma,,,Bro Celyn,,,,,,A5109,,,,before,,NW,E0038726,Llynfaes,,,,,,,true,UKOS,241073,378350,-4.385080302,53.278242555,BCT,MKD,OTH,,,,024,2000-01-01T00:00:00,2025-07-30T15:34:44,5,revise,active
5410AWP26355,ynyawjt,,,Glan-yr-afon Stores,,,,Glan-yr-afon Stores,,B5109,,,,o/s Car Park,,SE,E0038681,Glan-yr-afon,,,,,,,true,UKOS,239733,379130,-4.405552177,53.284844073,BCT,MKD,OTH,,,,024,2000-01-01T00:00:00,2025-07-30T15:35:15,4,revise,active
5410AWP26356,ynydmjw,,,Capel Ebenezer,,,,Trefor Crossroads,,B5109,,,,after,,W,E0038802,Trefor,,,,,,,true,UKOS,237400,380023,-4.440971109,53.292148367,BCT,MKD,OTH,,,,024,2000-01-01T00:00:00,2025-07-30T15:35:43,6,revise,active
5410AWP26360,ynydmwg,,,Valley Police Station,,,,Valley Police Station,,London Road,,,,opp,,NW,E0054363,Valley,,,,,,,true,UKOS,229041,379496,-4.565964125,53.284784562,BCT,MKD,OTH,,,,024,2000-01-01T00:00:00,2025-07-30T15:36:41,7,revise,active
5410AWP26361,ynydawg,,,Ysgol Llanfair,,,,Ysgol Morawelon,,Morawelon Road,,,,after,,E,N0075749,Morawelon,Holyhead,,,,,,true,UKOS,225375,382188,-4.622375685,53.307766047,BCT,MKD,OTH,,,,024,2000-01-01T00:00:00,2025-07-30T15:37:22,5,revise,active
5410AWP26362,ynydapt,,,Llanfawr Close,,,,,,Llanfawr Road,,,,not in use,,NW,E0038636,Blackbridge,Holyhead,,,,,,true,UKOS,225310,381952,-4.623220148,53.305625498,BCT,MKD,OTH,,,,024,2000-01-01T00:00:00,2025-07-30T15:38:36,5,revise,inactive
5410AWP26363,ynydapw,,,Llanarmon,,,,,,Ffordd Tudur,,,,o/s,,SW,E0038636,Blackbridge,Holyhead,,,,,,true,UKOS,225296,382005,-4.623459213,53.306096781,BCT,MKD,OTH,,,,024,2000-01-01T00:00:00,2025-07-30T15:39:49,5,revise,active
5410AWP26364,ynydamp,,,Llanfawr Cottage,,,,Llanfawr Cottage,,Bryn Glas Road,,,,opp,,W,E0038636,Blackbridge,Holyhead,,,,,,true,UKOS,225416,381919,-4.621612955,53.305364141,BCT,MKD,OTH,,,,024,2000-01-01T00:00:00,2025-07-30T15:41:04,7,revise,active
5410AWP26365,ynydatd,,,Prince of Wales,,,,Prince of Wales PH,,Lon Deg,,,,adj former,,SW,E0038636,Blackbridge,Holyhead,,,,,,true,UKOS,225545,381740,-4.619580696,53.303799362,BCT,MKD,OTH,,,,024,2000-01-01T00:00:00,2025-07-30T15:41:39,5,revise,active
5410AWQ26185,ynyawga,,,Dolmeinir,,,,,,B5111,,,,before,,NW,E0038718,Llangwyllog,,,,,,,true,UKOS,244670,378839,-4.331420405,53.283700857,BCT,MKD,OTH,,,,024,2000-01-01T00:00:00,2025-07-30T15:42:19,5,revise,active
5410AWQ26186,ynyadgj,,,Maesllwyn,,,,,,Tanybryn Road,,,,before,,NW,E0038759,Pentrefelin,Amlwch,,,,,,true,UKOS,243690,392429,-4.352820837,53.405465497,BCT,MKD,OTH,,,,024,2000-01-01T00:00:00,2025-07-30T15:48:44,5,revise,active
5410AWQ26187,ynyapjp,,,Post Office,,,,St Mary`s Church,,Market Square,,,,before,,SW,E0038704,Llanerchymedd,,,,,,,true,UKOS,241814,384152,-4.376870896,53.330571821,BCT,MKD,OTH,,,,024,2000-01-01T00:00:00,2025-07-30T15:49:15,6,revise,active
5410AWQ26188,ynyawgd,,,Dolmeinir,,,,,,B5111,,,,after,,SE,E0038718,Llangwyllog,,,,,,,true,UKOS,244678,378840,-4.331301003,53.283712183,BCT,MKD,OTH,,,,024,2000-01-01T00:00:00,2025-07-30T15:50:00,5,revise,active
5410AWQ26189,ynyajpg,,,Gadfa Crossroads,,Crossroads,,,,A5025,,,,after,,NW,E0038677,Gadfa,,,,,,,true,UKOS,246070,389944,-4.315838312,53.383842456,BCT,MKD,OTH,,,,024,2000-01-01T00:00:00,2025-07-30T15:51:31,8,revise,active
5410AWQ26190,ynyatwm,,,Bryn Aeron,,,,,,Maeshyfryd Road,,,,opp,,NE,E0054347,Llangefni,,,,,,,true,UKOS,246219,376005,-4.306834621,53.25869924,BCT,MKD,OTH,,,,024,2000-01-01T00:00:00,2025-07-30T15:52:18,4,revise,active
5410AWQ26191,ynyatwp,,,Pont Clai,,,,,,Maeshyfryd Road,,,,before,,N,E0054347,Llangefni,,,,,,,true,UKOS,246190,376186,-4.307356527,53.260316477,BCT,MKD,OTH,,,,024,2000-01-01T00:00:00,2025-07-30T15:53:16,3,revise,active
5410AWQ26192,ynyawad,,,Lon Las Bowling Green,,,,,,Church Terrace B5111,,,,before,,SW,E0054347,Llangefni,,,,,,,true,UKOS,246021,376086,-4.309839475,53.259369288,BCT,MKD,OTH,,,,024,2000-01-01T00:00:00,2025-07-30T15:55:06,5,revise,active
5410AWQ26193,ynyajgd,,,Capel Engedi,,Capel,,,,A4080,,,,nr,,SW,N0075741,Engedi,,,,,,,true,UKOS,236202,376178,-4.456944675,53.257249395,BCT,MKD,OTH,,,,024,2000-01-01T00:00:00,2025-07-30T16:00:13,7,revise,active
5410AWQ26196,ynydapj,,,Llanarmon,,,,,,Ffordd Tudur,,,,opp,,NE,E0038636,Blackbridge,Holyhead,,,,,,true,UKOS,225282,382016,-4.623675147,53.306190933,BCT,MKD,OTH,,,,024,2000-01-01T00:00:00,2025-07-31T08:26:50,5,revise,active
5410AWQ26199,ynyampm,,,Tan`r Efail Cottage,,,,,,Porthdafarch Road,,,,after,,SW,E0038695,Kingsland,Holyhead,,,,,,true,UKOS,224752,381487,-4.631328094,53.301265786,BCT,MKD,OTH,,,,024,2000-01-01T00:00:00,2025-07-31T08:27:34,3,revise,active
5410AWQ26200,ynyamta,,,Treseifion Estate Centre,,,,,,Treseifion Estate,,,,o/s 98,,SE,E0038695,Kingsland,Holyhead,,,,,,true,UKOS,224571,381594,-4.634100302,53.302166636,BCT,MKD,OTH,,,,024,2000-01-01T00:00:00,2025-07-31T08:33:39,4,revise,active
5410AWQ26201,ynyamtd,,,Treseifion Estate Entrance,,,,,,Treseifion Estate,,,,before,,E,E0038695,Kingsland,Holyhead,,,,,,true,UKOS,224465,381531,-4.635654328,53.301565824,BCT,MKD,OTH,,,,024,2000-01-01T00:00:00,2024-04-26T15:25:26,2,revise,active
5410AWQ26202,ynyampt,,,Tan`r Efai Cottage,,,,,,Porthdafarch Road,,,,before,,NE,E0038695,Kingsland,Holyhead,,,,,,true,UKOS,224747,381490,-4.631404697,53.301291069,BCT,MKD,OTH,,,,024,2000-01-01T00:00:00,2025-07-31T08:34:30,3,revise,active
5410AWQ26204,ynyamjg,,,Capel Ulo,,,,,,Cyttir Road,,,,before,,SW,E0038695,Kingsland,Holyhead,,,,,,true,UKOS,224964,381322,-4.628059348,53.299854319,BCT,MKD,OTH,,,,024,2000-01-01T00:00:00,2025-07-31T08:35:13,4,revise,active
5410AWQ26205,ynyampd,,,Kingsland Hill,,,,,,Kingsland Road,,,,o/s 1,,NW,E0038695,Kingsland,Holyhead,,,,,,true,UKOS,224918,381517,-4.628856439,53.301590067,BCT,MKD,OTH,,,,024,2000-01-01T00:00:00,2025-07-31T08:36:42,5,revise,active
5410AWQ26206,ynydatg,,,London Road PO,,,,London Road Post Office,,Lon Deg,,,,nr former,,SW,E0038636,Blackbridge,Holyhead,,,,,,true,UKOS,225509,381686,-4.62009064,53.303302619,BCT,MKD,OTH,,,,024,2000-01-01T00:00:00,2025-07-31T08:40:37,5,revise,active
5410AWQ26207,ynydjgm,,,Bryn Mor,,,,,,Rhoscolyn Road,,,,after,,SW,E0054357,Rhoscolyn,,,,,,,true,UKOS,226982,375746,-4.594775204,53.250447666,BCT,MKD,OTH,,,,024,2000-01-01T00:00:00,2025-07-31T08:45:58,5,revise,active
5410AWQ26209,ynyajgw,,,Anchorage Hotel Q,,,,Anchorage Hotel PH,,B4545,,,,not in use,,NE,N0071271,Pontrhydybont,,,,,,,true,UKOS,227475,378119,-4.588681414,53.271916766,BCT,CUS,OTH,,,,024,2000-01-01T00:00:00,2025-07-31T08:48:05,4,revise,inactive
5410AWQ26210,ynyajmt,,,Capel Sardis,,,,Capel Sardis,,B4545,,,,after,,NE,N0071271,Pontrhydybont,,,,,,,true,UKOS,227840,378262,-4.583291365,53.273319502,BCT,MKD,OTH,,,,024,2000-01-01T00:00:00,2025-07-31T08:51:22,4,revise,active
5410AWQ26211,ynyagta,,,Tollgate,,,,Caergeiliog Tollgate,,Holyhead Road,,,,before,,NW,E0038652,Caergeiliog,,,,,,,true,UKOS,230504,378578,-4.543552197,53.277015601,BCT,MKD,OTH,,,,024,2000-01-01T00:00:00,2025-07-31T08:52:06,4,revise,active
5410AWQ26212,ynyatmp,,,RAF Valley Car Park,,,,RAF Valley Airfield,,Grounds,,,,in,,NE,E0038713,Llanfihangel yn Nhowyn,,,,,,,true,UKOS,230957,376342,-4.535576418,53.257081111,BCT,CUS,OTH,,,,024,2000-01-01T00:00:00,2025-07-31T08:56:04,3,revise,active
5410AWQ26215,ynyatpd,,,Penrhyn Close,,,,RAF Valley Medical Centre,,Minffordd Road,,,,before,,SW,E0038713,Llanfihangel yn Nhowyn,,,,,,,true,UKOS,231602,376755,-4.526136082,53.260990443,BCT,MKD,OTH,,,,024,2000-01-01T00:00:00,2025-07-31T08:58:54,7,revise,active
5410AWQ26217,ynyapja,,,Glan-aber,,,,,,Side Road,,,,not in use,,SE,E0054338,Llaneilian,,,,,,,true,UKOS,245882,392279,-4.319803333,53.404763264,BCT,MKD,OTH,,,,024,2000-01-01T00:00:00,2025-07-31T09:02:39,4,revise,inactive
5410AWQ26218,ynydgwm,,,Allt Nebo,,,,Allt Nebo,,Main Road,,,,not in use,,SE,E0038760,Penysarn,,,,,,,true,UKOS,246227,390565,-4.313782617,53.389470125,BCT,MKD,OTH,,,,024,2000-01-01T00:00:00,2025-07-31T09:07:20,4,revise,inactive
5410AWQ26219,ynydmad,,,Perth-y-Paen,,,,,,Maes Derwydd,,,,o/s 92,,SW,E0054347,Llangefni,,,,,,,true,UKOS,245039,375968,-4.324490426,53.258023463,BCT,MKD,OTH,,,,024,2000-01-01T00:00:00,2025-07-31T09:09:21,3,revise,active
5410AWQ26221,ynydjwj,,,Graig Las,,,,,,Maes Derwydd,,,,after,,SE,E0054347,Llangefni,,,,,,,true,UKOS,244973,375801,-4.325397543,53.256504288,BCT,MKD,OTH,,,,024,2000-01-01T00:00:00,2025-07-31T09:11:40,3,revise,active
5410AWQ26223,ynyawaj,,,Ty`n Coed,,,,,,Ty`n Coed,,,,o/s 36,,SE,E0054347,Llangefni,,,,,,,true,UKOS,246270,376159,-4.306145191,53.260097174,BCT,MKD,OTH,,,,024,2000-01-01T00:00:00,2025-07-31T09:12:30,6,revise,active
5410AWQ26224,ynyawam,,,Ty`n Coed Uchaf,,,,,,Ty`n Coed Uchaf,,,,after,,NW,E0054347,Llangefni,,,,,,,true,UKOS,246306,376052,-4.305554251,53.259146589,BCT,MKD,OTH,,,,024,2000-01-01T00:00:00,2025-07-31T09:13:50,4,revise,active
5410AWQ26225,ynyajad,,,Hen Ysgol Henblas,,,,Hen Ysgol Henblas,,B4422,,,,o/s,,SW,E0038665,Cerrigceinwen,,,,,,,true,UKOS,242485,373185,-4.361365005,53.232276576,BCT,MKD,OTH,,,,024,2000-01-01T00:00:00,2025-07-31T09:20:50,4,revise,active
5410AWQ26229,ynyadtj,,,Ysgol Gornowy Owen,,,,,,B5108,,,,after,,SE,E0038634,Benllech,,,,,,,true,UKOS,251718,382861,-4.227669895,53.321845435,BCT,MKD,OTH,,,,024,2000-01-01T00:00:00,2025-07-31T09:33:07,3,revise,active
5410AWQ26232,ynydjmd,,,Cefniwrch,,,,,,B5110,,,,at,,NE,E0038778,Rhosmeirch,,,,,,,true,UKOS,247715,379119,-4.285919732,53.287099601,BCT,MKD,OTH,,,,024,2000-01-01T00:00:00,2025-07-31T09:38:41,5,revise,active
5410AWQ26233,ynydjmg,,,Cefniwrch,,,,,,B5110,,,,at,,SW,E0038778,Rhosmeirch,,,,,,,true,UKOS,247719,379116,-4.28585834,53.287073806,BCT,MKD,OTH,,,,024,2000-01-01T00:00:00,2025-07-31T09:39:24,4,revise,active
5410AWQ26234,ynyatjt,,,Old Post Office,,,,Ty Bach Gwyn,,Main Road,,,,o/s,,NW,E0038709,Llanfairynghornwy,,,,,,,true,UKOS,232156,390954,-4.525362203,53.388677053,BCT,MKD,OTH,,,,024,2000-01-01T00:00:00,2025-07-31T10:10:13,7,revise,active
5410AWQ26235,ynyatjp,,,Hen-dy,,,,,,Main Road,,,,not in use,,NE,E0038709,Llanfairynghornwy,,,,,,,true,UKOS,230490,391462,-4.550659911,53.392706408,BCT,MKD,OTH,,,,024,2000-01-01T00:00:00,2025-07-31T10:13:26,4,revise,inactive
5410AWQ26239,ynyajga,,,Water Mill,,,,,,Water Mill Road,,,,not in use,,NE,E0038674,Elim,,,,,,,true,UKOS,235039,384454,-4.478663149,53.331214621,BCT,MKD,OTH,,,,024,2000-01-01T00:00:00,2025-07-31T10:17:03,4,revise,inactive
5410AWQ26240,ynyajdw,,,Capel Horeb,,,,Capel Horeb,,Main Road,,,,o/s,,SE,E0038674,Elim,,,,,,,true,UKOS,235477,384905,-4.472326816,53.335401132,BCT,MKD,OTH,,,,024,2000-01-01T00:00:00,2025-07-31T10:17:36,6,revise,active
5410AWQ26242,ynyagwa,,,Capel Carmel,,Capel,,,,B5112,,,,after,,SW,E0038658,Carmel,,,,,,,true,UKOS,238829,382322,-4.420720806,53.313231648,BCT,CUS,OTH,,,,024,2000-01-01T00:00:00,2025-07-31T10:18:07,7,revise,active
5410AWQ26243,ynyapaw,,,Ponc-y-Felin,,,,,,Main Road,,,,after,,SE,E0054336,Llanddona,,,,,,,true,UKOS,257801,379605,-4.134954446,53.294268459,BCT,MKD,OTH,,,,024,2000-01-01T00:00:00,2025-07-31T10:23:21,5,revise,active
5410AWQ26251,ynydgjm,,,Coleg Menai,,,,Coleg Menai,,Grounds,,,,at,,W,E0054347,Llangefni,,,,,,,true,UKOS,247096,375771,-4.293586188,53.256846553,BCT,MKD,OTH,,,,024,2000-01-01T00:00:00,2025-07-31T10:24:48,5,revise,active
5410AWQ26254,ynyagwg,,,Pentreheulyn Turn,,,,,,Crow Road,,,,before,,NW,N0071260,Carreglefn,,,,,,,true,UKOS,238983,389679,-4.422155888,53.379353443,BCT,MKD,OTH,,,,024,2000-01-01T00:00:00,2025-07-31T10:25:51,4,revise,active
5410AWQ26256,ynyagpd,,,Burwen Old Shop,,Old Shop,,,,Burwen Road,,,,o/s,,SE,E0038649,Burwen,,,,,,,true,UKOS,242122,393233,-4.376788527,53.41221458,BCT,MKD,OTH,,,,024,2000-01-01T00:00:00,2025-07-31T10:27:37,7,revise,active
5410AWQ26257,ynydjat,,,Newry-Fawr,,,,,,Newry Road,,,,before Toilets,,NE,E0054333,Holyhead,,,,,,,true,UKOS,224581,383135,-4.634802854,53.316006872,BCT,MKD,OTH,,,,024,2000-01-01T00:00:00,2025-07-31T10:36:18,3,revise,active
5410AWQ26258,ynydjaw,,,Porth-y-felin Post Office,,,,,,Porth-y-felin Road,,,,opp,,SW,E0038767,Porth-y-Felin,Holyhead,,,,,,true,UKOS,224039,383102,-4.642911416,53.315530666,BCT,MKD,OTH,,,,024,2000-01-01T00:00:00,2025-07-31T10:37:10,5,revise,active
5410AWQ26263,ynyamgp,,,Holyhead Railway Station,,,,Holyhead Railway Station,,Victoria Road,,,,before,,N,E0054333,Holyhead,,,,,,,true,UKOS,224704,382183,-4.632432051,53.307494848,BCT,MKD,OTH,,,,024,2000-01-01T00:00:00,2025-07-31T10:37:58,8,revise,active
5410AWQ26264,ynydmdt,,,British Terrace,,,,,,Alderley Terrace,,,,before,,NE,E0054333,Holyhead,,,,,,,true,UKOS,224377,382582,-4.637555348,53.310973755,BCT,MKD,OTH,,,,024,2000-01-01T00:00:00,2025-07-31T10:38:49,3,revise,active
5410AWQ26265,ynydatm,,,Holyhead Arriva Depot,,,,,,London Road,,,,nr former,,NW,E0038636,Blackbridge,Holyhead,,,,,,true,UKOS,225192,381761,-4.624883802,53.303871518,BCT,MKD,OTH,,,,024,2000-01-01T00:00:00,2025-07-31T10:39:30,5,revise,active
5410AWQ26267,ynyampa,,,Forresters,,,,Forresters PH,,Kingsland Road,,,,after,,SE,E0038695,Kingsland,Holyhead,,,,,,true,UKOS,224857,381688,-4.629865037,53.303100764,BCT,MKD,OTH,,,,024,2000-01-01T00:00:00,2025-07-31T10:39:59,5,revise,active
5410AWQ26268,ynyamjt,,,Forresters,,,,Forresters PH,,Kingsland Road,,,,before,,NW,E0038695,Kingsland,Holyhead,,,,,,true,UKOS,224859,381667,-4.629823463,53.302912861,BCT,MKD,OTH,,,,024,2000-01-01T00:00:00,2025-07-31T10:40:30,5,revise,active
5410AWQ26270,ynyagpw,,,Tollgate,,,,Caergeiliog Tollgate,,Holyhead Road,,,,opp,,SE,E0038652,Caergeiliog,,,,,,,true,UKOS,230490,378594,-4.543770479,53.277154802,BCT,MKD,OTH,,,,024,2000-01-01T00:00:00,2025-07-31T10:41:03,4,revise,active
5410AWQ26271,ynydgad,,,Ysgol Morswyn,,,,,,Grounds,,,,in,,SW,E0038636,Blackbridge,Holyhead,,,,,,true,UKOS,225334,381520,-4.622622497,53.301754368,BCT,MKD,OTH,,,,024,2000-01-01T00:00:00,2025-07-31T10:41:38,4,revise,active
5410AWQ26272,ynydmwj,,,Ysgol y Dyffryn,,,,Ysgol y Dyffryn,,Lon Spencer,,,,o/s,,N,E0054363,Valley,,,,,,,true,UKOS,228815,379108,-4.569141573,53.281232064,BCT,MKD,OTH,,,,024,2000-01-01T00:00:00,2025-07-31T10:42:23,3,revise,active
5410AWQ26273,ynyagap,,,Queen`s Head,,,,Queen`s Head PH,,Bryn Du Road,,,,o/s,,SE,E0038644,Bryn-Du,,,,,,,true,UKOS,234545,372644,-4.479922893,53.225003085,BCT,MKD,OTH,,,,024,2000-01-01T00:00:00,2025-07-31T10:43:27,4,revise,active
5410AWQ26275,ynyagdt,,,Well Street Q,,,,,,High Street,,,,not in use,,N,E0054330,Bryngwran,,,,,,,true,UKOS,234774,377628,-4.479083532,53.269832572,BCT,CUS,OTH,,,,024,2000-01-01T00:00:00,2025-07-31T10:45:05,4,revise,inactive
5410AWQ26276,ynydmag,,,Ysgol Corn Hir,,,,,,Nant-y-Pandy,,,,o/s,,SW,E0054347,Llangefni,,,,,,,true,UKOS,245094,376367,-4.323861023,53.261623096,BCT,MKD,OTH,,,,024,2000-01-01T00:00:00,2025-07-31T10:46:12,3,revise,active
5410AWQ26277,ynyawpa,,,Marian-glas Turn,,,,,,A5025,,,,before,,NW,E0038729,Marianglas,,,,,,,true,UKOS,250865,384745,-4.241352877,53.338527374,BCT,MKD,OTH,,,,024,2000-01-01T00:00:00,2025-07-31T10:46:43,4,revise,active
5410AWQ26278,ynyawpd,,,Marian-glas Turn,,,,,,A5025,,,,after,,SE,E0038729,Marianglas,,,,,,,true,UKOS,250891,384731,-4.240956109,53.338408961,BCT,MKD,OTH,,,,024,2000-01-01T00:00:00,2025-07-31T10:47:53,4,revise,active
5410AWQ26280,ynyadpg,,,Rhostrefor Hotel,,,,Rhostrefor Hotel,,Amlwch Road,,,,nr,,NE,E0038634,Benllech,,,,,,,true,UKOS,251854,382936,-4.225664842,53.322557172,BCT,MKD,OTH,,,,024,2000-01-01T00:00:00,2025-07-31T10:49:50,3,revise,active
5410AWQ26282,ynyadtg,,,Ty-Newydd,,,,,,Amlwch Road,,,,o/s,,NW,E0038634,Benllech,,,,,,,true,UKOS,251450,383849,-4.232153514,53.330644321,BCT,MKD,OTH,,,,024,2000-01-01T00:00:00,2025-07-31T11:00:05,4,revise,active
5410AWQ26283,ynydmta,,,Fair Acre,,,,Bodafon Caravan Site,,Amlwch Road,,,,nr,,SE,E0038634,Benllech,,,,,,,true,UKOS,251517,383785,-4.231118239,53.330088295,BCT,MKD,OTH,,,,024,2000-01-01T00:00:00,2025-07-31T11:00:36,5,revise,active
5410AWQ26286,ynyapmd,,,Post Office,,,,Llanfachraeth Post Office,,A5025,,,,o/s,,SE,E0054340,Llanfachraeth,,,,,,,true,UKOS,231519,382406,-4.530377708,53.311714448,BCT,MKD,OTH,,,,024,2000-01-01T00:00:00,2025-07-31T11:01:23,7,revise,active
5410AWQ26287,ynydpaw,,,Valley Crossroads Q,,,,,,A5025,,,,not in use,,SW,E0054363,Valley,,,,,,,true,UKOS,229471,379283,-4.559406668,53.283015007,BCT,MKD,OTH,,,,024,2000-01-01T00:00:00,2025-07-31T11:06:56,5,revise,inactive
5410AWQ26288,ynydawm,,,RTZ,,,,RTZ Factory,,Grounds,,,,in,,SE,E0038754,Penrhos,,,,,,,true,UKOS,226085,381166,-4.611171268,53.298822829,BCT,MKD,OTH,,,,024,2000-01-01T00:00:00,2025-07-31T11:07:29,5,revise,active
5410AWQ26290,ynyapma,,,Post Office,,,,Llanfachraeth Post Office,,A5025,,,,opp,,NW,E0054340,Llanfachraeth,,,,,,,true,UKOS,231502,382421,-4.530640579,53.311843736,BCT,MKD,OTH,,,,024,2000-01-01T00:00:00,2025-07-31T11:08:17,7,revise,active
5410AWQ26291,ynydpam,,,Valley Crossroads,,,,Boston Terrace,,London Road,,,,after,,NW,E0054363,Valley,,,,,,,true,UKOS,229375,379306,-4.560857455,53.283190641,BCT,MKD,OTH,,,,024,2000-01-01T00:00:00,2025-07-31T11:08:50,5,revise,active
5410AWQ26293,ynyadwt,,,Bodedern School,,,,Bodedern Vicarage,,London Road,,,,o/s,,NE,E0054327,Bodedern,,,,,,,true,UKOS,233220,380051,-4.503634157,53.291100339,BCT,MKD,OTH,,,,024,2000-01-01T00:00:00,2025-07-31T11:09:28,7,revise,active
5410AWQ26384,ynydada,,,Fron Farm Q,,,,Fron Farm,,Pentraeth Road,,,,not in use,,NW,E0054353,Menai Bridge,,,,,,,true,UKOS,254639,372692,-4.179197747,53.231315787,BCT,MKD,OTH,,,,024,2000-01-01T00:00:00,2025-07-31T11:10:30,4,revise,inactive
5410BODORGN0,,,,Bodorgan Rail Station,,,,,,Unnamed Road,,,,Entrance,,,E0054329,Bodorgan,,,,,,,false,UKOS,238734,370182,-4.416009332,53.204198201,RSE,,,,,,024,2014-03-07T11:49:27,2025-06-11T10:25:55,2,revise,active
5410HLYH0,,,,Holyhead Rail Station (Main Entrance),,,,,,,,,,Main Entrance,,,E0054333,Holyhead,,,,,,,false,UKOS,224766,382166,-4.631503614,53.307388235,RSE,,,,,,024,2014-03-10T14:29:27,2025-07-31T11:14:13,4,revise,active
5410HLYH1,,,,Holyhead Rail Station,,,,,,A55,,,,Side Entrance,,,E0054333,Holyhead,,,,,,,false,UKOS,224804,382174,-4.630938346,53.307472645,RSE,,,,,,024,2014-03-10T14:29:44,2025-07-31T11:13:23,3,revise,active
5410HLYH2,,,,Holyhead Rail Station,,,,,,A55,,,,Rear Entrance,,,E0054333,Holyhead,,,,,,,false,UKOS,224950,382346,-4.628844475,53.309065401,RSE,,,,,,024,2014-03-10T14:30:26,2025-07-31T11:12:44,3,revise,active
5410HLYH3,,,,Holyhead Rail Station,,,,,,A55,,,,NE Entrance,,,E0054333,Holyhead,,,,,,,false,UKOS,224970,382350,-4.628546834,53.30910793,RSE,,,,,,024,2014-03-10T14:31:39,2025-07-31T11:15:25,3,revise,active
5410LFPW0,,,,Llanfairpwll Rail Station,,,,,,Ffordd Caergybi,,,,Entrance,,,E0038708,Llanfairpwllgwyngyll,,,,,,,false,UKOS,252575,371599,-4.209602579,53.220946438,RSE,,,,,,024,2014-03-07T11:50:46,2025-07-31T11:16:09,3,revise,active
5410RHOSNGR0,,,,Rhosneigr Rail Station,,,,,,Station Road,,,,North Entrance,,,E0038779,Rhosneigr,,,,,,,false,UKOS,232851,373793,-4.505896881,53.234809141,RSE,,,,,,024,2014-03-07T11:52:18,2025-07-31T11:16:50,3,revise,active
5410RHOSNGR1,,,,Rhosneigr Rail Station,,,,,,Station Road,,,,South Entrance,,,E0038779,Rhosneigr,,,,,,,false,UKOS,232846,373780,-4.505964898,53.234690821,RSE,,,,,,024,2014-03-07T11:53:07,2025-07-31T11:17:27,3,revise,active
5410TYCROES0,,,,Ty Croes Rail Station,,,,,,Unnamed Road,,,,East Entrance,,,E0038805,Ty Croes,,,,,,,false,UKOS,234948,372361,-4.473766841,53.222604906,RSE,,,,,,024,2014-03-07T11:54:55,2025-07-31T11:18:00,3,revise,active
5410TYCROES1,,,,Ty Croes Rail Station,,,,,,Unnamed Road,,,,West Entrance,,,E0038805,Ty Croes,,,,,,,false,UKOS,234928,372348,-4.474059389,53.222481941,RSE,,,,,,024,2014-03-07T11:55:28,2025-06-11T10:25:57,2,revise,active
5410VALLEY0,,,,Valley Rail Station,,,,,,Station Road,,,,East Entrance,,,E0054363,Valley,,,,,,,false,UKOS,229222,379105,-4.563065299,53.281356157,RSE,,,,,,024,2014-03-07T11:59:38,2025-07-31T11:18:42,3,revise,active
5410VALLEY1,,,,Valley Rail Station,,,,,,Station Road,,,,West Entrance,,,E0054363,Valley,,,,,,,false,UKOS,229213,379096,-4.563195311,53.281272437,RSE,,,,,,024,2014-03-07T12:00:37,2025-06-11T10:25:56,2,revise,active
5410WDB21790,ynydpdw,,,Lon Brynteg,,,,Pilots Loft,,Beaumaris Road,,,,before,,SW,E0038702,Llandegfan,,,,,,,false,UKOS,257094,373463,-4.142792343,53.238907904,BCT,MKD,OTH,,,,024,2000-01-01T00:00:00,2024-04-26T15:25:49,3,revise,active
5410WDB21791,ynydpga,,,Gazelle Hotel,,,,Gazelle Hotel,,Beaumaris Road,,,,before,,SW,E0038702,Llandegfan,,,,,,,false,UKOS,258006,374084,-4.12941413,53.244730896,BCT,MKD,OTH,,,,024,2000-01-01T00:00:00,2025-07-31T11:22:11,5,revise,active
5410WDB21792,ynydpgd,,,Bron Haul,,,,,,Lon Ganol,,,,opp,,SW,E0038702,Llandegfan,,,,,,,false,UKOS,256620,373600,-4.149951093,53.240010648,BCT,MKD,OTH,,,,024,2000-01-01T00:00:00,2025-07-31T11:21:30,4,revise,active
5410WDB21793,ynydpgj,,,Bron Haul,,,,,,Lon Ganol,,,,before,,NE,E0038702,Llandegfan,,,,,,,false,UKOS,256601,373594,-4.150232878,53.239951619,BCT,MKD,OTH,,,,024,2000-01-01T00:00:00,2025-07-31T11:20:50,4,revise,active
5410WDB21794,ynydpgm,,,Llanfair PG,,,,Llanfair PG Post Office,,Holyhead Road,,,,opp,,NW,E0038708,Llanfairpwllgwyngyll,,,,,,,false,UKOS,252801,371611,-4.206212288,53.221099605,BCT,MKD,OTH,,,,024,2000-01-01T00:00:00,2025-07-31T11:23:36,5,revise,active
5410WDB21800,ynydpgp,,,Industrial Estate,,,,Pentraeth Industrial Estate,,A5025,,,,after,,SW,E0054356,Pentraeth,,,,,,,false,UKOS,252178,378894,-4.218920414,53.286342758,BCT,MKD,OTH,,,,024,2000-01-01T00:00:00,2025-07-31T11:24:15,4,revise,active
5410WDB21801,ynydpgt,,,Saron,,,,Bryn Tirion Hotel,,A5025,,,,before Hotel,,NE,E0038773,Red Wharf Bay,,,,,,,true,UKOS,252406,380851,-4.216413293,53.303984072,BCT,MKD,OTH,,,,024,2000-01-01T00:00:00,2025-07-31T11:24:48,6,revise,active
5410WDB21802,ynydpja,,,Refail Newydd,,,,The Cherries,,Amlwch Road,,,,nr,,SE,E0038634,Benllech,,,,,,,true,UKOS,251839,383270,-4.226046081,53.325552921,BCT,MKD,OTH,,,,024,2000-01-01T00:00:00,2025-07-31T11:25:24,4,revise,active
5410WDB21803,ynydpjd,,,Benllech Health Centre,,Health Centre,,,,Bangor Road,,,,after,,NE,E0038634,Benllech,,,,,,,true,UKOS,251764,382603,-4.226859,53.319536429,BCT,MKD,OTH,,,,024,2000-01-01T00:00:00,2025-07-31T12:13:56,6,revise,active
5410WDB21804,ynydpjg,,,Panton Arms Hotel,,,,Panton Arms Hotel PH,,B5109,,,,after,,NE,E0054356,Pentraeth,,,,,,,true,UKOS,252406,378434,-4.215289193,53.282274603,BCT,MKD,OTH,,,,024,2000-01-01T00:00:00,2025-07-31T12:24:05,4,revise,active
5410WDB21857,ynydpjm,,,Nant yr Odyn,,,,,,A5,,,,after,,SE,E0038780,Rhostrehwfa,,,,,,,true,UKOS,244957,373703,-4.324615061,53.237656676,BCT,MKD,OTH,,,,024,2000-01-01T00:00:00,2025-07-31T12:31:32,6,revise,active
5410WDB21858,ynydpjp,,,Nant yr Odyn,,,,,,A5,,,,before,,NW,E0038780,Rhostrehwfa,,,,,,,true,UKOS,244955,373693,-4.324640133,53.237566278,BCT,MKD,OTH,,,,024,2000-01-01T00:00:00,2025-07-31T12:29:18,5,revise,active
5410WDB21859,ynydpjt,,,Meddygfa Star,,,,,,Holyhead Road,,,,o/s Car Wash,,SW,E0038678,Gaerwen,,,,,,,true,UKOS,250107,371996,-4.246710575,53.223804076,BCT,MKD,OTH,,,,024,2000-01-01T00:00:00,2025-07-31T12:40:25,4,revise,active
5410WDB21860,ynydpjw,,,Meddygfa Star,,,,,,Holyhead Road,,,,opp Car Wash,,NE,E0038678,Gaerwen,,,,,,,true,UKOS,250124,372006,-4.246460849,53.223898694,BCT,MKD,OTH,,,,024,2000-01-01T00:00:00,2025-07-31T12:41:34,4,revise,active
5410WDB21863,ynydpmp,,,Industrial Estate,,,,,,Induistrial Estate Road,,,,o/s 2 Sisters,,SW,E0054347,Llangefni,,,,,,,true,UKOS,246138,375039,-4.307580595,53.249999638,BCT,MKD,OTH,,,,024,2000-01-01T00:00:00,2025-07-31T12:42:51,6,revise,active
5410WDB21864,ynydpmt,,,Gwalchmai Clock,,,,War Memorial,,London Road,,,,after,,W,E0038684,Gwalchmai Uchaf,,,,,,,true,UKOS,238797,376289,-4.418137862,53.259045879,BCT,MKD,OTH,,,,024,2000-01-01T00:00:00,2025-07-31T12:44:13,6,revise,active
5410WDB21865,ynydpmw,,,Waverley,,,,,,Crown Street,,,,before 51,,NE,E0038684,Gwalchmai Uchaf,,,,,,,true,UKOS,239154,375725,-4.412505885,53.254089098,BCT,MKD,OTH,,,,024,2000-01-01T00:00:00,2025-07-31T12:46:30,5,revise,active
5410WDB21866,ynydpta,,,Hendre Fawr,,,,,,Ffordd Caergybi,,,,after,,SE,E0038780,Rhostrehwfa,,,,,,,true,UKOS,242907,374658,-4.355775164,53.245630926,BCT,MKD,OTH,,,,024,2000-01-01T00:00:00,2025-07-31T12:47:21,6,revise,active
5410WDB21867,ynydptd,,,Ysgol Ganradd Bodffordd,,Ysgol,,,,Minffordd,,,,after,,SW,E0054328,Bodffordd,,,,,,,true,UKOS,242600,376734,-4.361398913,53.264180213,BCT,MKD,OTH,,,,024,2000-01-01T00:00:00,2025-07-31T12:49:58,9,revise,active
5410WDB21868,ynydptg,,,Hendre Fawr,,,,,,Ffordd Caergybi,,,,before,,NW,E0038780,Rhostrehwfa,,,,,,,true,UKOS,242900,374652,-4.355877013,53.245574966,BCT,MKD,OTH,,,,024,2000-01-01T00:00:00,2025-07-31T12:50:45,6,revise,active
5410WDB21887,ynydptj,,,Clwch,,,,,,B5111,,,,after,,NE,E0038778,Rhosmeirch,,,,,,,true,UKOS,245879,377500,-4.312651922,53.272027787,BCT,MKD,OTH,,,,024,2000-01-01T00:00:00,2025-07-31T13:13:52,4,revise,active
5410WDB21888,ynydptm,,,Nant Turnpike,,,,,,A5114,,,,after Roundabout,,NE,E0038780,Rhostrehwfa,,,,,,,true,UKOS,245025,373931,-4.323708045,53.239724295,BCT,MKD,OTH,,,,024,2000-01-01T00:00:00,2025-07-31T13:15:02,3,revise,active
5410WDB21927,ynydptp,,,Post Office,,,,Bryngwran Post Office,,High Street,,,,after Post Box,,SE,E0054330,Bryngwran,,,,,,,false,UKOS,234971,377557,-4.476095605,53.269256325,BCT,MKD,OTH,,,,024,2000-01-01T00:00:00,2025-07-31T13:15:53,6,revise,active
5410WDB21928,ynydptw,,,Crown Hotel,,,,St Edeyrn`s Church,,Church Street,,,,o/s,,SE,E0054327,Bodedern,,,,,,,false,UKOS,233399,380413,-4.501141617,53.294412052,BCT,MKD,OTH,,,,024,2000-01-01T00:00:00,2025-07-31T13:16:34,5,revise,active
5410WDB21929,ynydpwa,,,Machraeth View,,,,Machraeth View,,A5025,,,,after,,NW,E0054340,Llanfachraeth,,,,,,,false,UKOS,231542,382358,-4.530007341,53.311290731,BCT,MKD,OTH,,,,024,2000-01-01T00:00:00,2025-07-31T13:17:38,4,revise,active
5410WDB21930,ynydpwd,,,Garth,,,,,,A5025,,,,nr,,SW,E0038720,Llanrhuddlad,,,,,,,false,UKOS,233163,389008,-4.509207524,53.37152127,BCT,MKD,OTH,,,,024,2000-01-01T00:00:00,2025-07-31T13:18:32,3,revise,active
5410WDB21931,ynydpwg,,,Cemaes Surgery,,,,Cemaes War Memorial,,High Street,,,,o/s,,SW,E0038663,Cemaes Bay,,,,,,,false,UKOS,237027,393195,-4.453348822,53.410323655,BCT,MKD,OTH,,,,024,2000-01-01T00:00:00,2025-07-31T13:19:33,6,revise,active
5410WDB21973,ynydpwj,,,Caergeiliog Foundation School,,,,,,Holyhead Road,,,,before,,NE,E0038652,Caergeiliog,,,,,,,false,UKOS,231226,378347,-4.532612588,53.275171617,BCT,MKD,OTH,,,,024,2000-01-01T00:00:00,2025-07-31T13:25:48,7,revise,active
5410WDB21974,ynydpwm,,,Minffordd Road,,,,,,Minffordd Road,,,,o/s 14,,SW,E0038713,Llanfihangel yn Nhowyn,,,,,,,false,UKOS,232259,377611,-4.516748336,53.268890179,BCT,MKD,OTH,,,,024,2000-01-01T00:00:00,2025-07-31T13:29:49,4,revise,active
5410WDB21975,ynydpwp,,,St Michael`s Church,,,,,,Minffordd Road,,,,before,,SW,E0038713,Llanfihangel yn Nhowyn,,,,,,,false,UKOS,232146,377483,-4.518373394,53.267704969,BCT,MKD,OTH,,,,024,2000-01-01T00:00:00,2025-07-31T13:30:46,4,revise,active
5410WDB21976,ynydpwt,,,St Michael`s Church,,,,Bull Hotel,,London Road,,,,before,,SE,E0054363,Valley,,,,,,,false,UKOS,229243,379388,-4.562879392,53.283884463,BCT,MKD,OTH,,,,024,2000-01-01T00:00:00,2025-07-31T13:33:23,5,revise,active
5410WDB21979,ynydtad,,,Cob,,,,,,Holyhead Road,,,,before,,NW,E0054363,Valley,,,,,,,false,UKOS,228565,379761,-4.5732398,53.287014972,BCT,MKD,OTH,,,,024,2000-01-01T00:00:00,2025-07-31T13:34:26,4,revise,active
5410WDB21980,ynydtag,,,Lon Deg,,,,,,London Road,,,,after,,NW,E0038636,Blackbridge,Holyhead,,,,,,false,UKOS,225435,381687,-4.621200454,53.30328721,BCT,MKD,OTH,,,,024,2000-01-01T00:00:00,2025-07-31T13:38:34,5,revise,active
5410WDB21981,ynydtaj,,,Llys Watling,,,,,,London Road,,,,o/s 39,,NW,E0038636,Blackbridge,Holyhead,,,,,,false,UKOS,224992,381900,-4.627958367,53.305048993,BCT,MKD,OTH,,,,024,2000-01-01T00:00:00,2025-07-31T13:39:24,7,revise,active
5410WDB21982,ynydtam,,,Llys Watling,,,,,,London Road,,,,opp 39,,SE,E0038636,Blackbridge,Holyhead,,,,,,false,UKOS,225028,381879,-4.627407122,53.304872326,BCT,CUS,OTH,,,,024,2000-01-01T00:00:00,2025-07-31T13:47:38,6,revise,active
5410WDB21983,ynydtap,,,Ffordd Beibio,,,,Morawelon Close,,Ffordd Beibio,,,,opp Morawelon Close,,SE,N0075749,Morawelon,Holyhead,,,,,,false,UKOS,225406,382335,-4.621991878,53.309096223,BCT,MKD,OTH,,,,024,2000-01-01T00:00:00,2025-07-31T13:48:12,5,revise,active
5410WDB21984,ynydtat,,,Ffordd Beibio,,,,Morawelon Close,,Ffordd Beibio,,,,o/s Morawelon Close,,NW,N0075749,Morawelon,Holyhead,,,,,,false,UKOS,225402,382329,-4.622048542,53.309041028,BCT,CUS,OTH,,,,024,2000-01-01T00:00:00,2025-07-31T13:48:57,5,revise,active
5410WDB21985,ynydtaw,,,Penrhyngeiriol,,,,,,Lon St Ffraid,,,,before,,SE,E0054360,Trearddur,,,,,,,false,UKOS,225191,380070,-4.62396733,53.288687233,BCT,CUS,OTH,,,,024,2000-01-01T00:00:00,2025-07-31T13:49:32,4,revise,active
5410WDB21986,ynydtda,,,Beach Car Park,,,,Old Police House,,Lon St Ffraid,,,,opp,,SE,E0054360,Trearddur,,,,,,,false,UKOS,225752,378909,-4.614923615,53.278442403,BCT,MKD,OTH,,,,024,2000-01-01T00:00:00,2025-07-31T13:53:00,7,revise,active
5410WDB21987,ynydtdg,,,Copperfield Close,,,,,,Plas Gwyn,,,,after,,NE,N0071271,Pontrhydybont,,,,,,,false,UKOS,228143,378503,-4.578882755,53.275581907,BCT,MKD,OTH,,,,024,2000-01-01T00:00:00,2025-07-31T14:00:22,5,revise,active
5410WDB21988,ynydtdj,,,Newborough Forest,,,,,,A4080,,,,after,,NW,E0038739,Newborough,,,,,,,false,UKOS,241283,366976,-4.376267966,53.176154887,BCT,MKD,OTH,,,,024,2000-01-01T00:00:00,2025-07-31T14:01:03,4,revise,active
5410WDB21989,ynydtdm,,,Llwyn Helyg,,,,,,Chapel Street,,,,o/s,,SE,E0038739,Newborough,,,,,,,false,UKOS,242569,365494,-4.356314264,53.163226759,BCT,MKD,OTH,,,,024,2000-01-01T00:00:00,2025-07-31T14:05:03,5,revise,active
5410WDB21990,ynydtdp,,,Bird World Aviaries,,,,Bird World Aviaries,,A4080,,,,nr,,SE,E0038673,Dwyran,,,,,,,false,UKOS,244284,365562,-4.330717693,53.164342066,BCT,MKD,OTH,,,,024,2000-01-01T00:00:00,2025-07-31T14:06:04,4,revise,active
5410WDB21991,ynydtdt,,,Tan-y-Capel,,,,,,Main Road,,,,after,,W,E0054335,Llanddaniel Fab,,,,,,,false,UKOS,249428,370509,-4.256170407,53.210255952,BCT,MKD,OTH,,,,024,2000-01-01T00:00:00,2025-07-31T14:53:21,4,revise,active
5410WDB21992,ynydtdw,,,Tan-y-Capel,,,,,,Main Road,,,,before,,E,E0054335,Llanddaniel Fab,,,,,,,false,UKOS,249432,370520,-4.256115754,53.210355886,BCT,CUS,OTH,,,,024,2000-01-01T00:00:00,2025-07-31T14:54:13,4,revise,active
5410WDB21993,ynydtga,,,Pen-y-Gongle,,,,,,A4080,,,,nr,,SW,E0038646,Brynsiencyn,,,,,,,false,UKOS,247790,367206,-4.27910228,53.180122487,BCT,MKD,OTH,,,,024,2000-01-01T00:00:00,2025-07-31T14:54:49,4,revise,active
5410WDB21994,ynydtgd,,,Pen-y-Gongle,,,,,,,,,,nr,,NE,E0038646,Brynsiencyn,,,,,,,false,UKOS,247786,367214,-4.279165894,53.180193196,BCT,CUS,OTH,,,,024,2000-01-01T00:00:00,2025-07-31T14:56:04,4,revise,active
5410WDB21995,ynydtgj,,,Bryn Fellten,,,,,,A4080,,,,nr,,SW,N0075747,Llanedwen,,,,,,,false,UKOS,249827,368288,-4.249155532,53.190420036,BCT,MKD,OTH,,,,024,2000-01-01T00:00:00,2025-07-31T14:57:35,4,revise,active
5410WDB21996,ynydtgm,,,Bryn Fellten,,,,,,A4080,,,,nr,,NE,N0075747,Llanedwen,,,,,,,false,UKOS,249824,368296,-4.249204159,53.190491045,BCT,CUS,OTH,,,,024,2000-01-01T00:00:00,2025-07-31T14:58:17,4,revise,active
5410WDB22622,ynydtgp,,,Post Office,,,,Llangaffo Post Office,,B4421,,,,o/s,,NE,E0038716,Llangaffo,,,,,,,false,UKOS,244406,368307,-4.330230869,53.189031853,BCT,CUS,OTH,,,,024,2000-01-01T00:00:00,2025-07-31T14:58:52,6,revise,active
5410WDB22623,ynydtgt,,,Maes-yr-Orsedd,,,,,,Llangwyllog Road,,,,after,,SW,E0054328,Bodffordd,,,,,,,false,UKOS,242813,376800,-4.358241093,53.264840729,BCT,CUS,OTH,,,,024,2000-01-01T00:00:00,2025-07-31T14:59:51,4,revise,active
5410WDB22624,ynydtgw,,,Erddreiniog House,,,,Erddreiniog House,,Llangwyllog Road,,,,nr,,N,E0038718,Llangwyllog,,,,,,,false,UKOS,243777,378877,-4.344821902,53.283779612,BCT,CUS,OTH,,,,024,2000-01-01T00:00:00,2025-07-31T15:00:58,3,revise,active
5410WDB22626,ynydtjd,,,Capel Horeb,,,,Glyn Garth,,Main Road,,,,opp,,NW,E0038674,Elim,,,,,,,false,UKOS,235473,384900,-4.47238423,53.335354987,BCT,CUS,OTH,,,,024,2000-01-01T00:00:00,2025-07-31T15:01:42,6,revise,active
5410WDB22627,ynydtjg,,,Pisgah Hall,,,,,,Main Road,,,,opp,,NE,E0038700,Llanddeusant,,,,,,,true,UKOS,234440,385136,-4.488026558,53.337173155,BCT,CUS,OTH,,,,024,2000-01-01T00:00:00,2025-07-31T15:03:09,2,revise,active
5410WDB22628,ynydtjm,,,Fron Goch,,,,,,Llanfwrog Road,,,,opp,,NW,E0038714,Llanfwrog,,,,,,,true,UKOS,230115,384016,-4.552292114,53.325723165,BCT,CUS,OTH,,,,024,2000-01-01T00:00:00,2025-07-31T15:10:04,4,revise,active
5410WDB22629,ynydtjp,,,Maes Maethlu,,,,,,Llanfaethlu Road,,,,before,,SE,E0054342,Llanfaethlu,,,,,,,true,UKOS,231261,387007,-4.536697921,53.352948564,BCT,CUS,OTH,,,,024,2000-01-01T00:00:00,2025-07-31T15:10:54,5,revise,active
5410WDB22630,ynydtjt,,,Tai Louis Rodgers,,,,Tai Louis Rodgers Almshouses,,B5420,,,,nr,,NW,E0054355,Penmynydd,,,,,,,true,UKOS,251359,374251,-4.229024899,53.244410438,BCT,CUS,OTH,,,,024,2000-01-01T00:00:00,2025-07-31T15:11:27,5,revise,active
5410WDB22856,ynydtjw,,,Llwyn Onn Industrial Estate,,Industrial Estate,,,,Estate Road,,,,o/s Rehau,,E,E0054325,Amlwch,,,,,,,false,UKOS,244093,392515,-4.34680652,53.406352552,BCT,CUS,OTH,,,,024,2000-01-01T00:00:00,2025-07-31T15:12:02,6,revise,active
5410WDB22857,ynydtma,,,Llwyn Onn Industrial Estate,,Industrial Estate,,,,Estate Road,,,,opp Rehau,,W,E0054325,Amlwch,,,,,,,false,UKOS,244093,392506,-4.346802069,53.406271723,BCT,CUS,OTH,,,,024,2000-01-01T00:00:00,2025-07-31T15:13:20,6,revise,active
5410WDB22888,ynydtmd,,,Anglesey Airport,,,,,,Perimiter Road,,,,o/s,,S,E0054363,Valley,,,,,,,false,UKOS,231129,376117,-4.532881288,53.255115401,BCT,CUS,OTH,,,,024,2000-01-01T00:00:00,2025-07-31T15:13:59,3,revise,active
5410WDB22974,ynydtmg,,,Llanddona Transmitting Station,,,,,,Lon Goch,,,,o/s,,NE,E0054336,Llanddona,,,,,,,false,UKOS,258267,381029,-4.128604229,53.307179882,BCT,CUS,OTH,,,,024,2000-01-01T00:00:00,2025-07-31T15:15:22,7,revise,active
5410WDB23572,ynydtmj,,,Pili Palas,,,,,,B5420,,,,opp,,SE,E0054353,Menai Bridge,,,,,,,true,UKOS,254196,373143,-4.186035783,53.235245294,BCT,CUS,OTH,,,,024,2000-01-01T00:00:00,2025-07-31T15:31:12,4,revise,active
5410WDB23573,ynydtmp,,,Rhoscefnir Turn,,,,Bangor Lodge,,Pentraeth Road,,,,before,,SE,E0038774,Rhos Cefn Hir,,,,,,,true,UKOS,252633,377347,-4.211382806,53.272574308,BCT,CUS,OTH,,,,024,2000-01-01T00:00:00,2025-07-31T15:34:52,4,revise,active
5410WDB23574,ynydtmt,,,Panton Arms Hotel,,,,Panton Arms Hotel PH,,B5109,,,,before,,SW,E0054356,Pentraeth,,,,,,,true,UKOS,252408,378427,-4.215255965,53.282212286,BCT,CUS,OTH,,,,024,2000-01-01T00:00:00,2025-07-31T15:35:29,4,revise,active
5410WDB23575,ynydtmw,,,Pentraeth Industrial Estate,,Industrial Estate,,,,A5025,,,,before,,NE,E0054356,Pentraeth,,,,,,,true,UKOS,252169,378886,-4.219051444,53.286263818,BCT,CUS,OTH,,,,024,2000-01-01T00:00:00,2025-07-06T15:46:00,6,revise,active
5410WDB23576,ynydtpa,,,Penrallt,,,,Bull Inn PH,,A5025,,,,nr,,SE,E0054356,Pentraeth,,,,,,,true,UKOS,252029,379348,-4.221365188,53.290374402,BCT,CUS,OTH,,,,024,2000-01-01T00:00:00,2025-07-31T15:36:43,5,revise,active
5410WDB23577,ynydtpd,,,Croesfryn,,,,,,A5025,,,,opp,,NE,E0038773,Red Wharf Bay,,,,,,,true,UKOS,252017,380219,-4.22195139,53.298198903,BCT,CUS,OTH,,,,024,2000-01-01T00:00:00,2025-07-31T15:41:25,5,revise,active
5410WDB23578,ynydtpg,,,Llain Delyn,,,,Llain Delyn,,A5025,,,,at,,SW,E0038773,Red Wharf Bay,,,,,,,true,UKOS,252094,380408,-4.22088507,53.299918003,BCT,CUS,OTH,,,,024,2000-01-01T00:00:00,2025-07-31T15:42:07,4,revise,active
5410WDB23579,ynydtpj,,,Bryn Mair Turn,,,,,,B5108,,,,after,,NW,E0038647,Brynteg,,,,,,,true,UKOS,249998,382188,-4.253152491,53.315315924,BCT,CUS,OTH,,,,024,2000-01-01T00:00:00,2025-07-31T15:42:57,5,revise,active
5410WDB23580,ynydtpm,,,California Inn,,,,California Inn PH,,B5108,,,,after,,SE,E0038647,Brynteg,,,,,,,true,UKOS,249536,382575,-4.260265445,53.318660691,BCT,CUS,OTH,,,,024,2000-01-01T00:00:00,2025-07-31T15:44:02,5,revise,active
5410WDB23581,ynydtpt,,,California Inn,,,,California Inn PH,,B5110,,,,before,,NE,E0038647,Brynteg,,,,,,,true,UKOS,249545,382630,-4.260156565,53.319157242,BCT,CUS,OTH,,,,024,2000-01-01T00:00:00,2025-07-31T15:44:45,4,revise,active
5410WDB23582,ynydtpw,,,Tabernacle,,,,Tabernacle,,B5108,,,,before Phone Box,,NE,E0038806,Tynygongl,Benllech,,,,,,true,UKOS,250561,382305,-4.244763549,53.316526062,BCT,CUS,OTH,,,,024,2000-01-01T00:00:00,2025-07-31T15:45:39,4,revise,active
5410WDB23583,ynydtwa,,,Mount Pleasant,,,,,,B5108,,,,before,,SW,E0038806,Tynygongl,Benllech,,,,,,true,UKOS,250856,382629,-4.240491368,53.319519385,BCT,CUS,OTH,,,,024,2000-01-01T00:00:00,2025-07-31T15:48:29,5,revise,active
5410WDB23584,ynydtwd,,,Maes Goronwy,,,,,,B5108,,,,before,,E,E0038634,Benllech,,,,,,,true,UKOS,251229,382820,-4.234986052,53.321339914,BCT,CUS,OTH,,,,024,2000-01-01T00:00:00,2025-07-31T15:49:58,5,revise,active
5410WDB23585,ynydtwg,,,Y Bont,,,,,,Amlwch Road,,,,before,,NW,E0038634,Benllech,,,,,,,true,UKOS,251673,383535,-4.228660552,53.327886599,BCT,CUS,OTH,,,,024,2000-01-01T00:00:00,2025-07-31T15:54:22,4,revise,active
5410WDB23586,ynydtwj,,,Ty-Newydd,,,,,,Amlwch Road,,,,opp,,SE,E0038634,Benllech,,,,,,,true,UKOS,251457,383853,-4.232050363,53.330682214,BCT,CUS,OTH,,,,024,2000-01-01T00:00:00,2025-07-31T15:55:54,4,revise,active
5410WDB23587,ynydtwm,,,Marian-glas War Memorial,,,,,,B5110,,,,nr,,NE,E0038729,Marianglas,,,,,,,true,UKOS,250455,384363,-4.247325092,53.334980563,BCT,CUS,OTH,,,,024,2000-01-01T00:00:00,2025-07-31T15:57:38,5,revise,active
5410WDB23588,ynydtwp,,,Pont Lligwy Caravan Park,,,,Pont Lligwy Caravan Park,,A5025,,,,opp,,NW,N0075754,Rhos Lligwy,,,,,,,true,UKOS,248859,386129,-4.272116769,53.350388324,BCT,CUS,OTH,,,,024,2000-01-01T00:00:00,2025-08-04T08:27:02,4,revise,active
5410WDB23589,ynydtwt,,,Pont Dulas,,,,,,A5025,,,,after,,SE,E0038666,City Dulas,,,,,,,true,UKOS,247116,387482,-4.298933844,53.362038877,BCT,CUS,OTH,,,,024,2000-01-01T00:00:00,2025-08-04T08:27:32,5,revise,active
5410WDB23590,ynydwad,,,Llys Dulas Turn,,,,,,A5025,,,,before,,NW,E0038666,City Dulas,,,,,,,true,UKOS,246658,388268,-4.306191773,53.368965474,BCT,MKD,OTH,,,,024,2000-01-01T00:00:00,2025-08-04T08:28:26,5,revise,active
5410WDB23591,ynydwag,,,Pensarn,,,,Y Bedol PH,,Chapel Street,,,,o/s,,SE,E0038760,Penysarn,,,,,,,true,UKOS,245998,390191,-4.317040394,53.386039821,BCT,MKD,OTH,,,,024,2000-01-01T00:00:00,2025-08-04T08:29:31,5,revise,active
5410WDB23592,ynydwaj,,,Dinorben Terrace,,,,,,Chapel Street,,,,opp 1,,S,E0038760,Penysarn,,,,,,,true,UKOS,245971,390322,-4.317510084,53.387213049,BCT,CUS,OTH,,,,024,2000-01-01T00:00:00,2025-08-04T08:30:11,5,revise,active
5410WDB23593,ynydwam,,,Bron yr Aur,,,,,,Chapel Street,,,,nr,,SW,E0038760,Penysarn,,,,,,,true,UKOS,246008,390530,-4.317055735,53.389091937,BCT,CUS,OTH,,,,024,2000-01-01T00:00:00,2025-08-04T08:31:06,4,revise,active
5410WDB23594,ynydwap,,,Allt Nebo,,,,Allt Nebo,,Main Road,,,,not in use,,NW,E0038760,Penysarn,,,,,,,true,UKOS,246226,390559,-4.313794717,53.389415947,BCT,CUS,OTH,,,,024,2000-01-01T00:00:00,2025-08-04T08:31:40,5,revise,inactive
5410WDB23595,ynydwat,,,Nebo Flats,,,,Nebo Flats,,Dulas Road,,,,o/s,,SE,E0038738,Nebo,,,,,,,true,UKOS,246805,390345,-4.304992031,53.387662311,BCT,CUS,OTH,,,,024,2000-01-01T00:00:00,2025-08-04T08:33:02,5,revise,active
5410WDB23596,ynydwaw,,,Penysarn War Memorial,,,,Penysarn War Memorial,,A5025,,,,after,,NW,E0038760,Penysarn,,,,,,,true,UKOS,245741,390834,-4.321215504,53.391739692,BCT,CUS,OTH,,,,024,2000-01-01T00:00:00,2025-08-04T08:33:33,6,revise,active
5410WDB23597,ynydwda,,,Croesau-gwynion,,,,,,A5025,,,,nr,,NW,N0075740,Cerrig-man,,,,,,,true,UKOS,245567,390953,-4.323888011,53.392757568,BCT,CUS,OTH,,,,024,2000-01-01T00:00:00,2025-08-04T08:34:24,5,revise,active
5410WDB23598,ynydwdg,,,Cerrig-man Shop,,,,,,A5025,,,,nr,,NW,N0075740,Cerrig-man,,,,,,,true,UKOS,245290,391236,-4.328188813,53.39522267,BCT,CUS,OTH,,,,024,2000-01-01T00:00:00,2025-08-04T08:34:58,4,revise,active
5410WDB23599,ynydwdj,,,Shiloh Chapel,,,,Shiloh Chapel,,Main Road,,,,nr,,S,E0038744,Pen-Gorphwysfa,,,,,,,true,UKOS,246651,392011,-4.308115529,53.402580385,BCT,CUS,OTH,,,,024,2000-01-01T00:00:00,2025-08-04T08:35:34,4,revise,active
5410WDB23600,ynydwdm,,,St Eilian`s Church,,,,St Eilian`s Church,,Llanellian Road,,,,before,,NW,E0054338,Llaneilian,,,,,,,true,UKOS,246969,392800,-4.303719501,53.409758946,BCT,CUS,OTH,,,,024,2000-01-01T00:00:00,2025-08-04T08:36:05,5,revise,active
5410WDB23601,ynydwdp,,,Capel Bethania,,,,Capel Bethania,,Llanellian Road,,,,nr,,NE,E0038744,Pen-Gorphwysfa,,,,,,,true,UKOS,245920,392470,-4.319325582,53.406489769,BCT,CUS,OTH,,,,024,2000-01-01T00:00:00,2025-08-04T08:36:41,6,revise,active
5410WDB23602,ynydwdt,,,Glan-aber,,,,,,Side Road,,,,not in use,,SW,E0038744,Pen-Gorphwysfa,,,,,,,true,UKOS,245876,392276,-4.319892041,53.404734567,BCT,CUS,OTH,,,,024,2000-01-01T00:00:00,2025-08-04T08:37:34,5,revise,inactive
5410WDB23603,ynydwdw,,,Lon Wen,,,,,,Chapel Street,,,,after,,W,E0038632,Amlwch Port,Amlwch,,,,,,true,UKOS,244956,393106,-4.334126961,53.411919285,BCT,CUS,OTH,,,,024,2000-01-01T00:00:00,2025-08-04T08:39:35,5,revise,active
5410WDB23604,ynydwga,,,Fire Station,,,,Amlwch Fire Station,,Bethesda Street,,,,after,,NE,E0054325,Amlwch,,,,,,,true,UKOS,243746,392746,-4.35213635,53.408329053,BCT,CUS,OTH,,,,024,2000-01-01T00:00:00,2025-08-04T08:44:23,4,revise,active
5410WDB23605,ynydwgd,,,Amlwch Sports Centre,,,,,,Tanybryn Road,,,,before,,SE,E0038759,Pentrefelin,Amlwch,,,,,,true,UKOS,243915,392095,-4.349273806,53.402527901,BCT,CUS,OTH,,,,024,2000-01-01T00:00:00,2025-08-04T08:45:40,10,revise,active
5410WDB23606,ynydwgj,,,Rhosybol War Memorial,,,,Rhosybol Primary School,,B5111,,,,before,,SW,E0054358,Rhosybol,,,,,,,true,UKOS,242799,388892,-4.364449366,53.373430714,BCT,CUS,OTH,,,,024,2000-01-01T00:00:00,2025-08-04T08:46:37,7,revise,active
5410WDB23607,ynygdta,,,Old Post Office,,,,Rhosybol Old Post Office,,B5111,,,,nr,,NE,E0054358,Rhosybol,,,,,,,true,UKOS,242693,388651,-4.365921358,53.371239318,BCT,CUS,OTH,,,,024,2000-01-01T00:00:00,2025-08-04T08:47:41,5,revise,active
5410WDB23608,ynydwgm,,,Pen-y-Lon Bach,,,,Pen Lon Farm,,Main Road,,,,nr,,SW,E0038743,Penygraigwen,,,,,,,true,UKOS,245146,387833,-4.328683439,53.364617581,BCT,CUS,OTH,,,,024,2000-01-01T00:00:00,2025-08-04T08:50:09,4,revise,active
5410WDB23609,ynydwgp,,,Maes Derwyn,,,,,,Main Road,,,,opp 3,,SW,N0071259,Capel Parc,,,,,,,true,UKOS,244802,387105,-4.333491083,53.357978362,BCT,CUS,OTH,,,,024,2000-01-01T00:00:00,2025-08-04T08:51:02,5,revise,active
5410WDB23610,ynydwgt,,,Capel Hebron,,Capel,,,,Main Road,,,,after,,W,E0038727,Maen-Addwyn,,,,,,,true,UKOS,245531,384153,-4.321105519,53.331674729,BCT,CUS,OTH,,,,024,2000-01-01T00:00:00,2025-08-04T08:51:57,8,revise,active
5410WDB23611,ynydwgw,,,Post Office,,,,Maenaddwyn Post Office,,Main Road,,,,opp,,W,E0038727,Maen-Addwyn,,,,,,,true,UKOS,245932,384063,-4.315045498,53.330987934,BCT,CUS,OTH,,,,024,2000-01-01T00:00:00,2025-08-04T08:57:00,6,revise,active
5410WDB23612,ynydwja,,,Maes Gwynedd,,,,Capel Coch,,Main Road,,,,before,,SW,E0038655,Capel Coch,,,,,,,true,UKOS,245947,382315,-4.313970431,53.315292934,BCT,CUS,OTH,,,,024,2000-01-01T00:00:00,2025-08-04T08:58:10,5,revise,active
5410WDB23613,ynydwjd,,,Dolmeinir Turn,,,,,,Llangwyflog Road,,,,before,,NE,E0038718,Llangwyllog,,,,,,,true,UKOS,244097,379288,-4.340228066,53.287565145,BCT,CUS,OTH,,,,024,2000-01-01T00:00:00,2025-08-04T08:59:10,4,revise,active
5410WDB23614,ynydwjg,,,Capel Sardis,,,,Capel Sardis,,B5109,,,,opp,,NW,E0054328,Bodffordd,,,,,,,true,UKOS,242708,376838,-4.359832748,53.265150875,BCT,MKD,OTH,,,,024,2000-01-01T00:00:00,2025-08-04T09:01:20,5,revise,active
5410WDB23615,ynydwjm,,,Ysgol Ganradd Bodffordd,,Ysgol,,,,Minffordd,,,,before,,NE,E0054328,Bodffordd,,,,,,,true,UKOS,242594,376734,-4.361488789,53.264178431,BCT,CUS,OTH,,,,024,2000-01-01T00:00:00,2025-08-04T09:02:01,8,revise,active
5410WDB23616,ynydwjp,,,Llys y Gwynt,,,,,,B5111,,,,before,,NE,E0038778,Rhosmeirch,,,,,,,true,UKOS,245721,377209,-4.314877893,53.269368236,BCT,CUS,OTH,,,,024,2000-01-01T00:00:00,2025-08-04T09:02:28,5,revise,active
5410WDB23617,ynydwjt,,,Coleg Menai,,,,Coleg Menai Llangefni,,Penmynydd Road,,,,before,,NW,E0054347,Llangefni,,,,,,,true,UKOS,246818,375514,-4.297626291,53.254462655,BCT,CUS,OTH,,,,024,2000-01-01T00:00:00,2025-08-04T09:15:33,5,revise,active
5410WDB23620,ynydwjw,,,Pen yr Allt,,,,,,B5420,,,,nr,,NW,E0054355,Penmynydd,,,,,,,true,UKOS,250112,374764,-4.24793864,53.248667342,BCT,CUS,OTH,,,,024,2000-01-01T00:00:00,2025-08-04T09:16:23,4,revise,active
5410WDB23621,ynydwma,,,Halfway Terrace,,,,,,B5110,,,,after,,NE,E0038790,Talwrn,,,,,,,true,UKOS,248774,377417,-4.269236784,53.272116127,BCT,CUS,OTH,,,,024,2000-01-01T00:00:00,2025-08-04T09:17:38,4,revise,active
5410WDB23622,ynydwmd,,,Hafan Deg,,,,Hafan Deg,,B5110,,,,after,,NE,E0038790,Talwrn,,,,,,,true,UKOS,248400,377089,-4.27468396,53.269063312,BCT,CUS,OTH,,,,024,2000-01-01T00:00:00,2025-08-04T09:21:55,5,revise,active
5410WDB23623,ynydwmg,,,Ty`n Coed Uchaf,,,,,,Ty`n Coed Uchaf,,,,before,,SE,E0054347,Llangefni,,,,,,,true,UKOS,246313,376054,-4.30545037,53.259166581,BCT,CUS,OTH,,,,024,2000-01-01T00:00:00,2025-08-04T09:22:39,4,revise,active
5410WDB23624,ynydwmj,,,Ty`n Coed,,,,,,Ty`n Coed,,,,o/s 8,,NW,E0054347,Llangefni,,,,,,,true,UKOS,246266,376149,-4.30620027,53.260006199,BCT,CUS,OTH,,,,024,2000-01-01T00:00:00,2025-08-04T09:27:07,7,revise,active
5410WDB23625,ynydwmp,,,Lon Las Bowling Green,,,,,,Church Terrace B5111,,,,after,,NE,E0054347,Llangefni,,,,,,,true,UKOS,246013,376086,-4.3099593,53.259366966,BCT,CUS,OTH,,,,024,2000-01-01T00:00:00,2025-08-04T09:36:34,5,revise,active
5410WDB23626,ynydwmt,,,Lon Cae Garw,,,,,,B5109,,,,after,,NW,E0054347,Llangefni,,,,,,,true,UKOS,244567,376210,-4.331678081,53.260058825,BCT,CUS,OTH,,,,024,2000-01-01T00:00:00,2025-08-04T09:40:54,5,revise,active
5410WDB23627,ynydwmw,,,Cae Mawr,,,,,,B4422,,,,before,,NE,E0038780,Rhostrehwfa,,,,,,,true,UKOS,244660,375588,-4.329981315,53.254499685,BCT,CUS,OTH,,,,024,2000-01-01T00:00:00,2025-08-04T09:41:29,5,revise,active
5410WDB23628,ynydwpa,,,Tan Rallt,,,,,,B4422,,,,opp,,SW,E0038780,Rhostrehwfa,,,,,,,true,UKOS,244527,375442,-4.331901801,53.253149445,BCT,CUS,OTH,,,,024,2000-01-01T00:00:00,2025-08-04T09:43:01,6,revise,active
5410WDB23629,ynydwpd,,,Swn y Gwynt,,,,,,B4422,,,,after,,NE,E0038780,Rhostrehwfa,,,,,,,true,UKOS,243781,374534,-4.342627746,53.24477071,BCT,CUS,OTH,,,,024,2000-01-01T00:00:00,2025-08-04T09:43:28,9,revise,active
5410WDB23630,ynydwpg,,,Gorwel Deg,,,,,,B4422,,,,before,,NE,E0038780,Rhostrehwfa,,,,,,,true,UKOS,243863,374585,-4.341425146,53.245257469,BCT,CUS,OTH,,,,024,2000-01-01T00:00:00,2025-08-04T09:45:04,5,revise,inactive
5410WDB23631,ynydwpj,,,Cefn Cwmwd,,,,,,Holyhead Road,,,,opp,,E,E0038780,Rhostrehwfa,,,,,,,true,UKOS,243570,374366,-4.345704571,53.243204276,BCT,CUS,OTH,,,,024,2000-01-01T00:00:00,2025-08-04T09:46:15,5,revise,inactive
5410WDB23632,ynydwpm,,,Mona Isaf,,,,,,Holyhead Road,,,,after,,SE,E0038780,Rhostrehwfa,,,,,,,true,UKOS,242641,374909,-4.359882049,53.247806378,BCT,CUS,OTH,,,,024,2000-01-01T00:00:00,2025-08-04T09:47:13,5,revise,active
5410WDB23633,ynydwpt,,,Bodffordd Turn,,,,Mona Industrial Park,,Holyhead Road,,,,before,,E,E0038733,Mona,,,,,,,true,UKOS,242059,375149,-4.368715763,53.24978891,BCT,CUS,OTH,,,,024,2000-01-01T00:00:00,2025-08-04T09:48:18,6,revise,active
5410WDB23634,ynydwpw,,,Capel Engedi,,Capel,,,,A4080,,,,nr,,NE,N0075741,Engedi,,,,,,,true,UKOS,236197,376179,-4.457020069,53.257256831,BCT,CUS,OTH,,,,024,2000-01-01T00:00:00,2025-08-04T09:49:25,7,revise,active
5410WDB23635,ynydwta,,,Ty-hen Road,,,,,,High Street,,,,after,,SE,E0054330,Bryngwran,,,,,,,true,UKOS,235293,377467,-4.471225452,53.26854822,BCT,CUS,OTH,,,,024,2000-01-01T00:00:00,2025-08-04T09:49:59,5,revise,active
5410WDB23636,ynydwtd,,,Trinity Church,,,,,,High Street,,,,after,,SE,E0054330,Bryngwran,,,,,,,true,UKOS,235193,377485,-4.472732746,53.268678792,BCT,CUS,OTH,,,,024,2000-01-01T00:00:00,2025-08-04T09:50:51,4,revise,active
5410WDB23637,ynydwtg,,,Valley Railway Station,,,,Valley Railway Station,,Station Road,,,,before,,SW,E0054363,Valley,,,,,,,true,UKOS,229263,379124,-4.562437636,53.281515676,BCT,CUS,OTH,,,,024,2000-01-01T00:00:00,2025-08-04T09:51:47,6,revise,active
5410WDB23638,ynydwtj,,,Refail-newydd,,,,Refail-newydd,,B5109,,,,nr,,SE,E0038726,Llynfaes,,,,,,,true,UKOS,241352,378188,-4.38081886,53.276871227,BCT,CUS,OTH,,,,024,2000-01-01T00:00:00,2025-08-04T09:52:25,4,revise,active
5410WDB23639,ynydwtm,,,Cleifiog Terrace,,,,,,Station Road,,,,o/s,,NE,E0054363,Valley,,,,,,,true,UKOS,228849,378995,-4.568571266,53.280228339,BCT,CUS,OTH,,,,024,2000-01-01T00:00:00,2025-08-04T10:44:33,5,revise,active
5410WDB23640,ynydwtp,,,Capel Ty`n Rhos,,,,Capel Ty`n Rhos,,Rhoscolyn Road,,,,opp,,NE,E0054357,Rhoscolyn,,,,,,,true,UKOS,227128,376437,-4.592964764,53.256700136,BCT,CUS,OTH,,,,024,2000-01-01T00:00:00,2025-08-04T10:46:23,4,revise,active
5410WDB23641,ynydwtw,,,Bryn Mor,,,,,,Rhoscolyn Road,,,,before,,NE,E0054357,Rhoscolyn,,,,,,,true,UKOS,226978,375750,-4.594837266,53.25048228,BCT,CUS,OTH,,,,024,2000-01-01T00:00:00,2025-08-04T10:47:29,5,revise,active
5410WDB23642,ynygada,,,Gogerddan,,,,,,Lon St Ffraid,,,,after,,SE,E0038676,Four Mile Bridge,,,,,,,true,UKOS,226526,378399,-4.603049618,53.274121346,BCT,CUS,OTH,,,,024,2000-01-01T00:00:00,2025-08-04T10:48:37,5,revise,active
5410WDB23643,ynygadg,,,Hen Ysgol Henblas,,,,,,B4422,,,,opp,,NE,E0038665,Cerrigceinwen,,,,,,,true,UKOS,242478,373187,-4.361470772,53.232292462,BCT,CUS,OTH,,,,024,2000-01-01T00:00:00,2025-08-04T10:49:29,3,revise,active
5410WDB23644,ynygadj,,,Lon Tarw,,,,,,Rutland Road,,,,after,,SW,E0038648,Bull Bay,,,,,,,true,UKOS,242428,394194,-4.372669804,53.420941221,BCT,CUS,OTH,,,,024,2000-01-01T00:00:00,2025-08-04T10:50:02,4,revise,active
5410WDB23645,ynygadm,,,Burwen Old Shop,,Old Shop,,,,Burwen Old Shop,,,,opp,,NW,E0038649,Burwen,,,,,,,true,UKOS,242119,393227,-4.376830614,53.412159797,BCT,CUS,OTH,,,,024,2000-01-01T00:00:00,2025-08-04T10:50:37,7,revise,active
5410WDB23646,ynygadp,,,Betws Council Houses,,,,,,A5025,,,,opp,,SW,E0054334,Llanbadrig,,,,,,,true,UKOS,239367,393623,-4.41839715,53.414889694,BCT,CUS,OTH,,,,024,2000-01-01T00:00:00,2025-08-04T10:56:40,5,revise,active
5410WDB23647,ynygadt,,,Gadlys Hotel Turn,,,,,,A5025,,,,after,,NE,E0038663,Cemaes Bay,,,,,,,true,UKOS,237978,393617,-4.439272677,53.414410918,BCT,CUS,OTH,,,,024,2000-01-01T00:00:00,2025-08-04T10:57:58,4,revise,active
5410WDB23648,ynygadw,,,Douglas Inn,,,,Douglas Inn PH,,Village Road,,,,opp,,E,E0038803,Tregele,,,,,,,true,UKOS,235624,392652,-4.474158,53.405012,BCT,CUS,OTH,,,,024,2000-01-01T00:00:00,2025-08-04T11:00:06,7,revise,active
5410WDB23649,ynygaga,,,Old Post Office,,,,Ty Bach Gwyn,,Main Road,,,,opp,,SE,E0038709,Llanfairynghornwy,,,,,,,true,UKOS,232162,390959,-4.525274735,53.38872386,BCT,CUS,OTH,,,,024,2000-01-01T00:00:00,2025-08-04T11:00:34,7,revise,active
5410WDB23650,ynygagd,,,Hen-dy,,,,,,Main Road,,,,not in use,,SW,E0038709,Llanfairynghornwy,,,,,,,true,UKOS,230490,391458,-4.550657762,53.392670489,BCT,CUS,OTH,,,,024,2000-01-01T00:00:00,2025-08-04T11:01:16,4,revise,inactive
5410WDB23651,ynygagj,,,Sarn Estate,,,,,,Brynddu Road,,,,after,,SE,E0038710,Llanfechell,,,,,,,true,UKOS,236809,391433,-4.455713515,53.394437558,BCT,CUS,OTH,,,,024,2000-01-01T00:00:00,2025-08-04T11:04:44,5,revise,active
5410WDB23652,ynygagm,,,Pen Llain,,,,,,Mountain Road,,,,nr,,NE,E0038710,Llanfechell,,,,,,,true,UKOS,236475,390787,-4.46039671,53.388532923,BCT,CUS,OTH,,,,024,2000-01-01T00:00:00,2025-08-04T11:05:20,4,revise,active
5410WDB23653,ynygagp,,,Siop Penllyn,,,,Siop Penllyn,,Mountain Road,,,,o/s Post Box,,NE,E0038735,Mynydd Mechell,,,,,,,true,UKOS,235747,389495,-4.470660324,53.376704472,BCT,CUS,OTH,,,,024,2000-01-01T00:00:00,2025-08-04T11:17:56,4,revise,active
5410WDB23654,ynygagt,,,Pentreheulyn Turn,,,,,,Crow Road,,,,after,,SE,N0071260,Carreglefn,,,,,,,true,UKOS,238986,389684,-4.422113381,53.379399261,BCT,CUS,OTH,,,,024,2000-01-01T00:00:00,2025-08-04T11:27:14,4,revise,active
5410WDB23655,ynygagw,,,Post Office,,,,Carreglefn Post Office,,Main Road,,,,nr,,S,N0071260,Carreglefn,,,,,,,true,UKOS,238329,389260,-4.431763767,53.375390797,BCT,CUS,OTH,,,,024,2000-01-01T00:00:00,2025-08-04T11:29:16,6,revise,active
5410WDB23656,ynygaja,,,Sportsmans Lodge,,,,Sportsmans Lodge,,Main Road,,,,o/s,,NE,E0038777,Rhosgoch,,,,,,,true,UKOS,240410,389009,-4.400384864,53.373769577,BCT,CUS,OTH,,,,024,2000-01-01T00:00:00,2025-08-04T11:30:29,4,revise,active
5410WDB23657,ynygajd,,,Tally Ho,,,,,,Main Road,,,,o/s,,NE,E0038777,Rhosgoch,,,,,,,true,UKOS,240937,389243,-4.392588557,53.376030049,BCT,CUS,OTH,,,,024,2000-01-01T00:00:00,2025-08-04T11:31:39,5,revise,active
5410WDB23658,ynygajg,,,Four Crosses,,,,Four Crosses Council Houses,,Main Road,,,,at,,SW,E0038777,Rhosgoch,,,,,,,true,UKOS,241330,389554,-4.386842656,53.378941295,BCT,CUS,OTH,,,,024,2000-01-01T00:00:00,2025-08-04T11:32:31,4,revise,active
5410WDB23659,ynygajm,,,Lastra Farm Hotel,,,,Lastra Farm Hotel,,Main Road,,,,before,,NE,E0038755,Penrhyd Lastra,,,,,,,true,UKOS,243111,392246,-4.361431507,53.403650118,BCT,CUS,OTH,,,,024,2000-01-01T00:00:00,2025-08-04T11:33:06,4,revise,active
5410WDB23660,ynygajp,,,Carmel,,,,,,Main Road,,,,nr,,SW,E0054358,Rhosybol,,,,,,,true,UKOS,242531,389174,-4.368614817,53.375888063,BCT,CUS,OTH,,,,024,2000-01-01T00:00:00,2025-08-04T11:34:25,4,revise,active
5410WDB23661,ynygajt,,,Square,,,,,,Main Road,,,,after,,NE,E0038782,Rhydwyn,,,,,,,true,UKOS,231520,388992,-4.533868733,53.370856121,BCT,CUS,OTH,,,,024,2000-01-01T00:00:00,2025-08-04T11:35:06,4,revise,active
5410WDB23662,ynygajw,,,Maes Gwelfor,,,,,,Chapel Street,,,,after,,NW,E0038782,Rhydwyn,,,,,,,true,UKOS,231354,389147,-4.536443925,53.372195018,BCT,CUS,OTH,,,,024,2000-01-01T00:00:00,2025-08-04T11:35:33,4,revise,active
5410WDB23663,ynygama,,,Rhydwyn Turn,,,,,,A5025,,,,after,,SW,E0054342,Llanfaethlu,,,,,,,true,UKOS,231745,387639,-4.529770087,53.358778114,BCT,CUS,OTH,,,,024,2000-01-01T00:00:00,2025-08-04T11:36:04,4,revise,active
5410WDB23664,ynygamd,,,Rhos Ty Mawr,,,,,,A5025,,,,nr,,NE,E0054342,Llanfaethlu,,,,,,,true,UKOS,231486,387028,-4.533332203,53.353208917,BCT,CUS,OTH,,,,024,2000-01-01T00:00:00,2025-08-04T11:36:32,6,revise,active
5410WDB23665,ynygamg,,,Coffee House,,,,Coffee House,,Off A5025,,,,before,,NW,E0054342,Llanfaethlu,,,,,,,true,UKOS,231412,386895,-4.534371942,53.351991004,BCT,CUS,OTH,,,,024,2000-01-01T00:00:00,2025-08-04T11:40:34,4,revise,active
5410WDB23666,ynygamj,,,Water Mill,,,,,,Water Mill Road,,,,not in use,,SW,E0038674,Elim,,,,,,,true,UKOS,235045,384452,-4.478572098,53.331198532,BCT,CUS,OTH,,,,024,2000-01-01T00:00:00,2025-08-04T11:41:12,4,revise,inactive
5410WDB23667,ynygamp,,,Capel Abarim,,,,Capel Abarim,,A5025,,,,o/s,,NW,E0054340,Llanfachraeth,,,,,,,true,UKOS,231395,382744,-4.532416732,53.314710176,BCT,CUS,OTH,,,,024,2000-01-01T00:00:00,2025-08-04T11:42:25,4,revise,active
5410WDB23668,ynygamt,,,Bodedern Turn,,,,Llanynghenedl Council Houses,,A5025,,,,after,,NE,E0038722,Llanynghenedl,,,,,,,true,UKOS,231589,381007,-4.528585271,53.299173791,BCT,CUS,OTH,,,,024,2000-01-01T00:00:00,2025-08-04T11:44:34,5,revise,active
5410WDB23669,ynygamw,,,Newlands Park,,,,,,Gorad Road,,,,before,,NE,E0054363,Valley,,,,,,,true,UKOS,229041,379949,-4.566208181,53.288856949,BCT,CUS,OTH,,,,024,2000-01-01T00:00:00,2025-08-04T11:52:34,4,revise,active
5410WDB23670,ynygapa,,,Ysgol Gynradd Llandrygarn,,,,Ysgol Gynradd Llandrygarn,,Grounds,,,,in,,SE,E0038681,Glan-yr-afon,,,,,,,true,UKOS,239176,379554,-4.414114133,53.288483143,BCT,CUS,OTH,,,,024,2000-01-01T00:00:00,2025-08-04T11:59:10,5,revise,active
5410WDB23671,ynygapd,,,Capel Carmel,,Capel,,,,B5112,,,,before,,NE,E0038658,Carmel,,,,,,,true,UKOS,238821,382326,-4.420842807,53.313265135,BCT,CUS,OTH,,,,024,2000-01-01T00:00:00,2025-08-04T11:59:39,7,revise,active
5410WDB23672,ynygapg,,,Nant Bychan Estate,,,,,,A5108,,,,before,,NE,E0054354,Moelfre,,,,,,,true,UKOS,250860,385865,-4.241955839,53.34858553,BCT,CUS,OTH,,,,024,2000-01-01T00:00:00,2025-08-04T12:00:15,4,revise,active
5410WDB23673,ynygapj,,,Beach Road,,,,Benllech Isaf,,Bay View Road,,,,before,,NW,E0038634,Benllech,,,,,,,true,UKOS,252200,382669,-4.220349862,53.320255766,BCT,CUS,OTH,,,,024,2000-01-01T00:00:00,2025-08-04T12:03:55,6,revise,active
5410WDB23674,ynygapm,,,Parc Bach,,,,Carreg Winlian,,A5025,,,,before,,NW,E0038634,Benllech,,,,,,,true,UKOS,252011,381818,-4.222787543,53.312559334,BCT,CUS,OTH,,,,024,2000-01-01T00:00:00,2025-08-04T12:07:38,4,revise,active
5410WDB23675,ynygapt,,,Maes Gwyn Turn,,,,,,Llanddona Road,,,,before,,NW,E0054336,Llanddona,,,,,,,true,UKOS,257563,378929,-4.138219187,53.288132364,BCT,CUS,OTH,,,,024,2000-01-01T00:00:00,2025-08-04T12:08:15,4,revise,active
5410WDB23676,ynygapw,,,Lidiart Parc,,,,,,Main Road,,,,after,,SW,N0075744,Hen Bentref Llandegfan,,,,,,,true,UKOS,258441,375258,-4.123422388,53.255392716,BCT,CUS,OTH,,,,024,2000-01-01T00:00:00,2025-08-04T12:08:49,5,revise,active
5410WDB23677,ynygata,,,Llandegfan War Memorial,,,,Llandegfan Parish Hall,,Bro Llewelyn,,,,o/s,,NW,E0038702,Llandegfan,,,,,,,true,UKOS,256553,374065,-4.1511637,53.244164807,BCT,CUS,OTH,,,,024,2000-01-01T00:00:00,2025-08-04T12:09:23,7,revise,active
5410WDB23678,ynygatd,,,Old Windmill,,,,Old Windmill,,Bro Llewelyn,,,,o/s 61,,SW,E0038702,Llandegfan,,,,,,,true,UKOS,256637,374072,-4.149909135,53.244254963,BCT,CUS,OTH,,,,024,2000-01-01T00:00:00,2025-08-04T12:10:08,5,revise,active
5410WDB23679,ynygatg,,,Trem Arfon,,,,,,Bro Llewelyn,,,,after,,NW,E0038702,Llandegfan,,,,,,,true,UKOS,256754,374011,-4.148129659,53.243738633,BCT,CUS,OTH,,,,024,2000-01-01T00:00:00,2025-08-04T12:11:14,6,revise,active
5410WDB23680,ynygatj,,,Plas Rhianfa,,,,Plas Rhianfa,,Beaumaris Road,,,,before,,NE,E0038702,Llandegfan,,,,,,,true,UKOS,256983,373395,-4.144423769,53.238267191,BCT,CUS,OTH,,,,024,2000-01-01T00:00:00,2025-08-04T12:11:47,6,revise,active
5410WDB23681,ynygatm,,,Hideaway Cottage,,,,Hideaway Cottage,,Lon Ganol,,,,before,,SW,E0038702,Llandegfan,,,,,,,true,UKOS,256198,373153,-4.156067809,53.235881313,BCT,CUS,OTH,,,,024,2000-01-01T00:00:00,2025-08-04T12:12:44,5,revise,active
5410WDB23682,ynygatp,,,Tyddyn Ddeici,,,,,,Lon Dryll,,,,o/s 1,,SW,E0038708,Llanfairpwllgwyngyll,,,,,,,true,UKOS,253521,371947,-4.195591219,53.22431672,BCT,CUS,OTH,,,,024,2000-01-01T00:00:00,2025-08-04T12:13:25,5,revise,active
5410WDB23683,ynygatw,,,Old Tollgate,,,,Old Tollgate,,Brynsiencyn Road,,,,before,,NE,E0038708,Llanfairpwllgwyngyll,,,,,,,true,UKOS,253128,371519,-4.201276032,53.220363784,BCT,CUS,OTH,,,,024,2000-01-01T00:00:00,2025-08-04T12:13:58,5,revise,active
5410WDB23684,ynygawa,,,Llwynonn Lodge,,,,Llwynonn Lodge,,Brynsiencyn Road,,,,o/s,,NE,N0075747,Llanedwen,,,,,,,true,UKOS,251628,369629,-4.222844949,53.202970711,BCT,CUS,OTH,,,,024,2000-01-01T00:00:00,2025-08-04T12:14:41,4,revise,active
5410WDB23685,ynygawd,,,Llanddaniel Fab Turn,,,,,,A4080,,,,before,,SW,N0075747,Llanedwen,,,,,,,true,UKOS,251036,369125,-4.231465606,53.198278143,BCT,CUS,OTH,,,,024,2000-01-01T00:00:00,2025-08-04T12:15:16,4,revise,active
5410WDB23686,ynygawg,,,Bryn Llewelyn,,,,,,A4080,,,,opp,,SW,E0038646,Brynsiencyn,,,,,,,true,UKOS,248743,367338,-4.264916467,53.18157998,BCT,CUS,OTH,,,,024,2000-01-01T00:00:00,2025-08-04T12:18:51,5,revise,active
5410WDB23687,ynygawj,,,Anglesey Sea Zoo,,,,Anglesey Sea Zoo,,Main Road,,,,not in use,,SW,E0038673,Dwyran,,,,,,,true,UKOS,247948,365326,-4.275845805,53.163281894,BCT,CUS,OTH,,,,024,2000-01-01T00:00:00,2025-08-04T12:19:22,4,revise,inactive
5410WDB23688,ynygawm,,,Fron Caravan Park,,,,Fron Caravan Park,,A4080,,,,opp,,SW,E0038646,Brynsiencyn,,,,,,,true,UKOS,247225,366784,-4.287347731,53.176170203,BCT,CUS,OTH,,,,024,2000-01-01T00:00:00,2025-08-04T12:20:47,4,revise,active
5410WDB23689,ynygawp,,,Dwyran Turn,,,,,,A4080,,,,before,,SW,E0038673,Dwyran,,,,,,,true,UKOS,245829,366600,-4.308128118,53.174114817,BCT,CUS,OTH,,,,024,2000-01-01T00:00:00,2025-08-04T12:21:17,4,revise,active
5410WDB23690,ynygawt,,,Llys Newydd,,,,Llys Newydd,,Dwyran Road,,,,not in use,,SW,E0038673,Dwyran,,,,,,,true,UKOS,245712,366618,-4.309885778,53.174242565,BCT,CUS,OTH,,,,024,2000-01-01T00:00:00,2025-08-04T12:21:49,5,revise,inactive
5410WDB23691,ynygdad,,,Tal-ponciau,,,,Tal-ponciau PH,,A4080,,,,not in use,,NE,E0038673,Dwyran,,,,,,,true,UKOS,245356,365557,-4.314694242,53.164609757,BCT,CUS,OTH,,,,024,2000-01-01T00:00:00,2024-04-26T15:26:09,3,revise,inactive
5410WDB23692,ynygdag,,,Model Village,,,,,,A4080,,,,before,,NE,E0038746,Pen-Lon,,,,,,,true,UKOS,243231,365218,-4.346285878,53.160943319,BCT,CUS,OTH,,,,024,2000-01-01T00:00:00,2025-08-04T12:22:47,4,revise,active
5410WDB23693,ynygdaj,,,Capel Ebeneser,,,,Capel Ebeneser,,Chapel Street,,,,before,,NW,E0038739,Newborough,,,,,,,true,UKOS,242451,365613,-4.358136296,53.164260614,BCT,CUS,OTH,,,,024,2000-01-01T00:00:00,2025-08-04T12:23:20,4,revise,active
5410WDB23694,ynygdam,,,Idan House,,,,Idan House,,Pen-dref Street,,,,before Post Box,,SW,E0038739,Newborough,,,,,,,true,UKOS,242450,365700,-4.358194099,53.165041691,BCT,CUS,OTH,,,,024,2000-01-01T00:00:00,2025-08-04T12:23:53,5,revise,active
5410WDB23695,ynygdap,,,Newborough War Memorial,,,,Newborough Library & Institute,,Pen-dref Street,,,,opp,,SW,E0038739,Newborough,,,,,,,true,UKOS,242565,365777,-4.356513351,53.165767285,BCT,CUS,OTH,,,,024,2000-01-01T00:00:00,2025-08-04T12:24:25,7,revise,active
5410WDB23696,ynygdat,,,Ysgol Gynradd Niwbwrch,,,,Ysgol Gynradd Niwbwrch,,Pentre-dref Street,,,,o/s,,S,E0038739,Newborough,,,,,,,true,UKOS,242660,365951,-4.35517918,53.16735813,BCT,CUS,OTH,,,,024,2000-01-01T00:00:00,2025-08-04T12:24:50,5,revise,active
5410WDB23697,ynygdaw,,,Tre Rhosyr,,,,Ucheldre Housing Estate,,B4421,,,,opp,,NE,E0038739,Newborough,,,,,,,true,UKOS,242429,365863,-4.358588254,53.166499423,BCT,CUS,OTH,,,,024,2000-01-01T00:00:00,2025-08-04T12:25:27,4,revise,active
5410WDB23698,ynygdga,,,Newborough Forest,,,,,,A4080,,,,before,,SE,E0038739,Newborough,,,,,,,true,UKOS,241295,366984,-4.376092556,53.176230316,BCT,CUS,OTH,,,,024,2000-01-01T00:00:00,2025-08-04T13:22:05,4,revise,active
5410WDB23699,ynygdgd,,,Alltfeirian,,,,,,A4080,,,,o/s,,NW,E0038691,Hermon Village,,,,,,,true,UKOS,239103,368870,-4.409808931,53.19250987,BCT,CUS,OTH,,,,024,2000-01-01T00:00:00,2025-08-04T13:22:35,5,revise,active
5410WDB23700,ynygdgj,,,Argraig,,,,Siop Isaf,,A4080,,,,opp,,NE,E0038691,Hermon Village,,,,,,,true,UKOS,238891,368908,-4.412998303,53.192786942,BCT,CUS,OTH,,,,024,2000-01-01T00:00:00,2025-08-04T13:24:08,5,revise,active
5410WDB23701,ynygdgm,,,Treflys,,,,Hermon Council Houses,,A4080,,,,opp,,NW,E0038691,Hermon Village,,,,,,,true,UKOS,238813,368893,-4.41415713,53.192628586,BCT,CUS,OTH,,,,024,2000-01-01T00:00:00,2025-08-04T13:25:56,5,revise,active
5410WDB23702,ynygdgp,,,Malakoff,,,,,,A4080,,,,nr,,NW,E0038691,Hermon Village,,,,,,,true,UKOS,238761,368926,-4.414951391,53.192909187,BCT,CUS,OTH,,,,024,2000-01-01T00:00:00,2025-08-04T13:26:35,4,revise,active
5410WDB23703,ynygdgt,,,Prince Llewelyn,,,,Prince Llewelyn PH,,A4080,,,,after,,SE,E0054324,Aberffraw,,,,,,,true,UKOS,235448,369192,-4.464629173,53.19428293,BCT,CUS,OTH,,,,024,2000-01-01T00:00:00,2025-08-04T13:27:29,4,revise,active
5410WDB23704,ynygdgw,,,Clafdy,,,,,,A4080,,,,opp,,NW,E0054324,Aberffraw,,,,,,,true,UKOS,235105,369839,-4.470092527,53.199987038,BCT,CUS,OTH,,,,024,2000-01-01T00:00:00,2025-08-04T13:28:03,5,revise,active
5410WDB23705,ynygdja,,,Gate House,,,,Ty Croes Camp Gate House,,A4080,,,,opp,,SE,E0054324,Aberffraw,,,,,,,true,UKOS,233986,370272,-4.487053056,53.203527215,BCT,CUS,OTH,,,,024,2000-01-01T00:00:00,2025-08-04T13:29:24,6,revise,active
5410WDB23706,ynygdjd,,,Parc Glas Surgery,,,,Parc Glas Surgery,,B4422,,,,opp,,SW,E0038635,Bethel,,,,,,,true,UKOS,239611,370330,-4.40294606,53.205775558,BCT,CUS,OTH,,,,024,2000-01-01T00:00:00,2025-08-04T13:30:13,4,revise,active
5410WDB23707,ynygdjg,,,Queen`s Head,,,,Queen`s Head PH,,Bryn Du Road,,,,opp,,NW,E0038644,Bryn-Du,,,,,,,true,UKOS,234538,372642,-4.480026605,53.224982943,BCT,CUS,OTH,,,,024,2000-01-01T00:00:00,2025-08-04T13:56:12,4,revise,active
5410WDB23708,ynygdjm,,,Saith-lathen,,,,Plas y Felin,,Plas-buan,,,,nr,,SW,E0038644,Bryn-Du,,,,,,,true,UKOS,234231,372869,-4.484738721,53.226925741,BCT,CUS,OTH,,,,024,2000-01-01T00:00:00,2025-08-04T13:33:38,4,revise,active
5410WDB23709,ynygdjp,,,Post Office,,,,St Maelog`s Church,,A4080,,,,nr,,SW,E0054341,Llanfaelog,,,,,,,true,UKOS,233658,373001,-4.493382496,53.227931952,BCT,CUS,OTH,,,,024,2000-01-01T00:00:00,2025-08-04T13:34:29,7,revise,active
5410WDB23710,ynygdjt,,,Gwynfryn,,,,Brynteg Estate,,A4080,,,,nr,,SW,E0054341,Llanfaelog,,,,,,,true,UKOS,233428,372643,-4.496637349,53.22464491,BCT,CUS,OTH,,,,024,2000-01-01T00:00:00,2025-08-04T13:35:09,5,revise,active
5410WDB23711,ynygdjw,,,Rehoboth,,,,Capel Rehoboth,,A4080,,,,before,,SE,E0054341,Llanfaelog,,,,,,,true,UKOS,233431,373299,-4.496935383,53.230536912,BCT,CUS,OTH,,,,024,2000-01-01T00:00:00,2025-08-04T13:35:45,5,revise,active
5410WDB23712,ynygdma,,,Rhosneigr Railway Station,,,,Rhosneigr Railway Station,,Station Road,,,,after,,NE,E0038779,Rhosneigr,,,,,,,true,UKOS,232808,373865,-4.506556109,53.235419306,BCT,CUS,OTH,,,,024,2000-01-01T00:00:00,2025-08-04T13:36:29,6,revise,active
5410WDB23713,ynygdmd,,,Rhosneigr Police Station,,,,,,Station Road,,,,nr,,SW,E0038779,Rhosneigr,,,,,,,true,UKOS,232187,373686,-4.51575666,53.233615912,BCT,CUS,OTH,,,,024,2000-01-01T00:00:00,2025-08-04T13:37:03,7,revise,active
5410WDB23714,ynygdmg,,,Rhosneigr Fire Station,,Fire Station,,Rhosneigr Fire Station,,Station Road,,,,o/s,,SW,E0038779,Rhosneigr,,,,,,,true,UKOS,232068,373553,-4.517467605,53.232383926,BCT,CUS,OTH,,,,024,2000-01-01T00:00:00,2025-08-04T13:37:37,7,revise,active
5410WDB23715,ynygdmj,,,Overstrand Avenue,,,,,,Station Road,,,,before,,SW,E0038779,Rhosneigr,,,,,,,true,UKOS,231966,373411,-4.518919436,53.231081059,BCT,CUS,OTH,,,,024,2000-01-01T00:00:00,2025-08-04T13:41:05,6,revise,active
5410WDB23716,ynygdmp,,,Sisial-y-Mor,,,,,,Ffordd Maelog,,,,after,,NW,E0038779,Rhosneigr,,,,,,,true,UKOS,232012,372959,-4.517992684,53.227036598,BCT,CUS,OTH,,,,024,2000-01-01T00:00:00,2025-08-04T13:41:36,4,revise,active
5410WDB23717,ynygdmt,,,Methodist Chapel,,,,Ty`n Gongl,,Village Road,,,,before,,SW,E0038749,Pencarnisiog,,,,,,,true,UKOS,235256,373605,-4.469780111,53.233854356,BCT,CUS,OTH,,,,024,2000-01-01T00:00:00,2025-08-04T13:42:13,5,revise,active
5410WDB23718,ynygdmw,,,Penrhyn Close,,,,RAF Valley Medical Centre,,Minffordd Road,,,,after,,NE,E0038713,Llanfihangel yn Nhowyn,,,,,,,true,UKOS,231593,376759,-4.526272987,53.261023505,BCT,CUS,OTH,,,,024,2000-01-01T00:00:00,2025-08-04T13:43:18,7,revise,active
5410WDB23719,ynygdpa,,,Bryn Trewen Isaf,,,,,,Minffordd Road,,,,before,,SW,E0038713,Llanfihangel yn Nhowyn,,,,,,,true,UKOS,231965,377277,-4.520975664,53.265797749,BCT,CUS,OTH,,,,024,2000-01-01T00:00:00,2025-08-04T13:43:59,4,revise,active
5410WDB23720,ynygdpd,,,Post Office,,,,Morawelon Post Office,,Ffordd Tudur,,,,after,,N,N0075749,Morawelon,Holyhead,,,,,,true,UKOS,225330,382212,-4.623063525,53.307966706,BCT,MKD,OTH,,,,024,2000-01-01T00:00:00,2025-08-04T13:44:34,7,revise,active
5410WDB23721,ynygdpg,,,Morawelon Industrial Estate,,Industrial Estate,,,,Ffordd Beibio,,,,opp 2,,NW,N0075749,Morawelon,Holyhead,,,,,,true,UKOS,225470,382295,-4.621010213,53.308753572,BCT,CUS,OTH,,,,024,2000-01-01T00:00:00,2025-08-04T13:54:18,7,revise,active
5410WDB23722,ynygdpj,,,Priory Lane,,,,,,Ffordd Tudur,,,,after,,NE,N0075749,Morawelon,Holyhead,,,,,,true,UKOS,225326,382334,-4.623190691,53.309060857,BCT,MKD,OTH,,,,024,2000-01-01T00:00:00,2025-08-04T13:55:06,4,revise,active
5410WDB23723,ynygdpm,,,Gwelfor Community Centre,,,,Gwelfor Community Centre,,Ffordd Tudur,,,,opp,,W,N0075749,Morawelon,Holyhead,,,,,,true,UKOS,225286,382445,-4.623851529,53.310044357,BCT,MKD,OTH,,,,024,2000-01-01T00:00:00,2025-08-04T13:59:15,4,revise,active
5410WDB23724,ynygdpt,,,Turkey Shore Estate,,,,Turkey Shore Estate,,Turkey Shore Road,,,,o/s,,SW,N0075749,Morawelon,Holyhead,,,,,,true,UKOS,225185,382472,-4.625380642,53.310253457,BCT,MKD,OTH,,,,024,2000-01-01T00:00:00,2025-08-04T13:59:58,5,revise,active
5410WDB23725,ynygdpw,,,Bowling Greens,,,,,,South Stack Road,,,,o/s,,E,E0038696,Llaingoch,Holyhead,,,,,,true,UKOS,224025,382614,-4.642850459,53.311144203,BCT,CUS,OTH,,,,024,2000-01-01T00:00:00,2025-08-04T14:02:21,4,revise,active
5410WDB23765,ynygdtd,,,Capel Paradwys,,,,,,A5025,,,,after,,SE,E0038697,Llanallgo,,,,,,,true,UKOS,250495,385361,-4.247196336,53.343955638,BCT,MKD,OTH,,,,024,2000-01-01T00:00:00,2025-08-04T14:03:21,5,revise,active
5410WDB23766,ynygdtg,,,Capel Paradwys,,,,,,A5025,,,,before,,NW,E0038697,Llanallgo,,,,,,,true,UKOS,250488,385358,-4.247299978,53.343926714,BCT,MKD,OTH,,,,024,2000-01-01T00:00:00,2025-08-04T14:04:13,5,revise,active
5410WDB24224,ynygdtj,,,Mona Industrial Estate,,,,,,Industrial Estate Site,,,,after 6,,SW,E0038733,Mona,,,,,,,true,UKOS,241734,375407,-4.37371055,53.252004593,BCT,MKD,OTH,,,,024,2000-01-01T00:00:00,2025-08-04T14:04:47,7,revise,active
5410WDB46494,ynydpda,,,Holyhead Retail Park,,,,,,A5153,,,,,,SE,E0038754,Penrhos,,,,,,,false,UKOS,225700,381361,-4.617048817,53.300442659,BCT,MKD,OTH,,,,024,2000-01-01T00:00:00,2025-08-04T14:06:00,11,revise,active
5410WDB46651,ynydpdj,,,King's Road,,,,,,King's Road,,,,opp 41,,NE,E0054333,Holyhead,,,,,,,false,UKOS,224585,381945,-4.634084549,53.305322971,BCT,CUS,OTH,,,,024,2000-01-01T00:00:00,2025-08-04T14:06:42,3,revise,active
5410WDB46661,ynydpdm,,,Mynydd Parys,,,,Penymynydd,,B5111,,,,before,,NE,E0054358,Rhosybol,,,,,,,false,UKOS,243403,390166,-4.356010707,53.385056484,BCT,CUS,OTH,,,,024,2000-01-01T00:00:00,2025-08-04T14:07:24,5,revise,active
5410WDB46662,ynydpdp,,,Mynydd Parys,,,,Penymynydd,,B5111,,,,after,,SW,E0054358,Rhosybol,,,,,,,false,UKOS,243408,390158,-4.355931629,53.384986119,BCT,CUS,OTH,,,,024,2000-01-01T00:00:00,2025-08-04T14:08:18,5,revise,active
5410WDB47350,ynygdtp,,,Tollgate,,,,,,Un-named,,,,before,,N,E0038652,Caergeiliog,,,,,,,false,UKOS,230487,378573,-4.543804219,53.276965266,BCT,CUS,OTH,,,,024,2000-01-01T00:00:00,2025-08-04T14:09:07,3,revise,active
5410WDB47352,ynygdtw,,,Ponc-y-Fron,,,,,,Ponc-y-Fron,,,,not in use,,,E0054347,Llangefni,,,,,,,false,UKOS,245698,375635,-4.314458464,53.255220207,BCT,HAR,OTH,,,,024,2000-01-01T00:00:00,2025-08-04T14:09:48,6,revise,inactive
5410WDB47357,ynygdwa,,,Ysgol Henblas,,,,,,Main Road,,,,o/s,,NW,E0038665,Cerrigceinwen,,,,,,,false,UKOS,242997,373597,-4.353904366,53.236128507,BCT,CUS,OTH,,,,024,2000-01-01T00:00:00,2025-08-04T14:10:18,4,revise,active
5410WDB47358,ynygdwd,,,Capel Ebenezer,,,,Trefor Crossroads,,B5112,,,,before,,S,E0038802,Trefor,,,,,,,false,UKOS,237452,380039,-4.440200066,53.292312591,BCT,CUS,OTH,,,,024,2000-01-01T00:00:00,2025-08-04T14:15:12,4,revise,active
5410WDB47365,ynygdwg,,,Ysgol Gynradd Rhoscolyn,,,,School,,Un-named,,,,o/s,,N,E0038676,Four Mile Bridge,,,,,,,false,UKOS,226835,377562,-4.597964756,53.266706528,BCT,CUS,OTH,,,,024,2000-01-01T00:00:00,2025-08-04T14:15:41,3,revise,active
5410WDB47847,ynygdwj,,,Ysgol Gynradd Amlwch,,,,School,,Wendon Drive,,,,o/s,,S,E0054325,Amlwch,,,,,,,false,UKOS,244166,393121,-4.346009002,53.41181661,BCT,CUS,OTH,,,,024,2000-01-01T00:00:00,2025-08-04T14:16:15,6,revise,active
5410WDB47848,ynygdwm,,,Amlwch Library,,,,Car Park,,Parys Road,,,,o/s,,SW,E0054325,Amlwch,,,,,,,false,UKOS,244181,393010,-4.345728648,53.41082415,BCT,CUS,OTH,,,,024,2000-01-01T00:00:00,2025-08-04T14:17:09,6,revise,active
5410WDB47849,ynygdwp,,,Tre Hwfa Road,,,,,,Fforth Tre Hwfa,,,,o/s 29,,SW,E0038765,Pont-Hwfa,Holyhead,,,,,,false,UKOS,223688,382480,-4.647828414,53.309828883,BCT,CUS,OTH,,,,024,2000-01-01T00:00:00,2025-08-04T14:17:58,3,revise,active
5410WDB47850,ynygdwt,,,Pen-yr-osedd,,,,,,A5025,,,,nr,,NE,E0038720,Llanrhuddlad,,,,,,,false,UKOS,234150,390172,-4.494998586,53.382284878,BCT,CUS,OTH,,,,024,2010-12-08T11:15:09,2025-08-04T14:18:41,6,revise,active
5410WDB47851,ynygjad,,,Pen-yr-osedd,,,,,,A5025,,,,nr,,SW,E0038720,Llanrhuddlad,,,,,,,false,UKOS,234157,390174,-4.494894501,53.382305037,BCT,CUS,OTH,,,,024,2010-12-08T11:21:51,2025-08-04T14:19:48,6,revise,active
5410WDB47852,ynygjag,,,Cemlyn,,,,,,Main Road,,,,after,,NE,E0038664,Cemlyn,,,,,,,false,UKOS,233460,392791,-4.506744306,53.405586218,BCT,CUS,OTH,,,,024,2010-12-08T11:25:52,2025-08-04T14:20:34,5,revise,active
5410WDB47853,ynygjaj,,,Cemlyn,,,,,,Main Road,,,,before,,SW,E0038664,Cemlyn,,,,,,,false,UKOS,233460,392813,-4.506755927,53.405783776,BCT,CUS,OTH,,,,024,2010-12-08T11:27:24,2025-08-04T14:21:18,5,revise,active
5410WDB47854,ynyadada,,,Llantrisant Church War Memorial,,,,Llantrisant Church,,Main Road,,,,nr,,SE,N0071263,Llantrisant,,,,,,,false,UKOS,236384,383574,-4.458031318,53.323729598,BCT,CUS,OTH,,,,024,2011-03-16T09:03:10,2025-08-04T14:21:53,5,revise,active
5410WDB47855,ynyadadg,,,Llantrisant Church War Memorial,,,,Llantrisant Church,,Main Road,,,,nr,,NW,N0071263,Llantrisant,,,,,,,false,UKOS,236384,383570,-4.458029252,53.323693677,BCT,CUS,OTH,,,,024,2011-03-16T09:07:16,2025-08-04T14:22:35,5,revise,active
5410WDB47856,ynyadadj,,,Gaerwen Farm,,,,,,Main Road,,,,after,,SE,E0054342,Llanfaethlu,,,,,,,false,UKOS,232932,386443,-4.511320507,53.348414637,BCT,CUS,OTH,,,,024,2011-03-16T09:13:35,2025-08-04T14:23:15,6,revise,active
5410WDB47857,ynyadadm,,,Gaerwen Farm,,,,,,Main Road,,,,before,,NW,E0054342,Llanfaethlu,,,,,,,false,UKOS,232926,386441,-4.511409494,53.348394781,BCT,CUS,OTH,,,,024,2011-03-16T09:15:16,2025-08-04T14:24:13,6,revise,active
5410WDB47858,ynygjam,,,Penrhos Morrison,,Morrison,,,,Penrhos Business Park,,,,Grounds,,NW,E0038754,Penrhos,,,,,,,false,UKOS,225565,381247,-4.619009824,53.299379152,BCT,MKD,OTH,,,,024,2012-06-15T14:51:25,2025-08-04T14:24:44,5,revise,active
5410WDB47860,ynygjat,,,Ysgol Ganradd Caergybi,,,,Holyhead High School,,Porth-y-felin Road,,,,o/s,,NW,E0054333,Holyhead,,,,,,,false,UKOS,224299,382694,-4.638786828,53.311953539,BCT,CUS,OTH,,,,024,2012-06-18T09:48:57,2025-08-04T14:25:42,5,revise,active
5410WDB47861,ynygjaw,,,Pencarnisiog Main Road,,,,,,A4080,,,,adj junct,,SW,E0038749,Pencarnisiog,,,,,,,false,UKOS,234986,373627,-4.473832731,53.233968068,BCT,CUS,OTH,,,,024,2012-08-22T14:14:17,2025-08-04T14:28:43,4,revise,active
5410WDB47862,ynygjda,,,Pencarnisiog Main Road,,,,,,A4080,,,,opp junct,,NE,E0038749,Pencarnisiog,,,,,,,false,UKOS,234978,373639,-4.473958689,53.234073346,BCT,CUS,OTH,,,,024,2012-08-22T14:21:10,2025-08-04T14:29:40,4,revise,active
5410WDB47863,ynygjdg,,,Llanfairpwll Park & Ride,,,,Llanfair PG Park & Ride,,A5025,,,,Grounds,,SW,E0038708,Llanfairpwllgwyngyll,,,,,,,false,UKOS,253991,372158,-4.188653332,53.226341426,BCT,MKD,OTH,,,,024,2013-02-13T14:32:18,2025-08-04T14:30:58,4,revise,active
5410WDB47864,ynygjdj,,,Ysbyty Penrhos Stanley,,,,Ysbyty Penrhos Stanley,,Grounds,,,,in,,SE,E0038636,Blackbridge,Holyhead,,,,,,false,UKOS,225795,381769,-4.615849056,53.304142062,BCT,MKD,OTH,,,,024,2013-12-09T14:56:54,2025-08-04T14:31:31,4,revise,active
5410WDB47865,ynygmag,,,Ysgol Gyfan Llangefni,,,,,,Cildwrn Road,,,,,,N,E0054347,Llangefni,,,,,,,false,UKOS,245420,375865,-4.318733751,53.257204985,BCT,MKD,OTH,,,,024,2025-05-13T09:30:56,2025-08-04T14:32:21,1,revise,active
5410WDB47866,ynygmaj,,,Ysgol Gyfun Llangefni,,,,Ysgol Gyfun Llangefni,,Nant Terrace,,,,,,NW,E0054347,Llangefni,,,,,,,false,UKOS,245418,375862,-4.318762247,53.257177458,BCT,MKD,OTH,,,,024,2025-09-08T10:51:46,2025-09-08T11:02:36,4,revise,active
