ATCOCode,NaptanCode,PlateCode,CleardownCode,CommonName,CommonNameLang,ShortCommonName,ShortCommonNameLang,Landmark,LandmarkLang,Street,StreetLang,Crossing,CrossingLang,Indicator,IndicatorLang,Bearing,NptgLocalityCode,LocalityName,ParentLocalityName,GrandParentLocalityName,Town,TownLang,Suburb,SuburbLang,LocalityCentre,GridType,Easting,Northing,Longitude,Latitude,StopType,BusStopType,TimingStatus,DefaultWaitTime,Notes,NotesLang,AdministrativeAreaCode,CreationDateTime,ModificationDateTime,RevisionNumber,Modification,Status
5530ANZ12715,mtyawaj,,,Merthyr Depot Yard,,,,,,Depot Yard,,,,not in use,,W,E0054369,Pant,Merthyr Tydfil,,,,,,true,UKOS,305941,208758,-3.364517038,51.769569279,BCT,CUS,OTH,,,,030,2000-01-01T00:00:00,2024-04-26T16:38:09,5,revise,inactive
5530ANZ12840,mtyatwm,,,Mountain Railway Station,,,,Pant Railway Station,,Unclassified Road,,,,nr,,S,E0054369,Pant,Merthyr Tydfil,,,,,,true,UKOS,305968,209653,-3.364368521,51.777618518,BCT,MKD,OTH,,,,030,2000-01-01T00:00:00,2024-04-26T16:38:14,2,revise,active
5530AWB33601,mtyagpt,,,Asda,,,,Dowlais Top Asda,,Grounds,,,,in,,NW,E0039187,Dowlais Top,Merthyr Tydfil,,,,,,true,UKOS,307560,208481,-3.340987470,51.767349444,BCT,MKD,OTH,,,,030,2000-01-01T00:00:00,2024-04-26T16:38:02,3,revise,active
5530AWB33602,mtyagtd,,,Tredegar Arms,,,,Tredegar Arms PH,,High Street,,,,o/s,,SW,E0039187,Dowlais Top,Merthyr Tydfil,,,,,,true,UKOS,307553,208091,-3.340984972,51.763842738,BCT,MKD,OTH,,,,030,2000-01-01T00:00:00,2024-04-26T16:38:24,3,revise,active
5530AWB33603,mtyagtg,,,Tredegar Arms,,,,Tredegar Arms PH,,High Street,,,,opp,,NE,E0039187,Dowlais Top,Merthyr Tydfil,,,,,,true,UKOS,307561,208103,-3.340872280,51.763951923,BCT,MKD,OTH,,,,030,2000-01-01T00:00:00,2024-04-26T16:38:24,3,revise,active
5530AWB33604,mtyagpw,,,Coedcae,,,,,,High Street,,,,at,,NE,E0039187,Dowlais Top,Merthyr Tydfil,,,,,,true,UKOS,307405,208032,-3.343113156,51.763287927,BCT,MKD,OTH,,,,030,2000-01-01T00:00:00,2024-04-26T16:38:08,3,revise,active
5530AWB33605,mtyagta,,,Coedcae,,,,,,High Street,,,,at,,SW,E0039187,Dowlais Top,Merthyr Tydfil,,,,,,true,UKOS,307388,208017,-3.343355412,51.763150283,BCT,MKD,OTH,,,,030,2000-01-01T00:00:00,2024-04-26T16:38:08,3,revise,active
5530AWB33606,mtyagtm,,,Antelope,,Capel Hebron,,Antelope PH,,High Street,,,,opp,,NE,E0039176,Cae-Harris,Merthyr Tydfil,,,,,,true,UKOS,307234,207946,-3.345567239,51.762486572,BCT,MKD,OTH,,,,030,2000-01-01T00:00:00,2024-04-26T16:38:02,3,revise,active
5530AWB33608,mtyagpm,,,Antelope,,Capel Hebron,,Antelope PH,,High Street,,,,o/s,,SW,E0039176,Cae-Harris,Merthyr Tydfil,,,,,,true,UKOS,307238,207936,-3.345506624,51.762397349,BCT,MKD,OTH,,,,030,2000-01-01T00:00:00,2024-04-26T16:38:02,3,revise,active
5530AWB33609,mtyagmw,,,Market Street,,,,O.P. Chocolates,,High Street,,,,before,,NE,E0054366,Dowlais,Merthyr Tydfil,,,,,,true,UKOS,306837,207773,-3.351271549,51.760865562,BCT,MKD,OTH,,,,030,2000-01-01T00:00:00,2024-04-26T16:38:36,3,revise,active
5530AWB33610,mtyagpa,,,Market Street,,,,O.P. Chocolates,,High Street,,,,after,,SW,E0054366,Dowlais,Merthyr Tydfil,,,,,,true,UKOS,306808,207748,-3.351684901,51.760636017,BCT,MKD,OTH,,,,030,2000-01-01T00:00:00,2024-04-26T16:38:36,3,revise,active
5530AWB33611,mtyawjp,,,Flats,,,,Dowlais Flats,,High Street,,,,nr,,SW,E0054366,Dowlais,Merthyr Tydfil,,,,,,true,UKOS,306342,207574,-3.358387905,51.758994176,BCT,MKD,OTH,,,,030,2000-01-01T00:00:00,2024-04-26T16:38:32,3,revise,active
5530AWB33612,mtyawjt,,,Flats,,,,Dowlais Flats,,High Street,,,,nr,,E,E0054366,Dowlais,Merthyr Tydfil,,,,,,true,UKOS,306343,207597,-3.358379627,51.759201080,BCT,MKD,OTH,,,,030,2000-01-01T00:00:00,2024-04-26T16:38:32,3,revise,active
5530AWB33613,mtydadm,,,Norton,,,,Norton PH,,High Street,,,,after,,NE,E0054371,Penydarren,Merthyr Tydfil,,,,,,true,UKOS,306005,207447,-3.363234734,51.757796107,BCT,MKD,OTH,,,,030,2000-01-01T00:00:00,2024-04-26T16:38:37,3,revise,active
5530AWB33614,mtydadp,,,Norton,,,,Norton PH,,High Street,,,,after,,SW,E0054371,Penydarren,Merthyr Tydfil,,,,,,true,UKOS,305880,207322,-3.365011335,51.756651525,BCT,MKD,OTH,,,,030,2000-01-01T00:00:00,2024-04-26T16:38:37,3,revise,active
5530AWB33615,mtyawpw,,,Steps,,Capel Horeb,,Penydarren Steps,,High Street,,,,after,,NE,E0054371,Penydarren,Merthyr Tydfil,,,,,,true,UKOS,305748,207269,-3.366908775,51.756152910,BCT,MKD,OTH,,,,030,2000-01-01T00:00:00,2024-04-26T16:38:15,3,revise,active
5530AWB33616,mtyawta,,,Steps,,Capel Horeb,,Penydarren Steps,,High Street,,,,after,,SW,E0054371,Penydarren,Merthyr Tydfil,,,,,,true,UKOS,305685,207191,-3.367800039,51.755441189,BCT,MKD,OTH,,,,030,2000-01-01T00:00:00,2024-04-26T16:38:15,3,revise,active
5530AWB33617,mtyawtd,,,Penydarren Social Club,,Club,,Penydarren Social Club,,High Street,,,,nr,,SW,E0054371,Penydarren,Merthyr Tydfil,,,,,,true,UKOS,305466,206960,-3.370908848,51.753323199,BCT,MKD,OTH,,,,030,2000-01-01T00:00:00,2024-04-26T16:38:07,5,revise,active
5530AWB33618,mtyawtg,,,Penydarren Social Club,,Club,,Penydarren Social Club,,High Street,,,,nr,,NE,E0054371,Penydarren,Merthyr Tydfil,,,,,,false,UKOS,305442,206975,-3.371260512,51.753453970,BCT,MKD,OTH,,,,030,2000-01-01T00:00:00,2024-04-26T16:38:07,5,revise,active
5530AWB33619,mtyawpg,,,High Street Nursing Home,,,,,,High Street,,,,after,,S,E0054371,Penydarren,Merthyr Tydfil,,,,,,false,UKOS,305242,206873,-3.374129281,51.752507992,BCT,MKD,OTH,,,,030,2000-01-01T00:00:00,2024-04-26T16:38:34,3,revise,active
5530AWB33620,mtydmap,,,High Street Nursing Home,,,,,,High Street,,,,o/s,,E,E0054371,Penydarren,Merthyr Tydfil,,,,,,false,UKOS,305237,206931,-3.374217519,51.753028477,BCT,MKD,OTH,,,,030,2000-01-01T00:00:00,2024-04-26T16:38:34,3,revise,active
5530AWB33621,mtydagp,,,Trevithick Memorial,,Theatre Royal,,Theatre Royal,,Penydarren Road,,,,before,,SW,E0054371,Penydarren,Merthyr Tydfil,,,,,,false,UKOS,305145,206719,-3.375491987,51.751107329,BCT,MKD,OTH,,,,030,2000-01-01T00:00:00,2024-04-26T16:38:08,3,revise,active
5530AWB33622,mtydmaw,,,Trevithick Memorial,,Theatre Royal,,Trevithick Memorial,,Penydarren Road,,,,before,,NE,E0054371,Penydarren,Merthyr Tydfil,,,,,,false,UKOS,305081,206663,-3.376403512,51.750593121,BCT,MKD,OTH,,,,030,2000-01-01T00:00:00,2024-04-26T16:38:08,3,revise,active
5530AWB33623,mtyajpw,,,RAFA Club,,,,Merthyr Tydfil RAFA Club,,Penry Street,,,,o/s,,N,E0039193,Georgetown,Merthyr Tydfil,,,,,,false,UKOS,304566,206261,-3.383751038,51.746892162,BCT,MKD,OTH,,,,030,2000-01-01T00:00:00,2024-04-26T16:38:07,5,revise,active
5530AWB33624,mtydtmw,,,Coffins Row,,,,Daffodils Nursing Home,,Dynevor Street,,,,after,,NW,E0039193,Georgetown,Merthyr Tydfil,,,,,,false,UKOS,304513,206395,-3.384555330,51.748087574,BCT,MKD,OTH,,,,030,2000-01-01T00:00:00,2024-04-26T16:38:30,4,revise,active
5530AWB33625,mtydtmt,,,Coffins Row Q,,,,Kirkhouse Memorial Hall,,Dynevor Street,,,,not in use,,SE,E0039193,Georgetown,Merthyr Tydfil,,,,,,false,UKOS,304545,206338,-3.384076284,51.747580692,BCT,MKD,OTH,,,,030,2000-01-01T00:00:00,2024-04-26T16:38:30,6,revise,inactive
5530AWB33626,mtyamja,,,Great Escape,,,,Great Escape PH,,Nantygwenith Street,,,,nr,,NW,E0039193,Georgetown,Merthyr Tydfil,,,,,,true,UKOS,304424,206506,-3.385874655,51.749070098,BCT,MKD,OTH,,,,030,2000-01-01T00:00:00,2024-04-26T16:38:15,5,revise,active
5530AWB33627,mtyamjd,,,Great Escape,,,,Great Escape PH,,Nantygwenith Street,,,,nr,,SE,E0039193,Georgetown,Merthyr Tydfil,,,,,,true,UKOS,304404,206536,-3.386172532,51.749336335,BCT,MKD,OTH,,,,030,2000-01-01T00:00:00,2024-04-26T16:38:15,4,revise,active
5530AWB33628,mtyajmg,,,Independent Chapel,,Gellideg Independent Chapel,,Gellideg Independent Chapel,,Swansea Road,,,,opp,,NW,E0039192,Gellideg,Merthyr Tydfil,,,,,,false,UKOS,303366,206712,-3.401252793,51.750740000,BCT,MKD,OTH,,,,030,2000-01-01T00:00:00,2024-04-26T16:38:05,4,revise,active
5530AWB33629,mtydtdw,,,Independent Chapel,,Gellideg Independent Chapel,,Gellideg Independent Chapel,,Swansea Road,,,,after,,SE,E0039192,Gellideg,Merthyr Tydfil,,,,,,false,UKOS,303429,206714,-3.400341018,51.750768853,BCT,MKD,OTH,,,,030,2000-01-01T00:00:00,2024-04-26T16:38:05,2,revise,active
5530AWB33630,mtyajpa,,,Maen Dy,,,,,,Heol Tai Mawr,,,,nr,,NW,E0039192,Gellideg,Merthyr Tydfil,,,,,,false,UKOS,303314,206869,-3.402049537,51.752142193,BCT,MKD,OTH,,,,030,2000-01-01T00:00:00,2024-04-26T16:38:17,2,revise,active
5530AWB33631,mtyajpd,,,Heol Parc Maen,,,,,,Heol Tai Mawr,,,,before,,S,E0039192,Gellideg,Merthyr Tydfil,,,,,,false,UKOS,303318,206887,-3.401996620,51.752304675,BCT,MKD,OTH,,,,030,2000-01-01T00:00:00,2024-04-26T16:38:16,2,revise,active
5530AWB33632,mtyajmj,,,Tai Mawr Flats,,,,,,Heol Tai Mawr,,,,before,,NW,E0039192,Gellideg,Merthyr Tydfil,,,,,,false,UKOS,303265,207023,-3.402802048,51.753517933,BCT,MKD,OTH,,,,030,2000-01-01T00:00:00,2024-04-26T16:38:10,3,revise,active
5530AWB33633,mtyajmp,,,Tai Mawr Flats,,,,,,Heol Tai Mawr,,,,opp,,SE,E0039192,Gellideg,Merthyr Tydfil,,,,,,false,UKOS,303269,207033,-3.402746904,51.753608509,BCT,MKD,OTH,,,,030,2000-01-01T00:00:00,2024-04-26T16:38:10,3,revise,active
5530AWB33634,mtyajmt,,,Swansea Road Shops,,,,Swansea Road Post Office,,Heol Tai Mawr,,,,opp,,SE,E0039192,Gellideg,Merthyr Tydfil,,,,,,false,UKOS,303123,207163,-3.404897596,51.754751735,BCT,MKD,OTH,,,,030,2000-01-01T00:00:00,2024-04-26T16:38:40,3,revise,active
5530AWB33635,mtyajmw,,,Swansea Road Shops,,,,Swansea Road Post Office,,Heol Tai Mawr,,,,o/s,,SW,E0039192,Gellideg,Merthyr Tydfil,,,,,,false,UKOS,303124,207153,-3.404880323,51.754662025,BCT,MKD,OTH,,,,030,2000-01-01T00:00:00,2024-04-26T16:38:40,3,revise,active
5530AWB33637,mtyajpg,,,Heol Bryn Hebog,,,,,,Heol Tai Mawr,,,,after,,SW,E0039192,Gellideg,Merthyr Tydfil,,,,,,false,UKOS,302945,207104,-3.407459024,51.754190572,BCT,MKD,OTH,,,,030,2000-01-01T00:00:00,2024-04-26T16:38:16,2,revise,active
5530AWB33638,mtyajpj,,,Heol Bryn Padell,,,,,,Heol Tai Mawr,,,,after,,NE,E0039192,Gellideg,Merthyr Tydfil,,,,,,false,UKOS,302937,207110,-3.407576561,51.754243114,BCT,MKD,OTH,,,,030,2000-01-01T00:00:00,2024-04-26T16:38:16,2,revise,active
5530AWB33639,mtyajpm,,,Bro y Ffrwd,,,,,,Heol Tai Mawr,,,,before,,NE,E0039192,Gellideg,Merthyr Tydfil,,,,,,false,UKOS,302868,207064,-3.408562987,51.753817675,BCT,MKD,OTH,,,,030,2000-01-01T00:00:00,2024-04-26T16:38:03,2,revise,active
5530AWB33640,mtyajpt,,,Heol Nantgau,,,,,,Heol Tai Mawr,,,,before,,SW,E0039192,Gellideg,Merthyr Tydfil,,,,,,false,UKOS,302878,207062,-3.408417604,51.753801435,BCT,MKD,OTH,,,,030,2000-01-01T00:00:00,2024-04-26T16:38:16,2,revise,active
5530AWB33641,mtydtgt,,,Harp Inn,,,,Harp Inn PH,,Swansea Road,,,,after former,,SE,E0039180,Clwydfagwyr,Merthyr Tydfil,,,,,,false,UKOS,302759,207073,-3.410144087,51.753879637,BCT,MKD,OTH,,,,030,2000-01-01T00:00:00,2024-04-26T16:38:15,3,revise,active
5530AWB33642,mtydtgw,,,Harp Inn,,,,Harp Inn PH,,Swansea Road,,,,after former,,W,E0039180,Clwydfagwyr,Merthyr Tydfil,,,,,,false,UKOS,302649,207094,-3.411743036,51.754049263,BCT,MKD,OTH,,,,030,2000-01-01T00:00:00,2024-04-26T16:38:15,3,revise,active
5530AWB33643,mtydtja,,,Waunbant Court,,,,,,Swansea Road,,,,after,,W,E0039180,Clwydfagwyr,Merthyr Tydfil,,,,,,false,UKOS,302388,207106,-3.415526321,51.754111648,BCT,MKD,OTH,,,,030,2000-01-01T00:00:00,2024-04-26T16:38:42,2,revise,active
5530AWB33644,mtydtjd,,,Twyncarmel Entrance,,,,,,Swansea Road,,,,after,,SE,N0080555,Castle Park,Merthyr Tydfil,,,,,,false,UKOS,302215,207141,-3.418041636,51.754396030,BCT,MKD,OTH,,,,030,2000-01-01T00:00:00,2024-04-26T16:38:17,3,revise,active
5530AWB33645,mtydtjg,,,Twyncarmel Entrance,,,,,,Swansea Road,,,,before,,NW,N0080555,Castle Park,Merthyr Tydfil,,,,,,false,UKOS,302206,207132,-3.418169444,51.754313562,BCT,MKD,OTH,,,,030,2000-01-01T00:00:00,2024-04-26T16:38:17,4,revise,active
5530AWB33646,mtyadwp,,,Castle View Stores,,,,Castle View Stores,,Winchfawr Road,,,,after,,NW,N0080555,Castle Park,Merthyr Tydfil,,,,,,false,UKOS,302250,207014,-3.417498998,51.753260630,BCT,MKD,OTH,,,,030,2000-01-01T00:00:00,2024-04-26T16:38:29,4,revise,active
5530AWB33647,mtyadwt,,,Castle View Stores,,,,Castle View,,Winchfawr Road,,,,after,,SE,N0080555,Castle Park,Merthyr Tydfil,,,,,,false,UKOS,302269,206994,-3.417218208,51.753084182,BCT,MKD,OTH,,,,030,2000-01-01T00:00:00,2024-04-26T16:38:29,4,revise,active
5530AWB33648,mtyagap,,,Twyncarmel Centre,,,,,,Winchfawr Road,,,,o/s,,SE,N0080555,Castle Park,Merthyr Tydfil,,,,,,false,UKOS,302321,206852,-3.416425198,51.751816921,BCT,MKD,OTH,,,,030,2000-01-01T00:00:00,2024-04-26T16:38:04,4,revise,active
5530AWB33649,mtyagat,,,Twyncarmel Centre,,,,,,Winchfawr Road,,,,opp,,NW,N0080555,Castle Park,Merthyr Tydfil,,,,,,false,UKOS,302315,206843,-3.416509557,51.751734978,BCT,MKD,OTH,,,,030,2000-01-01T00:00:00,2024-04-26T16:38:04,4,revise,active
5530AWB33650,mtyagda,,,Twyncarmel Terminus,,,,Twyncarmel Inn PH,,Winchfawr Road,,,,at,,NW,N0080555,Castle Park,Merthyr Tydfil,,,,,,false,UKOS,302304,206621,-3.416606408,51.749737650,BCT,MKD,OTH,,,,030,2000-01-01T00:00:00,2024-04-26T16:38:25,3,revise,active
5530AWB33651,mtyapwp,,,Round House,,Cyfarthfa Junior School,,,,Brecon Road,,,,before,,SE,E0039203,Merthyr Tydfil,,,,,,,true,UKOS,304247,206966,-3.388564619,51.753174517,BCT,MKD,OTH,,,,030,2000-01-01T00:00:00,2024-04-26T16:38:39,3,revise,active
5530AWB33652,mtyapwt,,,Round House,,Cyfarthfa Junior School,,,,Brecon Road,,,,o/s,,NW,E0039203,Merthyr Tydfil,,,,,,,true,UKOS,304279,206936,-3.388092916,51.752910340,BCT,MKD,OTH,,,,030,2000-01-01T00:00:00,2024-04-26T16:38:39,3,revise,active
5530AWB33653,mtyapdg,,,Grawen Arms Inn,,,,Grawen Arms Inn PH,,Brecon Road,,,,after,,SE,E0039229,The Quar,Merthyr Tydfil,,,,,,true,UKOS,304541,206816,-3.384265583,51.751876489,BCT,MKD,OTH,,,,030,2000-01-01T00:00:00,2024-04-26T16:38:14,4,revise,active
5530AWB33654,mtyapdj,,,Grawen Arms Inn,,,,Grawen Arms Inn PH,,Brecon Road,,,,o/s,,NW,E0039229,The Quar,Merthyr Tydfil,,,,,,true,UKOS,304498,206852,-3.384898205,51.752192735,BCT,MKD,OTH,,,,030,2000-01-01T00:00:00,2024-04-26T16:38:15,4,revise,active
5530AWB33655,mtyapwg,,,Park View,,,,Park View PH,,Brecon Road,,,,before,,NW,E0039204,Morgan Town,Merthyr Tydfil,,,,,,false,UKOS,304841,206542,-3.379845927,51.749464752,BCT,MKD,OTH,,,,030,2000-01-01T00:00:00,2024-04-26T16:38:37,4,revise,active
5530AWB33656,mtyawpt,,,Park View,,,,Park View PH,,Brecon Road,,,,opp,,SE,E0039204,Morgan Town,Merthyr Tydfil,,,,,,false,UKOS,304827,206568,-3.380055788,51.749696071,BCT,MKD,OTH,,,,030,2000-01-01T00:00:00,2024-04-26T16:38:37,4,revise,active
5530AWB33657,mtyaptm,,,Pandy Farm,,,,Cyfarthfa Castle,,Brecon Road,,,,o/s,,NW,E0039203,Merthyr Tydfil,,,,,,,true,UKOS,304059,207081,-3.391319063,51.754175979,BCT,MKD,OTH,,,,030,2000-01-01T00:00:00,2024-04-26T16:38:10,3,revise,active
5530AWB33658,mtyaptp,,,Pandy Farm,,,,Cyfarthfa Castle,,Brecon Road,,,,opp,,SE,E0039203,Merthyr Tydfil,,,,,,,true,UKOS,304058,207094,-3.391337138,51.754292657,BCT,MKD,OTH,,,,030,2000-01-01T00:00:00,2024-04-26T16:38:10,3,revise,active
5530AWB33659,mtydpmg,,,Cefn Bridge,,,,Cefn Bridge,,High Street,,,,after,,NW,E0039179,Cefn Coed,Merthyr Tydfil,,,,,,false,UKOS,303665,207658,-3.397185302,51.759294578,BCT,MKD,OTH,,,,030,2000-01-01T00:00:00,2024-04-26T16:38:19,3,revise,active
5530AWB33660,mtydpmd,,,Cefn Bridge,,,,,,High Street,,,,before,,SE,E0039179,Cefn Coed,Merthyr Tydfil,,,,,,false,UKOS,303613,207715,-3.397954308,51.759797958,BCT,MKD,OTH,,,,030,2000-01-01T00:00:00,2024-04-26T16:38:20,3,revise,active
5530AWB33661,mtydpma,,,Capel Carmel War Memorial,,,,Capel Carmel,,High Street,,,,before,,NW,E0039179,Cefn Coed,Merthyr Tydfil,,,,,,false,UKOS,303488,207778,-3.399782369,51.760342673,BCT,MKD,OTH,,,,030,2000-01-01T00:00:00,2024-04-26T16:38:08,4,revise,active
5530AWB33662,mtydpjw,,,Cefn Coed War Memorial,,,,Cefn Coed War Memorial,,High Street,,,,o/s,,SE,E0039179,Cefn Coed,Merthyr Tydfil,,,,,,false,UKOS,303434,207813,-3.400574270,51.760647946,BCT,MKD,OTH,,,,030,2000-01-01T00:00:00,2024-04-26T16:38:08,5,revise,active
5530AWB33663,mtydwdj,,,Post Office,,,,Cefn Coed Post Office,,High Street,,,,before former,,NW,E0039179,Cefn Coed,Merthyr Tydfil,,,,,,false,UKOS,303312,207871,-3.402357549,51.761148196,BCT,MKD,OTH,,,,030,2000-01-01T00:00:00,2024-04-26T16:38:23,3,revise,active
5530AWB33664,mtyadwj,,,Post Office,,,,Cefn Coed Post Office,,High Street,,,,before former,,SE,E0039179,Cefn Coed,Merthyr Tydfil,,,,,,false,UKOS,303222,207937,-3.403679580,51.761725863,BCT,MKD,OTH,,,,030,2000-01-01T00:00:00,2024-04-26T16:38:23,3,revise,active
5530AWB33665,mtyadwg,,,Drovers Arms,,,,Drovers Arms PH,,High Street,,,,before,,NW,E0039179,Cefn Coed,Merthyr Tydfil,,,,,,false,UKOS,303119,207993,-3.405187160,51.762211380,BCT,MKD,OTH,,,,030,2000-01-01T00:00:00,2024-04-26T16:38:09,3,revise,active
5530AWB33666,mtyadwm,,,Drovers Arms,,,,Drovers Arms PH,,High Street,,,,before,,SE,E0039179,Cefn Coed,Merthyr Tydfil,,,,,,false,UKOS,303086,208025,-3.405674103,51.762493290,BCT,MKD,OTH,,,,030,2000-01-01T00:00:00,2024-04-26T16:38:09,3,revise,active
5530AWB33667,mtyadwa,,,Cloth Hall Lane,,,,,,Vaynor Road,,,,after,,SW,E0039179,Cefn Coed,Merthyr Tydfil,,,,,,false,UKOS,303081,208124,-3.405774176,51.763382270,BCT,MKD,OTH,,,,030,2000-01-01T00:00:00,2024-04-26T16:38:30,3,revise,active
5530AWB33668,mtyadwd,,,Cloth Hall Lane,,,,,,Vaynor Road,,,,before,,NE,E0039179,Cefn Coed,Merthyr Tydfil,,,,,,false,UKOS,303103,208140,-3.405459963,51.763529895,BCT,MKD,OTH,,,,030,2000-01-01T00:00:00,2024-04-26T16:38:30,3,revise,active
5530AWB33669,mtydapt,,,Layby,,,,Trefechan Layby,,Vaynor Road,,,,at,,NE,E0039231,Trefechan,Merthyr Tydfil,,,,,,false,UKOS,303575,208701,-3.398778681,51.768653945,BCT,MKD,OTH,,,,030,2000-01-01T00:00:00,2024-04-26T16:38:35,3,revise,active
5530AWB33670,mtydapw,,,Layby,,,,Trefechan Layby,,Vaynor Road,,,,opp,,SW,E0039231,Trefechan,Merthyr Tydfil,,,,,,false,UKOS,303581,208692,-3.398689256,51.768574085,BCT,MKD,OTH,,,,030,2000-01-01T00:00:00,2024-04-26T16:38:35,3,revise,active
5530AWB33671,mtydawd,,,Shops,,,,Trefechan Shops,,Cherry Tree Close,,,,opp,,SW,E0039231,Trefechan,Merthyr Tydfil,,,,,,false,UKOS,303623,208802,-3.398111353,51.769570046,BCT,MKD,OTH,,,,030,2000-01-01T00:00:00,2024-04-26T16:38:22,2,revise,active
5530AWB33672,mtydapj,,,Laburnum Lane,,,,,,The Birchway,,,,after,,W,E0039231,Trefechan,Merthyr Tydfil,,,,,,false,UKOS,303539,208697,-3.399299107,51.768611783,BCT,MKD,OTH,,,,030,2000-01-01T00:00:00,2024-04-26T16:38:34,2,revise,active
5530AWB33673,mtydapm,,,Birchway Steps,,,,,,The Birchway,,,,by,,NE,E0039231,Trefechan,Merthyr Tydfil,,,,,,false,UKOS,303429,208864,-3.400939182,51.770093853,BCT,MKD,OTH,,,,030,2000-01-01T00:00:00,2024-04-26T16:38:28,2,revise,active
5530AWB33674,mtydapg,,,Hawthorn Hill,,,,,,Hawthorn Hill,,,,o/s 6,,NE,E0039231,Trefechan,Merthyr Tydfil,,,,,,false,UKOS,303515,209008,-3.399733296,51.771403023,BCT,MKD,OTH,,,,030,2000-01-01T00:00:00,2024-04-26T16:38:33,2,revise,active
5530AWB33675,mtydawg,,,The Green,,,,Trefechan Green,,Beechwood Avenue,,,,opp junct,,SW,E0039231,Trefechan,Merthyr Tydfil,,,,,,false,UKOS,303641,208855,-3.397865299,51.770049531,BCT,MKD,OTH,,,,030,2000-01-01T00:00:00,2024-04-26T16:38:40,4,revise,active
5530AWB33676,mtydapd,,,Poplar Place,,,,,,Beechwood Avenue,,,,nr,,SW,E0039231,Trefechan,Merthyr Tydfil,,,,,,true,UKOS,303655,208988,-3.397699410,51.771247396,BCT,CUS,OTH,,,,030,2000-01-01T00:00:00,2024-04-26T16:38:38,2,revise,active
5530AWB33677,mtydata,,,Ash Grove,,,,Ash Grove,,Maple Crescent,,,,after,,SE,E0039231,Trefechan,Merthyr Tydfil,,,,,,false,UKOS,303648,208754,-3.397735835,51.769142912,BCT,MKD,OTH,,,,030,2000-01-01T00:00:00,2024-04-26T16:38:28,2,revise,active
5530AWB33678,mtydatd,,,Maple Crescent,,,,,,Maple Crescent,,,,o/s 26,,NE,E0039231,Trefechan,Merthyr Tydfil,,,,,,false,UKOS,303795,208819,-3.395624217,51.769752467,BCT,CUS,OTH,,,,030,2000-01-01T00:00:00,2024-04-26T16:38:35,2,revise,active
5530AWB33679,mtydatg,,,Linden Way,,,,,,Linden Way,,,,o/s 8,,NW,E0039231,Trefechan,Merthyr Tydfil,,,,,,false,UKOS,303772,209029,-3.396015684,51.771636068,BCT,CUS,OTH,,,,030,2000-01-01T00:00:00,2024-04-26T16:38:35,2,revise,active
5530AWB33680,mtydatj,,,Rowan Rise,,,,,,Rowan Rise,,,,o/s 20,,S,E0039231,Trefechan,Merthyr Tydfil,,,,,,false,UKOS,303697,209023,-3.397100630,51.771569225,BCT,MKD,OTH,,,,030,2000-01-01T00:00:00,2024-04-26T16:38:39,2,revise,active
5530AWB33681,mtydatm,,,Nursery School,,Rowan Rise Shelter,,Trefechan Nursery School,,Rowan Rise,,,,o/s,,SW,E0039231,Trefechan,Merthyr Tydfil,,,,,,false,UKOS,303671,208829,-3.397423450,51.769821003,BCT,MKD,OTH,,,,030,2000-01-01T00:00:00,2024-04-26T16:38:26,2,revise,active
5530AWB33682,mtydatp,,,Rowan Rise Steps,,,,Vaynor Road Steps,,Vaynor Road,,,,nr,,SW,E0039231,Trefechan,Merthyr Tydfil,,,,,,false,UKOS,303653,208836,-3.397686171,51.769880820,BCT,MKD,OTH,,,,030,2000-01-01T00:00:00,2024-04-26T16:38:39,2,revise,active
5530AWB33683,mtydatw,,,Vaynor Road,,,,,,Vaynor Road,,,,at,,SW,E0039231,Trefechan,Merthyr Tydfil,,,,,,false,UKOS,303679,209025,-3.397361971,51.771584101,BCT,MKD,OTH,,,,030,2000-01-01T00:00:00,2024-04-26T16:38:41,3,revise,active
5530AWB33684,mtydawa,,,Vaynor Road,,,,,,Vaynor Road,,,,at,,NE,E0039231,Trefechan,Merthyr Tydfil,,,,,,false,UKOS,303673,209030,-3.397450289,51.771628009,BCT,MKD,OTH,,,,030,2000-01-01T00:00:00,2024-04-26T16:38:41,3,revise,active
5530AWB33685,mtydjwg,,,Pontsarn Inn,,,,Pontsarn Inn,,Vaynor Road,,,,nr,,S,E0039221,Pont-sarn,,,,,,,true,UKOS,304458,209829,-3.386297164,51.778944434,BCT,MKD,OTH,,,,030,2000-01-01T00:00:00,2024-04-26T16:38:20,4,revise,active
5530AWB33686,mtydjwj,,,Pontsarn Inn,,,,Pontsarn Inn,,Vaynor Road,,,,nr,,N,E0039221,Pont-sarn,,,,,,,true,UKOS,304452,209861,-3.386392926,51.779231037,BCT,MKD,OTH,,,,030,2000-01-01T00:00:00,2024-04-26T16:38:20,4,revise,active
5530AWB33687,mtydjwm,,,Bragdy,,,,,,Vaynor Road,,,,nr,,NE,E0054375,Vaynor,,,,,,,true,UKOS,304623,210346,-3.384048453,51.783619616,BCT,CUS,OTH,,,,030,2000-01-01T00:00:00,2024-04-26T16:38:03,3,revise,active
5530AWB33688,mtydjwp,,,Bragdy,,,,,,Vaynor Road,,,,nr,,S,E0054375,Vaynor,,,,,,,true,UKOS,304626,210331,-3.384000850,51.783485302,BCT,CUS,OTH,,,,030,2000-01-01T00:00:00,2024-04-26T16:38:03,3,revise,active
5530AWB33689,mtydjwa,,,Bryn-derwen,,,,,,Vaynor Road,,,,nr,,NE,E0054375,Vaynor,,,,,,,true,UKOS,304876,210628,-3.380459346,51.786197467,BCT,MKD,OTH,,,,030,2000-01-01T00:00:00,2024-04-26T16:38:03,3,revise,active
5530AWB33690,mtydjwd,,,Bryn-derwen,,,,,,Vaynor Road,,,,nr,,SW,E0054375,Vaynor,,,,,,,true,UKOS,304883,210622,-3.380356249,51.786144728,BCT,MKD,OTH,,,,030,2000-01-01T00:00:00,2024-04-26T16:38:03,3,revise,active
5530AWB33691,mtydagt,,,Penrhadw Farm,,Pontsticill House,,Penrhadw Farm,,Vaynor Road,,,,nr,,SW,E0039223,Pontsticill,,,,,,,true,UKOS,305518,210943,-3.371240741,51.789137739,BCT,MKD,OTH,,,,030,2000-01-01T00:00:00,2024-04-26T16:38:10,3,revise,active
5530AWB33692,mtydagw,,,Penrhadw Farm,,Pontsticill House,,Penrhadw Farm,,Vaynor Road,,,,nr,,NE,E0039223,Pontsticill,,,,,,,true,UKOS,305539,210975,-3.370945092,51.789428920,BCT,MKD,OTH,,,,030,2000-01-01T00:00:00,2024-04-26T16:38:10,3,revise,active
5530AWB33693,mtydaja,,,Red Cow Hotel,,,,Red Cow Hotel PH,,Main Road,,,,nr,,N,E0039223,Pontsticill,,,,,,,true,UKOS,305742,211388,-3.368115159,51.793175430,BCT,MKD,OTH,,,,030,2000-01-01T00:00:00,2024-04-26T16:38:21,3,revise,active
5530AWB33694,mtydajd,,,Red Cow Hotel,,,,Red Cow Hotel PH,,Main Road,,,,nr,,S,E0039223,Pontsticill,,,,,,,true,UKOS,305752,211406,-3.367975104,51.793338909,BCT,MKD,OTH,,,,030,2000-01-01T00:00:00,2024-04-26T16:38:21,3,revise,active
5530AWB33695,mtydajm,,,Pontsticill Terminus,,Terminus,,Pontsticill Terminus,,Taf Fechan Houses,,,,at,,W,E0039223,Pontsticill,,,,,,,true,UKOS,305840,211722,-3.366785413,51.796194097,BCT,MKD,OTH,,,,030,2000-01-01T00:00:00,2024-04-26T16:38:20,3,revise,active
5530AWB33696,mtydajp,,,Butchers Arms,,,,Pontsticill Memorial Hall,,Main Road,,,,nr,,SW,E0039223,Pontsticill,,,,,,,true,UKOS,305628,211175,-3.369709596,51.791241647,BCT,MKD,OTH,,,,030,2000-01-01T00:00:00,2024-04-26T16:38:03,3,revise,active
5530AWB33697,mtydajt,,,Butchers Arms,,,,Pontsticill Memorial Hall,,Main Road,,,,nr,,NE,E0039223,Pontsticill,,,,,,,true,UKOS,305617,211179,-3.369870126,51.791275743,BCT,MKD,OTH,,,,030,2000-01-01T00:00:00,2024-04-26T16:38:03,3,revise,active
5530AWB33698,mtydjpa,,,Warlow Street,,,,,,Plymouth Street,,,,after,,SE,E0039203,Merthyr Tydfil,,,,,,,true,UKOS,305282,205564,-3.373193073,51.740748822,BCT,MKD,OTH,,,,030,2000-01-01T00:00:00,2024-04-26T16:38:42,4,revise,active
5530AWB33699,mtydjpd,,,Warlow Street,,,,,,Plymouth Street,,,,before,,NW,E0039203,Merthyr Tydfil,,,,,,,true,UKOS,305304,205509,-3.372859560,51.740258177,BCT,MKD,OTH,,,,030,2000-01-01T00:00:00,2024-04-26T16:38:42,3,revise,active
5530AWB33700,mtydjma,,,Mardy,,,,,,Plymouth Street,,,,nr,,NW,E0039203,Merthyr Tydfil,,,,,,,true,UKOS,305401,205287,-3.371394737,51.738279128,BCT,MKD,OTH,,,,030,2000-01-01T00:00:00,2024-04-26T16:38:17,3,revise,active
5530AWB33701,mtydjmd,,,Mardy,,,,,,Plymouth Street,,,,nr,,SE,E0039203,Merthyr Tydfil,,,,,,,true,UKOS,305426,205241,-3.371020278,51.737869880,BCT,MKD,OTH,,,,030,2000-01-01T00:00:00,2024-04-26T16:38:17,3,revise,active
5530AWB33702,mtydjmg,,,Mardy Terrace,,,,,,Plymouth Street,,,,o/s 6,,N,E0039203,Merthyr Tydfil,,,,,,,true,UKOS,305431,205092,-3.370907243,51.736526750,BCT,MKD,OTH,,,,030,2000-01-01T00:00:00,2024-06-04T16:39:28,3,revise,active
5530AWB33703,mtydjmj,,,Gladstone Terrace,,,,,,Plymouth Street,,,,o/s 16,,SE,E0039203,Merthyr Tydfil,,,,,,,true,UKOS,305439,205099,-3.370793437,51.736595707,BCT,MKD,OTH,,,,030,2000-01-01T00:00:00,2024-04-26T16:38:32,2,revise,active
5530AWB33704,mtydjaw,,,Evans Halshaw,,Bakers Garage,,Ford Garage,,Plymouth Street,,,,opp,,NW,E0039203,Merthyr Tydfil,,,,,,,true,UKOS,305446,204970,-3.370657006,51.735437369,BCT,MKD,OTH,,,,030,2000-01-01T00:00:00,2024-04-26T16:38:10,4,revise,active
5530AWB33705,mtydjda,,,Evans Halshaw,,Bakers Garage,,Ford Garage,,Pentrebach Road,,,,o/s,,SE,E0039203,Merthyr Tydfil,,,,,,,true,UKOS,305467,204930,-3.370342116,51.735081375,BCT,MKD,OTH,,,,030,2000-01-01T00:00:00,2024-04-26T16:38:10,4,revise,active
5530AWB33706,mtyadap,,,Hoovers Top Gate,,,,Hoovers,,Merthyr Road,,,,before,,NW,N0071275,Pentrebach,,,,,,,true,UKOS,305595,204592,-3.368397319,51.732064849,BCT,MKD,OTH,,,,030,2000-01-01T00:00:00,2024-04-26T16:38:11,3,revise,active
5530AWB33707,mtyadat,,,Hoovers Top Gate,,,,Hoovers,,Merthyr Road,,,,after,,SE,N0071275,Pentrebach,,,,,,,true,UKOS,305641,204511,-3.367709454,51.731344531,BCT,MKD,OTH,,,,030,2000-01-01T00:00:00,2024-04-26T16:38:11,3,revise,active
5530AWB33708,mtyadaj,,,Hoovers Main Gate,,,,Hoovers,,Merthyr Road,,,,after,,NW,N0071275,Pentrebach,,,,,,,true,UKOS,305862,204138,-3.364409392,51.728028999,BCT,MKD,OTH,,,,030,2000-01-01T00:00:00,2024-04-26T16:38:20,3,revise,active
5530AWB33709,mtyadam,,,Hoovers Main Gate,,,,Hoovers,,Merthyr Road,,,,after,,SE,N0071275,Pentrebach,,,,,,,true,UKOS,305929,204068,-3.363420671,51.727411059,BCT,MKD,OTH,,,,030,2000-01-01T00:00:00,2024-04-26T16:38:20,3,revise,active
5530AWB33710,mtydtwm,,,Hoovers Sports,,,,Hoovers,,Merthyr Road,,,,o/s,,NW,N0071275,Pentrebach,,,,,,,false,UKOS,305995,203951,-3.362433746,51.726370480,BCT,MKD,OTH,,,,030,2000-01-01T00:00:00,2024-04-26T16:38:34,2,revise,active
5530AWB33711,mtyawat,,,The Pentrebach House,,,,Pentrebach House PH,,Dyffryn Road,,,,before,,SE,N0071275,Pentrebach,,,,,,,true,UKOS,306125,203941,-3.360549439,51.726302401,BCT,MKD,OTH,,,,030,2000-01-01T00:00:00,2024-04-26T16:38:41,3,revise,active
5530AWB33712,mtyawaw,,,The Pentrebach House,,,,Pentrebach House PH,,Dyffryn Road,,,,after,,NW,N0071275,Pentrebach,,,,,,,true,UKOS,306117,203940,-3.360664960,51.726292071,BCT,MKD,OTH,,,,030,2000-01-01T00:00:00,2024-04-26T16:38:41,3,revise,active
5530AWB33713,mtyawgm,,,Poplar Terrace,,,,,,Dyffryn Road,,,,before,,SE,N0071275,Pentrebach,,,,,,,true,UKOS,306427,203723,-3.356119669,51.724393430,BCT,MKD,OTH,,,,030,2000-01-01T00:00:00,2024-04-26T16:38:38,3,revise,active
5530AWB33714,mtyawgp,,,Poplar Terrace,,,,,,Dyffryn Road,,,,before,,NW,N0071275,Pentrebach,,,,,,,true,UKOS,306423,203713,-3.356174871,51.724302876,BCT,MKD,OTH,,,,030,2000-01-01T00:00:00,2024-04-26T16:38:38,3,revise,active
5530AWB33715,mtyawda,,,Rhydfach,,,,,,Dyffryn Road,,,,before,,SW,N0071275,Pentrebach,,,,,,,true,UKOS,306564,203394,-3.354048452,51.721459052,BCT,MKD,OTH,,,,030,2000-01-01T00:00:00,2024-04-26T16:38:21,3,revise,active
5530AWB33716,mtyawdg,,,Rhydfach,,,,,,Dyffryn Road,,,,after,,NE,N0071275,Pentrebach,,,,,,,true,UKOS,306552,203397,-3.354222926,51.721484016,BCT,MKD,OTH,,,,030,2000-01-01T00:00:00,2024-04-26T16:38:21,3,revise,active
5530AWB33717,mtyawdw,,,Cambria House,,,,,,Merthyr Road,,,,nr,,NW,N0071275,Pentrebach,,,,,,,true,UKOS,306292,203520,-3.358018874,51.722546175,BCT,MKD,OTH,,,,030,2000-01-01T00:00:00,2024-04-26T16:38:25,3,revise,active
5530AWB33718,mtyawgd,,,Station,,Pentrebach Station,,Pentrebach Railway Station,,Merthyr Road,,,,after,,SE,N0071275,Pentrebach,,,,,,,false,UKOS,306059,203753,-3.361453936,51.724601482,BCT,MKD,OTH,,,,030,2000-01-01T00:00:00,2024-04-26T16:38:11,3,revise,active
5530AWB33719,mtyawga,,,Cambria House,,,,,,Merthyr Road,,,,nr,,SE,N0071275,Pentrebach,,,,,,,true,UKOS,306383,203480,-3.356691093,51.722201848,BCT,MKD,OTH,,,,030,2000-01-01T00:00:00,2024-04-26T16:38:25,3,revise,active
5530AWB33720,mtyawdp,,,Spares World,,,,,,Merthyr Road,,,,nr,,NW,N0071275,Pentrebach,,,,,,,true,UKOS,306554,203315,-3.354171955,51.720747284,BCT,MKD,OTH,,,,030,2000-01-01T00:00:00,2024-04-26T16:38:23,3,revise,active
5530AWB33721,mtyawdt,,,Merthyr Tydfil Ind Park,,Merthyr Tydfil Industrial Park,,Merthyr Tydfil Industrial Park,,Merthyr Road,,,,opp,,SE,N0071275,Pentrebach,,,,,,,true,UKOS,306690,203179,-3.352167266,51.719547505,BCT,MKD,OTH,,,,030,2000-01-01T00:00:00,2024-04-26T16:38:27,3,revise,active
5530AWB33722,mtydgtj,,,Harp Garage,,,,,,Merthyr Road,,,,after,,NW,E0039233,Troedyrhiw,,,,,,,true,UKOS,306957,202863,-3.348218795,51.716751510,BCT,MKD,OTH,,,,030,2000-01-01T00:00:00,2024-04-26T16:38:11,3,revise,active
5530AWB33723,mtydgtm,,,Harp Garage,,,,,,Merthyr Road,,,,before,,SE,E0039233,Troedyrhiw,,,,,,,true,UKOS,306969,202861,-3.348044609,51.716735525,BCT,MKD,OTH,,,,030,2000-01-01T00:00:00,2024-04-26T16:38:11,3,revise,active
5530AWB33725,mtydgwg,,,Rhodfa Terrace,,,,,,Merthyr Road,,,,o/s 18,,SE,E0039233,Troedyrhiw,,,,,,,true,UKOS,307034,202734,-3.347069966,51.715600072,BCT,MKD,OTH,,,,030,2000-01-01T00:00:00,2024-04-26T16:38:24,3,revise,active
5530AWB33726,mtydgwj,,,Tydfil Terrace,,,,,,Merthyr Road,,,,o/s 23,,NW,E0039233,Troedyrhiw,,,,,,,true,UKOS,307032,202719,-3.347094900,51.715464910,BCT,MKD,OTH,,,,030,2000-01-01T00:00:00,2024-04-26T16:38:41,4,revise,active
5530AWB33727,mtydgwp,,,Infants School,,Troedyrhiw Square,,Troedyrhiw Infants School,,Merthyr Road,,,,opp,,SE,E0039233,Troedyrhiw,,,,,,,true,UKOS,307143,202467,-3.345421540,51.713222866,BCT,MKD,OTH,,,,030,2000-01-01T00:00:00,2024-04-26T16:38:27,3,revise,active
5530AWB33728,mtydgwt,,,Infants School,,Troedyrhiw Square,,Troedyrhiw Infants School,,Merthyr Road,,,,o/s,,NW,E0039233,Troedyrhiw,,,,,,,true,UKOS,307134,202464,-3.345550967,51.713194409,BCT,MKD,OTH,,,,030,2000-01-01T00:00:00,2024-04-26T16:38:27,3,revise,active
5530AWB33729,mtydgtd,,,Dan-y-Bryn Villas,,,,,,Carlton Terrace,,,,opp,,NW,E0039233,Troedyrhiw,,,,,,,true,UKOS,306928,202077,-3.348428261,51.709681621,BCT,MKD,OTH,,,,030,2000-01-01T00:00:00,2024-04-26T16:38:30,2,revise,active
5530AWB33730,mtydgtg,,,Dan y Bryn Villas,,,,,,Carlton Terrace,,,,o/s 9,,SW,E0039233,Troedyrhiw,,,,,,,true,UKOS,306944,202035,-3.348185536,51.709306755,BCT,MKD,OTH,,,,030,2000-01-01T00:00:00,2024-04-26T16:38:30,2,revise,active
5530AWB33731,mtydgpm,,,Bronheulog Terrace,,Afon Taf High School,,Afon Taf High School,,Aberfan Road,,,,opp,,SE,E0039233,Troedyrhiw,,,,,,,true,UKOS,306935,201880,-3.348274317,51.707912020,BCT,MKD,OTH,,,,030,2000-01-01T00:00:00,2024-04-26T16:38:24,3,revise,active
5530AWB33732,mtydgpt,,,Bronheulog Terrace,,Afon Taf High School,,Afon Taf High School,,Aberfan Road,,,,o/s 7,,NW,E0039233,Troedyrhiw,,,,,,,true,UKOS,306923,201888,-3.348450073,51.707981936,BCT,MKD,OTH,,,,030,2000-01-01T00:00:00,2024-04-26T16:38:24,3,revise,active
5530AWB33733,mtydgma,,,Afon Taf High School,,,,Afon Taf High School,,Aberfan Road,,,,grounds,,S,E0039233,Troedyrhiw,,,,,,,true,UKOS,306952,201914,-3.348037447,51.708220457,BCT,MKD,OTH,,,,030,2000-01-01T00:00:00,2024-04-26T16:38:27,2,revise,inactive
5530AWB33742,mtyadpg,,,Ynysygored Cottages,,,,,,Aberfan Road,,,,o/s,,SE,E0039168,Aberfan,,,,,,,true,UKOS,307226,201295,-3.343908231,51.702701900,BCT,MKD,OTH,,,,030,2000-01-01T00:00:00,2024-04-26T16:38:03,3,revise,active
5530AWB33743,mtyadpj,,,Ynysygored Cottages,,,,,,Aberfan Road,,,,opp,,NW,E0039168,Aberfan,,,,,,,true,UKOS,307214,201310,-3.344085824,51.702834744,BCT,MKD,OTH,,,,030,2000-01-01T00:00:00,2024-04-26T16:38:04,3,revise,active
5530AWB33744,mtyadmd,,,Pantglas,,Pantglas Fawr,,,,Aberfan Road,,,,after,,N,E0039168,Aberfan,,,,,,,true,UKOS,307291,201032,-3.342897902,51.700348633,BCT,MKD,OTH,,,,030,2000-01-01T00:00:00,2024-04-26T16:38:18,3,revise,active
5530AWB33745,mtyadmg,,,Pantglas,,Pantglas Fawr,,,,Aberfan Road,,,,after,,SW,E0039168,Aberfan,,,,,,,true,UKOS,307295,200986,-3.342827795,51.699935815,BCT,MKD,OTH,,,,030,2000-01-01T00:00:00,2024-04-26T16:38:18,3,revise,active
5530AWB33746,mtydtwd,,,The Grove,,Aberfan Rugby Club (NE),,Aberfan Rugby Club,,Aberfan Road,,,,after,,NE,E0039168,Aberfan,,,,,,,false,UKOS,307273,200865,-3.343113826,51.698844546,BCT,MKD,OTH,,,,030,2000-01-01T00:00:00,2024-04-26T16:38:40,2,revise,active
5530AWB33747,mtydtwa,,,Rugby Club,,,,Aberfan Rugby Club,,Aberfan Road,,,,o/s,,SW,E0039168,Aberfan,,,,,,,false,UKOS,307279,200791,-3.343007337,51.698180376,BCT,MKD,OTH,,,,030,2000-01-01T00:00:00,2024-04-26T16:38:07,3,revise,active
5530AWB33748,mtydtpw,,,Social Club,,Aberfan Playground,,Aberfan Playground,,Aberfan Road,,,,before,,SW,E0039168,Aberfan,,,,,,,false,UKOS,307243,200609,-3.343479617,51.696538479,BCT,MKD,OTH,,,,030,2000-01-01T00:00:00,2024-04-26T16:38:07,5,revise,active
5530AWB33749,mtydtpt,,,Social Club,,Aberfan Playground,,Aberfan Playground,,Aberfan Road,,,,after,,NE,E0039168,Aberfan,,,,,,,false,UKOS,307234,200609,-3.343609797,51.696536990,BCT,MKD,OTH,,,,030,2000-01-01T00:00:00,2024-04-26T16:38:07,3,revise,active
5530AWB33750,mtydtpm,,,Aberfan Community Centre,,Mackintosh Hotel,,Mackintosh Hotel PH,,Aberfan Road,,,,opp,,SW,E0039168,Aberfan,,,,,,,false,UKOS,307122,200498,-3.345200227,51.695520702,BCT,MKD,OTH,,,,030,2000-01-01T00:00:00,2024-04-26T16:38:04,6,revise,active
5530AWB33751,mtydtpj,,,Aberfan Community Centre,,Mackintosh Hotel,,Mackintosh Hotel PH,,Aberfan Road,,,,o/s,,NE,E0039168,Aberfan,,,,,,,false,UKOS,307111,200495,-3.345358428,51.695487225,BCT,MKD,OTH,,,,030,2000-01-01T00:00:00,2024-04-26T16:38:04,5,revise,active
5530AWB33752,mtydtpd,,,Wingfield Street,,,,,,Aberfan Road,,,,after,,N,E0039168,Aberfan,,,,,,,false,UKOS,307059,200258,-3.346047448,51.693352979,BCT,MKD,OTH,,,,030,2000-01-01T00:00:00,2024-04-26T16:38:42,3,revise,active
5530AWB33753,mtydtpg,,,Wingfield Street,,,,,,Aberfan Road,,,,after,,S,E0039168,Aberfan,,,,,,,false,UKOS,307066,200232,-3.345939269,51.693120433,BCT,MKD,OTH,,,,030,2000-01-01T00:00:00,2024-04-26T16:38:42,3,revise,active
5530AWB33754,mtyadgt,,,Capel Smyrna,,,,Capel Smyrna,,Aberfan Crescent,,,,after,,SE,E0039168,Aberfan,,,,,,,false,UKOS,307092,200050,-3.345514696,51.691488802,BCT,CUS,OTH,,,,030,2000-01-01T00:00:00,2024-04-26T16:38:05,3,revise,active
5530AWB33755,mtyadgw,,,Smyrna Q,,,,,,Aberfan Road,,,,not in use,,N,E0039168,Aberfan,,,,,,,false,UKOS,307084,200052,-3.345630932,51.691505453,BCT,MKD,OTH,,,,030,2000-01-01T00:00:00,2024-04-26T16:38:22,3,revise,inactive
5530AWB33756,mtyadmj,,,Park View,,,,,,Walter`s Terrace,,,,nr,,NW,E0039168,Aberfan,,,,,,,true,UKOS,307221,199706,-3.343557406,51.688418051,BCT,MKD,OTH,,,,030,2000-01-01T00:00:00,2024-04-26T16:38:38,3,revise,active
5530AWB33757,mtyadmp,,,Park View,,,,,,Walter`s Terrace,,,,nr,,SE,E0039168,Aberfan,,,,,,,true,UKOS,307232,199698,-3.343396196,51.688347961,BCT,MKD,OTH,,,,030,2000-01-01T00:00:00,2024-04-26T16:38:38,3,revise,active
5530AWB33758,mtyatmd,,,Walters Terrace,,,,,,Perthygleison,,,,o/s 51,,SE,E0039168,Aberfan,,,,,Bryngoleu,,true,UKOS,307323,199538,-3.342037622,51.686924815,BCT,CUS,OTH,,,,030,2000-01-01T00:00:00,2024-04-26T16:38:42,3,revise,active
5530AWB33759,mtyatmg,,,Walters Terrace,,,,,,Perthygleison,,,,before,,NW,E0039168,Aberfan,,,,,Bryngoleu,,true,UKOS,307309,199554,-3.342244337,51.687066321,BCT,CUS,OTH,,,,030,2000-01-01T00:00:00,2024-04-26T16:38:42,3,revise,active
5530AWB33760,mtyatma,,,Ty Bryngoleu,,,,,,Bryngoleu,,,,opp,,NE,E0039168,Aberfan,,,,,Bryngoleu,,true,UKOS,307382,199331,-3.341129398,51.685073900,BCT,MKD,OTH,,,,030,2000-01-01T00:00:00,2024-04-26T16:38:25,2,revise,active
5530AWB33761,mtyatdw,,,Bryngoleu Terminus,,,,,,Bryngoleu,,,,at,,SW,E0039168,Aberfan,,,,,Bryngoleu,,true,UKOS,307432,199232,-3.340380068,51.684192272,BCT,MKD,OTH,,,,030,2000-01-01T00:00:00,2024-04-26T16:38:29,2,revise,active
5530AWB33762,mtyatga,,,Canonie Crescent,,,,,,Perthygleison,,,,in,,N,E0039168,Aberfan,,,,,Bryngoleu,,true,UKOS,307355,199307,-3.341513463,51.684853711,BCT,MKD,OTH,,,,030,2000-01-01T00:00:00,2024-04-26T16:38:29,2,revise,active
5530AWB33763,mtyatjw,,,Perthygleision Square,,,,,,Canonbie Crescent,,,,at,,NW,E0039168,Aberfan,,,,,Bryngoleu,,true,UKOS,307331,199374,-3.341878332,51.685451989,BCT,MKD,OTH,,,,030,2000-01-01T00:00:00,2024-04-26T16:38:21,2,revise,active
5530AWB33764,mtyadjd,,,Perthygleison Bridge,,Aberfan Cemetery,,,,Bryntaf,,,,nr,,SE,E0039168,Aberfan,,,,,,,true,UKOS,307014,199935,-3.346612114,51.690442173,BCT,HAR,OTH,,,,030,2000-01-01T00:00:00,2024-04-26T16:38:20,2,revise,inactive
5530AWB33765,mtyadjw,,,Bryntaf Stores,,,,Bryntaf Stores,,Bryntaf,,,,nr,,SE,E0039168,Aberfan,,,,,,,true,UKOS,307125,199730,-3.344952143,51.688617888,BCT,HAR,OTH,,,,030,2000-01-01T00:00:00,2024-04-26T16:38:22,2,revise,inactive
5530AWB33766,mtyadma,,,Kingsley Terrace,,,,,,Bryntaf,,,,nr,,SE,E0039168,Aberfan,,,,,,,true,UKOS,307165,199639,-3.344349427,51.687806540,BCT,HAR,OTH,,,,030,2000-01-01T00:00:00,2024-04-26T16:38:34,2,revise,inactive
5530AWB33767,mtydgtp,,,Nant-y-coed,,,,,,Nant-y-coed,,,,o/s 57,,SW,E0039233,Troedyrhiw,,,,,,,true,UKOS,306690,202143,-3.351889487,51.710235289,BCT,CUS,OTH,,,,030,2000-01-01T00:00:00,2024-04-26T16:38:18,3,revise,active
5530AWB33768,mtydgtw,,,Nant-y-coed,,,,,,Nant-y-coed,,,,nr 60,,NE,E0039233,Troedyrhiw,,,,,,,true,UKOS,306740,202148,-3.351167386,51.710288556,BCT,CUS,OTH,,,,030,2000-01-01T00:00:00,2024-04-26T16:38:18,3,revise,active
5530AWB33769,mtydgwa,,,St John`s Church,,,,St John`s Church,,Cwmdu Road,,,,o/s,,NE,E0039233,Troedyrhiw,,,,,,,true,UKOS,306867,202089,-3.349314059,51.709779349,BCT,CUS,OTH,,,,030,2000-01-01T00:00:00,2024-04-26T16:38:09,3,revise,active
5530AWB33770,mtydgwd,,,St John`s Church,,,,St John`s Church,,Cwmdu Road,,,,opp,,SW,E0039233,Troedyrhiw,,,,,,,true,UKOS,306882,202087,-3.349096494,51.709763865,BCT,CUS,OTH,,,,030,2000-01-01T00:00:00,2024-04-26T16:38:09,3,revise,active
5530AWB33771,mtydgpg,,,Station,,Troedyrhiw Station,,Troedyrhiw Railway Station,,Bridge Street,,,,before,,NE,E0039233,Troedyrhiw,,,,,,,true,UKOS,307013,202374,-3.347277766,51.712365361,BCT,MKD,OTH,,,,030,2000-01-01T00:00:00,2024-04-26T16:38:11,4,revise,active
5530AWB33772,mtydgpj,,,Station,,Troedyrhiw Station,,Troedyrhiw Railway Station,,Bridge Street,,,,after,,SW,E0039233,Troedyrhiw,,,,,,,true,UKOS,306993,202361,-3.347563682,51.712245189,BCT,MKD,OTH,,,,030,2000-01-01T00:00:00,2024-04-26T16:38:11,4,revise,active
5530AWB33773,mtyadjp,,,Edward Stephens Terrace,,Beech Grove,,,,Cardiff Road,,,,adj,,SE,E0039233,Troedyrhiw,,,,,,,true,UKOS,307435,201748,-3.341005161,51.706808329,BCT,MKD,OTH,,,,030,2000-01-01T00:00:00,2024-04-26T16:38:31,3,revise,active
5530AWB33774,mtyadjt,,,Edward Stephens Terrace,,Beech Grove,,,,Cardiff Road,,,,opp,,NW,E0039233,Troedyrhiw,,,,,,,true,UKOS,307387,201772,-3.341705998,51.707016127,BCT,MKD,OTH,,,,030,2000-01-01T00:00:00,2024-04-26T16:38:31,3,revise,active
5530AWB33775,mtyatgm,,,Coventry Playground,,,,Coventry Playground,,Cardiff Road,,,,nr,,NW,E0054368,Merthyr Vale,,,,,,,true,UKOS,307559,200145,-3.338785724,51.692419916,BCT,MKD,OTH,,,,030,2000-01-01T00:00:00,2024-04-26T16:38:17,3,revise,active
5530AWB33776,mtyatgp,,,Coventry Playground,,,,Coventry Playground,,Cardiff Road,,,,nr,,SE,E0054368,Merthyr Vale,,,,,,,true,UKOS,307573,200124,-3.338577669,51.692233461,BCT,MKD,OTH,,,,030,2000-01-01T00:00:00,2024-04-26T16:38:17,3,revise,active
5530AWB33777,mtyatgt,,,Brynteg Terrace,,,,,,Cardiff Road,,,,nr,,NW,E0054368,Merthyr Vale,,,,,,,true,UKOS,307655,199851,-3.337319348,51.689793053,BCT,MKD,OTH,,,,030,2000-01-01T00:00:00,2024-04-26T16:38:24,3,revise,active
5530AWB33778,mtyatgw,,,Brynteg Terrace,,,,,,Cardiff Road,,,,nr,,SE,E0054368,Merthyr Vale,,,,,,,true,UKOS,307671,199824,-3.337080797,51.689552993,BCT,MKD,OTH,,,,030,2000-01-01T00:00:00,2024-04-26T16:38:24,3,revise,active
5530AWB33779,mtyatjg,,,Station Square,,Merthyr Vale Railway Station,,Merthyr Vale Railway Station,,Wesley Place,,,,o/s,,N,E0054368,Merthyr Vale,,,,,,,true,UKOS,307680,199557,-3.336879914,51.687154486,BCT,MKD,OTH,,,,030,2000-01-01T00:00:00,2024-04-26T16:38:40,3,revise,active
5530AWB33781,mtyatjm,,,Station Square,,Merthyr Vale Railway Station,,Merthyr Vale Railway Station,,Wesley Place,,,,opp,,S,E0054368,Merthyr Vale,,,,,,,true,UKOS,307692,199560,-3.336707170,51.687183427,BCT,MKD,OTH,,,,030,2000-01-01T00:00:00,2024-04-26T16:38:40,3,revise,active
5530AWB33782,mtyatgd,,,Gordon Lennox Club,,,,Gordon Lennox Club,,Nixonville,,,,before,,SE,E0054368,Merthyr Vale,,,,,,,true,UKOS,307390,199829,-3.341146026,51.689551598,BCT,MKD,OTH,,,,030,2000-01-01T00:00:00,2024-04-26T16:38:07,3,revise,active
5530AWB33783,mtyatgj,,,Gordon Lennox Club,,,,Gordon Lennox Club,,Nixonville,,,,after,,NW,E0054368,Merthyr Vale,,,,,,,true,UKOS,307377,199826,-3.341333239,51.689522484,BCT,MKD,OTH,,,,030,2000-01-01T00:00:00,2024-04-26T16:38:07,3,revise,active
5530AWB33784,mtyatjp,,,Rachabite Hall,,,,Rachabite Hall,,Nixonville,,,,nr,,SE,E0054368,Merthyr Vale,,,,,,,true,UKOS,307553,199655,-3.338742521,51.688014458,BCT,MKD,OTH,,,,030,2000-01-01T00:00:00,2024-04-26T16:38:18,3,revise,active
5530AWB33785,mtyatjt,,,Rachabite Hall,,,,Rachabite Hall,,Nixonville,,,,nr,,NW,E0054368,Merthyr Vale,,,,,,,true,UKOS,307546,199657,-3.338844284,51.688031281,BCT,MKD,OTH,,,,030,2000-01-01T00:00:00,2024-04-26T16:38:18,3,revise,active
5530AWB33786,mtyatja,,,Station Terrace,,,,,,Cardiff Road,,,,o/s,,S,E0054368,Merthyr Vale,,,,,,,true,UKOS,307742,199375,-3.335935129,51.685528741,BCT,MKD,OTH,,,,030,2000-01-01T00:00:00,2024-04-26T16:38:40,3,revise,active
5530AWB33787,mtyatjd,,,Station Terrace,,,,,,Cardiff Road,,,,opp,,N,E0054368,Merthyr Vale,,,,,,,true,UKOS,307733,199366,-3.336062896,51.685446361,BCT,MKD,OTH,,,,030,2000-01-01T00:00:00,2024-04-26T16:38:40,3,revise,active
5530AWB33788,mtyatmj,,,Darren Las,,,,,,Cardiff Road,,,,after,,SE,E0039205,Mount Pleasant,,,,,,,true,UKOS,307822,198803,-3.334627016,51.680400337,BCT,MKD,OTH,,,,030,2000-01-01T00:00:00,2024-04-26T16:38:08,3,revise,active
5530AWB33789,mtyatmp,,,Darren Las,,,,,,Cardiff Road,,,,after,,NW,E0039205,Mount Pleasant,,,,,,,true,UKOS,307791,198869,-3.335092711,51.680988499,BCT,MKD,OTH,,,,030,2000-01-01T00:00:00,2024-04-26T16:38:09,3,revise,active
5530AWB33791,mtyatmt,,,Mount Pleasant Primary School,,,,Mount Pleasant Primary School,,Cardiff Road,,,,nr,,NW,E0039205,Mount Pleasant,,,,,,,true,UKOS,307921,198563,-3.333132163,51.678259297,BCT,MKD,OTH,,,,030,2000-01-01T00:00:00,2024-04-26T16:38:26,4,revise,active
5530AWB33792,mtyatmw,,,Mount Pleasant Primary School,,,,Mount Pleasant Primary School,,Cardiff Road,,,,nr,,SE,E0039205,Mount Pleasant,,,,,,,true,UKOS,307945,198530,-3.332776443,51.677966607,BCT,MKD,OTH,,,,030,2000-01-01T00:00:00,2024-04-26T16:38:26,4,revise,active
5530AWB33793,mtyatpa,,,Pontygwaith,,Pontygwaith Farm,,Pontygwaith Farm,,Cardiff Road,,,,before,,NW,E0039205,Mount Pleasant,,,,,,,true,UKOS,308215,197894,-3.328705247,51.672293991,BCT,MKD,OTH,,,,030,2000-01-01T00:00:00,2024-04-26T16:38:20,3,revise,active
5530AWB33794,mtyatpd,,,Pontygwaith,,Pontygwaith Farm,,Pontygwaith Farm,,Cardiff Road,,,,after,,SE,E0039205,Mount Pleasant,,,,,,,true,UKOS,308229,197883,-3.328499958,51.672197404,BCT,MKD,OTH,,,,030,2000-01-01T00:00:00,2024-04-26T16:38:20,3,revise,active
5530AWB33795,mtyagwt,,,Tai-yn-Banwan,,,,,,Cardiff Road,,,,nr,,NE,E0039189,Edwardsville,,,,,,,true,UKOS,308412,197026,-3.325629414,51.664523910,BCT,MKD,OTH,,,,030,2000-01-01T00:00:00,2024-04-26T16:38:24,3,revise,active
5530AWB33797,mtyajad,,,Tai-yn-Banwan,,,,,,Cardiff Road,,,,nr,,S,E0039189,Edwardsville,,,,,,,true,UKOS,308420,197017,-3.325511418,51.664444316,BCT,MKD,OTH,,,,030,2000-01-01T00:00:00,2024-04-26T16:38:24,3,revise,active
5530AWB33798,mtyagwa,,,Treharne Road,,,,,,Cardiff Road,,,,after,,SE,E0039189,Edwardsville,,,,,,,true,UKOS,308616,196763,-3.322611857,51.662193106,BCT,MKD,OTH,,,,030,2000-01-01T00:00:00,2024-04-26T16:38:41,3,revise,active
5530AWB33799,mtyagwd,,,Treharne Road,,,,,,Cardiff Road,,,,before,,NW,E0039189,Edwardsville,,,,,,,true,UKOS,308622,196750,-3.322521731,51.662077229,BCT,MKD,OTH,,,,030,2000-01-01T00:00:00,2024-04-26T16:38:41,3,revise,active
5530AWB33800,mtyagwj,,,Edwardsville School,,,,Edwardsville School,,Cardiff Road,,,,o/s,,NE,E0039189,Edwardsville,,,,,,,true,UKOS,308815,196845,-3.319756891,51.662957864,BCT,MKD,OTH,,,,030,2000-01-01T00:00:00,2024-04-26T16:38:26,5,revise,active
5530AWB33802,mtyagtp,,,Blackbrook,,,,,,Cardiff Road,,,,after,,SW,E0054373,Treharris,,,,,,,true,UKOS,309144,196995,-3.315040689,51.664364235,BCT,MKD,OTH,,,,030,2000-01-01T00:00:00,2024-04-26T16:38:02,4,revise,active
5530AWB33803,mtyagtw,,,Blackbrook,,,,,,Cardiff Road,,,,after,,NE,E0054373,Treharris,,,,,,,true,UKOS,309177,197006,-3.314566556,51.664468454,BCT,MKD,OTH,,,,030,2000-01-01T00:00:00,2024-04-26T16:38:02,4,revise,active
5530AWB33804,mtyagwm,,,Quarry,,,,,,Cardiff Road,,,,nr,,SE,E0054373,Treharris,,,,,,,true,UKOS,309375,197042,-3.311713922,51.664824060,BCT,MKD,OTH,,,,030,2000-01-01T00:00:00,2024-04-26T16:38:06,4,revise,active
5530AWB33805,mtyagwp,,,Quarry,,,,,,Cardiff Road,,,,nr,,NW,E0054373,Treharris,,,,,,,true,UKOS,309365,197041,-3.311858208,51.664813456,BCT,MKD,OTH,,,,030,2000-01-01T00:00:00,2024-04-26T16:38:06,4,revise,active
5530AWB33806,mtydgap,,,St Matthias` Church,,,,St Matthias` Church,,Cardiff Road,,,,o/s,,E,E0054373,Treharris,,,,,,,true,UKOS,309683,197040,-3.307261389,51.664855733,BCT,MKD,OTH,,,,030,2000-01-01T00:00:00,2024-04-26T16:38:09,3,revise,active
5530AWB33807,mtydgat,,,St Matthias` Church,,,,St Matthias` Church,,Cardiff Road,,,,opp,,SW,E0054373,Treharris,,,,,,,true,UKOS,309678,197033,-3.307331851,51.664792007,BCT,MKD,OTH,,,,030,2000-01-01T00:00:00,2024-04-26T16:38:09,3,revise,active
5530AWB33808,mtydwag,,,Treharris Bus Station Stand 1,,,,Treharris Bus Station,,Cardiff Road,,,,Stand 1,,,E0054373,Treharris,,,,,,,false,UKOS,309805,197075,-3.305519068,51.665187834,BCS,,,,,,030,2000-01-01T00:00:00,2024-04-26T16:38:13,4,revise,active
5530AWB33809,mtydwad,,,Treharris Bus Station Stand 2,,,,Treharris Bus Station,,Cardiff Road,,,,Stand 2,,,E0054373,Treharris,,,,,,,false,UKOS,309823,197069,-3.305245133,51.665134233,BCS,,,,,,030,2000-01-01T00:00:00,2024-04-26T16:38:13,6,revise,active
5530AWB33810,mtydawt,,,Navigation Hotel,,,,Navigation Hotel,,Fox Street,,,,opp,,NE,E0054373,Treharris,,,,,,,true,UKOS,309933,197105,-3.303664508,51.665480188,BCT,CUS,OTH,,,,030,2000-01-01T00:00:00,2024-04-26T16:38:18,2,revise,active
5530AWB33811,mtyamtm,,,Railway Terrace,,,,Navigation Hotel,,Fox Street,,,,adj 16,,SW,E0054373,Treharris,,,,,,,true,UKOS,310036,197111,-3.302177207,51.665550642,BCT,CUS,OTH,,,,030,2000-01-01T00:00:00,2024-04-26T16:38:39,2,revise,active
5530AWB33812,mtydgad,,,Penn Street,,,,,,Forest Road,,,,nr,,NW,E0054373,Treharris,,,,,,,true,UKOS,310015,197282,-3.302524852,51.667084374,BCT,CUS,OTH,,,,030,2000-01-01T00:00:00,2024-04-26T16:38:38,3,revise,active
5530AWB33813,mtydgag,,,Penn Street,,,,,,Forest Road,,,,nr,,SE,E0054373,Treharris,,,,,,,true,UKOS,310020,197288,-3.302454123,51.667139109,BCT,CUS,OTH,,,,030,2000-01-01T00:00:00,2024-04-26T16:38:38,3,revise,active
5530AWB33814,mtydgdg,,,Pritchard Street,,,,,,Forest Road,,,,after,,NW,E0054373,Treharris,,,,,,,true,UKOS,309868,197643,-3.304743038,51.670305764,BCT,MKD,OTH,,,,030,2000-01-01T00:00:00,2024-04-26T16:38:38,3,revise,active
5530AWB33815,mtydgdj,,,Pritchard Street,,,,,,Forest Road,,,,before,,SE,E0054373,Treharris,,,,,Twynygarreg,,true,UKOS,309910,197601,-3.304125026,51.669934977,BCT,MKD,OTH,,,,030,2000-01-01T00:00:00,2024-04-26T16:38:38,4,revise,active
5530AWB33816,mtydgdm,,,Cilhaul,,,,,,Forest Road,,,,o/s 96,,SE,E0054373,Treharris,,,,,,,true,UKOS,309758,197682,-3.306343324,51.670638649,BCT,CUS,OTH,,,,030,2000-01-01T00:00:00,2024-04-26T16:38:06,3,revise,active
5530AWB33817,mtydgdp,,,Cilhaul,,,,,,Forest Road,,,,o/s 69,,NW,E0054373,Treharris,,,,,,,true,UKOS,309761,197649,-3.306291420,51.670342500,BCT,CUS,OTH,,,,030,2000-01-01T00:00:00,2024-04-26T16:38:06,3,revise,active
5530AWB33818,mtydgdt,,,Twynygarreg Terminus,,,,Twynygarreg Turning Circle,,Twynygarreg,,,,at,,SW,E0054373,Treharris,,,,,,,false,UKOS,309619,197259,-3.308243202,51.666813991,BCT,MKD,OTH,,,,030,2000-01-01T00:00:00,2024-04-26T16:38:25,2,revise,active
5530AWB33819,mtyagwg,,,Not in use,,,,,,Cardiff Road,,,,,,SW,E0039189,Edwardsville,,,,,,,false,UKOS,308780,196780,-3.320258421,51.662370414,BCT,CUS,OTH,,,,030,2000-01-01T00:00:00,2024-04-26T16:38:37,1,revise,inactive
5530AWB33820,mtydawj,,,Not in use,,,,,,Cardiff Road,,,,,,W,E0054373,Treharris,,,,,,,true,UKOS,309302,196947,-3.312756724,51.663956176,BCT,MKD,OTH,,,,030,2000-01-01T00:00:00,2024-04-26T16:38:37,1,revise,inactive
5530AWB33821,mtydawm,,,Glan y Nant,,,,,,Commercial Terrace,,,,nr,,E,E0054373,Treharris,,,,,,,true,UKOS,309354,196980,-3.312001365,51.664263360,BCT,CUS,OTH,,,,030,2000-01-01T00:00:00,2024-04-26T16:38:11,4,revise,active
5530AWB33822,mtydawp,,,Glan y Nant,,,,Railway abutment,,Cardiff Road,,,,nr,,SE,E0054373,Treharris,,,,,,,true,UKOS,309380,196948,-3.311617242,51.663979915,BCT,MKD,OTH,,,,030,2000-01-01T00:00:00,2024-04-26T16:38:11,4,revise,active
5530AWB33823,mtyamtp,,,Treharris Community Centre,,,,Treharris Community Centre,,Perrott Street,,,,o/s,,E,E0054373,Treharris,,,,,,,true,UKOS,309794,196876,-3.305614540,51.663399411,BCT,CUS,OTH,,,,030,2000-01-01T00:00:00,2024-04-26T16:38:04,3,revise,active
5530AWB33824,mtyamtw,,,Post Office,,,,Treharris Post Office,,Perrott Street,,,,nr former,,N,E0054373,Treharris,,,,,,,true,UKOS,309894,196959,-3.304190551,51.664161551,BCT,CUS,OTH,,,,030,2000-01-01T00:00:00,2024-04-26T16:38:23,2,revise,active
5530AWB33825,mtydgaj,,,Perrott Inn,,,,Perrott Inn PH,,Suannah Place,,,,o/s former,,NW,E0054373,Treharris,,,,,,,true,UKOS,309440,196848,-3.310724037,51.663090714,BCT,MKD,OTH,,,,030,2000-01-01T00:00:00,2024-04-26T16:38:19,4,revise,active
5530AWB33826,mtydgam,,,Perrott Inn,,,,Perrott Inn PH,,Susannah Place,,,,opp former,,SE,E0054373,Treharris,,,,,,,true,UKOS,309451,196841,-3.310563227,51.663029567,BCT,MKD,OTH,,,,030,2000-01-01T00:00:00,2024-04-26T16:38:19,4,revise,active
5530AWB33827,mtyagja,,,New Bridge,,,,,,Cardiff Road,,,,after,,NW,E0039224,Quakers Yard,,,,,,,true,UKOS,309656,196569,-3.307529754,51.660617631,BCT,MKD,OTH,,,,030,2000-01-01T00:00:00,2024-04-26T16:38:20,3,revise,active
5530AWB33828,mtyagjd,,,New Bridge,,,,,,Cardiff Road,,,,after,,SE,E0039224,Quakers Yard,,,,,,,true,UKOS,309675,196515,-3.307241170,51.660135290,BCT,MKD,OTH,,,,030,2000-01-01T00:00:00,2024-04-26T16:38:20,3,revise,active
5530AWB33829,mtyagjt,,,Quakers Yard Inn,,,,Quakers Yard Inn PH,,Cardiff Road,,,,before,,SE,E0039224,Quakers Yard,,,,,,,true,UKOS,309685,196538,-3.307102589,51.660343643,BCT,MKD,OTH,,,,030,2000-01-01T00:00:00,2024-04-26T16:38:21,3,revise,active
5530AWB33830,mtyagjw,,,Quakers Yard Inn,,,,Quakers Yard Inn PH,,Cardiff Road,,,,before,,NW,E0039224,Quakers Yard,,,,,,,true,UKOS,309742,196514,-3.306272553,51.660137078,BCT,MKD,OTH,,,,030,2000-01-01T00:00:00,2024-04-26T16:38:21,3,revise,active
5530AWB33831,mtyagjm,,,Wingfield Terrace,,,,,,Caerphilly Road,,,,opp 15,,NE,E0039224,Quakers Yard,,,,,,,true,UKOS,309743,196240,-3.306187263,51.657674286,BCT,MKD,OTH,,,,030,2000-01-01T00:00:00,2024-04-26T16:38:42,3,revise,active
5530AWB33832,mtyagjp,,,Wingfield Terrace,,,,,,Caerphilly Road,,,,o/s 12,,SW,E0039224,Quakers Yard,,,,,,,true,UKOS,309761,196236,-3.305926088,51.657641225,BCT,MKD,OTH,,,,030,2000-01-01T00:00:00,2024-04-26T16:38:42,3,revise,active
5530AWB33833,mtyagjg,,,Pentwyn Cottages,,,,,,Caerphilly Road,,,,before,,E,N0075761,Pentwyn Berthllwyd,,,,,,,true,UKOS,309972,196364,-3.302909651,51.658825682,BCT,MKD,OTH,,,,030,2000-01-01T00:00:00,2024-04-26T16:38:03,5,revise,active
5530AWB33834,mtyawgt,,,Pentwyn Cottages,,,,,,Pentwyn Road,,,,opp,,NW,N0075761,Pentwyn Berthllwyd,,,,,,,true,UKOS,309984,196332,-3.302727968,51.658539962,BCT,MKD,OTH,,,,030,2000-01-01T00:00:00,2024-04-26T16:38:03,5,revise,active
5530AWB33850,mtyagdg,,,Fiddlers Elbow,,,,,,Cardiff Road,,,,nr,,NE,E0039224,Quakers Yard,,,,,,,true,UKOS,309306,195800,-3.312388639,51.653648755,BCT,MKD,OTH,,,,030,2000-01-01T00:00:00,2024-04-26T16:38:31,3,revise,active
5530AWB33851,mtyagdj,,,Fiddlers Elbow,,,,,,Cardiff Road,,,,nr,,SW,E0039224,Quakers Yard,,,,,,,true,UKOS,309315,195831,-3.312266630,51.653928864,BCT,MKD,OTH,,,,030,2000-01-01T00:00:00,2024-04-26T16:38:31,3,revise,active
5530AWB33852,mtyagdt,,,Millers Row,,,,,,Cardiff Road,,,,nr,,NW,E0039224,Quakers Yard,,,,,,,true,UKOS,309327,196099,-3.312162805,51.656339817,BCT,MKD,OTH,,,,030,2000-01-01T00:00:00,2024-04-26T16:38:36,3,revise,active
5530AWB33853,mtyagdw,,,Millers Row,,,,,,Cardiff Road,,,,nr,,S,E0039224,Quakers Yard,,,,,,,true,UKOS,309336,196161,-3.312048837,51.656898580,BCT,MKD,OTH,,,,030,2000-01-01T00:00:00,2024-04-26T16:38:36,2,revise,active
5530AWB33854,mtydgpw,,,Brynhyfryd Villas,,,,,,Cardiff Road,,,,opp,,NW,E0039233,Troedyrhiw,,,,,,,true,UKOS,307250,202022,-3.343754695,51.709240636,BCT,MKD,OTH,,,,030,2000-01-01T00:00:00,2024-04-26T16:38:29,3,revise,active
5530AWB33856,mtydgta,,,Brynhyfryd Villas,,,,,,Cardiff Road,,,,o/s,,SE,E0039233,Troedyrhiw,,,,,,,true,UKOS,307258,202023,-3.343639213,51.709250948,BCT,MKD,OTH,,,,030,2000-01-01T00:00:00,2024-04-26T16:38:29,3,revise,active
5530AWB33857,mtyadad,,,Apple Cottage,,,,,,River Row,,,,nr,,SE,E0039169,Abercanaid,Merthyr Tydfil,,,,,,true,UKOS,305743,203800,-3.366040240,51.724970850,BCT,MKD,OTH,,,,030,2000-01-01T00:00:00,2024-04-26T16:38:27,3,revise,active
5530AWB33858,mtyadag,,,Apple Cottage,,,,,,River Row,,,,nr,,NW,E0039169,Abercanaid,Merthyr Tydfil,,,,,,true,UKOS,305734,203801,-3.366170772,51.724978324,BCT,MKD,OTH,,,,030,2000-01-01T00:00:00,2024-04-26T16:38:27,3,revise,active
5530AWB33859,mtyawap,,,Alexandra Place,,,,,,Chapel Street,,,,before,,SE,E0039169,Abercanaid,Merthyr Tydfil,,,,,,true,UKOS,305882,203604,-3.363975397,51.723232468,BCT,MKD,OTH,,,,030,2000-01-01T00:00:00,2024-04-26T16:38:27,2,revise,active
5530AWB33860,mtyawdj,,,Gethin Place,,,,,,Gethin Street,,,,nr,,NW,E0039169,Abercanaid,Merthyr Tydfil,,,,,,true,UKOS,305905,203458,-3.363603028,51.721924001,BCT,MKD,OTH,,,,030,2000-01-01T00:00:00,2024-04-26T16:38:32,2,revise,active
5530AWB33861,mtyawam,,,Cardiff Street,,,,,,Cardiff Street,,,,at,,NE,E0039169,Abercanaid,Merthyr Tydfil,,,,,,true,UKOS,305829,203633,-3.364750311,51.723484227,BCT,MKD,OTH,,,,030,2000-01-01T00:00:00,2024-04-26T16:38:29,2,revise,active
5530AWB33862,mtyadaw,,,Pond Row,,,,,,Abercanaid Road,,,,nr,,NW,E0039169,Abercanaid,Merthyr Tydfil,,,,,,true,UKOS,305438,204044,-3.370520970,51.727112639,BCT,MKD,OTH,,,,030,2000-01-01T00:00:00,2024-04-26T16:38:38,3,revise,active
5530AWB33863,mtyadga,,,Pond Row,,,,,,Abercanaid Road,,,,nr,,SE,E0039169,Abercanaid,Merthyr Tydfil,,,,,,true,UKOS,305439,204054,-3.370509215,51.727202693,BCT,MKD,OTH,,,,030,2000-01-01T00:00:00,2024-04-26T16:38:38,3,revise,active
5530AWB33864,mtyadgd,,,Quay Row,,,,,,Abercanaid Road,,,,nr,,NW,E0039169,Abercanaid,Merthyr Tydfil,,,,,,true,UKOS,305240,204311,-3.373459592,51.729479106,BCT,MKD,OTH,,,,030,2000-01-01T00:00:00,2024-04-26T16:38:39,3,revise,active
5530AWB33865,mtyadgj,,,Quay Row,,,,,,Abercanaid Road,,,,nr,,SE,E0039169,Abercanaid,Merthyr Tydfil,,,,,,true,UKOS,305246,204335,-3.373379283,51.729695846,BCT,MKD,OTH,,,,030,2000-01-01T00:00:00,2024-04-26T16:38:39,3,revise,active
5530AWB33866,mtydjga,,,Castle Bingo,,Merthyr ex-Servicemen`s Club,,Merthyr ex-Servicemen`s Club,,Plymouth Street,,,,nr Aldi,,SE,E0039203,Merthyr Tydfil,,,,,,,true,UKOS,305100,205682,-3.375860264,51.741773952,BCT,MKD,OTH,,,,030,2000-01-01T00:00:00,2024-06-04T16:42:10,4,revise,active
5530AWB33867,mtydjtp,,,Seion,,White Horse (W),,Capel Seion,,TTwynyrodyn Road,,,,nr,,W,E0039234,Twynyrodyn,Merthyr Tydfil,,,,,,true,UKOS,305228,205874,-3.374059460,51.743526117,BCT,MKD,OTH,,,,030,2000-01-01T00:00:00,2024-04-26T16:38:21,2,revise,active
5530AWB33868,mtydjtw,,,White Horse,,,,White Horse PH,,Windsor Terrace,,,,o/s,,SE,E0039234,Twynyrodyn,Merthyr Tydfil,,,,,,false,UKOS,305299,205882,-3.373033610,51.743610043,BCT,MKD,OTH,,,,030,2000-01-01T00:00:00,2024-04-26T16:38:25,2,revise,active
5530AWB33869,mtydjmp,,,Penuel House,,Twynyrodyn Junior School,,Twyn Fish Bar,,Primrose Hill,,,,o/s,,SE,E0039234,Twynyrodyn,Merthyr Tydfil,,,,,,false,UKOS,305596,205818,-3.368715851,51.743084954,BCT,MKD,OTH,,,,030,2000-01-01T00:00:00,2024-04-26T16:38:25,3,revise,active
5530AWB33870,mtydjmt,,,Penuel House,,Twynyrodyn Junior School,,Bryn Fish Bar,,Primrose Hill,,,,opp,,NW,E0039234,Twynyrodyn,Merthyr Tydfil,,,,,,false,UKOS,305590,205808,-3.368800009,51.742994056,BCT,MKD,OTH,,,,030,2000-01-01T00:00:00,2024-04-26T16:38:25,3,revise,active
5530AWB33871,mtydjgm,,,Glasier Road,,,,,,Glasier Road,,,,o/s 24,,SW,E0039234,Twynyrodyn,Merthyr Tydfil,,,,,,true,UKOS,305672,205581,-3.367551092,51.740967487,BCT,MKD,OTH,,,,030,2000-01-01T00:00:00,2024-04-26T16:38:33,3,revise,active
5530AWB33872,mtydjgp,,,Glasier Road,,,,,,Glasier Road,,,,opp 24,,NE,E0039234,Twynyrodyn,Merthyr Tydfil,,,,,,true,UKOS,305675,205595,-3.367511457,51.741093832,BCT,MKD,OTH,,,,030,2000-01-01T00:00:00,2024-04-26T16:38:33,3,revise,active
5530AWB33873,mtydjad,,,Aneurin Crescent,,,,,,Aneurin Crescent,,,,o/s 13,,S,E0039234,Twynyrodyn,Merthyr Tydfil,,,,,,true,UKOS,305655,205453,-3.367762476,51.739814090,BCT,MKD,OTH,,,,030,2000-01-01T00:00:00,2024-04-26T16:38:06,4,revise,active
5530AWB33874,mtydjtj,,,Incline Bridge,,,,,,Wallhead Road,,,,nr,,N,E0039234,Twynyrodyn,Merthyr Tydfil,,,,,,true,UKOS,305858,205886,-3.364940722,51.743740305,BCT,MKD,OTH,,,,030,2000-01-01T00:00:00,2024-04-26T16:38:34,3,revise,active
5530AWB33875,mtydjtm,,,Incline Bridge,,,,,,Wallhead Road,,,,nr,,SE,E0039234,Twynyrodyn,Merthyr Tydfil,,,,,,true,UKOS,305858,205898,-3.364943973,51.743848168,BCT,MKD,OTH,,,,030,2000-01-01T00:00:00,2024-04-26T16:38:34,3,revise,active
5530AWB33876,mtydjag,,,Aneurin Crescent,,,,,,Aneurin Crescent,,,,o/s Green,,SE,E0039234,Twynyrodyn,Merthyr Tydfil,,,,,,true,UKOS,305840,205559,-3.365112737,51.740798026,BCT,MKD,OTH,,,,030,2000-01-01T00:00:00,2024-04-26T16:38:06,4,revise,active
5530AWB33877,mtydjaj,,,Aneurin Crescent,,,,,,Aneurin Crescent,,,,opp Green,,NW,E0039234,Twynyrodyn,Merthyr Tydfil,,,,,,true,UKOS,305827,205572,-3.365304480,51.740912690,BCT,MKD,OTH,,,,030,2000-01-01T00:00:00,2024-04-26T16:38:06,4,revise,active
5530AWB33878,mtydjam,,,Aneurin Crescent,,,,,,Aneurin Crescent,,,,o/s 66,,SW,E0039234,Twynyrodyn,Merthyr Tydfil,,,,,,true,UKOS,305793,205366,-3.365740904,51.739055330,BCT,MKD,OTH,,,,030,2000-01-01T00:00:00,2024-04-26T16:38:06,4,revise,active
5530AWB33879,mtydjap,,,Aneurin Crescent,,,,,,Aneurin Crescent,,,,opp 66,,NE,E0039234,Twynyrodyn,Merthyr Tydfil,,,,,,true,UKOS,305790,205371,-3.365785694,51.739099768,BCT,MKD,OTH,,,,030,2000-01-01T00:00:00,2024-04-26T16:38:06,4,revise,active
5530AWB33880,mtydjat,,,Aneurin Crescent,,,,,,Aneurin Crescent,,,,opp 13,,N,E0039234,Twynyrodyn,Merthyr Tydfil,,,,,,true,UKOS,305647,205467,-3.367882102,51.739938581,BCT,MKD,OTH,,,,030,2000-01-01T00:00:00,2024-04-26T16:38:06,4,revise,active
5530AWB33881,mtydjgd,,,Farmers Arms,,,,Farmers Arms PH,,Penheolferthyr,,,,opp,,SW,E0039206,Mountain Hare,Merthyr Tydfil,,,,,,true,UKOS,306172,206025,-3.360431715,51.745042443,BCT,MKD,OTH,,,,030,2000-01-01T00:00:00,2024-04-26T16:38:10,3,revise,active
5530AWB33882,mtydjgj,,,Farmers Arms,,,,Farmers Arms PH,,Penheolferthyr,,,,o/s,,NE,E0039206,Mountain Hare,Merthyr Tydfil,,,,,,true,UKOS,306182,206038,-3.360290427,51.745160971,BCT,MKD,OTH,,,,030,2000-01-01T00:00:00,2024-04-26T16:38:10,3,revise,active
5530AWB33883,mtydmda,,,Bus Station 1,,Merthyr Bus Station,,Merthyr Tydfil Bus Station,,Castle Street,,,,at,,,E0039203,Merthyr Tydfil,,,,,,,false,UKOS,304845,206201,-3.379694587,51.746400364,BCS,,,,,,030,2000-01-01T00:00:00,2024-06-04T16:51:25,5,revise,inactive
5530AWB33884,mtydmdt,,,Bus Station 6,,Merthyr Bus Station,,Merthyr Tydfil Bus Station,,Avenue de Clichy,,,,at,,,E0039203,Merthyr Tydfil,,,,,,,false,UKOS,304817,206178,-3.380093731,51.746188867,BCS,,,,,,030,2000-01-01T00:00:00,2024-06-04T17:09:43,5,revise,inactive
5530AWB33885,mtydmdj,,,Bus Station 3,,Merthyr Bus Station,,Merthyr Tydfil Bus Station,,Castle Street,,,,at,,,E0039203,Merthyr Tydfil,,,,,,,false,UKOS,304856,206170,-3.379526815,51.746123591,BCS,,,,,,030,2000-01-01T00:00:00,2024-06-04T17:00:09,5,revise,inactive
5530AWB33886,mtydmdg,,,Bus Station 2,,Merthyr Bus Station,,Merthyr Tydfil Bus Station,,Castle Street,,,,at,,,E0039203,Merthyr Tydfil,,,,,,,false,UKOS,304858,206187,-3.379502511,51.746276735,BCS,,,,,,030,2000-01-01T00:00:00,2024-06-04T16:53:57,5,revise,inactive
5530AWB33887,mtydmdm,,,Bus Station 4,,Merthyr Bus Station,,Merthyr Tydfil Bus Station,,Castle Street,,,,at,,,E0039203,Merthyr Tydfil,,,,,,,false,UKOS,304842,206162,-3.379727345,51.746049303,BCS,,,,,,030,2000-01-01T00:00:00,2024-06-04T17:01:36,5,revise,inactive
5530AWB33889,mtydmdp,,,Bus Station 5,,Merthyr Bus Station,,Merthyr Tydfil Bus Station,,Castle Street,,,,at,,,E0039203,Merthyr Tydfil,,,,,,,false,UKOS,304827,206164,-3.379945094,51.746064729,BCS,,,,,,030,2000-01-01T00:00:00,2024-06-04T17:07:42,5,revise,inactive
5530AWB33890,mtydmjd,,,Bus Station 16,,Merthyr Bus Station,,Merthyr Tydfil Bus Station,,Castle Street,,,,at,,,E0039203,Merthyr Tydfil,,,,,,,false,UKOS,304803,206202,-3.380303029,51.746402209,BCS,,,,,,030,2000-01-01T00:00:00,2024-06-04T17:34:25,5,revise,inactive
5530AWB33891,mtyapjw,,,Bus Station 15,,Merthyr Bus Station,,Merthyr Tydfil Bus Station,,Castle Street,,,,at,,,E0039203,Merthyr Tydfil,,,,,,,false,UKOS,304799,206190,-3.380357661,51.746293667,BCS,,,,,,030,2000-01-01T00:00:00,2024-06-04T17:32:22,5,revise,inactive
5530AWB33892,mtydmgw,,,Bus Station 14,,Merthyr Bus Station,,Merthyr Tydfil Bus Station,,Castle Street,,,,at,,,E0039203,Merthyr Tydfil,,,,,,,false,UKOS,304795,206179,-3.380412567,51.746194113,BCS,,,,,,030,2000-01-01T00:00:00,2024-06-04T17:31:41,5,revise,inactive
5530AWB33893,mtydmgt,,,Bus Station 13,,Merthyr Bus Station,,Merthyr Tydfil Bus Station,,Castle Street,,,,at,,,E0039203,Merthyr Tydfil,,,,,,,false,UKOS,304792,206163,-3.380451623,51.746049787,BCS,,,,,,030,2000-01-01T00:00:00,2024-06-04T17:30:45,5,revise,inactive
5530AWB33894,mtyapjm,,,Bus Station 12,,Merthyr Bus Station,,Merthyr Tydfil Bus Station,,Castle Street,,,,at,,,E0039203,Merthyr Tydfil,,,,,,,false,UKOS,304789,206146,-3.380490404,51.745896473,BCS,,,,,,030,2000-01-01T00:00:00,2024-06-04T17:29:34,5,revise,inactive
5530AWB33895,mtydmgm,,,Bus Station 11,,Merthyr Bus Station,,Merthyr Tydfil Bus Station,,Castle Street,,,,at,,,E0039203,Merthyr Tydfil,,,,,,,false,UKOS,304796,206135,-3.380386029,51.745798791,BCS,,,,,,030,2000-01-01T00:00:00,2024-06-04T17:28:29,5,revise,inactive
5530AWB33896,mtydmgj,,,Bus Station 10,,Merthyr Bus Station,,Merthyr Tydfil Bus Station,,Castle Street,,,,at,,,E0039203,Merthyr Tydfil,,,,,,,false,UKOS,304810,206128,-3.380181391,51.745738253,BCS,,,,,,030,2000-01-01T00:00:00,2024-06-04T17:26:25,6,revise,inactive
5530AWB33897,mtydmgd,,,Merthyr Tydfil Bus Station Stand 9,,Merthyr Bus Station,,Merthyr Tydfil Bus Station,,Castle Street,,,,Stand 9,,,E0039203,Merthyr Tydfil,,,,,,,false,UKOS,304823,206133,-3.380008283,51.745785717,BCS,,,,,,030,2000-01-01T00:00:00,2024-06-04T17:16:21,5,revise,inactive
5530AWB33898,mtydmga,,,Merthyr Tydfil Bus Station Stand 8,,Merthyr Bus Station,,Merthyr Tydfil Bus Station,,Castle Street,,,,Stand 8,,,E0039203,Merthyr Tydfil,,,,,,,false,UKOS,304829,206149,-3.379925783,51.745930557,BCS,,,,,,030,2000-01-01T00:00:00,2024-06-04T17:15:15,5,revise,inactive
5530AWB33899,mtydmdw,,,Bus Station 7,,Merthyr Bus Station,,Merthyr Tydfil Bus Station,,Castle Street,,,,at,,,E0039203,Merthyr Tydfil,,,,,,,false,UKOS,304819,206167,-3.380061757,51.746090334,BCS,,,,,,030,2000-01-01T00:00:00,2024-06-04T17:11:52,5,revise,inactive
5530AWB33900,mtydjdp,,,Clinic,,Coutland Terrace,,Twynyrodyn Clinic,,Union Street,,,,nr,,N,E0039234,Twynyrodyn,Merthyr Tydfil,,,,,,true,UKOS,305234,206021,-3.374012681,51.744848442,BCT,MKD,OTH,,,,030,2000-01-01T00:00:00,2024-04-26T16:38:07,2,revise,active
5530AWB33901,mtydjta,,,Tramroadside Car Park,,Tramroadside North,,,,Tramroadside North,,,,opp,,NW,E0039203,Merthyr Tydfil,,,,,,,true,UKOS,305071,206157,-3.376410037,51.746043252,BCT,MKD,OTH,,,,030,2000-01-01T00:00:00,2024-04-26T16:38:41,2,revise,active
5530AWB33902,mtydjgt,,,Mansfield Terrace,,,,,,Mansfield Terrace,,,,nr 20,,NW,E0039206,Mountain Hare,Merthyr Tydfil,,,,,,true,UKOS,306211,206160,-3.359903447,51.746262435,BCT,MKD,OTH,,,,030,2000-01-01T00:00:00,2024-04-26T16:38:35,3,revise,active
5530AWB33904,mtydjgw,,,Mansfield Terrace,,,,,,Mansfield Terrace,,,,adj 20,,SE,E0039206,Mountain Hare,Merthyr Tydfil,,,,,,true,UKOS,306193,206186,-3.360171113,51.746493120,BCT,MKD,OTH,,,,030,2000-01-01T00:00:00,2024-04-26T16:38:35,3,revise,active
5530AWB33905,mtydjtd,,,Vernon Close,,,,,,Pantyffyn Road,,,,before,,NW,E0039218,Penyard,Merthyr Tydfil,,,,,,true,UKOS,305733,206459,-3.366906141,51.748869688,BCT,MKD,OTH,,,,030,2000-01-01T00:00:00,2024-04-26T16:38:42,3,revise,active
5530AWB33906,mtydjtg,,,Vernon Close,,,,,,Pantyffyn Road,,,,after,,SE,E0039218,Penyard,Merthyr Tydfil,,,,,,true,UKOS,305727,206504,-3.367005242,51.749273161,BCT,MKD,OTH,,,,030,2000-01-01T00:00:00,2024-04-26T16:38:42,3,revise,active
5530AWB33907,mtyawmg,,,Fothergill Street,,,,,,Baden Terrace,,,,before,,NW,E0039218,Penyard,Merthyr Tydfil,,,,,,true,UKOS,305655,206687,-3.368097598,51.750905923,BCT,MKD,OTH,,,,030,2000-01-01T00:00:00,2024-04-26T16:38:32,3,revise,active
5530AWB33908,mtyawmj,,,Fothergill Street,,,,,,Baden Terrace,,,,after,,SE,E0039218,Penyard,Merthyr Tydfil,,,,,,true,UKOS,305653,206713,-3.368133625,51.751139287,BCT,MKD,OTH,,,,030,2000-01-01T00:00:00,2024-04-26T16:38:32,3,revise,active
5530AWB33909,mtyawjg,,,Darren View,,,,,,Darren View,,,,in,,SW,E0039218,Penyard,Merthyr Tydfil,,,,,,true,UKOS,305613,206823,-3.368742793,51.752121277,BCT,MKD,OTH,,,,030,2000-01-01T00:00:00,2024-04-26T16:38:30,3,revise,active
5530AWB33910,mtyawjm,,,Darren View,,,,,,Darren View,,,,in,,NE,E0039218,Penyard,Merthyr Tydfil,,,,,,true,UKOS,305614,206830,-3.368730214,51.752184365,BCT,MKD,OTH,,,,030,2000-01-01T00:00:00,2024-04-26T16:38:30,3,revise,active
5530AWB33911,mtyawtj,,,Tai Penyard,,,,,,Queens Road,,,,nr,,SW,E0039218,Penyard,Merthyr Tydfil,,,,,,true,UKOS,305443,206758,-3.371187047,51.751508320,BCT,MKD,OTH,,,,030,2000-01-01T00:00:00,2024-04-26T16:38:24,3,revise,active
5530AWB33912,mtyawtm,,,Tai Penyard,,,,,,Queens Road,,,,nr,,NE,E0039218,Penyard,Merthyr Tydfil,,,,,,true,UKOS,305439,206763,-3.371246336,51.751552587,BCT,MKD,OTH,,,,030,2000-01-01T00:00:00,2024-04-26T16:38:24,3,revise,active
5530AWB33913,mtydjmw,,,Old School,,,,Old School,,Queens Road,,,,o/s,,S,E0039218,Penyard,Merthyr Tydfil,,,,,,true,UKOS,305320,206541,-3.372909158,51.749537017,BCT,MKD,OTH,,,,030,2000-01-01T00:00:00,2024-04-26T16:38:16,6,revise,active
5530AWB33914,mtyapwm,,,Old Penyard School,,,,Old Penyard School,,Queens Road,,,,opp,,N,E0039218,Penyard,Merthyr Tydfil,,,,,,true,UKOS,305313,206553,-3.373013799,51.749643695,BCT,MKD,OTH,,,,030,2000-01-01T00:00:00,2024-04-26T16:38:26,6,revise,active
5530AWB33915,mtydjdt,,,Cyfarthfa High School,,,,Cyfarthfa High School,,Cae Mari Dwn,,,,o/s,,SE,E0039218,Penyard,Merthyr Tydfil,,,,,,true,UKOS,305428,206417,-3.371311421,51.748440707,BCT,MKD,OTH,,,,030,2000-01-01T00:00:00,2024-04-26T16:38:27,5,revise,active
5530AWB33916,mtydjdw,,,Cyfarthfa High School,,,,Cyfarthfa High School,,Cae Mari Dwn,,,,opp,,NW,E0039218,Penyard,Merthyr Tydfil,,,,,,true,UKOS,305438,206395,-3.371160623,51.748244650,BCT,MKD,OTH,,,,030,2000-01-01T00:00:00,2024-04-26T16:38:27,5,revise,active
5530AWB33917,mtydjpt,,,Park Crescent,,The Parade,,,,Summerhill Place,,,,o/s 2,,SE,E0039230,Thomas Town,Merthyr Tydfil,,,,,,false,UKOS,305549,206229,-3.369508112,51.746771303,BCT,MKD,OTH,,,,030,2000-01-01T00:00:00,2024-04-26T16:38:37,4,revise,active
5530AWB33918,mtydjpw,,,Park Crescent,,The Parade,,,,Summerhill Place,,,,nr,,NW,E0039230,Thomas Town,Merthyr Tydfil,,,,,,false,UKOS,305544,206222,-3.369578611,51.746707540,BCT,MKD,OTH,,,,030,2000-01-01T00:00:00,2024-04-26T16:38:37,4,revise,active
5530AWB33919,mtydtwt,,,James Street,,St Tydfils Avenue (NW0,,,,St Tydfils Avenue,,,,after,,NW,E0039230,Thomas Town,Merthyr Tydfil,,,,,,false,UKOS,305540,205993,-3.369574265,51.744648495,BCT,MKD,OTH,,,,030,2000-01-01T00:00:00,2024-04-26T16:38:34,5,revise,active
5530AWB33920,mtydjpm,,,James Street,,St Tydfil`s Avenue,,,,St Tydfil`s Avenue,,,,before,,E,E0039230,Thomas Town,Merthyr Tydfil,,,,,,false,UKOS,305540,206004,-3.369577256,51.744747369,BCT,MKD,OTH,,,,030,2000-01-01T00:00:00,2024-04-26T16:38:34,5,revise,active
5530AWB33921,mtyapad,,,Brunswick Hotel,,,,Brunswick Hotel PH,,Church Street,,,,nr,,E,E0039203,Merthyr Tydfil,,,,,,,false,UKOS,305118,206248,-3.375754328,51.746869175,BCT,MKD,OTH,,,,030,2000-01-01T00:00:00,2024-04-26T16:38:03,2,revise,active
5530AWB33922,mtyadtj,,,Cefn Dalry,,,,,,Upper High Street,,,,nr,,NW,E0039179,Cefn Coed,Merthyr Tydfil,,,,,,false,UKOS,302863,208269,-3.408972588,51.764647760,BCT,CUS,OTH,,,,030,2000-01-01T00:00:00,2024-04-26T16:38:05,3,revise,active
5530AWB33923,mtyadtm,,,Cefn Dalry,,,,,,Upper High Street,,,,nr,,SE,E0039179,Cefn Coed,Merthyr Tydfil,,,,,,false,UKOS,302877,208263,-3.408768107,51.764596261,BCT,CUS,OTH,,,,030,2000-01-01T00:00:00,2024-04-26T16:38:05,3,revise,active
5530AWB33924,mtyadtp,,,Cefn Hotel,,,,Cefn Hotel PH,,Upper High Street,,,,nr,,NW,E0039179,Cefn Coed,Merthyr Tydfil,,,,,,false,UKOS,302617,208521,-3.412606823,51.766870036,BCT,MKD,OTH,,,,030,2000-01-01T00:00:00,2024-04-26T16:38:06,3,revise,active
5530AWB33925,mtyadtw,,,Cefn Hotel,,,,Cefn Hotel PH,,Upper High Street,,,,nr,,SE,E0039179,Cefn Coed,Merthyr Tydfil,,,,,,false,UKOS,302654,208491,-3.412062404,51.766606828,BCT,MKD,OTH,,,,030,2000-01-01T00:00:00,2024-04-26T16:38:06,3,revise,active
5530AWB33926,mtyamta,,,Llwyn-on Village,,,,,,A470,,,,after,,NW,E0039201,Llwyn-On,,,,,,,true,UKOS,301331,211395,-3.432054231,51.792476771,BCT,CUS,OTH,,,,030,2000-01-01T00:00:00,2024-04-26T16:38:19,3,revise,active
5530AWB33927,mtyamtd,,,Llwyn-on Village,,,,,,A470,,,,before,,SE,E0039201,Llwyn-On,,,,,,,true,UKOS,301339,211394,-3.431937989,51.792469195,BCT,CUS,OTH,,,,030,2000-01-01T00:00:00,2024-04-26T16:38:19,3,revise,active
5530AWB33928,mtydwam,,,Forest Mountain Centre,,,,Mountain Centre,,A470,,,,nr,,SE,E0039201,Llwyn-On,,,,,,,true,UKOS,300615,213241,-3.442962102,51.808941989,BCT,CUS,OTH,,,,030,2000-01-01T00:00:00,2024-04-26T16:38:04,2,revise,active
5530AWB33929,mtydwat,,,Forest Visitor Centre,,,,Mountain Centre,,A470,,,,nr,,NW,E0039201,Llwyn-On,,,,,,,true,UKOS,300606,213253,-3.443096046,51.809048245,BCT,CUS,OTH,,,,030,2000-01-01T00:00:00,2024-04-26T16:38:05,2,revise,active
5530AWB33930,mtyampt,,,Kirkhouse Memorial Hall,,Georgetown Vetinary Surgery,,Vets,,Aberdare Road,,,,o/s,,W,E0039193,Georgetown,Merthyr Tydfil,,,,,,true,UKOS,304485,206284,-3.384930268,51.747085078,BCT,MKD,OTH,,,,030,2000-01-01T00:00:00,2024-04-26T16:38:18,5,revise,active
5530AWB33931,mtyampm,,,Kirkhouse Memorial Hall,,Georgetown Veterinary Surgery,,Georgetown Veterinary Surgery,,Aberdare Road,,,,after,,E,E0039193,Georgetown,Merthyr Tydfil,,,,,,true,UKOS,304521,206298,-3.384412822,51.747217059,BCT,MKD,OTH,,,,030,2000-01-01T00:00:00,2024-04-26T16:38:18,5,revise,active
5530AWB33932,mtyamgd,,,Christ Church,,,,Christ Church,,Pantycelynen,,,,opp,,NW,E0039193,Georgetown,Merthyr Tydfil,,,,,,true,UKOS,304235,206344,-3.388566899,51.747581658,BCT,MKD,OTH,,,,030,2000-01-01T00:00:00,2024-04-26T16:38:29,4,revise,active
5530AWB33933,mtyamgj,,,Christ Church,,,,Christ Church,,Pantycelynen,,,,o/s,,SE,E0039193,Georgetown,Merthyr Tydfil,,,,,,true,UKOS,304245,206353,-3.388424575,51.747664265,BCT,MKD,OTH,,,,030,2000-01-01T00:00:00,2024-04-26T16:38:30,4,revise,active
5530AWB33935,mtyamgm,,,Farm Terrace,,,,,,Pantycelynen,,,,opp junct,,NE,E0039199,Heolgerrig,Merthyr Tydfil,,,,,,true,UKOS,303825,206330,-3.394500021,51.747385508,BCT,MKD,OTH,,,,030,2000-01-01T00:00:00,2024-04-26T16:38:31,4,revise,active
5530AWB33936,mtyamjp,,,Castle View,,,,,,Heolgerrig,,,,before,,SW,E0039199,Heolgerrig,Merthyr Tydfil,,,,,,true,UKOS,303678,206273,-3.396612835,51.746847886,BCT,MKD,OTH,,,,030,2000-01-01T00:00:00,2024-04-26T16:38:29,3,revise,active
5530AWB33937,mtyamjt,,,Castle View,,,,,,Heolgerrig,,,,before,,NE,E0039199,Heolgerrig,Merthyr Tydfil,,,,,,true,UKOS,303633,206268,-3.397263058,51.746795196,BCT,MKD,OTH,,,,030,2000-01-01T00:00:00,2024-04-26T16:38:29,3,revise,active
5530AWB33938,mtyapdm,,,Ynysdawel,,,,,,Heolgerrig,,,,nr,,E,E0039199,Heolgerrig,Merthyr Tydfil,,,,,,true,UKOS,302942,205915,-3.407170230,51.743502887,BCT,MKD,OTH,,,,030,2000-01-01T00:00:00,2024-04-26T16:38:25,2,revise,active
5530AWB33939,mtyapdp,,,Post Office,,,,Heolgerrig Post Office,,Heolgerrig,,,,before,,NE,E0039199,Heolgerrig,Merthyr Tydfil,,,,,,true,UKOS,303245,206061,-3.402823716,51.744867653,BCT,MKD,OTH,,,,030,2000-01-01T00:00:00,2024-04-26T16:38:23,3,revise,active
5530AWB33940,mtyapdt,,,Post Office,,,,Heolgerrig Post Office,,Heolgerrig,,,,opp,,SW,E0039199,Heolgerrig,Merthyr Tydfil,,,,,,true,UKOS,303262,206063,-3.402578120,51.744888569,BCT,MKD,OTH,,,,030,2000-01-01T00:00:00,2024-04-26T16:38:23,3,revise,active
5530AWB33941,mtyampd,,,Worcester Close,,,,,,Shirley Drive,,,,after,,NW,E0039199,Heolgerrig,Merthyr Tydfil,,,,,,true,UKOS,303049,206157,-3.405688497,51.745696619,BCT,CUS,OTH,,,,030,2000-01-01T00:00:00,2024-04-26T16:38:42,3,revise,active
5530AWB33942,mtyampg,,,Worcester Close,,,,,,Shirley Drive,,,,before,,SE,E0039199,Heolgerrig,Merthyr Tydfil,,,,,,true,UKOS,303057,206159,-3.405573216,51.745715981,BCT,CUS,OTH,,,,030,2000-01-01T00:00:00,2024-04-26T16:38:43,3,revise,active
5530AWB33943,mtyampj,,,Chester Close,,,,,,Shirley Drive,,,,after,,N,E0039199,Heolgerrig,Merthyr Tydfil,,,,,,true,UKOS,302945,206271,-3.407226245,51.746703267,BCT,CUS,OTH,,,,030,2000-01-01T00:00:00,2024-04-26T16:38:29,2,revise,active
5530AWB33944,mtyamjg,,,Mount Pleasant Stores,,,,,,Heolgerrig,,,,after,,NE,E0039199,Heolgerrig,Merthyr Tydfil,,,,,,true,UKOS,303442,206207,-3.400011820,51.746213982,BCT,MKD,OTH,,,,030,2000-01-01T00:00:00,2024-04-26T16:38:22,3,revise,active
5530AWB33945,mtyamjm,,,Mount Pleasant Stores,,,,,,Heolgerrig,,,,before,,SW,E0039199,Heolgerrig,Merthyr Tydfil,,,,,,true,UKOS,303448,206200,-3.399922994,51.746152098,BCT,MKD,OTH,,,,030,2000-01-01T00:00:00,2024-04-26T16:38:22,3,revise,active
5530AWB33947,mtyamgp,,,Farm Terrace,,,,,,Pantycelynen,,,,junct,,SW,E0039199,Heolgerrig,Merthyr Tydfil,,,,,,true,UKOS,303830,206325,-3.394426234,51.747341425,BCT,MKD,OTH,,,,030,2000-01-01T00:00:00,2024-04-26T16:38:31,3,revise,active
5530AWB33948,mtyatdt,,,Teachers Centre,,,,,,Cae`r Wern,,,,nr,,SE,E0039239,Ynysfach,Merthyr Tydfil,,,,,,true,UKOS,304555,205879,-3.383805374,51.743456695,BCT,CUS,OTH,,,,030,2000-01-01T00:00:00,2024-04-26T16:38:04,2,revise,active
5530AWB33949,mtyamjw,,,Penlan View,,,,,,Cae`r Wern,,,,opp 24,,SW,E0039239,Ynysfach,Merthyr Tydfil,,,,,,true,UKOS,304413,205752,-3.385826484,51.742290927,BCT,CUS,OTH,,,,030,2000-01-01T00:00:00,2024-04-26T16:38:38,3,revise,active
5530AWB33950,mtyampa,,,Penlan View,,,,,,Cae`r Wern,,,,o/s 12,,S,E0039239,Ynysfach,Merthyr Tydfil,,,,,,true,UKOS,304335,205821,-3.386974830,51.742897804,BCT,MKD,OTH,,,,030,2000-01-01T00:00:00,2024-04-26T16:38:38,3,revise,active
5530AWB33951,mtydjdg,,,Ynysfach Rugby Ground,,Rugby Ground,,Ynysfach Rugby Ground,,Cae`r Wern,,,,opp 86,,NW,E0039239,Ynysfach,Merthyr Tydfil,,,,,,true,UKOS,304500,205773,-3.384572489,51.742489851,BCT,MKD,OTH,,,,030,2000-01-01T00:00:00,2024-04-26T16:38:08,5,revise,active
5530AWB33952,mtydjdj,,,Rugby Ground,,,,Ynysfach Rugby Ground,,Cae`r Wern,,,,o/s 88,,SE,E0039239,Ynysfach,Merthyr Tydfil,,,,,,true,UKOS,304514,205746,-3.384362471,51.742254236,BCT,CUS,OTH,,,,030,2000-01-01T00:00:00,2024-04-26T16:38:08,3,revise,active
5530AWB33953,mtydjdm,,,Ynysfach Terminus,,Terminus,,Ynysfach Terminus,,Cae`r Wern,,,,o/s 30,,E,E0039239,Ynysfach,Merthyr Tydfil,,,,,,true,UKOS,304623,205607,-3.382746124,51.741023424,BCT,MKD,OTH,,,,030,2000-01-01T00:00:00,2024-04-26T16:38:25,3,revise,active
5530AWB33954,mtyamga,,,Llwyncelyn Close,,,,,,Cae`r Wern,,,,before,,NW,E0039239,Ynysfach,Merthyr Tydfil,,,,,,true,UKOS,304448,205964,-3.385378026,51.744202456,BCT,MKD,OTH,,,,030,2000-01-01T00:00:00,2024-04-26T16:38:35,3,revise,active
5530AWB33955,mtyapag,,,Llwyncelyn Close,,,,,,Cae`r Wern,,,,after,,SE,E0039239,Ynysfach,Merthyr Tydfil,,,,,,true,UKOS,304455,205966,-3.385277220,51.744221628,BCT,MKD,OTH,,,,030,2000-01-01T00:00:00,2024-04-26T16:38:35,3,revise,active
5530AWB33956,mtydgjd,,,Fflad Bridge,,,,,,Mackintosh Terace,,,,before,,NW,E0039232,Trelewis,,,,,,,true,UKOS,310763,196657,-3.291552411,51.661585744,BCT,MKD,OTH,,,,030,2000-01-01T00:00:00,2024-04-26T16:38:20,5,revise,active
5530AWB33957,mtydgjg,,,Fflad Bridge,,,,,,Mackintosh Terrace,,,,after,,SE,E0039232,Trelewis,,,,,,,true,UKOS,310754,196716,-3.291697578,51.662114660,BCT,MKD,OTH,,,,030,2000-01-01T00:00:00,2024-04-26T16:38:20,4,revise,active
5530AWB33958,mtydgdw,,,Ffaldcaiach Inn,,,,,,High Street,,,,o/s,,SE,E0039232,Trelewis,,,,,,,true,UKOS,310645,196919,-3.293325014,51.663922068,BCT,MKD,OTH,,,,030,2000-01-01T00:00:00,2024-04-26T16:38:10,3,revise,active
5530AWB33959,mtydgja,,,Ffaldcaiach Inn,,,,Ffaldcaiach Inn PH,,High Street,,,,after,,NW,E0039232,Trelewis,,,,,,,true,UKOS,310611,196979,-3.293831831,51.664455988,BCT,MKD,OTH,,,,030,2000-01-01T00:00:00,2024-04-26T16:38:10,3,revise,active
5530AWB33960,mtyamtg,,,Bontnewydd Hotel,,,,Bontnewydd Hotel PH,,High Street,,,,o/s,,NW,E0039232,Trelewis,,,,,,,true,UKOS,310413,197327,-3.296783167,51.667552554,BCT,MKD,OTH,,,,030,2000-01-01T00:00:00,2024-04-26T16:38:02,3,revise,active
5530AWB33961,mtyamtj,,,Bontnewydd Hotel,,,,Bontnewydd Hotel PH,,High Street,,,,after,,SE,E0039232,Trelewis,,,,,,,true,UKOS,310457,197276,-3.296134037,51.667101143,BCT,MKD,OTH,,,,030,2000-01-01T00:00:00,2024-04-26T16:38:02,3,revise,active
5530AWB33962,mtydamp,,,New Houses,,,,,,High Street,,,,nr,,NE,E0039232,Trelewis,,,,,,,true,UKOS,310343,197676,-3.297884734,51.670678498,BCT,MKD,OTH,,,,030,2000-01-01T00:00:00,2024-04-26T16:38:23,3,revise,active
5530AWB33963,mtydamt,,,New Houses,,,,,,High Street,,,,nr,,SW,E0039232,Trelewis,,,,,,,true,UKOS,310358,197681,-3.297669170,51.670725839,BCT,MKD,OTH,,,,030,2000-01-01T00:00:00,2024-04-26T16:38:23,3,revise,active
5530AWB33964,mtydamj,,,Maen Gilfach,,,,,,Maen Gilfach,,,,o/s 13,,SE,N0075762,Taff Merthyr Garden Village,,,,,,,true,UKOS,310765,198034,-3.291875649,51.673963800,BCT,MKD,OTH,,,,030,2000-01-01T00:00:00,2024-04-26T16:38:17,3,revise,active
5530AWB33965,mtydamg,,,Maen Gilfach,,,,,,Maen Gilfach,,,,nr,,NW,N0075762,Taff Merthyr Garden Village,,,,,,,true,UKOS,310733,197954,-3.292317819,51.673239597,BCT,MKD,OTH,,,,030,2000-01-01T00:00:00,2024-04-26T16:38:17,3,revise,active
5530AWB33966,mtydama,,,Ael y Bryn,,,,,,B4255,,,,after,,SW,N0075762,Taff Merthyr Garden Village,,,,,,,true,UKOS,310499,198022,-3.295718286,51.673813561,BCT,CUS,OTH,,,,030,2000-01-01T00:00:00,2024-04-26T16:38:01,3,revise,active
5530AWB33967,mtydamd,,,Ael y Bryn,,,,,,B4255,,,,before,,NE,N0075762,Taff Merthyr Garden Village,,,,,,,true,UKOS,310494,198032,-3.295793139,51.673902653,BCT,CUS,OTH,,,,030,2000-01-01T00:00:00,2024-04-26T16:38:01,3,revise,active
5530AWB33968,mtydamw,,,Taff Merthyr House,,,,,,B4255,,,,nr,,NW,N0075762,Taff Merthyr Garden Village,,,,,,,true,UKOS,310499,198871,-3.295936174,51.681445126,BCT,MKD,OTH,,,,030,2000-01-01T00:00:00,2024-04-26T16:38:25,5,revise,active
5530AWB33969,mtydapa,,,Taff Merthyr House,,,,,,B4255,,,,nr,,SE,N0075762,Taff Merthyr Garden Village,,,,,,,true,UKOS,310514,198844,-3.295712345,51.681204820,BCT,MKD,OTH,,,,030,2000-01-01T00:00:00,2024-04-26T16:38:25,3,revise,active
5530AWB33970,mtyagmd,,,Taff Bargoed Centre,,,,Taff Bargoed Centre,,B4255,,,,nr,,SE,E0039232,Trelewis,,,,,,,true,UKOS,310299,199760,-3.299056929,51.689404276,BCT,MKD,OTH,,,,030,2000-01-01T00:00:00,2024-04-26T16:38:04,3,revise,active
5530AWB33971,mtyagmg,,,Taff Merthyr Centre,,,,Taff Merthyr Centre,,B4255,,,,nr,,NW,E0039232,Trelewis,,,,,,,true,UKOS,310292,199762,-3.299158681,51.689421134,BCT,MKD,OTH,,,,030,2000-01-01T00:00:00,2024-04-26T16:38:04,3,revise,active
5530AWB33972,mtyadpw,,,George Street,,,,,,Moriah Street,,,,before,,SE,E0054364,Bedlinog,,,,,,,true,UKOS,309381,201339,-3.312744159,51.703449981,BCT,MKD,OTH,,,,030,2000-01-01T00:00:00,2024-04-26T16:38:32,2,revise,active
5530AWB33973,mtyadtd,,,Station Hotel,,,,Station Hotel,,High Street,,,,o/s former,,S,E0054364,Bedlinog,,,,,,,true,UKOS,309487,201162,-3.311164665,51.701876094,BCT,MKD,OTH,,,,030,2000-01-01T00:00:00,2024-04-26T16:38:23,3,revise,active
5530AWB33974,mtyadtg,,,Station Hotel,,,,Station Hotel,,High Street,,,,opp former,,N,E0054364,Bedlinog,,,,,,,true,UKOS,309483,201178,-3.311226689,51.702019269,BCT,MKD,OTH,,,,030,2000-01-01T00:00:00,2024-04-26T16:38:23,3,revise,active
5530AWB33975,mtyagma,,,Cwmfelin Square,,Cwmfelin Square,,Cwmfelin War Memorial,,High Street,,,,opp,,SW,E0039185,Cwmfelin,,,,,,,true,UKOS,309492,200898,-3.311023623,51.699499171,BCT,MKD,OTH,,,,030,2000-01-01T00:00:00,2024-04-26T16:38:21,6,revise,active
5530AWB33976,mtyadpt,,,Cwmfelin Square,,Cwmfelin Square,,Cwmfelin War Memorial,,High Street,,,,adj,,NE,E0039185,Cwmfelin,,,,,,,true,UKOS,309479,200915,-3.311216095,51.699649881,BCT,MKD,OTH,,,,030,2000-01-01T00:00:00,2024-04-26T16:38:21,7,revise,active
5530AWB33984,mtydmpt,,,Bramble Close,,,,,,Hospital Road,,,,opp,,S,E0039195,Gurnos,Merthyr Tydfil,,,,,,false,UKOS,304236,207930,-3.388989841,51.761837473,BCT,MKD,OTH,,,,030,2000-01-01T00:00:00,2024-04-26T16:38:28,3,revise,active
5530AWB33985,mtydmpm,,,Bramble Close,,,,,,Hospital Road,,,,adj,,NE,E0039195,Gurnos,Merthyr Tydfil,,,,,,false,UKOS,304229,207936,-3.389092892,51.761890205,BCT,MKD,OTH,,,,030,2000-01-01T00:00:00,2024-04-26T16:38:28,3,revise,active
5530AWB33986,mtydmta,,,Marigold Close,,,,,,Hospital Road,,,,adj,,NE,E0039195,Gurnos,Merthyr Tydfil,,,,,,false,UKOS,304328,208106,-3.387705731,51.763435179,BCT,MKD,OTH,,,,030,2000-01-01T00:00:00,2024-04-26T16:38:36,3,revise,active
5530AWB33987,mtydmpw,,,Marigold Close,,,,,,Hospital Road,,,,opp,,SW,E0039195,Gurnos,Merthyr Tydfil,,,,,,false,UKOS,304340,208108,-3.387532455,51.763455208,BCT,MKD,OTH,,,,030,2000-01-01T00:00:00,2024-04-26T16:38:36,3,revise,active
5530AWB33988,mtydmtg,,,Prince Charles Hospital,,,,Prince Charles Hospital,,Grounds,,,,grounds,,S,E0039195,Gurnos,Merthyr Tydfil,,,,,,false,UKOS,304425,208228,-3.386334228,51.764548351,BCT,MKD,OTH,,,,030,2000-01-01T00:00:00,2024-04-26T16:38:26,2,revise,active
5530AWB33989,mtyamam,,,Pen Gurnos,,,,Penygarn Wood,,Hospital Road,,,,after,,SE,E0039195,Gurnos,Merthyr Tydfil,,,,,,false,UKOS,304320,208421,-3.387908469,51.766265161,BCT,MKD,OTH,,,,030,2000-01-01T00:00:00,2024-04-26T16:38:19,3,revise,active
5530AWB33991,mtydmtm,,,Pen Gurnos,,,,,,Hospital Road,,,,before,,NW,E0039195,Gurnos,Merthyr Tydfil,,,,,,false,UKOS,304308,208457,-3.388092235,51.766586690,BCT,MKD,OTH,,,,030,2000-01-01T00:00:00,2024-04-26T16:38:19,3,revise,active
5530AWB33992,mtydmtd,,,Lupin Close,,,,,,Gurnos Circle,,,,adj,,SW,E0039195,Gurnos,Merthyr Tydfil,,,,,,false,UKOS,303996,208272,-3.392560862,51.764870363,BCT,MKD,OTH,,,,030,2000-01-01T00:00:00,2024-04-26T16:38:35,3,revise,active
5530AWB33993,mtydmpj,,,Lupin Close,,,,,,Gurnos Circle,,,,nr,,S,E0039195,Gurnos,Merthyr Tydfil,,,,,,false,UKOS,303890,208107,-3.394050682,51.763369072,BCT,MKD,OTH,,,,030,2000-01-01T00:00:00,2024-04-26T16:38:35,3,revise,active
5530AWB33994,mtyajwj,,,Gurnos Road,,,,,,Gurnos Road,,,,in,,SE,E0039195,Gurnos,Merthyr Tydfil,,,,,,false,UKOS,304016,207902,-3.392168810,51.761548087,BCT,CUS,OTH,,,,030,2000-01-01T00:00:00,2024-04-26T16:38:33,3,revise,active
5530AWB33995,mtyamat,,,Gurnos Police Station,,,,Gurnos Police Station,,Gurnos Circle,,,,o/s,,SW,E0039195,Gurnos,Merthyr Tydfil,,,,,,false,UKOS,304344,208542,-3.387594151,51.767356864,BCT,MKD,OTH,,,,030,2000-01-01T00:00:00,2024-04-26T16:38:14,4,revise,active
5530AWB33996,mtydmtw,,,Gurnos Police Station,,Police Station,,Gurnos Police Station,,Gurnos Circle,,,,opp,,NE,E0039195,Gurnos,Merthyr Tydfil,,,,,,false,UKOS,304369,208556,-3.387235838,51.767486978,BCT,MKD,OTH,,,,030,2000-01-01T00:00:00,2024-04-26T16:38:14,4,revise,active
5530AWB33997,mtyamdm,,,Wellingtonia Close,,,,,,Gurnos Circle,,,,before,,SW,E0039195,Gurnos,Merthyr Tydfil,,,,,,false,UKOS,304671,208615,-3.382877002,51.768068859,BCT,MKD,OTH,,,,030,2000-01-01T00:00:00,2024-04-26T16:38:42,4,revise,active
5530AWB33998,mtyamdp,,,Wellingtonia Close,,,,,,Goitre Lane,,,,after,,S,E0039195,Gurnos,Merthyr Tydfil,,,,,,false,UKOS,304702,208603,-3.382424606,51.767966282,BCT,MKD,OTH,,,,030,2000-01-01T00:00:00,2024-04-26T16:38:42,4,revise,active
5530AWB33999,mtyajwt,,,Gurnos Tavern,,Pen-y-dre High School,,Gurnos Youth Centre,,Goitre Lane,,,,nr,,SE,E0039195,Gurnos,Merthyr Tydfil,,,,,,false,UKOS,304769,208388,-3.381394962,51.766045182,BCT,MKD,OTH,,,,030,2000-01-01T00:00:00,2024-04-26T16:38:15,3,revise,active
5530AWB34000,mtydmwg,,,Gurnos Tavern,,Pen-y-dre High School,,Gurnos Youth Centre,,Goitre Lane,,,,nr,,NW,E0039195,Gurnos,Merthyr Tydfil,,,,,,false,UKOS,304760,208414,-3.381532476,51.766277349,BCT,MKD,OTH,,,,030,2000-01-01T00:00:00,2024-04-26T16:38:15,3,revise,active
5530AWB34001,mtyamdt,,,Plane Grove,,,,,,Goitre Lane,,,,after,,SE,E0039195,Gurnos,Merthyr Tydfil,,,,,,false,UKOS,304977,208181,-3.378325090,51.764219955,BCT,MKD,OTH,,,,030,2000-01-01T00:00:00,2024-04-26T16:38:38,3,revise,active
5530AWB34002,mtydmwm,,,Plane Grove,,,,,,Goitre Lane,,,,before,,NW,E0039195,Gurnos,Merthyr Tydfil,,,,,,false,UKOS,304972,208176,-3.378396150,51.764174163,BCT,MKD,OTH,,,,030,2000-01-01T00:00:00,2024-04-26T16:38:38,3,revise,active
5530AWB34003,mtydpad,,,Yew Close,,,,,,Chestnut Way,,,,after,,NE,E0039195,Gurnos,Merthyr Tydfil,,,,,,false,UKOS,305002,208087,-3.377937211,51.763379287,BCT,CUS,OTH,,,,030,2000-01-01T00:00:00,2024-04-26T16:38:43,3,revise,active
5530AWB34004,mtyajwa,,,Yew Close,,,,,,Chestnut Way,,,,before,,SW,E0039195,Gurnos,Merthyr Tydfil,,,,,,false,UKOS,305005,208081,-3.377892111,51.763325866,BCT,CUS,OTH,,,,030,2000-01-01T00:00:00,2024-04-26T16:38:43,3,revise,active
5530AWB34005,mtyajwm,,,Gurnos Shops,,Shops,,Gurnos Shops,,Chestnut Way,,,,opp,,SW,E0039195,Gurnos,Merthyr Tydfil,,,,,,false,UKOS,304875,207983,-3.379748272,51.762418219,BCT,MKD,OTH,,,,030,2000-01-01T00:00:00,2024-04-26T16:38:22,4,revise,active
5530AWB34006,mtydmjm,,,Gurnos Shops,,Shops,,Gurnos Shops,,Chestnut Way,,,,o/s,,NE,E0039195,Gurnos,Merthyr Tydfil,,,,,,false,UKOS,304869,207987,-3.379836281,51.762453152,BCT,MKD,OTH,,,,030,2000-01-01T00:00:00,2024-04-26T16:38:22,5,revise,active
5530AWB34007,mtydmjw,,,Almond Grove,,,,Gurnos House,,Gurnos Road,,,,adj,,SE,E0039195,Gurnos,Merthyr Tydfil,,,,,,false,UKOS,304677,207853,-3.382580764,51.761220695,BCT,MKD,OTH,,,,030,2000-01-01T00:00:00,2024-04-26T16:38:27,3,revise,active
5530AWB34008,mtyajtd,,,Almond Grove,,,,Gurnos House,,Gurnos Road,,,,opp,,NW,E0039195,Gurnos,Merthyr Tydfil,,,,,,false,UKOS,304666,207850,-3.382739274,51.761191855,BCT,MKD,OTH,,,,030,2000-01-01T00:00:00,2024-04-26T16:38:27,3,revise,active
5530AWB34009,mtyajwd,,,Goitre Primary School,,,,Goitre Primary School,,Gurnos Road,,,,o/s,,NW,E0039195,Gurnos,Merthyr Tydfil,,,,,,false,UKOS,304505,207885,-3.385080971,51.761478986,BCT,MKD,OTH,,,,030,2000-01-01T00:00:00,2024-04-26T16:38:26,3,revise,active
5530AWB34010,mtydmpd,,,Goitre Primary School,,,,Goitre Primary School,,Gurnos Road,,,,opp,,SE,E0039195,Gurnos,Merthyr Tydfil,,,,,,false,UKOS,304505,207896,-3.385083997,51.761577859,BCT,MKD,OTH,,,,030,2000-01-01T00:00:00,2024-04-26T16:38:26,3,revise,active
5530AWB34011,mtyamdg,,,Ash Crescent Top,,Top of Ash Crescent,,,,Ash Crescent,,,,nr 90,,SW,E0039195,Gurnos,Merthyr Tydfil,,,,,,true,UKOS,304762,207776,-3.381328418,51.760543065,BCT,MKD,OTH,,,,030,2000-01-01T00:00:00,2024-04-26T16:38:28,3,revise,active
5530AWB34012,mtyamdj,,,Ash Crescent Top,,Top of Ash Crescent,,,,Ash Crescent,,,,o/s 95,,NE,E0039195,Gurnos,Merthyr Tydfil,,,,,,true,UKOS,304746,207759,-3.381555508,51.760387537,BCT,MKD,OTH,,,,030,2000-01-01T00:00:00,2024-04-26T16:38:28,3,revise,active
5530AWB34013,mtyamwd,,,Ash Crescent Middle,,,,,,Ash Crescent,,,,o/s 55,,NW,E0039195,Gurnos,Merthyr Tydfil,,,,,,false,UKOS,304763,207587,-3.381262078,51.758844418,BCT,MKD,OTH,,,,030,2000-01-01T00:00:00,2024-04-26T16:38:28,3,revise,active
5530AWB34014,mtyamwg,,,Ash Crescent Bottom,,,,,,Ash Crescent,,,,o/s 2A,,E,E0039195,Gurnos,Merthyr Tydfil,,,,,,true,UKOS,304917,207510,-3.379010425,51.758178505,BCT,MKD,OTH,,,,030,2000-01-01T00:00:00,2024-04-26T16:38:28,3,revise,active
5530AWB34015,mtyamwj,,,Ash Crescent Bottom,,,,,,Ash Crescent,,,,o/s 1,,W,E0039195,Gurnos,Merthyr Tydfil,,,,,,true,UKOS,304932,207505,-3.378791796,51.758136112,BCT,MKD,OTH,,,,030,2000-01-01T00:00:00,2024-04-26T16:38:28,3,revise,active
5530AWB34016,mtyatad,,,Gurnos Spar,,Spar,,Gurnos Spar,,Gurnos Road,,,,o/s,,S,E0039195,Gurnos,Merthyr Tydfil,,,,,,true,UKOS,304981,207427,-3.378060627,51.757438654,BCT,MKD,OTH,,,,030,2000-01-01T00:00:00,2024-04-26T16:38:22,5,revise,active
5530AWB34017,mtyatag,,,Gurnos Spar,,Spar,,Gurnos Spar,,Gurnos Road,,,,opp,,NW,E0039195,Gurnos,Merthyr Tydfil,,,,,,true,UKOS,304974,207425,-3.378161466,51.757419488,BCT,MKD,OTH,,,,030,2000-01-01T00:00:00,2024-04-26T16:38:22,5,revise,active
5530AWB34018,mtyataj,,,Spinney,,,,,,Gurnos Road,,,,nr,,SW,E0039195,Gurnos,Merthyr Tydfil,,,,,,true,UKOS,304978,207317,-3.378074077,51.756454097,BCT,MKD,OTH,,,,030,2000-01-01T00:00:00,2024-04-26T16:38:23,5,revise,active
5530AWB34019,mtyatam,,,Spinney,,,,,,Gurnos Road,,,,nr,,NE,E0039195,Gurnos,Merthyr Tydfil,,,,,,true,UKOS,304973,207329,-3.378149779,51.756561110,BCT,MKD,OTH,,,,030,2000-01-01T00:00:00,2024-04-26T16:38:23,5,revise,active
5530AWB34020,mtydadg,,,The Grove,,,,,,The Grove,,,,o/s St John's Lodge,,NE,E0054371,Penydarren,Merthyr Tydfil,,,,,,true,UKOS,305028,207084,-3.377286173,51.754368275,BCT,MKD,OTH,,,,030,2000-01-01T00:00:00,2024-04-26T16:38:40,6,revise,active
5530AWB34021,mtydadj,,,The Grove,,,,,,The Grove,,,,opp St John's Lodge,,SW,E0054371,Penydarren,Merthyr Tydfil,,,,,,true,UKOS,305033,207077,-3.377211844,51.754306204,BCT,MKD,OTH,,,,030,2000-01-01T00:00:00,2024-04-26T16:38:40,5,revise,active
5530AWB34023,mtydpaw,,,Park Baptist Church,,,,Park Baptist Church,,The Walk,,,,before,,SW,E0039204,Morgan Town,Merthyr Tydfil,,,,,,false,UKOS,304880,206828,-3.379359493,51.752042085,BCT,MKD,OTH,,,,030,2000-01-01T00:00:00,2024-04-26T16:38:09,6,revise,active
5530AWB34024,mtydagm,,,Park Baptist Church,,,,Park Baptist Church,,The Walk,,,,after,,NE,E0039204,Morgan Town,Merthyr Tydfil,,,,,,false,UKOS,304872,206813,-3.379471240,51.751905898,BCT,MKD,OTH,,,,030,2000-01-01T00:00:00,2024-04-26T16:38:09,5,revise,active
5530AWB34025,mtydpap,,,St Mary`s RC Church,,,,,,The Walk,,,,before,,S,E0039204,Morgan Town,Merthyr Tydfil,,,,,,false,UKOS,304860,206619,-3.379591877,51.750160095,BCT,MKD,OTH,,,,030,2000-01-01T00:00:00,2024-04-26T16:38:09,5,revise,active
5530AWB34026,mtydagd,,,St Mary`s RC Church,,,,,,The Walk,,,,after,,N,E0039204,Morgan Town,Merthyr Tydfil,,,,,,false,UKOS,304853,206616,-3.379692425,51.750131939,BCT,MKD,OTH,,,,030,2000-01-01T00:00:00,2024-04-26T16:38:09,5,revise,active
5530AWB34027,mtyajgt,,,Beech Grove,,,,,,Sycamore Road,,,,after,,NE,E0039195,Gurnos,Merthyr Tydfil,,,,,,true,UKOS,305106,207923,-3.376385862,51.761922835,BCT,MKD,OTH,,,,030,2000-01-01T00:00:00,2024-04-26T16:38:28,2,revise,active
5530AWB34028,mtyajdg,,,Goitre Lane,,,,,,Goitre Lane,,,,o/s 5,,NW,E0039195,Gurnos,Merthyr Tydfil,,,,,,true,UKOS,305125,207973,-3.376124312,51.762375481,BCT,MKD,OTH,,,,030,2000-01-01T00:00:00,2024-04-26T16:38:33,3,revise,active
5530AWB34029,mtydwaw,,,Dowlais Flats,,Flats,,Dowlais Flats,,South Street,,,,nr,,SE,E0054366,Dowlais,Merthyr Tydfil,,,,,,true,UKOS,306318,207634,-3.358751617,51.759524785,BCT,MKD,OTH,,,,030,2000-01-01T00:00:00,2024-04-26T16:38:30,5,revise,active
5530AWB34030,mtyawjw,,,Dowlais Flats,,Flats,,Dowlais Flats,,South Street,,,,nr,,NW,E0054366,Dowlais,Merthyr Tydfil,,,,,,true,UKOS,306323,207625,-3.358676871,51.759449410,BCT,MKD,OTH,,,,030,2000-01-01T00:00:00,2024-04-26T16:38:30,4,revise,active
5530AWB34031,mtyagpg,,,Menelaus Square,,,,,,Lower Union Street,,,,nr,,NE,E0054366,Dowlais,Merthyr Tydfil,,,,,,true,UKOS,306561,207773,-3.355269400,51.760819522,BCT,MKD,OTH,,,,030,2000-01-01T00:00:00,2024-04-26T16:38:21,3,revise,active
5530AWB34032,mtyagpj,,,Menelaus Square,,,,,,Lower Union Street,,,,nr,,SW,E0054366,Dowlais,Merthyr Tydfil,,,,,,true,UKOS,306566,207768,-3.355195630,51.760775415,BCT,MKD,OTH,,,,030,2000-01-01T00:00:00,2024-04-26T16:38:21,3,revise,active
5530AWB34033,mtydwjp,,,Dowlais Police Station,,Dowlais Recreation Centre,,Dowlais Police Station,,Victoria Street,,,,o/s,,NW,E0054366,Dowlais,Merthyr Tydfil,,,,,,true,UKOS,306497,207903,-3.356231459,51.761977337,BCT,MKD,OTH,,,,030,2000-01-01T00:00:00,2024-04-26T16:38:13,4,revise,active
5530AWB34034,mtydwjt,,,Dowlais Police Station,,Dowlais Recreation Centre,,Dowlais Police Station,,Victoria Street,,,,opp,,SE,E0054366,Dowlais,Merthyr Tydfil,,,,,,true,UKOS,306499,207922,-3.356207608,51.762148454,BCT,MKD,OTH,,,,030,2000-01-01T00:00:00,2024-04-26T16:38:14,4,revise,active
5530AWB34035,mtyataw,,,Bruce Hotel,,,,Bruce Hotel PH,,Victoria Street,,,,before,,N,E0054366,Dowlais,Merthyr Tydfil,,,,,,true,UKOS,306476,208075,-3.356582002,51.763519854,BCT,MKD,OTH,,,,030,2000-01-01T00:00:00,2024-04-26T16:38:03,3,revise,active
5530AWB34036,mtyatda,,,Bruce Hotel,,,,Bruce Hotel PH,,Victoria Street,,,,after,,S,E0054366,Dowlais,Merthyr Tydfil,,,,,,true,UKOS,306486,208141,-3.356454930,51.764114769,BCT,MKD,OTH,,,,030,2000-01-01T00:00:00,2024-04-26T16:38:03,3,revise,active
5530AWB34037,mtyatdm,,,Windsor Place,,,,,,Pant Road,,,,nr,,NE,E0054369,Pant,Merthyr Tydfil,,,,,,true,UKOS,306576,208680,-3.355296319,51.768974631,BCT,MKD,OTH,,,,030,2000-01-01T00:00:00,2024-04-26T16:38:42,3,revise,active
5530AWB34038,mtyatdp,,,Windsor Place,,,,,,Pant Road,,,,nr,,SW,E0054369,Pant,Merthyr Tydfil,,,,,,true,UKOS,306578,208670,-3.355264651,51.768885080,BCT,MKD,OTH,,,,030,2000-01-01T00:00:00,2024-04-26T16:38:42,3,revise,active
5530AWB34039,mtydptg,,,Pant War Memorial,,Pantysgallog Terrace,,Tai`r Twynau Turn,,Pant Road,,,,before,,NW,E0054369,Pant,Merthyr Tydfil,,,,,,false,UKOS,306604,208941,-3.354960937,51.771325315,BCT,MKD,OTH,,,,030,2000-01-01T00:00:00,2024-04-26T16:38:08,4,revise,active
5530AWB34040,mtyapwa,,,Pant War Memorial,,Pantysgallog Terrace,,Tai`r Twynau Turn,,Pant Road,,,,after,,SE,E0054369,Pant,Merthyr Tydfil,,,,,,false,UKOS,306610,208953,-3.354876969,51.771425191,BCT,MKD,OTH,,,,030,2000-01-01T00:00:00,2024-04-26T16:38:08,4,revise,active
5530AWB34041,mtyatap,,,Tai`r Twynau,,,,,,Edward Street,,,,o/s 4,,SW,E0054369,Pant,Merthyr Tydfil,,,,,,false,UKOS,306883,209187,-3.350984735,51.773583031,BCT,CUS,OTH,,,,030,2000-01-01T00:00:00,2024-04-26T16:38:24,3,revise,active
5530AWB34042,mtyatat,,,Gwladys Street Top,,,,,,Gwladys Street,,,,o/s 65,,NE,E0039178,Caeracca,Merthyr Tydfil,,,,,,false,UKOS,306856,209074,-3.351345593,51.772562829,BCT,CUS,OTH,,,,030,2000-01-01T00:00:00,2024-04-26T16:38:33,2,revise,active
5530AWB34043,mtydpwt,,,Caeracca Bridge,,,,,,Jones Street,,,,nr,,N,E0054369,Pant,Merthyr Tydfil,,,,,,false,UKOS,306740,208738,-3.352935949,51.769523343,BCT,MKD,OTH,,,,030,2000-01-01T00:00:00,2024-04-26T16:38:19,2,revise,active
5530AWB34044,mtyapam,,,Caeracca Bridge,,,,,,Jones Street,,,,nr,,S,E0054369,Pant,Merthyr Tydfil,,,,,,false,UKOS,306756,208634,-3.352676193,51.768591203,BCT,MKD,OTH,,,,030,2000-01-01T00:00:00,2024-04-26T16:38:19,2,revise,inactive
5530AWB34045,mtyapap,,,Upper Row,,Cross Street 9S0,,Guest Cottages,,Jones Street,,,,not in use,,S,E0039212,Pen-y-wern,Merthyr Tydfil,,,,,,false,UKOS,306763,208405,-3.352513240,51.766533994,BCT,HAR,OTH,,,,030,2000-01-01T00:00:00,2024-04-26T16:38:41,2,revise,inactive
5530AWB34046,mtydtaw,,,Upper Row,,Cross Street,,,,Jones Street,,,,after,,N,E0039212,Pen-y-wern,Merthyr Tydfil,,,,,,false,UKOS,306755,208428,-3.352635316,51.766739397,BCT,CUS,OTH,,,,030,2000-01-01T00:00:00,2024-04-26T16:38:41,2,revise,active
5530AWB34047,mtyapgd,,,Lower Row,,,,,,Lower Row,,,,not in use,,SE,E0039212,Pen-y-wern,Merthyr Tydfil,,,,,,false,UKOS,306932,208257,-3.350025273,51.765231840,BCT,MKD,OTH,,,,030,2000-01-01T00:00:00,2024-04-26T16:38:35,2,revise,inactive
5530AWB34048,mtydtap,,,Lower Row,,,,,,Lower Row,,,,before,,NW,E0039212,Pen-y-wern,Merthyr Tydfil,,,,,,false,UKOS,306927,208257,-3.350097705,51.765231008,BCT,MKD,OTH,,,,030,2000-01-01T00:00:00,2024-04-26T16:38:35,2,revise,active
5530AWB34049,mtydtag,,,Muriel Terrace,,,,,,Lower Row,,,,before,,NE,E0039212,Pen-y-wern,Merthyr Tydfil,,,,,,false,UKOS,306927,208125,-3.350062300,51.764044519,BCT,MKD,OTH,,,,030,2000-01-01T00:00:00,2024-04-26T16:38:37,2,revise,active
5530AWB34050,mtyapwj,,,Muriel Terrace,,,,,,Lower Row,,,,not in use,,SW,E0039212,Pen-y-wern,Merthyr Tydfil,,,,,,false,UKOS,306940,208158,-3.349882832,51.764343305,BCT,MKD,OTH,,,,030,2000-01-01T00:00:00,2024-04-26T16:38:37,2,revise,inactive
5530AWB34051,mtydada,,,Gwaelodygarth,,Nursing Home,,Nursing Home,,High Street,,,,bottom,,NW,E0054371,Penydarren,Merthyr Tydfil,,,,,,false,UKOS,305194,206914,-3.374835619,51.752868388,BCT,MKD,OTH,,,,030,2000-01-01T00:00:00,2024-04-26T16:38:15,2,revise,active
5530AWB34052,mtyawmt,,,Gwaunfarren Baths,,,,Gwaunfarren Baths,,Gwaunfarren Road,,,,nr,,E,E0054371,Penydarren,Merthyr Tydfil,,,,,,true,UKOS,305127,207323,-3.375917687,51.756533317,BCT,MKD,OTH,,,,030,2000-01-01T00:00:00,2024-04-26T16:38:33,3,revise,active
5530AWB34053,mtyawmw,,,Gwaunfarren Baths,,,,Gwaunfarren Baths,,Gwaunfarren Road,,,,nr,,W,E0054371,Penydarren,Merthyr Tydfil,,,,,,true,UKOS,305136,207310,-3.375783783,51.756417993,BCT,MKD,OTH,,,,030,2000-01-01T00:00:00,2024-04-26T16:38:33,3,revise,active
5530AWB34054,mtyawgw,,,Billingham Crescent,,,,,,Gwaunfarren Road,,,,after,,NE,E0054371,Penydarren,Merthyr Tydfil,,,,,,true,UKOS,305210,207384,-3.374732215,51.757095684,BCT,MKD,OTH,,,,030,2000-01-01T00:00:00,2024-04-26T16:38:28,4,revise,active
5530AWB34055,mtyawja,,,Bishop Hedley School,,,,Bishop Hedley RC High School,,Gwaunfarren Road,,,,opp,,E,E0054371,Penydarren,Merthyr Tydfil,,,,,,true,UKOS,305428,207373,-3.371571781,51.757033708,BCT,MKD,OTH,,,,030,2000-01-01T00:00:00,2024-04-26T16:38:26,3,revise,active
5530AWB34056,mtyawjd,,,Bishop Hedley School,,,,Bishop Hedley RC High School,,Gwaunfarren Road,,,,before,,SW,E0054371,Penydarren,Merthyr Tydfil,,,,,,true,UKOS,305515,207379,-3.370313337,51.757102340,BCT,MKD,OTH,,,,030,2000-01-01T00:00:00,2024-04-26T16:38:26,3,revise,active
5530AWB34057,mtyawtp,,,Royal Crescent,,,,,,Gwaunfarren Road,,,,nr,,NE,E0054371,Penydarren,Merthyr Tydfil,,,,,,true,UKOS,305632,207505,-3.368652998,51.758254640,BCT,MKD,OTH,,,,030,2000-01-01T00:00:00,2024-04-26T16:38:39,3,revise,active
5530AWB34058,mtyawtw,,,Royal Crescent,,,,,,Gwaunfarren Road,,,,nr,,SW,E0054371,Penydarren,Merthyr Tydfil,,,,,,true,UKOS,305662,207526,-3.368224183,51.758448459,BCT,MKD,OTH,,,,030,2000-01-01T00:00:00,2024-04-26T16:38:39,3,revise,active
5530AWB34059,mtyawma,,,Farm Shops,,,,Londis Shop,,Gwaunfarren Road,,,,o/s,,NE,E0054371,Penydarren,Merthyr Tydfil,,,,,,true,UKOS,305805,207684,-3.366195829,51.759892741,BCT,MKD,OTH,,,,030,2000-01-01T00:00:00,2024-04-26T16:38:22,3,revise,active
5530AWB34060,mtyawmd,,,Farm Shops,,,,Londis Shops,,Gwaunfarren Road,,,,opp,,SW,E0054371,Penydarren,Merthyr Tydfil,,,,,,true,UKOS,305816,207684,-3.366036498,51.759894593,BCT,MKD,OTH,,,,030,2000-01-01T00:00:00,2024-04-26T16:38:22,3,revise,active
5530AWB34061,mtyawpa,,,Galon Uchaf Police Station,,Galon Uchaf Police Station,,Galon Uchaf Police Station,,Haydn Terrace,,,,nr,,NE,E0054371,Penydarren,Merthyr Tydfil,,,,,,true,UKOS,305856,207828,-3.365496173,51.761195671,BCT,MKD,OTH,,,,030,2000-01-01T00:00:00,2024-04-26T16:38:14,6,revise,active
5530AWB34062,mtyawpd,,,Galon Uchaf Police Station,,Galon Uchaf Police Station,,Galon Uchaf Police Station,,Haydn Terrace,,,,nr,,SW,E0054371,Penydarren,Merthyr Tydfil,,,,,,true,UKOS,305860,207807,-3.365432537,51.761007586,BCT,MKD,OTH,,,,030,2000-01-01T00:00:00,2024-04-26T16:38:14,5,revise,active
5530AWB34063,mtydadt,,,Edgar Street Steps,,,,,,Haydn Terrace,,,,after,,N,E0039191,Galon Uchaf,Merthyr Tydfil,,,,,,true,UKOS,305869,207917,-3.365332006,51.761997836,BCT,MKD,OTH,,,,030,2000-01-01T00:00:00,2024-04-26T16:38:31,3,revise,active
5530AWB34064,mtydadw,,,Edgar Street Steps,,,,,,Haydn Terrace,,,,after,,S,E0039191,Galon Uchaf,Merthyr Tydfil,,,,,,true,UKOS,305877,207911,-3.365214496,51.761945252,BCT,MKD,OTH,,,,030,2000-01-01T00:00:00,2024-04-26T16:38:31,3,revise,active
5530AWB34065,mtyaptg,,,Haydn Terrace Middle,,,,,,Haydn Terrace,,,,opp 41,,N,E0039191,Galon Uchaf,Merthyr Tydfil,,,,,,true,UKOS,305858,208032,-3.365522538,51.763029663,BCT,MKD,OTH,,,,030,2000-01-01T00:00:00,2024-04-26T16:38:33,3,revise,active
5530AWB34066,mtyaptj,,,Haydn Terrace Middle,,,,,,Haydn Terrace,,,,o/s 41,,S,E0039191,Galon Uchaf,Merthyr Tydfil,,,,,,true,UKOS,305864,208032,-3.365435625,51.763030673,BCT,CUS,OTH,,,,030,2000-01-01T00:00:00,2024-04-26T16:38:33,3,revise,active
5530AWB34067,mtyapaw,,,Haydn Terrace Top,,,,,,Haydn Terrace,,,,o/s 70,,N,E0039191,Galon Uchaf,Merthyr Tydfil,,,,,,true,UKOS,305863,208163,-3.365485646,51.764207998,BCT,CUS,OTH,,,,030,2000-01-01T00:00:00,2024-04-26T16:38:33,3,revise,active
5530AWB34068,mtyapda,,,Haydn Terrace Top,,,,,,Haydn Terrace,,,,o/s 57,,S,E0039191,Galon Uchaf,Merthyr Tydfil,,,,,,true,UKOS,305869,208160,-3.365397916,51.764182042,BCT,CUS,OTH,,,,030,2000-01-01T00:00:00,2024-04-26T16:38:33,3,revise,active
5530AWB34069,mtyajdw,,,Marshall Crescent,,,,,,Marshall Crescent,,,,nr,,NW,E0039191,Galon Uchaf,Merthyr Tydfil,,,,,,true,UKOS,305759,208256,-3.367017443,51.765026412,BCT,CUS,OTH,,,,030,2000-01-01T00:00:00,2024-04-26T16:38:36,3,revise,active
5530AWB34070,mtyajga,,,Marshall Crescent,,,,,,Marshall Crescent,,,,nr,,SE,E0039191,Galon Uchaf,Merthyr Tydfil,,,,,,true,UKOS,305767,208254,-3.366901010,51.765009783,BCT,CUS,OTH,,,,030,2000-01-01T00:00:00,2024-04-26T16:38:36,3,revise,active
5530AWB34071,mtyajgd,,,Mitchell Crescent Top,,,,,,Marshall Crescent,,,,nr,,NW,E0039191,Galon Uchaf,Merthyr Tydfil,,,,,,true,UKOS,305702,208312,-3.367858376,51.765520160,BCT,CUS,OTH,,,,030,2000-01-01T00:00:00,2024-04-26T16:38:36,3,revise,active
5530AWB34072,mtyajag,,,Crossroads,,,,Galon Uchaf Crossroads,,Twelfth Avenue,,,,after,,S,E0039191,Galon Uchaf,Merthyr Tydfil,,,,,,true,UKOS,305588,208392,-3.369531589,51.766220004,BCT,MKD,OTH,,,,030,2000-01-01T00:00:00,2024-04-26T16:38:15,3,revise,active
5530AWB34073,mtyajaj,,,Crossroads,,,,Galon Uchaf Crossroads,,Twelfth Avenue,,,,before,,N,E0039191,Galon Uchaf,Merthyr Tydfil,,,,,,true,UKOS,305581,208392,-3.369632995,51.766218822,BCT,MKD,OTH,,,,030,2000-01-01T00:00:00,2024-04-26T16:38:15,3,revise,active
5530AWB34075,mtyajdp,,,Roberts Avenue,,,,,,Twelfth Avenue,,,,after,,SE,E0039191,Galon Uchaf,Merthyr Tydfil,,,,,,true,UKOS,305581,208248,-3.369593812,51.764924481,BCT,MKD,OTH,,,,030,2000-01-01T00:00:00,2024-04-26T16:38:39,3,revise,active
5530AWB34076,mtyajdm,,,Roberts Avenue,,,,,,Twelfth Avenue,,,,before,,NW,E0039191,Galon Uchaf,Merthyr Tydfil,,,,,,true,UKOS,305576,208249,-3.369666515,51.764932625,BCT,MKD,OTH,,,,030,2000-01-01T00:00:00,2024-04-26T16:38:39,3,revise,active
5530AWB34077,mtyagmj,,,Dowlais Health Centre,,Health Centre,,Dowlais Medical Centre,,Ivor Street,,,,nr,,SW,E0054366,Dowlais,Merthyr Tydfil,,,,,,true,UKOS,306581,207862,-3.355003551,51.761618160,BCT,MKD,OTH,,,,030,2000-01-01T00:00:00,2024-04-26T16:38:04,5,revise,active
5530AWB34078,mtyagmp,,,Dowlais Health Centre,,Health Centre,,Dowlais Medical Centre,,Ivor Street,,,,nr,,NE,E0054366,Dowlais,Merthyr Tydfil,,,,,,true,UKOS,306571,207862,-3.355148403,51.761616489,BCT,MKD,OTH,,,,030,2000-01-01T00:00:00,2024-04-26T16:38:04,4,revise,active
5530AWB34079,mtyagpd,,,Ivor Chapel,,Ivor Congregational Chapel,,Ivor Congregational Chapel,,Ivor Street,,,,o/s,,SW,E0054366,Dowlais,Merthyr Tydfil,,,,,,true,UKOS,306661,207932,-3.353863665,51.762265398,BCT,MKD,OTH,,,,030,2000-01-01T00:00:00,2024-04-26T16:38:05,3,revise,active
5530AWB34080,mtydwjw,,,Ivor Chapel,,Ivor Congregational Chapel,,Ivor Congregational Chapel,,Ivor Street,,,,opp,,NE,E0054366,Dowlais,Merthyr Tydfil,,,,,,true,UKOS,306655,207937,-3.353951923,51.762309340,BCT,CUS,OTH,,,,030,2000-01-01T00:00:00,2024-04-26T16:38:05,3,revise,active
5530AWB34082,mtydwma,,,Chapel of Rest,,,,Funeral Home,,Gwernllyn Road,,,,nr,,NW,E0039212,Pen-y-wern,Merthyr Tydfil,,,,,,true,UKOS,306891,208013,-3.350553747,51.763031808,BCT,CUS,OTH,,,,030,2000-01-01T00:00:00,2024-04-26T16:38:05,3,revise,active
5530AWB34083,mtyajgm,,,Rocky Road,,,,,,Rocky Road,,,,opp 14,,NW,E0039191,Galon Uchaf,Merthyr Tydfil,,,,,,true,UKOS,305791,208314,-3.366569630,51.765553137,BCT,MKD,OTH,,,,030,2000-01-01T00:00:00,2024-04-26T16:38:39,3,revise,active
5530AWB34084,mtyajgp,,,Rocky Road,,,,,,Rocky Road,,,,o/s 12,,SE,E0039191,Galon Uchaf,Merthyr Tydfil,,,,,,true,UKOS,305792,208322,-3.366557316,51.765625213,BCT,MKD,OTH,,,,030,2000-01-01T00:00:00,2024-04-26T16:38:39,3,revise,active
5530AWB34086,mtyajgw,,,Martyrs,,,,Martyrs Club,,Twelth Avenue,,,,nr,,SE,E0039191,Galon Uchaf,Merthyr Tydfil,,,,,,true,UKOS,305605,208085,-3.369201805,51.763463409,BCT,CUS,OTH,,,,030,2000-01-01T00:00:00,2024-04-26T16:38:17,2,revise,active
5530AWB34087,mtyapdw,,,Mitchell Crescent,,,,,,Twelfth Avenue,,,,before,,SE,E0039191,Galon Uchaf,Merthyr Tydfil,,,,,,true,UKOS,305613,208019,-3.369067969,51.762871519,BCT,MKD,OTH,,,,030,2000-01-01T00:00:00,2024-04-26T16:38:36,3,revise,active
5530AWB34088,mtyapga,,,Mitchell Crescent,,,,,,Twelfth Avenue,,,,after,,NW,E0039191,Galon Uchaf,Merthyr Tydfil,,,,,,true,UKOS,305609,208018,-3.369125639,51.762861855,BCT,CUS,OTH,,,,030,2000-01-01T00:00:00,2024-04-26T16:38:36,3,revise,active
5530AWB34089,mtyajgj,,,Tenth Avenue,,,,,,Tenth Avenue,,,,o/s 36,,NW,E0039191,Galon Uchaf,Merthyr Tydfil,,,,,,true,UKOS,305534,208071,-3.370226479,51.763325582,BCT,MKD,OTH,,,,030,2000-01-01T00:00:00,2024-04-26T16:38:40,2,revise,active
5530AWB34090,mtyajda,,,Ninth Avenue Top,,,,,,Ninth Avenue,,,,o/s 1,,SE,E0039191,Galon Uchaf,Merthyr Tydfil,,,,,,true,UKOS,305431,208176,-3.371747115,51.764251966,BCT,MKD,OTH,,,,030,2000-01-01T00:00:00,2024-04-26T16:38:37,2,revise,active
5530AWB34091,mtyamwt,,,Ninth Avenue Bottom,,,,,,Ninth Avenue,,,,o/s 75,,SW,E0039191,Galon Uchaf,Merthyr Tydfil,,,,,,true,UKOS,305432,207869,-3.371648974,51.761492672,BCT,MKD,OTH,,,,030,2000-01-01T00:00:00,2024-04-26T16:38:37,2,revise,active
5530AWB34092,mtyapwd,,,Park Hall,,,,Park Church,,Tenth Avenue,,,,o/s,,E,E0039191,Galon Uchaf,Merthyr Tydfil,,,,,,true,UKOS,305474,207839,-3.371032431,51.761230117,BCT,MKD,OTH,,,,030,2000-01-01T00:00:00,2024-04-26T16:38:37,2,revise,active
5530AWB34093,mtyawmp,,,Gwaunfarren School,,,,Gwaunfarren Primary School,,Alexandra Avenue,,,,o/s,,SE,E0054371,Penydarren,Merthyr Tydfil,,,,,,true,UKOS,305146,207226,-3.375616000,51.755664657,BCT,CUS,OTH,,,,030,2000-01-01T00:00:00,2024-04-26T16:38:26,3,revise,active
5530AWB34094,mtyatdg,,,Slipper,,,,Slipper PH,,Pant Road,,,,nr,,NW,E0054366,Dowlais,Merthyr Tydfil,,,,,,true,UKOS,306448,208308,-3.357050420,51.765609499,BCT,MKD,OTH,,,,030,2000-01-01T00:00:00,2024-04-26T16:38:22,4,revise,active
5530AWB34095,mtyatdj,,,Slipper,,,,Slipper PH,,Pant Road,,,,nr,,SE,E0054366,Dowlais,Merthyr Tydfil,,,,,,true,UKOS,306450,208317,-3.357023874,51.765690730,BCT,MKD,OTH,,,,030,2000-01-01T00:00:00,2024-04-26T16:38:22,4,revise,active
5530AWB34096,mtydptj,,,Hawthorns,,,,,,Pant Road,,,,after,,NW,E0054369,Pant,Merthyr Tydfil,,,,,,false,UKOS,306293,209190,-3.359534066,51.773511417,BCT,MKD,OTH,,,,030,2000-01-01T00:00:00,2024-04-26T16:38:16,3,revise,active
5530AWB34097,mtyawag,,,Hawthorns,,,,,,Pant Road,,,,before,,SE,E0054369,Pant,Merthyr Tydfil,,,,,,false,UKOS,306296,209196,-3.359492220,51.773565851,BCT,MKD,OTH,,,,030,2000-01-01T00:00:00,2024-04-26T16:38:16,3,revise,active
5530AWB34098,mtydptw,,,Cemetery Main Gates,,,,Pant Cemetery,,Tai-yr-Efail,,,,opp,,SW,E0054369,Pant,Merthyr Tydfil,,,,,,false,UKOS,306194,209217,-3.360975778,51.773737504,BCT,MKD,OTH,,,,030,2000-01-01T00:00:00,2024-04-26T16:38:17,3,revise,active
5530AWB34099,mtyatwd,,,Cemetery Main Gates,,,,Pant Cemetery,,Tai-yr-Efail,,,,o/s,,NE,E0054369,Pant,Merthyr Tydfil,,,,,,false,UKOS,306173,209212,-3.361278695,51.773689038,BCT,MKD,OTH,,,,030,2000-01-01T00:00:00,2024-04-26T16:38:17,3,revise,active
5530AWB34100,mtydpwa,,,Cemetery Top Gates,,,,Pant Cemetery,,Tai-yr-Efail,,,,before,,SW,E0054369,Pant,Merthyr Tydfil,,,,,,false,UKOS,306123,209115,-3.361976892,51.772808760,BCT,MKD,OTH,,,,030,2000-01-01T00:00:00,2024-04-26T16:38:18,4,revise,active
5530AWB34101,mtydwjg,,,Cemetery Top Gates,,,,Pant Cemetery,,Tai yr Efail,,,,o/s,,NE,E0054369,Pant,Merthyr Tydfil,,,,,,false,UKOS,306085,209101,-3.362523674,51.772676539,BCT,MKD,OTH,,,,030,2000-01-01T00:00:00,2024-04-26T16:38:18,4,revise,active
5530AWB34102,mtydpwm,,,Bryniau Road,,,,,,Heol Rhydybedd,,,,after,,SE,E0054369,Pant,Merthyr Tydfil,,,,,,false,UKOS,306029,208930,-3.363288714,51.771130096,BCT,MKD,OTH,,,,030,2000-01-01T00:00:00,2024-04-26T16:38:29,3,revise,active
5530AWB34103,mtyatpt,,,Bryniau Road,,,,,,Heol Rhydybedd,,,,before,,NW,E0054369,Pant,Merthyr Tydfil,,,,,,false,UKOS,306023,208926,-3.363374560,51.771093134,BCT,MKD,OTH,,,,030,2000-01-01T00:00:00,2024-04-26T16:38:29,3,revise,active
5530AWB34104,mtyatpw,,,Heulwen Close,,,,,,Heol Rhydybedd,,,,nr,,NW,E0054369,Pant,Merthyr Tydfil,,,,,,false,UKOS,306177,208798,-3.361108757,51.769968468,BCT,MKD,OTH,,,,030,2000-01-01T00:00:00,2024-04-26T16:38:34,3,revise,active
5530AWB34106,mtydpwg,,,Heulwen Close,,,,,,Heol Rhydybedd,,,,nr,,SE,E0054369,Pant,Merthyr Tydfil,,,,,,false,UKOS,306232,208772,-3.360304898,51.769743993,BCT,MKD,OTH,,,,030,2000-01-01T00:00:00,2024-04-26T16:38:34,3,revise,active
5530AWB34107,mtyatpg,,,Industrial Estate,,,,Dowlais Industrial Estate,,Industrial Estate Road,,,,in,,SW,E0054366,Dowlais,Merthyr Tydfil,,,,,,true,UKOS,306005,208614,-3.363550811,51.768285697,BCT,MKD,OTH,,,,030,2000-01-01T00:00:00,2024-04-26T16:38:27,3,revise,active
5530AWB34108,mtyatpj,,,Industrial Estate,,,,Dowlais Industrial Estate,,Industrial Estate Road,,,,in,,NE,E0054366,Dowlais,Merthyr Tydfil,,,,,,true,UKOS,306035,208633,-3.363121232,51.768456837,BCT,MKD,OTH,,,,030,2000-01-01T00:00:00,2024-04-26T16:38:27,4,revise,active
5530AWB34109,mtyajdt,,,Galon Uchaf Kwiksave,,,,Kwiksave,,Pontsarn Road,,,,not in use,,E,E0039191,Galon Uchaf,Merthyr Tydfil,,,,,,false,UKOS,305320,208545,-3.373455740,51.767549929,BCT,MKD,OTH,,,,030,2000-01-01T00:00:00,2024-04-26T16:38:10,2,revise,inactive
5530AWB34110,mtyajma,,,Eighth Avenue,,,,,,Galon Uchaf Road,,,,in,,SW,E0039191,Galon Uchaf,Merthyr Tydfil,,,,,,true,UKOS,305516,208362,-3.370566454,51.765938189,BCT,MKD,OTH,,,,030,2000-01-01T00:00:00,2024-04-26T16:38:31,3,revise,active
5530AWB34111,mtyajmd,,,Eighth Avenue,,,,,,Galon Uchaf Road,,,,in,,NE,E0039191,Galon Uchaf,Merthyr Tydfil,,,,,,true,UKOS,305511,208366,-3.370639976,51.765973299,BCT,MKD,OTH,,,,030,2000-01-01T00:00:00,2024-04-26T16:38:31,3,revise,active
5530AWB34112,mtyajat,,,Sixth Avenue,,,,,,Galon Uchaf Road,,,,o/s 3,,NW,E0039191,Galon Uchaf,Merthyr Tydfil,,,,,,true,UKOS,305396,208198,-3.372260121,51.764443793,BCT,MKD,OTH,,,,030,2000-01-01T00:00:00,2024-04-26T16:38:40,4,revise,active
5530AWB34113,mtyajaw,,,Sixth Avenue,,,,,,Sixth Avenue,,,,o/s 4,,SE,E0039191,Galon Uchaf,Merthyr Tydfil,,,,,,true,UKOS,305394,208210,-3.372292364,51.764551316,BCT,MKD,OTH,,,,030,2000-01-01T00:00:00,2024-04-26T16:38:40,4,revise,active
5530AWB34114,mtyajam,,,Fifth Avenue,,,,,,Fourth Avenue,,,,in,,SW,E0039191,Galon Uchaf,Merthyr Tydfil,,,,,,true,UKOS,305263,208133,-3.374169014,51.763837028,BCT,MKD,OTH,,,,030,2000-01-01T00:00:00,2024-04-26T16:38:32,4,revise,active
5530AWB34115,mtyajap,,,Third Avenue,,,,,,Fourth Avenue,,,,after,,NE,E0039191,Galon Uchaf,Merthyr Tydfil,,,,,,true,UKOS,305259,208199,-3.374244975,51.764429590,BCT,MKD,OTH,,,,030,2000-01-01T00:00:00,2024-04-26T16:38:41,2,revise,active
5530AWB34342,mtydgjm,,,Tydvil Close,,,,,,Gelligaer Road,,,,after,,SW,E0039232,Trelewis,,,,,,,true,UKOS,311068,196615,-3.287133338,51.661256618,BCT,MKD,OTH,,,,030,2000-01-01T00:00:00,2024-04-26T16:38:41,2,revise,active
5530AWB34343,mtydgjp,,,Tydvil Close,,,,,,Gelligaer Road,,,,before,,NE,E0039232,Trelewis,,,,,,,true,UKOS,311036,196604,-3.287593049,51.661152669,BCT,MKD,OTH,,,,030,2000-01-01T00:00:00,2024-04-26T16:38:41,3,revise,active
5530AWB34344,mtydgjt,,,Shingrig,,,,,,B4255,,,,nr,,S,E0039232,Trelewis,,,,,,,true,UKOS,310923,196456,-3.289188533,51.659804384,BCT,MKD,OTH,,,,030,2000-01-01T00:00:00,2024-04-26T16:38:21,3,revise,active
5530AWB34345,mtydgjw,,,Shingrig,,,,,,B4255,,,,nr,,NW,E0039232,Trelewis,,,,,,,true,UKOS,310907,196451,-3.289418506,51.659756900,BCT,MKD,OTH,,,,030,2000-01-01T00:00:00,2024-04-26T16:38:22,3,revise,active
5530AWB34356,mtyagdm,,,Fiddlers Elbow,,,,,,A472,,,,before,,NW,E0039224,Quakers Yard,,,,,,,true,UKOS,309449,195689,-3.310293363,51.652674072,BCT,MKD,OTH,,,,030,2000-01-01T00:00:00,2024-04-26T16:38:31,3,revise,active
5530AWB34357,mtyagdp,,,Fiddlers Elbow,,,,,,A472,,,,after,,SE,E0039224,Quakers Yard,,,,,,,true,UKOS,309454,195707,-3.310225776,51.652836678,BCT,MKD,OTH,,,,030,2000-01-01T00:00:00,2024-04-26T16:38:31,3,revise,active
5530AWB34461,mtyadta,,,Hylton Terrace,,,,,,Hylton Terrace,,,,o/s 39,,NW,E0054364,Bedlinog,,,,,,,true,UKOS,309053,201386,-3.317501561,51.703819323,BCT,CUS,OTH,,,,030,2000-01-01T00:00:00,2024-04-26T16:38:34,3,revise,active
5530AWB34462,mtyadpm,,,Maes-y-Bedw,,,,,,Maes-y-Bedw,,,,o/s 1,,NE,E0054364,Bedlinog,,,,,,,true,UKOS,308974,201490,-3.318671638,51.704741329,BCT,MKD,OTH,,,,030,2000-01-01T00:00:00,2024-04-26T16:38:17,2,revise,active
5530AWZ26239,mtyadja,,,Capel Smyrna,,,,Capel Smyrna,,Aberfan Crescent,,,,before,,NW,E0039168,Aberfan,,,,,,,true,UKOS,307087,200052,-3.345587543,51.691505951,BCT,MKD,OTH,,,,030,2000-01-01T00:00:00,2024-04-26T16:38:05,3,revise,active
5530AWZ26240,mtydajw,,,Treharris Community Centre,,,,Treharris Community Centre,,Perrott Street,,,,o/s,,W,E0054373,Treharris,,,,,,,true,UKOS,309793,196869,-3.305627185,51.663336328,BCT,MKD,OTH,,,,030,2000-01-01T00:00:00,2024-04-26T16:38:04,2,revise,inactive
5530AWZ26243,mtyagmt,,,Bethania,,Shops,,,,South Street,,,,nr,,NW,E0054366,Dowlais,Merthyr Tydfil,,,,,,true,UKOS,306526,207737,-3.355766678,51.760490087,BCT,MKD,OTH,,,,030,2000-01-01T00:00:00,2024-04-26T16:38:02,2,revise,active
5530AWZ26254,mtyaptd,,,Merthyr Tydfil Railway Station,,,,Merthyr Tydfil Railway Station,,Station Approach,,,,o/s,,N,E0039203,Merthyr Tydfil,,,,,,,false,UKOS,305012,205983,-3.377216681,51.744464560,BCT,MKD,OTH,,,,030,2000-01-01T00:00:00,2024-04-26T16:38:14,3,revise,active
5530AWZ26337,mtyagtj,,,Asda Dowlais Top Q,,,,Asda Superstore,,Off A465,,,,not in use,,N,E0039187,Dowlais Top,Merthyr Tydfil,,,,,,true,UKOS,307806,208466,-3.337419647,51.767255228,BCT,MKD,OTH,,,,030,2000-01-01T00:00:00,2024-04-26T16:38:02,3,revise,inactive
5530AWZ26341,mtydtma,,,Baverstocks Hotel,,,,Baverstocks,,A465,,,,o/s,,NE,E0039180,Clwydfagwyr,Merthyr Tydfil,,,,,,false,UKOS,300677,207387,-3.440385928,51.756336217,BCT,CUS,OTH,,,,030,2000-01-01T00:00:00,2024-04-26T16:38:02,4,revise,active
5530CBZ02498,mtydjpg,,,Rhydycar Leisure Centre,,Leisure Centre,,Rhydycar Leisure Centre,,Grounds,,,,o/s,,SE,E0039227,Rhydycar,Merthyr Tydfil,,,,,,true,UKOS,304939,205455,-3.378129346,51.739710930,BCT,MKD,OTH,,,,030,2000-01-01T00:00:00,2024-04-26T16:38:04,4,revise,active
5530MERTHRV0,,,,Merthyr Vale,,,,,,Tudor Close,,,,East Entrance,,,E0054368,Merthyr Vale,,,,,,,false,UKOS,307675,199550,-3.336963231,51.687089297,RSE,,,,,,030,2014-03-07T12:43:43,2024-04-26T16:38:03,1,revise,active
5530MERTHRV1,,,,Merthyr Vale Rail Station,,,,,,Tudor Close,,,,West Entrance,,,E0054368,Merthyr Vale,,,,,,,false,UKOS,307647,199556,-3.337369754,51.687138621,RSE,,,,,,030,2014-03-07T12:44:10,2024-04-26T16:38:14,1,revise,active
5530MERTHYR0,,,,Merthyr Tydfil Rail Station,,,,,,Tramroadside,,,,Entrance,,,E0039203,Merthyr Tydfil,,,,,,,false,UKOS,305012,205989,-3.377232118,51.744523445,RSE,,,,,,030,2014-03-07T12:42:31,2024-04-26T16:38:14,1,revise,active
5530PNTRBCH0,,,,Pentre-Bach Rail Station,,,,,,Merthyr Road,,,,Entrance,,,N0071275,Pentrebach,,,,,,,false,UKOS,306013,203795,-3.362144428,51.724970967,RSE,,,,,,030,2014-03-07T12:45:15,2024-04-26T16:38:14,1,revise,active
5530QUAKRSY0,,,,Quakers Yard Rail Station,,,,,,Taff Vale,,,,Entrance,,,E0039224,Quakers Yard,,,,,,,false,UKOS,308577,196577,-3.323139453,51.660512609,RSE,,,,,,030,2014-03-07T12:46:12,2024-04-26T16:38:14,1,revise,active
5530SRX16365,mtyawgj,,,Station,,Pentrebach Station,,Pentrebach Railway Station,,Merthyr Road,,,,o/s,,NW,N0071275,Pentrebach,,,,,,,false,UKOS,306029,203775,-3.361894080,51.724794197,BCT,MKD,OTH,,,,030,2000-01-01T00:00:00,2024-04-26T16:38:11,3,revise,active
5530SRX16392,mtyajdj,,,Goitre Lane,,,,,,Goitre Lane,,,,o/s 6,,SE,E0039195,Gurnos,Merthyr Tydfil,,,,,,true,UKOS,305135,207971,-3.375978912,51.762359201,BCT,CUS,OTH,,,,030,2000-01-01T00:00:00,2024-04-26T16:38:33,3,revise,active
5530SRX16393,mtydwdm,,,Chapel of Rest,,,,,,Gwernllyn Road,,,,o/s,,SE,E0039212,Pen-y-wern,Merthyr Tydfil,,,,,,false,UKOS,306905,208018,-3.350352288,51.763079082,BCT,MKD,OTH,,,,030,2000-01-01T00:00:00,2024-04-26T16:38:05,3,revise,active
5530SRX16394,mtyampw,,,Winchfawr Terminus,,,,Winchfawr Terminus,,Winchfawr Road,,,,at,,NE,E0039199,Heolgerrig,Merthyr Tydfil,,,,,,false,UKOS,302300,206203,-3.416546765,51.745979830,BCT,MKD,OTH,,,,030,2000-01-01T00:00:00,2024-04-26T16:38:25,2,revise,active
5530TRDYRHW0,,,,Troedyrhiw Rail Station,,,,,,Bridge Street,,,,Entrance,,,E0039233,Troedyrhiw,,,,,,,false,UKOS,307032,202373,-3.347002578,51.712359526,RSE,,,,,,030,2014-03-07T12:46:59,2024-04-26T16:38:14,3,revise,active
5530WDB21513,mtydwjd,,,Galon Uchaf Roundabout,,Roundabout,,Galon Uchaf Roundabout,,Bryniau Road,,,,before,,S,E0039191,Galon Uchaf,Merthyr Tydfil,,,,,,false,UKOS,305564,208450,-3.369894947,51.766732600,BCT,CUS,OTH,,,,030,2000-01-01T00:00:00,2024-04-26T16:38:15,4,revise,active
5530WDB21786,mtydwmd,,,Penydarren Club,,Club,,Penydarren Club,,Tramroad Lane,,,,o/s,,NW,E0054371,Penydarren,Merthyr Tydfil,,,,,,false,UKOS,305450,207044,-3.371163440,51.754075529,BCT,CUS,OTH,,,,030,2000-01-01T00:00:00,2024-04-26T16:38:07,6,revise,active
5530WDB21787,mtydwjm,,,Penydarren Club,,Club,,Penydarren Club,,Tramroad Lane,,,,opp,,SE,E0054371,Penydarren,Merthyr Tydfil,,,,,,false,UKOS,305450,207052,-3.371165619,51.754147437,BCT,MKD,OTH,,,,030,2000-01-01T00:00:00,2024-04-26T16:38:07,5,revise,active
5530WDB21944,mtydwmg,,,Pentrebach Co-op,,Co-op,,Pentrebach Co-op,,A4060,,,,nr,,NW,N0071275,Pentrebach,,,,,,,false,UKOS,306152,204109,-3.360203875,51.727812321,BCT,CUS,OTH,,,,030,2000-01-01T00:00:00,2024-04-26T16:38:08,4,revise,active
5530WDB21945,mtydwmj,,,Lower Mount Pleasant,,,,,,Lower Mount Pleasant,,,,adj,,NW,E0039233,Troedyrhiw,,,,,,,false,UKOS,307322,202090,-3.342731063,51.709863778,BCT,CUS,OTH,,,,030,2000-01-01T00:00:00,2024-04-26T16:38:35,2,revise,active
5530WDB22328,mtydwmp,,,Cyfarthfa Road,,Church of Jesus Christ and LDS,,,,Cyfarthfa Road,,,,o/s Church,,NW,E0039238,Williamstown,Merthyr Tydfil,,,,,,false,UKOS,304230,206723,-3.388743804,51.750987419,BCT,MKD,OTH,,,,030,2000-01-01T00:00:00,2024-04-26T16:38:30,5,revise,active
5530WDB22329,mtydwmt,,,Cyfarthfa Road,,Church of Jesus Christ and LDS,,,,Cyfarthfa Road,,,,opp Church,,SE,E0039238,Williamstown,Merthyr Tydfil,,,,,,false,UKOS,304243,206723,-3.388555543,51.750989644,BCT,MKD,OTH,,,,030,2000-01-01T00:00:00,2024-04-26T16:38:30,5,revise,active
5530WDB22330,mtydwmw,,,Lakeside Gardens,,Gurnos Villa,,Gurnos Villa,,Gurnos Road,,,,after,,N,E0039203,Merthyr Tydfil,,,,,,,false,UKOS,303858,207663,-3.394391233,51.759372725,BCT,CUS,OTH,,,,030,2000-01-01T00:00:00,2024-04-26T16:38:34,4,revise,active
5530WDB22331,mtydwpa,,,Lakeside Gardens,,Gurnos Villa,,Gurnos Villa,,Gurnos Road,,,,before,,S,E0039203,Merthyr Tydfil,,,,,,,false,UKOS,303870,207643,-3.394211883,51.759195019,BCT,MKD,OTH,,,,030,2000-01-01T00:00:00,2024-04-26T16:38:34,4,revise,active
5530WDB22332,mtydwpd,,,Dowlais Library,,Dowlais Library,,Constitutional Club,,Victoria Street,,,,o/s,,SE,E0054366,Dowlais,Merthyr Tydfil,,,,,,false,UKOS,306650,207760,-3.353976638,51.760712849,BCT,MKD,OTH,,,,030,2000-01-01T00:00:00,2024-04-26T16:38:16,5,revise,active
5530WDB22333,mtydwpg,,,Dowlais Library,,Dowlais Library,,Constitutional Club,,Victoria Street,,,,before,,NW,E0054366,Dowlais,Merthyr Tydfil,,,,,,false,UKOS,306642,207755,-3.354091172,51.760666571,BCT,MKD,OTH,,,,030,2000-01-01T00:00:00,2024-04-26T16:38:16,5,revise,active
5530WDB22436,mtydwpj,,,Georgetown Villas,,Llwyn Dic Penderyn,,,,Nantygwenith Street,,,,nr,,NW,E0039193,Georgetown,Merthyr Tydfil,,,,,,false,UKOS,304353,206574,-3.386921532,51.749669181,BCT,MKD,OTH,,,,030,2000-01-01T00:00:00,2024-04-26T16:38:32,3,revise,active
5530WDB22468,mtydwpm,,,Evan Street,,,,,,Forest Road,,,,before,,N,E0054373,Treharris,,,,,,,false,UKOS,309921,197510,-3.303942513,51.669118756,BCT,MKD,OTH,,,,030,2000-01-01T00:00:00,2024-04-26T16:38:31,2,revise,active
5530WDB23911,mtygdgd,,,Baglan Energy Park Q,,Baglan Council Offices,,Council Offices,,Unclassified,,,,not in use,,SW,E0054414,Briton Ferry,,,,,,,false,UKOS,273681,193474,-3.826269066,51.625863209,BCT,CUS,OTH,,,,030,2000-01-01T00:00:00,2024-04-26T16:38:19,3,revise,inactive
5530WDB23913,mtydwta,,,Spares World,,,,,,Merthyr Road,,,,opp,,SE,N0071275,Pentrebach,,,,,,,true,UKOS,306550,203331,-3.354234142,51.720890434,BCT,MKD,OTH,,,,030,2000-01-01T00:00:00,2024-04-26T16:38:23,3,revise,active
5530WDB23914,mtydwtd,,,Castle Bingo,,Merthyr ex-Servicemen`s Club,,Castle Bingo,,Plymouth Street,,,,nr,,NW,E0039203,Merthyr Tydfil,,,,,,,true,UKOS,305070,205678,-3.376293639,51.741737596,BCT,CUS,OTH,,,,030,2000-01-01T00:00:00,2024-04-26T16:38:05,3,revise,active
5530WDB24018,mtydwtg,,,Pleasant View,,,,,,Pleasant View,,,,at,,SW,E0054364,Bedlinog,,,,,,,true,UKOS,309546,201681,-3.310445969,51.706550803,BCT,MKD,OTH,,,,030,2000-01-01T00:00:00,2024-04-26T16:38:38,2,revise,inactive
5530WDB24229,mtydwtj,,,Moriah Street,,,,,,Moriah Street,,,,in,,N,E0054364,Bedlinog,,,,,,,false,UKOS,309359,201337,-3.313061910,51.703428446,BCT,MKD,OTH,,,,030,2000-01-01T00:00:00,2024-04-26T16:38:36,2,revise,inactive
5530WDB24231,mtydwtp,,,Cardiff Road,,,,,,Cardiff Road,,,,o/s 1,,E,E0039189,Edwardsville,,,,,,,false,UKOS,308804,196799,-3.319903969,51.662547282,BCT,MKD,OTH,,,,030,2000-01-01T00:00:00,2024-04-26T16:38:29,2,revise,active
5530WDB24232,mtydwtw,,,Edwardsville School,,,,Edwardsville School,,Merthyr Tydfil,,,,o/s,,SW,E0039189,Edwardsville,,,,,,,false,UKOS,308816,196833,-3.319739406,51.662854851,BCT,MKD,OTH,,,,030,2000-01-01T00:00:00,2024-04-26T16:38:26,5,revise,active
5530WDB24233,mtygada,,,Oaklands,,,,,,A4054,,,,nr,,S,E0054368,Merthyr Vale,,,,,,,false,UKOS,307763,199075,-3.335552074,51.682835575,BCT,MKD,OTH,,,,030,2000-01-01T00:00:00,2024-04-26T16:38:18,4,revise,active
5530WDB24234,mtygadg,,,Oaklands,,,,,,A5045,,,,nr,,N,E0054368,Merthyr Vale,,,,,,,false,UKOS,307753,199087,-3.335699851,51.682941795,BCT,MKD,OTH,,,,030,2000-01-01T00:00:00,2024-04-26T16:38:18,4,revise,active
5530WDB24235,mtygadj,,,Glantaff Road,,,,,,Glantaff Road,,,,o/s 1,,S,E0039233,Troedyrhiw,,,,,,,false,UKOS,306886,202271,-3.349087839,51.711418440,BCT,MKD,OTH,,,,030,2000-01-01T00:00:00,2024-04-26T16:38:32,3,revise,active
5530WDB24236,mtygadm,,,Glantaff Road,,,,,,Glantaff Road,,,,opp 1,,N,E0039233,Troedyrhiw,,,,,,,false,UKOS,306878,202270,-3.349203325,51.711408122,BCT,MKD,OTH,,,,030,2000-01-01T00:00:00,2024-04-26T16:38:32,3,revise,active
5530WDB24278,mtygadt,,,George Terrace,,,,,,George Terrace,,,,at,,NW,N0071275,Pentrebach,,,,,,,true,UKOS,306506,203487,-3.354912844,51.722285314,BCT,CUS,OTH,,,,030,2000-01-01T00:00:00,2024-04-26T16:38:32,3,revise,active
5530WDB24279,mtygadw,,,George Terrace,,,,,,George Terrace,,,,at,,SE,N0071275,Pentrebach,,,,,,,true,UKOS,306513,203495,-3.354813686,51.722358391,BCT,CUS,OTH,,,,030,2000-01-01T00:00:00,2024-04-26T16:38:32,3,revise,active
5530WDB25278,mtydwaj,,,Llyngeren Picnic Area,,,,,,Pontsticill Road,,,,at,,NW,E0039223,Pontsticill,,,,,,,false,UKOS,305374,213026,-3.373896985,51.807836242,BCT,CUS,OTH,,,,030,2000-01-01T00:00:00,2024-04-26T16:38:02,2,revise,active
5530WDB25391,mtydwdp,,,Cyfarthfa Retail Park,,,,JJB Sports,,Swansea Road,,,,in,,SE,E0039193,Georgetown,Merthyr Tydfil,,,,,,false,UKOS,303889,206494,-3.393618652,51.748870603,BCT,MKD,OTH,,,,030,2000-01-01T00:00:00,2024-04-26T16:38:19,5,revise,active
5530WDB25392,mtydwdt,,,Cyfarthfa Retail Park,,,,,,Swansea Road,,,,in,,NW,E0039193,Georgetown,Merthyr Tydfil,,,,,,false,UKOS,303850,206537,-3.394195310,51.749250405,BCT,MKD,OTH,,,,030,2000-01-01T00:00:00,2024-04-26T16:38:19,5,revise,active
5530WDB47286,mtygamp,,,South Street,,South Street,,Wesley Methodist Church,,South Street,,,,nr,,N,E0054366,Dowlais,Merthyr Tydfil,,,,,,false,UKOS,306582,207638,-3.354928882,51.759609577,BCT,MKD,OTH,,,,030,2000-01-01T00:00:00,2024-04-26T16:38:40,2,revise,active
5530WDB47287,mtygamt,,,Upper Vaynor Road,,Upper Vaynor Road,,,,Upper Vaynor Road,,,,opp 15,,N,E0039179,Cefn Coed,Merthyr Tydfil,,,,,,false,UKOS,303255,208224,-3.403281580,51.764311230,BCT,MKD,OTH,,,,030,2000-01-01T00:00:00,2024-04-26T16:38:41,3,revise,active
5530WDB47288,mtygamw,,,Upper Vaynor Road,,Upper Vaynor Road,,,,Upper Vaynor Road,,,,o/s 15,,N,E0039179,Cefn Coed,Merthyr Tydfil,,,,,,false,UKOS,303241,208224,-3.403484381,51.764308808,BCT,MKD,OTH,,,,030,2000-01-01T00:00:00,2024-04-26T16:38:41,2,revise,active
5530WDB47330,mtygapa,,,Heol SO Davies,,Great Escape PH,,,,Heol S O Davies,,,,o/s Pub,,NE,E0039193,Georgetown,Merthyr Tydfil,,,,,,false,UKOS,304452,206452,-3.385454332,51.748589504,BCT,MKD,OTH,,,,030,2000-01-01T00:00:00,2024-04-26T16:38:16,6,revise,active
5530WDB47331,mtygapd,,,Heol SO Davies,,,,Kevin Ryan Court,,Heol S O Davies,,,,o/s Flats,,SW,E0039193,Georgetown,Merthyr Tydfil,,,,,,false,UKOS,304462,206447,-3.385308149,51.748546269,BCT,MKD,OTH,,,,030,2000-01-01T00:00:00,2024-04-26T16:38:16,5,revise,active
5530WDB47332,mtygapj,,,RAFA Club,,Merthyr Tydfil RAFA Club,,Webster House,,Penry Street,,,,opp,,S,E0039193,Georgetown,Merthyr Tydfil,,,,,,false,UKOS,304584,206255,-3.383488744,51.746841301,BCT,CUS,OTH,,,,030,2008-09-16T08:19:14,2024-04-26T16:38:07,6,revise,active
5530WDB47333,mtygapm,,,Mitchell Crescent Top,,,,,,Marshall Crescent,,,,in,,SE,E0039191,Galon Uchaf,Merthyr Tydfil,,,,,,false,UKOS,305730,208290,-3.367446780,51.765327133,BCT,CUS,OTH,,,,030,2000-01-01T00:00:00,2024-04-26T16:38:36,3,revise,active
5530WDB47334,mtygapt,,,Fifth Avenue,,,,,,Fifth Avenue,,,,o/s 6,,E,E0039191,Galon Uchaf,Merthyr Tydfil,,,,,,false,UKOS,305348,208096,-3.372927628,51.763518847,BCT,CUS,OTH,,,,030,2000-01-01T00:00:00,2024-04-26T16:38:32,4,revise,active
5530WDB47335,mtygapw,,,Ash Crescent Middle,,,,,,Ash Crescent,,,,o/s 40,,SE,E0039195,Gurnos,Merthyr Tydfil,,,,,,false,UKOS,304784,207565,-3.380951876,51.758650247,BCT,CUS,OTH,,,,030,2000-01-01T00:00:00,2024-04-26T16:38:28,3,revise,active
5530WDB47336,mtygata,,,The Green,,,,Trefechan Main Road,,Vaynor Road,,,,opp junct,,N,E0039231,Trefechan,Merthyr Tydfil,,,,,,false,UKOS,303646,208837,-3.397787862,51.769888602,BCT,CUS,OTH,,,,030,2000-01-01T00:00:00,2024-04-26T16:38:40,4,revise,active
5530WDB47337,mtygatd,,,Brecon Road Spar,,,,Ffynnon Tudful,,Brecon Road,,,,opp,,NW,E0039204,Morgan Town,Merthyr Tydfil,,,,,,false,UKOS,304590,206765,-3.383541957,51.751426436,BCT,MKD,OTH,,,,030,2000-01-01T00:00:00,2024-04-26T16:38:28,5,revise,active
5530WDB47338,mtygatg,,,Brecon Road Spar,,,,,,Brecon Road,,,,o/s,,SE,E0039204,Morgan Town,Merthyr Tydfil,,,,,,false,UKOS,304613,206757,-3.383206679,51.751358450,BCT,MKD,OTH,,,,030,2000-01-01T00:00:00,2024-04-26T16:38:28,5,revise,active
5530WDB47339,mtygatj,,,Heol Dic Penderyn,,,,,,Heol S O Davies,,,,after,,NE,E0039193,Georgetown,Merthyr Tydfil,,,,,,false,UKOS,304310,206362,-3.387485818,51.747756280,BCT,CUS,OTH,,,,030,2000-01-01T00:00:00,2024-04-26T16:38:16,5,revise,inactive
5530WDB47340,mtygatp,,,Heol Dic Penderyn,,,,,,Heol S O Davies,,,,before,,SW,E0039193,Georgetown,Merthyr Tydfil,,,,,,false,UKOS,304322,206360,-3.387311501,51.747740355,BCT,CUS,OTH,,,,030,2000-01-01T00:00:00,2024-04-26T16:38:16,6,revise,inactive
5530WDB47341,mtygatw,,,Evan Street,,,,,,Forest Road,,,,opp junct,,N,E0054373,Treharris,,,,,,,false,UKOS,309926,197525,-3.303874106,51.669254391,BCT,MKD,OTH,,,,030,2000-01-01T00:00:00,2024-04-26T16:38:31,3,revise,active
5530WDB47342,mtygawa,,,Pant Park,,,,,,Pant Road,,,,o/s,,S,E0054366,Dowlais,Merthyr Tydfil,,,,,,false,UKOS,306438,208486,-3.357243283,51.767207783,BCT,CUS,OTH,,,,030,2008-09-16T08:53:42,2024-04-26T16:38:19,3,revise,active
5530WDB47343,mtygawd,,,Christ Church,,,,,,Pant Road,,,,opp,,NW,E0054369,Pant,Merthyr Tydfil,,,,,,false,UKOS,306358,209123,-3.358574193,51.772920078,BCT,CUS,OTH,,,,030,2000-01-01T00:00:00,2024-04-26T16:38:30,2,revise,active
5530WDB47344,mtygawj,,,Gwladys Street Bottom,,,,,,Gwladys Street,,,,o/s 9,,NE,E0054369,Pant,Merthyr Tydfil,,,,,,false,UKOS,306738,208947,-3.353021115,51.771401614,BCT,CUS,OTH,,,,030,2000-01-01T00:00:00,2024-04-26T16:38:33,4,revise,active
5530WDB47345,mtygawm,,,Edward Street Middle,,,,,,Edward Street,,,,o/s 50,,SW,E0054369,Pant,Merthyr Tydfil,,,,,,false,UKOS,306789,209087,-3.352319831,51.772668513,BCT,CUS,OTH,,,,030,2000-01-01T00:00:00,2024-04-26T16:38:31,3,revise,active
5530WDB47346,mtygawp,,,Gurnos Road,,,,,,Gurnos Road,,,,in,,NW,E0039195,Gurnos,Merthyr Tydfil,,,,,,false,UKOS,304004,207899,-3.392341800,51.761519063,BCT,CUS,OTH,,,,030,2000-01-01T00:00:00,2024-04-26T16:38:33,3,revise,active
5530WDB47459,mtygdad,,,Pant Church,,,,Pant Park,,Pant Road,,,,opp,,N,E0054366,Dowlais,Merthyr Tydfil,,,,,,false,UKOS,306423,208468,-3.357455733,51.767043480,BCT,CUS,OTH,,,,030,2000-01-01T00:00:00,2024-04-26T16:38:09,3,revise,active
5530WDB47460,mtygdag,,,Merthyr Tydfil Ind Park,,Merthyr Tydfil Industrial Park,,,,Merthyr Road,,,,o/s,,NW,N0071275,Pentrebach,,,,,,,false,UKOS,306688,203152,-3.352188968,51.719304479,BCT,CUS,OTH,,,,030,2000-01-01T00:00:00,2024-04-26T16:38:27,3,revise,active
5530WDB47461,mtygdaj,,,Cilhaul Top,,,,,,Cilhaul,,,,before,,SW,E0054373,Treharris,,,,,,,false,UKOS,309712,197379,-3.306929914,51.667907625,BCT,CUS,OTH,,,,030,2000-01-01T00:00:00,2024-04-26T16:38:06,3,revise,active
5530WDB47462,mtygdam,,,Cilhaul Top,,,,,,Cilhaul,,,,after,,NE,E0054373,Treharris,,,,,,,false,UKOS,309705,197383,-3.307032138,51.667942454,BCT,CUS,OTH,,,,030,2000-01-01T00:00:00,2024-04-26T16:38:06,3,revise,active
5530WDB47463,mtygdap,,,Galon Uchaf Roundabout,,,,,,Pen Gurnos,,,,nr,,E,E0039191,Galon Uchaf,Merthyr Tydfil,,,,,,false,UKOS,305486,208428,-3.371019027,51.766526359,BCT,CUS,OTH,,,,030,2000-01-01T00:00:00,2024-04-26T16:38:15,3,revise,inactive
5530WDB47478,mtygdat,,,Beechcoft,,,,,,Glyn Bargoed Road,,,,before,,W,E0039232,Trelewis,,,,,,,false,UKOS,310516,197008,-3.295212449,51.664701527,BCT,MKD,OTH,,,,030,2000-01-01T00:00:00,2024-04-26T16:38:02,2,revise,active
5530WDB47479,mtygdaw,,,Beechcroft,,,,,,Glyn Bargoed Road,,,,after,,E,E0039232,Trelewis,,,,,,,false,UKOS,310507,197015,-3.295344335,51.664763014,BCT,MKD,OTH,,,,030,2000-01-01T00:00:00,2024-04-26T16:38:02,2,revise,active
5530WDB47480,mtygdga,,,Bedlinog Primary School,,,,Bedlinog Primary School,,Commercial Street,,,,o/s,,SE,E0054364,Bedlinog,,,,,,,false,UKOS,309152,201277,-3.316040895,51.702855603,BCT,MKD,OTH,,,,030,2000-01-01T00:00:00,2024-04-26T16:38:26,3,revise,active
5530WDB47481,mtygdgj,,,Monmouth Drive,,,,,,Monmouth Drive,,,,nr,,SE,N0080555,Castle Park,Merthyr Tydfil,,,,,,false,UKOS,302211,207025,-3.418066899,51.753352686,BCT,CUS,OTH,,,,030,2000-01-01T00:00:00,2024-04-26T16:38:36,4,revise,active
5530WDB47482,mtygdgm,,,Harlech Drive,,,,,,Harlech Drive,,,,nr,,N,N0080555,Castle Park,Merthyr Tydfil,,,,,,false,UKOS,301976,206998,-3.421462585,51.753068880,BCT,CUS,OTH,,,,030,2000-01-01T00:00:00,2024-04-26T16:38:33,3,revise,active
5530WDB47483,mtygdgp,,,Brecon Mountain Railway,,,,,,Unclassified Road,,,,nr,,SW,E0054369,Pant,Merthyr Tydfil,,,,,,false,UKOS,306033,209491,-3.363382754,51.776173313,BCT,CUS,OTH,,,,030,2011-01-04T16:52:53,2024-04-26T16:38:21,2,revise,active
5530WDB47485,mtygdgt,,,Keir Hardie Health Park,,,,Keir Hardie Health Park,,Grounds,,,,in,,SE,E0039193,Georgetown,Merthyr Tydfil,,,,,,false,UKOS,304106,206216,-3.390399549,51.746409048,BCT,MKD,OTH,,,,030,2012-10-18T12:06:04,2024-04-26T16:38:19,4,revise,active
5530WDB47486,mtygdgw,,,Boys & Girls Club,,,,Treharris Boys & Girls Club,,Fox Street,,,,o/s,,NE,E0054373,Treharris,,,,,,,false,UKOS,310027,197192,-3.302340185,51.666275192,BCT,MKD,OTH,,,,030,2012-11-09T12:26:17,2024-04-26T16:38:07,1,revise,active
5530WDB47487,mtygdja,,,Forest Road,,,,,,Forest Road,,,,at,,SE,E0054373,Treharris,,,,,,,false,UKOS,310043,197246,-3.302110822,51.666765263,BCT,MKD,OTH,,,,030,2012-11-09T12:33:27,2024-04-26T16:38:32,3,revise,active
5530WDB47488,mtygdjd,,,Windsor Hotel,,,,,,Cardiff Road,,,,nr,,SE,E0054368,Merthyr Vale,,,,,,,false,UKOS,307616,200003,-3.337923675,51.691152914,BCT,MKD,OTH,,,,030,2015-01-29T10:12:52,2024-04-26T16:38:25,2,revise,active
5530WDB47489,mtygdjg,,,Mount View Turning Circle,,,,Mount View School,,Mount View,,,,at,,S,E0039205,Mount Pleasant,,,,,,,false,UKOS,307768,198661,-3.335370265,51.679115059,BCT,HAR,OTH,,,,030,2015-02-18T16:34:33,2024-04-26T16:38:37,3,revise,active
5530WDB47490,mtygdjm,,,Chapel Street,,,,,,Mount View,,,,nr,,N,E0039233,Troedyrhiw,,,,,,,false,UKOS,307276,202366,-3.343470148,51.712337039,BCT,HAR,OTH,,,,030,2015-02-18T16:43:56,2024-04-26T16:38:29,4,revise,active
5530WDB47491,mtygdjp,,,Merthyr Tydfil College,,,,,,College Boulevard,,,,nr,,N,E0039203,Merthyr Tydfil,,,,,,,false,UKOS,304645,206099,-3.382562625,51.745449498,BCT,MKD,OTH,,,,030,2015-03-25T10:34:39,2024-04-26T16:38:08,3,revise,active
5530WDB47492,mtygdjt,,,Gurnos Ring Road,,,,,,Gurnos Ring Road,,,,on,,N,E0039191,Galon Uchaf,Merthyr Tydfil,,,,,,,UKOS,305437,208418,-3.371726148,51.766428191,BCT,MKD,OTH,,,,030,2016-01-04T10:22:46,2024-04-26T16:38:33,3,revise,active
5530WDB47493,mtygdjw,,,Trago Mills,,,,,,Swansea Road,,,,nr,,E,E0039192,Gellideg,Merthyr Tydfil,,,,,,,,303472,206458,-3.399647061,51.748470560,BCT,MKD,OTH,,,,030,2018-04-19T12:41:23,2024-04-26T16:38:24,6,revise,active
5530WDB47494,mtygdma,,,Industrial Estate Road,,,,Dowlais Industrial Estate,,Industrial Estate Road,,,,o/s,,NE,E0054366,Dowlais,Merthyr Tydfil,,,,,,,,306138,208696,-3.361646079,51.769040412,BCT,MKD,OTH,,,,030,2020-03-09T11:19:31,2024-04-26T16:38:10,3,revise,active
5530WDB47495,mtygdmg,,,Merthyr Bus Station Stand 1,,,,,,Swan Street,,,,at,,,E0039203,Merthyr Tydfil,,,,,,,,,304806,205978,-3.380198103,51.744384617,BCS,,,,,,030,2020-12-30T09:55:09,2024-04-26T16:38:12,4,revise,active
5530WDB47496,mtygdmj,,,Merthyr Bus Station Stand 2,,,,,,Swan Street,,,,at,,,E0039203,Merthyr Tydfil,,,,,,,,,304812,205978,-3.380111226,51.744385637,BCS,,,,,,030,2020-12-30T10:53:05,2024-04-26T16:38:13,3,revise,active
5530WDB47497,mtygdmp,,,Merthyr Bus Station Stand 3,,,,,,Swan Street,,,,at,,,E0039203,Merthyr Tydfil,,,,,,,,,304817,205979,-3.380039102,51.744395476,BCS,,,,,,030,2020-12-30T11:53:43,2024-04-26T16:38:13,4,revise,active
5530WDB47498,mtygdmt,,,Merthyr Bus Station Stand 4,,,,,,Swan Street,,,,at,,N,E0039203,Merthyr Tydfil,,,,,,,,,304822,205979,-3.379966704,51.744396326,BCT,MKD,OTH,,,,030,2020-12-30T13:21:06,2024-04-26T16:38:13,3,revise,active
5530WDB47499,mtygdmw,,,Merthyr Bus Station Stand 5,,,,,,Swan Street,,,,at,,,E0039203,Merthyr Tydfil,,,,,,,,,304827,205980,-3.379894580,51.744406165,BCS,,,,,,030,2020-12-30T13:45:25,2024-04-26T16:38:13,4,revise,active
5530WDB47500,mtygdpa,,,Merthyr Bus Station Stand 6,,,,,,Swan Street,,,,at,,,E0039203,Merthyr Tydfil,,,,,,,,,304832,205981,-3.379822457,51.744416004,BCS,,,,,,030,2020-12-30T14:54:56,2024-04-26T16:38:13,4,revise,active
5530WDB47501,mtygdpd,,,Merthyr Bus Station Stand 7,,,,,,Swan Street,,,,at,,,E0039203,Merthyr Tydfil,,,,,,,,,304837,205981,-3.379750059,51.744416854,BCS,,,,,,030,2020-12-30T15:32:07,2024-04-26T16:38:13,4,revise,active
5530WDB47502,mtygdpg,,,Merthyr Bus Station Stand 8,,,,,,Swan Street,,,,at,,,E0039203,Merthyr Tydfil,,,,,,,,,304842,205982,-3.379677935,51.744426693,BCS,,,,,,030,2020-12-30T16:39:58,2024-04-26T16:38:13,3,revise,active
5530WDB47503,mtygdpj,,,Merthyr Bus Station Stand 9,,,,,,Swan Street,,,,at,,,E0039203,Merthyr Tydfil,,,,,,,,,304847,205982,-3.379605537,51.744427543,BCS,,,,,,030,2020-12-30T17:07:14,2024-04-26T16:38:13,3,revise,active
5530WDB47504,mtygdpm,,,Merthyr Bus Station Stand 10,,,,,,Swan Street,,,,at,,,E0039203,Merthyr Tydfil,,,,,,,,,304852,205983,-3.379533413,51.744437381,BCS,,,,,,030,2020-12-31T09:09:53,2024-04-26T16:38:12,3,revise,active
5530WDB47505,mtygdpt,,,Merthyr Bus Station Stand 11,,,,,,Swan Street,,,,at,,,E0039203,Merthyr Tydfil,,,,,,,,,304857,205983,-3.379461015,51.744438231,BCS,,,,,,030,2020-12-31T09:27:15,2024-04-26T16:38:12,2,revise,active
5530WDB47506,mtygdpw,,,Merthyr Bus Station Stand 12,,,,,,Swan Street,,,,at,,,E0039203,Merthyr Tydfil,,,,,,,,,304862,205984,-3.379388891,51.744448070,BCS,,,,,,030,2020-12-31T10:54:16,2024-04-26T16:38:13,2,revise,active
5530WDB47507,mtygdta,,,Merthyr Bus Station Stand 13,,,,,,Swan Street,,,,at,,,E0039203,Merthyr Tydfil,,,,,,,,,304867,205984,-3.379316494,51.744448920,BCS,,,,,,030,2020-12-31T11:14:43,2024-04-26T16:38:12,2,revise,active
5530WDB47508,mtygdtd,,,Merthyr Bus Station Stand 14,,,,,,Swan Street,,,,at,,,E0039203,Merthyr Tydfil,,,,,,,,,304872,205985,-3.379244370,51.744458758,BCS,,,,,,030,2020-12-31T11:24:58,2024-04-26T16:38:13,2,revise,active
5530WDB47509,mtygdtg,,,Rectory Close,,,,,,Gwernllwyn Road,,,,,,NW,E0054366,Dowlais,Merthyr Tydfil,,,,,,,,306909,208002,-3.350289948,51.762931247,BCT,MKD,OTH,,,,030,2022-11-14T16:28:00,2024-04-26T16:38:39,2,revise,active
5530WDB47510,mtygdtj,,,Corner Houses,,,,,,Road off Hoelgerrig,,,,,,N,E0039199,Heolgerrig,Merthyr Tydfil,,,,,,,,302678,205775,-3.410953385,51.742193989,BCT,MKD,OTH,,,,030,2024-02-02T09:52:17,2024-04-26T16:38:30,1,revise,active
