ATCOCode,NaptanCode,PlateCode,CleardownCode,CommonName,CommonNameLang,ShortCommonName,ShortCommonNameLang,Landmark,LandmarkLang,Street,StreetLang,Crossing,CrossingLang,Indicator,IndicatorLang,Bearing,NptgLocalityCode,LocalityName,ParentLocalityName,GrandParentLocalityName,Town,TownLang,Suburb,SuburbLang,LocalityCentre,GridType,Easting,Northing,Longitude,Latitude,StopType,BusStopType,TimingStatus,DefaultWaitTime,Notes,NotesLang,AdministrativeAreaCode,CreationDateTime,ModificationDateTime,RevisionNumber,Modification,Status
6020710413,67523645,,,Barony Mill,,,,Mill,,A967,,,,opp,,S,ES000359,Birsay,,,,,,,false,UKOS,325548,1027456,-3.30246,59.12739,BCT,CUS,OTH,,,,134,2008-03-04T00:00:00,2011-01-14T11:55:00,5,new,active
6020710302,67523495,,,Allan's of Gillock,,,,Allan's of Gillock,,,,,,at,,NW,N0067496,Finstown,Firth,,,,,,false,UKOS,336088,1013749,-3.11437,59.00603,BCT,MKD,OTH,,,,134,2003-06-05T00:00:00,2016-05-23T11:00:48,10,new,active
6020710536,67523893,,,Viewforth,,,,Fossil Museum,,A961,,,,opp,,N,ES000517,Burray,,,,,,,false,UKOS,347524,997117,-2.91137,58.85825,BCT,CUS,OTH,,,,134,2010-11-18T00:00:00,2011-01-17T15:47:00,1,new,active
6020710535,67523892,,,Viewforth,,,,Fossil Museum,,A961,,,,at,,S,ES000517,Burray,,,,,,,false,UKOS,347544,997113,-2.91102,58.85821,BCT,CUS,OTH,,,,134,2010-11-18T00:00:00,2011-01-17T15:47:00,1,new,active
6020711029,67525397,,,New Balfour Hospital,,,,,,New Scapa Road,,,,opp,,N,ES002219,Kirkwall,,,,,,,false,UKOS,344731,1010103,-2.96301,58.9745,BCT,MKD,OTH,,,,134,2019-01-30T00:00:00,2019-01-30T12:18:36,0,new,active
6020711031,67525423,,,MacMillan,,,,,,Foreland Road,,,,at,,E,ES002219,Kirkwall,,,,,,,false,UKOS,344665,1009917,-2.96412,58.97282,BCT,MKD,OTH,,,,134,2019-03-08T00:00:00,2019-03-15T14:15:18,1,new,active
6020710538,67523895,,,Comely Road End,,,,Road End,,A960,,,,opp,,NW,ES003396,Deerness,,,,,,,false,UKOS,353939,1003673,-2.80154,58.91785,BCT,CUS,OTH,,,,134,2010-11-18T00:00:00,2011-01-17T15:47:00,1,new,active
6020710539,67523896,,,Community Centre,,,,Centre,,B9050,,,,at,,NE,ES003396,Deerness,,,,,,,false,UKOS,357078,1005707,-2.74744,58.93645,BCT,CUS,OTH,,,,134,2010-11-18T00:00:00,2011-01-17T15:48:00,1,new,active
6020710541,67523898,,,Garth Road End,,,,Road End,,A960,,,,at,,NE,ES003396,Deerness,,,,,,,false,UKOS,355284,1003977,-2.77825,58.92073,BCT,CUS,OTH,,,,134,2010-11-18T00:00:00,2011-01-17T15:49:00,1,new,active
6020710543,67523924,,,Geo Road End,,,,Road End,,A960,,,,at,,SW,ES003396,Deerness,,,,,,,false,UKOS,355932,1004181,-2.76704,58.92263,BCT,CUS,OTH,,,,134,2010-11-18T00:00:00,2011-01-17T15:49:00,1,new,active
6020710545,67523926,,,Groenvin,,,,Groenvin,,B9050,,,,at,,NE,ES003396,Deerness,,,,,,,false,UKOS,356196,1004986,-2.76261,58.92988,BCT,CUS,OTH,,,,134,2010-11-19T00:00:00,2011-01-17T15:50:00,1,new,active
6020710547,67523928,,,Smithyquoy,,,,Smithyquoy,,B9050,,,,at,,SW,ES003396,Deerness,,,,,,,false,UKOS,357564,1005821,-2.73902,58.93752,BCT,CUS,OTH,,,,134,2010-11-19T00:00:00,2011-01-17T15:51:00,1,new,active
6020710550,67523934,,,Stembister Road End,,,,Road End,,A960,,,,opp,,E,ES003396,Deerness,,,,,,,false,UKOS,353353,1003801,-2.81174,58.91894,BCT,CUS,OTH,,,,134,2010-11-19T00:00:00,2011-01-17T15:52:00,1,new,active
6020710551,67523935,,,Vestlabanks Road End,,,,Road End,,A960,,,,at,,W,ES003396,Deerness,,,,,,,false,UKOS,354293,1003583,-2.79538,58.91708,BCT,CUS,OTH,,,,134,2010-11-19T00:00:00,2011-01-17T15:57:00,1,new,active
6020710553,67523937,,,Dounby House,,,,Dounby House,,,,,,at,,SE,N0067478,Dounby,,,,,,,false,UKOS,329406,1020929,-3.23297,59.06944,BCT,CUS,OTH,,,,134,2010-11-19T00:00:00,2011-01-17T16:05:00,1,new,active
6020710329,67523497,,,Bakie's Store,,,,Store,,,,,,at,,W,N0067496,Finstown,Firth,,,,,,false,UKOS,335660,1014002,-3.12189,59.00824,BCT,CUS,OTH,,,,134,2003-06-06T00:00:00,2011-01-14T14:02:00,5,new,active
6020710557,67523943,,,Hourston Road End,,,,Road End,,A986,,,,at,,NW,N0067478,Dounby,,,,,,,false,UKOS,330014,1020017,-3.22208,59.06136,BCT,CUS,OTH,,,,134,2010-11-25T00:00:00,2011-01-17T16:06:00,1,new,active
6020710560,67523947,,,Saither Road End,,,,Road End,,,,,,at,,NW,N0067478,Dounby,,,,,,,false,UKOS,329080,1021271,-3.23876,59.07246,BCT,CUS,OTH,,,,134,2010-11-25T00:00:00,2011-01-17T16:07:00,1,new,active
6020710562,67523949,,,Sandveien,,,,Sandveien,,,,,,at,,NW,N0067478,Dounby,,,,,,,false,UKOS,328349,1021962,-3.25174,59.07854,BCT,CUS,OTH,,,,134,2010-11-29T00:00:00,2011-01-17T16:22:00,1,new,active
6020710565,67523954,,,Burgar,,,,Burgar,,A966,,,,opp,,NW,ES001322,Evie,,,,,,,false,UKOS,334918,1027490,-3.13881,59.12923,BCT,CUS,OTH,,,,134,2010-11-29T00:00:00,2011-01-17T16:22:00,1,new,active
6020710566,67523956,,,Fursan,,,,Fursan,,A966,,,,at,,NW,ES001322,Evie,,,,,,,false,UKOS,338028,1024459,-3.08363,59.10248,BCT,CUS,OTH,,,,134,2010-11-29T00:00:00,2011-01-17T16:43:00,1,new,active
6020710568,67523958,,,Smithfield,,,,Smithfield,,A966,,,,at,,NW,ES001322,Evie,,,,,,,false,UKOS,337342,1025202,-3.09581,59.10905,BCT,CUS,OTH,,,,134,2010-11-29T00:00:00,2011-01-17T16:45:00,1,new,active
6020710571,67523963,,,Spithersquoy,,,,Spithersquoy,,A966,,,,opp,,NW,ES001322,Evie,,,,,,,false,UKOS,335601,1026772,-3.12667,59.12289,BCT,CUS,OTH,,,,134,2010-11-29T00:00:00,2011-01-17T16:46:00,2,new,active
6020710572,67523964,,,Firth Bay Bungalows,,,,Bungalows,,,,,,at,,SE,N0067496,Finstown,Firth,,,,,,false,UKOS,336556,1013411,-3.10612,59.00307,BCT,CUS,OTH,,,,134,2010-11-29T00:00:00,2011-01-18T10:45:00,1,new,active
6020710574,67523967,,,Firth Primary School,,,,School,,A966,,,,at,,SW,N0067496,Finstown,Firth,,,,,,false,UKOS,336200,1014301,-3.11258,59.01101,BCT,CUS,OTH,,,,134,2010-11-29T00:00:00,2011-01-18T10:46:00,1,new,active
6020710577,67523972,,,Marsdene,,,,Marsdene,,,,,,opp,,W,N0067496,Finstown,Firth,,,,,,false,UKOS,337193,1013156,-3.09497,59.00087,BCT,CUS,OTH,,,,134,2010-12-02T00:00:00,2011-01-18T10:47:00,1,new,active
6020710507,67523839,,,Community Centre,,,,Community Centre,,Old Finstown Road,,,,at,,NW,N0067496,Finstown,Firth,,,,,,false,UKOS,336367,1013454,-3.10943,59.00343,BCT,CUS,OTH,,,,134,2010-08-24T00:00:00,2011-01-14T14:02:00,2,new,active
6020710578,67523973,,,Old Finstown Road,,,,Road End,,,,,,at,,W,N0067496,Finstown,Firth,,,,,,false,UKOS,336313,1013520,-3.11038,59.00401,BCT,CUS,OTH,,,,134,2010-12-02T00:00:00,2011-01-18T10:48:00,1,new,active
6020710580,67523975,,,Burness Road End,,,,Road End,,A966,,,,at,,S,ES001394,Firth,,,,,,,false,UKOS,337153,1015692,-3.09639,59.02364,BCT,MKD,OTH,,,,134,2010-12-02T00:00:00,2019-11-07T10:43:36,4,new,active
6020710582,67523978,,,Quanterness Cottages,,,,Cottages,,,,,,at,,W,ES001394,Firth,,,,,,,false,UKOS,341684,1013227,-3.01683,59.00215,BCT,CUS,OTH,,,,134,2010-12-02T00:00:00,2018-01-26T11:51:00,2,new,active
6020710584,67523982,,,Eskdale,,,,Eskdale,,A986,,,,at,,NW,ES000360,Harray,,,,,,,false,UKOS,333035,1015907,-3.16816,59.02494,BCT,CUS,OTH,,,,134,2010-12-03T00:00:00,2011-01-18T10:49:00,1,new,active
6020710586,67523986,,,Lyde Road End,,,,Road End,,A986,,,,at,,SE,ES000360,Harray,,,,,,,false,UKOS,331908,1017866,-3.18839,59.04235,BCT,CUS,OTH,,,,134,2010-12-03T00:00:00,2011-01-18T10:49:00,1,new,active
6020710588,67524534,,,Madras House,,,,Madras House,,A986,,,,at,,SE,ES000360,Harray,,,,,,,false,UKOS,331368,1018526,-3.19801,59.04819,BCT,CUS,OTH,,,,134,2010-12-03T00:00:00,2011-01-18T10:50:00,4,new,active
6020710591,67524232,,,Russland Road End,,,,Road End,,A986,,,,opp,,SE,ES000360,Harray,,,,,,,false,UKOS,330348,1019425,-3.21607,59.0561,BCT,CUS,OTH,,,,134,2010-12-03T00:00:00,2011-01-18T10:51:00,1,new,active
6020710592,67524234,,,Sherren,,,,Sherren,,A986,,,,at,,N,ES000360,Harray,,,,,,,false,UKOS,333653,1015227,-3.15719,59.01893,BCT,CUS,OTH,,,,134,2010-12-03T00:00:00,2011-01-18T10:51:00,1,new,active
6020710594,67524236,,,Stoneyhill Road End,,,,Road End,,A986,,,,at,,NW,ES000360,Harray,,,,,,,false,UKOS,332291,1016592,-3.18133,59.03097,BCT,CUS,OTH,,,,134,2010-12-03T00:00:00,2011-01-18T10:52:00,1,new,active
6020710596,67524238,,,Wasdale,,,,Wasdale,,A986,,,,at,,N,ES000360,Harray,,,,,,,false,UKOS,333707,1014496,-3.15603,59.01238,BCT,CUS,OTH,,,,134,2010-12-06T00:00:00,2011-01-18T10:52:00,1,new,active
6020710423,67523658,,,Rennibister,,,,Rennibister Road End,,,,,,at,,E,ES001394,Firth,,,,,,,false,UKOS,339766,1012337,-3.04996,58.99389,BCT,CUS,OTH,,,,134,2008-04-09T00:00:00,2013-03-01T10:28:00,4,new,active
6020710599,67524243,,,Road End,,,,Road End,,A964,,,,opp,,W,N0078257,Hobbister,Orphir,,,,,,false,UKOS,338693,1006801,-3.0671,58.94403,BCT,CUS,OTH,,,,134,2010-12-06T00:00:00,2011-01-18T10:53:00,1,new,active
6020710601,67524246,,,Biggings Road End,,,,Road End,,A961,,,,opp,,N,ES001774,Holm,,,,,,,false,UKOS,347040,1002113,-2.92095,58.90305,BCT,CUS,OTH,,,,134,2010-12-06T00:00:00,2011-01-25T14:58:00,2,new,active
6020710603,67524248,,,St Clair Farm,,,,Farm,,A961,,,,opp,,NW,ES001774,Holm,,,,,,,false,UKOS,345594,1005597,-2.9469,58.93415,BCT,CUS,OTH,,,,134,2010-12-06T00:00:00,2011-01-18T10:54:00,1,new,active
6020710607,67524254,,,Grainbank Road End,,,,Road End,,,,,,opp,,SE,ES002219,Kirkwall,,,,,,,false,UKOS,344012,1011484,-2.97587,58.98681,BCT,CUS,OTH,,,,134,2010-12-06T00:00:00,2015-09-22T09:46:42,2,new,active
6020710612,67524262,,,Harpsquoy,,,,Harpsquoy,,,,,,opp,,S,ES001721,Marwick,,,,,,,false,UKOS,324364,1026260,-3.32272,59.11644,BCT,CUS,OTH,,,,134,2010-12-06T00:00:00,2011-01-18T10:56:00,1,new,active
6020710614,67524264,,,Hundland,,,,Hundland,,,,,,opp,,S,ES001721,Marwick,,,,,,,false,UKOS,324415,1023251,-3.32079,59.08943,BCT,CUS,OTH,,,,134,2010-12-06T00:00:00,2011-01-18T10:57:00,1,new,active
6020710616,67524267,,,Leaquoy,,,,Leaquoy,,,,,,opp,,SW,ES001721,Marwick,,,,,,,false,UKOS,324218,1024844,-3.32478,59.1037,BCT,CUS,OTH,,,,134,2010-12-06T00:00:00,2013-03-01T10:33:18,3,new,active
6020710618,67524269,,,Daisy Cottage,,,,Cottage,,A964,,,,opp,,W,ES002942,Orphir,,,,,,,false,UKOS,335357,1006260,-3.1249,58.93868,BCT,CUS,OTH,,,,134,2010-12-06T00:00:00,2011-01-18T10:58:00,1,new,active
6020710620,67524273,,,Ivy Cottage,,,,Cottage,,A964,,,,opp,,NE,ES002942,Orphir,,,,,,,false,UKOS,334814,1006147,-3.1343,58.93758,BCT,CUS,OTH,,,,134,2010-12-06T00:00:00,2011-01-18T10:59:00,1,new,active
6020710622,67524275,,,Smithy Cottage,,,,Cottage,,A964,,,,opp,,SW,ES002942,Orphir,,,,,,,false,UKOS,333819,1005774,-3.15147,58.93408,BCT,CUS,OTH,,,,134,2010-12-06T00:00:00,2011-01-18T11:00:00,1,new,active
6020710511,67523846,,,Lesliedale,,,,Farm,,Old Finstown Road,,,,opp,,E,ES001394,Firth,,,,,,,false,UKOS,340664,1010838,-3.03394,58.98056,BCT,CUS,OTH,,,,134,2010-09-02T00:00:00,2011-01-14T14:04:00,1,new,active
6020710623,67524276,,,Smoogro Road End,,,,Road End,,A964,,,,at,,SW,ES002942,Orphir,,,,,,,false,UKOS,336022,1006558,-3.11343,58.94146,BCT,CUS,OTH,,,,134,2010-12-06T00:00:00,2011-01-18T11:01:00,1,new,active
6020710626,67524282,,,St Peter's Church,,,,Church,,,,,,opp,,S,N0078261,Quoyloo,,,,,,,false,UKOS,323484,1019868,-3.33585,59.05889,BCT,CUS,OTH,,,,134,2010-12-06T00:00:00,2011-01-18T11:02:00,1,new,active
6020710628,67524284,,,Vestrafiold,,,,Vestrafiold,,,,,,opp,,SE,N0078261,Quoyloo,,,,,,,false,UKOS,324449,1022300,-3.31987,59.0809,BCT,CUS,OTH,,,,134,2010-12-06T00:00:00,2011-01-18T11:03:00,1,new,active
6020710629,67524285,,,Gorseness,,,,Road End,,A966,,,,at,,S,ES001323,Rendall,,,,,,,false,UKOS,339490,1022328,-3.05752,59.08356,BCT,CUS,OTH,,,,134,2010-12-06T00:00:00,2016-04-21T16:47:18,3,new,active
6020710631,67524287,,,Lyde Road End,,,,Road End,,A966,,,,at,,N,ES001323,Rendall,,,,,,,false,UKOS,337977,1018361,-3.08279,59.04772,BCT,CUS,OTH,,,,134,2010-12-06T00:00:00,2011-01-18T11:07:00,1,new,active
6020710633,67524292,,,Community Centre Road End,,,,Road End,,,,,,at,,N,ES003246,Sandwick,,,,,,,false,UKOS,326598,1018747,-3.2812,59.04938,BCT,CUS,OTH,,,,134,2010-12-06T00:00:00,2011-01-18T11:08:00,2,new,active
6020710636,67524295,,,East Aith Junction,,,,Junction,,,,,,opp,,N,ES003246,Sandwick,,,,,,,false,UKOS,324938,1017785,-3.3098,59.04045,BCT,CUS,OTH,,,,134,2010-12-06T00:00:00,2013-03-01T10:34:12,2,new,active
6020710637,67524296,,,Garson,,,,Garson,,A967,,,,at,,S,ES003246,Sandwick,,,,,,,false,UKOS,326527,1019880,-3.28282,59.05954,BCT,CUS,OTH,,,,134,2010-12-06T00:00:00,2011-01-18T11:12:00,1,new,active
6020710639,67524298,,,Kierfiold Road End,,,,Road End,,,,,,at,,SE,ES003246,Sandwick,,,,,,,false,UKOS,324862,1018041,-3.31121,59.04274,BCT,CUS,OTH,,,,134,2010-12-06T00:00:00,2011-01-18T12:09:00,1,new,active
6020710641,67524324,,,Kirbister Road End,,,,Road End,,,,,,at,,NW,ES003246,Sandwick,,,,,,,false,UKOS,325387,1014733,-3.30094,59.01313,BCT,CUS,OTH,,,,134,2010-12-06T00:00:00,2011-01-18T12:10:00,1,new,active
6020710513,67523848,,,Bridgend,,,,House,,Old Finstown Road,,,,at,,E,ES001394,Firth,,,,,,,false,UKOS,339368,1011738,-3.05672,58.98845,BCT,CUS,OTH,,,,134,2010-09-03T00:00:00,2011-01-14T14:05:00,1,new,active
6020710643,67524326,,,Linklater Cottage,,,,Cottage,,A967,,,,at,,N,ES003246,Sandwick,,,,,,,false,UKOS,326740,1021152,-3.27953,59.071,BCT,CUS,OTH,,,,134,2010-12-06T00:00:00,2011-01-18T12:11:00,1,new,active
6020710645,67524328,,,Mill of Rango,,,,Mill of Rango,,,,,,at,,N,ES003246,Sandwick,,,,,,,false,UKOS,326555,1018129,-3.28174,59.04382,BCT,CUS,OTH,,,,134,2010-12-06T00:00:00,2011-01-18T12:13:00,2,new,active
6020710648,67524343,,,Newburgh,,,,Newburgh,,,,,,opp,,S,ES003246,Sandwick,,,,,,,false,UKOS,325960,1011991,-3.29004,58.98861,BCT,CUS,OTH,,,,134,2010-12-06T00:00:00,2011-01-18T12:14:00,1,new,active
6020710649,67524345,,,Queena,,,,Queena,,,,,,at,,NE,ES003246,Sandwick,,,,,,,false,UKOS,326138,1016730,-3.28854,59.03119,BCT,CUS,OTH,,,,134,2010-12-06T00:00:00,2011-01-18T12:14:00,1,new,active
6020710651,67524347,,,Quholmslie,,,,Quholmslie,,,,,,at,,S,ES003246,Sandwick,,,,,,,false,UKOS,325807,1012797,-3.29298,58.99582,BCT,CUS,OTH,,,,134,2010-12-06T00:00:00,2011-01-18T12:15:00,1,new,active
6020710654,67524352,,,Redland Road End,,,,Road End,,,,,,opp,,NW,ES003246,Sandwick,,,,,,,false,UKOS,326280,1013453,-3.28497,59.00179,BCT,CUS,OTH,,,,134,2010-12-06T00:00:00,2011-01-18T12:15:00,1,new,active
6020710655,67524353,,,West Clumly,,,,West Clumly,,,,,,at,,S,ES003246,Sandwick,,,,,,,false,UKOS,324513,1016428,-3.31674,59.02819,BCT,CUS,OTH,,,,134,2010-12-06T00:00:00,2011-01-18T12:16:00,1,new,active
6020710657,67524356,,,Yesnaby Road End,,,,Road End,,,,,,at,,NW,ES003246,Sandwick,,,,,,,false,UKOS,324744,1015351,-3.31234,59.01857,BCT,CUS,OTH,,,,134,2010-12-07T00:00:00,2011-01-18T14:02:00,1,new,active
6020710660,67524359,,,Distillery Cottages,,,,Cottages,,A964,,,,opp,,NE,N0078256,Scapa,St Ola,,,,,,false,UKOS,343368,1009143,-2.98647,58.9657,BCT,CUS,OTH,,,,134,2010-12-07T00:00:00,2011-01-18T14:10:00,1,new,active
6020710662,67524363,,,Marengo Road End,,,,Road End,,Church Road,,,,opp,,NW,ES003370,St Margarets Hope,South Ronaldsay,,,,,,false,UKOS,344861,993516,-2.95663,58.82558,BCT,CUS,OTH,,,,134,2010-12-07T00:00:00,2016-05-09T10:23:36,3,new,active
6020710661,67524362,,,Marengo Road End,,,,Road End,,Church Road,,,,at,,SE,ES003370,St Margarets Hope,South Ronaldsay,,,,,,false,UKOS,344870,993516,-2.95647,58.82558,BCT,CUS,OTH,,,,134,2010-12-07T00:00:00,2011-01-18T14:11:00,1,new,active
6020710504,67523836,,,Zion's Loan,,,,Road End,,Old Finstown Road,,,,opp,,W,ES001394,Firth,,,,,,,false,UKOS,338398,1012170,-3.07372,58.99219,BCT,CUS,OTH,,,,134,2010-08-24T00:00:00,2011-01-14T14:05:00,1,new,active
6020710663,67524364,,,Starilie,,,,Starilie,,A961,,,,at,,NE,ES003369,South Ronaldsay,,,,,,,false,UKOS,346152,994393,-2.93449,58.83362,BCT,CUS,OTH,,,,134,2010-12-08T00:00:00,2011-02-07T12:02:00,2,new,active
6020710664,67524365,,,Starilie,,,,Starilie,,A961,,,,opp,,SW,ES003369,South Ronaldsay,,,,,,,false,UKOS,346152,994385,-2.93448,58.83355,BCT,CUS,OTH,,,,134,2010-12-08T00:00:00,2011-02-07T12:02:00,2,new,active
6020710665,67524367,,,Crantit Park,,,,Crantit Park,,A964,,,,at,,S,ES002220,St Ola,,,,,,,false,UKOS,344102,1009835,-2.97389,58.97201,BCT,MKD,OTH,,,,134,2010-12-08T00:00:00,2016-02-11T12:08:42,2,new,active
6020710667,67524369,,,Foveran Road End,,,,Foveran Road End,,A964,,,,at,,SW,ES002220,St Ola,,,,,,,false,UKOS,341954,1008284,-3.01083,58.9578,BCT,CUS,OTH,,,,134,2010-12-08T00:00:00,2011-01-18T14:14:00,1,new,active
6020710669,67524373,,,Greenigoe,,,,Greenigoe,,A964,,,,at,,NE,ES002220,St Ola,,,,,,,false,UKOS,340741,1007458,-3.03169,58.95022,BCT,CUS,OTH,,,,134,2010-12-08T00:00:00,2011-01-18T14:14:00,2,new,active
6020710672,67524376,,,Heathery Loan East End,,,,Heathery Loan East End,,A960,,,,opp,,S,ES002220,St Ola,,,,,,,false,UKOS,345927,1008923,-2.94193,58.96406,BCT,CUS,OTH,,,,134,2010-12-08T00:00:00,2011-01-18T14:19:00,2,new,active
6020710673,67524378,,,Heathery Loan West End,,,,Heathery Loan West End,,A961,,,,at,,S,ES002220,St Ola,,,,,,,false,UKOS,344978,1008846,-2.95841,58.96325,BCT,CUS,OTH,,,,134,2010-12-08T00:00:00,2011-01-18T14:19:00,1,new,active
6020710675,67524382,,,Marness Garage,,,,Garage,,A964,,,,at,,SW,ES002220,St Ola,,,,,,,false,UKOS,341657,1007946,-3.0159,58.95472,BCT,CUS,OTH,,,,134,2010-12-08T00:00:00,2011-01-18T14:20:00,1,new,active
6020710677,67524384,,,Orquil Road,,,,Ordquil Road,,A964,,,,at,,N,ES002220,St Ola,,,,,,,false,UKOS,343994,1009641,-2.97571,58.97026,BCT,CUS,OTH,,,,134,2010-12-08T00:00:00,2018-10-30T12:37:06,3,new,active
6020710680,67524387,,,Twartquoy,,,,Twartquoy,,A964,,,,opp,,SW,ES002220,St Ola,,,,,,,false,UKOS,340035,1007147,-3.04387,58.94733,BCT,CUS,OTH,,,,134,2010-12-08T00:00:00,2011-01-18T14:21:00,1,new,active
6020710682,67524392,,,Howe Road End,,,,Howe Road End,,,,,,opp,,SE,ES003556,Stromness,,,,,,,false,UKOS,327757,1011331,-3.25857,58.98299,BCT,CUS,OTH,,,,134,2010-12-08T00:00:00,2015-01-21T12:49:48,3,new,active
6020710505,67523837,,,Cursiter Farm,,,,Farm,,Old Finstown Road,,,,opp,,W,ES001394,Firth,,,,,,,false,UKOS,337737,1012520,-3.08532,58.99524,BCT,CUS,OTH,,,,134,2010-08-24T00:00:00,2011-01-14T14:06:00,1,new,active
6020710683,67524393,,,Waverley,,,,Waverley,,A966,,,,at,,E,N0078260,Swannay,,,,,,,false,UKOS,328539,1028976,-3.25072,59.14155,BCT,CUS,OTH,,,,134,2010-12-08T00:00:00,2011-01-18T14:22:00,2,new,active
6020710686,67524396,,,Garralanga Road End,,,,Road End,,A960,,,,opp,,SE,N0078253,Tankerness,,,,,,,false,UKOS,351432,1004913,-2.84534,58.92871,BCT,CUS,OTH,,,,134,2010-12-08T00:00:00,2011-01-18T14:23:00,1,new,active
6020710688,67524398,,,Old Voy Road End,,,,Road End,,A960,,,,opp,,SE,ES003397,Toab,,,,,,,false,UKOS,352742,1003862,-2.82236,58.91942,BCT,CUS,OTH,,,,134,2010-12-08T00:00:00,2011-01-18T14:24:00,1,new,active
6020710689,67524523,,,Castlehill,,,,Castlehill,,,,,,at,,SE,N0067647,Twatt,,,,,,,false,UKOS,326529,1025424,-3.28464,59.10931,BCT,CUS,OTH,,,,134,2010-12-08T00:00:00,2019-07-05T11:35:42,2,new,active
6020710692,67524526,,,Cursiter Cottage,,,,Cottage,,A967,,,,opp,,N,N0067647,Twatt,,,,,,,false,UKOS,326912,1022275,-3.2769,59.08111,BCT,CUS,OTH,,,,134,2010-12-08T00:00:00,2011-01-18T14:26:00,1,new,active
6020710694,67524528,,,Lochlands Chalets,,,,Chalets,,,,,,opp,,SE,N0067647,Twatt,,,,,,,false,UKOS,328106,1022882,-3.25628,59.08676,BCT,CUS,OTH,,,,134,2010-12-08T00:00:00,2011-01-18T14:26:00,1,new,active
6020710696,67524532,,,Loons Road End,,,,Road End,,,,,,opp,,SE,N0067647,Twatt,,,,,,,false,UKOS,326819,1024446,-3.27925,59.10058,BCT,CUS,OTH,,,,134,2010-12-08T00:00:00,2011-01-18T14:27:00,1,new,active
6020710698,67524536,,,Ludenhill Road End,,,,Road End,,Hundland Road,,,,at,,S,N0078260,Swannay,,,,,,,false,UKOS,329411,1028338,-3.23527,59.13596,BCT,CUS,OTH,,,,134,2011-01-25T00:00:00,2011-01-28T16:14:00,1,new,active
6020710701,67524539,,,Setter Road End,,,,Road End,,Hundland Road,,,,at,,N,N0078260,Swannay,,,,,,,false,UKOS,329454,1027553,-3.23427,59.12892,BCT,CUS,OTH,,,,134,2011-01-27T00:00:00,2011-01-28T16:15:00,1,new,active
6020710703,67524543,,,Hundland Schoolhouse,,,,Schoolhouse,,Hundland Road,,,,at,,NE,N0078260,Swannay,,,,,,,false,UKOS,329020,1027208,-3.24174,59.12575,BCT,CUS,OTH,,,,134,2011-01-27T00:00:00,2011-01-28T16:16:00,1,new,active
6020710506,67523838,,,Cruan Riding School,,,,Road End,,Old Finstown Road,,,,at,,NW,ES001394,Firth,,,,,,,false,UKOS,337039,1012711,-3.09752,58.99685,BCT,CUS,OTH,,,,134,2010-08-24T00:00:00,2011-01-14T14:08:00,2,new,active
6020710705,67524546,,,New Insabysetter,,,,New Insabysetter,,Hundland Road,,,,opp,,NW,ES000359,Birsay,,,,,,,false,UKOS,328805,1026334,-3.24521,59.11787,BCT,CUS,OTH,,,,134,2011-01-28T00:00:00,2011-01-28T16:17:00,1,new,active
6020710707,67524548,,,Whiclath Road End,,,,Road End,,Wattle Road,,,,opp,,SE,ES000359,Birsay,,,,,,,false,UKOS,328032,1026198,-3.25866,59.11652,BCT,CUS,OTH,,,,134,2011-01-28T00:00:00,2011-01-28T16:17:00,1,new,active
6020710709,67524562,,,Midhouse Road End,,,,Road End,,Wattle Road,,,,opp,,SE,ES000359,Birsay,,,,,,,false,UKOS,327485,1026464,-3.2683,59.11881,BCT,CUS,OTH,,,,134,2011-01-28T00:00:00,2011-01-28T16:18:00,1,new,active
6020710711,67524564,,,Lower Braehead,,,,Lower Braehead,,Wattle Road,,,,opp,,SE,ES000359,Birsay,,,,,,,false,UKOS,327127,1026666,-3.27462,59.12057,BCT,CUS,OTH,,,,134,2011-01-28T00:00:00,2011-01-28T16:18:00,1,new,active
6020710713,67524567,,,Lylie,,,,Lylie,,Wattle Road,,,,opp,,SE,ES000359,Birsay,,,,,,,false,UKOS,326787,1027191,-3.28073,59.12522,BCT,CUS,OTH,,,,134,2011-01-28T00:00:00,2011-01-28T16:19:00,1,new,active
6020710715,67524569,,,Meran Road End,,,,Road End,,Wattle Road,,,,at,,SE,ES000359,Birsay,,,,,,,false,UKOS,326386,1027289,-3.28777,59.12603,BCT,CUS,OTH,,,,134,2011-01-28T00:00:00,2011-01-28T16:19:00,1,new,active
6020710717,67524573,,,Wattle,,,,Wattle,,Wattle Road,,,,opp,,E,ES000359,Birsay,,,,,,,false,UKOS,326073,1027414,-3.29327,59.1271,BCT,CUS,OTH,,,,134,2011-01-28T00:00:00,2011-01-28T16:20:00,1,new,active
6020710719,67524575,,,Curcabreck,,,,Curcabreck,,,,,,at,,NE,N0067478,Dounby,,,,,,,false,UKOS,329217,1020405,-3.2361,59.06471,BCT,CUS,OTH,,,,134,2011-01-28T00:00:00,2011-01-28T16:21:00,1,new,active
6020710721,67524578,,,Newhouse Road End,,,,Road End,,,,,,opp,,NE,N0067478,Dounby,,,,,,,false,UKOS,328956,1020266,-3.2406,59.06342,BCT,CUS,OTH,,,,134,2011-01-28T00:00:00,2011-01-28T16:21:00,1,new,active
6020710723,67524582,,,West Waterhall,,,,West Waterhall,,,,,,opp,,NE,N0067478,Dounby,,,,,,,false,UKOS,328802,1020095,-3.24323,59.06185,BCT,CUS,OTH,,,,134,2011-01-28T00:00:00,2011-01-28T16:22:00,1,new,active
6020710334,67523523,,,Community Centre,,,,Post Office,,A986,,,,at,,N,ES000360,Harray,,,,,,,false,UKOS,331951,1017481,-3.18752,59.0389,BCT,CUS,OTH,,,,134,2003-06-06T00:00:00,2019-11-07T09:46:36,5,new,active
6020710725,67524584,,,Decca Station Houses,,,,Houses,,,,,,opp,,NE,N0067478,Dounby,,,,,,,false,UKOS,328602,1019992,-3.24668,59.0609,BCT,CUS,OTH,,,,134,2011-01-28T00:00:00,2011-01-28T16:22:00,1,new,active
6020710727,67524586,,,Hackland,,,,Hackland,,,,,,opp,,N,ES003246,Sandwick,,,,,,,false,UKOS,327693,1019412,-3.26234,59.05554,BCT,CUS,OTH,,,,134,2011-01-28T00:00:00,2011-01-28T16:23:00,2,new,active
6020710728,67524587,,,Kirkness Road End,,,,Road End,,,,,,at,,SW,ES003246,Sandwick,,,,,,,false,UKOS,327519,1019142,-3.26528,59.05308,BCT,CUS,OTH,,,,134,2011-01-28T00:00:00,2011-01-28T16:23:00,1,new,active
6020710730,67524592,,,Vetquoy Cottage,,,,Cottage,,,,,,at,,SW,ES003246,Sandwick,,,,,,,false,UKOS,327042,1018903,-3.27351,59.05086,BCT,CUS,OTH,,,,134,2011-01-28T00:00:00,2011-01-28T16:24:00,1,new,active
6020710733,67524595,,,Skithva Road End,,,,Road End,,,,,,at,,NW,ES003246,Sandwick,,,,,,,false,UKOS,326815,1016219,-3.27658,59.02672,BCT,CUS,OTH,,,,134,2011-01-28T00:00:00,2011-01-28T16:24:00,1,new,active
6020710734,67524596,,,Clairness,,,,Clairness,,,,,,opp,,SE,ES003246,Sandwick,,,,,,,false,UKOS,327865,1015195,-3.25796,59.0177,BCT,CUS,OTH,,,,134,2011-01-28T00:00:00,2011-01-28T16:26:00,1,new,active
6020710736,67524598,,,Lyking,,,,Lyking,,Lyking Road,,,,opp,,W,ES003246,Sandwick,,,,,,,false,UKOS,327429,1015095,-3.26551,59.01673,BCT,CUS,OTH,,,,134,2011-01-28T00:00:00,2011-01-28T16:26:00,1,new,active
6020710738,67524624,,,Upper Lyking Road End,,,,Road End,,Lyking Road,,,,opp,,W,ES003246,Sandwick,,,,,,,false,UKOS,326574,1015095,-3.2804,59.01659,BCT,CUS,OTH,,,,134,2011-01-28T00:00:00,2011-01-28T16:27:00,1,new,active
6020710740,67524626,,,Easter Voy Cottage,,,,Cottage,,Lyking Road,,,,at,,NW,ES003246,Sandwick,,,,,,,false,UKOS,326172,1015143,-3.28741,59.01695,BCT,CUS,OTH,,,,134,2011-01-28T00:00:00,2011-01-28T16:27:00,1,new,active
6020710742,67524628,,,Grind Road End,,,,Road End,,Lyking Road,,,,opp,,W,ES003246,Sandwick,,,,,,,false,UKOS,325786,1015210,-3.29416,59.01748,BCT,CUS,OTH,,,,134,2011-01-28T00:00:00,2011-01-28T16:28:00,1,new,active
6020710362A,67523236,,,Shop,,,,Shelter,,A961,,,,opp,,E,ES000517,Burray,,,,,,,false,UKOS,347441,995852,-2.91251,58.84688,BCT,CUS,OTH,,,,134,2003-06-09T00:00:00,2011-01-14T12:06:00,9,new,active
6020710362,67523624,,,Shop,,Burray Village,,Bus Shelter,,A961,,,,after,,W,ES000517,Burray,,,,,,,false,UKOS,347392,995825,-2.91335,58.84663,BCT,MKD,OTH,,,,134,2003-06-09T00:00:00,2011-09-21T10:53:42,9,new,active
6020710407,67523636,,,Harray Road End,,,,Road End,,,,,,at,,E,ES000360,Harray,,,,,,,false,UKOS,333849,1013697,-3.15332,59.00522,BCT,MKD,OTH,,,,134,2007-11-23T00:00:00,2016-02-11T10:28:18,5,new,active
6020710361,67523237,,,Graeme Park,,,,Bus Shelter,,A961,,,,opp,,W,ES001775,St Marys,Holm,,,,,,false,UKOS,347311,1001263,-2.91604,58.89545,BCT,MKD,OTH,,,,134,2003-06-09T00:00:00,2011-01-31T12:00:00,5,new,active
6020710361A,67523238,,,Station Square,,,,Bus Shelter,,A961,,,,after,,E,ES001775,St Marys,Holm,,,,,,false,UKOS,347662,1001373,-2.90998,58.89648,BCT,MKD,OTH,,,,134,2003-06-09T00:00:00,2011-01-31T12:01:00,5,new,active
6020710746,67524635,,,Dalespot,,,,Dalespot,,A961,,,,at,,SE,ES002220,St Ola,,,,,,,false,UKOS,345262,1006954,-2.953,58.94629,BCT,CUS,OTH,,,,134,2011-02-02T00:00:00,2011-02-03T09:17:00,1,new,active
6020710748,67524637,,,Rashieburn Road End,,,,Road End,,A961,,,,at,,SE,ES001774,Holm,,,,,,,false,UKOS,345949,1005060,-2.9406,58.92937,BCT,CUS,OTH,,,,134,2011-02-02T00:00:00,2011-02-03T09:17:00,1,new,active
6020710751,67524642,,,Erracht,,,,Erracht,,A961,,,,opp,,NW,ES001774,Holm,,,,,,,false,UKOS,346259,1004582,-2.9351,58.92512,BCT,CUS,OTH,,,,134,2011-02-02T00:00:00,2011-02-03T09:18:00,1,new,active
6020710752,67524643,,,Kirkbreck Road End,,,,Road End,,A961,,,,opp,,SE,ES001774,Holm,,,,,,,false,UKOS,346784,1003219,-2.92566,58.91295,BCT,CUS,OTH,,,,134,2011-02-02T00:00:00,2011-02-03T09:19:00,1,new,active
6020710754,67524646,,,Ferryhouse Road End,,,,Road End,,A961,,,,opp,,SE,ES001775,St Marys,Holm,,,,,,false,UKOS,347075,1001427,-2.92018,58.89689,BCT,CUS,OTH,,,,134,2011-02-02T00:00:00,2011-02-03T09:22:00,1,new,active
6020710757,67524649,,,Commodore Motel,,,,Motel,,A961,,,,opp,,W,ES001775,St Marys,Holm,,,,,,false,UKOS,348085,1001298,-2.90262,58.89586,BCT,CUS,OTH,,,,134,2011-02-02T00:00:00,2011-02-03T09:23:00,1,new,active
6020710758,67524652,,,Italian Chapel Road End,,,,Chapel,,A961,,,,at,,S,N0078251,Lamb Holm,,,,,,,false,UKOS,348497,1000575,-2.8953,58.88942,BCT,CUS,OTH,,,,134,2011-02-02T00:00:00,2011-02-03T09:26:00,1,new,active
6020710761,67524656,,,South Cara Road End,,,,Road End,,A961,,,,opp,,E,ES003369,South Ronaldsay,,,,,,,false,UKOS,347064,994745,-2.91877,58.83689,BCT,CUS,OTH,,,,134,2011-02-02T00:00:00,2011-02-03T09:29:00,1,new,active
6020710760,67524654,,,South Cara Road End,,,,Road End,,A961,,,,at,,W,ES003369,South Ronaldsay,,,,,,,false,UKOS,347061,994735,-2.91882,58.8368,BCT,CUS,OTH,,,,134,2011-02-02T00:00:00,2011-02-03T09:29:00,1,new,active
6020710763,67524658,,,Knockhall,,,,Knockhall,,A961,,,,at,,NE,ES003369,South Ronaldsay,,,,,,,false,UKOS,345255,994021,-2.94993,58.83016,BCT,CUS,OTH,,,,134,2011-02-02T00:00:00,2011-02-03T09:30:00,1,new,active
6020710762,67524657,,,Knockhall,,,,Knockhall,,A961,,,,opp,,SW,ES003369,South Ronaldsay,,,,,,,false,UKOS,345264,994018,-2.94977,58.83014,BCT,CUS,OTH,,,,134,2011-02-02T00:00:00,2011-02-03T09:30:00,1,new,active
6020710764,67524659,,,Nealand,,,,Nealand,,A964,,,,at,,SW,ES002942,Orphir,,,,,,,false,UKOS,332985,1004957,-3.16571,58.92662,BCT,CUS,OTH,,,,134,2011-02-02T00:00:00,2011-02-03T09:30:00,1,new,active
6020710766,67524673,,,Gyre Road End,,,,Road End,,A964,,,,at,,W,N0078258,Houton,Orphir,,,,,,false,UKOS,332686,1004250,-3.17068,58.92022,BCT,CUS,OTH,,,,134,2011-02-02T00:00:00,2011-02-03T09:30:00,1,new,active
6020710769,67524676,,,Exchange Cottage,,,,Cottage,,A964,,,,opp,,E,N0078258,Houton,Orphir,,,,,,false,UKOS,332152,1004187,-3.17993,58.91957,BCT,CUS,OTH,,,,134,2011-02-02T00:00:00,2011-02-03T09:31:00,1,new,active
6020710770,67524678,,,Deepdale Cottage,,,,Cottage,,,,,,at,,SW,ES003556,Stromness,,,,,,,false,UKOS,326717,1011780,-3.27681,58.98685,BCT,CUS,OTH,,,,134,2011-02-02T00:00:00,2011-02-03T09:32:00,2,new,active
6020710772,67524682,,,Cumminess Road End,,,,Road End,,A964,,,,opp,,SE,ES003463,Stenness,,,,,,,false,UKOS,328744,1010578,-3.24116,58.9764,BCT,CUS,OTH,,,,134,2011-02-02T00:00:00,2011-02-03T09:32:00,1,new,active
6020710774,67524684,,,Mill of Ireland,,,,Mill of Ireland,,A964,,,,at,,SE,ES003463,Stenness,,,,,,,false,UKOS,329461,1009702,-3.22841,58.96865,BCT,CUS,OTH,,,,134,2011-02-02T00:00:00,2011-02-03T09:33:00,1,new,active
6020710776,67524686,,,Balfour Cottage,,,,Cottage,,A964,,,,opp,,SE,ES003463,Stenness,,,,,,,false,UKOS,329966,1008153,-3.21914,58.95483,BCT,CUS,OTH,,,,134,2011-02-02T00:00:00,2011-02-03T09:33:00,1,new,active
6020710778,67524689,,,Workwell Road End,,,,Road End,,A964,,,,at,,NW,N0078258,Houton,Orphir,,,,,,false,UKOS,330696,1005335,-3.20557,58.92965,BCT,CUS,OTH,,,,134,2011-02-02T00:00:00,2011-02-03T09:34:00,1,new,active
6020710780,67524693,,,Sower Road End,,,,Road End,,A964,,,,at,,N,N0078258,Houton,Orphir,,,,,,false,UKOS,330256,1006287,-3.21351,58.93812,BCT,CUS,OTH,,,,134,2011-02-02T00:00:00,2011-02-03T09:35:00,1,new,active
6020710360,67523246,,,Wilderness Farm,,,,Farm,,A961,,,,opp,,NW,ES001774,Holm,,,,,,,false,UKOS,346601,1003932,-2.929,58.91933,BCT,CUS,OTH,,,,134,2003-06-09T00:00:00,2016-02-11T12:01:24,9,new,active
6020710786,67524723,,,Kimberely,,,,Kimberely,,,,,,at,,SW,N0067496,Finstown,Firth,,,,,,false,UKOS,335229,1013984,-3.12939,59.00801,BCT,CUS,OTH,,,,134,2011-02-02T00:00:00,2011-02-03T09:35:00,1,new,active
6020710788,67524725,,,Binscarth Cottages,,,,Cottages,,,,,,at,,SW,N0067496,Finstown,Firth,,,,,,false,UKOS,334610,1013839,-3.14012,59.00662,BCT,CUS,OTH,,,,134,2011-02-02T00:00:00,2011-02-03T09:35:00,1,new,active
6020710790,67524727,,,Germiston Road End,,,,Road End,,,,,,at,,SW,ES003463,Stenness,,,,,,,false,UKOS,332617,1013258,-3.17463,59.00109,BCT,MKD,OTH,,,,134,2011-02-03T00:00:00,2011-02-03T09:36:00,2,new,active
6020710792,67524729,,,Woodbine,,,,Woodbine,,,,,,at,,W,ES003463,Stenness,,,,,,,false,UKOS,329618,1011610,-3.22629,58.98581,BCT,CUS,OTH,,,,134,2011-02-03T00:00:00,2018-01-26T11:51:54,2,new,active
6020710794,67524734,,,Glaitness School,,,,School,,,,,,at,,NW,ES002219,Kirkwall,,,,,,,false,UKOS,344348,1010967,-2.96989,58.98221,BCT,MKD,OTH,,,,134,2011-05-11T00:00:00,2016-02-11T12:04:42,3,new,active
6020710316,67523475,,,Pickaquoy Leisure Centre,,,,Leisure Centre,,,,,,at,,NW,ES002219,Kirkwall,,,,,,,false,UKOS,344301,1011056,-2.97073,58.983,BCT,CUS,OTH,,,,134,2003-06-06T00:00:00,2011-05-11T10:27:00,4,new,active
6020710797,67524737,,,Peerie Sea Loan,,,,Road End,,,,,,at,,N,ES002219,Kirkwall,,,,,,,false,UKOS,344255,1011315,-2.9716,58.98532,BCT,MKD,OTH,,,,134,2011-05-11T00:00:00,2016-02-11T12:05:06,4,new,active
6020710800,67524742,,,Bellevue Park,,,,Road End,,Inganess Road,,,,opp,,SE,ES002219,Kirkwall,,,,,,,false,UKOS,345714,1009773,-2.94584,58.97166,BCT,CUS,OTH,,,,134,2011-09-22T00:00:00,2011-09-29T13:35:00,1,new,active
6020710802,67524745,,,Papdale Place,,,,Road End,,The Meadows,,,,opp,,SW,ES002219,Kirkwall,,,,,,,false,UKOS,345871,1010715,-2.94334,58.98014,BCT,CUS,OTH,,,,134,2011-09-22T00:00:00,2015-09-21T15:33:54,2,new,active
6020710804,67524747,,,Hermaness,,,,Shelter,,Marwick Drive,,,,at,,SE,ES002219,Kirkwall,,,,,,,false,UKOS,345720,1010306,-2.94587,58.97645,BCT,MKD,OTH,,,,134,2011-09-22T00:00:00,2015-07-06T15:20:30,4,new,active
6020710312,67523249,,,Ferry Terminal,,,,Terminal Building,,Houton Terminal,,,,before,,S,N0078258,Houton,Orphir,,,,,,false,UKOS,331880,1004075,-3.18462,58.91852,BCT,MKD,OTH,,,,134,2003-06-05T00:00:00,2018-02-02T10:03:06,7,new,active
6020710806,67524749,,,Ronaldsvoe,,,,Road End,,Muir Drive,,,,at,,NE,ES002219,Kirkwall,,,,,,,false,UKOS,345851,1010303,-2.94359,58.97644,BCT,CUS,OTH,,,,134,2011-09-22T00:00:00,2011-09-29T13:53:24,1,new,active
6020710810,67524756,,,Easdale Close,,,,Road End,,Easdale Loan,,,,opp,,SW,ES002219,Kirkwall,,,,,,,false,UKOS,345445,1009823,-2.95053,58.97208,BCT,CUS,OTH,,,,134,2011-09-22T00:00:00,2011-09-29T13:34:00,1,new,active
6020710811,67524757,,,Upper Crantit Road,,,,Road End,,Holm Branch Road,,,,opp,,SE,ES002219,Kirkwall,,,,,,,false,UKOS,345011,1009833,-2.95808,58.97211,BCT,CUS,OTH,,,,134,2011-09-22T00:00:00,2011-09-29T13:54:54,1,new,active
6020710412,67523643,,,Rope Walk,,,,Watson Drive,,Watson Drive,,,,before,,SW,ES002219,Kirkwall,,,,,,,false,UKOS,345460,1009645,-2.95022,58.97048,BCT,CUS,OTH,,,,134,2008-01-23T00:00:00,2010-04-16T12:29:00,2,new,active
6020710470,67523756,,,Craigiefield Park,,,,Junction with Craigiefield Park,,Craigiefield Road,,,,at,,E,ES002219,Kirkwall,,,,,,,false,UKOS,345776,1012366,-2.9454,58.99496,BCT,CUS,OTH,,,,134,2008-12-22T00:00:00,2018-10-11T15:52:24,5,new,active
6020710471,67523757,,,Weyland Farm,,,,Farm,,Work Road,,,,at,,W,ES002219,Kirkwall,,,,,,,false,UKOS,346036,1011285,-2.94061,58.98528,BCT,CUS,OTH,,,,134,2008-12-22T00:00:00,2014-12-11T14:43:30,5,new,active
6020710489,67523793,,,Deerness Road,,,,Rope walk,,Rope Walk,,,,before,,NE,ES002219,Kirkwall,,,,,,,false,UKOS,345478,1009782,-2.94995,58.97171,BCT,CUS,OTH,,,,134,2009-12-18T00:00:00,2011-09-23T16:48:54,2,new,active
6020710604,67524249,,,Clumly Avenue,,,,Clumly Avenue,,Islands View Road,,,,opp,,NE,ES002219,Kirkwall,,,,,,,false,UKOS,345624,1011744,-2.94789,58.98935,BCT,CUS,OTH,,,,134,2010-12-06T00:00:00,2014-12-11T14:45:24,3,new,active
6020710605,67524252,,,Craigiefield,,,,Craigiefield,,Craigiefield Road,,,,at,,SE,ES002219,Kirkwall,,,,,,,false,UKOS,346170,1012043,-2.93846,58.9921,BCT,CUS,OTH,,,,134,2010-12-06T00:00:00,2014-12-11T14:45:48,5,new,active
6020710335B,67525253,,,Crossroads,,,,Crossroads,,A967,,,,N-bound,,N,N0067647,Twatt,,,,,,,false,UKOS,327072,1024198,-3.27475,59.0984,BCT,CUS,OTH,,,,134,2014-10-14T00:00:00,2014-10-14T16:34:12,0,new,active
6020710608,67524256,,,Cromwell Road,,,,Road End,,Shore Street,,,,opp,,NE,ES002219,Kirkwall,,,,,,,false,UKOS,345176,1011390,-2.9556,58.98611,BCT,CUS,OTH,,,,134,2010-12-06T00:00:00,2015-09-22T09:23:48,4,new,active
6020710821,67524782,,,Weyland Park,,,,Road End,,Cromwell Road,,,,at,,SW,ES002219,Kirkwall,,,,,,,false,UKOS,345299,1011582,-2.9535,58.98785,BCT,CUS,OTH,,,,134,2011-09-26T00:00:00,2011-09-29T13:48:30,2,new,active
6020710491,67523795,,,Council Houses,,,,,,A960,,,,opp,,NW,ES003397,Toab,,,,,,,false,UKOS,352441,1004054,-2.82763,58.92111,BCT,CUS,OTH,,,,134,2010-04-22T00:00:00,2018-03-14T12:41:24,3,new,active
6020710320,67523268,,,Newark Road End,,,,Jewellery Workshop,,Groatsetter Road,,,,opp,,W,N0078253,Tankerness,,,,,,,false,UKOS,350253,1006828,-2.86625,58.94577,BCT,CUS,OTH,,,,134,2003-06-06T00:00:00,2019-07-30T15:23:00,7,new,active
6020710454,67523734,,,Quoyburray,,,,Inn,,A960,,,,at,,NW,N0078253,Tankerness,,,,,,,false,UKOS,350890,1005524,-2.85489,58.93414,BCT,CUS,OTH,,,,134,2008-08-22T00:00:00,2011-01-14T14:20:00,2,new,active
6020710303,67523479,,,Brig O'Waithe,,,,Bus Shelter,,,,,,before,,W,ES003463,Stenness,,,,,,,false,UKOS,328361,1011357,-3.24807,58.98333,BCT,MKD,OTH,,,,134,2003-06-05T00:00:00,2016-02-11T10:40:48,7,new,active
6020710305A,67523493,,,Ring of Brodgar,,,,The Ring of Brodgar,,,,,,nr,,SW,ES003463,Stenness,,,,,,,false,UKOS,329337,1013717,-3.23185,59.00468,BCT,CUS,OTH,,,,134,2003-06-05T00:00:00,2014-09-23T09:22:54,10,new,active
6020710439,67523692,,,Echna Loch Shelter,,,,Loch,,A961,,,,at,,N,ES000517,Burray,,,,,,,false,UKOS,347250,996502,-2.91597,58.85269,BCT,MKD,OTH,,,,134,2008-06-11T00:00:00,2016-02-11T11:58:18,3,new,active
6020710440,67523693,,,Echna Loch Shelter,,,,Loch,,A961,,,,opp,,S,ES000517,Burray,,,,,,,false,UKOS,347260,996522,-2.9158,58.85287,BCT,CUS,OTH,,,,134,2008-06-11T00:00:00,2011-01-14T12:21:00,3,new,active
6020710337A,67523489,,,Standing Stones of Stenness,,,,Standing Stones,,,,,,opp,,SE,ES003463,Stenness,,,,,,,false,UKOS,330353,1012865,-3.2139,58.9972,BCT,CUS,OTH,,,,134,2003-06-06T00:00:00,2014-07-23T16:06:30,6,new,active
6020710409,67523638,,,Garage,,,,Petrol Station,,,,,,at,,E,ES003463,Stenness,,,,,,,false,UKOS,330509,1011722,-3.21083,58.98696,BCT,MKD,OTH,,,,134,2007-11-23T00:00:00,2018-10-31T12:50:18,7,new,active
6020710425,67523672,,,Tormiston Mill,,,,Mill,,,,,,at,,SW,ES003463,Stenness,,,,,,,false,UKOS,331921,1012556,-3.18652,58.99468,BCT,CUS,OTH,,,,134,2008-04-10T00:00:00,2014-09-01T10:51:48,4,new,active
6020710427,67523674,,,Ring of Brodgar Road End,,,,Road End,,,,,,opp,,SW,ES003463,Stenness,,,,,,,false,UKOS,331158,1012022,-3.19963,58.98976,BCT,CUS,OTH,,,,134,2008-04-10T00:00:00,2011-01-14T14:28:00,3,new,active
6020710359,67523276,,,Cannigall Road End,,,,Road End,,A961,,,,opp,,S,ES002220,St Ola,,,,,,,false,UKOS,345115,1007694,-2.95574,58.95292,BCT,CUS,OTH,,,,134,2003-06-09T00:00:00,2011-01-14T14:29:00,5,new,active
6020710820,67524769,,,Skail Road,,,,Road End,,Islands View Road,,,,at,,NW,ES002219,Kirkwall,,,,,,,false,UKOS,345439,1011673,-2.95109,58.98869,BCT,CUS,OTH,,,,134,2011-09-26T00:00:00,2011-09-29T13:46:06,1,new,active
6020710432,67523682,,,Bloomfield South Road End,,,,Road End,,A964,,,,at,,NE,ES002220,St Ola,,,,,,,false,UKOS,342343,1008536,-3.00413,58.96012,BCT,CUS,OTH,,,,134,2008-04-11T00:00:00,2019-07-09T10:53:00,6,new,active
6020710435,67523685,,,Wideford Cottages,,,,Cottages,,A960,,,,at,,W,ES002220,St Ola,,,,,,,false,UKOS,346130,1008605,-2.93832,58.96123,BCT,CUS,OTH,,,,134,2008-06-11T00:00:00,2011-01-14T14:30:00,2,new,active
6020710497,67523825,,,Walliwall Farm,,,,Farm,,Old Finstown Road,,,,at,,E,ES002220,St Ola,,,,,,,false,UKOS,343573,1010469,-2.98325,58.97764,BCT,MKD,OTH,,,,134,2010-05-11T00:00:00,2016-02-11T12:06:42,2,new,active
6020710500,67523828,,,Riding School,,,,Centre,,Old Finstown Road,,,,at,,W,ES002220,St Ola,,,,,,,false,UKOS,342988,1010453,-2.99342,58.97741,BCT,CUS,OTH,,,,134,2010-05-14T00:00:00,2011-01-14T15:47:00,3,new,active
6020710502,67523832,,,Blackhill Road End,,,,Blackhill Road End,,Sunnybank Road,,,,opp,,S,ES002220,St Ola,,,,,,,false,UKOS,342986,1011394,-2.99369,58.98586,BCT,MKD,OTH,,,,134,2010-05-14T00:00:00,2021-12-10T08:09:19,7,new,active
6020710321,67523243,,,Dingieshowe,,,,Public Convenience,,A960,,,,at,,W,ES003396,Deerness,,,,,,,false,UKOS,354952,1003424,-2.7839,58.91573,BCT,CUS,OTH,,,,134,2003-06-06T00:00:00,2011-01-14T12:25:00,7,new,active
6020710509,67523843,,,Bloomfield North Road End,,,,Road End,,Old Finstown Road,,,,opp,,E,ES002220,St Ola,,,,,,,false,UKOS,341620,1010619,-3.01725,58.97872,BCT,CUS,OTH,,,,134,2010-09-02T00:00:00,2011-01-14T15:49:00,2,new,active
6020710363,67523234,,,Cara Road End,,,,Road End,,A961,,,,opp,,NE,ES003369,South Ronaldsay,,,,,,,false,UKOS,347689,994933,-2.90799,58.83866,BCT,CUS,OTH,,,,134,2003-06-09T00:00:00,2013-03-01T10:25:54,6,new,active
6020710363A,67523623,,,Cara Road End,,,,End of the road to Cara,,A961,,,,at,,SW,ES003369,South Ronaldsay,,,,,,,false,UKOS,347696,994927,-2.90787,58.8386,BCT,CUS,OTH,,,,134,2003-06-09T00:00:00,2013-03-01T10:26:30,6,new,active
6020710364,67523596,,,St Margaret's Road End,,,,Junction of St Margaret's Road and A961,,A961,,,,at,,NE,ES003370,St Margarets Hope,South Ronaldsay,,,,,,false,UKOS,344975,993228,-2.95458,58.82301,BCT,CUS,OTH,,,,134,2003-06-09T00:00:00,2016-04-14T11:01:36,8,new,active
6020711018,67525385,,,Church Road End,,,,St Margaret's Road and Church Road Junction,,St Margaret's Road,,,,opp,,NW,ES003370,St Margarets Hope,South Ronaldsay,,,,,,false,UKOS,344933,993235,-2.95531,58.82307,BCT,CUS,OTH,,,,134,2016-04-14T00:00:00,2016-04-15T15:57:24,1,new,active
6020710364A,67523597,,,St Margaret's Road End,,,,St Margaret's Road and A961 Junction,,A961,,,,opp,,SW,ES003370,St Margarets Hope,South Ronaldsay,,,,,,false,UKOS,344984,993217,-2.95443,58.82291,BCT,CUS,OTH,,,,134,2003-06-09T00:00:00,2016-04-14T11:03:06,7,new,active
6020710336,67523526,,,Road End,,RE,,Skaill House,,,,,,opp,,SE,N0067618,Skaill,,,,,,,false,UKOS,323878,1018727,-3.32859,59.04872,BCT,CUS,OTH,,,,134,2003-06-06T00:00:00,2015-03-23T17:11:54,6,new,active
6020710310,67523434,,,Road End,,,,Road End,,A964,,,,opp,,NE,N0078256,Scapa,St Ola,,,,,,false,UKOS,343899,1009323,-2.97728,58.96739,BCT,CUS,OTH,,,,134,2003-06-05T00:00:00,2011-01-14T16:05:00,5,new,active
6020710462,67523745,,,Norseman Village,,,,Community Centre,,A966,,,,opp,,N,ES001323,Rendall,,,,,,,false,UKOS,338382,1019708,-3.07611,59.05987,BCT,CUS,OTH,,,,134,2008-08-25T00:00:00,2011-01-17T12:18:00,3,new,active
6020710456,67523736,,,Halley Road End,,,,Road End,,A960,,,,at,,N,ES003396,Deerness,,,,,,,false,UKOS,356010,1004594,-2.76577,58.92634,BCT,CUS,OTH,,,,134,2008-08-22T00:00:00,2011-01-14T12:34:00,2,new,active
6020710465,67523748,,,Pulkitto,,,,End of Woodwick Road,,A966,,,,at,,SE,ES001323,Rendall,,,,,,,false,UKOS,338580,1023732,-3.07379,59.09603,BCT,CUS,OTH,,,,134,2008-08-25T00:00:00,2016-04-21T16:47:00,4,new,active
6020710311A,67523263,,,Community School,,,,Orphir Community School,,A964,,,,at,,E,ES002942,Orphir,,,,,,,false,UKOS,334359,1005983,-3.14215,58.93604,BCT,MKD,OTH,,,,134,2003-06-05T00:00:00,2016-02-11T11:46:36,5,new,active
6020710313,67523257,,,Clowally Farm,,,,Clowally Farm,,A964,,,,opp,,N,ES002942,Orphir,,,,,,,false,UKOS,331145,1004424,-3.19749,58.92154,BCT,CUS,OTH,,,,134,2003-06-06T00:00:00,2011-01-17T12:19:00,6,new,active
6020710314,67523273,,,Clestrain Junction,,,,Road Junction,,A964,,,,opp,,N,ES002942,Orphir,,,,,,,false,UKOS,330207,1007065,-3.21461,58.9451,BCT,CUS,OTH,,,,134,2003-06-06T00:00:00,2011-02-07T11:59:00,7,new,active
6020710315,67523258,,,Scorra Dale Road End,,,,At the foot of Scorradale Brae,,A964,,,,at,,NE,ES002942,Orphir,,,,,,,false,UKOS,333075,1005461,-3.16429,58.93116,BCT,MKD,OTH,,,,134,2003-06-06T00:00:00,2016-02-11T11:44:54,6,new,active
6020710448,67523725,,,Waulkmill Bay Road End,,,,Road End,,A964,,,,at,,W,ES002942,Orphir,,,,,,,false,UKOS,338142,1006836,-3.07668,58.94426,BCT,CUS,OTH,,,,134,2008-08-13T00:00:00,2011-01-17T12:21:00,2,new,active
6020710451,67523728,,,Germiston Road End,,,,Road End,,A964,,,,at,,NE,ES002942,Orphir,,,,,,,false,UKOS,336544,1007054,-3.1045,58.94599,BCT,CUS,OTH,,,,134,2008-08-14T00:00:00,2011-01-17T12:23:00,2,new,active
6020710332,67523567,,,Road End,,,,Junction,,A966,,,,at,,W,N0078259,Newton,,,,,,,false,UKOS,332155,1028689,-3.18744,59.13956,BCT,CUS,OTH,,,,134,2003-06-06T00:00:00,2011-01-17T12:24:00,4,new,active
6020710441,67523694,,,Hornesquoy Road,,,,Hospital,,New Scapa Road,,,,at,,N,ES002219,Kirkwall,,,,,,,false,UKOS,344702,1010322,-2.96357,58.97646,BCT,MKD,OTH,,,,134,2008-07-23T00:00:00,2019-06-10T14:30:54,3,new,active
6020710458,67523738,,,Shop,,,,Shop,,B9050,,,,at,,NE,ES003396,Deerness,,,,,,,false,UKOS,356540,1005382,-2.75672,58.93347,BCT,CUS,OTH,,,,134,2008-08-22T00:00:00,2011-01-14T13:49:00,3,new,active
6020710488,67523789,,,Fairwinds,,,,Houses,,Berstane Loan,,,,opp,,N,ES002219,Kirkwall,,,,,,,false,UKOS,346242,1009991,-2.93671,58.97369,BCT,CUS,OTH,,,,134,2009-12-18T00:00:00,2011-01-17T12:28:00,3,new,active
6020710466,67523749,,,Hatston Park,,,,Bus Shelter,,,,,,at,,SE,ES002219,Kirkwall,,,,,,,false,UKOS,343221,1011973,-2.98975,58.99109,BCT,CUS,OTH,,,,134,2008-09-05T00:00:00,2013-03-01T10:30:42,3,new,active
6020710450,67523727,,,High Street,,,,Hornersquoy,,Wellington Street,,,,after,,E,ES002219,Kirkwall,,,,,,,false,UKOS,344576,1010456,-2.9658,58.97765,BCT,CUS,OTH,,,,134,2008-08-14T00:00:00,2011-01-17T12:32:00,3,new,active
6020710445,67523698,,,Highland Park Car Park,,,,Distillery,,A961,,,,opp,,S,ES002219,Kirkwall,,,,,,,false,UKOS,345227,1009595,-2.95426,58.97,BCT,CUS,OTH,,,,134,2008-08-13T00:00:00,2011-01-17T12:32:00,4,new,active
6020710395,67523465,,,Hordaland,,,,Bignold park,,The Meadows,,,,W-bound,,W,ES002219,Kirkwall,,,,,,,false,UKOS,345520,1010282,-2.94934,58.97621,BCT,CUS,OTH,,,,134,2003-06-09T00:00:00,2011-01-17T12:33:00,5,new,active
6020710327A,67523462,,,Kirklands Road,,,,Quoybanks Crescent Junction,,Quoybanks Crescent,,,,opp,,NE,ES002219,Kirkwall,,,,,,,false,UKOS,345076,1010058,-2.957,58.97414,BCT,CUS,OTH,,,,134,2003-06-06T00:00:00,2011-01-17T12:35:00,6,new,active
6020710446,67523723,,,Langskaill Court,,,,Youth Hostel,,Old Scapa Road,,,,at,,SW,ES002219,Kirkwall,,,,,,,false,UKOS,344329,1010184,-2.97003,58.97518,BCT,MKD,OTH,,,,134,2008-08-13T00:00:00,2016-02-11T12:08:18,3,new,active
6020710325A,67523464,,,Laverock Road,,,,Junction with Laverock Road,,Pipersquoy Road,,,,at,,E,ES002219,Kirkwall,,,,,,,false,UKOS,344862,1010256,-2.96077,58.97589,BCT,CUS,OTH,,,,134,2003-06-06T00:00:00,2011-01-17T12:36:00,7,new,active
6020710437,67523687,,,Lynn Road,,,,Junction with Lynn Road,,Deerness Road,,,,at,,NW,ES002219,Kirkwall,,,,,,,false,UKOS,345696,1009602,-2.94611,58.97013,BCT,CUS,OTH,,,,134,2008-06-11T00:00:00,2011-01-17T12:43:00,2,new,active
6020710494,67523798,,,Ingavoe Drive,,,,Road end,,Berstane Road,,,,opp,,NW,ES002219,Kirkwall,,,,,,,false,UKOS,346303,1010438,-2.93576,58.97771,BCT,MKD,OTH,,,,134,2010-05-10T00:00:00,2016-02-11T12:10:30,3,new,active
6020710307,67523529,,,Shop,,Dounby,,Shop,,,,,,at,,NW,N0067478,Dounby,,,,,,,false,UKOS,329492,1020798,-3.23143,59.06828,BCT,CUS,OTH,,,,134,2003-06-05T00:00:00,2019-01-10T11:35:18,9,new,active
6020710411,67523642,,,Soulisquoy Place,,,,Shelter,,Glaitness Road,,,,opp,,E,ES002219,Kirkwall,,,,,,,false,UKOS,344186,1010501,-2.97259,58.978,BCT,MKD,OTH,,,,134,2008-01-23T00:00:00,2015-07-06T16:28:36,9,new,active
6020710468,67523753,,,Quoybanks Crescent,,,,Top Quoybanks Crescent,,Holm Road,,,,opp,,S,ES002219,Kirkwall,,,,,,,false,UKOS,345291,1010025,-2.95326,58.97387,BCT,CUS,OTH,,,,134,2008-09-05T00:00:00,2011-01-17T12:49:00,2,new,active
6020710942,67525246,,,Airport Terminal,,,,Terminal Building,,Access Road,,,,Taxi Rank,,,N0078254,Kirkwall Airport,Kirkwall,,,,,,false,UKOS,348178,1007703,-2.90251,58.95338,TXR,,,,,,134,2014-07-30T00:00:00,2014-07-31T16:15:06,1,new,active
6020710403,67523629,,,Travel Centre,,,,Travel Centre,,West Castle Street,,,,Stand 3,,,ES002219,Kirkwall,,,,,,,false,UKOS,344798,1011047,-2.96209,58.98299,BCS,,,,,,134,2007-10-26T00:00:00,2011-01-17T12:26:00,5,new,active
6020710482,67523783,,,Kirkwall Hotel,,,,Hotel,,Harbour Street,,,,at,,W,ES002219,Kirkwall,,,,,,,false,UKOS,344984,1011234,-2.9589,58.98469,BCT,CUS,OTH,,,,134,2009-12-15T00:00:00,2018-01-26T14:25:00,2,new,active
6020710823,67524784,,,Carters Park Road,,,,Road End,,Berstane Road,,,,opp,,E,ES002219,Kirkwall,,,,,,,false,UKOS,345421,1011119,-2.95127,58.98371,BCT,CUS,OTH,,,,134,2011-10-04T00:00:00,2015-09-21T15:40:30,1,new,active
6020710934,67525235,,,Ploverhall Road End,,,,Road End,,Aikerskaill Road,,,,opp,,S,ES003396,Deerness,,,,,,,false,UKOS,358186,1005728,-2.72819,58.93674,BCT,CUS,OTH,,,,134,2014-03-25T00:00:00,2014-03-25T15:48:18,0,new,active
6020710935,67525236,,,Barebreck Road End,,,,Road End,,Aikerskaill Road,,,,at,,S,ES003396,Deerness,,,,,,,false,UKOS,358272,1005468,-2.72665,58.93442,BCT,CUS,OTH,,,,134,2014-03-25T00:00:00,2014-03-25T15:55:54,0,new,active
6020710936,67525237,,,Colster Road End,,,,Road End,,Quoys Road,,,,opp,,W,ES003396,Deerness,,,,,,,false,UKOS,358188,1005169,-2.72805,58.93172,BCT,CUS,OTH,,,,134,2014-03-25T00:00:00,2014-03-25T16:01:12,0,new,active
6020710937,67525238,,,Quoys,,,,House,,Quoys Road,,,,opp,,SW,ES003396,Deerness,,,,,,,false,UKOS,357321,1004927,-2.74306,58.92947,BCT,CUS,OTH,,,,134,2014-03-25T00:00:00,2014-03-27T11:30:12,1,new,active
6020710938,67525239,,,Newhouse Road End,,,,Road End,,Newark Road,,,,opp,,NW,ES003396,Deerness,,,,,,,false,UKOS,356682,1005142,-2.7542,58.93133,BCT,CUS,OTH,,,,134,2014-03-25T00:00:00,2014-03-25T16:10:54,0,new,active
6020710943,67525247,,,Post Office,,,,Post Office,,Back Road,,,,at,,NW,ES003370,St Margarets Hope,South Ronaldsay,,,,,,false,UKOS,344658,993540,-2.96015,58.82577,BCT,CUS,OTH,,,,134,2014-09-03T00:00:00,2016-05-09T10:24:00,2,new,active
6020710944,67525248,,,Post Office,,,,Post Office,,Back Road,,,,opp,,SE,ES003370,St Margarets Hope,South Ronaldsay,,,,,,false,UKOS,344663,993552,-2.96007,58.82588,BCT,CUS,OTH,,,,134,2014-09-03T00:00:00,2014-09-05T10:47:24,1,new,active
6020710945,67525249,,,Car Park,,,,Car Park,,Church Road,,,,at,,NW,ES003370,St Margarets Hope,South Ronaldsay,,,,,,false,UKOS,344885,993457,-2.9562,58.82505,BCT,CUS,OTH,,,,134,2014-09-03T00:00:00,2016-05-09T10:23:06,3,new,active
6020710946,67525252,,,Car Park,,,,Car Park,,Church Road,,,,opp,,SE,ES003370,St Margarets Hope,South Ronaldsay,,,,,,false,UKOS,344897,993463,-2.95599,58.82511,BCT,CUS,OTH,,,,134,2014-09-03T00:00:00,2014-09-05T10:46:12,1,new,active
6020711002,67525362,,,Car Park,,,,Car Park,,B9053,,,,opp,,NW,N0078256,Scapa,St Ola,,,,,,false,UKOS,344300,1008571,-2.97012,58.96069,BCT,CUS,OTH,,,,134,2014-12-12T00:00:00,2015-09-22T10:03:54,3,new,active
6020711021,67525389,,,Upper Midgarth,,,,Road End,,Woodwick Road,,,,opp,,NW,ES001323,Rendall,,,,,,,false,UKOS,339746,1023089,-3.05326,59.09043,BCT,CUS,OTH,,,,134,2016-04-14T00:00:00,2016-04-14T16:01:00,0,new,active
6020711022,67525392,,,Woodwick House Road End,,,,,,Woodwick Road,,,,opp,,W,ES001323,Rendall,,,,,,,false,UKOS,338843,1023762,-3.06921,59.09634,BCT,CUS,OTH,,,,134,2016-04-14T00:00:00,2016-04-14T16:04:36,0,new,active
6020710472,67523758,,,Orkney College,,,,College,,East Road,,,,opp,,W,ES002219,Kirkwall,,,,,,,false,UKOS,345625,1011254,-2.94775,58.98495,BCT,CUS,OTH,,,,134,2008-12-22T00:00:00,2011-01-17T12:50:00,2,new,active
6020710398,67523626,,,Meadowbank,,,,Bus shelter,,The Meadows,,,,opp,,SE,ES002219,Kirkwall,,,,,,,false,UKOS,345458,1010612,-2.9505,58.97917,BCT,MKD,OTH,,,,134,2007-11-05T00:00:00,2016-02-08T11:14:18,4,new,active
6020710344,67523435,,,Asgard,,,,Back Road,,Back Road,,,,at,,SW,ES003556,Stromness,,,,,,,false,UKOS,325435,1009351,-3.29828,58.96482,BCT,CUS,OTH,,,,134,2003-06-06T00:00:00,2011-01-17T12:56:00,5,new,active
6020710355,67523294,,,Croval Road,,,,Outertown Road,,Outertown Road,,,,at,,W,ES003556,Stromness,,,,,,,false,UKOS,324877,1009033,-3.30788,58.96187,BCT,CUS,OTH,,,,134,2003-06-09T00:00:00,2014-11-28T11:15:18,8,new,active
6020710343A,67523453,,,Fire Station,,,,North End Road,,North End Road,,,,opp,,SW,ES003556,Stromness,,,,,,,false,UKOS,325657,1009710,-3.29455,58.96808,BCT,CUS,OTH,,,,134,2003-06-06T00:00:00,2011-01-17T13:26:00,5,new,active
6020710340,67523454,,,Garson Drive,,,,Cairston Road,,Cairston Road,,,,at,,SW,ES003556,Stromness,,,,,,,false,UKOS,326046,1009977,-3.28787,58.97055,BCT,CUS,OTH,,,,134,2003-06-06T00:00:00,2011-01-17T13:30:00,5,new,active
6020710348,67523285,,,Guardhouse Park,,,,Guardhouse Park,,Back Road,,,,at,,N,ES003556,Stromness,,,,,,,false,UKOS,325213,1008273,-3.30178,58.9551,BCT,CUS,OTH,,,,134,2003-06-06T00:00:00,2011-01-17T13:31:00,4,new,active
6020710309,67523563,,,Council Houses,,,,Council Houses,,A966,,,,at,,SE,ES001322,Evie,,,,,,,false,UKOS,333817,1028073,-3.15822,59.13429,BCT,CUS,OTH,,,,134,2003-06-05T00:00:00,2011-01-14T13:51:00,5,new,active
6020710339,67523438,,,Hamnavoe Estate,,,,Hamnavoe Estate,,Garson Road,,,,at,,N,ES003556,Stromness,,,,,,,false,UKOS,326266,1009713,-3.28396,58.96821,BCT,MKD,OTH,,,,134,2003-06-06T00:00:00,2016-02-11T10:36:54,7,new,active
6020710347A,67523289,,,Hoymansquoy,,,,Hoymansquoy,,Back Road,,,,at,,NW,ES003556,Stromness,,,,,,,false,UKOS,325201,1008373,-3.30202,58.956,BCT,CUS,OTH,,,,134,2003-06-06T00:00:00,2011-01-17T15:03:00,4,new,active
6020710353,67523425,,,Royal Mail Depot,,,,Academy,,Back Road,,,,opp,,SW,ES003556,Stromness,,,,,,,false,UKOS,325259,1009226,-3.3013,58.96367,BCT,CUS,OTH,,,,134,2003-06-06T00:00:00,2011-01-17T15:10:00,8,new,active
6020710429,67523676,,,Sandwick Road End,,,,Road end,,,,,,opp,,SW,ES003556,Stromness,,,,,,,false,UKOS,326130,1010891,-3.28672,58.97877,BCT,CUS,OTH,,,,134,2008-05-29T00:00:00,2015-03-26T16:44:48,7,new,active
6020710357,67523292,,,St Peters Park,,,,Roundabout,,Back Road,,,,E-bound,,E,ES003556,Stromness,,,,,,,false,UKOS,325069,1008974,-3.30452,58.96137,BCT,CUS,OTH,,,,134,2003-06-09T00:00:00,2011-01-17T15:13:00,5,new,active
6020710341,67523457,,,Swimming Pool,,,,Swimming Pool,,,,,,o/s,,NE,ES003556,Stromness,,,,,,,false,UKOS,325749,1010035,-3.29306,58.97101,BCT,MKD,OTH,,,,134,2003-06-06T00:00:00,2018-01-26T11:54:00,9,new,active
6020710349,67523283,,,Well Park,,,,Well Park,,Back Road,,,,opp,,N,ES003556,Stromness,,,,,,,false,UKOS,325221,1008243,-3.30163,58.95483,BCT,CUS,OTH,,,,134,2003-06-06T00:00:00,2011-01-17T15:34:00,4,new,active
6020710331,67523539,,,Hillside Road,,,,bottom of Hillside Road,,A966,,,,at,,NW,ES001322,Evie,,,,,,,false,UKOS,336461,1025792,-3.11136,59.11422,BCT,CUS,OTH,,,,134,2003-06-06T00:00:00,2011-01-14T14:00:00,4,new,active
6020710319,67523274,,,Road End,,,,Terminal building,,A960,,,,at,,E,N0078254,Kirkwall Airport,Kirkwall,,,,,,false,UKOS,348237,1007659,-2.90147,58.953,BCT,MKD,OTH,,,,134,2003-06-06T00:00:00,2019-07-09T11:09:24,8,new,active
6020710415,67523647,,,School,,,,School,,A966,,,,at,,NW,ES001322,Evie,,,,,,,false,UKOS,337814,1024691,-3.08743,59.10453,BCT,CUS,OTH,,,,134,2008-03-14T00:00:00,2011-01-17T15:36:00,4,new,active
6020710416,67523648,,,Quoyloo Road End,,,,End of Quoyloo Road,,,,,,N-bound,,N,N0078261,Quoyloo,,,,,,,false,UKOS,324288,1021175,-3.32229,59.07077,BCT,CUS,OTH,,,,134,2008-03-14T00:00:00,2011-01-17T15:37:00,9,new,active
6020710417,67523649,,,Junction,,,,Junction marwick bay,,,,,,opp,,S,ES001721,Marwick,,,,,,,false,UKOS,324288,1024079,-3.32329,59.09684,BCT,CUS,OTH,,,,134,2008-03-17T00:00:00,2011-01-17T15:40:00,4,new,active
6020710419,67523653,,,Swannay Farm,,,,Farm,,A966,,,,at,,NE,N0078260,Swannay,,,,,,,false,UKOS,329473,1029074,-3.23443,59.14258,BCT,CUS,OTH,,,,134,2008-03-17T00:00:00,2014-07-23T16:07:00,5,new,active
6020710526,67523868,,,Chocolate Cottage,,,,Cottage,,A966,,,,at,,NE,ES000359,Birsay,,,,,,,false,UKOS,326558,1028148,-3.28505,59.13377,BCT,CUS,OTH,,,,134,2010-11-09T00:00:00,2011-01-17T15:44:00,1,new,active
6020710966,67525282,,,Billia Croo,,,,Road End,,Outertown Road,,,,at,,NW,ES003556,Stromness,,,,,,,false,UKOS,322792,1010474,-3.34462,58.97443,BCT,CUS,OTH,,,,134,2014-11-28T00:00:00,2014-11-28T11:09:54,0,new,active
6020710968,67525284,,,Herston Road End,,,,Road End,,A961,,,,at,,N,ES003369,South Ronaldsay,,,,,,,false,UKOS,344647,991926,-2.95994,58.81127,BCT,CUS,OTH,,,,134,2014-12-10T00:00:00,2014-12-10T14:37:24,0,new,active
6020710969,67525285,,,Herston Road End,,,,Road End,,A961,,,,opp,,S,ES003369,South Ronaldsay,,,,,,,false,UKOS,344661,991934,-2.9597,58.81135,BCT,CUS,OTH,,,,134,2014-12-10T00:00:00,2014-12-10T15:01:42,0,new,active
6020710528,67523872,,,Community Centre,,,,Centre,,,,,,at,,N,ES000359,Birsay,,,,,,,false,UKOS,325326,1026315,-3.30595,59.1171,BCT,CUS,OTH,,,,134,2010-11-09T00:00:00,2011-01-17T15:45:00,1,new,active
6020710971,67525287,,,Wasbister Road End,,,,Road End,,A961,,,,opp,,NW,ES003369,South Ronaldsay,,,,,,,false,UKOS,344306,990040,-2.96537,58.7943,BCT,CUS,OTH,,,,134,2014-12-11T00:00:00,2014-12-11T11:51:00,0,new,active
6020710970,67525286,,,Wasbister Road End,,,,Road End,,A961,,,,at,,SE,ES003369,South Ronaldsay,,,,,,,false,UKOS,344320,990049,-2.96513,58.79438,BCT,CUS,OTH,,,,134,2014-12-10T00:00:00,2014-12-10T15:15:48,0,new,active
6020710973,67525292,,,Lythes Road End,,,,Road End,,A961,,,,opp,,N,ES003369,South Ronaldsay,,,,,,,false,UKOS,344647,989472,-2.95933,58.78924,BCT,CUS,OTH,,,,134,2014-12-11T00:00:00,2014-12-11T12:08:54,0,new,active
6020710972,67525289,,,Lythes Road End,,,,Road End,,A961,,,,at,,S,ES003369,South Ronaldsay,,,,,,,false,UKOS,344664,989474,-2.95904,58.78926,BCT,CUS,OTH,,,,134,2014-12-11T00:00:00,2014-12-11T12:06:48,0,new,active
6020710975,67525294,,,Lower Olad Road End,,,,Road End,,A961,,,,opp,,N,ES003369,South Ronaldsay,,,,,,,false,UKOS,344607,988449,-2.95977,58.78005,BCT,CUS,OTH,,,,134,2014-12-11T00:00:00,2014-12-11T12:33:42,0,new,active
6020710974,67525293,,,Lower Olad Road End,,,,Road End,,A961,,,,at,,S,ES003369,South Ronaldsay,,,,,,,false,UKOS,344623,988450,-2.95949,58.78006,BCT,CUS,OTH,,,,134,2014-12-11T00:00:00,2014-12-11T12:32:12,0,new,active
6020710977,67525296,,,Greenquoy Road End,,,,Road End,,A961,,,,opp,,N,ES003369,South Ronaldsay,,,,,,,false,UKOS,344364,987136,-2.96364,58.76823,BCT,CUS,OTH,,,,134,2014-12-11T00:00:00,2014-12-11T12:39:06,0,new,active
6020710976,67525295,,,Greenquoy Road End,,,,Road End,,A961,,,,at,,S,ES003369,South Ronaldsay,,,,,,,false,UKOS,344379,987135,-2.96339,58.76822,BCT,CUS,OTH,,,,134,2014-12-11T00:00:00,2014-12-11T12:37:12,0,new,active
6020710979,67525298,,,Tomison's Academy,,,,Academy,,A961,,,,opp,,NW,ES003369,South Ronaldsay,,,,,,,false,UKOS,344314,985565,-2.96412,58.75411,BCT,CUS,OTH,,,,134,2014-12-11T00:00:00,2014-12-11T12:46:48,0,new,active
6020710978,67525297,,,Tomison's Academy,,,,Academy,,A961,,,,at,,SE,ES003369,South Ronaldsay,,,,,,,false,UKOS,344320,985578,-2.96402,58.75423,BCT,CUS,OTH,,,,134,2014-12-11T00:00:00,2014-12-11T12:44:42,0,new,active
6020710531,67523875,,,Flaws,,,,Flaws,,A966,,,,at,,E,ES000359,Birsay,,,,,,,false,UKOS,325876,1028038,-3.29693,59.13267,BCT,CUS,OTH,,,,134,2010-11-09T00:00:00,2014-11-05T16:35:06,4,new,active
6020710980,67525323,,,Glebe,,,,Glebe,,A961,,,,at,,N,ES003369,South Ronaldsay,,,,,,,false,UKOS,344349,984589,-2.96327,58.74535,BCT,CUS,OTH,,,,134,2014-12-11T00:00:00,2014-12-11T12:50:06,0,new,active
6020710981,67525324,,,Glebe,,,,Glebe,,A961,,,,opp,,S,ES003369,South Ronaldsay,,,,,,,false,UKOS,344363,984590,-2.96303,58.74536,BCT,CUS,OTH,,,,134,2014-12-11T00:00:00,2014-12-11T12:51:36,0,new,active
6020710983,67525325,,,Quoys Road End,,,,Road End,,B9041,,,,at,,E,ES003369,South Ronaldsay,,,,,,,false,UKOS,345272,984394,-2.94728,58.74372,BCT,CUS,OTH,,,,134,2014-12-11T00:00:00,2014-12-11T14:00:30,0,new,active
6020710984,67525326,,,Quoys Road End,,,,Road End,,B9041,,,,opp,,W,ES003369,South Ronaldsay,,,,,,,false,UKOS,345274,984380,-2.94724,58.7436,BCT,CUS,OTH,,,,134,2014-12-11T00:00:00,2014-12-18T15:01:18,1,new,active
6020710985,67525327,,,Cleat,,,,Cleat,,B9041,,,,at,,E,ES003369,South Ronaldsay,,,,,,,false,UKOS,345751,984476,-2.93902,58.74452,BCT,CUS,OTH,,,,134,2014-12-11T00:00:00,2014-12-11T14:06:42,0,new,active
6020710986,67525328,,,Cleat,,,,Cleat,,B9041,,,,opp,,W,ES003369,South Ronaldsay,,,,,,,false,UKOS,345753,984461,-2.93899,58.74438,BCT,CUS,OTH,,,,134,2014-12-11T00:00:00,2014-12-11T14:14:42,0,new,active
6020710534,67523879,,,Northfield Road End,,,,Road End,,A961,,,,opp,,N,ES000517,Burray,,,,,,,false,UKOS,347794,997775,-2.90684,58.86419,BCT,CUS,OTH,,,,134,2010-11-18T00:00:00,2011-01-17T15:46:00,1,new,active
6020710533,67523878,,,Northfield Road End,,,,Road End,,A961,,,,at,,SW,ES000517,Burray,,,,,,,false,UKOS,347801,997763,-2.90672,58.86408,BCT,CUS,OTH,,,,134,2010-11-18T00:00:00,2011-01-17T15:46:00,1,new,active
6020710930,67524987,,,Navershaw Road End,,,,Road End,,Howe Road,,,,opp,,NE,ES003556,Stromness,,,,,,,false,UKOS,326424,1010167,-3.28136,58.97232,BCT,CUS,OTH,,,,134,2014-03-25T00:00:00,2014-03-25T15:16:42,0,new,active
6020710931,67524989,,,Bu Road End,,,,Road End,,Howe Road,,,,opp,,NE,ES003556,Stromness,,,,,,,false,UKOS,326800,1010435,-3.27492,58.97479,BCT,CUS,OTH,,,,134,2014-03-25T00:00:00,2014-03-25T15:26:42,0,new,active
6020710932,67525232,,,Quoybow,,,,House,,Howe Road,,,,opp,,NE,ES003556,Stromness,,,,,,,false,UKOS,327002,1010657,-3.27148,58.97681,BCT,CUS,OTH,,,,134,2014-03-25T00:00:00,2014-03-25T15:36:18,0,new,active
6020710933,67525234,,,Howe Farm,,,,opp,,Howe Road,,,,opp,,NE,ES003556,Stromness,,,,,,,false,UKOS,327419,1010968,-3.26433,58.97968,BCT,CUS,OTH,,,,134,2014-03-25T00:00:00,2014-03-25T15:41:00,0,new,active
6020710995,67525352,,,Stennegeo,,,,House,,Ireland Road,,,,at,,NE,ES003463,Stenness,,,,,,,false,UKOS,330357,1011342,-3.21335,58.98352,BCT,CUS,OTH,,,,134,2014-12-11T00:00:00,2014-12-11T15:27:30,0,new,active
6020710997,67525354,,,Girvan,,,,House,,Ireland Road,,,,at,,SW,ES003463,Stenness,,,,,,,false,UKOS,329947,1011113,-3.22041,58.9814,BCT,CUS,OTH,,,,134,2014-12-11T00:00:00,2014-12-11T15:41:24,0,new,active
6020711000,67525358,,,Villasquoy,,,,House,,Ireland Road,,,,opp,,NE,ES003463,Stenness,,,,,,,false,UKOS,329709,1010223,-3.22427,58.97337,BCT,CUS,OTH,,,,134,2014-12-11T00:00:00,2014-12-11T15:51:42,0,new,active
6020BWC0,,,,Burwick Sth Ronaldsay Orkney Ferry Terminal,,,,,,,,,,Entrance,,,N0067627,Burwick,South Ronaldsay,,,,,,false,UKOS,343773,983992,-2.97307,58.73992,FTD,,,,,,134,2014-07-31T00:00:00,2014-07-31T16:17:12,0,revise,active
6020EDY0,,,,Eday Orkney Ferry Terminal,,,,,,,,,,Entrance,,,ES001263,Eday,,,,,,,false,UKOS,357367,1030066,-2.74715,59.15521,FTD,,,,,,134,2014-07-31T00:00:00,2014-07-31T16:31:12,0,revise,active
6020EGI0,,,,Egilsay Orkney Ferry Terminal,,,,,,,,,,Entrance,,,ES003212,Egilsay,,,,,,,false,UKOS,346217,1030255,-2.94212,59.15564,FTD,,,,,,134,2014-07-31T00:00:00,2014-07-31T16:31:36,0,revise,active
6020FLH0,,,,Flotta Orkney Ferry Terminal,,,,,,,,,,Entrance,,,ES001403,Flotta,,,,,,,false,UKOS,335001,995024,-3.12779,58.83774,FTD,,,,,,134,2014-07-31T00:00:00,2014-07-31T16:32:06,0,revise,active
6020GAE0,,,,Graemsay Orkney Ferry Terminal,,,,,,,,,,Entrance,,,ES001405,Graemsay,,,,,,,false,UKOS,327144,1005537,-3.26732,58.93087,FTD,,,,,,134,2014-07-31T00:00:00,2014-07-31T16:32:42,0,revise,active
6020HTN0,,,,Houton Orkney Ferry Terminal,,,,,,,,,,Entrance,,,N0078258,Houton,Orphir,,,,,,false,UKOS,331961,1003979,-3.18319,58.91767,FTD,,,,,,134,2014-07-31T00:00:00,2014-07-31T16:33:06,0,revise,active
6020KWH0,,,,Kirkwall Orkney Hatston Ferry Terminal,,,,,,,,,,Entrance,,,N0078255,Hatston,Kirkwall,,,,,,false,UKOS,343773,1012916,-2.98039,58.99963,FTD,,,,,,134,2014-07-31T00:00:00,2014-07-31T16:33:30,0,revise,active
6020KWL0,,,,Kirkwall Orkney Ferry Terminal,,,,,,,,,,Entrance,,,ES002219,Kirkwall,,,,,,,false,UKOS,344949,1011378,-2.95954,58.98598,FTD,,,,,,134,2014-07-31T00:00:00,2014-07-31T16:34:00,0,revise,active
6020KWS0,,,,Kirkwall Shapinsay Ferry Terminal,,,,,,,,,,Entrance,,,ES002219,Kirkwall,,,,,,,false,UKOS,344889,1011271,-2.96056,58.98501,FTD,,,,,,134,2014-08-06T00:00:00,2014-08-06T10:34:30,0,revise,active
6020LHP0,,,,Longhope Orkney Ferry Terminal,,,,,,,,,,Entrance,,,N0067563,Longhope,South Walls,,,,,,false,UKOS,330372,990920,-3.20668,58.80017,FTD,,,,,,134,2014-07-31T00:00:00,2014-07-31T16:35:12,0,revise,active
6020LYS0,,,,Lyness Orkney Ferry Terminal,,,,,,,,,,Entrance,,,N0067564,Lyness,Hoy,,,,,,false,UKOS,331261,994641,-3.19245,58.83372,FTD,,,,,,134,2014-07-31T00:00:00,2014-07-31T16:35:36,0,revise,active
6020NDY0,,,,Sanday Orkney Ferry Terminal,,,,,,,,,,Entrance,,,ES003238,Loth,Sanday,,,,,,false,UKOS,360382,1033937,-2.69514,59.19026,FTD,,,,,,134,2014-07-31T00:00:00,2014-07-31T16:36:06,0,revise,active
6020NHY0,,,,North Hoy Orkney Ferry Terminal,,,,,,,,,,Entrance,,,N0078247,Moaness,Hoy,,,,,,false,UKOS,324496,1003972,-3.31277,58.91636,FTD,,,,,,134,2014-07-31T00:00:00,2014-07-31T16:36:36,0,revise,active
6020NRO0,,,,North Ronaldsay Orkney Ferry Terminal,,,,,,,,,,Entrance,,,ES002880,North Ronaldsay,,,,,,,false,UKOS,375022,1052334,-2.44106,59.35658,FTD,,,,,,134,2014-07-31T00:00:00,2014-07-31T16:37:06,0,revise,active
6020PWL0,,,,Westray Pierowall Orkney Ferry Terminal,,,,,,,,,,Entrance,,,N0078245,Pierowall,Westray,,,,,,false,UKOS,344687,1049027,-2.97366,59.32399,FTD,,,,,,134,2014-08-01T00:00:00,2014-08-01T10:41:00,0,revise,active
6020PWY0,,,,Papa Westray Orkney Ferry Terminal,,,,,,,,,,Entrance,,,ES003839,Papa Westray,,,,,,,false,UKOS,349457,1049326,-2.88993,59.32727,FTD,,,,,,134,2014-08-01T00:00:00,2014-08-01T10:53:18,0,revise,active
6020RAP0,,,,Rapness Orkney Ferry Terminal,,,,,,,,,,Entrance,,,ES003838,Rapness,Westray,,,,,,false,UKOS,351011,1040597,-2.86064,59.24908,FTD,,,,,,134,2014-08-01T00:00:00,2014-08-01T10:53:48,0,revise,active
6020ROU0,,,,Rousay Orkney Ferry Terminal,,,,,,,,,,Entrance,,,ES003210,Rousay,,,,,,,false,UKOS,343637,1027500,-2.98651,59.13057,FTD,,,,,,134,2014-08-01T00:00:00,2014-08-01T10:54:18,0,revise,active
6020SMH0,,,,St Margarets Hope Ferry Terminal,,,,,,,,,,Entrance,,,ES003370,St Margarets Hope,South Ronaldsay,,,,,,false,UKOS,344511,994248,-2.96287,58.83211,FTD,,,,,,134,2014-08-06T00:00:00,2014-08-06T10:34:00,0,revise,active
6020SNS0,,,,Stromness Orkney Ferry Terminal,,,,,,,,,,Entrance,,,ES003556,Stromness,,,,,,,false,UKOS,325609,1009299,-3.29524,58.96438,FTD,,,,,,134,2014-08-01T00:00:00,2014-08-01T10:55:18,0,revise,active
6020SPY0,,,,Shapinsay Orkney Ferry Terminal,,,,,,,,,,Entrance,,,ES003291,Balfour,Shapinsay,,,,,,false,UKOS,347913,1016434,-2.90918,59.03175,FTD,,,,,,134,2014-08-01T00:00:00,2014-08-01T10:55:42,0,revise,active
6020STY0,,,,Stronsay Orkney Ferry Terminal,,,,,,,,,,Entrance,,,ES003564,Whitehall,Stronsay,,,,,,false,UKOS,365925,1028474,-2.59728,59.14169,FTD,,,,,,134,2014-08-01T00:00:00,2014-08-01T10:56:06,0,revise,active
6020TWL0,,,,Tingwall Orkney Ferry Terminal,,,,,,,,,,Entrance,,,N0078264,Tingwall,Rendall,,,,,,false,UKOS,340288,1022915,-3.04376,59.08894,FTD,,,,,,134,2014-08-01T00:00:00,2014-08-01T10:56:42,0,revise,active
6020WYR0,,,,Wyre Orkney Ferry Terminal,,,,,,,,,,Entrance,,,N0077286,Wyre,,,,,,,false,UKOS,344410,1026802,-2.97283,59.1244,FTD,,,,,,134,2014-08-01T00:00:00,2014-08-01T10:57:24,0,revise,active
6020710785,67524698,,,Norwood,,,,Norwood,,Scorradale Road,,,,at,,SE,ES002942,Orphir,,,,,,,false,UKOS,330859,1006423,-3.20308,58.93944,BCT,CUS,OTH,,,,134,2011-02-02T00:00:00,2011-02-02T16:46:00,0,new,active
6020710787,67524724,,,Kimberely,,,,Kimberely,,,,,,opp,,NE,N0067496,Finstown,Firth,,,,,,false,UKOS,335228,1013993,-3.12941,59.00809,BCT,CUS,OTH,,,,134,2011-02-02T00:00:00,2011-02-03T09:35:00,1,new,active
6020710702,67524542,,,Hundland Schoolhouse,,,,Schoolhouse,,Hundland Road,,,,opp,,SW,N0078260,Swannay,,,,,,,false,UKOS,329020,1027198,-3.24173,59.12566,BCT,CUS,OTH,,,,134,2011-01-27T00:00:00,2011-01-28T16:16:00,1,new,active
6020710784,67524697,,,Glenrae Road End,,,,Road End,,Scorradale Road,,,,at,,SE,ES002942,Orphir,,,,,,,false,UKOS,331498,1005918,-3.19182,58.93501,BCT,CUS,OTH,,,,134,2011-02-02T00:00:00,2011-02-02T16:45:00,0,new,active
6020710700,67524538,,,Setter Road End,,,,Road End,,Hundland Road,,,,opp,,S,N0078260,Swannay,,,,,,,false,UKOS,329461,1027568,-3.23415,59.12906,BCT,CUS,OTH,,,,134,2011-01-27T00:00:00,2011-01-28T16:15:00,1,new,active
6020710699,67524537,,,Ludenhill Road End,,,,Road End,,Hundland Road,,,,opp,,N,N0078260,Swannay,,,,,,,false,UKOS,329401,1028360,-3.23545,59.13616,BCT,CUS,OTH,,,,134,2011-01-25T00:00:00,2011-01-28T16:14:00,1,new,active
6020710783,67524696,,,Culdigo Road End,,,,Road End,,Scorradale Road,,,,opp,,SE,ES002942,Orphir,,,,,,,false,UKOS,331765,1005511,-3.18706,58.9314,BCT,CUS,OTH,,,,134,2011-02-02T00:00:00,2011-02-02T16:44:00,0,new,active
6020710720,67524576,,,Newhouse Road End,,,,Road End,,,,,,at,,SW,N0067478,Dounby,,,,,,,false,UKOS,328970,1020271,-3.24036,59.06346,BCT,CUS,OTH,,,,134,2011-01-28T00:00:00,2011-01-28T16:21:00,1,new,active
6020710782,67524695,,,Scorralee Road End,,,,Road End,,Scorradale Road,,,,opp,,E,ES002942,Orphir,,,,,,,false,UKOS,332780,1005359,-3.16939,58.93019,BCT,CUS,OTH,,,,134,2011-02-02T00:00:00,2011-02-07T11:31:00,1,new,active
6020710718,67524574,,,Curcabreck,,,,Curcabreck,,,,,,opp,,SW,N0067478,Dounby,,,,,,,false,UKOS,329219,1020396,-3.23606,59.06463,BCT,CUS,OTH,,,,134,2011-01-28T00:00:00,2011-01-28T16:21:00,1,new,active
6020710781,67524694,,,Sower Road End,,,,Road End,,A964,,,,opp,,S,N0078258,Houton,Orphir,,,,,,false,UKOS,330264,1006299,-3.21338,58.93823,BCT,CUS,OTH,,,,134,2011-02-02T00:00:00,2011-02-03T09:35:00,1,new,active
6020710716,67524572,,,Wattle,,,,Wattle,,Wattle Road,,,,at,,W,ES000359,Birsay,,,,,,,false,UKOS,326057,1027411,-3.29355,59.12707,BCT,CUS,OTH,,,,134,2011-01-28T00:00:00,2011-01-28T16:20:00,1,new,active
6020710793,67524732,,,Woodbine,,,,Woodbine,,,,,,opp,,E,ES003463,Stenness,,,,,,,false,UKOS,329642,1011622,-3.22588,58.98592,BCT,CUS,OTH,,,,134,2011-02-03T00:00:00,2011-02-03T09:37:00,1,new,active
6020710726,67524585,,,Hackland,,,,Hackland,,,,,,at,,S,ES003246,Sandwick,,,,,,,false,UKOS,327702,1019423,-3.26218,59.05564,BCT,CUS,OTH,,,,134,2011-01-28T00:00:00,2011-01-28T16:23:00,2,new,active
6020710744,67524632,,,Graeme Park,,,,Shelter,,A961,,,,at,,E,ES001775,St Marys,Holm,,,,,,false,UKOS,347305,1001274,-2.91615,58.89555,BCT,CUS,OTH,,,,134,2011-01-31T00:00:00,2011-01-31T12:00:00,1,new,active
6020710724,67524583,,,Decca Station Houses,,,,Houses,,,,,,at,,SW,N0067478,Dounby,,,,,,,false,UKOS,328599,1019981,-3.24673,59.0608,BCT,CUS,OTH,,,,134,2011-01-28T00:00:00,2011-01-28T16:22:00,1,new,active
6020710743,67524629,,,Grind Road End,,,,Road End,,Lyking Road,,,,at,,E,ES003246,Sandwick,,,,,,,false,UKOS,325774,1015217,-3.29437,59.01754,BCT,CUS,OTH,,,,134,2011-01-28T00:00:00,2011-01-28T16:28:00,1,new,active
6020710722,67524579,,,West Waterhall,,,,West Waterhall,,,,,,at,,SW,N0067478,Dounby,,,,,,,false,UKOS,328814,1020092,-3.24302,59.06183,BCT,CUS,OTH,,,,134,2011-01-28T00:00:00,2011-01-28T16:22:00,1,new,active
6020710741,67524627,,,Easter Voy Cottage,,,,Cottage,,Lyking Road,,,,opp,,SE,ES003246,Sandwick,,,,,,,false,UKOS,326162,1015155,-3.28759,59.01705,BCT,CUS,OTH,,,,134,2011-01-28T00:00:00,2011-01-28T16:27:00,1,new,active
6020710708,67524549,,,Midhouse Road End,,,,Road End,,Wattle Road,,,,at,,NW,ES000359,Birsay,,,,,,,false,UKOS,327491,1026453,-3.26819,59.11872,BCT,CUS,OTH,,,,134,2011-01-28T00:00:00,2011-01-28T16:18:00,1,new,active
6020710739,67524625,,,Upper Lyking Road End,,,,Road End,,Lyking Road,,,,at,,E,ES003246,Sandwick,,,,,,,false,UKOS,326562,1015100,-3.28061,59.01663,BCT,CUS,OTH,,,,134,2011-01-28T00:00:00,2011-01-28T16:27:00,1,new,active
6020710706,67524547,,,Whiclath Road End,,,,Road End,,Wattle Road,,,,at,,NW,ES000359,Birsay,,,,,,,false,UKOS,328040,1026188,-3.25852,59.11643,BCT,CUS,OTH,,,,134,2011-01-28T00:00:00,2011-01-28T16:17:00,1,new,active
6020710750,67524639,,,Erracht,,,,Erracht,,A961,,,,at,,SE,ES001774,Holm,,,,,,,false,UKOS,346269,1004582,-2.93493,58.92512,BCT,CUS,OTH,,,,134,2011-02-02T00:00:00,2011-02-03T09:18:00,1,new,active
6020710704,67524545,,,New Insabysetter,,,,New Insabysetter,,Hundland Road,,,,at,,SE,ES000359,Birsay,,,,,,,false,UKOS,328813,1026334,-3.24507,59.11787,BCT,CUS,OTH,,,,134,2011-01-27T00:00:00,2011-01-28T16:17:00,1,new,active
6020710749,67524638,,,Rashieburn Road End,,,,Road End,,A961,,,,opp,,NW,ES001774,Holm,,,,,,,false,UKOS,345950,1005048,-2.94058,58.92927,BCT,CUS,OTH,,,,134,2011-02-02T00:00:00,2011-02-03T09:17:00,1,new,active
6020710714,67524568,,,Meran Road End,,,,Road End,,Wattle Road,,,,opp,,NW,ES000359,Birsay,,,,,,,false,UKOS,326394,1027280,-3.28762,59.12595,BCT,CUS,OTH,,,,134,2011-01-28T00:00:00,2011-01-28T16:19:00,1,new,active
6020710747,67524636,,,Dalespot,,,,Dalespot,,A961,,,,opp,,NW,ES002220,St Ola,,,,,,,false,UKOS,345251,1006966,-2.95319,58.9464,BCT,CUS,OTH,,,,134,2011-02-02T00:00:00,2011-02-03T09:17:00,1,new,active
6020710712,67524565,,,Lylie,,,,Lylie,,Wattle Road,,,,at,,NW,ES000359,Birsay,,,,,,,false,UKOS,326793,1027176,-3.28062,59.12509,BCT,CUS,OTH,,,,134,2011-01-28T00:00:00,2011-01-28T16:19:00,1,new,active
6020710745,67524634,,,Station Square,,,,Bus Stop,,A961,,,,opp,,W,ES001775,St Marys,Holm,,,,,,false,UKOS,347660,1001362,-2.91001,58.89638,BCT,MKD,OTH,,,,134,2011-01-31T00:00:00,2011-01-31T12:01:00,1,new,active
6020710710,67524563,,,Lower Braehead,,,,Lower Braehead,,Wattle Road,,,,at,,NW,ES000359,Birsay,,,,,,,false,UKOS,327129,1026654,-3.27458,59.12046,BCT,CUS,OTH,,,,134,2011-01-28T00:00:00,2011-02-07T12:00:00,2,new,active
6020710732,67524594,,,Skithva Road End,,,,Road End,,,,,,opp,,SE,ES003246,Sandwick,,,,,,,false,UKOS,326804,1016234,-3.27677,59.02685,BCT,CUS,OTH,,,,134,2011-01-28T00:00:00,2011-01-28T16:24:00,1,new,active
6020710731,67524593,,,Vetquoy Cottage,,,,Cottage,,,,,,opp,,NE,ES003246,Sandwick,,,,,,,false,UKOS,327050,1018916,-3.27338,59.05097,BCT,CUS,OTH,,,,134,2011-01-28T00:00:00,2011-01-28T16:24:00,1,new,active
6020710809,67524754,,,Upper Midgarth,,,,Road End,,Minor Road,,,,at,,SE,ES001323,Rendall,,,,,,,false,UKOS,339757,1023098,-3.05307,59.09051,BCT,CUS,OTH,,,,134,2011-09-22T00:00:00,2016-04-14T16:08:30,2,new,active
6020711020,67525387,,,Cromarty Hall,,,,Hall,,Cromarty Square,,,,opp,,N,ES003370,St Margarets Hope,South Ronaldsay,,,,,,false,UKOS,344593,993545,-2.96128,58.82581,BCT,CUS,OTH,,,,134,2016-04-14T00:00:00,2016-04-14T14:07:12,1,new,active
6020711019,67525386,,,Doctors Road End,,,,Road End,,St Margaret's Road,,,,at,,N,ES003370,St Margarets Hope,South Ronaldsay,,,,,,false,UKOS,344595,993387,-2.9612,58.82439,BCT,CUS,OTH,,,,134,2016-04-14T00:00:00,2016-04-14T11:08:30,0,new,active
6020710729,67524589,,,Kirkness Road End,,,,Road End,,,,,,opp,,NE,ES003246,Sandwick,,,,,,,false,UKOS,327506,1019145,-3.26551,59.05311,BCT,CUS,OTH,,,,134,2011-01-28T00:00:00,2011-01-28T16:23:00,1,new,active
6020710808,67524753,,,Woodwick House Road End,,,,Road End,,Minor Road,,,,at,,E,ES001323,Rendall,,,,,,,false,UKOS,338850,1023778,-3.06909,59.09648,BCT,CUS,OTH,,,,134,2011-09-22T00:00:00,2016-04-14T16:06:12,2,new,active
6020711017,67525384,,,Papdale Hostel,,,,Hostel,,Papdale Road,,,,at,,NW,ES002219,Kirkwall,,,,,,,false,UKOS,345681,1010878,-2.94669,58.98158,BCT,CUS,OTH,,,,134,2016-04-06T00:00:00,2016-04-06T10:22:18,0,new,active
6020710737,67524623,,,Lyking,,,,Lyking,,Lyking Road,,,,at,,E,ES003246,Sandwick,,,,,,,false,UKOS,327436,1015101,-3.26539,59.01679,BCT,CUS,OTH,,,,134,2011-01-28T00:00:00,2011-01-28T16:26:00,1,new,active
6020710420,67523654,,,Ferry terminal,,,,Pier,,Pier Road,,,,at,,S,ES003370,St Margarets Hope,South Ronaldsay,,,,,,false,UKOS,344534,994267,-2.96248,58.83228,BCT,CUS,OTH,,,,134,2008-03-28T00:00:00,2015-06-23T11:42:42,5,new,active
6020710735,67524597,,,Clairness,,,,Clairness,,,,,,at,,NW,ES003246,Sandwick,,,,,,,false,UKOS,327867,1015181,-3.25792,59.01758,BCT,CUS,OTH,,,,134,2011-01-28T00:00:00,2011-01-28T16:26:00,1,new,active
6020710424,67523659,,,Rennibister,,,,Rennibister Road end,,,,,,opp,,W,ES001394,Firth,,,,,,,false,UKOS,339771,1012329,-3.04987,58.99382,BCT,CUS,OTH,,,,134,2008-04-09T00:00:00,2013-03-01T10:29:06,4,new,active
6020710768,67524675,,,Exchange Cottage,,,,Cottage,,A964,,,,at,,W,N0078258,Houton,Orphir,,,,,,false,UKOS,332161,1004181,-3.17978,58.91952,BCT,CUS,OTH,,,,134,2011-02-02T00:00:00,2011-02-03T09:31:00,1,new,active
6020710767,67524674,,,Gyre Road End,,,,Road End,,A964,,,,opp,,NE,N0078258,Houton,Orphir,,,,,,false,UKOS,332688,1004268,-3.17065,58.92038,BCT,CUS,OTH,,,,134,2011-02-02T00:00:00,2011-02-03T09:30:00,1,new,active
6020710765,67524672,,,Nealand,,,,Nealand,,A964,,,,opp,,NE,ES002942,Orphir,,,,,,,false,UKOS,332978,1004962,-3.16583,58.92666,BCT,CUS,OTH,,,,134,2011-02-02T00:00:00,2011-02-03T09:30:00,1,new,active
6020710773,67524683,,,Cumminess Road End,,,,Road End,,A964,,,,at,,NW,ES003463,Stenness,,,,,,,false,UKOS,328741,1010564,-3.24121,58.97627,BCT,CUS,OTH,,,,134,2011-02-02T00:00:00,2011-02-03T09:32:00,1,new,active
6020710771,67524679,,,Deepdale Cottage,,,,Cottage,,,,,,opp,,E,ES003556,Stromness,,,,,,,false,UKOS,326723,1011804,-3.27671,58.98706,BCT,CUS,OTH,,,,134,2011-02-02T00:00:00,2019-07-04T10:27:00,2,new,active
6020710756,67524648,,,Commodore Motel,,,,Motel,,A961,,,,at,,E,ES001775,St Marys,Holm,,,,,,false,UKOS,348032,1001299,-2.90354,58.89586,BCT,CUS,OTH,,,,134,2011-02-02T00:00:00,2013-03-01T10:34:36,2,new,active
6020710433,67523683,,,Earl Thorfinn Street,,,,Junction with Earl Thorfinn street,,Clay Loan,,,,at,,W,ES002219,Kirkwall,,,,,,,false,UKOS,345045,1010484,-2.95765,58.97796,BCT,CUS,OTH,,,,134,2008-06-11T00:00:00,2010-04-13T11:22:00,2,new,active
6020710755,67524647,,,Ferryhouse Road End,,,,Road End,,A961,,,,at,,NW,ES001775,St Marys,Holm,,,,,,false,UKOS,347075,1001404,-2.92017,58.89669,BCT,CUS,OTH,,,,134,2011-02-02T00:00:00,2011-02-03T09:22:00,1,new,active
6020710436,67523686,,,Wideford Cottages,,,,Cottages,,A960,,,,opp,,E,ES002220,St Ola,,,,,,,false,UKOS,346138,1008620,-2.93819,58.96136,BCT,CUS,OTH,,,,134,2008-06-11T00:00:00,2011-01-14T14:30:00,2,new,active
6020710753,67524645,,,Kirkbreck Road End,,,,Road End,,A961,,,,at,,NW,ES001774,Holm,,,,,,,false,UKOS,346776,1003212,-2.92579,58.91288,BCT,CUS,OTH,,,,134,2011-02-02T00:00:00,2011-02-03T09:19:00,1,new,active
6020710426,67523673,,,Tormiston Mill,,,,Mill,,,,,,opp,,NE,ES003463,Stenness,,,,,,,false,UKOS,331920,1012575,-3.18655,58.99485,BCT,CUS,OTH,,,,134,2008-04-10T00:00:00,2014-09-01T10:52:00,5,new,active
6020710759,67524653,,,Italian Chapel Road End,,,,Chapel,,A961,,,,opp,,N,N0078251,Lamb Holm,,,,,,,false,UKOS,348485,1000564,-2.89551,58.88932,BCT,CUS,OTH,,,,134,2011-02-02T00:00:00,2011-02-07T12:00:00,2,new,active
6020710428,67523675,,,Ring of Brodgar Road End,,,,Road End,,,,,,at,,NE,ES003463,Stenness,,,,,,,false,UKOS,331142,1012033,-3.19991,58.98986,BCT,CUS,OTH,,,,134,2008-04-10T00:00:00,2011-01-14T14:28:00,3,new,active
6020710697,67524535,,,Academy,,,,Academy,,Garson Road,,,,at,,N,ES003556,Stromness,,,,,,,false,UKOS,326274,1009877,-3.28388,58.96969,BCT,CUS,OTH,,,,134,2011-01-05T00:00:00,2011-01-05T10:58:00,0,new,active
6020710430,67523678,,,Sandwick Road End,,,,Road End,,,,,,at,,NE,ES003556,Stromness,,,,,,,false,UKOS,326114,1010898,-3.287,58.97883,BCT,CUS,OTH,,,,134,2008-04-11T00:00:00,2015-03-26T16:45:12,7,new,active
6020710431,67523679,,,Bloomfield South Road End,,,,Road End,,A964,,,,opp,,SW,ES002220,St Ola,,,,,,,false,UKOS,342360,1008534,-3.00384,58.9601,BCT,CUS,OTH,,,,134,2008-04-11T00:00:00,2011-01-14T14:30:00,5,new,active
6020710394,67523484,,,Hatston Bus Garage,,,,Garage,,Crowness Crescent,,,,at,,E,ES002219,Kirkwall,,,,,,,false,UKOS,343971,1011633,-2.97662,58.98814,BCT,MKD,OTH,,,,134,2003-06-09T00:00:00,2010-04-13T13:20:00,2,new,active
6020710684,67524394,,,Waverley,,,,Waverley,,A966,,,,opp,,W,N0078260,Swannay,,,,,,,false,UKOS,328537,1028966,-3.25075,59.14146,BCT,CUS,OTH,,,,134,2010-12-08T00:00:00,2011-01-18T14:22:00,1,new,active
6020710395A,67523467,,,Hordaland,,,,Park,,The Meadows,,,,before,,E,ES002219,Kirkwall,,,,,,,false,UKOS,345509,1010293,-2.94953,58.97631,BCT,CUS,OTH,,,,134,2003-06-09T00:00:00,2011-01-17T12:33:00,4,new,active
6020710678,67524385,,,Orquil Road,,,,Ordquil Road,,A964,,,,opp,,S,ES002220,St Ola,,,,,,,false,UKOS,343992,1009622,-2.97574,58.97009,BCT,MKD,OTH,,,,134,2010-12-08T00:00:00,2018-10-30T12:36:48,3,new,active
6020710679,67524386,,,Twartquoy,,,,Twartquoy,,A964,,,,at,,NE,ES002220,St Ola,,,,,,,false,UKOS,340034,1007156,-3.04389,58.94741,BCT,CUS,OTH,,,,134,2010-12-08T00:00:00,2011-01-18T14:21:00,1,new,active
6020710408,67523637,,,Harray Road End,,,,Road End,,,,,,opp,,W,ES000360,Harray,,,,,,,false,UKOS,333851,1013681,-3.15328,59.00508,BCT,MKD,OTH,,,,134,2007-11-23T00:00:00,2016-02-11T10:28:48,4,new,active
6020710681,67524389,,,Howe Road End,,,,Howe Road End,,,,,,at,,NW,ES003556,Stromness,,,,,,,false,UKOS,327747,1011316,-3.25874,58.98286,BCT,CUS,OTH,,,,134,2010-12-08T00:00:00,2015-01-21T12:49:24,2,new,active
6020710410,67523639,,,Garage,,,,Petrol station,,,,,,opp,,W,ES003463,Stenness,,,,,,,false,UKOS,330498,1011707,-3.21101,58.98682,BCT,MKD,OTH,,,,134,2007-11-23T00:00:00,2021-12-10T08:08:44,10,new,active
6020710691,67524525,,,Cursiter Cottage,,,,Cottage,,A967,,,,at,,S,N0067647,Twatt,,,,,,,false,UKOS,326919,1022271,-3.27678,59.08107,BCT,CUS,OTH,,,,134,2010-12-08T00:00:00,2011-01-18T14:26:00,1,new,active
6020710693,67524527,,,Lochlands Chalets,,,,Chalets,,,,,,at,,NW,N0067647,Twatt,,,,,,,false,UKOS,328101,1022876,-3.25636,59.08671,BCT,CUS,OTH,,,,134,2010-12-08T00:00:00,2011-01-18T14:26:00,1,new,active
6020710438,67523689,,,Lynn Road,,,,Junction with Lynn Road,,Deerness Road,,,,opp,,SE,ES002219,Kirkwall,,,,,,,false,UKOS,345703,1009617,-2.94599,58.97026,BCT,CUS,OTH,,,,134,2008-06-11T00:00:00,2011-01-17T12:43:00,3,new,active
6020710695,67524529,,,Loons Road End,,,,Road End,,,,,,at,,NW,N0067647,Twatt,,,,,,,false,UKOS,326798,1024438,-3.27962,59.10051,BCT,CUS,OTH,,,,134,2010-12-08T00:00:00,2014-09-26T10:47:06,2,new,active
6020710690,67524524,,,Castlehill,,,,Castlehill,,,,,,opp,,NW,N0067647,Twatt,,,,,,,false,UKOS,326496,1025424,-3.28522,59.10931,BCT,CUS,OTH,,,,134,2010-12-08T00:00:00,2019-07-05T11:32:18,2,new,active
6020710674,67524379,,,Heathery Loan West End,,,,Heathery Loan West End,,A961,,,,opp,,N,ES002220,St Ola,,,,,,,false,UKOS,344969,1008848,-2.95856,58.96326,BCT,CUS,OTH,,,,134,2010-12-08T00:00:00,2011-01-18T14:19:00,1,new,active
6020710467,67523752,,,Barony Mill,,,,Mill,,A967,,,,at,,N,ES000359,Birsay,,,,,,,false,UKOS,325532,1027462,-3.30274,59.12744,BCT,CUS,OTH,,,,134,2008-09-05T00:00:00,2011-01-14T11:55:00,3,new,active
6020710685,67524395,,,Garralanga Road End,,,,Road End,,A960,,,,at,,NW,N0078253,Tankerness,,,,,,,false,UKOS,351428,1004901,-2.84541,58.9286,BCT,CUS,OTH,,,,134,2010-12-08T00:00:00,2011-01-18T14:23:00,1,new,active
6020710469,67523754,,,Quoybanks Crescent,,,,Top of Quoybanks Crescent,,Holm Road,,,,at,,N,ES002219,Kirkwall,,,,,,,false,UKOS,345284,1010002,-2.95337,58.97367,BCT,CUS,OTH,,,,134,2008-09-05T00:00:00,2011-01-17T12:49:00,2,new,active
6020710484,67523785,,,Passenger Terminal,,,,Terminal Building,,Pier,,,,at,,NW,N0078255,Hatston,Kirkwall,,,,,,false,UKOS,344134,1012945,-2.97412,58.99994,BCT,CUS,OTH,,,,134,2009-12-16T00:00:00,2010-04-12T14:44:00,1,new,active
6020710485,67523792,,,Orkney College,,,,College,,East Road,,,,at,,E,ES002219,Kirkwall,,,,,,,false,UKOS,345622,1011270,-2.94781,58.98509,BCT,MKD,OTH,,,,134,2009-12-17T00:00:00,2016-02-11T12:04:18,3,new,active
6020710486,67523786,,,Ayre Hotel,,,,Hotel,,Harbour Street,,,,at,,W,ES002219,Kirkwall,,,,,,,false,UKOS,344770,1011224,-2.96262,58.98457,BCT,CUS,OTH,,,,134,2009-12-16T00:00:00,2018-01-26T15:39:36,2,new,active
6020710687,67524397,,,Old Voy Road End,,,,Road End,,A960,,,,at,,NW,ES003397,Toab,,,,,,,false,UKOS,352746,1003849,-2.82229,58.91931,BCT,CUS,OTH,,,,134,2010-12-08T00:00:00,2011-01-18T14:24:00,1,new,active
6020710483,67523784,,,Long Stay Car Park,,,,Car Park,,Hatston Pier Road,,,,at,,SW,N0078255,Hatston,Kirkwall,,,,,,false,UKOS,343656,1012878,-2.98242,58.99928,BCT,CUS,OTH,,,,134,2009-12-16T00:00:00,2018-02-02T11:12:06,2,new,active
6020710464,67523747,,,Pulkitto,,,,End of Woodwick Road,,A966,,,,opp,,NW,ES001323,Rendall,,,,,,,false,UKOS,338560,1023721,-3.07413,59.09593,BCT,CUS,OTH,,,,134,2008-08-25T00:00:00,2016-04-21T16:46:36,3,new,active
6020710647,67524342,,,Newburgh,,,,Newburgh,,,,,,at,,N,ES003246,Sandwick,,,,,,,false,UKOS,325953,1011976,-3.29016,58.98848,BCT,CUS,OTH,,,,134,2010-12-06T00:00:00,2011-01-18T12:14:00,1,new,active
6020710646,67524329,,,Mill of Rango,,,,Mill of Rango,,,,,,opp,,S,ES003246,Sandwick,,,,,,,false,UKOS,326561,1018124,-3.28164,59.04378,BCT,CUS,OTH,,,,134,2010-12-06T00:00:00,2011-01-18T12:13:00,2,new,active
6020710447,67523724,,,Langskaill Court,,,,Youth Hostel,,Old Scapa Road,,,,opp,,NE,ES002219,Kirkwall,,,,,,,false,UKOS,344313,1010187,-2.9703,58.9752,BCT,CUS,OTH,,,,134,2008-08-13T00:00:00,2011-01-17T12:35:00,2,new,active
6020710644,67524327,,,Linklater Cottage,,,,Coattage,,A967,,,,opp,,S,ES003246,Sandwick,,,,,,,false,UKOS,326745,1021150,-3.27944,59.07098,BCT,CUS,OTH,,,,134,2010-12-06T00:00:00,2011-01-18T12:11:00,1,new,active
6020710449,67523726,,,Waulkmill Bay Road End,,,,Road End,,A964,,,,opp,,E,ES002942,Orphir,,,,,,,false,UKOS,338144,1006852,-3.07665,58.94441,BCT,CUS,OTH,,,,134,2008-08-13T00:00:00,2011-01-17T12:21:00,2,new,active
6020710653,67524349,,,Redland Road End,,,,Road End,,,,,,at,,S,ES003246,Sandwick,,,,,,,false,UKOS,326290,1013450,-3.28479,59.00177,BCT,CUS,OTH,,,,134,2010-12-06T00:00:00,2011-01-18T12:15:00,1,new,active
6020710652,67524348,,,Quholmslie,,,,Quholmslie,,,,,,opp,,N,ES003246,Sandwick,,,,,,,false,UKOS,325800,1012789,-3.2931,58.99575,BCT,CUS,OTH,,,,134,2010-12-06T00:00:00,2011-01-18T12:15:00,1,new,active
6020710650,67524346,,,Queena,,,,Queena,,,,,,opp,,SW,ES003246,Sandwick,,,,,,,false,UKOS,326134,1016710,-3.2886,59.03101,BCT,CUS,OTH,,,,134,2010-12-06T00:00:00,2011-01-18T12:14:00,1,new,active
6020710442,67523695,,,High Street,,,,Hornersquoy,,Wellington Street,,,,before,,W,ES002219,Kirkwall,,,,,,,false,UKOS,344585,1010442,-2.96564,58.97753,BCT,CUS,OTH,,,,134,2008-08-13T00:00:00,2011-01-17T12:32:00,2,new,active
6020710443,67523696,,,Highland Park Car Park,,,,Distillery,,A961,,,,at,,N,ES002219,Kirkwall,,,,,,,false,UKOS,345210,1009592,-2.95456,58.96997,BCT,CUS,OTH,,,,134,2008-08-13T00:00:00,2011-01-17T12:32:00,3,new,active
6020710444,67523697,,,Supermarkets,,,,Supermarket,,,,,,at,,NW,ES002219,Kirkwall,,,,,,,false,UKOS,344592,1010780,-2.9656,58.98056,BCT,CUS,OTH,,,,134,2008-08-13T00:00:00,2010-04-14T14:54:00,1,new,active
6020710642,67524325,,,Kirbister Road End,,,,Road End,,,,,,opp,,SE,ES003246,Sandwick,,,,,,,false,UKOS,325389,1014743,-3.30091,59.01322,BCT,CUS,OTH,,,,134,2010-12-06T00:00:00,2011-01-18T12:10:00,1,new,active
6020710635,67524294,,,East Aith Junction,,,,Junction,,,,,,at,,S,ES003246,Sandwick,,,,,,,false,UKOS,324946,1017785,-3.30966,59.04045,BCT,CUS,OTH,,,,134,2010-12-06T00:00:00,2013-03-01T10:33:42,2,new,active
6020710459,67523739,,,Shop,,,,Shop,,B9050,,,,opp,,SW,ES003396,Deerness,,,,,,,false,UKOS,356551,1005371,-2.75652,58.93338,BCT,CUS,OTH,,,,134,2008-08-22T00:00:00,2011-01-14T13:49:00,3,new,active
6020710634,67524293,,,Community Centre Road End,,,,Road End,,,,,,opp,,S,ES003246,Sandwick,,,,,,,false,UKOS,326607,1018741,-3.28104,59.04933,BCT,CUS,OTH,,,,134,2010-12-06T00:00:00,2011-01-18T11:08:00,1,new,active
6020710463,67523746,,,Norseman Village,,,,Community Centre,,A966,,,,at,,S,ES001323,Rendall,,,,,,,false,UKOS,338397,1019699,-3.07585,59.0598,BCT,CUS,OTH,,,,134,2008-08-25T00:00:00,2011-01-17T12:18:00,2,new,active
6020710452,67523729,,,Germiston Road End,,,,Road End,,A964,,,,opp,,SW,ES002942,Orphir,,,,,,,false,UKOS,336553,1007041,-3.10434,58.94587,BCT,CUS,OTH,,,,134,2008-08-14T00:00:00,2011-01-17T12:23:00,2,new,active
6020710453,67523732,,,Ferry Terminal,,,,Orkney Ferries Office,,Shore Street,,,,at,,W,ES002219,Kirkwall,,,,,,,false,UKOS,345035,1011270,-2.95802,58.98502,BCT,MKD,OTH,,,,134,2008-08-22T00:00:00,2016-02-08T11:45:06,3,new,active
6020710632,67524289,,,Lyde Road End,,,,Road End,,A966,,,,opp,,S,ES001323,Rendall,,,,,,,false,UKOS,337992,1018348,-3.08252,59.04761,BCT,CUS,OTH,,,,134,2010-12-06T00:00:00,2011-01-18T11:07:00,2,new,active
6020710455,67523735,,,Quoyburray,,,,Inn,,A960,,,,opp,,SE,N0078253,Tankerness,,,,,,,false,UKOS,350899,1005539,-2.85474,58.93427,BCT,CUS,OTH,,,,134,2008-08-22T00:00:00,2011-01-14T14:20:00,2,new,active
6020710640,67524323,,,Kierfiold Road End,,,,Road End,,,,,,opp,,NW,ES003246,Sandwick,,,,,,,false,UKOS,324850,1018036,-3.31142,59.04269,BCT,CUS,OTH,,,,134,2010-12-06T00:00:00,2011-01-18T12:09:00,1,new,active
6020710457,67523737,,,Halley Road End,,,,Road End,,A960,,,,opp,,S,ES003396,Deerness,,,,,,,false,UKOS,356025,1004591,-2.76551,58.92632,BCT,CUS,OTH,,,,134,2008-08-22T00:00:00,2011-01-14T12:34:00,2,new,active
6020710638,67524297,,,Garson,,,,Garson,,A967,,,,opp,,N,ES003246,Sandwick,,,,,,,false,UKOS,326520,1019885,-3.28294,59.05958,BCT,CUS,OTH,,,,134,2010-12-06T00:00:00,2011-01-18T11:12:00,1,new,active
6020710671,67524375,,,Heathery Loan East End,,,,Heathery Loan,,A960,,,,at,,N,ES002220,St Ola,,,,,,,false,UKOS,345918,1008913,-2.94208,58.96397,BCT,CUS,OTH,,,,134,2010-12-08T00:00:00,2011-01-18T14:19:00,2,new,active
6020710320A,67523269,,,Newark Road End,,,,Jewellery workshop,,Groatsetter Road,,,,at,,E,N0078253,Tankerness,,,,,,,false,UKOS,350253,1006834,-2.86625,58.94583,BCT,CUS,OTH,,,,134,2003-06-06T00:00:00,2019-07-30T15:23:54,7,new,active
6020710670,67524374,,,Greenigoe,,,,Greenigoe,,A964,,,,opp,,SW,ES002220,St Ola,,,,,,,false,UKOS,340739,1007447,-3.03172,58.95012,BCT,CUS,OTH,,,,134,2010-12-08T00:00:00,2011-01-18T14:14:00,2,new,active
6020710321A,67523245,,,Dingieshowe,,,,Public Convenience,,A960,,,,opp,,E,ES003396,Deerness,,,,,,,false,UKOS,354934,1003431,-2.78422,58.91579,BCT,CUS,OTH,,,,134,2003-06-06T00:00:00,2011-01-14T12:25:00,6,new,active
6020710676,67524383,,,Marness Garage,,,,Garage,,A964,,,,opp,,NE,ES002220,St Ola,,,,,,,false,UKOS,341654,1007955,-3.01596,58.95481,BCT,CUS,OTH,,,,134,2010-12-08T00:00:00,2011-01-18T14:20:00,1,new,active
6020710315A,67523259,,,Scorra Dale Road End,,,,the foot of Scorradale Brae,,A964,,,,opp,,SW,ES002942,Orphir,,,,,,,false,UKOS,333107,1005496,-3.16375,58.93148,BCT,CUS,OTH,,,,134,2003-06-06T00:00:00,2013-03-01T10:22:54,5,new,active
6020710322,67523265,,,Lighthouse Corner,,,,Terminus,,B9050,,,,at,,W,ES003396,Deerness,,,,,,,false,UKOS,358100,1005969,-2.72973,58.9389,BCT,CUS,OTH,,,,134,2003-06-06T00:00:00,2013-03-01T10:23:24,9,new,active
6020710630,67524286,,,Gorseness,,,,Road End,,A966,,,,opp,,N,ES001323,Rendall,,,,,,,false,UKOS,339472,1022329,-3.05783,59.08356,BCT,CUS,OTH,,,,134,2010-12-06T00:00:00,2016-04-21T16:47:30,2,new,active
6020710666,67524368,,,Crantit Park,,,,Crantit Park,,A964,,,,opp,,N,ES002220,St Ola,,,,,,,false,UKOS,344095,1009839,-2.97401,58.97205,BCT,CUS,OTH,,,,134,2010-12-08T00:00:00,2011-01-18T14:13:00,1,new,active
6020710329A,67523496,,,Baikie's Store,,,,Shelter,,,,,,opp,,E,N0067496,Finstown,Firth,,,,,,false,UKOS,335705,1014008,-3.12111,59.0083,BCT,MKD,OTH,,,,134,2003-06-06T00:00:00,2018-10-31T12:44:54,7,new,active
6020710330,67523534,,,Ferry terminal,,,,Ferry Terminal,,Car Park,,,,at,,SW,N0078264,Tingwall,Rendall,,,,,,false,UKOS,340261,1022886,-3.04422,59.08868,BCT,MKD,OTH,,,,134,2003-06-06T00:00:00,2016-02-11T10:46:00,8,new,active
6020710659,67524358,,,Distillery Cottages,,,,Cottages,,A964,,,,at,,SW,N0078256,Scapa,St Ola,,,,,,false,UKOS,343375,1009138,-2.98635,58.96566,BCT,CUS,OTH,,,,134,2010-12-07T00:00:00,2011-01-18T14:10:00,1,new,active
6020710323,67523474,,,St Magnus centre,,,,St Magnus Centre,,Palace Road,,,,nr,,SE,ES002219,Kirkwall,,,,,,,false,UKOS,344987,1010825,-2.95874,58.98102,BCT,MKD,OTH,,,,134,2003-06-06T00:00:00,2015-09-21T14:47:06,6,new,active
6020710324,67523468,,,Otterswick,,,,Lambaness,,Otterswick Crescent,,,,at,,NE,ES002219,Kirkwall,,,,,,,false,UKOS,345984,1010475,-2.94132,58.978,BCT,MKD,OTH,,,,134,2003-06-06T00:00:00,2018-12-11T15:23:12,4,new,active
6020710658,67524357,,,Yesnaby Road End,,,,Road End,,,,,,opp,,SE,ES003246,Sandwick,,,,,,,false,UKOS,324753,1015346,-3.31219,59.01852,BCT,CUS,OTH,,,,134,2010-12-07T00:00:00,2011-01-18T14:02:00,1,new,active
6020710656,67524354,,,West Clumly,,,,West Clumly,,,,,,opp,,N,ES003246,Sandwick,,,,,,,false,UKOS,324507,1016434,-3.31684,59.02825,BCT,CUS,OTH,,,,134,2010-12-06T00:00:00,2011-01-18T12:16:00,1,new,active
6020710304,67523429,,,Travel Centre,,,,Ferry Terminal,,,,,,at,,,ES003556,Stromness,,,,,,,false,UKOS,325587,1009270,-3.29561,58.96412,BCS,,,,,,134,2003-06-05T00:00:00,2012-01-27T15:45:54,5,new,active
6020710306,67523625,,,Hatston Park,,,,Golf Course,,,,,,opp,,NW,ES002219,Kirkwall,,,,,,,false,UKOS,343209,1011966,-2.98996,58.99103,BCT,MKD,OTH,,,,134,2007-11-23T00:00:00,2016-02-11T10:23:36,5,new,active
6020710563,67523952,,,Sandveien,,,,Sandveien,,,,,,opp,,SE,N0067478,Dounby,,,,,,,false,UKOS,328357,1021980,-3.2516,59.0787,BCT,CUS,OTH,,,,134,2010-11-29T00:00:00,2011-01-17T16:22:00,2,new,active
6020710301,67523473,,,West Tankerness Lane,,,,lane,,,,,,N-bound,,N,ES002219,Kirkwall,,,,,,,false,UKOS,344646,1010817,-2.96467,58.9809,BCT,CUS,OTH,,,,134,2003-06-05T00:00:00,2010-05-12T11:32:00,5,new,active
6020710561,67523948,,,Saither Road End,,,,Road End,,,,,,opp,,SE,N0067478,Dounby,,,,,,,false,UKOS,329083,1021288,-3.23872,59.07261,BCT,CUS,OTH,,,,134,2010-11-25T00:00:00,2011-01-17T16:07:00,1,new,active
6020710302A,67523494,,,Allan's of Gillock,,,,Bus Shelter,,,,,,opp,,SE,N0067496,Finstown,Firth,,,,,,false,UKOS,336085,1013774,-3.11443,59.00626,BCT,MKD,OTH,,,,134,2003-06-05T00:00:00,2011-01-14T14:01:00,8,new,active
6020710559,67523946,,,Quilco,,,,Road End,,Hillside Road,,,,opp,,SW,N0067478,Dounby,,,,,,,false,UKOS,329696,1020954,-3.22792,59.06972,BCT,CUS,OTH,,,,134,2010-11-25T00:00:00,2010-11-25T16:41:00,0,new,active
6020710303A,67523482,,,Brig O'Waithe,,,,Bus Bay,,,,,,after,,E,ES003463,Stenness,,,,,,,false,UKOS,328352,1011364,-3.24823,58.98339,BCT,MKD,OTH,,,,134,2003-06-05T00:00:00,2011-01-14T14:21:00,7,new,active
6020710307A,67523532,,,Shop,,,,Store,,,,,,opp,,SE,N0067478,Dounby,,,,,,,false,UKOS,329497,1020816,-3.23135,59.06844,BCT,MKD,OTH,,,,134,2003-06-05T00:00:00,2019-01-10T11:35:36,7,new,active
6020710558,67523945,,,Hourston Road End,,,,Road End,,A986,,,,opp,,SE,N0067478,Dounby,,,,,,,false,UKOS,330024,1020041,-3.22191,59.06157,BCT,CUS,OTH,,,,134,2010-11-25T00:00:00,2011-01-17T16:06:00,1,new,active
6020710564,67523953,,,Burgar,,,,Burgar,,A966,,,,at,,SE,ES001322,Evie,,,,,,,false,UKOS,334916,1027505,-3.13885,59.12936,BCT,CUS,OTH,,,,134,2010-11-29T00:00:00,2011-01-17T16:22:00,1,new,active
6020710570,67523962,,,Spithersquoy,,,,Spithersquoy,,A966,,,,at,,SE,ES001322,Evie,,,,,,,false,UKOS,335608,1026777,-3.12655,59.12293,BCT,CUS,OTH,,,,134,2010-11-29T00:00:00,2011-01-17T16:46:00,1,new,active
6020710313A,67523256,,,Clowally Farm,,,,Clowally Farm,,A964,,,,at,,S,ES002942,Orphir,,,,,,,false,UKOS,331165,1004395,-3.19713,58.92128,BCT,CUS,OTH,,,,134,2003-06-06T00:00:00,2011-01-17T12:19:00,5,new,active
6020710313B,67523272,,,Clestrain Junction,,,,road junction,,A964,,,,at,,S,ES002942,Orphir,,,,,,,false,UKOS,330224,1007067,-3.21431,58.94512,BCT,CUS,OTH,,,,134,2003-06-06T00:00:00,2011-02-07T11:59:00,8,new,active
6020710308,67523548,,,Palace Shop,,,,Earl's Palace,,A966,,,,at,,N,ES000359,Birsay,,,,,,,false,UKOS,324803,1027684,-3.31555,59.1293,BCT,CUS,OTH,,,,134,2003-06-05T00:00:00,2010-04-09T12:08:00,8,new,active
6020710569,67523959,,,Smithfield,,,,Smithfield,,A966,,,,opp,,SE,ES001322,Evie,,,,,,,false,UKOS,337349,1025209,-3.09569,59.10911,BCT,CUS,OTH,,,,134,2010-11-29T00:00:00,2011-01-17T16:45:00,1,new,active
6020710309A,67523562,,,Council Houses,,,,Council Houses,,A966,,,,opp,,NW,ES001322,Evie,,,,,,,false,UKOS,333806,1028064,-3.15841,59.13421,BCT,CUS,OTH,,,,134,2003-06-05T00:00:00,2011-01-14T13:51:00,4,new,active
6020710567,67523957,,,Fursan,,,,Fursan,,A966,,,,opp,,SE,ES001322,Evie,,,,,,,false,UKOS,338029,1024470,-3.08361,59.10258,BCT,CUS,OTH,,,,134,2010-11-29T00:00:00,2011-01-17T16:43:00,1,new,active
6020710310A,67523428,,,Road End,,,,At the end of the road to Scapa Beach,,A964,,,,at,,SW,N0078256,Scapa,St Ola,,,,,,false,UKOS,343901,1009288,-2.97724,58.96708,BCT,CUS,OTH,,,,134,2003-06-05T00:00:00,2013-03-01T10:21:18,5,new,active
6020710311,67523264,,,Community School,,,,Orphir Community School,,A964,,,,opp,,W,ES002942,Orphir,,,,,,,false,UKOS,334403,1005986,-3.14139,58.93608,BCT,CUS,OTH,,,,134,2003-06-05T00:00:00,2013-03-01T10:22:06,5,new,active
6020710331A,67523542,,,Hillside Road,,,,Bottom of Hillside Road,,A966,,,,opp,,SE,ES001322,Evie,,,,,,,false,UKOS,336482,1025794,-3.111,59.11424,BCT,CUS,OTH,,,,134,2003-06-06T00:00:00,2011-01-14T14:00:00,4,new,active
6020710549,67523932,,,Stembister Road End,,,,Road End,,A960,,,,at,,W,ES003396,Deerness,,,,,,,false,UKOS,353367,1003795,-2.8115,58.91889,BCT,CUS,OTH,,,,134,2010-11-19T00:00:00,2011-01-17T15:52:00,1,new,active
6020710353B,67523426,,,Royal Mail Depot,,,,Old Academy,,Back Road,,,,at,,NE,ES003556,Stromness,,,,,,,false,UKOS,325247,1009236,-3.30151,58.96375,BCT,CUS,OTH,,,,134,2003-06-09T00:00:00,2011-01-17T15:10:00,5,new,active
6020710548,67523929,,,Smithyquoy,,,,Smithyquoy,,B9050,,,,opp,,NE,ES003396,Deerness,,,,,,,false,UKOS,357559,1005826,-2.7391,58.93756,BCT,CUS,OTH,,,,134,2010-11-19T00:00:00,2011-01-17T15:51:00,1,new,active
6020710355A,67523295,,,Croval Road,,,,On Outertown Road,,Outertown Road,,,,opp,,E,ES003556,Stromness,,,,,,,false,UKOS,324875,1009041,-3.30791,58.96194,BCT,CUS,OTH,,,,134,2003-06-09T00:00:00,2014-11-28T11:15:54,6,new,active
6020710546,67523927,,,Groenvin,,,,Groenvin,,B9050,,,,opp,,SW,ES003396,Deerness,,,,,,,false,UKOS,356199,1004979,-2.76256,58.92982,BCT,CUS,OTH,,,,134,2010-11-19T00:00:00,2011-01-17T15:50:00,1,new,active
6020710348A,67523286,,,Guardhouse Park,,,,Guardhouse Park,,Guardhouse Park,,,,opp,,S,ES003556,Stromness,,,,,,,false,UKOS,325219,1008273,-3.30167,58.9551,BCT,CUS,OTH,,,,134,2003-06-06T00:00:00,2011-01-17T13:31:00,4,new,active
6020710544,67523925,,,Geo Road End,,,,Road End,,A960,,,,opp,,NE,ES003396,Deerness,,,,,,,false,UKOS,355919,1004176,-2.76726,58.92258,BCT,CUS,OTH,,,,134,2010-11-18T00:00:00,2011-01-17T15:49:00,1,new,active
6020710349A,67523284,,,Well Park,,,,Well Park,,Back Road,,,,at,,S,ES003556,Stromness,,,,,,,false,UKOS,325227,1008243,-3.30153,58.95483,BCT,CUS,OTH,,,,134,2003-06-06T00:00:00,2011-01-17T15:34:00,4,new,active
6020710350,67523282,,,Golf House,,,,Golf Club,,Back Road,,,,at,,N,ES003556,Stromness,,,,,,,false,UKOS,325287,1008123,-3.30044,58.95377,BCT,CUS,OTH,,,,134,2003-06-06T00:00:00,2010-04-21T15:35:00,3,new,active
6020710556,67523942,,,Fairview,,,,Road End,,Hillside Road,,,,opp,,SW,N0067478,Dounby,,,,,,,false,UKOS,330073,1021319,-3.22146,59.07305,BCT,CUS,OTH,,,,134,2010-11-25T00:00:00,2010-11-25T09:54:00,0,new,active
6020710555,67523939,,,Durkadale Road End,,,,Road End,,,,,,opp,,S,N0067478,Dounby,,,,,,,false,UKOS,332342,1023472,-3.18256,59.09275,BCT,CUS,OTH,,,,134,2010-11-25T00:00:00,2010-11-25T09:49:00,0,new,active
6020710554,67523938,,,Dounby House,,,,Dounby House,,,,,,opp,,NW,N0067478,Dounby,,,,,,,false,UKOS,329402,1020924,-3.23304,59.0694,BCT,CUS,OTH,,,,134,2010-11-19T00:00:00,2011-01-17T16:05:00,1,new,active
6020710552,67523936,,,Vestlabanks Road End,,,,Road End,,A960,,,,opp,,E,ES003396,Deerness,,,,,,,false,UKOS,354279,1003592,-2.79562,58.91716,BCT,CUS,OTH,,,,134,2010-11-19T00:00:00,2011-01-17T15:57:00,1,new,active
6020710590,67523989,,,Russland Road End,,,,Road End,,A986,,,,at,,NW,ES000360,Harray,,,,,,,false,UKOS,330339,1019401,-3.21622,59.05588,BCT,CUS,OTH,,,,134,2010-12-03T00:00:00,2011-01-18T10:51:00,1,new,active
6020710357A,67523293,,,St Peters Park,,,,Roundabout,,Back Road,,,,after,,W,ES003556,Stromness,,,,,,,false,UKOS,325069,1008967,-3.30452,58.96131,BCT,CUS,OTH,,,,134,2003-06-09T00:00:00,2011-01-17T15:13:00,4,new,active
6020710589,67523987,,,Madras House,,,,Madras House,,A986,,,,opp,,NW,ES000360,Harray,,,,,,,false,UKOS,331362,1018508,-3.19811,59.04803,BCT,CUS,OTH,,,,134,2010-12-03T00:00:00,2011-01-18T10:50:00,1,new,active
6020710359A,67523278,,,Cannigall Road End,,,,Road End,,A961,,,,at,,N,ES002220,St Ola,,,,,,,false,UKOS,345109,1007693,-2.95584,58.95291,BCT,CUS,OTH,,,,134,2003-06-09T00:00:00,2011-01-14T14:29:00,4,new,active
6020710587,67523985,,,Lyde Road End,,,,Road End,,A986,,,,opp,,NW,ES000360,Harray,,,,,,,false,UKOS,331901,1017840,-3.18851,59.04212,BCT,CUS,OTH,,,,134,2010-12-03T00:00:00,2011-01-18T10:49:00,1,new,active
6020710360A,67523247,,,Wilderness Farm,,,,Farm,,A961,,,,at,,S,ES001774,Holm,,,,,,,false,UKOS,346617,1003933,-2.92873,58.91934,BCT,CUS,OTH,,,,134,2003-06-09T00:00:00,2016-02-11T12:01:06,5,new,active
6020710585,67523983,,,Eskdale,,,,Eskdale,,A986,,,,opp,,SE,ES000360,Harray,,,,,,,false,UKOS,333054,1015916,-3.16783,59.02502,BCT,CUS,OTH,,,,134,2010-12-03T00:00:00,2011-01-18T10:49:00,1,new,active
6020710597,67524239,,,Wasdale,,,,Wasdale,,A986,,,,opp,,S,ES000360,Harray,,,,,,,false,UKOS,333724,1014510,-3.15574,59.0125,BCT,CUS,OTH,,,,134,2010-12-06T00:00:00,2011-01-18T10:52:00,1,new,active
6020710336A,67523525,,,Road End,,RE,,Skaill House,,,,,,at,,NW,N0067618,Skaill,,,,,,,false,UKOS,323892,1018697,-3.32834,59.04845,BCT,CUS,OTH,,,,134,2003-06-06T00:00:00,2015-03-23T17:12:12,5,new,active
6020710338,67523527,,,Visitor Centre,,,,Visitor Centre,,,,,,at,,W,N0078262,Skara Brae,Skaill,,,,,,false,UKOS,323504,1018732,-3.33511,59.0487,BCT,CUS,OTH,,,,134,2003-06-06T00:00:00,2016-05-30T11:30:42,4,new,active
6020710595,67524237,,,Stoneyhill Road End,,,,Road End,,A986,,,,opp,,SE,ES000360,Harray,,,,,,,false,UKOS,332296,1016614,-3.18125,59.03117,BCT,CUS,OTH,,,,134,2010-12-03T00:00:00,2011-01-18T10:52:00,1,new,active
6020710332A,67523565,,,Road End,,,,Junction,,A966,,,,opp,,E,N0078259,Newton,,,,,,,false,UKOS,332155,1028705,-3.18745,59.13971,BCT,CUS,OTH,,,,134,2003-06-06T00:00:00,2011-01-17T12:24:00,4,new,active
6020710333,67523476,,,Post Office,,,,Opposite the Post Office,,Junction Road,,,,opp,,N,ES002219,Kirkwall,,,,,,,false,UKOS,344878,1011113,-2.96071,58.98359,BCT,MKD,OTH,,,,134,2003-06-06T00:00:00,2015-11-12T15:43:36,2,new,active
6020710593,67524235,,,Sherren,,,,Sherren,,A986,,,,opp,,S,ES000360,Harray,,,,,,,false,UKOS,333672,1015250,-3.15687,59.01914,BCT,CUS,OTH,,,,134,2010-12-03T00:00:00,2011-01-18T10:51:00,1,new,active
6020710334A,67523524,,,Community Centre,,,,Post Office,,A986,,,,opp,,S,ES000360,Harray,,,,,,,false,UKOS,331953,1017481,-3.18749,59.0389,BCT,CUS,OTH,,,,134,2003-06-06T00:00:00,2019-11-07T10:01:30,6,new,active
6020710576,67523969,,,Marsdene,,,,Marsdene,,,,,,at,,E,N0067496,Finstown,Firth,,,,,,false,UKOS,337196,1013165,-3.09492,59.00095,BCT,CUS,OTH,,,,134,2010-12-02T00:00:00,2011-01-18T10:47:00,1,new,active
6020710575,67523968,,,Firth Primary School,,,,School,,A966,,,,opp,,NE,N0067496,Finstown,Firth,,,,,,false,UKOS,336206,1014322,-3.11248,59.01119,BCT,CUS,OTH,,,,134,2010-11-29T00:00:00,2011-01-18T10:46:00,1,new,active
6020710573,67523965,,,Firth Bay Bungalows,,,,Bungalows,,,,,,opp,,NW,N0067496,Finstown,Firth,,,,,,false,UKOS,336558,1013400,-3.10609,59.00297,BCT,CUS,OTH,,,,134,2010-11-29T00:00:00,2011-01-18T10:45:00,1,new,active
6020710344A,67523436,,,Asgard,,,,Back Road,,Back Road,,,,opp,,NE,ES003556,Stromness,,,,,,,false,UKOS,325434,1009363,-3.29831,58.96493,BCT,CUS,OTH,,,,134,2003-06-06T00:00:00,2011-01-17T12:56:00,3,new,active
6020710347,67523287,,,Hoymansquoy,,,,Hoymansquoy,,Back Road,,,,opp,,SE,ES003556,Stromness,,,,,,,false,UKOS,325207,1008374,-3.30192,58.95601,BCT,CUS,OTH,,,,134,2003-06-06T00:00:00,2011-01-17T15:03:00,4,new,active
6020710339A,67523439,,,Hamnavoe Estate,,,,Hamnavoe Estate,,Garson Road,,,,opp,,S,ES003556,Stromness,,,,,,,false,UKOS,326279,1009713,-3.28373,58.96822,BCT,CUS,OTH,,,,134,2003-06-06T00:00:00,2011-01-17T13:32:00,5,new,active
6020710583,67523979,,,Quanterness Cottages,,,,Cottages,,,,,,opp,,E,ES001394,Firth,,,,,,,false,UKOS,341683,1013237,-3.01685,59.00224,BCT,CUS,OTH,,,,134,2010-12-02T00:00:00,2018-01-26T11:51:24,2,new,active
6020710340A,67523456,,,Garson Drive,,,,Cairston Road,,Cairston Road,,,,opp,,NE,ES003556,Stromness,,,,,,,false,UKOS,326036,1009985,-3.28805,58.97062,BCT,CUS,OTH,,,,134,2003-06-06T00:00:00,2011-01-17T13:30:00,5,new,active
6020710581,67523976,,,Burness Road End,,,,Road End,,A966,,,,opp,,N,ES001394,Firth,,,,,,,false,UKOS,337131,1015680,-3.09677,59.02353,BCT,CUS,OTH,,,,134,2010-12-02T00:00:00,2019-11-07T10:45:12,2,new,active
6020710341A,67523458,,,Swimming Pool,,,,Swimming Pool,,,,,,opp,,SW,ES003556,Stromness,,,,,,,false,UKOS,325748,1010021,-3.29307,58.97089,BCT,CUS,OTH,,,,134,2003-06-06T00:00:00,2018-01-26T11:54:12,6,new,active
6020710343,67523452,,,Fire Station,,,,North End Road,,North End Road,,,,at,,NE,ES003556,Stromness,,,,,,,false,UKOS,325646,1009713,-3.29474,58.96811,BCT,CUS,OTH,,,,134,2003-06-06T00:00:00,2011-01-17T13:26:00,4,new,active
6020710579,67523974,,,Old Finstown Road,,,,Road End,,,,,,opp,,E,N0067496,Finstown,Firth,,,,,,false,UKOS,336306,1013531,-3.11051,59.00411,BCT,CUS,OTH,,,,134,2010-12-02T00:00:00,2011-01-18T10:48:00,1,new,active
6020710490,67523794,,,Council Houses,,,,Post Office,,A960,,,,at,,SE,ES003397,Toab,,,,,,,false,UKOS,352441,1004054,-2.82763,58.92111,BCT,CUS,OTH,,,,134,2010-04-22T00:00:00,2021-11-18T15:21:21,11,new,active
6020710496,67523824,,,Soulisquoy Place,,,,Soulisquoy Place,,Glaitness Road,,,,at,,W,ES002219,Kirkwall,,,,,,,false,UKOS,344184,1010486,-2.97262,58.97787,BCT,CUS,OTH,,,,134,2010-05-11T00:00:00,2015-07-06T16:29:12,6,new,active
6020710495,67523823,,,Hornesquoy Road,,,,Hospital,,New Scapa Road,,,,opp,,S,ES002219,Kirkwall,,,,,,,false,UKOS,344719,1010321,-2.96328,58.97646,BCT,CUS,OTH,,,,134,2010-05-11T00:00:00,2019-06-10T14:31:36,2,new,active
6020710611,67524259,,,Harpsquoy,,,,Harpsquoy,,,,,,at,,N,ES001721,Marwick,,,,,,,false,UKOS,324361,1026273,-3.32278,59.11655,BCT,CUS,OTH,,,,134,2010-12-06T00:00:00,2011-01-18T10:56:00,1,new,active
6020710613,67524263,,,Hundland,,,,Hundland,,,,,,at,,N,ES001721,Marwick,,,,,,,false,UKOS,324409,1023247,-3.3209,59.0894,BCT,CUS,OTH,,,,134,2010-12-06T00:00:00,2011-01-18T10:57:00,1,new,active
6020710615,67524265,,,Leaquoy,,,,Leaquoy,,,,,,at,,NE,ES001721,Marwick,,,,,,,false,UKOS,324216,1024856,-3.32482,59.10381,BCT,CUS,OTH,,,,134,2010-12-06T00:00:00,2011-01-18T10:58:00,1,new,active
6020710499,67523827,,,Market Stance,,,,Riding School,,Old Finstown Road,,,,opp,,E,ES002220,St Ola,,,,,,,false,UKOS,342993,1010469,-2.99333,58.97756,BCT,CUS,OTH,,,,134,2010-05-14T00:00:00,2025-04-17T09:58:25,44,new,active
6020710498,67523826,,,Walliwall Farm,,,,Farm,,Old Finstown Road,,,,opp,,W,ES002220,St Ola,,,,,,,false,UKOS,343569,1010452,-2.98331,58.97748,BCT,CUS,OTH,,,,134,2010-05-14T00:00:00,2011-01-14T14:38:00,2,new,active
6020710892,67524935,,,Hoy Hotel,,,,Hotel,,B9047,,,,at,,N,ES001800,Hoy,,,,,,,false,UKOS,330433,994455,-3.20673,58.83192,BCT,CUS,OTH,,,,134,2013-06-27T00:00:00,2013-07-03T12:49:54,1,new,active
6020710893,67524936,,,Hoy Hotel,,,,Hotel,,B9047,,,,opp,,S,ES001800,Hoy,,,,,,,false,UKOS,330449,994455,-3.20645,58.83192,BCT,CUS,OTH,,,,134,2013-06-27T00:00:00,2013-07-03T12:50:36,1,new,active
6020710913,67524964,,,Community Centre,,,,Community Centre,,B9047,,,,at,,NW,ES001800,Hoy,,,,,,,false,UKOS,323665,1003279,-3.32696,58.90999,BCT,CUS,OTH,,,,134,2013-07-01T00:00:00,2013-07-01T12:01:12,0,new,active
6020710914,67524965,,,Community Centre,,,,Community Centre,,B9047,,,,opp,,SE,ES001800,Hoy,,,,,,,false,UKOS,323679,1003286,-3.32672,58.91006,BCT,CUS,OTH,,,,134,2013-07-01T00:00:00,2013-07-01T12:32:12,0,new,active
6020710894,67524937,,,Pier,,,,Pier,,B9048,,,,at,,E,N0067564,Lyness,Hoy,,,,,,false,UKOS,331193,994650,-3.19363,58.83379,BCT,CUS,OTH,,,,134,2013-06-27T00:00:00,2013-07-03T14:58:48,1,new,active
6020710895,67524938,,,Naval Cemetery,,,,Cemetery,,B9047,,,,at,,NW,ES001800,Hoy,,,,,,,false,UKOS,330259,994669,-3.20981,58.83381,BCT,CUS,OTH,,,,134,2013-06-27T00:00:00,2013-07-03T12:51:36,1,new,active
6020710896,67524939,,,Naval Cemetery,,,,Cemetery,,B9047,,,,opp,,SE,ES001800,Hoy,,,,,,,false,UKOS,330263,994683,-3.20975,58.83394,BCT,CUS,OTH,,,,134,2013-06-27T00:00:00,2013-07-03T14:26:06,1,new,active
6020710897,67524942,,,Scews Road End,,,,Road End,,B9047,,,,at,,NW,ES001800,Hoy,,,,,,,false,UKOS,329946,995085,-3.21536,58.83749,BCT,CUS,OTH,,,,134,2013-06-27T00:00:00,2013-07-03T14:26:42,1,new,active
6020710898,67524943,,,Scews Road End,,,,Road End,,B9047,,,,opp,,SE,ES001800,Hoy,,,,,,,false,UKOS,329933,995079,-3.21558,58.83744,BCT,CUS,OTH,,,,134,2013-06-27T00:00:00,2013-07-03T14:27:18,1,new,active
6020710884,67524924,,,Doonatown,,,,House,,B9047,,,,at,,NE,ES001800,Hoy,,,,,,,false,UKOS,330725,992143,-3.20096,58.81121,BCT,CUS,OTH,,,,134,2013-06-26T00:00:00,2013-07-03T12:43:42,1,new,active
6020710885,67524925,,,Doonatown,,,,House,,B9047,,,,opp,,SW,ES001800,Hoy,,,,,,,false,UKOS,330734,992133,-3.2008,58.81112,BCT,CUS,OTH,,,,134,2013-06-26T00:00:00,2013-07-03T12:44:18,1,new,active
6020710887,67524927,,,School,,,,School,,B9047,,,,opp,,N,ES001800,Hoy,,,,,,,false,UKOS,330640,992751,-3.20262,58.81665,BCT,CUS,OTH,,,,134,2013-06-27T00:00:00,2013-07-03T12:45:48,1,new,active
6020710886,67524926,,,School,,,,School,,B9047,,,,at,,S,ES001800,Hoy,,,,,,,false,UKOS,330656,992751,-3.20234,58.81665,BCT,CUS,OTH,,,,134,2013-06-27T00:00:00,2013-07-03T12:45:00,1,new,active
6020710889,67524929,,,Ore Farm Road End,,,,Road End,,B9047,,,,opp,,NW,ES001800,Hoy,,,,,,,false,UKOS,330407,993443,-3.20686,58.82283,BCT,CUS,OTH,,,,134,2013-06-27T00:00:00,2013-07-03T12:47:18,1,new,active
6020710888,67524928,,,Ore Farm Road End,,,,Road End,,B9047,,,,at,,SE,ES001800,Hoy,,,,,,,false,UKOS,330424,993448,-3.20657,58.82287,BCT,CUS,OTH,,,,134,2013-06-27T00:00:00,2013-07-03T14:58:18,2,new,active
6020710890,67524932,,,Ore Burn Cottage,,,,Cottage,,B9047,,,,at,,S,ES001800,Hoy,,,,,,,false,UKOS,330316,993896,-3.20858,58.82688,BCT,CUS,OTH,,,,134,2013-06-27T00:00:00,2013-07-03T12:48:12,1,new,active
6020710891,67524934,,,Ore Burn Cottage,,,,Cottage,,B9047,,,,opp,,N,ES001800,Hoy,,,,,,,false,UKOS,330301,993900,-3.20884,58.82691,BCT,CUS,OTH,,,,134,2013-06-27T00:00:00,2013-07-03T12:48:54,1,new,active
6020710904,67524952,,,Muckle Rysa,,,,House,,B9047,,,,opp,,N,ES001800,Hoy,,,,,,,false,UKOS,330660,996769,-3.20352,58.85273,BCT,CUS,OTH,,,,134,2013-06-28T00:00:00,2013-07-03T14:51:00,1,new,active
6020710903,67524949,,,Muckle Rysa,,,,House,,B9047,,,,at,,S,ES001800,Hoy,,,,,,,false,UKOS,330679,996767,-3.20319,58.85272,BCT,CUS,OTH,,,,134,2013-06-28T00:00:00,2013-07-03T14:50:06,1,new,active
6020710906,67524954,,,Picnic Area,,,,picnic area,,B9047,,,,opp,,NW,ES001800,Hoy,,,,,,,false,UKOS,329373,997512,-3.22606,58.85919,BCT,CUS,OTH,,,,134,2013-06-28T00:00:00,2013-07-03T14:55:30,1,new,active
6020710905,67524953,,,Picnic Area,,,,picnic Area,,B9047,,,,at,,SE,ES001800,Hoy,,,,,,,false,UKOS,329385,997524,-3.22585,58.8593,BCT,CUS,OTH,,,,134,2013-06-28T00:00:00,2013-07-03T14:51:42,1,new,active
6020710907,67524956,,,Betty Corrigall's Grave,,,,Grave,,B9047,,,,at,,NE,ES001800,Hoy,,,,,,,false,UKOS,328093,999779,-3.24897,58.87933,BCT,CUS,OTH,,,,134,2013-06-28T00:00:00,2013-07-03T14:56:06,1,new,active
6020710908,67524957,,,Betty Corrigall's Grave,,,,Grave,,B9047,,,,opp,,SE,ES001800,Hoy,,,,,,,false,UKOS,328109,999781,-3.2487,58.87935,BCT,CUS,OTH,,,,134,2013-06-28T00:00:00,2013-07-03T14:59:18,2,new,active
6020710910,67524959,,,Quoyness Road End,,,,Road End,,B9047,,,,opp,,W,ES001800,Hoy,,,,,,,false,UKOS,325106,1002499,-3.30168,58.90324,BCT,CUS,OTH,,,,134,2013-06-28T00:00:00,2013-06-28T12:34:48,0,new,active
6020710909,67524958,,,Quoyness Road End,,,,Road End,,B9047,,,,at,,E,ES001800,Hoy,,,,,,,false,UKOS,325109,1002513,-3.30164,58.90337,BCT,CUS,OTH,,,,134,2013-06-28T00:00:00,2013-06-28T12:21:36,0,new,active
6020710899,67524945,,,Burnhouse,,,,House,,B9047,,,,at,,NE,ES001800,Hoy,,,,,,,false,UKOS,329890,995383,-3.21643,58.84016,BCT,CUS,OTH,,,,134,2013-06-28T00:00:00,2013-07-03T14:27:54,1,new,active
6020710900,67524946,,,Burnhouse,,,,House,,B9047,,,,opp,,SW,ES001800,Hoy,,,,,,,false,UKOS,329877,995389,-3.21665,58.84021,BCT,CUS,OTH,,,,134,2013-06-28T00:00:00,2013-07-03T14:28:24,1,new,active
6020710902,67524948,,,Rysa Lodge,,,,Lodge,,B9047,,,,opp,,N,ES001800,Hoy,,,,,,,false,UKOS,330552,996262,-3.20523,58.84816,BCT,CUS,OTH,,,,134,2013-06-28T00:00:00,2013-07-03T14:49:30,1,new,active
6020710901,67524947,,,Rysa Lodge,,,,Lodge,,B9047,,,,at,,S,ES001800,Hoy,,,,,,,false,UKOS,330567,996259,-3.20497,58.84814,BCT,CUS,OTH,,,,134,2013-06-28T00:00:00,2013-07-03T14:29:54,1,new,active
6020710911,67524962,,,Rackwick Road End,,,,Road End,,B9047,,,,at,,NW,ES001800,Hoy,,,,,,,false,UKOS,324290,1002794,-3.31594,58.90575,BCT,CUS,OTH,,,,134,2013-07-01T00:00:00,2013-07-01T11:54:54,0,new,active
6020710912,67524963,,,Rackwick Road End,,,,Road End,,B9047,,,,opp,,SE,ES001800,Hoy,,,,,,,false,UKOS,324297,1002808,-3.31583,58.90588,BCT,CUS,OTH,,,,134,2013-07-01T00:00:00,2013-07-01T11:57:12,0,new,active
6020710915,67524967,,,Outdoor centre,,,,Centre,,B9047,,,,at,,NW,ES001800,Hoy,,,,,,,false,UKOS,323397,1003645,-3.33174,58.91323,BCT,CUS,OTH,,,,134,2013-07-01T00:00:00,2013-07-01T12:37:18,0,new,active
6020710916,67524968,,,Outdoor Centre,,,,Centre,,B9047,,,,opp,,SE,ES001800,Hoy,,,,,,,false,UKOS,323409,1003650,-3.33153,58.91328,BCT,CUS,OTH,,,,134,2013-07-01T00:00:00,2013-07-01T12:39:06,0,new,active
6020710917,67524969,,,Benethill Cafe,,,,Cafe,,B9047,,,,at,,W,N0078247,Moaness,Hoy,,,,,,false,UKOS,324144,1003947,-3.31887,58.91607,BCT,CUS,OTH,,,,134,2013-07-01T00:00:00,2013-07-01T12:44:36,0,new,active
6020710918,67524972,,,Benethill Cafe,,,,Cafe,,B9047,,,,opp,,E,N0078247,Moaness,Hoy,,,,,,false,UKOS,324142,1003963,-3.31891,58.91622,BCT,CUS,OTH,,,,134,2013-07-01T00:00:00,2013-07-01T12:47:00,0,new,active
6020710866,67524867,,,Setter Road End,,,,Road End,,B9047,,,,opp,,S,ES003779,South Walls,Hoy,,,,,,false,UKOS,333465,990030,-3.1529,58.79267,BCT,CUS,OTH,,,,134,2013-06-25T00:00:00,2013-06-25T12:48:24,0,new,active
6020710867,67524868,,,Cemetery,,,,Cemetery,,B9047,,,,at,,S,ES003779,South Walls,Hoy,,,,,,false,UKOS,333325,989584,-3.15519,58.78864,BCT,CUS,OTH,,,,134,2013-06-25T00:00:00,2013-06-25T12:58:54,0,new,active
6020710868,67524869,,,Stoop Road End,,,,Road End,,Minor Road,,,,at,,W,ES003779,South Walls,Hoy,,,,,,false,UKOS,332877,989723,-3.16298,58.78982,BCT,CUS,OTH,,,,134,2013-06-25T00:00:00,2013-06-25T16:10:48,0,new,active
6020710869,67524872,,,Eastbister,,,,Road End,,Minor Road,,,,at,,W,ES003779,South Walls,Hoy,,,,,,false,UKOS,331969,989811,-3.17871,58.79047,BCT,CUS,OTH,,,,134,2013-06-25T00:00:00,2013-06-25T16:23:36,0,new,active
6020710860,67524858,,,Kirbister Corner,,,,Corner,,B9047,,,,at,,E,ES003779,South Walls,Hoy,,,,,,false,UKOS,333031,991048,-3.16072,58.80174,BCT,CUS,OTH,,,,134,2013-06-25T00:00:00,2013-06-25T11:37:12,0,new,active
6020710861,67524859,,,Royal Hotel,,,,Hotel,,B9047,,,,opp,,E,ES003779,South Walls,Hoy,,,,,,false,UKOS,330313,990880,-3.20769,58.7998,BCT,CUS,OTH,,,,134,2013-06-25T00:00:00,2013-06-25T11:54:06,0,new,active
6020710870,67524876,,,Stromabank Hotel,,,,Hotel,,Minor Road,,,,opp,,W,ES003779,South Walls,Hoy,,,,,,false,UKOS,331684,989736,-3.18362,58.78975,BCT,CUS,OTH,,,,134,2013-06-25T00:00:00,2013-06-25T16:30:00,0,new,active
6020710875,67524879,,,Melsetter House,,,,House,,B9047,,,,opp,,SE,ES001800,Hoy,,,,,,,false,UKOS,327271,989530,-3.25988,58.78717,BCT,CUS,OTH,,,,134,2013-06-26T00:00:00,2013-07-03T11:05:30,1,new,active
6020710874,67524878,,,Melsetter House,,,,House,,B9047,,,,at,,NW,ES001800,Hoy,,,,,,,false,UKOS,327258,989523,-3.2601,58.78711,BCT,CUS,OTH,,,,134,2013-06-26T00:00:00,2013-07-03T11:04:24,1,new,active
6020710880,67524896,,,St John's Manse,,,,Manse,,B9047,,,,at,,NE,ES001800,Hoy,,,,,,,false,UKOS,328269,991205,-3.24316,58.80238,BCT,CUS,OTH,,,,134,2013-06-26T00:00:00,2013-07-03T12:40:48,1,new,active
6020710881,67524897,,,St John's Manse,,,,Mnase,,B9047,,,,opp,,SW,ES001800,Hoy,,,,,,,false,UKOS,328278,991193,-3.243,58.80227,BCT,CUS,OTH,,,,134,2013-06-26T00:00:00,2013-07-03T12:41:30,1,new,active
6020710877,67524893,,,Lifeboat Road End,,,,Road End,,B9047,,,,opp,,E,ES001800,Hoy,,,,,,,false,UKOS,328693,989094,-3.23515,58.7835,BCT,CUS,OTH,,,,134,2013-06-26T00:00:00,2013-07-03T12:18:06,1,new,active
6020710876,67524892,,,Lifeboat Road End,,,,Road End,,B9047,,,,at,,W,ES001800,Hoy,,,,,,,false,UKOS,328697,989078,-3.23507,58.78335,BCT,CUS,OTH,,,,134,2013-06-26T00:00:00,2013-07-03T11:06:30,1,new,active
6020710878,67524894,,,Foreman's Cottage,,,,Cottage,,B9047,,,,at,,NE,ES001800,Hoy,,,,,,,false,UKOS,327443,990111,-3.25709,58.79242,BCT,CUS,OTH,,,,134,2013-06-26T00:00:00,2013-07-03T12:38:12,1,new,active
6020710879,67524895,,,Foreman's Cottage,,,,Cottage,,B9047,,,,opp,,SW,ES001800,Hoy,,,,,,,false,UKOS,327456,990101,-3.25687,58.79233,BCT,CUS,OTH,,,,134,2013-06-26T00:00:00,2013-07-03T12:39:18,1,new,active
6020710862,67524862,,,Community Centre,,,,Centre,,B9047,,,,at,,E,ES003779,South Walls,Hoy,,,,,,false,UKOS,331275,990864,-3.19104,58.79981,BCT,CUS,OTH,,,,134,2013-06-25T00:00:00,2013-06-25T12:04:30,0,new,active
6020710863,67524863,,,Bayview,,,,House,,B9047,,,,opp,,NE,ES003779,South Walls,Hoy,,,,,,false,UKOS,331734,991046,-3.18316,58.80152,BCT,CUS,OTH,,,,134,2013-06-25T00:00:00,2013-06-25T12:08:48,0,new,active
6020710871,67524873,,,Bu' of Aith,,,,House,,Minor Road,,,,at,,W,ES003779,South Walls,Hoy,,,,,,false,UKOS,329770,989470,-3.21664,58.78705,BCT,CUS,OTH,,,,134,2013-06-26T00:00:00,2013-06-26T11:59:24,0,new,active
6020710872,67524874,,,Hurliness,,,,House,,B9047,,,,opp,,NW,ES001800,Hoy,,,,,,,false,UKOS,328322,989192,-3.2416,58.78432,BCT,CUS,OTH,,,,134,2013-06-26T00:00:00,2013-07-03T09:53:48,1,new,active
6020710873,67524875,,,Hurliness,,,,House,,B9047,,,,at,,SE,ES001800,Hoy,,,,,,,false,UKOS,328311,989217,-3.24179,58.78454,BCT,CUS,OTH,,,,134,2013-06-26T00:00:00,2013-07-03T11:02:30,1,new,active
6020710882,67524898,,,Muirs,,,,House,,B9047,,,,at,,NE,ES001800,Hoy,,,,,,,false,UKOS,329440,991343,-3.22294,58.80381,BCT,CUS,OTH,,,,134,2013-06-26T00:00:00,2013-07-03T12:42:12,1,new,active
6020710883,67524923,,,Muirs,,,,House,,B9047,,,,opp,,SW,ES001800,Hoy,,,,,,,false,UKOS,329436,991357,-3.22301,58.80394,BCT,CUS,OTH,,,,134,2013-06-26T00:00:00,2013-07-03T12:42:54,1,new,active
6020710940,67525243,,,Harbour Street,,,,Kirkwall Hotel,,Harbour Street,,,,Taxi Rank,,,ES002219,Kirkwall,,,,,,,false,UKOS,344974,1011249,-2.95907,58.98482,TXR,,,,,,134,2014-07-30T00:00:00,2015-11-12T15:49:18,2,new,active
6020710939,67525242,,,Broad Street,,,,Bank,,Broad Street,,,,Taxi Rank,,,ES002219,Kirkwall,,,,,,,false,UKOS,344909,1010947,-2.96013,58.9821,TXR,,,,,,134,2014-07-30T00:00:00,2015-11-12T15:48:48,2,new,active
6020710606,67524253,,,Grainbank Road End,,,,Road End,,,,,,at,,NW,ES002219,Kirkwall,,,,,,,false,UKOS,344007,1011469,-2.97595,58.98667,BCT,MKD,OTH,,,,134,2010-12-06T00:00:00,2016-02-11T12:05:30,3,new,active
6020710617,67524268,,,Daisy Cottage,,,,Cottage,,A964,,,,at,,E,ES002942,Orphir,,,,,,,false,UKOS,335350,1006269,-3.12502,58.93876,BCT,CUS,OTH,,,,134,2010-12-06T00:00:00,2011-01-18T10:58:00,1,new,active
6020710625,67524279,,,St Peter's Church,,,,Church,,,,,,at,,N,N0078261,Quoyloo,,,,,,,false,UKOS,323478,1019874,-3.33596,59.05895,BCT,CUS,OTH,,,,134,2010-12-06T00:00:00,2011-01-18T11:02:00,1,new,active
6020711032,67525424,,,Macmillan,,,,,,Foreland Road,,,,opp,,W,ES002219,Kirkwall,,,,,,,false,UKOS,344665,1009916,-2.96412,58.97281,BCT,MKD,OTH,,,,134,2019-03-08T00:00:00,2019-03-15T14:15:48,1,new,active
6020710952,67525262,,,Hall of Brecks,,,,Hall of Brecks,,Link Road,,,,at,,E,ES003396,Deerness,,,,,,,false,UKOS,355810,1006974,-2.76972,58.94769,BCT,CUS,OTH,,,,134,2014-10-15T00:00:00,2014-10-15T10:19:36,0,new,active
6020710951,67525259,,,Link Road End,,,,Road End,,Halley Road,,,,opp,,N,ES003396,Deerness,,,,,,,false,UKOS,355456,1006913,-2.77586,58.94711,BCT,CUS,OTH,,,,134,2014-10-15T00:00:00,2014-10-15T10:17:36,0,new,active
6020710627,67524283,,,Vestrafiold,,,,Vestrafiold,,,,,,at,,NW,N0078261,Quoyloo,,,,,,,false,UKOS,324441,1022302,-3.32001,59.08092,BCT,CUS,OTH,,,,134,2010-12-06T00:00:00,2011-01-18T11:03:00,1,new,active
6020710959,67525272,,,Barebreck Road End,,,,Road End,,Aikerskaill Road,,,,opp,,N,ES003396,Deerness,,,,,,,false,UKOS,358259,1005461,-2.72687,58.93435,BCT,CUS,OTH,,,,134,2014-10-15T00:00:00,2014-10-15T10:41:00,0,new,active
6020710598,67524242,,,Road End,,,,Road End,,A964,,,,at,,E,N0078257,Hobbister,Orphir,,,,,,false,UKOS,338684,1006810,-3.06725,58.94411,BCT,CUS,OTH,,,,134,2010-12-06T00:00:00,2011-01-18T10:53:00,1,new,active
6020710960,67525273,,,Colster Road End,,,,Road End,,Quoys Road,,,,at,,E,ES003396,Deerness,,,,,,,false,UKOS,358175,1005179,-2.72828,58.93181,BCT,CUS,OTH,,,,134,2014-10-15T00:00:00,2014-10-15T10:43:00,0,new,active
6020710950,67525258,,,South Keigar,,,,South Keigar,,Halley Road,,,,at,,N,ES003396,Deerness,,,,,,,false,UKOS,355555,1006415,-2.77404,58.94265,BCT,CUS,OTH,,,,134,2014-10-15T00:00:00,2014-10-15T10:14:18,0,new,active
6020710949,67525257,,,Moss Quoy,,,,Moss Quoy,,Halley Road,,,,at,,N,ES003396,Deerness,,,,,,,false,UKOS,355675,1005811,-2.77183,58.93724,BCT,CUS,OTH,,,,134,2014-10-15T00:00:00,2014-10-15T10:11:42,0,new,active
6020710953,67525263,,,Breckquoy Road End,,,,Road End,,Link Road,,,,at,,E,ES003396,Deerness,,,,,,,false,UKOS,356137,1007004,-2.76404,58.948,BCT,CUS,OTH,,,,134,2014-10-15T00:00:00,2014-10-15T10:21:42,0,new,active
6020710624,67524278,,,Smoogro Road End,,,,Road End,,A964,,,,opp,,NE,ES002942,Orphir,,,,,,,false,UKOS,336017,1006564,-3.11352,58.94151,BCT,CUS,OTH,,,,134,2010-12-06T00:00:00,2011-01-18T11:01:00,1,new,active
6020710958,67525269,,,Ploverhall Road End,,,,Road End,,Aikerskaill Road,,,,at,,N,ES003396,Deerness,,,,,,,false,UKOS,358173,1005720,-2.72842,58.93667,BCT,CUS,OTH,,,,134,2014-10-15T00:00:00,2014-10-15T10:37:30,0,new,active
6020710619,67524272,,,Ivy Cottage,,,,Cottage,,A964,,,,at,,SW,ES002942,Orphir,,,,,,,false,UKOS,334816,1006140,-3.13426,58.93752,BCT,CUS,OTH,,,,134,2010-12-06T00:00:00,2011-01-18T10:59:00,1,new,active
6020710335,67523537,,,Crossroads,,,,Junction of the A986 and A967,,,,,,NW-bound,,NW,N0067647,Twatt,,,,,,,false,UKOS,327096,1024197,-3.27433,59.09839,BCT,CUS,OTH,,,,134,2003-06-06T00:00:00,2014-10-14T16:28:30,9,new,active
6020710335A,67523538,,,Crossroads,,,,Junction of the A986 and A967,,,,,,SE-bound,,SE,N0067647,Twatt,,,,,,,false,UKOS,327071,1024232,-3.27478,59.0987,BCT,CUS,OTH,,,,134,2003-06-06T00:00:00,2019-07-05T11:31:12,9,new,active
6020710957,67525268,,,Glenavon,,,,Glenavon,,Denwick Road,,,,at,,SE,ES003396,Deerness,,,,,,,false,UKOS,356489,1005403,-2.75761,58.93366,BCT,CUS,OTH,,,,134,2014-10-15T00:00:00,2014-10-15T10:32:36,0,new,active
6020710956,67525267,,,Greenhall Road End,,,,Road End,,Denwick Road,,,,at,,SE,ES003396,Deerness,,,,,,,false,UKOS,356141,1005838,-2.76374,58.93753,BCT,CUS,OTH,,,,134,2014-10-15T00:00:00,2014-10-15T10:30:48,0,new,active
6020710955,67525265,,,Rosebank Road End,,,,Road End,,Denwick Road,,,,at,,SW,ES003396,Deerness,,,,,,,false,UKOS,356384,1006549,-2.75966,58.94394,BCT,CUS,OTH,,,,134,2014-10-15T00:00:00,2014-10-15T10:27:18,0,new,active
6020710954,67525264,,,Greentoft,,,,Greentoft,,Link Road,,,,at,,E,ES003396,Deerness,,,,,,,false,UKOS,356532,1006958,-2.75717,58.94762,BCT,CUS,OTH,,,,134,2014-10-15T00:00:00,2014-10-15T10:24:30,0,new,active
6020710948,67525256,,,Braebuster Road End,,,,Road End,,Halley Road,,,,at,,N,ES003396,Deerness,,,,,,,false,UKOS,355760,1005379,-2.77027,58.93337,BCT,CUS,OTH,,,,134,2014-10-15T00:00:00,2014-10-15T10:09:24,0,new,active
6020710947,67525254,,,Hacco,,,,Hacco,,Halley Road,,,,opp,,N,ES003396,Deerness,,,,,,,false,UKOS,355816,1004908,-2.7692,58.92914,BCT,CUS,OTH,,,,134,2014-10-15T00:00:00,2014-10-15T10:06:18,0,new,active
6020710621,67524274,,,Smithy Cottage,,,,Cottage,,A964,,,,at,,NE,ES002942,Orphir,,,,,,,false,UKOS,333823,1005782,-3.1514,58.93415,BCT,CUS,OTH,,,,134,2010-12-06T00:00:00,2011-01-18T11:00:00,1,new,active
6020710961,67525274,,,Quoys,,,,Quoys,,Quoys Road,,,,at,,NE,ES003396,Deerness,,,,,,,false,UKOS,357314,1004940,-2.74319,58.92958,BCT,CUS,OTH,,,,134,2014-10-15T00:00:00,2014-10-15T10:46:00,0,new,active
6020710532,67523876,,,Flaws,,,,Flaws,,A966,,,,opp,,W,ES000359,Birsay,,,,,,,false,UKOS,325878,1028022,-3.29689,59.13252,BCT,CUS,OTH,,,,134,2010-11-17T00:00:00,2014-11-05T16:34:30,6,new,active
6020710962,67525275,,,Newhouse Road End,,,,Road End,,Newark Road,,,,at,,SE,ES003396,Deerness,,,,,,,false,UKOS,356695,1005151,-2.75398,58.93141,BCT,CUS,OTH,,,,134,2014-10-15T00:00:00,2014-10-15T10:48:18,0,new,active
6020710537,67523894,,,Comely Road End,,,,Road End,,A960,,,,at,,SE,ES003396,Deerness,,,,,,,false,UKOS,353946,1003677,-2.80142,58.91789,BCT,CUS,OTH,,,,134,2010-11-18T00:00:00,2011-01-17T15:47:00,1,new,active
6020710982,67525364,,,Ferry Terminal,,,,Terminal,,A961,,,,at,,S,N0067627,Burwick,South Ronaldsay,,,,,,false,UKOS,343754,984021,-2.97341,58.74018,BCT,CUS,OTH,,,,134,2014-12-11T00:00:00,2014-12-22T14:43:06,3,new,active
6020710542,67523923,,,Garth Road End,,,,Road End,,A960,,,,opp,,SW,ES003396,Deerness,,,,,,,false,UKOS,355281,1003965,-2.7783,58.92062,BCT,CUS,OTH,,,,134,2010-11-18T00:00:00,2011-01-17T15:49:00,1,new,active
6020710540,67523897,,,Community Centre,,,,Centre,,B9050,,,,opp,,SW,ES003396,Deerness,,,,,,,false,UKOS,357077,1005694,-2.74745,58.93633,BCT,CUS,OTH,,,,134,2010-11-18T00:00:00,2011-01-17T15:48:00,2,new,active
6020710529,67523873,,,Community Centre,,,,Centre,,,,,,opp,,S,ES000359,Birsay,,,,,,,false,UKOS,325339,1026336,-3.30573,59.11729,BCT,CUS,OTH,,,,134,2010-11-09T00:00:00,2011-01-17T15:45:00,1,new,active
6020710818,67524767,,,Craigiefield,,,,Craigiefield,,Craigiefield Road,,,,opp,,NW,ES002219,Kirkwall,,,,,,,false,UKOS,346157,1012033,-2.93869,58.99201,BCT,CUS,OTH,,,,134,2011-09-26T00:00:00,2011-09-29T13:40:18,1,new,active
6020710521,67523862,,,School,,,,School,,A966,,,,opp,,SE,ES001322,Evie,,,,,,,false,UKOS,337820,1024716,-3.08733,59.10476,BCT,CUS,OTH,,,,134,2010-11-05T00:00:00,2011-01-17T15:36:00,1,new,active
6020710819,67524768,,,Cromwell Road,,,,Road End,,Shore Street,,,,at,,SW,ES002219,Kirkwall,,,,,,,false,UKOS,345187,1011378,-2.9554,58.98601,BCT,CUS,OTH,,,,134,2011-09-26T00:00:00,2015-09-22T09:23:00,4,new,active
6020710609,67524257,,,Skail Road,,,,Skail Road,,Islands View Road,,,,opp,,SE,ES002219,Kirkwall,,,,,,,false,UKOS,345455,1011682,-2.95082,58.98877,BCT,CUS,OTH,,,,134,2010-12-06T00:00:00,2014-12-11T14:46:36,3,new,active
6020710610,67524258,,,Weyland Park,,,,Weyland Park,,Cromwell Road,,,,opp,,NE,ES002219,Kirkwall,,,,,,,false,UKOS,345290,1011587,-2.95366,58.9879,BCT,CUS,OTH,,,,134,2010-12-06T00:00:00,2014-12-11T14:47:00,3,new,active
6020710600,67524245,,,Biggings Road End,,,,Shelter,,A961,,,,at,,S,ES001774,Holm,,,,,,,false,UKOS,347064,1002116,-2.92053,58.90308,BCT,MKD,OTH,,,,134,2010-12-06T00:00:00,2016-02-11T12:00:48,7,new,active
6020710602,67524247,,,St Clair Farm,,,,Farm,,A961,,,,at,,SE,ES001774,Holm,,,,,,,false,UKOS,345601,1005603,-2.94678,58.93421,BCT,CUS,OTH,,,,134,2010-12-06T00:00:00,2011-01-18T10:54:00,1,new,active
6020710522,67523863,,,Road End,,,,Airport,,A960,,,,opp,,W,N0078254,Kirkwall Airport,Kirkwall,,,,,,false,UKOS,348242,1007648,-2.90138,58.9529,BCT,CUS,OTH,,,,134,2010-11-05T00:00:00,2013-03-01T10:31:06,2,new,active
6020710527,67523869,,,Chocolate Cottage,,,,Cottage,,A966,,,,opp,,SW,ES000359,Birsay,,,,,,,false,UKOS,326553,1028139,-3.28513,59.13369,BCT,CUS,OTH,,,,134,2010-11-09T00:00:00,2011-01-17T15:44:00,1,new,active
6020710525,67523867,,,Swannay Farm,,,,Farm,,A966,,,,opp,,SW,N0078260,Swannay,,,,,,,false,UKOS,329492,1029072,-3.2341,59.14257,BCT,CUS,OTH,,,,134,2010-11-05T00:00:00,2011-01-17T15:43:00,2,new,active
6020710524,67523865,,,Quoyloo Road End,,,,Road End,,,,,,SW-bound,,SW,N0078261,Quoyloo,,,,,,,false,UKOS,324285,1021149,-3.32233,59.07054,BCT,CUS,OTH,,,,134,2010-11-05T00:00:00,2011-01-17T15:37:00,4,new,active
6020710817,67524765,,,Clumly Avenue,,,,Road End,,Islands View Road,,,,at,,SW,ES002219,Kirkwall,,,,,,,false,UKOS,345626,1011723,-2.94785,58.98916,BCT,CUS,OTH,,,,134,2011-09-26T00:00:00,2011-09-29T13:35:24,1,new,active
6020710523,67523864,,,Junction,,,,Junction,,,,,,at,,NW,ES001721,Marwick,,,,,,,false,UKOS,324277,1024044,-3.32347,59.09653,BCT,CUS,OTH,,,,134,2010-11-05T00:00:00,2011-01-17T15:40:00,2,new,active
6020710993,67525348,,,Quoybow,,,,House,,Howe Road,,,,at,,SW,ES003556,Stromness,,,,,,,false,UKOS,327015,1010645,-3.27125,58.97671,BCT,CUS,OTH,,,,134,2014-12-11T00:00:00,2014-12-11T14:55:48,0,new,active
6020710517,67523854,,,Community Centre,,,,Community Centre,,Old Finstown Road,,,,opp,,SE,N0067496,Finstown,Firth,,,,,,false,UKOS,336377,1013467,-3.10926,59.00354,BCT,CUS,OTH,,,,134,2010-09-03T00:00:00,2011-01-14T14:02:00,1,new,active
6020710992,67525347,,,Bu Road End,,,,Road End,,Howe Road,,,,at,,SW,ES003556,Stromness,,,,,,,false,UKOS,326812,1010425,-3.2747,58.9747,BCT,CUS,OTH,,,,134,2014-12-11T00:00:00,2014-12-11T14:52:48,0,new,active
6020710516,67523853,,,Cursiter Farm,,,,Farm,,Old Finstown Road,,,,at,,SE,ES001394,Firth,,,,,,,false,UKOS,337740,1012536,-3.08527,58.99539,BCT,CUS,OTH,,,,134,2010-09-03T00:00:00,2011-01-14T14:06:00,1,new,active
6020710991,67525346,,,Navershaw Road End,,,,Road End,,Howe Road,,,,at,,SW,ES003556,Stromness,,,,,,,false,UKOS,326432,1010149,-3.28122,58.97216,BCT,CUS,OTH,,,,134,2014-12-11T00:00:00,2014-12-11T14:49:48,0,new,active
6020710919,67524973,,,Redbanks,,,,Redbanks,,Yinstay Road,,,,at,,E,N0078253,Tankerness,,,,,,,false,UKOS,352246,1010418,-2.83239,58.97824,BCT,CUS,OTH,,,,134,2014-03-10T00:00:00,2014-12-02T16:09:30,2,new,active
6020710418,67523652,,,Redbanks,,,,Redbanks,,Yinstay Road,,,,opp,,W,N0078253,Tankerness,,,,,,,false,UKOS,352239,1010405,-2.83251,58.97812,BCT,CUS,OTH,,,,134,2008-03-17T00:00:00,2014-11-27T14:19:30,6,new,active
6020710515,67523852,,,Zion's Loan,,,,Road End,,Old Finstown Road,,,,at,,SE,ES001394,Firth,,,,,,,false,UKOS,338407,1012184,-3.07357,58.99232,BCT,CUS,OTH,,,,134,2010-09-03T00:00:00,2011-01-14T14:05:00,1,new,active
6020710994,67525349,,,Howe Farm,,,,Farm,,Howe Road,,,,at,,SW,ES003556,Stromness,,,,,,,false,UKOS,327427,1010954,-3.26418,58.97955,BCT,CUS,OTH,,,,134,2014-12-11T00:00:00,2014-12-11T14:59:00,0,new,active
6020710356A,67523423,,,Dale Farm,,,,Dale Farm,,Outertown Road,,,,at,,E,ES003556,Stromness,,,,,,,false,UKOS,323997,1009210,-3.32323,58.9633,BCT,CUS,OTH,,,,134,2003-06-09T00:00:00,2014-11-28T11:06:00,9,new,active
6020710356,67523298,,,Dale Farm,,,,Dale Farm,,Outertown Road,,,,opp,,W,ES003556,Stromness,,,,,,,false,UKOS,323996,1009202,-3.32325,58.96323,BCT,CUS,OTH,,,,134,2003-06-09T00:00:00,2014-11-28T11:05:12,9,new,active
6020710514,67523849,,,Cruan Riding School,,,,Road End,,Old Finstown Road,,,,opp,,E,ES001394,Firth,,,,,,,false,UKOS,337039,1012729,-3.09752,58.99702,BCT,CUS,OTH,,,,134,2010-09-03T00:00:00,2011-01-14T14:08:00,1,new,active
6020710998,67525356,,,Girvan,,,,House,,Ireland Road,,,,opp,,NE,ES003463,Stenness,,,,,,,false,UKOS,329938,1011124,-3.22057,58.9815,BCT,CUS,OTH,,,,134,2014-12-11T00:00:00,2014-12-11T15:45:30,0,new,active
6020710508,67523842,,,Bloomfield North Road End,,,,Road End,,Old Finstown Road,,,,at,,W,ES002220,St Ola,,,,,,,false,UKOS,341621,1010602,-3.01723,58.97857,BCT,CUS,OTH,,,,134,2010-09-02T00:00:00,2011-01-14T15:49:00,2,new,active
6020710996,67525353,,,Stennegeo,,,,House,,Ireland Road,,,,opp,,SW,ES003463,Stenness,,,,,,,false,UKOS,330364,1011327,-3.21322,58.98339,BCT,CUS,OTH,,,,134,2014-12-11T00:00:00,2014-12-11T15:32:36,0,new,active
6020711009,67525373,,,Mossedge Road End,,,,Road End,,B9044,,,,at,,NE,ES003369,South Ronaldsay,,,,,,,false,UKOS,345812,991176,-2.93959,58.80469,BCT,CUS,OTH,,,,134,2015-09-21T00:00:00,2015-09-21T11:45:30,0,new,active
6020710990,67525345,,,Mossedge Road End,,,,Road End,,B9044,,,,opp,,SW,ES003369,South Ronaldsay,,,,,,,false,UKOS,345824,991166,-2.93938,58.8046,BCT,CUS,OTH,,,,134,2014-12-11T00:00:00,2014-12-11T14:35:36,0,new,active
6020710510,67523845,,,Lesliedale,,,,Farm,,Old Finstown Road,,,,at,,W,ES001394,Firth,,,,,,,false,UKOS,340660,1010822,-3.034,58.98041,BCT,CUS,OTH,,,,134,2010-09-02T00:00:00,2011-01-14T14:04:00,1,new,active
6020710501,67523829,,,Blackhill Road End,,,,Blackhill Road End,,Sunnybank Road,,,,at,,N,ES002220,St Ola,,,,,,,false,UKOS,342971,1011398,-2.99396,58.9859,BCT,CUS,OTH,,,,134,2010-05-14T00:00:00,2014-12-11T14:45:00,6,new,active
6020710814,67524762,,,Craigiefield Park,,,,Road end,,Craigiefield Road,,,,opp,,W,ES002219,Kirkwall,,,,,,,false,UKOS,345782,1012356,-2.94529,58.99487,BCT,CUS,OTH,,,,134,2011-09-26T00:00:00,2011-09-29T13:39:30,2,new,active
6020711006,67525368,,,Murrayfield,,,,Road End,,B9044,,,,opp,,NW,ES003369,South Ronaldsay,,,,,,,false,UKOS,347356,993881,-2.91351,58.82917,BCT,CUS,OTH,,,,134,2015-09-21T00:00:00,2015-09-21T10:34:24,0,new,active
6020710987,67525329,,,Murrayfield,,,,Road End,,B9044,,,,at,,SE,ES003369,South Ronaldsay,,,,,,,false,UKOS,347371,993887,-2.91325,58.82923,BCT,CUS,OTH,,,,134,2014-12-11T00:00:00,2014-12-11T14:25:00,0,new,active
6020711008,67525372,,,Cauldhame Road End,,,,Road End,,B9044,,,,opp,,NE,ES003369,South Ronaldsay,,,,,,,false,UKOS,346781,992111,-2.92305,58.81321,BCT,CUS,OTH,,,,134,2015-09-21T00:00:00,2015-09-21T11:42:30,0,new,active
6020710989,67525343,,,Cauldhame Road End,,,,Road End,,B9044,,,,at,,SW,ES003369,South Ronaldsay,,,,,,,false,UKOS,346790,992097,-2.92289,58.81308,BCT,CUS,OTH,,,,134,2014-12-11T00:00:00,2014-12-11T14:33:00,0,new,active
6020710815,67524763,,,Weyland Farm,,,,Farm,,Work Road,,,,opp,,NE,ES002219,Kirkwall,,,,,,,false,UKOS,346034,1011306,-2.94065,58.98547,BCT,CUS,OTH,,,,134,2011-09-26T00:00:00,2011-09-29T13:47:30,2,new,active
6020711007,67525369,,,South Cara,,,,Road End,,B9044,,,,opp,,NW,ES003369,South Ronaldsay,,,,,,,false,UKOS,347761,992920,-2.90627,58.82059,BCT,CUS,OTH,,,,134,2015-09-21T00:00:00,2015-09-21T10:38:36,0,new,active
6020710988,67525342,,,South Cara,,,,Road End,,B9044,,,,at,,SE,ES003369,South Ronaldsay,,,,,,,false,UKOS,347777,992925,-2.906,58.82064,BCT,CUS,OTH,,,,134,2014-12-11T00:00:00,2014-12-18T14:59:30,1,new,active
6020710927,67524984,,,Scarpigar Road End,,,,Road End,,Yinstay Road,,,,opp,,NE,N0078253,Tankerness,,,,,,,false,UKOS,351046,1010335,-2.85325,58.97735,BCT,CUS,OTH,,,,134,2014-03-11T00:00:00,2014-12-02T16:12:48,2,new,active
6020710855,67524849,,,Scarpigar Road End,,,,Road End,,Yinstay Road,,,,at,,SW,N0078253,Tankerness,,,,,,,false,UKOS,351051,1010323,-2.85316,58.97725,BCT,CUS,OTH,,,,134,2012-04-11T00:00:00,2014-11-27T14:20:42,2,new,active
6020710926,67524983,,,Woodside Road End,,,,Road End,,Yinstay Road,,,,opp,,E,N0078253,Tankerness,,,,,,,false,UKOS,351801,1010376,-2.84012,58.97781,BCT,CUS,OTH,,,,134,2014-03-11T00:00:00,2014-12-02T16:12:24,2,new,active
6020710854,67524848,,,Woodside Road End,,,,Road End,,Yinstay Road,,,,at,,W,N0078253,Tankerness,,,,,,,false,UKOS,351797,1010361,-2.84019,58.97767,BCT,CUS,OTH,,,,134,2012-04-11T00:00:00,2014-11-27T14:21:48,2,new,active
6020710925,67524982,,,Heatherhouse Road End,,,,Road End,,Yinstay Road,,,,at,,NE,N0078253,Tankerness,,,,,,,false,UKOS,352955,1010595,-2.8201,58.9799,BCT,CUS,OTH,,,,134,2014-03-11T00:00:00,2014-12-02T16:12:00,2,new,active
6020710853,67524847,,,Heatherhouse Road End,,,,Road End,,Yinstay Road,,,,opp,,SW,N0078253,Tankerness,,,,,,,false,UKOS,352960,1010579,-2.82001,58.97976,BCT,CUS,OTH,,,,134,2012-04-11T00:00:00,2014-12-02T16:09:00,3,new,active
6020710924,67524979,,,Rerwick Road End,,,,Road End,,tankerness Hall Road,,,,at,,SW,N0078253,Tankerness,,,,,,,false,UKOS,353480,1010095,-2.81086,58.97547,BCT,CUS,OTH,,,,134,2014-03-11T00:00:00,2014-12-02T16:11:36,2,new,active
6020710852,67524846,,,Rerwick Road End,,,,Road End,,Tankerness Hall Road,,,,opp,,NE,N0078253,Tankerness,,,,,,,false,UKOS,353457,1010106,-2.81127,58.97557,BCT,CUS,OTH,,,,134,2012-04-11T00:00:00,2014-11-27T15:39:00,4,new,active
6020710928,67524985,,,Smiddyquoy Road End,,,,Road End,,Yinstay Road,,,,at,,N,N0078253,Tankerness,,,,,,,false,UKOS,350793,1009739,-2.85751,58.97197,BCT,CUS,OTH,,,,134,2014-03-11T00:00:00,2014-12-02T16:13:18,2,new,active
6020710856,67524852,,,Smiddyquoy Road End,,,,Road End,,Yinstay Road,,,,opp,,S,N0078253,Tankerness,,,,,,,false,UKOS,350807,1009729,-2.85727,58.97189,BCT,CUS,OTH,,,,134,2012-04-11T00:00:00,2014-11-27T14:22:54,2,new,active
6020710921,67524975,,,Hall of Tankerness Road End,,,,Road End,,Tankerness Road,,,,at,,SW,N0078253,Tankerness,,,,,,,false,UKOS,352091,1008961,-2.83477,58.96514,BCT,CUS,OTH,,,,134,2014-03-11T00:00:00,2014-12-02T16:10:30,2,new,active
6020710849,67524842,,,Hall of Tankerness Road End,,,,Road End,,Tankerness Hall Road,,,,opp,,NE,N0078253,Tankerness,,,,,,,false,UKOS,352092,1008974,-2.83476,58.96525,BCT,CUS,OTH,,,,134,2012-04-06T00:00:00,2014-11-27T14:17:24,3,new,active
6020710920,67524974,,,Northwood House,,,,Northwood House,,Yinstay Road,,,,opp,,S,N0078253,Tankerness,,,,,,,false,UKOS,351631,1008652,-2.8427,58.96231,BCT,CUS,OTH,,,,134,2014-03-10T00:00:00,2014-12-02T16:10:00,3,new,active
6020710848,67524839,,,Northwood House,,,,House,,Tankerness Hall Road,,,,at,,N,N0078253,Tankerness,,,,,,,false,UKOS,351616,1008650,-2.84296,58.96229,BCT,CUS,OTH,,,,134,2012-04-06T00:00:00,2014-11-27T14:13:12,6,new,active
6020710929,67524986,,,Burnside Road End,,,,Road End,,Yinstay Road,,,,opp,,NE,N0078253,Tankerness,,,,,,,false,UKOS,350607,1009059,-2.8606,58.96585,BCT,CUS,OTH,,,,134,2014-03-11T00:00:00,2014-12-02T16:13:42,2,new,active
6020710857,67524853,,,Burnside Road End,,,,Road End,,Yinstay Road,,,,at,,SW,N0078253,Tankerness,,,,,,,false,UKOS,350624,1009055,-2.8603,58.96581,BCT,CUS,OTH,,,,134,2012-04-11T00:00:00,2014-11-27T14:24:48,3,new,active
6020710923,67524978,,,Upper Lidda Road End,,,,Road End,,Tankerness Hall Road,,,,at,,SW,N0078253,Tankerness,,,,,,,false,UKOS,353184,1009982,-2.81599,58.97442,BCT,CUS,OTH,,,,134,2014-03-11T00:00:00,2014-12-02T16:11:18,2,new,active
6020710851,67524845,,,Upper Lidda Road End,,,,Road End,,Tankerness Hall Road,,,,opp,,NE,N0078253,Tankerness,,,,,,,false,UKOS,353172,1009989,-2.8162,58.97449,BCT,CUS,OTH,,,,134,2012-04-11T00:00:00,2014-11-27T15:33:06,2,new,active
6020710922,67524976,,,Skibbowick Road End,,,,Road End,,Tankerness Hall Road,,,,opp,,SW,N0078253,Tankerness,,,,,,,false,UKOS,352838,1009847,-2.82198,58.97317,BCT,CUS,OTH,,,,134,2014-03-11T00:00:00,2014-12-02T16:10:54,2,new,active
6020710850,67524843,,,Skibbowick Road End,,,,Road End,,Tankerness Hall Road,,,,at,,NE,N0078253,Tankerness,,,,,,,false,UKOS,352833,1009859,-2.82206,58.97328,BCT,CUS,OTH,,,,134,2012-04-11T00:00:00,2014-11-27T15:31:24,6,new,active
6020711003,67525363,,,Crantit Dairy Road End,,,,Dairy,,B9148,,,,opp,,NE,ES002219,Kirkwall,,,,,,,false,UKOS,344689,1009392,-2.96357,58.96811,BCT,CUS,OTH,,,,134,2014-12-12T00:00:00,2014-12-12T12:18:12,0,new,active
6020710965,67525279,,,Crantit Dairy Road End,,,,Dairy,,New Scapa Road,,,,at,,NE,ES002219,Kirkwall,,,,,,,false,UKOS,344671,1009397,-2.96388,58.96815,BCT,CUS,OTH,,,,134,2014-11-26T00:00:00,2014-11-26T12:32:48,0,new,active
6020710512,67523847,,,Bridgend,,,,House,,Old Finstown Road,,,,opp,,W,ES001394,Firth,,,,,,,false,UKOS,339364,1011721,-3.05679,58.9883,BCT,CUS,OTH,,,,134,2010-09-03T00:00:00,2011-01-14T14:05:00,1,new,active
6020710964,67525278,,,Car Park,,,,Car Park,,B9053,,,,at,,SE,N0078256,Scapa,St Ola,,,,,,false,UKOS,344314,1008580,-2.96988,58.96077,BCT,MKD,OTH,,,,134,2014-11-26T00:00:00,2016-02-11T12:09:18,2,new,active
6020711001,67525359,,,Upper Scapa,,,,Upper Scapa,,B9053,,,,at,,N,N0078256,Scapa,St Ola,,,,,,false,UKOS,343878,1009111,-2.9776,58.96548,BCT,CUS,OTH,,,,134,2014-12-12T00:00:00,2014-12-12T12:10:30,0,new,active
6020710963,67525276,,,Upper Scapa,,,,Upper Scapa,,B9053,,,,opp,,S,N0078256,Scapa,St Ola,,,,,,false,UKOS,343894,1009111,-2.97732,58.96548,BCT,CUS,OTH,,,,134,2014-11-26T00:00:00,2014-11-26T12:23:36,0,new,active
6020710476,67523764,,,Pier,,,,Pier,,B9047,,,,at,,W,N0078247,Moaness,Hoy,,,,,,false,UKOS,324414,1003983,-3.3142,58.91644,BCT,CUS,OTH,,,,134,2009-06-08T00:00:00,2013-07-29T12:29:00,3,new,active
6020710967,67525283,,,Billia Croo,,,,Road End,,Outertown Road,,,,opp,,SE,ES003556,Stromness,,,,,,,false,UKOS,322801,1010485,-3.34447,58.97453,BCT,CUS,OTH,,,,134,2014-11-28T00:00:00,2014-11-28T11:12:24,0,new,active
6020712009,67525435,,,Kettletoft,,,,,,B9068,,,,S-bound,,S,ES003239,Sanday,,,Sanday,EN,,,false,UKOS,365853,1038481,-2.60011,59.23154,BCT,MKD,OTH,,,,134,2016-09-07T00:00:00,2021-04-07T14:23:12,3,new,active
6020712008,67525434,,,Lower Road End,,,,,,B9068,,,,S-bound,,S,ES003239,Sanday,,,Sanday,EN,,,false,UKOS,366105,1039708,-2.59589,59.24258,BCT,CUS,OTH,,,,134,2016-09-07T00:00:00,2021-04-07T14:31:37,1,new,active
6020710999,67525357,,,Villasquoy,,,,House,,Ireland Road,,,,at,,SW,ES003463,Stenness,,,,,,,false,UKOS,329721,1010217,-3.22405,58.97332,BCT,CUS,OTH,,,,134,2014-12-11T00:00:00,2014-12-11T15:48:48,0,new,active
6020710326,67523485,,,Wasdale Crescent,,,,End of Wasdale crescent,,Islands View Road,,,,opp,,NE,ES002219,Kirkwall,,,,,,,false,UKOS,345565,1011649,-2.94889,58.98849,BCT,CUS,OTH,,,,134,2003-06-06T00:00:00,2014-12-11T14:42:24,6,new,active
6020710326A,67523486,,,Wasdale Crescent,,,,Road End,,Islands View Road,,,,at,,SW,ES002219,Kirkwall,,,,,,,false,UKOS,345564,1011643,-2.94891,58.98844,BCT,CUS,OTH,,,,134,2003-06-06T00:00:00,2011-09-23T14:56:42,4,new,active
6020711005,67525367,,,Heilendi Practice,,,,Practice,,Scapa Crescent,,,,opp,,NW,ES002219,Kirkwall,,,,,,,false,UKOS,344932,1010033,-2.9595,58.9739,BCT,CUS,OTH,,,,134,2014-12-18T00:00:00,2014-12-22T14:45:06,1,new,active
6020711004,67525365,,,Heilendi Pratice,,,,Practice,,Scapa Crescent,,,,at,,SE,ES002219,Kirkwall,,,,,,,false,UKOS,344946,1010039,-2.95926,58.97395,BCT,CUS,OTH,,,,134,2014-12-18T00:00:00,2014-12-22T14:44:30,1,new,active
6020711012,67525376,,,Repeater Road,,,,Road End,,Berstane Loan,,,,at,,NE,ES002219,Kirkwall,,,,,,,false,UKOS,346055,1009672,-2.93988,58.9708,BCT,MKD,OTH,,,,134,2015-09-22T00:00:00,2016-02-11T12:09:42,1,new,active
6020711011,67525375,,,Orkney Golf Club,,,,Golf Club,,,,,,at,,NW,ES002219,Kirkwall,,,,,,,false,UKOS,343640,1011640,-2.98238,58.98816,BCT,MKD,OTH,,,,134,2015-09-22T00:00:00,2016-02-11T12:05:48,1,new,active
6020711010,67525374,,,Annfield Crescent,,,,Road End,,Berstane Road,,,,opp,,NW,ES002219,Kirkwall,,,,,,,false,UKOS,345673,1011048,-2.94687,58.98311,BCT,MKD,OTH,,,,134,2015-09-21T00:00:00,2016-02-11T12:03:36,1,new,active
6020711013,67525378,,,Reid Crescent Path,,,,Path,,Berstane Road,,,,at,,NW,ES002219,Kirkwall,,,,,,,false,UKOS,346018,1010766,-2.9408,58.98062,BCT,MKD,OTH,,,,134,2015-09-22T00:00:00,2016-02-11T12:10:06,2,new,active
6020710328,67523472,,,Grammar School,,,,School,,The Meadows,,,,at,,NE,ES002219,Kirkwall,,,,,,,false,UKOS,345790,1010613,-2.94472,58.97922,BCT,MKD,OTH,,,,134,2003-06-06T00:00:00,2010-04-13T13:19:00,2,new,active
6020711014,67525379,,,Grammar School,,,,School,,The Meadows,,,,opp,,SW,ES002219,Kirkwall,,,,,,,false,UKOS,345755,1010521,-2.94531,58.97839,BCT,MKD,OTH,,,,134,2015-09-22T00:00:00,2016-02-11T12:10:48,1,new,active
6020712006,67525432,,,South End Road End,,,,,,B9070,,,,W-bound,,W,ES003239,Sanday,,,Sanday,EN,,,false,UKOS,365903,1040423,-2.59954,59.24898,BCT,CUS,OTH,,,,134,2016-09-07T00:00:00,2021-04-07T14:33:04,1,new,active
6020710803,67524746,,,Papdale Place,,,,Road End,,The Meadows,,,,at,,NE,ES002219,Kirkwall,,,,,,,false,UKOS,345857,1010721,-2.94359,58.98019,BCT,MKD,OTH,,,,134,2011-09-22T00:00:00,2016-02-11T12:02:54,3,new,active
6020712004,67525429,,,Coo Road,,,,,,B9070,,,,at,,W,ES003239,Sanday,,,Sanday,EN,,,false,UKOS,364935,1040601,-2.61654,59.2505,BCT,CUS,OTH,,,,134,2016-09-07T00:00:00,2021-04-07T14:40:37,1,new,active
6020710805,67524748,,,Hermaness,,,,Road End,,Marwick Drive,,,,opp,,NW,ES002219,Kirkwall,,,,,,,false,UKOS,345704,1010297,-2.94614,58.97637,BCT,CUS,OTH,,,,134,2011-09-22T00:00:00,2015-07-07T10:35:42,4,new,active
6020712003,67525428,,,Boloquoy Road End,,,,,,B9070,,,,at,,NW,ES003239,Sanday,,,,,,,false,UKOS,363483,1039016,-2.64173,59.23615,BCT,CUS,OTH,,,,134,2016-09-07T00:00:00,2021-04-07T15:03:45,2,new,active
6020710807,67524752,,,Ronaldsvoe,,,,Road End,,Muir Drive,,,,opp,,SW,ES002219,Kirkwall,,,,,,,false,UKOS,345852,1010293,-2.94357,58.97635,BCT,CUS,OTH,,,,134,2011-09-22T00:00:00,2011-09-29T13:53:54,1,new,active
6020712002,67525427,,,Holland,,,,,,B9070,,,,at,,E,ES003239,Sanday,,,Sanday,EN,,,false,UKOS,361641,1036926,-2.67364,59.21722,BCT,CUS,OTH,,,,134,2016-09-07T00:00:00,2021-04-07T14:47:30,2,new,active
6020710796,67524736,,,Pickaquoy Leisure Centre,,,,Leisure Centre,,,,,,opp,,SE,ES002219,Kirkwall,,,,,,,false,UKOS,344311,1011059,-2.97056,58.98303,BCT,CUS,OTH,,,,134,2011-05-11T00:00:00,2011-05-11T10:27:00,1,new,active
6020712001,67525426,,,Braeswick,,,,,,B9070,,,,E-bound,,E,ES003239,Sanday,,,Sanday,EN,,,false,UKOS,360983,1037036,-2.68518,59.21814,BCT,CUS,OTH,,,,134,2016-09-07T00:00:00,2021-04-07T14:48:23,3,new,active
6020710798,67524738,,,Peerie Sea Loan,,,,Road End,,,,,,opp,,S,ES002219,Kirkwall,,,,,,,false,UKOS,344270,1011312,-2.97134,58.9853,BCT,CUS,OTH,,,,134,2011-05-11T00:00:00,2015-09-22T09:30:00,3,new,active
6020710799,67524739,,,Ayre Mills,,,,Ayre Mills,,Ayre Road,,,,opp,,E,ES002219,Kirkwall,,,,,,,false,UKOS,344368,1011374,-2.96965,58.98587,BCT,CUS,OTH,,,,134,2011-05-11T00:00:00,2011-05-11T10:25:00,0,new,active
602071200,67525425,,,Loth Pier,,,,Linkspan,,B9070,,,,at,,E,ES003239,Sanday,,,Sanday,EN,,,false,UKOS,360315,1033958,-2.69632,59.19044,BCT,MKD,OTH,,,,134,2016-09-07T00:00:00,2021-04-07T14:49:19,9,new,active
6020712007,67525436,,,Hill Road End,,,,,,B9068,,,,S-bound,,S,ES003239,Sanday,,,Sanday,EN,,,false,UKOS,365938,1040311,-2.59891,59.24798,BCT,CUS,OTH,,,,134,2016-09-07T00:00:00,2021-04-07T14:50:08,1,new,active
6020710795,67524735,,,Glaitness School,,,,School,,,,,,opp,,SE,ES002219,Kirkwall,,,,,,,false,UKOS,344361,1010974,-2.96967,58.98227,BCT,CUS,OTH,,,,134,2011-05-11T00:00:00,2015-09-22T09:28:30,2,new,active
6020711030,67525398,,,Hospital Entrance,,,,,,Scapa Court,,,,at,,N,ES002219,Kirkwall,,,,,,,false,UKOS,344623,1010084,-2.96489,58.97432,BCT,MKD,OTH,,,,134,2019-01-30T00:00:00,2019-01-30T12:22:06,0,new,active
6020710404,67523632,,,Travel Centre,,,,Travel Centre,,,,,,Stand 4,,,ES002219,Kirkwall,,,,,,,false,UKOS,344791,1011052,-2.96221,58.98303,BCS,,,,,,134,2007-10-26T00:00:00,2011-01-17T12:26:00,5,new,active
6020710405,67523634,,,Travel Centre,,,,Travel Centre,,West Castle Street,,,,Stand 5,,,ES002219,Kirkwall,,,,,,,false,UKOS,344781,1011057,-2.96238,58.98307,BCS,,,,,,134,2007-10-26T00:00:00,2011-01-17T12:26:00,5,new,active
6020710406,67523635,,,Travel Centre,,,,Travel Centre,,West Castle Street,,,,Entrance,,,ES002219,Kirkwall,,,,,,,false,UKOS,344760,1011072,-2.96275,58.98321,BCE,,,,,,134,2007-10-26T00:00:00,2011-01-17T12:26:00,5,new,active
6020701401,67523834,,,Travel Centre,,,,Travel Centre,,West Castle Street,,,,Stand 1,,,ES002219,Kirkwall,,,,,,,false,UKOS,344814,1011036,-2.9618,58.98289,BCS,,,,,,134,2007-10-26T00:00:00,2011-01-17T12:26:00,4,new,active
6020710402,67523628,,,Travel Centre,,,,Travel Centre,,West Castle Street,,,,Stand 2,,,ES002219,Kirkwall,,,,,,,false,UKOS,344806,1011040,-2.96195,58.98292,BCS,,,,,,134,2007-10-26T00:00:00,2011-01-17T12:26:00,5,new,active
6020711028,67525396,,,New Balfour Hospital,,,,,,New Scapa Road,,,,at,,N,ES002219,Kirkwall,,,,,,,false,UKOS,344726,1010103,-2.9631,58.9745,BCT,MKD,OTH,,,,134,2019-01-30T00:00:00,2019-02-01T11:44:42,1,new,active
6020710865,67524865,,,Martello Tower Road End,,,,Road End,,B9047,,,,at,,SE,ES003779,South Walls,Hoy,,,,,,false,UKOS,333172,990868,-3.15822,58.80014,BCT,CUS,OTH,,,,134,2013-06-25T00:00:00,2013-07-03T14:57:48,1,new,active
6020710434,67523684,,,Easdale Close,,,,Junction with Easdale Close,,Easdale Loan,,,,at,,NE,ES002219,Kirkwall,,,,,,,false,UKOS,345440,1009839,-2.95062,58.97222,BCT,CUS,OTH,,,,134,2008-06-11T00:00:00,2010-04-13T13:18:00,1,new,active
6020710864,67524864,,,Myre Cottage,,,,Cottage,,B9047,,,,at,,SE,ES003779,South Walls,Hoy,,,,,,false,UKOS,332474,991050,-3.17035,58.80167,BCT,CUS,OTH,,,,134,2013-06-25T00:00:00,2013-06-25T12:16:00,0,new,active
6020710812,67524758,,,Upper Crantit Road,,,,Road End,,Holm Branch Road,,,,at,,NW,ES002219,Kirkwall,,,,,,,false,UKOS,345013,1009823,-2.95804,58.97202,BCT,CUS,OTH,,,,134,2011-09-22T00:00:00,2011-09-29T13:54:24,1,new,active
6020711025,67525395,,,Smiddybrae House,,,,House,,,,,,opp,,NE,N0067478,Dounby,,,,,,,false,UKOS,329459,1020724,-3.23198,59.06761,BCT,CUS,OTH,,,,134,2016-09-26T00:00:00,2016-09-26T15:06:48,0,new,active
6020710822,67524783,,,Earl Thorfinn Street,,,,Road End,,Clay Loan,,,,opp,,E,ES002219,Kirkwall,,,,,,,false,UKOS,345052,1010498,-2.95753,58.97809,BCT,CUS,OTH,,,,134,2011-10-04T00:00:00,2014-12-22T14:46:36,1,new,active
6020711024,67525394,,,Smiddybrae House,,,,House,,,,,,at,,SW,N0067478,Dounby,,,,,,,false,UKOS,329478,1020724,-3.23165,59.06761,BCT,CUS,OTH,,,,134,2016-09-26T00:00:00,2016-09-26T15:04:54,0,new,active
6020710518,67523856,,,Carters Park Road,,,,Road End,,Berstane Road,,,,at,,W,ES002219,Kirkwall,,,,,,,false,UKOS,345413,1011106,-2.9514,58.9836,BCT,MKD,OTH,,,,134,2010-09-03T00:00:00,2016-02-11T12:04:00,3,new,active
6020710825,67524785,,,Tesco,,,,Supermarket,,,,,,at,,NW,ES002219,Kirkwall,,,,,,,false,UKOS,344494,1010833,-2.96732,58.98103,BCT,CUS,OTH,,,,134,2012-01-17T00:00:00,2020-11-27T11:16:54,6,new,active
6020710824,67524786,,,Pier,,,,Pier,,Pier Road,,,,opp,,N,ES003370,St Margarets Hope,South Ronaldsay,,,,,,false,UKOS,344502,994228,-2.96302,58.83193,BCT,MKD,OTH,,,,134,2012-01-16T00:00:00,2012-01-16T11:32:18,0,new,active
6020711015,67525382,,,Orcadian Office,,,,Orcadian Office,,Crowness Crescent,,,,opp,,SW,ES002219,Kirkwall,,,,,,,false,UKOS,343941,1011563,-2.97712,58.98751,BCT,MKD,OTH,,,,134,2016-02-08T00:00:00,2016-02-08T11:42:18,0,new,active
6020710845,67524837,,,Nearhouse Road End,,,,Road End,,Groatsetter Road,,,,at,,W,N0078253,Tankerness,,,,,,,false,UKOS,350908,1006830,-2.85487,58.94587,BCT,CUS,OTH,,,,134,2012-04-05T00:00:00,2018-02-02T10:18:48,3,new,active
6020710846,67524854,,,Nearhouse Road End,,,,Road End,,Groatsetter Road,,,,opp,,N,N0078253,Tankerness,,,,,,,false,UKOS,350932,1006838,-2.85445,58.94594,BCT,CUS,OTH,,,,134,2012-04-11T00:00:00,2018-02-02T10:18:30,1,new,active
6020710841,67524832,,,Sheila Fleet Jewellery,,,,Road End,,Shore Road,,,,at,,N,N0078253,Tankerness,,,,,,,false,UKOS,351294,1008100,-2.84844,58.95731,BCT,CUS,OTH,,,,134,2012-04-05T00:00:00,2019-07-30T14:57:24,2,new,active
6020710842,67524834,,,Sheila Fleet Jewellery,,,,Road End,,Shore Road,,,,opp,,S,N0078253,Tankerness,,,,,,,false,UKOS,351300,1008103,-2.84834,58.95734,BCT,CUS,OTH,,,,134,2012-04-05T00:00:00,2019-07-30T14:59:24,1,new,active
6020710843,67524835,,,Messigate Road End,,,,Road End,,Shore Road,,,,at,,SW,N0078253,Tankerness,,,,,,,false,UKOS,351222,1007524,-2.84956,58.95213,BCT,CUS,OTH,,,,134,2012-04-05T00:00:00,2012-04-05T12:39:36,0,new,active
6020710844,67524836,,,Messigate Road End,,,,Road End,,Shore Road,,,,opp,,NE,N0078253,Tankerness,,,,,,,false,UKOS,351217,1007527,-2.84965,58.95216,BCT,CUS,OTH,,,,134,2012-04-05T00:00:00,2012-04-05T12:44:30,0,new,active
6020710847,67524838,,,Groatsetter Road End,,,,Road End,,A960,,,,opp,,NW,N0078253,Tankerness,,,,,,,false,UKOS,349826,1006485,-2.87359,58.94264,BCT,CUS,OTH,,,,134,2012-04-06T00:00:00,2012-04-11T12:59:30,1,new,active
6020710422,67523657,,,Groatsetter Road End,,,,Road End,,A960,,,,at,,SE,N0078253,Tankerness,,,,,,,false,UKOS,349833,1006489,-2.87347,58.94268,BCT,CUS,OTH,,,,134,2008-04-07T00:00:00,2012-04-11T12:58:48,4,new,active
6020710830,67524795,,,Mossclair,,,,House,,Tankerness Hall Road,,,,opp,,NE,N0078253,Tankerness,,,,,,,false,UKOS,349513,1007986,-2.87937,58.95608,BCT,CUS,OTH,,,,134,2012-04-05T00:00:00,2012-04-05T09:39:18,0,new,active
6020710831,67524796,,,Mossclair,,,,House,,Tankerness Hall Road,,,,at,,SW,N0078253,Tankerness,,,,,,,false,UKOS,349517,1007981,-2.8793,58.95604,BCT,CUS,OTH,,,,134,2012-04-05T00:00:00,2012-04-05T09:41:06,0,new,active
6020710832,67524797,,,Swarsquoy Road End,,,,Road End,,Tankerness Hall Road,,,,at,,E,N0078253,Tankerness,,,,,,,false,UKOS,350027,1008669,-2.87059,58.96228,BCT,CUS,OTH,,,,134,2012-04-05T00:00:00,2012-04-05T09:48:36,0,new,active
6020710833,67524798,,,Swarsquoy Road End,,,,Road End,,Tankerness Hall Road,,,,opp,,SW,N0078253,Tankerness,,,,,,,false,UKOS,350031,1008663,-2.87052,58.96222,BCT,CUS,OTH,,,,134,2012-04-05T00:00:00,2012-04-05T09:51:48,0,new,active
6020710834,67524823,,,Yinstay Road End,,,,Road End,,Tankerness Hall Road,,,,at,,E,N0078253,Tankerness,,,,,,,false,UKOS,350373,1008590,-2.86456,58.96161,BCT,CUS,OTH,,,,134,2012-04-05T00:00:00,2012-04-05T10:07:42,0,new,active
6020710835,67524824,,,Yinstay Road End,,,,Road End,,Tankerness Hall Road,,,,opp,,W,N0078253,Tankerness,,,,,,,false,UKOS,350366,1008586,-2.86468,58.96157,BCT,CUS,OTH,,,,134,2012-04-05T00:00:00,2013-03-01T10:35:42,1,new,active
6020710826,67524789,,,Bossack Junction,,,,Junction,,A960,,,,at,,SE,N0078253,Tankerness,,,,,,,false,UKOS,348695,1007399,-2.89345,58.95072,BCT,CUS,OTH,,,,134,2012-04-05T00:00:00,2013-03-01T10:35:18,1,new,active
6020710827,67524792,,,Bossack Junction,,,,Junction,,A960,,,,opp,,NW,N0078253,Tankerness,,,,,,,false,UKOS,348696,1007389,-2.89343,58.95063,BCT,CUS,OTH,,,,134,2012-04-05T00:00:00,2012-04-05T09:30:30,0,new,active
6020710828,67524793,,,Longtownmail,,,,House,,Tankerness Hall Road,,,,at,,NE,N0078253,Tankerness,,,,,,,false,UKOS,349141,1007626,-2.88575,58.95281,BCT,CUS,OTH,,,,134,2012-04-05T00:00:00,2012-04-05T09:34:00,0,new,active
6020710829,67524794,,,Longtownmail,,,,House,,Tankerness Hall Road,,,,opp,,SW,N0078253,Tankerness,,,,,,,false,UKOS,349152,1007615,-2.88556,58.95271,BCT,CUS,OTH,,,,134,2012-04-05T00:00:00,2012-04-05T09:37:12,0,new,active
6020710414,67523646,,,Bossack Schoolhouse,,,,Schoolhouse,,Tankerness Hall Road,,,,opp,,E,N0078253,Tankerness,,,,,,,false,UKOS,350852,1008448,-2.8562,58.96039,BCT,CUS,OTH,,,,134,2008-03-13T00:00:00,2012-04-11T12:57:24,7,new,active
6020710836,67524825,,,Bossack Schoolhouse,,,,Schoolhouse,,Tankerness Hall Road,,,,at,,W,N0078253,Tankerness,,,,,,,false,UKOS,350854,1008440,-2.85616,58.96032,BCT,CUS,OTH,,,,134,2012-04-05T00:00:00,2012-04-05T10:15:12,0,new,active
6020710837,67524826,,,Whitecleat,,,,Houses,,Tankerness Hall Road,,,,at,,E,N0078253,Tankerness,,,,,,,false,UKOS,351030,1008480,-2.85311,58.9607,BCT,CUS,OTH,,,,134,2012-04-05T00:00:00,2012-04-05T10:17:54,0,new,active
6020710838,67524827,,,Whitecleat,,,,Houses,,Tankerness Hall Road,,,,opp,,W,N0078253,Tankerness,,,,,,,false,UKOS,351031,1008473,-2.85309,58.96063,BCT,CUS,OTH,,,,134,2012-04-05T00:00:00,2012-04-05T10:21:48,0,new,active
6020710839,67524828,,,Tankerness Mill,,,,Mill,,Shore Road,,,,opp,,N,N0078253,Tankerness,,,,,,,false,UKOS,351361,1008520,-2.84737,58.96109,BCT,CUS,OTH,,,,134,2012-04-05T00:00:00,2012-04-05T10:24:30,0,new,active
6020710840,67524829,,,Tankerness Mill,,,,Mill,,Shore Road,,,,nr,,S,N0078253,Tankerness,,,,,,,false,UKOS,351369,1008520,-2.84723,58.96109,BCT,CUS,OTH,,,,134,2012-04-05T00:00:00,2012-04-05T11:06:36,0,new,active
6020710318,67523254,,,St Andrews School,,,,School,,B9052,,,,at,,NE,ES003397,Toab,,,,,,,false,UKOS,351963,1004263,-2.83598,58.92294,BCT,MKD,OTH,,,,134,2003-06-06T00:00:00,2016-06-11T00:00:00,6,new,active
6020710668,67524372,,,Foveran Road End,,,,Road End,,A964,,,,opp,,NE,ES002220,St Ola,,,,,,,false,UKOS,341948,1008294,-3.01093,58.95789,BCT,CUS,OTH,,,,134,2010-12-08T00:00:00,2011-01-18T14:14:00,1,new,active
6020711026,67525468,,,Scorradale Road Junction,,,,,,Scorradale Road,,,,opp,,NE,ES002942,Orphir,,,,,,,false,UKOS,333065,1005477,-3.16447,58.9313,BCT,MKD,OTH,,,,134,2018-11-29T00:00:00,2018-11-29T13:15:30,0,new,active
6020711027,67525469,,,Village,,,,,,A966,,,,opp,,N,ES001322,Evie,,,,,,,false,UKOS,336833,1025602,-3.10481,59.11257,BCT,MKD,OTH,,,,134,2018-11-29T00:00:00,2018-11-29T13:19:24,0,new,active
6020711016,67525383,,,Village,,,,Shelter,,A966,,,,at,,NW,ES001322,Evie,,,,,,,false,UKOS,336821,1025584,-3.10502,59.1124,BCT,MKD,OTH,,,,134,2016-02-11T00:00:00,2016-02-11T10:56:06,0,new,active
6020710319A,67523275,,,Airport Terminal,,,,Terminal building,,Airport,,,,at,,SE,N0078254,Kirkwall Airport,Kirkwall,,,,,,false,UKOS,348194,1007702,-2.90223,58.95338,BCT,MKD,OTH,,,,134,2003-06-06T00:00:00,2018-02-02T10:13:12,8,new,active
602000001,67525453,,,Earl's Palace,,,,,,,,,,E-bound,,E,ES000359,Birsay,,,,,,,false,UKOS,324740,1027814,-3.31669,59.13046,BCT,CUS,OTH,,,,134,2021-09-27T00:00:00,2021-11-26T16:14:44,76,new,active
602000002,67525438,,,Rapness Pier,,,,,,,,,,nr,,N,ES003837,Westray,,,,,,,false,UKOS,351080,1040589,-2.85943,59.24902,BCT,CUS,OTH,,,,134,2021-11-22T00:00:00,2021-11-22T15:06:42,81,new,active
602000003,67525452,,,Castle 'O burrian Road End,,,,,,,,,,opp,,NW,ES003837,Westray,,,,,,,false,UKOS,349842,1042232,-2.88151,59.26362,BCT,CUS,OTH,,,,134,2021-11-22T00:00:00,2021-11-26T16:14:07,65,new,active
602000004,67525472,,,Castle 'O Burrain Road End,,,,,,,,,,adj,,SE,ES003837,Westray,,,,,,,false,UKOS,349847,1042233,-2.88143,59.26363,BCT,CUS,OTH,,,,134,2021-11-22T00:00:00,2021-12-09T15:58:32,78,new,active
602000005,67525454,,,Shop,,,,,,,,,,adj,,SW,ES003837,Westray,,,,,,,false,UKOS,349035,1045135,-2.89635,59.28959,BCT,CUS,OTH,,,,134,2021-11-26T00:00:00,2021-11-26T16:48:17,85,new,active
602000006,67525456,,,Shop,,,,,,,,,,opp,,NW,ES003837,Westray,,,,,,,false,UKOS,349032,1045139,-2.8964,59.28963,BCT,CUS,OTH,,,,134,2021-11-26T00:00:00,2021-11-26T16:48:35,71,new,active
602000008,67525467,,,Westside Road End,,,,,,,,,,adj,,NW,ES003837,Westray,,,,,,,false,UKOS,346022,1046016,-2.94945,59.29713,BCT,CUS,OTH,,,,134,2021-11-30T00:00:00,2021-12-09T15:55:30,91,new,active
602000007,67525458,,,Westside Road End,,,,,,,,,,opp,,SE,ES003837,Westray,,,,,,,false,UKOS,346024,1046021,-2.94942,59.29717,BCT,CUS,OTH,,,,134,2021-11-30T00:00:00,2021-12-02T12:30:26,74,new,active
602000009,67525459,,,Midbea,,,,,,,,,,in,,N,ES003837,Westray,,,,,,,false,UKOS,344586,1044461,-2.97426,59.28298,BCT,CUS,OTH,,,,134,2021-11-30T00:00:00,2021-11-30T10:56:39,65,new,active
602000010,67525462,,,Midbea,,,,,,,,,,in,,S,ES003837,Westray,,,,,,,false,UKOS,344592,1044462,-2.97415,59.28299,BCT,CUS,OTH,,,,134,2021-11-30T00:00:00,2021-11-30T10:57:33,61,new,active
602000014,67525476,,,Travel Centre,,,,,,,,,,Stand 6,,,ES002219,Kirkwall,,,,,,,false,UKOS,344804,1011062,-2.96199,58.98312,BCS,,,,,,134,2025-04-14T00:00:00,2025-04-14T16:37:52,70,new,active
602000013,67525475,,,Travel Centre,,,,,,,,,,Stand 7,,,ES002219,Kirkwall,,,,,,,false,UKOS,344798,1011066,-2.96209,58.98316,BCS,,,,,,134,2025-04-14T00:00:00,2025-04-14T16:37:05,61,new,active
602000012,67525474,,,Travel Centre,,,,,,,,,,Stand 8,,,ES002219,Kirkwall,,,,,,,false,UKOS,344792,1011068,-2.9622,58.98317,BCS,,,,,,134,2025-04-14T00:00:00,2025-04-14T16:38:30,62,new,active
602000011,67525473,,,Travel Centre,,,,,,,,,,Stand 9,,,ES002219,Kirkwall,,,,,,,false,UKOS,344783,1011070,-2.96235,58.98319,BCS,,,,,,134,2025-04-14T00:00:00,2025-04-14T16:38:04,76,new,active
602000016,67525479,,,Park and Ride,,,,,,,,,,NW-Bound,,NW,N0078255,Hatston,Kirkwall,,,,,,false,UKOS,343832,1012286,-2.9792,58.99399,BCT,MKD,OTH,,,,134,2025-04-15T00:00:00,2025-04-18T09:06:03,63,new,active
602000015,67525478,,,Park and Ride,,,,,,,,,,N-Bound,,N,N0078255,Hatston,Kirkwall,,,,,,false,UKOS,343867,1012283,-2.97859,58.99396,BCT,MKD,OTH,,,,134,2025-04-15T00:00:00,2025-04-18T09:05:43,68,new,active
602000018,67525483,,,Community Centre,,,,,,,,,,NW-Bound,,NW,N0067478,Dounby,,,,,,,false,UKOS,329646,1020568,-3.22867,59.06624,BCT,MKD,OTH,,,,134,2025-04-15T00:00:00,2025-04-18T09:08:25,54,new,active
602000017,67525482,,,Community Centre,,,,,,,,,,NE-Bound,,NE,N0067478,Dounby,,,,,,,false,UKOS,329682,1020571,-3.22804,59.06627,BCT,MKD,OTH,,,,134,2025-04-15T00:00:00,2025-04-18T09:08:07,54,new,active
602000020,67525485,,,Community Centre,,,,,,,,,,W-Bound,,W,ES001323,Rendall,,,,,,,false,UKOS,338388,1019760,-3.07602,59.06034,BCT,MKD,OTH,,,,134,2025-04-15T00:00:00,2025-04-18T09:09:21,54,new,active
602000019,67525484,,,Community Centre,,,,,,,,,,E-Bound,,E,ES001323,Rendall,,,,,,,false,UKOS,338422,1019750,-3.07542,59.06026,BCT,MKD,OTH,,,,134,2025-04-15T00:00:00,2025-04-18T09:09:03,56,new,active
6020710779,67524692,,,Workwell Road End,,,,Road End,,A964,,,,opp,,SE,N0078258,Houton,Orphir,,,,,,false,UKOS,330695,1005349,-3.20559,58.92977,BCT,CUS,OTH,,,,134,2011-02-02T00:00:00,2011-02-03T09:34:00,1,new,active
602000022,67525487,,,Orkney Sailing Club,,,,,,,,,,W-Bound,,W,ES002219,Kirkwall,,,,,,,false,UKOS,344324,1011737,-2.97051,58.98912,BCT,MKD,OTH,,,,134,2025-04-17T00:00:00,2025-04-18T09:10:58,47,new,active
602000021,67525486,,,Orkney Sailing Club,,,,,,,,,,E-Bound,,E,ES002219,Kirkwall,,,,,,,false,UKOS,344340,1011752,-2.97023,58.98926,BCT,MKD,OTH,,,,134,2025-04-17T00:00:00,2025-04-18T09:10:31,45,new,active
6020710789,67524726,,,Binscarth Cottages,,,,Cottages,,,,,,opp,,NE,N0067496,Finstown,Firth,,,,,,false,UKOS,334627,1013850,-3.13983,59.00672,BCT,CUS,OTH,,,,134,2011-02-02T00:00:00,2011-02-03T09:35:00,1,new,active
6020710777,67524687,,,Balfour Cottage,,,,Cottage,,A964,,,,at,,NW,ES003463,Stenness,,,,,,,false,UKOS,329956,1008154,-3.21931,58.95484,BCT,CUS,OTH,,,,134,2011-02-02T00:00:00,2011-02-03T09:33:00,1,new,active
6020710791,67524728,,,Germiston Road End,,,,Road End,,,,,,opp,,NE,ES003463,Stenness,,,,,,,false,UKOS,332600,1013254,-3.17492,59.00105,BCT,CUS,OTH,,,,134,2011-02-03T00:00:00,2011-02-03T09:36:00,1,new,active
6020710775,67524685,,,Mill of Ireland,,,,Mill of Ireland,,A964,,,,opp,,NW,ES003463,Stenness,,,,,,,false,UKOS,329452,1009699,-3.22857,58.96862,BCT,CUS,OTH,,,,134,2011-02-02T00:00:00,2011-02-03T09:33:00,1,new,active
