ATCOCode,NaptanCode,PlateCode,CleardownCode,CommonName,CommonNameLang,ShortCommonName,ShortCommonNameLang,Landmark,LandmarkLang,Street,StreetLang,Crossing,CrossingLang,Indicator,IndicatorLang,Bearing,NptgLocalityCode,LocalityName,ParentLocalityName,GrandParentLocalityName,Town,TownLang,Suburb,SuburbLang,LocalityCentre,GridType,Easting,Northing,Longitude,Latitude,StopType,BusStopType,TimingStatus,DefaultWaitTime,Notes,NotesLang,AdministrativeAreaCode,CreationDateTime,ModificationDateTime,RevisionNumber,Modification,Status
60801,93823798,,,Allerdyce Road,,,,Great Western Retail Park,,Great Western Road,,,,opp,,NW,ES000387,Blairdardie,Glasgow,,CLYDEBANK,,,,0,,251261,670414,,,BCT,MKD,OTH,,,,117,2003-08-27T00:00:00,2023-12-12T15:02:54,0,,inactive
608010,93823547,,,Spinners Lane,,,,Spinners Lane,,Faifley Road,,,,after,,N,ES001331,Faifley,Clydebank,,FAIFLEY,,,,0,,249936,673239,,,BCT,MKD,OTH,,,,117,2003-08-27T00:00:00,2023-12-12T15:02:54,0,,active
6080100,93823282,,,Ellisland Avenue,,,,St Eunans church,,Kirkoswald Drive,,,,opp,,NE,N0078830,Drumry,Clydebank,,CLYDEBANK,,,,0,,250174,671463,,,BCT,MKD,OTH,,,,117,2003-08-27T00:00:00,2023-12-12T15:02:54,0,,active
6080101,93823526,,,Cleddans View,,,,Cleddans View,,Kirkoswald Drive,,,,at,,SE,N0078830,Drumry,Clydebank,,CLYDEBANK,,,,0,,250380,671464,,,BCT,MKD,OTH,,,,117,2003-08-27T00:00:00,2023-12-12T15:02:54,0,,active
6080102,93823595,,,Ellisland Avenue,,,,Ellisland Avenue,,Kirkoswald Drive,,,,at,,NW,N0078830,Drumry,Clydebank,,CLYDEBANK,,,,0,,250419,671426,,,BCT,MKD,OTH,,,,117,2003-08-27T00:00:00,2023-12-12T15:02:54,0,,active
6080103,93823838,,,Riddell Street,,,,Riddell Street,,Kirkoswald Drive,,,,opp,,SE,N0078830,Drumry,Clydebank,,CLYDEBANK,,,,0,,250525,671235,,,BCT,MKD,OTH,,,,117,2003-08-27T00:00:00,2023-12-12T15:02:54,0,,active
6080104,93824326,,,Riddell Street,,,,Riddell Street,,Kirkoswald Drive,,,,at,,NE,N0078830,Drumry,Clydebank,,CLYDEBANK,,,,0,,250483,671288,,,BCT,MKD,OTH,,,,117,2003-08-27T00:00:00,2023-12-12T15:02:54,0,,active
6080105,93824567,,,Peel View,,,,Peel View,,Kirkoswald Drive,,,,opp,,NW,N0078830,Drumry,Clydebank,,CLYDEBANK,,,,0,,250662,671084,,,BCT,MKD,OTH,,,,117,2003-08-27T00:00:00,2023-12-12T15:02:54,0,,active
6080106,93824582,,,Robert Burns Avenue,,,,Robert Burns Avenue,,Kirkoswald Drive,,,,opp & after,,SE,N0078830,Drumry,Clydebank,,CLYDEBANK,,,,0,,250733,671023,,,BCT,MKD,OTH,,,,117,2003-08-27T00:00:00,2023-12-12T15:02:54,0,,active
6080108,93824726,,,Clydebank police station,,,,Clydebank police station,,Montrose Street,,,,opp,,E,N0078830,Drumry,Clydebank,,CLYDEBANK,,,,0,,250140,670881,,,BCT,MKD,OTH,,,,117,2003-08-27T00:00:00,2023-12-12T15:02:54,0,,inactive
6080109,93824397,,,Kilbowie Road,,,,Kilbowie Road,,Second Avenue,,,,before,,E,ES000746,Clydebank,,,CLYDEBANK,,,,0,,249798,670962,,,BCT,MKD,OTH,,,,117,2003-08-27T00:00:00,2023-12-12T15:02:54,0,,active
608011,93823649,,,Watchmeal Crescent,,,,Watchmeal Crescent,,Faifley Road,,,,after,,W,ES001331,Faifley,Clydebank,,CLYDEBANK,,,,0,,250211,673262,,,BCT,MKD,OTH,,,,117,2003-08-27T00:00:00,2023-12-12T15:02:54,0,,active
6080110,93823427,,,Singer Street,,,,Singer Street,,Second Avenue,,,,opp,,NW,ES000746,Clydebank,,,CLYDEBANK,,,,0,,249619,670986,,,BCT,MKD,OTH,,,,117,2003-08-27T00:00:00,2023-12-12T15:02:54,0,,active
6080111,93823257,,,Singer Street,,,,Singer Street,,Second Avenue,,,,at,,SE,ES000746,Clydebank,,,CLYDEBANK,,,,0,,249519,671032,,,BCT,MKD,OTH,,,,117,2003-08-27T00:00:00,2023-12-12T15:02:54,0,,active
6080113,93824243,,,First Terrace,,,,First Terrace,,Second Avenue,,,,at,,SE,ES000746,Clydebank,,,CLYDEBANK,,,,0,,249273,671147,,,BCT,MKD,OTH,,,,117,2003-08-27T00:00:00,2023-12-12T15:02:54,0,,active
6080114,93824393,,,First Terrace,,,,First Terrace,,Second Avenue,,,,opp,,NW,ES000746,Clydebank,,,CLYDEBANK,,,,0,,249257,671142,,,BCT,MKD,OTH,,,,117,2003-08-27T00:00:00,2023-12-12T15:02:54,0,,active
6080115,93823732,,,Osborne Street,,,,Osborne Street,,Second Avenue,,,,at,,SE,ES000746,Clydebank,,,CLYDEBANK,,,,0,,249142,671209,,,BCT,MKD,OTH,,,,117,2003-08-27T00:00:00,2023-12-12T15:02:54,0,,active
6080116,93824296,,,Boquhanran Road,,,,Boquhanran Road,,Second Avenue,,,,before,,NW,ES000746,Clydebank,,,CLYDEBANK,,,,0,,249109,671212,,,BCT,MKD,OTH,,,,117,2003-08-27T00:00:00,2023-12-12T15:02:54,0,,active
6080117,93823563,,,Albert Road,,,,Albert Road,,Second Avenue,,,,at,,SE,N0078723,Parkhall,Clydebank,,CLYDEBANK,,,,0,,248917,671316,,,BCT,MKD,OTH,,,,117,2003-08-27T00:00:00,2023-12-12T15:02:54,0,,active
6080118,93824324,,,St Stephens Court,,,,St Stephens Court,,Second Avenue,,,,after,,NW,N0078723,Parkhall,Clydebank,,CLYDEBANK,,,,0,,248798,671395,,,BCT,MKD,OTH,,,,117,2003-08-27T00:00:00,2023-12-12T15:02:54,0,,active
6080119,93823258,,,Ramsay Street,,,,Ramsay Street,,Park Road,,,,Near,,S,N0078723,Parkhall,Clydebank,,CLYDEBANK,,,,0,,248735,671566,,,BCT,MKD,OTH,,,,117,2003-08-27T00:00:00,2023-12-12T15:02:54,0,,active
608012,93823298,,,John Burnside Drive,,,,John Burnside Drive,,Faifley Road,,,,Opp,,E,ES001331,Faifley,Clydebank,,CLYDEBANK,,,,0,,250373,673309,,,BCT,MKD,OTH,,,,117,2003-08-27T00:00:00,2023-12-12T15:02:54,0,,active
6080120,93824273,,,Duntocher Road,,,,Duntocher Road,,Park Road,,,,At,,N,N0078723,Parkhall,Clydebank,,CLYDEBANK,,,,0,,248712,671616,,,BCT,MKD,OTH,,,,117,2003-08-27T00:00:00,2023-12-12T15:02:54,0,,active
6080121,93823958,,,Duntocher Road,,,,Opp 74 Duntocher Road,,Duntocher Road,,,,opp 74,,NE,N0078723,Parkhall,Clydebank,,CLYDEBANK,,,,1,,248794,671687,,,BCT,MKD,OTH,,,,117,2003-08-27T00:00:00,2023-12-12T15:02:54,0,,active
6080122,93823963,,,Boquhanran House,,,,Boquhanran House,,Duntocher Road,,,,Opp,,SW,N0078723,Parkhall,Clydebank,,CLYDEBANK,,,,1,,248840,671691,,,BCT,MKD,OTH,,,,117,2003-08-27T00:00:00,2023-12-12T15:02:54,0,,active
6080123,93823725,,,Parkhall Road,,,,Parkhall Road,,Duntocher Road,,,,opp,,W,N0078723,Parkhall,Clydebank,,CLYDEBANK,,,,1,,249024,671775,,,BCT,MKD,OTH,,,,117,2003-08-27T00:00:00,2023-12-12T15:02:54,0,,active
6080124,93823238,,,Parkhall Road,,,,Parkhall Road,,Duntocher Road,,,,at,,E,N0078723,Parkhall,Clydebank,,CLYDEBANK,,,,1,,249067,671787,,,BCT,MKD,OTH,,,,117,2003-08-27T00:00:00,2023-12-12T15:02:54,0,,active
6080125,93824232,,,Kilbowie Roundabout,,,,264 Duntocher Road,,Duntocher Road,,,,before,,E,N0078723,Parkhall,Clydebank,,CLYDEBANK,,,,1,,249580,672076,,,BCT,MKD,OTH,,,,117,2003-08-27T00:00:00,2023-12-12T15:02:54,0,,active
6080127,93823573,,,Chestnut Drive,,,,Chestnut Drive,,Duntocher Road,,,,at,,NE,N0078723,Parkhall,Clydebank,,CLYDEBANK,,,,1,,249361,672074,,,BCT,MKD,OTH,,,,117,2003-08-27T00:00:00,2023-12-12T15:02:54,0,,active
6080129,93823628,,,Limetree Drive,,,,Limetree Drive,,Duntocher Road,,,,at,,N,N0078723,Parkhall,Clydebank,,CLYDEBANK,,,,1,,249230,671882,,,BCT,MKD,OTH,,,,117,2003-08-27T00:00:00,2023-12-12T15:02:54,0,,active
608013,93823849,,,John Burnside Drive,,,,John Burnside Drive,,Faifley Road,,,,before,,W,ES001331,Faifley,Clydebank,,CLYDEBANK,,,,0,,250482,673317,,,BCT,MKD,OTH,,,,117,2003-08-27T00:00:00,2023-12-12T15:02:54,0,,active
6080130,93823726,,,Limetree Drive,,,,Limetree Drive,,Duntocher Road,,,,opp,,S,N0078723,Parkhall,Clydebank,,CLYDEBANK,,,,1,,249246,671874,,,BCT,MKD,OTH,,,,117,2003-08-27T00:00:00,2023-12-12T15:02:54,0,,active
6080131,93823979,,,Regent Street,,,,Regent Street,,Duntocher Road,,,,after,,NE,N0078723,Parkhall,Clydebank,,CLYDEBANK,,,,1,,248570,671507,,,BCT,MKD,OTH,,,,117,2003-08-27T00:00:00,2023-12-12T15:02:54,0,,active
6080132,93823867,,,Stevenston Street,,,,Stevenston Street,,Duntocher Road,,,,after,,SW,N0078723,Parkhall,Clydebank,,CLYDEBANK,,,,1,,248570,671485,,,BCT,MKD,OTH,,,,117,2003-08-27T00:00:00,2023-12-12T15:02:54,0,,active
6080133,93823927,,,Singer Road,,,,Singer Road,,Duntocher Road,,,,after,,SW,N0068070,Dalmuir,Clydebank,,CLYDEBANK,,,,1,,248471,671271,,,BCT,MKD,OTH,,,,117,2003-08-27T00:00:00,2023-12-12T15:02:54,0,,active
6080134,93823749,,,Dumbarton Road,,,,Dumbarton Road,,Duntocher Road,,,,after,,NE,N0068070,Dalmuir,Clydebank,,CLYDEBANK,,,,1,,248442,671242,,,BCT,MKD,OTH,,,,117,2003-08-27T00:00:00,2023-12-12T15:02:54,0,,active
6080135,93823697,,,Caledonia Street,,,,Caledonia Street,,Dumbarton Road,,,,opp,,SE,N0068070,Dalmuir,Clydebank,,CLYDEBANK,,,,1,,248531,671095,,,BCT,MKD,OTH,,,,117,2003-08-27T00:00:00,2023-12-12T15:02:54,0,,active
6080136,93823568,,,Caledonia Street,,,,Caledonia Street,,Dumbarton Road,,,,at,,NW,N0068070,Dalmuir,Clydebank,,CLYDEBANK,,,,1,,248531,671075,,,BCT,MKD,OTH,,,,117,2003-08-27T00:00:00,2023-12-12T15:02:54,0,,active
6080137,93823932,,,Nairn Street,,,,Nairn Street,,Dumbarton Road,,,,after,,SE,N0068070,Dalmuir,Clydebank,,CLYDEBANK,,,,1,,248644,671001,,,BCT,MKD,OTH,,,,117,2003-08-27T00:00:00,2023-12-12T15:02:54,0,,active
6080138,93823724,,,Shaftesbury Street,,,,Shaftesbury Street,,Dumbarton Road,,,,after,,NW,N0068070,Dalmuir,Clydebank,,CLYDEBANK,,,,1,,248703,670926,,,BCT,MKD,OTH,,,,117,2003-08-27T00:00:00,2023-12-12T15:02:54,0,,active
6080139,93824295,,,Agamemnon Street,,,,Agamemnon Street,,Dumbarton Road,,,,before,,NW,ES000746,Clydebank,,,CLYDEBANK,,,,1,,248900,670760,,,BCT,MKD,OTH,,,,117,2003-08-27T00:00:00,2023-12-12T15:02:54,0,,active
608014,93823742,,,Craigpark Street,,,,Craigpark Street,,Faifley Road,,,,at,,E,ES001331,Faifley,Clydebank,,CLYDEBANK,,,,0,,250564,673327,,,BCT,MKD,OTH,,,,117,2003-08-27T00:00:00,2023-12-12T15:02:54,0,,active
6080140,93824348,,,Boquhanran Road,,,,Boquhanran Road,,Dumbarton Road,,,,after,,SE,ES000746,Clydebank,,,CLYDEBANK,,,,1,,248915,670770,,,BCT,MKD,OTH,,,,117,2003-08-27T00:00:00,2023-12-12T15:02:54,0,,active
6080141,93824259,,,West Dumbarton Council Depot,,,,West Dumbarton Council Depot,,Dumbarton Road,,,,at,,NW,ES000746,Clydebank,,,CLYDEBANK,,,,1,,249022,670660,,,BCT,MKD,OTH,,,,117,2003-08-27T00:00:00,2023-12-12T15:02:54,0,,active
6080142,93824257,,,West Dumbarton Council Depot,,,,West Dumbarton Council Depot,,Dumbarton Road,,,,opp,,SE,ES000746,Clydebank,,,CLYDEBANK,,,,1,,249053,670653,,,BCT,MKD,OTH,,,,117,2003-08-27T00:00:00,2023-12-12T15:02:54,0,,active
6080143,93823976,,,Cable Depot Road,,,,Cable Depot Road,,Dumbarton Road,,,,opp,,SE,ES000746,Clydebank,,,CLYDEBANK,,,,1,,249318,670410,,,BCT,MKD,OTH,,,,117,2003-08-27T00:00:00,2023-12-12T15:02:54,0,,active
6080144,93823564,,,Cable Depot Road,,,,Cable Depot Road,,Dumbarton Road,,,,before,,NW,ES000746,Clydebank,,,CLYDEBANK,,,,1,,249333,670378,,,BCT,MKD,OTH,,,,117,2003-08-27T00:00:00,2023-12-12T15:02:54,0,,active
6080145,93824287,,,Clydebank Library,,,,Clydebank Library,,Dumbarton Road,,,,opp,,SE,ES000746,Clydebank,,,CLYDEBANK,,,,1,,249499,670245,,,BCT,MKD,OTH,,,,117,2003-08-27T00:00:00,2023-12-12T15:02:54,0,,active
6080146,93824529,,,Hall Street,,,,Hall Street,,Dumbarton Road,,,,at,,NW,ES000746,Clydebank,,,CLYDEBANK,,,,1,,249578,670145,,,BCT,MKD,OTH,,,,117,2003-08-27T00:00:00,2023-12-12T15:02:54,0,,active
6080147,93823638,,,Clydebank Railway Station,,,,Clydebank Railway Station,,Chalmers Street,,,,at,,NW,ES000746,Clydebank,,,CLYDEBANK,,,,1,,249775,670144,,,BCT,MKD,OTH,,,,117,2003-08-27T00:00:00,2023-12-12T15:02:54,0,,active
6080148,93823767,,,Clydebank Railway Station,,,,Clydebank Railway Station,,Chalmers Street,,,,opp,,SE,ES000746,Clydebank,,,CLYDEBANK,,,,1,,249811,670126,,,BCT,MKD,OTH,,,,117,2003-08-27T00:00:00,2023-12-12T15:02:54,0,,active
6080149,93823846,,,Swindon Street,,,,Swindon Street,,Dumbarton Road,,,,opp,,NW,N0068070,Dalmuir,Clydebank,,CLYDEBANK,,,,1,,248287,671280,,,BCT,MKD,OTH,,,,117,2003-08-27T00:00:00,2023-12-12T15:02:54,0,,active
608015,93823274,,,Abbeylands Road,,,,Abbeylands Road,,Faifley Road,,,,opp,,E,ES001331,Faifley,Clydebank,,CLYDEBANK,,,,0,,250827,673364,,,BCT,MKD,OTH,,,,117,2003-08-27T00:00:00,2023-12-12T15:02:54,0,,active
6080150,93823457,,,French Street,,,,French Street,,Dumbarton Road,,,,opp,,SE,N0068070,Dalmuir,Clydebank,,CLYDEBANK,,,,1,,248238,671357,,,BCT,MKD,OTH,,,,117,2003-08-27T00:00:00,2023-12-12T15:02:54,0,,active
6080151,93823654,,,Burns Street,,,,Burns Street,,Dumbarton Road,,,,opp,,NW,N0068070,Dalmuir,Clydebank,,CLYDEBANK,,,,1,,248108,671441,,,BCT,MKD,OTH,,,,117,2003-08-27T00:00:00,2023-12-12T15:02:54,0,,active
6080152,93823276,,,Scott Street,,,,Mountblow Road,,Dumbarton Road,,,,before,,SE,N0068070,Dalmuir,Clydebank,,CLYDEBANK,,,,1,,248030,671522,,,BCT,MKD,OTH,,,,117,2003-08-27T00:00:00,2023-12-12T15:02:54,0,,active
6080153,93823497,,,Dumbarton Road,,,,Dumbarton Road,,Mountblow Road,,,,Before,,SW,N0078722,Mountblow,Clydebank,,CLYDEBANK,,,,0,,247981,671638,,,BCT,MKD,OTH,,,,117,2003-08-27T00:00:00,2023-12-12T15:02:54,0,,active
6080154,93823873,,,Dumbarton Road,,,,Dumbarton Road,,Mountblow Road,,,,After,,NE,N0078722,Mountblow,Clydebank,,CLYDEBANK,,,,0,,247973,671646,,,BCT,MKD,OTH,,,,117,2003-08-27T00:00:00,2023-12-12T15:02:54,0,,active
6080155,93823253,,,Cedar Avenue,,,,Cedar Avenue,,Mountblow Road,,,,opp,,SW,N0078722,Mountblow,Clydebank,,CLYDEBANK,,,,0,,248090,671806,,,BCT,MKD,OTH,,,,117,2003-08-27T00:00:00,2023-12-12T15:02:54,0,,active
6080156,93823952,,,Lilac Avenue,,,,Lilac Avenue,,Mountblow Road,,,,at,,NE,N0078722,Mountblow,Clydebank,,CLYDEBANK,,,,0,,248103,671851,,,BCT,MKD,OTH,,,,117,2003-08-27T00:00:00,2023-12-12T15:02:54,0,,active
6080157,93825439,,,Melbourne Avenue,,,,Melbourne Avenue,,Muntblow Road,,,,after,,N,N0078722,Mountblow,Clydebank,,CLYDEBANK,,,,0,,248093,672169,,,BCT,MKD,OTH,,,,117,2003-08-27T00:00:00,2023-12-12T15:02:54,0,,inactive
6080158,93825729,,,Mountblow Road,,,,opp 83,,Mountblow Road,,,,opp 83,,S,N0078722,Mountblow,Clydebank,,CLYDEBANK,,,,0,,248112,672145,,,BCT,MKD,OTH,,,,117,2003-08-27T00:00:00,2023-12-12T15:02:54,0,,inactive
6080159,93825484,,,Mountblow Road,,,,opp 143,,Mountblow Road,,,,opp 143,,S,N0078722,Mountblow,Clydebank,,CLYDEBANK,,,,0,,248054,672496,,,BCT,MKD,OTH,,,,117,2003-08-27T00:00:00,2023-12-12T15:02:54,0,,active
608016,93824239,,,Abbeylands Road,,,,Abbeylands Road,,Faifley Road,,,,before,,W,ES001331,Faifley,Clydebank,,CLYDEBANK,,,,0,,250841,673353,,,BCT,MKD,OTH,,,,117,2003-08-27T00:00:00,2023-12-12T15:02:54,0,,active
6080160,93825353,,,Perth Crescent,,,,Perth Crescent,,Mountblow Road,,,,before,,N,N0078722,Mountblow,Clydebank,,CLYDEBANK,,,,0,,248043,672476,,,BCT,MKD,OTH,,,,117,2003-08-27T00:00:00,2023-12-12T15:02:54,0,,active
6080161,93824379,,,Kimberley Street,,,,Kimberley Street,,Perth Crescent,,,,opp,,NE,N0078722,Mountblow,Clydebank,,CLYDEBANK,,,,0,,247973,672516,,,BCT,MKD,OTH,,,,117,2003-08-27T00:00:00,2023-12-12T15:02:54,0,,active
6080162,93823854,,,Armoury Lane,,,,No 70,,Perth Crescent,,,,after,,N,N0078722,Mountblow,Clydebank,,CLYDEBANK,,,,0,,247782,672411,,,BCT,MKD,OTH,,,,117,2003-08-27T00:00:00,2023-12-12T15:02:54,0,,active
6080163,93823496,,,Kimberley Street,,,,Kimberley Street,,Melbourne Avenue,,,,at,,SE,N0078722,Mountblow,Clydebank,,CLYDEBANK,,,,0,,248002,672126,,,BCT,MKD,OTH,,,,117,2003-08-27T00:00:00,2023-12-12T15:02:54,0,,active
6080164,93823294,,,Melbourne Avenue,,,,house no 69,,Melbourne Avenue,,,,opp 69,,SW,N0078722,Mountblow,Clydebank,,CLYDEBANK,,,,0,,247755,672448,,,BCT,MKD,OTH,,,,117,2003-08-27T00:00:00,2023-12-12T15:02:54,0,,active
6080165,93823763,,,Melbourne Avenue,,,,house no 122,,Melbourne Avenue,,,,at 122,,W,N0078722,Mountblow,Clydebank,,CLYDEBANK,,,,0,,247912,672572,,,BCT,MKD,OTH,,,,117,2003-08-27T00:00:00,2023-12-12T15:02:54,0,,active
6080166,93823529,,,Ottawa Crescent,,,,Ottawa Crescent,,Dumbarton Road,,,,at,,NW,N0068070,Dalmuir,Clydebank,,CLYDEBANK,,,,1,,247868,671635,,,BCT,MKD,OTH,,,,117,2003-08-27T00:00:00,2023-12-12T15:02:54,0,,active
6080167,93823456,,,Auckland Place,,,,Auckland Place,,Dumbarton Road,,,,at,,NW,N0068070,Dalmuir,Clydebank,,CLYDEBANK,,,,1,,247671,671796,,,BCT,MKD,OTH,,,,117,2003-08-27T00:00:00,2023-12-12T15:02:54,0,,active
6080168,93823938,,,Auckland Place,,,,Auckland Place,,Dumbarton Road,,,,opp,,SE,N0068070,Dalmuir,Clydebank,,CLYDEBANK,,,,1,,247672,671819,,,BCT,MKD,OTH,,,,117,2003-08-27T00:00:00,2023-12-12T15:02:54,0,,active
6080169,93824356,,,Brisbane Street,,,,Brisbane Street,,Dumbarton Road,,,,before,,SE,N0068070,Dalmuir,Clydebank,,CLYDEBANK,,,,1,,247548,671898,,,BCT,MKD,OTH,,,,117,2003-08-27T00:00:00,2023-12-12T15:02:54,0,,active
608017,93823693,,,Lawmuir Crescent,,,,St Josephs school,,Faifley Road,,,,opp,,NW,ES001331,Faifley,Clydebank,,CLYDEBANK,,,,0,,250967,673250,,,BCT,MKD,OTH,,,,117,2003-08-27T00:00:00,2023-12-12T15:02:54,0,,active
6080170,93823948,,,Freelands Road,,,,Freelands Road,,Dumbarton Road,,,,opp,,W,ES002912,Old Kilpatrick,Clydebank,,CLYDEBANK,,,,1,,247290,671944,,,BCT,MKD,OTH,,,,117,2003-08-27T00:00:00,2023-12-12T15:02:54,0,,active
6080171,93824583,,,Freelands Crescent,,,,Freelands Crescent,,Dumbarton Road,,,,opp,,NW,ES002912,Old Kilpatrick,Clydebank,,CLYDEBANK,,,,1,,247041,671946,,,BCT,MKD,OTH,,,,117,2003-08-27T00:00:00,2023-12-12T15:02:54,0,,active
6080172,93823265,,,Freelands Crescent,,,,Freelands Crescent,,Dumbarton Road,,,,at,,SE,ES002912,Old Kilpatrick,Clydebank,,CLYDEBANK,,,,1,,246994,671996,,,BCT,MKD,OTH,,,,117,2003-08-27T00:00:00,2023-12-12T15:02:54,0,,active
6080173,93823824,,,Stuart Street,,,,Stuart Street,,Dumbarton Road,,,,at,,S,ES002912,Old Kilpatrick,Clydebank,,OLD KILPATRICK,,,,1,,246684,672420,,,BCT,MKD,OTH,,,,117,2003-08-27T00:00:00,2023-12-12T15:02:54,0,,active
6080175,93823645,,,St Patricks Church,,,,St Patricks Church,,Dumbarton Road,,,,At,,S,ES002912,Old Kilpatrick,Clydebank,,OLD KILPATRICK,,,,1,,246630,672725,,,BCT,MKD,OTH,,,,117,2003-08-27T00:00:00,2023-12-12T15:02:54,0,,active
6080176,93824352,,,Ashtree Court,,,,Ashtree Court,,Dumbarton Road,,,,at,,N,ES002912,Old Kilpatrick,Clydebank,,OLD KILPATRICK,,,,1,,246601,672785,,,BCT,MKD,OTH,,,,117,2003-08-27T00:00:00,2023-12-12T15:02:54,0,,active
6080177,93823984,,,Erskine View,,,,Erskine View,,Dumbarton Road,,,,opp,,SE,ES002912,Old Kilpatrick,Clydebank,,OLD KILPATRICK,,,,1,,246515,672966,,,BCT,MKD,OTH,,,,117,2003-08-27T00:00:00,2023-12-12T15:02:54,0,,active
6080178,93823769,,,Erskine View,,,,Erskine View,,Dumbarton Road,,,,after,,NW,ES002912,Old Kilpatrick,Clydebank,,OLD KILPATRICK,,,,1,,246432,673000,,,BCT,MKD,OTH,,,,117,2003-08-27T00:00:00,2023-12-12T15:02:54,0,,active
6080179,93824248,,,Old Kilpatrick Church,,,,Old Kilpatrick Church,,Dumbarton Road,,,,at,,SE,ES002912,Old Kilpatrick,Clydebank,,OLD KILPATRICK,,,,1,,246310,673057,,,BCT,MKD,OTH,,,,117,2003-08-27T00:00:00,2023-12-12T15:02:54,0,,active
608018,93824579,,,Whitehill Crescent,,,,Whitehill Crescent,,Faifley Road,,,,at,,S,ES001331,Faifley,Clydebank,,CLYDEBANK,,,,0,,251087,673184,,,BCT,MKD,OTH,,,,117,2003-08-27T00:00:00,2023-12-12T15:02:54,0,,active
6080180,93824525,,,Gavinburn Street,,,,Gavinburn Street,,Dumbarton Road,,,,at,,NW,ES002912,Old Kilpatrick,Clydebank,,OLD KILPATRICK,,,,1,,246225,673078,,,BCT,MKD,OTH,,,,117,2003-08-27T00:00:00,2023-12-12T15:02:54,0,,active
6080181,93824537,,,Kirk Crescent,,,,Kirk Crescent,,Dumbarton Road,,,,at,,SE,ES002912,Old Kilpatrick,Clydebank,,OLD KILPATRICK,,,,1,,246118,673172,,,BCT,MKD,OTH,,,,117,2003-08-27T00:00:00,2023-12-12T15:02:54,0,,active
6080182,93823538,,,Gavinburn Gardens,,,,Gavinburn Gardens,,Dumbarton Road,,,,At,,NW,ES002912,Old Kilpatrick,Clydebank,,OLD KILPATRICK,,,,1,,246056,673206,,,BCT,MKD,OTH,,,,117,2003-08-27T00:00:00,2023-12-12T15:02:54,0,,active
6080183,93824297,,,Roman Crescent,,,,Roman Crescent,,Dumbarton Road,,,,before,,NW,ES002912,Old Kilpatrick,Clydebank,,OLD KILPATRICK,,,,1,,245889,673255,,,BCT,MKD,OTH,,,,117,2003-08-27T00:00:00,2023-12-12T15:02:54,0,,active
6080184,93823269,,,Roman Crescent,,,,Roman Crescent,,Dumbarton Road,,,,opp,,SE,ES002912,Old Kilpatrick,Clydebank,,OLD KILPATRICK,,,,1,,245802,673348,,,BCT,MKD,OTH,,,,117,2003-08-27T00:00:00,2023-12-12T15:02:54,0,,active
6080185,93823657,,,Glenarbuck Lodge,,,,Glenarbuck Lodge,,Dumbarton Road,,,,at,,SE,ES002912,Old Kilpatrick,Clydebank,,OLD KILPATRICK,,,,0,,245520,673532,,,BCT,MKD,OTH,,,,117,2003-08-27T00:00:00,2023-12-12T15:02:54,0,,active
6080186,93823583,,,North Dalnottar Cemetery,,,,North Dalnottar Cemetery,,Great Western Road,,,,at,,E,N0078722,Mountblow,Clydebank,,CLYDEBANK,,,,0,,247672,672829,,,BCT,MKD,OTH,,,,117,2003-08-27T00:00:00,2023-12-12T15:02:54,0,,active
6080187,93823982,,,North Dalnottar Cemetery,,,,North Dalnottar Cemetery,,Great Western Road,,,,opp,,W,N0078722,Mountblow,Clydebank,,CLYDEBANK,,,,0,,247661,672794,,,BCT,MKD,OTH,,,,117,2003-08-27T00:00:00,2023-12-12T15:02:54,0,,active
6080188,93823465,,,Clydebank Crematorium,,,,Clydebank Crematorium,,Great Western Road,,,,after,,E,N0078722,Mountblow,Clydebank,,CLYDEBANK,,,,0,,248114,672780,,,BCT,MKD,OTH,,,,117,2003-08-27T00:00:00,2023-12-12T15:02:54,0,,inactive
6080189,93823585,,,Munro Court,,,,Munro Court,,Great Western Road,,,,opp,,NW,N0078720,Duntocher,Clydebank,,CLYDEBANK,,,,0,,248697,672587,,,BCT,MKD,OTH,,,,117,2003-08-27T00:00:00,2023-12-12T15:02:54,0,,inactive
608019,93823845,,,Langfaulds Crescent,,,,Langfaulds Crescent,,Faifley Road,,,,after,,N,ES001331,Faifley,Clydebank,,CLYDEBANK,,,,0,,251095,673035,,,BCT,MKD,OTH,,,,117,2003-08-27T00:00:00,2023-12-12T15:02:54,0,,active
6080190,93824375,,,West Park Hotel,,,,Elm Road,,Great Western Road,,,,opp,,W,N0078720,Duntocher,Clydebank,,CLYDEBANK,,,,0,,249252,672399,,,BCT,MKD,OTH,,,,117,2003-08-27T00:00:00,2023-12-12T15:02:54,0,,inactive
6080191,93823635,,,Clydebank Crematorium,,,,Clydebank Crematorium,,Great Western Road,,,,opp,,W,N0078722,Mountblow,Clydebank,,CLYDEBANK,,,,0,,248048,672754,,,BCT,MKD,OTH,,,,117,2003-08-27T00:00:00,2023-12-12T15:02:54,0,,inactive
6080192,93823549,,,Stark Avenue,,,,Stark Avenue,,Great Western Road,,,,at,,SE,N0078720,Duntocher,Clydebank,,CLYDEBANK,,,,0,,248417,672735,,,BCT,MKD,OTH,,,,117,2003-08-27T00:00:00,2023-12-12T15:02:54,0,,inactive
6080195,93823485,,,Government Offices,,,,Kilbowie Road,,Second Avenue,,,,at,,NW,ES000746,Clydebank,,,CLYDEBANK,,,,0,,249727,670963,,,BCT,MKD,OTH,,,,117,2003-08-27T00:00:00,2023-12-12T15:02:54,0,,active
6080196,93823248,,,Bedford Avenue,,,,Bedford Avenue,,Onslow Road,,,,at,,NW,N0078830,Drumry,Clydebank,,CLYDEBANK,,,,1,,250973,670662,,,BCT,MKD,OTH,,,,117,2003-08-27T00:00:00,2023-12-12T15:02:54,0,,active
608020,93824539,,,Langfaulds Crescent,,,,Langfaulds Crescent,,Faifley Road,,,,opp,,S,ES001331,Faifley,Clydebank,,CLYDEBANK,,,,0,,251100,673005,,,BCT,MKD,OTH,,,,117,2003-08-27T00:00:00,2023-12-12T15:02:54,0,,active
6080201,93823452,,,Cornock Street,,,,Cornock Street,,Crown Avenue,,,,opp,,W,N0078721,Kilbowie,Clydebank,,CLYDEBANK,,,,0,,249654,671143,,,BCT,MKD,OTH,,,,117,2003-08-27T00:00:00,2023-12-12T15:02:54,0,,active
6080203,93823743,,,Kilbowie Court,,,,Kilbowie Court,,Crown Avenue,,,,at,,W,N0078721,Kilbowie,Clydebank,,CLYDEBANK,,,,0,,249821,671132,,,BCT,MKD,OTH,,,,117,2003-08-27T00:00:00,2023-12-12T15:02:54,0,,active
6080204,93823947,,,Bus Station,,,,Clydebank Bus Interchange,,Chalmers Street,,,,Stance 1,,NW,ES000746,Clydebank,,,CLYDEBANK,,,,0,,249924,669992,,,BCS,CUS,OTH,,,,117,2003-08-27T00:00:00,2023-12-12T15:02:54,0,,active
6080205,93823928,,,Bus Station,,,,Clydebank Bus Interchange,,Chalmers Street,,,,Stance 2,,NW,ES000746,Clydebank,,,CLYDEBANK,,,,0,,249914,670003,,,BCS,MKD,OTH,,,,117,2003-08-27T00:00:00,2023-12-12T15:02:54,0,,inactive
6080206,93824374,,,Bus Station,,,,Clydebank Bus Station,,Chalmers Street,,,,Stance 3,,NW,ES000746,Clydebank,,,CLYDEBANK,,,,0,,249901,670017,,,BCS,MKD,OTH,,,,117,2003-08-27T00:00:00,2023-12-12T15:02:54,0,,inactive
6080207,93823262,,,Bus Station,,,,Clydebank Bus Interchange,,Chalmers Street,,,,Stance 4,,NW,ES000746,Clydebank,,,CLYDEBANK,,,,0,,249888,670030,,,BCS,MKD,OTH,,,,117,2003-08-27T00:00:00,2023-12-12T15:02:54,0,,inactive
6080208,93824549,,,Bus Station,,,,Clydebank Bus Interchange,,Chalmers Street,,,,Stance 5,,NW,ES000746,Clydebank,,,CLYDEBANK,,,,0,,249876,670044,,,BCS,MKD,OTH,,,,117,2003-08-27T00:00:00,2023-12-12T15:02:54,0,,inactive
6080209,93824258,,,Bus Station,,,,Clydebank Bus Interchange,,Chalmers Street,,,,Stance 6,,SE,ES000746,Clydebank,,,CLYDEBANK,,,,0,,249922,670012,,,BCS,CUS,OTH,,,,117,2003-08-27T00:00:00,2023-12-12T15:02:54,0,,active
608021,93823467,,,Turning circle,,,,Turning circle,,Faifley Road,,,,at,,NE,ES001331,Faifley,Clydebank,,CLYDEBANK,,,,0,,251071,672903,,,BCT,MKD,OTH,,,,117,2003-08-27T00:00:00,2023-12-12T15:02:54,0,,active
6080210,93823782,,,Bus Station,,,,Clydebank Bus Interchange,,Chalmers Street,,,,Stance 7,,SE,ES000746,Clydebank,,,CLYDEBANK,,,,0,,249907,670026,,,BCS,CUS,OTH,,,,117,2003-08-27T00:00:00,2023-12-12T15:02:54,0,,active
6080211,93823576,,,Bus Station,,,,Clydebank Bus Interchange,,Chalmers Street,,,,Stance 8,,NW,ES000746,Clydebank,,,CLYDEBANK,,,,0,,249953,670001,,,BCS,CUS,OTH,,,,117,2003-08-27T00:00:00,2023-12-12T15:02:54,0,,inactive
6080212,93826832,,,Clarence Street,,,,Clarence Street,,Drumry Road,,,,before,,SE,N0078830,Drumry,Clydebank,,CLYDEBANK,,,,0,,250022,671174,,,BCT,MKD,OTH,,,,117,2003-08-27T00:00:00,2023-12-12T15:02:54,0,,active
6080213,93836284,,,Janetta Street,,,,Janetta Street,,West Thomson Street,,,,after,,E,ES000746,Clydebank,,,CLYDEBANK,,,,0,,249464,671504,,,BCT,CUS,OTH,,,,117,2003-08-27T00:00:00,2023-12-12T15:02:54,0,,active
6080214,93835973,,,West Thomson Street,,,,West Thomson Street,,Janetta Street,,,,before,,S,ES000746,Clydebank,,,CLYDEBANK,,,,0,,249326,671599,,,BCT,CUS,OTH,,,,117,2003-08-27T00:00:00,2023-12-12T15:02:54,0,,active
608022,93824394,,,Faifley Road,,,,Faifley Road,,Duntocher Road,,,,at,,NE,ES001331,Faifley,Clydebank,,CLYDEBANK,,,,0,,251162,672918,,,BCT,MKD,OTH,,,,117,2003-08-27T00:00:00,2023-12-12T15:02:54,0,,active
6080220,93823473,,,Elm Road,,,,Elm Road,,Maple Drive,,,,at,,W,N0078723,Parkhall,Clydebank,,CLYDEBANK,,,,0,,249267,672248,,,BCT,MKD,OTH,,,,117,2003-08-27T00:00:00,2023-12-12T15:02:54,0,,active
6080221,93824369,,,Beech Drive,,,,Beech Drive,,Maple Drive,,,,at,,W,N0078723,Parkhall,Clydebank,,CLYDEBANK,,,,0,,249090,672249,,,BCT,MKD,OTH,,,,117,2003-08-27T00:00:00,2023-12-12T15:02:54,0,,active
6080222,93824268,,,Oak Road,,,,Oak Road,,Poplar Drive,,,,at,,S,N0078723,Parkhall,Clydebank,,CLYDEBANK,,,,0,,248925,672133,,,BCT,MKD,OTH,,,,117,2003-08-27T00:00:00,2023-12-12T15:02:54,0,,active
6080223,93824279,,,Poplar Drive,,,,Poplar Drive,,Hornbeam Drive,,,,at,,E,N0078723,Parkhall,Clydebank,,CLYDEBANK,,,,0,,248970,671972,,,BCT,MKD,OTH,,,,117,2003-08-27T00:00:00,2023-12-12T15:02:54,0,,active
6080224,93823847,,,Planetree Road,,,,Planetree Road,,Hornbeam Drive,,,,at,,E,N0078723,Parkhall,Clydebank,,CLYDEBANK,,,,0,,249097,671955,,,BCT,MKD,OTH,,,,117,2003-08-27T00:00:00,2023-12-12T15:02:54,0,,active
6080225,93823464,,,Church Street,,,,Church Street,,Granville Street,,,,at,,N,N0078721,Kilbowie,Clydebank,,CLYDEBANK,,,,0,,249543,671359,,,BCT,MKD,OTH,,,,117,2003-08-27T00:00:00,2023-12-12T15:02:54,0,,active
6080226,93823987,,,Perth Crescent,,,,Perth Crescent,,Mountblow Road,,,,at,,N,N0078722,Mountblow,Clydebank,,CLYDEBANK,,,,0,,248024,672560,,,BCT,MKD,OTH,,,,117,2003-08-27T00:00:00,2023-12-12T15:02:54,0,,active
6080227,93823272,,,Salisbury Place,,,,Salisbury Place,,Mountblow Road,,,,opp,,S,N0078722,Mountblow,Clydebank,,CLYDEBANK,,,,0,,248131,672009,,,BCT,MKD,OTH,,,,117,2003-08-27T00:00:00,2023-12-12T15:02:54,0,,active
6080228,93823246,,,Perth Crescent,,,,Perth Crescent,,Melbourne Avenue,,,,opp,,NW,N0078722,Mountblow,Clydebank,,CLYDEBANK,,,,0,,247955,672137,,,BCT,MKD,OTH,,,,117,2003-08-27T00:00:00,2023-12-12T15:02:54,0,,active
6080229,93823249,,,Parkhall Library,,,,Parkhall Library,,Hawthorn Street,,,,at,,W,N0078723,Parkhall,Clydebank,,CLYDEBANK,,,,0,,249381,671757,,,BCT,MKD,OTH,,,,117,2003-08-27T00:00:00,2023-12-12T15:02:54,0,,active
608023,,,,Faifley Road,,,,Faifley Road,,Glasgow Road,,,,opp,,SW,ES001331,Faifley,Clydebank,,CLYDEBANK,,,,0,,251098,672828,,,BCT,MKD,OTH,,,,117,2003-08-27T00:00:00,2023-12-12T15:02:54,0,,inactive
6080230,93824536,,,Broom Drive,,,,Broom Drive,,Hawthorn Street,,,,opp,,W,N0078723,Parkhall,Clydebank,,CLYDEBANK,,,,0,,249526,671742,,,BCT,MKD,OTH,,,,117,2003-08-27T00:00:00,2023-12-12T15:02:54,0,,active
6080231,93823983,,,Cornock Street,,,,Cornock Street,,Granville Street,,,,after,,NW,N0078721,Kilbowie,Clydebank,,CLYDEBANK,,,,0,,249586,671271,,,BCT,MKD,OTH,,,,117,2003-08-27T00:00:00,2023-12-12T15:02:54,0,,active
6080232,93823943,,,Harris Road,,,,Harris Road,,Western Isles Road,,,,at,,S,N0078400,Antonine Park,Clydebank,,CLYDEBANK,,,,0,,247145,672306,,,BCT,MKD,OTH,,,,117,2003-08-27T00:00:00,2023-12-12T15:02:54,0,,active
6080233,93823532,,,Iona Gardens,,,,Iona Gardens,,Western Isles Road,,,,at,,SE,N0078400,Antonine Park,Clydebank,,CLYDEBANK,,,,0,,247328,672168,,,BCT,MKD,OTH,,,,117,2003-08-27T00:00:00,2023-12-12T15:02:54,0,,active
6080234,93823648,,,Turning Circle,,,,Western Isles Turning Circle,,Western Isles Road,,,,at,,SW,N0078400,Antonine Park,Clydebank,,CLYDEBANK,,,,0,,247328,672582,,,BCT,MKD,OTH,,,,117,2003-08-27T00:00:00,2023-12-12T15:02:54,0,,active
6080235,93824349,,,Brown Avenue,,,,Brown Avenue,,Fleming Avenue,,,,opp,,NW,N0078724,Whitecrook,Clydebank,,CLYDEBANK,,,,0,,250758,669831,,,BCT,MKD,OTH,,,,117,2003-08-27T00:00:00,2023-12-12T15:02:54,0,,active
6080236,93824235,,,Milton Douglas Road,,,,Milton Douglas Road,,Kilbowie Road,,,,opp,,W,N0078034,Hardgate,Clydebank,,CLYDEBANK,,,,0,,249860,672303,,,BCT,MKD,OTH,,,,117,2003-08-27T00:00:00,2023-12-12T15:02:54,0,,active
6080237,93823437,,,Milton Douglas Road,,,,Milton Douglas Road,,Kilbowie Road,,,,at,,NE,N0078034,Hardgate,Clydebank,,CLYDEBANK,,,,0,,249776,672280,,,BCT,MKD,OTH,,,,117,2003-08-27T00:00:00,2023-12-12T15:02:54,0,,active
6080238,93823745,,,Glenarbuck Lodge,,,,Glenarbuck Lodge,,Dumbarton Road,,,,opp,,W,N0068020,Bowling,,,BOWLING,,,,0,,245388,673553,,,BCT,MKD,OTH,,,,117,2003-08-27T00:00:00,2023-12-12T15:02:54,0,,active
6080239,93823679,,,Glenarbuck Cottage,,,,Glenarbuck Cottage,,Dumbarton Road,,,,near,,NW,N0068020,Bowling,,,BOWLING,,,,1,,245152,673626,,,BCT,MKD,OTH,,,,117,2003-08-27T00:00:00,2023-12-12T15:02:54,0,,active
608024,,,,Clydebank golf course,,,,Clydebank golf course,,Glasgow Road,,,,opp,,SW,ES001331,Faifley,Clydebank,,CLYDEBANK,,,,0,,250621,672741,,,BCT,MKD,OTH,,,,117,2003-08-27T00:00:00,2023-12-12T15:02:54,0,,inactive
6080240,93823835,,,Glenarbuck Cottage,,,,Glenarbuck Cottage,,Dumbarton Road,,,,Opp,,SE,N0068020,Bowling,,,BOWLING,,,,1,,245114,673654,,,BCT,MKD,OTH,,,,117,2003-08-27T00:00:00,2023-12-12T15:02:54,0,,active
6080241,93824384,,,Manse Road,,,,Manse Road,,Dumbarton Road,,,,at,,E,N0068020,Bowling,,,BOWLING,,,,1,,244889,673661,,,BCT,MKD,OTH,,,,117,2003-08-27T00:00:00,2023-12-12T15:02:54,0,,active
6080242,93824395,,,Manse Road,,,,Manse Road,,Dumbarton Road,,,,opp,,W,N0068020,Bowling,,,BOWLING,,,,1,,244857,673645,,,BCT,MKD,OTH,,,,117,2003-08-27T00:00:00,2023-12-12T15:02:54,0,,active
6080243,93823284,,,Scott Avenue,,,,Scott Avenue,,Dumbarton Road,,,,opp,,W,N0068020,Bowling,,,BOWLING,,,,1,,244592,673716,,,BCT,MKD,OTH,,,,117,2003-08-27T00:00:00,2023-12-12T15:02:54,0,,active
6080244,93823574,,,Scott Avenue,,,,Scott Avenue,,Dumbarton Road,,,,at,,E,N0068020,Bowling,,,BOWLING,,,,1,,244623,673719,,,BCT,MKD,OTH,,,,117,2003-08-27T00:00:00,2023-12-12T15:02:54,0,,active
6080245,93824245,,,Bowling Railway Station,,,,Bowling Railway Station,,Dumbarton Road,,,,opp,,E,N0068020,Bowling,,,BOWLING,,,,1,,244381,673765,,,BCT,MKD,OTH,,,,117,2003-08-27T00:00:00,2023-12-12T15:02:54,0,,active
6080246,93823237,,,Bowling Railway Station,,,,Bowling Railway Station,,Dumbarton Road,,,,at,,W,N0068020,Bowling,,,BOWLING,,,,1,,244345,673758,,,BCT,MKD,OTH,,,,117,2003-08-27T00:00:00,2023-12-12T15:02:54,0,,active
6080247,93823297,,,Dunglass roundabout,,,,Dunglass roundabout,,Dumbarton Road,,,,Before,,NW,N0068020,Bowling,,,BOWLING,,,,1,,243808,673726,,,BCT,MKD,OTH,,,,117,2003-08-27T00:00:00,2023-12-12T15:02:54,0,,active
6080248,93823859,,,Dunglass roundabout,,,,Dunglass roundabout,,Dumbarton Road,,,,after,,E,N0068020,Bowling,,,BOWLING,,,,1,,243766,673758,,,BCT,MKD,OTH,,,,117,2003-08-27T00:00:00,2023-12-12T15:02:54,0,,active
6080249,93824359,,,Milton Brae,,,,Tourist Information Centre,,A82,,,,after,,SE,ES002629,Milton,,,DUMBARTON,,,,1,,243129,674160,,,BCT,MKD,OTH,,,,117,2003-08-27T00:00:00,2023-12-12T15:02:54,0,,inactive
608025,93823686,,,Clydebank golf course,,,,Clydebank golf course,,Glasgow Road,,,,at,,E,N0078034,Hardgate,Clydebank,,CLYDEBANK,,,,0,,250583,672725,,,BCT,MKD,OTH,,,,117,2003-08-27T00:00:00,2023-12-12T15:02:54,0,,inactive
6080252,93823579,,,Whyte Corner,,,,Whyte Corner,,Dumbarton Road,,,,at,,SE,ES002629,Milton,,,DUMBARTON,,,,1,,242786,674346,,,BCT,MKD,OTH,,,,117,2003-08-27T00:00:00,2023-12-12T15:02:54,0,,active
6080253,93823548,,,Colquhoun Road,,,,Colquhoun Road,,Dumbarton Road,,,,opp,,SW,ES002629,Milton,,,DUMBARTON,,,,1,,242579,674286,,,BCT,MKD,OTH,,,,117,2003-08-27T00:00:00,2023-12-12T15:02:54,0,,active
6080254,93824398,,,Cranning Court,,,,Cranning Court,,Dumbarton Road,,,,at,,NE,ES002629,Milton,,,DUMBARTON,,,,1,,242410,674265,,,BCT,MKD,OTH,,,,117,2003-08-27T00:00:00,2023-12-12T15:02:54,0,,active
6080255,93823646,,,Dumbuck Warehouses,,,,Dumbuck Warehouses,,Glasgow Road,,,,at,,SE,N0078770,Dumbuck,Dumbarton,,DUMBARTON,,,,1,,241691,674381,,,BCT,MKD,OTH,,,,117,2003-08-27T00:00:00,2023-12-12T15:02:54,0,,active
6080256,93823632,,,Dumbuck Hotel,,,,Dumbuck Hotel,,Glasgow Road,,,,opp,,NW,N0078770,Dumbuck,Dumbarton,,DUMBARTON,,,,1,,241503,674469,,,BCT,MKD,OTH,,,,117,2003-08-27T00:00:00,2023-12-12T15:02:54,0,,active
6080258,93824543,,,Dumbuck Crescent,,,,Dumbuck Crescent,,Glasgow Road,,,,after,,SE,N0078770,Dumbuck,Dumbarton,,DUMBARTON,,,,1,,241361,674584,,,BCT,MKD,OTH,,,,117,2003-08-27T00:00:00,2023-12-12T15:02:54,0,,active
6080259,93823684,,,Catriona Place,,,,Opp Catriona Place,,Glasgow Road,,,,Opp,,SE,N0078770,Dumbuck,Dumbarton,,DUMBARTON,,,,1,,241109,674774,,,BCT,MKD,OTH,,,,117,2003-08-27T00:00:00,2023-12-12T15:02:54,0,,active
608026,93825678,,,Tighona,,,,Tighona,,Glasgow Road,,,,at,,E,N0078034,Hardgate,Clydebank,,CLYDEBANK,,,,0,,250303,672737,,,BCT,MKD,OTH,,,,117,2003-08-27T00:00:00,2023-12-12T15:02:54,0,,inactive
6080260,93823896,,,Mary Fisher Crescent,,,,After Mary Fisher Crescent,,Glasgow Road,,,,After,,NW,N0078770,Dumbuck,Dumbarton,,DUMBARTON,,,,1,,241179,674706,,,BCT,MKD,OTH,,,,117,2003-08-27T00:00:00,2023-12-12T15:02:54,0,,active
6080261,93823268,,,Dumbuck Crescent,,,,Dumbuck Crescent,,Glasgow Road,,,,at,,NW,N0078770,Dumbuck,Dumbarton,,DUMBARTON,,,,1,,240919,674901,,,BCT,MKD,OTH,,,,117,2003-08-27T00:00:00,2023-12-12T15:02:54,0,,active
6080262,93823627,,,Castlegreen Street,,,,Castlegreen Street,,Glasgow Road,,,,opp,,SE,N0078770,Dumbuck,Dumbarton,,DUMBARTON,,,,1,,240903,674929,,,BCT,MKD,OTH,,,,117,2003-08-27T00:00:00,2023-12-12T15:02:54,0,,active
6080263,93823239,,,Buchanan Street,,,,Buchanan Street,,Glasgow Road,,,,opp,,SE,ES001089,Dumbarton,,,DUMBARTON,,,,1,,240644,675030,,,BCT,MKD,OTH,,,,117,2003-08-27T00:00:00,2023-12-12T15:02:54,0,,active
6080264,93824546,,,Dumbarton East Railway Station,,,,Dumbarton East Railway Station,,Glasgow Road,,,,opp,,NW,ES001089,Dumbarton,,,DUMBARTON,,,,1,,240594,675032,,,BCT,MKD,OTH,,,,117,2003-08-27T00:00:00,2023-12-12T15:02:54,0,,active
6080265,93823953,,,Victoria Street,,,,Victoria Street,,Glasgow Road,,,,opp,,SE,ES001089,Dumbarton,,,DUMBARTON,,,,1,,240429,675130,,,BCT,MKD,OTH,,,,117,2003-08-27T00:00:00,2023-12-12T15:02:54,0,,active
6080266,93823484,,,Leven Street,,,,Knoxland Primary School,,Glasgow Road,,,,before,,NW,ES001089,Dumbarton,,,DUMBARTON,,,,1,,240283,675179,,,BCT,MKD,OTH,,,,117,2003-08-27T00:00:00,2023-12-12T15:02:54,0,,active
6080267,93824389,,,Leven Street,,,,Leven Street,,Glasgow Road,,,,opp,,SE,ES001089,Dumbarton,,,DUMBARTON,,,,1,,240281,675199,,,BCT,MKD,OTH,,,,117,2003-08-27T00:00:00,2023-12-12T15:02:54,0,,active
6080268,93824289,,,Castle Street,,,,Castle Street,,Glasgow Road,,,,opp,,SE,ES001089,Dumbarton,,,DUMBARTON,,,,1,,240074,675267,,,BCT,MKD,OTH,,,,117,2003-08-27T00:00:00,2023-12-12T15:02:54,0,,active
6080269,93823659,,,St Mary's Way,,,,Sheriff Court,,Church Street,,,,opp,,S,ES001089,Dumbarton,,,DUMBARTON,,,,1,,239767,675310,,,BCT,MKD,OTH,,,,117,2003-08-27T00:00:00,2023-12-12T15:02:54,0,,active
608027,93825698,,,St Helena crescent,,,,St Helena Crescent,,Glasgow Road,,,,At,,W,N0078034,Hardgate,Clydebank,,CLYDEBANK,,,,0,,250276,672732,,,BCT,MKD,OTH,,,,117,2003-08-27T00:00:00,2023-12-12T15:02:54,0,,inactive
6080270,93824278,,,St Mary's Way,,,,Sheriff Court,,Church Street,,,,before,,N,ES001089,Dumbarton,,,DUMBARTON,,,,1,,239749,675257,,,BCT,MKD,OTH,,,,117,2003-08-27T00:00:00,2023-12-12T15:02:54,0,,active
6080271,93823828,,,Riverside Lane,,,,Riverside Lane,,High Street,,,,before,,W,ES001089,Dumbarton,,,DUMBARTON,,,,1,,239663,675205,,,BCT,MKD,OTH,,,,117,2003-08-27T00:00:00,2023-12-12T15:02:54,0,,active
6080272,93823639,,,High Street,,,,50 High Street,,High Street,,,,at 50,,E,ES001089,Dumbarton,,,DUMBARTON,,,,1,,239560,675225,,,BCT,MKD,OTH,,,,117,2003-08-27T00:00:00,2023-12-12T15:02:54,0,,inactive
6080273,93823848,,,Quay Street,,,,Quay Street,,High Street,,,,opp,,E,ES001089,Dumbarton,,,DUMBARTON,,,,1,,239550,675227,,,BCT,MKD,OTH,,,,117,2003-08-27T00:00:00,2023-12-12T15:02:54,0,,active
6080274,93823875,,,Quay Street,,,,Quay Street,,High Street,,,,opp,,E,ES001089,Dumbarton,,,DUMBARTON,,,,1,,239552,675225,,,BCT,MKD,OTH,,,,117,2003-08-27T00:00:00,2023-12-12T15:02:54,0,,inactive
6080275,93823789,,,Quay Street,,,,Quay Street,,High Street,,,,after,,NW,ES001089,Dumbarton,,,DUMBARTON,,,,1,,239493,675247,,,BCT,MKD,OTH,,,,117,2003-08-27T00:00:00,2023-12-12T15:02:54,0,,inactive
6080276,93823843,,,Risk Street,,,,Risk Street,,High Street,,,,after,,SE,ES001089,Dumbarton,,,DUMBARTON,,,,1,,239442,675310,,,BCT,MKD,OTH,,,,117,2003-08-27T00:00:00,2023-12-12T15:02:54,0,,active
6080277,93824237,,,Risk Street,,,,Risk Street,,High Street,,,,opp,,N,ES001089,Dumbarton,,,DUMBARTON,,,,1,,239407,675345,,,BCT,MKD,OTH,,,,117,2003-08-27T00:00:00,2023-12-12T15:02:54,0,,active
6080278,93828387,,,Bowie Street,,,,Bowie Street,,West Bridgend,,,,opp,,N,ES001089,Dumbarton,,,DUMBARTON,,,,0,,239095,675403,,,BCT,MKD,OTH,,,,117,2003-08-27T00:00:00,2023-12-12T15:02:54,0,,active
6080279,93823459,,,Bowie Street,,,,Bowie Street,,West Bridgend,,,,at,,S,ES001089,Dumbarton,,,DUMBARTON,,,,1,,239086,675454,,,BCT,MKD,OTH,,,,117,2003-08-27T00:00:00,2023-12-12T15:02:54,0,,active
608028,93825842,,,Colbreggan Gardens,,,,Colbreggan Gardens,,Glasgow Road,,,,at,,W,N0078034,Hardgate,Clydebank,,CLYDEBANK,,,,0,,250120,672747,,,BCT,MKD,OTH,,,,117,2003-08-27T00:00:00,2023-12-12T15:02:54,0,,inactive
6080280,93828262,,,Comely Bank,,,,Comely Bank,,West Bridgend,,,,before,,N,ES001089,Dumbarton,,,DUMBARTON,,,,0,,239046,675558,,,BCT,MKD,OTH,,,,117,2003-08-27T00:00:00,2023-12-12T15:02:54,0,,active
6080281,93823937,,,Oxhill Road,,,,Oxhill Road,,Cardross Road,,,,opp,,E,ES001089,Dumbarton,,,DUMBARTON,,,,1,,238716,675774,,,BCT,MKD,OTH,,,,117,2003-08-27T00:00:00,2023-12-12T15:02:54,0,,active
6080282,93824253,,,Glencairn Road,,,,Glencairn Road,,Cardross Road,,,,before,,W,ES001089,Dumbarton,,,DUMBARTON,,,,1,,238650,675760,,,BCT,MKD,OTH,,,,117,2003-08-27T00:00:00,2023-12-12T15:02:54,0,,active
6080283,93823546,,,Memorial Park,,,,Memorial Park,,Cardross Road,,,,at,,E,N0078772,Westcliff,Dumbarton,,DUMBARTON,,,,1,,238419,675798,,,BCT,MKD,OTH,,,,117,2003-08-27T00:00:00,2023-12-12T15:02:54,0,,active
6080284,93824254,,,Glencairn Road,,,,After Glencairn Road,,Cardross Road,,,,After,,W,N0078772,Westcliff,Dumbarton,,DUMBARTON,,,,1,,238282,675784,,,BCT,MKD,OTH,,,,117,2003-08-27T00:00:00,2023-12-12T15:02:54,0,,active
6080285,93823472,,,Kyle Terrace,,,,Kyle Terrace,,Cardross Road,,,,after,,SE,N0078772,Westcliff,Dumbarton,,DUMBARTON,,,,1,,237925,675908,,,BCT,MKD,OTH,,,,117,2003-08-27T00:00:00,2023-12-12T15:02:54,0,,active
6080286,93824362,,,Kyle Terrace,,,,Kyle Terrace,,Cardross Road,,,,opp,,NW,N0078772,Westcliff,Dumbarton,,DUMBARTON,,,,1,,237818,675927,,,BCT,MKD,OTH,,,,117,2003-08-27T00:00:00,2023-12-12T15:02:54,0,,active
6080287,93823598,,,Westcliff Turning Circle,,,,Westcliff Turning Circle,,Cardross Road,,,,at,,SW,N0078772,Westcliff,Dumbarton,,DUMBARTON,,,,1,,237498,675867,,,BCT,MKD,OTH,,,,117,2003-08-27T00:00:00,2023-12-12T15:02:54,0,,active
6080288,93823675,,,Westcliff Turning Circle,,,,Westcliff Turning Circle,,Cardross Road,,,,opp,,NE,N0078772,Westcliff,Dumbarton,,DUMBARTON,,,,1,,237561,675923,,,BCT,MKD,OTH,,,,117,2003-08-27T00:00:00,2023-12-12T15:02:54,0,,active
6080289,93823259,,,Hawthornhill Road,,,,Dalreoch Church,,Kyle Terrace,,,,after,,S,N0078769,Castlehill,Dumbarton,,DUMBARTON,,,,0,,237813,675994,,,BCT,MKD,OTH,,,,117,2003-08-27T00:00:00,2023-12-12T15:02:54,0,,active
608029,93825497,,,Colbreggan Place,,,,Colbreggan Place,,Glasgow Road,,,,Opp,,E,N0078034,Hardgate,Clydebank,,CLYDEBANK,,,,0,,250076,672758,,,BCT,MKD,OTH,,,,117,2003-08-27T00:00:00,2023-12-12T15:02:54,0,,inactive
6080290,93823234,,,Carrick Terrace,,,,Carrick Terrace,,Hawthornhill Road,,,,opp,,E,N0078769,Castlehill,Dumbarton,,DUMBARTON,,,,0,,237869,676061,,,BCT,MKD,OTH,,,,117,2003-08-27T00:00:00,2023-12-12T15:02:54,0,,active
6080291,93823874,,,Carrick Terrace,,,,Carrick Terrace,,Hawthornhill Road,,,,Near,,W,N0078769,Castlehill,Dumbarton,,DUMBARTON,,,,1,,237947,676036,,,BCT,MKD,OTH,,,,117,2003-08-27T00:00:00,2023-12-12T15:02:54,0,,active
6080292,93823592,,,Turnberry Place,,,,Turnberry Place,,Hawthornhill Road,,,,opp,,E,N0078769,Castlehill,Dumbarton,,DUMBARTON,,,,1,,238047,676035,,,BCT,MKD,OTH,,,,117,2003-08-27T00:00:00,2023-12-12T15:02:54,0,,active
6080293,93823826,,,Castlehill Road,,,,Castlehill Road,,Hawthornhill Road,,,,after,,SW,N0078769,Castlehill,Dumbarton,,DUMBARTON,,,,0,,238397,676050,,,BCT,MKD,OTH,,,,117,2003-08-27T00:00:00,2023-12-12T15:02:54,0,,active
6080294,93823689,,,Hawthornhill Road,,,,Hawthornhill Road,,Castlehill Road,,,,opp,,SE,N0078769,Castlehill,Dumbarton,,DUMBARTON,,,,0,,238487,676080,,,BCT,MKD,OTH,,,,117,2003-08-27T00:00:00,2023-12-12T15:02:54,0,,active
6080298,93823476,,,Blackburn Crescent,,,,Blackburn Crescent,,Castlehill Road,,,,opp,,S,N0078769,Castlehill,Dumbarton,,DUMBARTON,,,,0,,238571,675938,,,BCT,MKD,OTH,,,,117,2003-08-27T00:00:00,2023-12-12T15:02:54,0,,active
6080299,93823292,,,Blackburn Cresent,,,,Blackburn Crescent,,Castlehill Road,,,,at,,N,N0078769,Castlehill,Dumbarton,,DUMBARTON,,,,0,,238561,675925,,,BCT,MKD,OTH,,,,117,2003-08-27T00:00:00,2023-12-12T15:02:54,0,,active
60803,93823893,,,Drumry Roundabout,,,,Drumry road,,Great Western Road,,,,before,,NW,N0078830,Drumry,Clydebank,,CLYDEBANK,,,,0,,250918,670876,,,BCT,MKD,OTH,,,,117,2003-08-27T00:00:00,2023-12-12T15:02:54,0,,active
608030,93823842,,,Cochno Road,,,,Cochno Road,,Glasgow Road,,,,opp,,W,N0078034,Hardgate,Clydebank,,CLYDEBANK,,,,0,,249852,672796,,,BCT,MKD,OTH,,,,117,2003-08-27T00:00:00,2023-12-12T15:02:54,0,,active
6080300,93824292,,,Ardoch Crescent,,,,Ardoch Crescent,,Glencairn Road,,,,opp,,NE,N0078768,Brucehill,Dumbarton,,DUMBARTON,,,,0,,238503,675651,,,BCT,MKD,OTH,,,,117,2003-08-27T00:00:00,2023-12-12T15:02:54,0,,active
6080301,93824298,,,Bontine Avenue,,,,Bontine Avenue,,Glencairn Road,,,,before,,SW,N0078768,Brucehill,Dumbarton,,DUMBARTON,,,,0,,238500,675633,,,BCT,MKD,OTH,,,,117,2003-08-27T00:00:00,2023-12-12T15:02:54,0,,active
6080302,93823658,,,Graham Road,,,,Graham Road,,Bontine Avenue,,,,after,,SE,N0078768,Brucehill,Dumbarton,,DUMBARTON,,,,0,,238640,675524,,,BCT,MKD,OTH,,,,117,2003-08-27T00:00:00,2023-12-12T15:02:54,0,,active
6080303,93823673,,,Keil Crescent,,,,Keil Crescent,,Napier Crescent,,,,before,,SW,N0078768,Brucehill,Dumbarton,,DUMBARTON,,,,0,,238740,675406,,,BCT,MKD,OTH,,,,117,2003-08-27T00:00:00,2023-12-12T15:02:54,0,,active
6080304,93823572,,,Hill Street,,,,Hill Street,,Napier Crescent,,,,opp,,NW,N0078768,Brucehill,Dumbarton,,DUMBARTON,,,,0,,238525,675419,,,BCT,MKD,OTH,,,,117,2003-08-27T00:00:00,2023-12-12T15:02:54,0,,active
6080305,93823525,,,Greenhead Avenue,,,,Greenhead Avenue,,Greenhead Road,,,,opp,,SW,N0078771,Silverton,Dumbarton,,DUMBARTON,,,,0,,240896,674962,,,BCT,MKD,OTH,,,,117,2003-08-27T00:00:00,2023-12-12T15:02:54,0,,active
6080306,93823934,,,Strowans Road,,,,Strowans Road,,Alclutha Avenue,,,,opp,,NW,N0078771,Silverton,Dumbarton,,DUMBARTON,,,,0,,241031,675119,,,BCT,MKD,OTH,,,,117,2003-08-27T00:00:00,2023-12-12T15:02:54,0,,active
6080307,93823696,,,Strowans Road,,,,Strowans Road,,Alclutha Avenue,,,,at,,SE,N0078771,Silverton,Dumbarton,,DUMBARTON,,,,0,,241023,675146,,,BCT,MKD,OTH,,,,117,2003-08-27T00:00:00,2023-12-12T15:02:54,0,,active
6080308,93824383,,,Lennox Road,,,,Lennox Road,,Millburn Crescent,,,,opp,,E,N0078771,Silverton,Dumbarton,,DUMBARTON,,,,0,,240855,675377,,,BCT,MKD,OTH,,,,117,2003-08-27T00:00:00,2023-12-12T15:02:54,0,,active
6080309,93824387,,,The Cottage,,,,Glasgow Road,,Stirling Road,,,,opp,,NW,ES002629,Milton,,,DUMBARTON,,,,1,,242121,674286,,,BCT,MKD,OTH,,,,117,2003-08-27T00:00:00,2023-12-12T15:02:54,0,,inactive
608031,93823242,,,Cochno Road,,,,Cochno Road,,Glasgow Road,,,,at,,E,N0078034,Hardgate,Clydebank,,CLYDEBANK,,,,0,,249727,672845,,,BCT,MKD,OTH,,,,117,2003-08-27T00:00:00,2023-12-12T15:02:54,0,,active
6080310,93823674,,,The Cottage,,,,Glasgow Road,,Stirling Road,,,,at,,SE,ES002629,Milton,,,DUMBARTON,,,,1,,242111,674312,,,BCT,MKD,OTH,,,,117,2003-08-27T00:00:00,2023-12-12T15:02:54,0,,inactive
6080313,93823584,,,Second Avenue,,,,Second Avenue,,Stirling Road,,,,opp,,SE,N0078771,Silverton,Dumbarton,,DUMBARTON,,,,1,,241515,674975,,,BCT,MKD,OTH,,,,117,2003-08-27T00:00:00,2023-12-12T15:02:54,0,,active
6080314,93823479,,,Second Avenue,,,,Second Avenue,,Stirling Road,,,,at,,NW,N0078771,Silverton,Dumbarton,,DUMBARTON,,,,1,,241486,674981,,,BCT,MKD,OTH,,,,117,2003-08-27T00:00:00,2023-12-12T15:02:54,0,,active
6080315,93823523,,,Barnhill Road,,,,Barnhill Road,,Stirling Road,,,,at,,SE,ES001089,Dumbarton,,,DUMBARTON,,,,1,,241382,675123,,,BCT,MKD,OTH,,,,117,2003-08-27T00:00:00,2023-12-12T15:02:54,0,,active
6080316,93823974,,,Strowan's Well Road,,,,Strowan's Road,,Stirling Road,,,,opp,,NW,N0078771,Silverton,Dumbarton,,DUMBARTON,,,,1,,241179,675294,,,BCT,MKD,OTH,,,,117,2003-08-27T00:00:00,2023-12-12T15:02:54,0,,active
6080317,93824325,,,Argyll Avenue,,,,Argyll Avenue,,Stirling Road,,,,at,,SE,N0078771,Silverton,Dumbarton,,DUMBARTON,,,,1,,241105,675451,,,BCT,MKD,OTH,,,,117,2003-08-27T00:00:00,2023-12-12T15:02:54,0,,active
6080318,93824249,,,White Avenue,,,,White Avenue,,Stirling Road,,,,at,,NW,N0078771,Silverton,Dumbarton,,DUMBARTON,,,,1,,241038,675543,,,BCT,MKD,OTH,,,,117,2003-08-27T00:00:00,2023-12-12T15:02:54,0,,active
6080319,93823469,,,Overwood Drive,,,,Overwood Drive,,Stirling Road,,,,opp,,SE,ES001089,Dumbarton,,,DUMBARTON,,,,1,,240940,675821,,,BCT,MKD,OTH,,,,117,2003-08-27T00:00:00,2023-12-12T15:02:54,0,,active
608032,93823597,,,Roman Road,,,,Roman Road,,Dumbarton Road,,,,at,,SW,N0078720,Duntocher,Clydebank,,CLYDEBANK,,,,0,,249423,672851,,,BCT,MKD,OTH,,,,117,2003-08-27T00:00:00,2023-12-12T15:02:54,0,,inactive
6080320,93823275,,,Dumbarton Cemetry,,,,Dumbarton Cemetry,,Stirling Road,,,,opp,,NW,ES001089,Dumbarton,,,DUMBARTON,,,,1,,240790,675959,,,BCT,MKD,OTH,,,,117,2003-08-27T00:00:00,2023-12-12T15:02:54,0,,inactive
6080321,93823289,,,Barloan Toll,,,,Barloan Toll,,Stirling Road,,,,before,,NW,ES001089,Dumbarton,,,DUMBARTON,,,,1,,240585,676200,,,BCT,MKD,OTH,,,,117,2003-08-27T00:00:00,2023-12-12T15:02:54,0,,active
6080322,93823734,,,Barloan Toll,,,,Barloan Toll,,Stirling Road,,,,after,,SE,ES001089,Dumbarton,,,DUMBARTON,,,,1,,240614,676196,,,BCT,MKD,OTH,,,,117,2003-08-27T00:00:00,2023-12-12T15:02:54,0,,active
6080324,93823637,,,Poinfauld Terrace,,,,Poinfauld Terrace,,Bonhill Road,,,,at,,NE,ES001089,Dumbarton,,,DUMBARTON,,,,0,,240205,675817,,,BCT,MKD,OTH,,,,117,2003-08-27T00:00:00,2023-12-12T15:02:54,0,,active
6080325,93823565,,,Round Riding Road,,,,Round Riding Road,,Bonhill Road,,,,at,,SW,ES001089,Dumbarton,,,DUMBARTON,,,,0,,240213,675804,,,BCT,MKD,OTH,,,,117,2003-08-27T00:00:00,2023-12-12T15:02:54,0,,active
6080326,93824392,,,Crosslet Road,,,,Crosslet Road,,Bonhill Road,,,,at,,SW,ES001089,Dumbarton,,,DUMBARTON,,,,0,,240127,675677,,,BCT,MKD,OTH,,,,117,2003-08-27T00:00:00,2023-12-12T15:02:54,0,,active
6080327,93823925,,,Crosslet Road,,,,Crosslet Road,,Bonhill Road,,,,opp,,NE,ES001089,Dumbarton,,,DUMBARTON,,,,0,,240083,675632,,,BCT,MKD,OTH,,,,117,2003-08-27T00:00:00,2023-12-12T15:02:54,0,,active
6080328,93823823,,,Bankend Road,,,,St Patricks Church,,Strathleven Place,,,,before,,NE,ES001089,Dumbarton,,,DUMBARTON,,,,1,,239940,675498,,,BCT,MKD,OTH,,,,117,2003-08-27T00:00:00,2023-12-12T15:02:54,0,,active
6080329,93823593,,,Meadow Road,,,,Meadow Road,,Bankend Road,,,,before,,E,ES001089,Dumbarton,,,DUMBARTON,,,,1,,240015,675603,,,BCT,MKD,OTH,,,,117,2003-08-27T00:00:00,2023-12-12T15:02:54,0,,active
608033,93823954,,,Duntocher Sports Centre,,,,Duntocher Sports Centre,,Dumbarton Road,,,,at,,SW,N0078720,Duntocher,Clydebank,,CLYDEBANK,,,,0,,249192,672760,,,BCT,MKD,OTH,,,,117,2003-08-27T00:00:00,2023-12-12T15:02:54,0,,inactive
6080330,93823967,,,Meadow Road,,,,Meadow Road,,Bankend Road,,,,opp,,W,ES001089,Dumbarton,,,DUMBARTON,,,,1,,239988,675592,,,BCT,MKD,OTH,,,,117,2003-08-27T00:00:00,2023-12-12T15:02:54,0,,active
6080331,93824386,,,Townend Road,,,,Townend Road,,Bankend Road,,,,at,,E,ES001089,Dumbarton,,,DUMBARTON,,,,0,,239892,675610,,,BCT,MKD,OTH,,,,117,2003-08-27T00:00:00,2023-12-12T15:02:54,0,,active
6080332,93823784,,,Poplar Road,,,,Poplar Road,,Townend Road,,,,opp,,S,ES001089,Dumbarton,,,DUMBARTON,,,,0,,239859,675644,,,BCT,MKD,OTH,,,,117,2003-08-27T00:00:00,2023-12-12T15:02:54,0,,active
6080333,93824353,,,Poplar Road,,,,Poplar Road,,Townend Road,,,,at,,N,ES001089,Dumbarton,,,DUMBARTON,,,,0,,239863,675687,,,BCT,MKD,OTH,,,,117,2003-08-27T00:00:00,2023-12-12T15:02:54,0,,active
6080334,93823286,,,Overburn Terrace,,,,Brae Head Primary School,,Townend Road,,,,before,,NE,N0073044,Townend,Dumbarton,,DUMBARTON,,,,0,,240038,676035,,,BCT,MKD,OTH,,,,117,2003-08-27T00:00:00,2023-12-12T15:02:54,0,,active
6080335,93823739,,,Overburn Terrace,,,,Overburn Terrace,,Townend Road,,,,opp,,SW,N0073044,Townend,Dumbarton,,DUMBARTON,,,,0,,240116,676062,,,BCT,MKD,OTH,,,,117,2003-08-27T00:00:00,2023-12-12T15:02:54,0,,active
6080336,93823978,,,Doveholm,,,,58 Townend Road,,Townend Road,,,,after,,SW,N0073044,Townend,Dumbarton,,DUMBARTON,,,,0,,240308,676178,,,BCT,MKD,OTH,,,,117,2003-08-27T00:00:00,2023-12-12T15:02:54,0,,active
6080337,93824276,,,Gooseholm Road,,,,Gooseholm Road,,Townend Road,,,,before,,NE,N0073044,Townend,Dumbarton,,DUMBARTON,,,,0,,240369,676226,,,BCT,MKD,OTH,,,,117,2003-08-27T00:00:00,2023-12-12T15:02:54,0,,active
6080338,93823493,,,Colquhoun Street,,,,Colquhoun Street,,Round Riding Road,,,,at,,E,ES001089,Dumbarton,,,DUMBARTON,,,,0,,240460,675813,,,BCT,MKD,OTH,,,,117,2003-08-27T00:00:00,2023-12-12T15:02:54,0,,active
6080339,93823652,,,Netherbog Road,,,,Netherbog Road,,Round Riding Road,,,,at,,W,ES001089,Dumbarton,,,DUMBARTON,,,,0,,240515,675812,,,BCT,MKD,OTH,,,,117,2003-08-27T00:00:00,2023-12-12T15:02:54,0,,active
608034,93823435,,,Duntocher Sports Centre,,,,Duntocher Sports Centre,,Dumbarton Road,,,,opp,,NE,N0078720,Duntocher,Clydebank,,CLYDEBANK,,,,0,,249158,672751,,,BCT,MKD,OTH,,,,117,2003-08-27T00:00:00,2023-12-12T15:02:54,0,,active
6080340,93823729,,,Overwood Drive,,,,Overwood Drive,,Round Riding Road,,,,at,,W,ES001089,Dumbarton,,,DUMBARTON,,,,0,,240786,675854,,,BCT,MKD,OTH,,,,117,2003-08-27T00:00:00,2023-12-12T15:02:54,0,,active
6080341,93823695,,,Whiteford Avenue,,,,Whiteford Avenue,,Garshake Road,,,,before,,E,ES001089,Dumbarton,,,DUMBARTON,,,,0,,240948,675895,,,BCT,MKD,OTH,,,,117,2003-08-27T00:00:00,2023-12-12T15:02:54,0,,active
6080342,93823454,,,Whiteford Avenue,,,,Whiteford Avenue,,Garshake Road,,,,opp,,W,ES001089,Dumbarton,,,DUMBARTON,,,,0,,240977,675879,,,BCT,MKD,OTH,,,,117,2003-08-27T00:00:00,2023-12-12T15:02:54,0,,active
6080343,93823793,,,Stonyflatt Road,,,,Stonyflatt Road,,Whiteford Avenue,,,,opp,,S,N0068011,Bellsmyre,Dumbarton,,DUMBARTON,,,,0,,241075,676267,,,BCT,MKD,OTH,,,,117,2003-08-27T00:00:00,2023-12-12T15:02:54,0,,active
6080344,93824372,,,Whiteford Crescent,,,,Whiteford Crescent,,Whiteford Avenue,,,,opp,,N,N0068011,Bellsmyre,Dumbarton,,DUMBARTON,,,,0,,241071,676343,,,BCT,MKD,OTH,,,,117,2003-08-27T00:00:00,2023-12-12T15:02:54,0,,active
6080345,93824363,,,Stonyflatt Road,,,,Stonyflatt Road,,Whiteford Avenue,,,,at,,NW,N0068011,Bellsmyre,Dumbarton,,DUMBARTON,,,,0,,240869,676527,,,BCT,MKD,OTH,,,,117,2003-08-27T00:00:00,2023-12-12T15:02:54,0,,active
6080346,93823252,,,Loaninghead Drive,,,,Loaninghead Drive,,Langlands Terrace,,,,opp,,N,N0068011,Bellsmyre,Dumbarton,,DUMBARTON,,,,0,,240593,676787,,,BCT,MKD,OTH,,,,117,2003-08-27T00:00:00,2023-12-12T15:02:54,0,,active
6080347,93823872,,,Lomond Drive,,,,Lomond Drive,,Bellsmyre Avenue,,,,at,,S,N0068011,Bellsmyre,Dumbarton,,DUMBARTON,,,,1,,240511,676646,,,BCT,MKD,OTH,,,,117,2003-08-27T00:00:00,2023-12-12T15:02:54,0,,active
6080348,93824574,,,Lomond Drive,,,,Lomond Drive,,Bellsmyre Avenue,,,,opp,,N,N0068011,Bellsmyre,Dumbarton,,DUMBARTON,,,,1,,240498,676661,,,BCT,MKD,OTH,,,,117,2003-08-27T00:00:00,2023-12-12T15:02:54,0,,active
6080349,93823756,,,Valeview Terrace,,,,Valeview Terrace,,Bellsmyre Avenue,,,,opp,,S,N0068011,Bellsmyre,Dumbarton,,DUMBARTON,,,,0,,240475,677012,,,BCT,MKD,OTH,,,,117,2003-08-27T00:00:00,2023-12-12T15:02:54,0,,active
608035,93824247,,,Gentle Row,,,,Dumbarton Road,,Old Street,,,,after,,N,N0078720,Duntocher,Clydebank,,CLYDEBANK,,,,0,,248982,672653,,,BCT,MKD,OTH,,,,117,2003-08-27T00:00:00,2023-12-12T15:02:54,0,,active
6080350,93823956,,,Valeview Terrace,,,,Valeview Terrace,,Bellsmyre Avenue,,,,at,,NE,N0068011,Bellsmyre,Dumbarton,,DUMBARTON,,,,0,,240483,677031,,,BCT,MKD,OTH,,,,117,2003-08-27T00:00:00,2023-12-12T15:02:54,0,,active
6080351,93823539,,,Langlands Terrace,,,,Langlands Terrace,,Howatshaws Road,,,,opp,,SE,N0068011,Bellsmyre,Dumbarton,,DUMBARTON,,,,0,,240607,677081,,,BCT,MKD,OTH,,,,117,2003-08-27T00:00:00,2023-12-12T15:02:54,0,,active
6080352,93823687,,,Tay Place,,,,Fruin House,,Howatshaws Road,,,,after,,SE,N0068011,Bellsmyre,Dumbarton,,DUMBARTON,,,,0,,240800,676911,,,BCT,MKD,OTH,,,,117,2003-08-27T00:00:00,2023-12-12T15:02:54,0,,active
6080353,93823575,,,Muir Road,,,,Muir Road,,Howatshaws Road,,,,after,,SE,N0068011,Bellsmyre,Dumbarton,,DUMBARTON,,,,0,,241033,676584,,,BCT,MKD,OTH,,,,117,2003-08-27T00:00:00,2023-12-12T15:02:54,0,,active
6080354,93823625,,,Bellsmyre Avenue,,,,Bellsmyre Avenue,,Stirling Road,,,,opp,,NW,N0068011,Bellsmyre,Dumbarton,,DUMBARTON,,,,1,,240521,676463,,,BCT,MKD,OTH,,,,117,2003-08-27T00:00:00,2023-12-12T15:02:54,0,,active
6080355,93823676,,,Bellsmyre Avenue,,,,Bellsmyre Avenue,,Stirling Road,,,,after,,SE,N0068011,Bellsmyre,Dumbarton,,DUMBARTON,,,,1,,240543,676466,,,BCT,MKD,OTH,,,,117,2003-08-27T00:00:00,2023-12-12T15:02:54,0,,active
6080356,93823929,,,Valeview Terrace,,,,Lomondgate Drive,,Stirling Road,,,,near,,S,N0068011,Bellsmyre,Dumbarton,,DUMBARTON,,,,0,,240303,676807,,,BCT,MKD,OTH,,,,117,2003-08-27T00:00:00,2023-12-12T15:02:54,0,,active
6080357,93823935,,,Valeview Terrace,,,,Lomondgate Drive,,Stirling Road,,,,opp,,N,N0068011,Bellsmyre,Dumbarton,,DUMBARTON,,,,0,,240299,676789,,,BCT,MKD,OTH,,,,117,2003-08-27T00:00:00,2023-12-12T15:02:54,0,,active
6080358,93823296,,,Vale of Leven Industrial Estate,,,,Vale of Leven Ind Estate,,Stirling Road,,,,opp,,S,N0068011,Bellsmyre,Dumbarton,,VALE OF LEVEN,,,,0,,240089,677288,,,BCT,MKD,OTH,,,,117,2003-08-27T00:00:00,2023-12-12T15:02:54,0,,active
6080359,93823643,,,Vale of Leven Industrial Estate,,,,Vale of Leven Ind Estate,,Stirling Road,,,,at,,N,N0068011,Bellsmyre,Dumbarton,,VALE OF LEVEN,,,,0,,240071,677448,,,BCT,MKD,OTH,,,,117,2003-08-27T00:00:00,2023-12-12T15:02:54,0,,active
608036,93823923,,,Morar Road,,,,house no 477,,Kilbowie Road,,,,before,,S,N0078721,Kilbowie,Clydebank,,CLYDEBANK,,,,1,,249768,671924,,,BCT,MKD,OTH,,,,117,2003-08-27T00:00:00,2023-12-12T15:02:54,0,,active
6080360,93823792,,,Mains Farm,,,,Mains Farm,,Stirling Road,,,,before,,S,ES000408,Bonhill,,,VALE OF LEVEN,,,,0,,239999,678194,,,BCT,MKD,OTH,,,,117,2003-08-27T00:00:00,2023-12-12T15:02:54,0,,inactive
6080361,93823424,,,Strathleven Drive,,,,Mains Farm,,Stirling Road,,,,before,,N,ES000408,Bonhill,,,VALE OF LEVEN,,,,0,,239982,678236,,,BCT,MKD,OTH,,,,117,2003-08-27T00:00:00,2023-12-12T15:02:54,0,,active
6080362,93823656,,,Nobleston,,,,Nobleston,,Stirling Road,,,,after,,S,ES000408,Bonhill,,,VALE OF LEVEN,,,,0,,239935,678518,,,BCT,MKD,OTH,,,,117,2003-08-27T00:00:00,2023-12-12T15:02:54,0,,active
6080363,93823862,,,Strathleven Drive,,,,Strathleven Drive,,Stirling Road,,,,at,,N,ES000408,Bonhill,,,VALE OF LEVEN,,,,0,,239921,678526,,,BCT,MKD,OTH,,,,117,2003-08-27T00:00:00,2023-12-12T15:02:54,0,,active
6080364,93824343,,,Redburn,,,,Redburn,,Stirling Road,,,,before,,S,ES000408,Bonhill,,,VALE OF LEVEN,,,,0,,239895,678703,,,BCT,MKD,OTH,,,,117,2003-08-27T00:00:00,2023-12-12T15:02:54,0,,active
6080365,93823759,,,Main Street,,,,Main Street,,Stirling Road,,,,at,,N,ES000408,Bonhill,,,VALE OF LEVEN,,,,0,,239822,678925,,,BCT,MKD,OTH,,,,117,2003-08-27T00:00:00,2023-12-12T15:02:54,0,,inactive
6080366,93823293,,,Ladyton Road Path,,,,Ladyton Road Path,,Stirling Road,,,,at,,S,ES000408,Bonhill,,,VALE OF LEVEN,,,,0,,239849,679228,,,BCT,MKD,OTH,,,,117,2003-08-27T00:00:00,2023-12-12T15:02:54,0,,active
6080367,93824267,,,Ladyton,,,,Ladyton,,Stirling Road,,,,opp,,N,ES000408,Bonhill,,,VALE OF LEVEN,,,,0,,239825,679301,,,BCT,MKD,OTH,,,,117,2003-08-27T00:00:00,2023-12-12T15:02:54,0,,inactive
6080368,93823837,,,Burn Street,,,,Burn Street,,Stirling Road,,,,at,,S,ES000408,Bonhill,,,VALE OF LEVEN,,,,0,,239791,679572,,,BCT,MKD,OTH,,,,117,2003-08-27T00:00:00,2023-12-12T15:02:54,0,,active
6080369,93824535,,,Burn Street,,,,Burn Street,,Stirling Road,,,,opp,,NW,ES000408,Bonhill,,,VALE OF LEVEN,,,,0,,239668,679659,,,BCT,MKD,OTH,,,,117,2003-08-27T00:00:00,2023-12-12T15:02:54,0,,active
608037,93823578,,,Duntocher Road,,,,Kilbowie Roundabout,,Kilbowie Road,,,,before,,N,N0078721,Kilbowie,Clydebank,,CLYDEBANK,,,,1,,249745,672002,,,BCT,MKD,OTH,,,,117,2003-08-27T00:00:00,2023-12-12T15:02:54,0,,active
6080370,93823236,,,Bonhill Bridge,,,,Bonhill Bridge,,Main Street,,,,opp,,S,ES000408,Bonhill,,,VALE OF LEVEN,,,,1,,239630,679791,,,BCT,MKD,OTH,,,,117,2003-08-27T00:00:00,2023-12-12T15:02:54,0,,active
6080371,93823283,,,Bonhill Quarry,,,,Bonhill Quarry,,O'Hare,,,,at,,E,ES000408,Bonhill,,,VALE OF LEVEN,,,,0,,239882,679485,,,BCT,MKD,OTH,,,,117,2003-08-27T00:00:00,2023-12-12T15:02:54,0,,active
6080372,93823754,,,Bonhill Library,,,,Bonhill Library,,Ladyton,,,,at,,NW,ES000408,Bonhill,,,VALE OF LEVEN,,,,1,,240063,679311,,,BCT,MKD,OTH,,,,117,2003-08-27T00:00:00,2023-12-12T15:02:54,0,,active
6080373,93823483,,,Bonhill Library,,,,Bonhill Library,,Ladyton,,,,opp,,E,ES000408,Bonhill,,,VALE OF LEVEN,,,,1,,240089,679315,,,BCT,MKD,OTH,,,,117,2003-08-27T00:00:00,2023-12-12T15:02:54,0,,active
6080374,93823728,,,Braehead,,,,Braehead,,Ladyton Ring Road,,,,after,,S,ES000408,Bonhill,,,VALE OF LEVEN,,,,0,,240356,679179,,,BCT,MKD,OTH,,,,117,2003-08-27T00:00:00,2023-12-12T15:02:54,0,,active
6080375,93823795,,,Braehead,,,,Braehead,,Ladyton Ring Road,,,,opp,,N,ES000408,Bonhill,,,VALE OF LEVEN,,,,0,,240356,679112,,,BCT,MKD,OTH,,,,117,2003-08-27T00:00:00,2023-12-12T15:02:54,0,,active
6080376,93824378,,,Redburn,,,,185 to 191 Redburn,,Ladyton Ring Road,,,,after 185 to 191,,N,ES000408,Bonhill,,,VALE OF LEVEN,,,,0,,240347,678818,,,BCT,MKD,OTH,,,,117,2003-08-27T00:00:00,2023-12-12T15:02:54,0,,active
6080377,93823438,,,Redburn,,,,Redburn,,Ladyton Ring Road,,,,opp 185 to 191,,S,ES000408,Bonhill,,,VALE OF LEVEN,,,,0,,240361,678822,,,BCT,MKD,OTH,,,,117,2003-08-27T00:00:00,2023-12-12T15:02:54,0,,active
6080378,93823543,,,Nobleston,,,,Nobleston,,Ladyton Ring Road,,,,Opp,,SW,ES000408,Bonhill,,,VALE OF LEVEN,,,,0,,240045,678754,,,BCT,MKD,OTH,,,,117,2003-08-27T00:00:00,2023-12-12T15:02:54,0,,active
6080379,93824284,,,Nobleston,,,,Nobleston,,Ladyton Ring Road,,,,at,,NE,ES000408,Bonhill,,,VALE OF LEVEN,,,,0,,240017,678748,,,BCT,MKD,OTH,,,,117,2003-08-27T00:00:00,2023-12-12T15:02:54,0,,active
608038,93824234,,,Hawthorn Street,,,,Hawthorn Street,,Kilbowie Road,,,,at,,N,N0078721,Kilbowie,Clydebank,,CLYDEBANK,,,,1,,249747,671704,,,BCT,MKD,OTH,,,,117,2003-08-27T00:00:00,2023-12-12T15:02:54,0,,active
6080380,93823787,,,Murroch Crescent,,,,Murroch Crescent,,Beechwood Drive,,,,at,,NW,ES000408,Bonhill,,,VALE OF LEVEN,,,,0,,240386,678585,,,BCT,MKD,OTH,,,,117,2003-08-27T00:00:00,2023-12-12T15:02:54,0,,active
6080381,93823892,,,Murroch Crescent,,,,Murroch Crescent,,Beechwood Drive,,,,before,,SW,ES000408,Bonhill,,,VALE OF LEVEN,,,,0,,240638,678719,,,BCT,MKD,OTH,,,,117,2003-08-27T00:00:00,2023-12-12T15:02:54,0,,active
6080382,93823939,,,Beechwood Drive,,,,After Beechwood Drive,,Braehead,,,,After,,S,ES000408,Bonhill,,,VALE OF LEVEN,,,,0,,240627,679092,,,BCT,MKD,OTH,,,,117,2003-08-27T00:00:00,2023-12-12T15:02:54,0,,active
6080383,93823279,,,Braehead,,,,367 Braehead,,Braehead,,,,at 367,,SE,ES000408,Bonhill,,,VALE OF LEVEN,,,,0,,240552,679244,,,BCT,MKD,OTH,,,,117,2003-08-27T00:00:00,2023-12-12T15:02:54,0,,active
6080384,93824242,,,Pappert,,,,203 Pappert,,Pappert,,,,at 203,,S,ES000408,Bonhill,,,VALE OF LEVEN,,,,0,,240521,679465,,,BCT,MKD,OTH,,,,117,2003-08-27T00:00:00,2023-12-12T15:02:54,0,,active
6080385,93824365,,,Pappert,,,,166 Pappert,,Pappert,,,,opp 166,,E,ES000408,Bonhill,,,VALE OF LEVEN,,,,0,,240408,679608,,,BCT,MKD,OTH,,,,117,2003-08-27T00:00:00,2023-12-12T15:02:54,0,,active
6080386,93824293,,,O'Hare,,,,house no 113,,Pappert,,,,before,,N,ES000408,Bonhill,,,VALE OF LEVEN,,,,0,,240256,679498,,,BCT,MKD,OTH,,,,117,2003-08-27T00:00:00,2023-12-12T15:02:54,0,,active
6080387,93823746,,,Stirling Road,,,,Stirling Road,,Burn Street,,,,Before,,S,N0078767,Napierston,Bonhill,,VALE OF LEVEN,,,,0,,239771,679671,,,BCT,MKD,OTH,,,,117,2003-08-27T00:00:00,2023-12-12T15:02:54,0,,active
6080388,93823567,,,Hall Street,,,,Hall Street,,Burn Street,,,,Before,,N,N0078767,Napierston,Bonhill,,VALE OF LEVEN,,,,0,,239767,679711,,,BCT,MKD,OTH,,,,117,2003-08-27T00:00:00,2023-12-12T15:02:54,0,,active
6080389,93824275,,,Dalmonach Road,,,,Dalmonach Road,,Burn Street,,,,After,,S,N0078767,Napierston,Bonhill,,VALE OF LEVEN,,,,0,,239801,679915,,,BCT,MKD,OTH,,,,117,2003-08-27T00:00:00,2023-12-12T15:02:54,0,,active
608039,93823946,,,Morar Road,,,,Morar Road,,Kilbowie Road,,,,at,,S,N0078721,Kilbowie,Clydebank,,CLYDEBANK,,,,1,,249780,671788,,,BCT,MKD,OTH,,,,117,2003-08-27T00:00:00,2023-12-12T15:02:54,0,,active
6080390,93823964,,,First Avenue,,,,First Avenue,,Burn Street,,,,at,,N,N0078767,Napierston,Bonhill,,VALE OF LEVEN,,,,0,,239796,679965,,,BCT,MKD,OTH,,,,117,2003-08-27T00:00:00,2023-12-12T15:02:54,0,,active
6080391,93824373,,,Northfield Drive,,,,Northfield Drive,,First Avenue,,,,opp,,S,N0078767,Napierston,Bonhill,,VALE OF LEVEN,,,,0,,239921,680142,,,BCT,MKD,OTH,,,,117,2003-08-27T00:00:00,2023-12-12T15:02:54,0,,active
6080392,93824528,,,Northfield Drive,,,,Northfield Drive,,First Avenue,,,,at,,N,N0078767,Napierston,Bonhill,,VALE OF LEVEN,,,,0,,239924,680169,,,BCT,MKD,OTH,,,,117,2003-08-27T00:00:00,2023-12-12T15:02:54,0,,active
6080393,93824238,,,Elmbank Drive,,,,Elmbank Drive,,Napierston Road,,,,before,,S,N0078767,Napierston,Bonhill,,VALE OF LEVEN,,,,0,,239905,680392,,,BCT,MKD,OTH,,,,117,2003-08-27T00:00:00,2023-12-12T15:02:54,0,,active
6080394,93823748,,,Elmbank Drive,,,,Elmbank Drive,,Napierston Road,,,,after,,N,N0078767,Napierston,Bonhill,,VALE OF LEVEN,,,,0,,239898,680404,,,BCT,MKD,OTH,,,,117,2003-08-27T00:00:00,2023-12-12T15:02:54,0,,active
6080395,93823957,,,Northfield Road,,,,Northfield Road,,Napierston Road,,,,opp,,S,N0078767,Napierston,Bonhill,,VALE OF LEVEN,,,,0,,239923,680668,,,BCT,MKD,OTH,,,,117,2003-08-27T00:00:00,2023-12-12T15:02:54,0,,active
6080396,93823426,,,Northfield Road,,,,Northfield Road,,Napierston Road,,,,at,,N,N0078767,Napierston,Bonhill,,VALE OF LEVEN,,,,0,,239908,680670,,,BCT,MKD,OTH,,,,117,2003-08-27T00:00:00,2023-12-12T15:02:54,0,,active
6080397,93823969,,,Bonhill Bridge,,,,Bonhill Bridge,,A813,,,,after,,N,ES000408,Bonhill,,,VALE OF LEVEN,,,,1,,239618,679923,,,BCT,MKD,OTH,,,,117,2003-08-27T00:00:00,2023-12-12T15:02:54,0,,inactive
6080398,93823425,,,Bonhill Bridge,,,,Bonhill Bridge,,A813,,,,opp,,S,ES000408,Bonhill,,,VALE OF LEVEN,,,,0,,239648,680003,,,BCT,MKD,OTH,,,,117,2003-08-27T00:00:00,2023-12-12T15:02:54,0,,inactive
6080399,93823429,,,Cables Drive,,,,Cables Drive,,Main Street,,,,at,,S,ES000408,Bonhill,,,VALE OF LEVEN,,,,0,,239669,680203,,,BCT,MKD,OTH,,,,117,2003-08-27T00:00:00,2023-12-12T15:02:54,0,,inactive
60804,93823536,,,Stewart Drive,,,,Stewart Drive,,Kilbowie Road,,,,before,,N,N0078034,Hardgate,Clydebank,,CLYDEBANK,,,,0,,249955,672526,,,BCT,MKD,OTH,,,,117,2003-08-27T00:00:00,2023-12-12T15:02:54,0,,active
608040,93823569,,,McGhee Street,,,,McGhee Street,,Kilbowie Road,,,,opp,,N,N0078721,Kilbowie,Clydebank,,CLYDEBANK,,,,1,,249787,671483,,,BCT,MKD,OTH,,,,117,2003-08-27T00:00:00,2023-12-12T15:02:54,0,,active
6080400,93823537,,,Cables Drive,,,,Cable Drive,,Main Street,,,,opposite,,NW,ES000408,Bonhill,,,VALE OF LEVEN,,,,0,,239649,680301,,,BCT,MKD,OTH,,,,117,2003-08-27T00:00:00,2023-12-12T15:02:54,0,,inactive
6080401,93824246,,,Auchincarroch Road,,,,Auchincarroch Road,,Main Street,,,,opp,,N,N0076102,Jamestown,,,VALE OF LEVEN,,,,0,,239659,680729,,,BCT,MKD,OTH,,,,117,2003-08-27T00:00:00,2023-12-12T15:02:54,0,,active
6080402,93824286,,,Auchincarroch Road,,,,Auchincarroch Road,,Main Street,,,,at,,S,N0076102,Jamestown,,,VALE OF LEVEN,,,,0,,239671,680762,,,BCT,MKD,OTH,,,,117,2003-08-27T00:00:00,2023-12-12T15:02:54,0,,active
6080403,93824328,,,Milton Cottages,,,,Milton Cottages,,Main Street,,,,at,,S,N0076102,Jamestown,,,VALE OF LEVEN,,,,0,,239695,680877,,,BCT,MKD,OTH,,,,117,2003-08-27T00:00:00,2023-12-12T15:02:54,0,,active
6080404,93823924,,,Milton Cottages,,,,Milton Cottages,,Main Street,,,,opp,,N,N0076102,Jamestown,,,VALE OF LEVEN,,,,0,,239685,680923,,,BCT,MKD,OTH,,,,117,2003-08-27T00:00:00,2023-12-12T15:02:54,0,,active
6080405,93823582,,,Levenbank Gardens,,,,Levenbank Gardens,,Main Street,,,,opp,,S,N0076102,Jamestown,,,VALE OF LEVEN,,,,1,,239715,681187,,,BCT,MKD,OTH,,,,117,2003-08-27T00:00:00,2023-12-12T15:02:54,0,,active
6080406,93824367,,,Arthurston Road,,,,Arthurston Road,,Main Street,,,,opp,,N,N0076102,Jamestown,,,VALE OF LEVEN,,,,1,,239721,681327,,,BCT,MKD,OTH,,,,117,2003-08-27T00:00:00,2023-12-12T15:02:54,0,,active
6080407,93824368,,,Miller Road,,,,Miller Road,,Main Street,,,,at,,S,N0076102,Jamestown,,,BALLOCH,,,,1,,239774,681561,,,BCT,MKD,OTH,,,,117,2003-08-27T00:00:00,2023-12-12T15:02:54,0,,active
6080408,93823254,,,Smith Crescent,,,,Stables Restaurant,,Carrochan Road,,,,before,,NW,N0067998,Balloch,,,BALLOCH,,,,1,,239674,681710,,,BCT,MKD,OTH,,,,117,2003-08-27T00:00:00,2023-12-12T15:02:54,0,,active
6080409,93824524,,,Smith Crescent,,,,Stables Restaurant,,Carrochan Road,,,,opp,,SE,N0067998,Balloch,,,VALE OF LEVEN,,,,1,,239701,681693,,,BCT,MKD,OTH,,,,117,2003-08-27T00:00:00,2023-12-12T15:02:54,0,,active
608041,93824294,,,East Thomson Street,,,,East Thomson Street,,Kilbowie Road,,,,after,,S,N0078721,Kilbowie,Clydebank,,CLYDEBANK,,,,1,,249832,671373,,,BCT,MKD,OTH,,,,117,2003-08-27T00:00:00,2023-12-12T15:02:54,0,,active
6080410,93823989,,,Haldane Primary School,,,,Haldane Primary School,,Miller Road,,,,opp,,NE,N0078766,Haldane,Balloch,,VALE OF LEVEN,,,,0,,239800,681685,,,BCT,MKD,OTH,,,,117,2003-08-27T00:00:00,2023-12-12T15:02:54,0,,active
6080411,93823594,,,Main Street,,,,Haldane Primary School,,Miller Road,,,,before,,SW,N0078766,Haldane,Balloch,,BALLOCH,,,,0,,239799,681635,,,BCT,MKD,OTH,,,,117,2003-08-27T00:00:00,2023-12-12T15:02:54,0,,active
6080412,93823587,,,Miller Road,,,,Miller Road,,Cook Road,,,,after,,SE,N0078766,Haldane,Balloch,,VALE OF LEVEN,,,,0,,240014,681743,,,BCT,MKD,OTH,,,,117,2003-08-27T00:00:00,2023-12-12T15:02:54,0,,active
6080413,93823245,,,Brown Street,,,,Brown Street,,Cook Road,,,,opp,,SW,N0078766,Haldane,Balloch,,BALLOCH,,,,1,,240170,681694,,,BCT,MKD,OTH,,,,117,2003-08-27T00:00:00,2023-12-12T15:02:54,0,,active
6080414,93824568,,,Martin Avenue,,,,Martin Avenue,,Cook Road,,,,opp,,NE,N0078766,Haldane,Balloch,,VALE OF LEVEN,,,,0,,240217,681717,,,BCT,MKD,OTH,,,,117,2003-08-27T00:00:00,2023-12-12T15:02:54,0,,active
6080415,93823694,,,McGregor Avenue,,,,McGregor Avenue,,Cook Road,,,,opp,,S,N0078766,Haldane,Balloch,,BALLOCH,,,,0,,240289,681924,,,BCT,MKD,OTH,,,,117,2003-08-27T00:00:00,2023-12-12T15:02:54,0,,active
6080416,93823839,,,Buchanan Avenue,,,,Buchanan Avenue,,Cook Road,,,,opp,,N,N0078766,Haldane,Balloch,,VALE OF LEVEN,,,,0,,240277,681941,,,BCT,MKD,OTH,,,,117,2003-08-27T00:00:00,2023-12-12T15:02:54,0,,active
6080417,93823757,,,Mollanbowie Road,,,,Mollanbowie Road,,Drymen Road,,,,at,,NE,N0067998,Balloch,,,VALE OF LEVEN,,,,0,,239873,682202,,,BCT,MKD,OTH,,,,117,2003-08-27T00:00:00,2023-12-12T15:02:54,0,,active
6080418,93824269,,,Mollanbowie Road,,,,Mollanbowie Road,,Drymen Road,,,,opp,,SW,N0067998,Balloch,,,VALE OF LEVEN,,,,0,,239843,682185,,,BCT,MKD,OTH,,,,117,2003-08-27T00:00:00,2023-12-12T15:02:54,0,,active
6080419,93823498,,,Gallacher Crescent,,,,Gallacher Crescent,,Drymen Road,,,,at,,SW,N0067998,Balloch,,,BALLOCH,,,,0,,239568,682092,,,BCT,MKD,OTH,,,,117,2003-08-27T00:00:00,2023-12-12T15:02:54,0,,active
608042,93823758,,,West Thomson Street,,,,West Thomson Street,,Kilbowie Road,,,,before,,N,N0078721,Kilbowie,Clydebank,,CLYDEBANK,,,,1,,249824,671340,,,BCT,MKD,OTH,,,,117,2003-08-27T00:00:00,2023-12-12T15:02:54,0,,active
6080420,93824354,,,Balloch Bus Terminus,,,,Balloch Turning Circle,,Carrochan Road,,,,at Stop 1,,W,N0067998,Balloch,,,BALLOCH,,,,1,,239407,681990,,,BCT,MKD,OTH,,,,117,2003-08-27T00:00:00,2023-12-12T15:02:54,0,,active
6080421,93825346,,,Tullichewan Road,,,,Tullichewan Road,,Balloch Road,,,,at,,NE,N0067998,Balloch,,,VALE OF LEVEN,,,,1,,238946,681888,,,BCT,MKD,OTH,,,,117,2003-08-27T00:00:00,2023-12-12T15:02:54,0,,active
6080422,93825392,,,Craiglomond Gardens,,,,Craiglomond Gardens,,Balloch Road,,,,before,,SW,N0067998,Balloch,,,VALE OF LEVEN,,,,1,,238858,681842,,,BCT,MKD,OTH,,,,117,2003-08-27T00:00:00,2023-12-12T15:02:54,0,,active
6080423,93823634,,,Laudervale Gardens,,,,Laudervale Gardens,,Balloch Road,,,,at,,SW,N0067998,Balloch,,,VALE OF LEVEN,,,,0,,238612,681731,,,BCT,MKD,OTH,,,,117,2003-08-27T00:00:00,2023-12-12T15:02:54,0,,active
6080424,93824396,,,Ben Lomond Walk,,,,Ben Lomond Walk,,Lomond Road,,,,opp,,SW,N0067998,Balloch,,,VALE OF LEVEN,,,,1,,238858,681653,,,BCT,MKD,OTH,,,,117,2003-08-27T00:00:00,2023-12-12T15:02:54,0,,active
6080425,93823439,,,Lansbury Street,,,,Lansbury Street,,Lomond Road,,,,before,,NE,N0067998,Balloch,,,VALE OF LEVEN,,,,1,,238894,681669,,,BCT,MKD,OTH,,,,117,2003-08-27T00:00:00,2023-12-12T15:02:54,0,,active
6080426,93823273,,,Dalvait Road,,,,Dalvait Road,,Lomond Road,,,,before,,NE,N0067998,Balloch,,,BALLOCH,,,,1,,239303,681797,,,BCT,MKD,OTH,,,,117,2003-08-27T00:00:00,2023-12-12T15:02:54,0,,active
6080427,93823965,,,Carrochan Crescent,,,,Carrochan Crescent,,Lomond Road,,,,after,,SW,N0067998,Balloch,,,VALE OF LEVEN,,,,1,,239378,681809,,,BCT,MKD,OTH,,,,117,2003-08-27T00:00:00,2023-12-12T15:02:54,0,,active
6080428,93823589,,,Lomond Road,,,,Lomond Road,,Lansbury Street,,,,after,,S,N0078763,Levenvale,Alexandria,,VALE OF LEVEN,,,,0,,238981,681650,,,BCT,MKD,OTH,,,,117,2003-08-27T00:00:00,2023-12-12T15:02:54,0,,active
6080429,93824564,,,Muir Street,,,,Muir Street,,Lansbury Street,,,,after,,N,N0078763,Levenvale,Alexandria,,VALE OF LEVEN,,,,0,,238976,681639,,,BCT,MKD,OTH,,,,117,2003-08-27T00:00:00,2023-12-12T15:02:54,0,,active
608043,93823432,,,Radnor Street,,,,Clydebank College,,Kilbowie Road,,,,after,,N,N0078721,Kilbowie,Clydebank,,CLYDEBANK,,,,1,,249854,671228,,,BCT,MKD,OTH,,,,117,2003-08-27T00:00:00,2023-12-12T15:02:54,0,,active
6080430,93823796,,,Engels Street,,,,Engels Street,,Lansbury Street,,,,after,,N,N0078763,Levenvale,Alexandria,,VALE OF LEVEN,,,,0,,239022,681441,,,BCT,MKD,OTH,,,,117,2003-08-27T00:00:00,2023-12-12T15:02:54,0,,active
6080431,93823857,,,Engels Street,,,,Engels Street,,Lansbury Street,,,,before,,S,N0078763,Levenvale,Alexandria,,VALE OF LEVEN,,,,0,,239045,681369,,,BCT,MKD,OTH,,,,117,2003-08-27T00:00:00,2023-12-12T15:02:54,0,,active
6080432,93823973,,,Levenvale School,,,,Levenvale School,,Argyll Street,,,,at,,NE,N0078763,Levenvale,Alexandria,,VALE OF LEVEN,,,,0,,238977,681128,,,BCT,MKD,OTH,,,,117,2003-08-27T00:00:00,2023-12-12T15:02:54,0,,active
6080433,93823797,,,Levenvale School,,,,Levenvale School,,Argyll Street,,,,opp,,SW,N0078763,Levenvale,Alexandria,,VALE OF LEVEN,,,,0,,238962,681099,,,BCT,MKD,OTH,,,,117,2003-08-27T00:00:00,2023-12-12T15:02:54,0,,active
6080434,93823624,,,Cameron Drive,,,,Cameron Drive,,Tullichewan Drive,,,,at,,E,N0078765,Tullichewan,Alexandria,,VALE OF LEVEN,,,,1,,238676,681304,,,BCT,MKD,OTH,,,,117,2003-08-27T00:00:00,2023-12-12T15:02:54,0,,active
6080435,93823535,,,Cameron Drive,,,,Cameron Drive,,Tullichewan Drive,,,,opp,,W,N0078765,Tullichewan,Alexandria,,VALE OF LEVEN,,,,0,,238667,681288,,,BCT,MKD,OTH,,,,117,2003-08-27T00:00:00,2023-12-12T15:02:54,0,,active
6080436,93823864,,,Broomley Crescent,,,,Broomley Crescent,,Craig Avenue,,,,before,,E,N0078765,Tullichewan,Alexandria,,VALE OF LEVEN,,,,0,,238425,681244,,,BCT,MKD,OTH,,,,117,2003-08-27T00:00:00,2023-12-12T15:02:54,0,,active
6080437,93823545,,,Broomley Crescent,,,,McColl Avenue,,Craig Avenue,,,,after,,W,N0078765,Tullichewan,Alexandria,,VALE OF LEVEN,,,,0,,238395,681219,,,BCT,MKD,OTH,,,,117,2003-08-27T00:00:00,2023-12-12T15:02:54,0,,active
6080438,93823738,,,McColl Avenue Turning Circle,,,,McColl Avenue Turning Circle,,McColl Avenue,,,,at,,NW,N0078765,Tullichewan,Alexandria,,VALE OF LEVEN,,,,0,,238448,680916,,,BCT,MKD,OTH,,,,117,2003-08-27T00:00:00,2023-12-12T15:02:54,0,,active
6080439,93824578,,,Lomond Drive,,,,Lomond Drive,,Luss Road,,,,at,,S,N0078763,Levenvale,Alexandria,,VALE OF LEVEN,,,,0,,238699,681386,,,BCT,MKD,OTH,,,,117,2003-08-27T00:00:00,2023-12-12T15:02:54,0,,active
608044,93824538,,,Crown Avenue,,,,Crown Avenue,,Kilbowie Road,,,,opp,,S,N0078721,Kilbowie,Clydebank,,CLYDEBANK,,,,1,,249889,671145,,,BCT,MKD,OTH,,,,117,2003-08-27T00:00:00,2023-12-12T15:02:54,0,,active
6080440,93824327,,,Lomond Drive,,,,Lomond Drive,,Luss Road,,,,opp,,N,N0078763,Levenvale,Alexandria,,VALE OF LEVEN,,,,0,,238686,681382,,,BCT,MKD,OTH,,,,117,2003-08-27T00:00:00,2023-12-12T15:02:54,0,,active
6080441,93823295,,,Ambulance Station,,,,Ambulance Station,,Main Street,,,,at,,NW,N0078763,Levenvale,Alexandria,,VALE OF LEVEN,,,,1,,238797,680828,,,BCT,MKD,OTH,,,,117,2003-08-27T00:00:00,2023-12-12T15:02:54,0,,active
6080442,93823945,,,Ambulance Station,,,,Ambulance Station,,Main Street,,,,opp,,SE,N0078763,Levenvale,Alexandria,,VALE OF LEVEN,,,,1,,238820,680825,,,BCT,MKD,OTH,,,,117,2003-08-27T00:00:00,2023-12-12T15:02:54,0,,active
6080443,93823985,,,Alexandria Swimming Pool,,,,Alexandria Swimming Pool,,Heather Avenue,,,,opp,,SW,N0078764,Rosshead,Alexandria,,VALE OF LEVEN,,,,0,,238912,680787,,,BCT,MKD,OTH,,,,117,2003-08-27T00:00:00,2023-12-12T15:02:54,0,,active
6080444,93823423,,,Alexandria Swimming Pool,,,,Alexandria Swimming Pool,,Heather Avenue,,,,at,,NE,N0078764,Rosshead,Alexandria,,VALE OF LEVEN,,,,0,,238898,680792,,,BCT,MKD,OTH,,,,117,2003-08-27T00:00:00,2023-12-12T15:02:54,0,,active
6080445,93824548,,,Halkett Crescent,,,,Halkett Crescent,,Colquhoun Drive,,,,opp,,N,N0078764,Rosshead,Alexandria,,VALE OF LEVEN,,,,0,,239260,680965,,,BCT,MKD,OTH,,,,117,2003-08-27T00:00:00,2023-12-12T15:02:54,0,,active
6080446,93823562,,,Halkett Crescent,,,,Halkett Crescent,,Colquhoun Drive,,,,after,,S,N0078764,Rosshead,Alexandria,,VALE OF LEVEN,,,,0,,239271,680965,,,BCT,MKD,OTH,,,,117,2003-08-27T00:00:00,2023-12-12T15:02:54,0,,active
6080447,93823829,,,Halkett Crescent,,,,72 Colquhoun Drive,,Colquhoun Drive,,,,before,,SE,N0078764,Rosshead,Alexandria,,VALE OF LEVEN,,,,0,,239270,681207,,,BCT,MKD,OTH,,,,117,2003-08-27T00:00:00,2023-12-12T15:02:54,0,,active
6080448,93824274,,,Baxter Lane,,,,9 Halkett Crescent,,Halkett Crescent,,,,Opp,,S,N0078764,Rosshead,Alexandria,,VALE OF LEVEN,,,,0,,239365,681088,,,BCT,MKD,OTH,,,,117,2003-08-27T00:00:00,2023-12-12T15:02:54,0,,active
6080449,93823486,,,King Edward Street,,,,King Edward Street,,Avenue Place,,,,opp,,N,ES000063,Alexandria,,,VALE OF LEVEN,,,,1,,238920,680483,,,BCT,MKD,OTH,,,,117,2003-08-27T00:00:00,2023-12-12T15:02:54,0,,active
608045,93823629,,,Cambridge Avenue,,,,Graham Avenue,,Kilbowie Road,,,,at,,S,N0078721,Kilbowie,Clydebank,,CLYDEBANK,,,,1,,249867,671026,,,BCT,MKD,OTH,,,,117,2003-08-27T00:00:00,2023-12-12T15:02:54,0,,active
6080450,93824285,,,Wilson Street,,,,Wilson Street,,Avenue Place,,,,at,,S,ES000063,Alexandria,,,VALE OF LEVEN,,,,1,,238950,680435,,,BCT,MKD,OTH,,,,117,2003-08-27T00:00:00,2023-12-12T15:02:54,0,,active
6080451,93824272,,,Hill Street,,,,Hill Street,,Main Street,,,,at,,NW,ES000063,Alexandria,,,VALE OF LEVEN,,,,1,,238980,680295,,,BCT,MKD,OTH,,,,117,2003-08-27T00:00:00,2023-12-12T15:02:54,0,,active
6080452,93824573,,,Creveul Court,,,,Creveul Court,,Bank Street,,,,at,,SE,ES000063,Alexandria,,,VALE OF LEVEN,,,,1,,239107,680178,,,BCT,MKD,OTH,,,,117,2003-08-27T00:00:00,2023-12-12T15:02:54,0,,active
6080453,93823263,,,Steven Street,,,,Steven Street,,Bank Street,,,,after,,SE,ES000063,Alexandria,,,VALE OF LEVEN,,,,1,,239242,680069,,,BCT,MKD,OTH,,,,117,2003-08-27T00:00:00,2023-12-12T15:02:54,0,,active
6080454,93824252,,,St Marys School,,,,St Marys School,,Bank Street,,,,at,,S,ES000063,Alexandria,,,VALE OF LEVEN,,,,1,,239381,679971,,,BCT,MKD,OTH,,,,117,2003-08-27T00:00:00,2023-12-12T15:02:54,0,,active
6080455,93823653,,,Bank Street,,,,Vale of Leven Church,,Bridge Street,,,,before,,E,ES000063,Alexandria,,,VALE OF LEVEN,,,,1,,239430,679861,,,BCT,MKD,OTH,,,,117,2003-08-27T00:00:00,2023-12-12T15:02:54,0,,active
6080456,93823287,,,Bank Street,,,,Angus Street,,Bridge Street,,,,opp,,W,ES000063,Alexandria,,,VALE OF LEVEN,,,,1,,239436,679851,,,BCT,MKD,OTH,,,,117,2003-08-27T00:00:00,2023-12-12T15:02:54,0,,active
6080457,93823475,,,Queens Drive,,,,Queens Drive,,Circular Road,,,,opp,,SW,ES000063,Alexandria,,,VALE OF LEVEN,,,,1,,239047,679582,,,BCT,MKD,OTH,,,,117,2003-08-27T00:00:00,2023-12-12T15:02:54,0,,active
6080458,93824357,,,Alexandria Railway Station,,,,Alexandria Bingo Hall,,Circular Road,,,,opp,,N,ES000063,Alexandria,,,VALE OF LEVEN,,,,1,,239244,680002,,,BCT,MKD,OTH,,,,117,2003-08-27T00:00:00,2023-12-12T15:02:54,0,,active
6080459,93823949,,,Gilmour Street,,,,Overton Street,,Main Street,,,,opp,,S,ES000063,Alexandria,,,VALE OF LEVEN,,,,1,,239055,680102,,,BCT,MKD,OTH,,,,117,2003-08-27T00:00:00,2023-12-12T15:02:54,0,,active
608046,93823878,,,Singer Station,,,,Singer Station,,Kilbowie Road,,,,before,,N,ES000746,Clydebank,,,CLYDEBANK,,,,1,,249805,670827,,,BCT,MKD,OTH,,,,117,2003-08-27T00:00:00,2023-12-12T15:02:54,0,,active
6080460,93824382,,,Gilmour Street,,,,Overton Street,,Main Street,,,,before,,N,ES000063,Alexandria,,,VALE OF LEVEN,,,,1,,239048,680083,,,BCT,MKD,OTH,,,,117,2003-08-27T00:00:00,2023-12-12T15:02:54,0,,active
6080461,93824346,,,Church Street,,,,After Church Street,,Main Street,,,,After,,S,ES000063,Alexandria,,,VALE OF LEVEN,,,,1,,239092,679882,,,BCT,MKD,OTH,,,,117,2003-08-27T00:00:00,2023-12-12T15:02:54,0,,active
6080462,93823962,,,Albert Street,,,,Albert Street,,Main Street,,,,opp,,NE,ES000063,Alexandria,,,VALE OF LEVEN,,,,1,,239056,679778,,,BCT,MKD,OTH,,,,117,2003-08-27T00:00:00,2023-12-12T15:02:54,0,,active
6080463,93823256,,,Queen's Drive,,,,Vale of Leven Academy,,Main Street,,,,before,,NE,ES000063,Alexandria,,,VALE OF LEVEN,,,,1,,238951,679517,,,BCT,MKD,OTH,,,,117,2003-08-27T00:00:00,2023-12-12T15:02:54,0,,active
6080464,93823968,,,Wylie Avenue,,,,Wylie Avenue,,Main Street,,,,opp,,S,ES003134,Renton,,,VALE OF LEVEN,,,,1,,238908,679453,,,BCT,MKD,OTH,,,,117,2003-08-27T00:00:00,2023-12-12T15:02:54,0,,active
6080465,93824345,,,Allan Crescent,,,,Vale of Leven Academy,,Main Street,,,,opp,,S,ES003134,Renton,,,VALE OF LEVEN,,,,1,,238878,679158,,,BCT,MKD,OTH,,,,117,2003-08-27T00:00:00,2023-12-12T15:02:54,0,,active
6080466,93824262,,,Place of Bonhill,,,,Place of Bonhill,,Main Street,,,,opp,,N,ES003134,Renton,,,VALE OF LEVEN,,,,1,,238858,679065,,,BCT,MKD,OTH,,,,117,2003-08-27T00:00:00,2023-12-12T15:02:54,0,,active
6080467,93823825,,,New Cordale Road,,,,New Cordale Road,,Main Street,,,,opp,,N,ES003134,Renton,,,VALE OF LEVEN,,,,1,,238816,678901,,,BCT,MKD,OTH,,,,117,2003-08-27T00:00:00,2023-12-12T15:02:54,0,,active
6080468,93823869,,,New Cordale Road,,,,New Cordale Road,,Main Street,,,,at,,S,ES003134,Renton,,,VALE OF LEVEN,,,,1,,238828,678803,,,BCT,MKD,OTH,,,,117,2003-08-27T00:00:00,2023-12-12T15:02:54,0,,active
6080469,93823243,,,Red Row,,,,Red Row,,Main Street,,,,after,,N,ES003134,Renton,,,VALE OF LEVEN,,,,1,,238823,678628,,,BCT,MKD,OTH,,,,117,2003-08-27T00:00:00,2023-12-12T15:02:54,0,,active
6080470,93823753,,,Kane Street,,,,Kane Street,,Main Street,,,,opp,,N,ES003134,Renton,,,VALE OF LEVEN,,,,1,,238825,678513,,,BCT,MKD,OTH,,,,117,2003-08-27T00:00:00,2023-12-12T15:02:54,0,,active
6080471,93823636,,,Kane Street,,,,Kane Street,,Main Street,,,,at,,S,ES003134,Renton,,,VALE OF LEVEN,,,,1,,238837,678527,,,BCT,MKD,OTH,,,,117,2003-08-27T00:00:00,2023-12-12T15:02:54,0,,active
6080472,93823794,,,Station Street,,,,Station Street,,Main Street,,,,opp,,S,ES003134,Renton,,,VALE OF LEVEN,,,,1,,238834,678240,,,BCT,MKD,OTH,,,,117,2003-08-27T00:00:00,2023-12-12T15:02:54,0,,active
6080473,93823786,,,Station Street,,,,Renton Primary School,,Main Street,,,,before,,N,ES003134,Renton,,,VALE OF LEVEN,,,,1,,238823,678175,,,BCT,MKD,OTH,,,,117,2003-08-27T00:00:00,2023-12-12T15:02:54,0,,active
6080474,93824532,,,Hall Street,,,,Hall Street,,Main Street,,,,at,,N,ES003134,Renton,,,VALE OF LEVEN,,,,1,,238819,678042,,,BCT,MKD,OTH,,,,117,2003-08-27T00:00:00,2023-12-12T15:02:54,0,,active
6080475,93823487,,,John Street,,,,John Street,,Lennox Street,,,,at,,S,ES003134,Renton,,,VALE OF LEVEN,,,,1,,238825,677852,,,BCT,MKD,OTH,,,,117,2003-08-27T00:00:00,2023-12-12T15:02:54,0,,active
6080476,93823723,,,Tontine Park,,,,Tontine Park,,Renton Road,,,,opp,,N,ES003134,Renton,,,VALE OF LEVEN,,,,1,,238808,677704,,,BCT,MKD,OTH,,,,117,2003-08-27T00:00:00,2023-12-12T15:02:54,0,,active
6080477,93824523,,,Tontine Park,,,,Tontine Park,,Renton Road,,,,at,,S,ES003134,Renton,,,VALE OF LEVEN,,,,1,,238815,677665,,,BCT,MKD,OTH,,,,117,2003-08-27T00:00:00,2023-12-12T15:02:54,0,,active
6080478,93823278,,,North Lodge,,,,A82,,Renton Road,,,,at,,NE,ES003134,Renton,,,VALE OF LEVEN,,,,0,,238611,677373,,,BCT,MKD,OTH,,,,117,2003-08-27T00:00:00,2023-12-12T15:02:54,0,,active
6080479,93823683,,,North Lodge,,,,A82,,Renton Road,,,,opp,,SW,ES003134,Renton,,,VALE OF LEVEN,,,,0,,238630,677393,,,BCT,MKD,OTH,,,,117,2003-08-27T00:00:00,2023-12-12T15:02:54,0,,active
608048,93823682,,,Clydebank Business Park,,,,Clyde House,,Kilbowie Road,,,,opp,,S,ES000746,Clydebank,,,CLYDEBANK,,,,1,,249778,670660,,,BCT,MKD,OTH,,,,117,2003-08-27T00:00:00,2023-12-12T15:02:54,0,,active
6080480,93824575,,,Kipperoch Road,,,,Kipperoch Road,,Renton Road,,,,at,,NE,ES003134,Renton,,,VALE OF LEVEN,,,,0,,238492,676826,,,BCT,MKD,OTH,,,,117,2003-08-27T00:00:00,2023-12-12T15:02:54,0,,active
6080481,93823895,,,Kipperoch Road,,,,Kipperoch Road,,Renton Road,,,,opp,,SE,ES003134,Renton,,,VALE OF LEVEN,,,,0,,238515,676800,,,BCT,MKD,OTH,,,,117,2003-08-27T00:00:00,2023-12-12T15:02:54,0,,active
6080482,93823534,,,Glasgow Road,,,,Glasgow Road,,Renton Road,,,,before,,S,ES001089,Dumbarton,,,DUMBARTON,,,,1,,238996,675835,,,BCT,MKD,OTH,,,,117,2003-08-27T00:00:00,2023-12-12T15:02:54,0,,active
6080483,93824256,,,Glasgow Road,,,,Glasgow Road,,Renton Road,,,,after,,N,ES001089,Dumbarton,,,DUMBARTON,,,,1,,238984,675832,,,BCT,MKD,OTH,,,,117,2003-08-27T00:00:00,2023-12-12T15:02:54,0,,active
6080484,93823492,,,Ashfield Farm,,,,Ashfield Farm,,A811,,,,opp,,SW,N0073037,Balloch Castle,,,VALE OF LEVEN,,,,0,,240653,684070,,,BCT,MKD,OTH,,,,117,2003-08-27T00:00:00,2023-12-12T15:02:54,0,,active
6080485,93823436,,,Church Road,,,,Burmah Garage,,Old Military Road,,,,before,,NE,N0073041,Gartocharn,,,GARTOCHARN,,,,0,,242709,686140,,,BCT,MKD,OTH,,,,117,2003-08-27T00:00:00,2023-12-12T15:02:54,0,,active
6080486,93823897,,,Church Road,,,,Church Road,,Old Military Road,,,,opp,,SW,N0073041,Gartocharn,,,GARTOCHARN,,,,0,,242781,686162,,,BCT,MKD,OTH,,,,117,2003-08-27T00:00:00,2023-12-12T15:02:54,0,,active
608049,93824547,,,Shopping Centre,,,,Shopping Centre,,Kilbowie Road,,,,opp,,N,ES000746,Clydebank,,,CLYDEBANK,,,,1,,249745,670524,,,BCT,MKD,OTH,,,,117,2003-08-27T00:00:00,2023-12-12T15:02:54,0,,active
6080490,93824542,,,Abbott Crescent,,,,Abbott Crescent,,Johnston Avenue,,,,Near,,NE,N0078724,Whitecrook,Clydebank,,CLYDEBANK,,,,0,,250793,669677,,,BCT,MKD,OTH,,,,117,2003-08-27T00:00:00,2023-12-12T15:02:54,0,,active
6080491,93823737,,,Brackenhurst Cottages,,,,Brackenhurst Cottages,,Stirling Road,,,,opp,,N,N0068011,Bellsmyre,Dumbarton,,VALE OF LEVEN,,,,0,,240104,677145,,,BCT,MKD,OTH,,,,117,2003-08-27T00:00:00,2023-12-12T15:02:54,0,,inactive
6080492,93823528,,,Milton Brae,,,,Tourist Information Centre,,Dumbarton Road,,,,before,,NW,ES002629,Milton,,,DUMBARTON,,,,1,,243075,674168,,,BCT,MKD,OTH,,,,117,2003-08-27T00:00:00,2023-12-12T15:02:54,0,,inactive
6080493,93823626,,,Boquhanran Road,,,,St Stephens Primary School,,Second Avenue,,,,After,,NW,N0078723,Parkhall,Clydebank,,CLYDEBANK,,,,0,,248999,671266,,,BCT,MKD,OTH,,,,117,2003-08-27T00:00:00,2023-12-12T15:02:54,0,,active
6080494,93823898,,,Iona Crescent,,,,Iona Crescent,,Western Isles Road,,,,at,,S,N0078400,Antonine Park,Clydebank,,CLYDEBANK,,,,0,,247439,672029,,,BCT,MKD,OTH,,,,117,2003-08-27T00:00:00,2023-12-12T15:02:54,0,,active
6080495,93824236,,,Jura Road,,,,Jura Road,,Western Isles Road,,,,before,,NW,N0078400,Antonine Park,Clydebank,,CLYDEBANK,,,,0,,247392,672106,,,BCT,MKD,OTH,,,,117,2003-08-27T00:00:00,2023-12-12T15:02:54,0,,active
6080496,93824569,,,St Patricks Church Hall,,,,St Patricks Church Hall,,Strathleven Place,,,,at,,SW,ES001089,Dumbarton,,,DUMBARTON,,,,1,,239953,675494,,,BCT,MKD,OTH,,,,117,2003-08-27T00:00:00,2023-12-12T15:02:54,0,,active
6080497,93823768,,,Shandon Brae,,,,After Shandon Brae,,Dumbain Road,,,,After,,E,N0078766,Haldane,Balloch,,BALLOCH,,,,1,,239944,682110,,,BCT,MKD,OTH,,,,117,2003-08-27T00:00:00,2023-12-12T15:02:54,0,,active
6080498,93823879,,,Manse Drive,,,,Manse Drive,,Dumbain Road,,,,at,,W,N0078766,Haldane,Balloch,,VALE OF LEVEN,,,,1,,240069,682104,,,BCT,MKD,OTH,,,,117,2003-08-27T00:00:00,2023-12-12T15:02:54,0,,active
6080499,93823428,,,Gavinburn Place,,,,After Gavinburn Place,,Portpatrick Road,,,,After,,NW,ES002912,Old Kilpatrick,Clydebank,,OLD KILPATRICK,,,,0,,245977,673055,,,BCT,MKD,OTH,,,,117,2003-08-27T00:00:00,2023-12-12T15:02:54,0,,inactive
60805,93823926,,,Ailsa Drive,,,,Ailsa Drive,,Kilbowie Road,,,,after,,S,N0078034,Hardgate,Clydebank,,CLYDEBANK,,,,0,,249983,672459,,,BCT,MKD,OTH,,,,117,2003-08-27T00:00:00,2023-12-12T15:02:54,0,,active
608050,93823247,,,Council Offices,,,,Council Offices,,Kilbowie Road,,,,opp,,S,ES000746,Clydebank,,,CLYDEBANK,,,,1,,249716,670285,,,BCT,MKD,OTH,,,,117,2003-08-27T00:00:00,2023-12-12T15:02:54,0,,active
6080500,93823235,,,Portpatrick Road,,,,No 86,,Portpatrick Road,,,,opp 86,,NW,ES002912,Old Kilpatrick,Clydebank,,OLD KILPATRICK,,,,0,,245737,673166,,,BCT,MKD,OTH,,,,117,2003-08-27T00:00:00,2023-12-12T15:02:54,0,,inactive
6080501,93824562,,,Gran Street,,,,Gran Street,,Brown Avenue,,,,opp,,NW,N0078724,Whitecrook,Clydebank,,CLYDEBANK,,,,0,,251103,669870,,,BCT,MKD,OTH,,,,117,2003-08-27T00:00:00,2023-12-12T15:02:54,0,,active
6080502,93823474,,,Brown Avenue,,,,Brown Avenue,,Braes Avenue,,,,before,,SE,N0078724,Whitecrook,Clydebank,,CLYDEBANK,,,,0,,250934,670030,,,BCT,MKD,OTH,,,,117,2003-08-27T00:00:00,2023-12-12T15:02:54,0,,active
6080503,93823267,,,King Street,,,,King Street,,Fleming Avenue,,,,after,,NW,N0078724,Whitecrook,Clydebank,,CLYDEBANK,,,,0,,250604,670002,,,BCT,MKD,OTH,,,,117,2003-08-27T00:00:00,2023-12-12T15:02:54,0,,active
6080504,93824323,,,Woodlands Court,,,,Woodlands Court,,Dumbarton Road,,,,opp,,N,ES002912,Old Kilpatrick,Clydebank,,OLD KILPATRICK,,,,0,,246747,672215,,,BCT,MKD,OTH,,,,117,2003-08-27T00:00:00,2023-12-12T15:02:54,0,,active
6080505,93823865,,,Parkhall Library,,,,Parkhall Library,,Hawthorn Street,,,,opp,,E,N0078723,Parkhall,Clydebank,,CLYDEBANK,,,,0,,249405,671765,,,BCT,MKD,OTH,,,,117,2003-08-27T00:00:00,2023-12-12T15:02:54,0,,active
6080506,93823468,,,Broom Drive,,,,Broom Drive,,Hawthorn Street,,,,before,,E,N0078723,Parkhall,Clydebank,,CLYDEBANK,,,,0,,249570,671747,,,BCT,MKD,OTH,,,,117,2003-08-27T00:00:00,2023-12-12T15:02:54,0,,active
608051,93824572,,,Chalmers Street,,,,Council Offices,,Kilbowie Road,,,,opp,,N,ES000746,Clydebank,,,CLYDEBANK,,,,1,,249696,670256,,,BCT,MKD,OTH,,,,117,2003-08-27T00:00:00,2023-12-12T15:02:54,0,,active
6080511,93824526,,,Salisbury Place,,,,Salisbury Place,,Mountblow Road,,,,at,,N,N0078722,Mountblow,Clydebank,,CLYDEBANK,,,,0,,248125,671986,,,BCT,MKD,OTH,,,,117,2003-08-27T00:00:00,2023-12-12T15:02:54,0,,active
6080512,93823765,,,Briar Drive,,,,Whin Street,,Briar Drive,,,,at 11,,N,N0078721,Kilbowie,Clydebank,,CLYDEBANK,,,,0,,249688,671797,,,BCT,MKD,OTH,,,,117,2003-08-27T00:00:00,2023-12-12T15:02:54,0,,inactive
6080513,93823785,,,Briar Drive,,,,Briar Drive,,Holly Street,,,,after,,W,N0078721,Kilbowie,Clydebank,,CLYDEBANK,,,,0,,249639,671947,,,BCT,MKD,OTH,,,,117,2003-08-27T00:00:00,2023-12-12T15:02:54,0,,inactive
6080514,93824283,,,Holly Street,,,,No 51,,Holly Street,,,,at 51,,W,N0078723,Parkhall,Clydebank,,CLYDEBANK,,,,0,,249441,671952,,,BCT,MKD,OTH,,,,117,2003-08-27T00:00:00,2023-12-12T15:02:54,0,,inactive
6080515,93823834,,,Broom Drive,,,,Whin Street,,Broom Drive,,,,at 64,,S,N0078723,Parkhall,Clydebank,,CLYDEBANK,,,,0,,249385,671906,,,BCT,MKD,OTH,,,,117,2003-08-27T00:00:00,2023-12-12T15:02:54,0,,inactive
6080516,93823596,,,North Main Street,,,,North Main Street,,Govan Drive,,,,at,,SW,N0078763,Levenvale,Alexandria,,VALE OF LEVEN,,,,0,,238826,680903,,,BCT,MKD,OTH,,,,117,2003-08-27T00:00:00,2023-12-12T15:02:54,0,,active
6080517,93823623,,,Cullen Street,,,,Cullen Street,,McColl Avenue,,,,at,,N,N0078765,Tullichewan,Alexandria,,VALE OF LEVEN,,,,0,,238388,681106,,,BCT,MKD,OTH,,,,117,2003-08-27T00:00:00,2023-12-12T15:02:54,0,,active
6080518,93824264,,,Bromley Crescent,,,,No 44,,Bannachra Crescent,,,,after,,SW,N0078765,Tullichewan,Alexandria,,VALE OF LEVEN,,,,0,,238609,680971,,,BCT,MKD,OTH,,,,117,2003-08-27T00:00:00,2023-12-12T15:02:54,0,,active
6080519,93823856,,,Bromley Crescent,,,,39 Bannachra Crescent,,Bannachra Crescent,,,,before,,NE,N0078765,Tullichewan,Alexandria,,VALE OF LEVEN,,,,0,,238619,680990,,,BCT,MKD,OTH,,,,117,2003-08-27T00:00:00,2023-12-12T15:02:54,0,,active
608052,93825462,,,Wallace Street,,,,Before Wallace Street,,Glasgow Road,,,,Before,,NW,N0068070,Dalmuir,Clydebank,,CLYDEBANK,,,,0,,249752,669978,,,BCT,MKD,OTH,,,,117,2003-08-27T00:00:00,2023-12-12T15:02:54,0,,inactive
6080520,93823482,,,Dalreoch Station,,,,West Bridgend,,Glasgow Road,,,,opp,,NW,ES001089,Dumbarton,,,DUMBARTON,,,,1,,239099,675659,,,BCT,MKD,OTH,,,,117,2003-08-27T00:00:00,2023-12-12T15:02:54,0,,active
6080521,93823462,,,Comelybank Lane,,,,Comelybank Lane,,Cardross Road,,,,opp,,E,ES001089,Dumbarton,,,DUMBARTON,,,,1,,238885,675768,,,BCT,MKD,OTH,,,,117,2003-08-27T00:00:00,2023-12-12T15:02:54,0,,inactive
6080522,93823827,,,Erskine Ferry Road,,,,Erskine Ferry Road,,Dumbarton Road,,,,at,,N,ES002912,Old Kilpatrick,Clydebank,,OLD KILPATRICK,,,,1,,246643,672496,,,BCT,MKD,OTH,,,,117,2003-08-27T00:00:00,2023-12-12T15:02:54,0,,active
6080523,93823692,,,Great Western Road,,,,Great Western Road,,Mountblow Road,,,,after,,S,N0078722,Mountblow,Clydebank,,CLYDEBANK,,,,0,,248013,672735,,,BCT,MKD,OTH,,,,117,2003-08-27T00:00:00,2023-12-12T15:02:54,0,,active
6080524,93823986,,,Cherry Crescent,,,,Cherry Crescent,,Duntocher Road,,,,at,,SW,N0078723,Parkhall,Clydebank,,CLYDEBANK,,,,0,,249456,672079,,,BCT,MKD,OTH,,,,117,2003-08-27T00:00:00,2023-12-12T15:02:54,0,,active
6080525,93823495,,,Lomond Shores,,,,Balloch Heritage Park,,Ben Lomond Way,,,,at,,NE,N0067998,Balloch,,,BALLOCH,,,,0,,238611,682220,,,BCT,MKD,OTH,,,,117,2003-08-27T00:00:00,2023-12-12T15:02:54,0,,active
6080526,93823453,,,Kilpatrick View,,,,Kilpatrick View,,Round Riding Road,,,,at,,E,ES001089,Dumbarton,,,DUMBARTON,,,,0,,240747,675857,,,BCT,MKD,OTH,,,,117,2003-08-27T00:00:00,2023-12-12T15:02:54,0,,active
6080527,93823478,,,Harris Road,,,,Harris Road,,Western Isles Road,,,,At,,NE,N0078400,Antonine Park,Clydebank,,CLYDEBANK,,,,0,,247135,672304,,,BCT,MKD,OTH,,,,117,2003-08-27T00:00:00,2023-12-12T15:02:54,0,,active
6080528,93823678,,,Iona Gardens,,,,Iona Gardens,,Western Isles Road,,,,Opp,,W,N0078400,Antonine Park,Clydebank,,CLYDEBANK,,,,0,,247355,672146,,,BCT,MKD,OTH,,,,117,2003-08-27T00:00:00,2023-12-12T15:02:54,0,,active
6080529,93823458,,,Quarry Knowe,,,,Quarry Knowe,,Castlehill Road,,,,opp,,SW,N0078769,Castlehill,Dumbarton,,DUMBARTON,,,,0,,238480,676073,,,BCT,MKD,OTH,,,,117,2003-08-27T00:00:00,2023-12-12T15:02:54,0,,active
608053,93825434,,,Glasgow Road,,,,house no 107,,Glasgow Road,,,,Outside 107,,SE,N0068070,Dalmuir,Clydebank,,CLYDEBANK,,,,1,,249791,669970,,,BCT,MKD,OTH,,,,117,2003-08-27T00:00:00,2023-12-12T15:02:54,0,,inactive
6080530,93823762,,,Brown Avenue,,,,Brown Avenue,,Braes Avenue,,,,after,,NW,N0078724,Whitecrook,Clydebank,,CLYDEBANK,,,,0,,250925,670021,,,BCT,MKD,OTH,,,,117,2003-08-27T00:00:00,2023-12-12T15:02:54,0,,active
6080531,93823434,,,King Street,,,,King Street,,Fleming Avenue,,,,at,,SE,N0078724,Whitecrook,Clydebank,,CLYDEBANK,,,,0,,250631,669992,,,BCT,MKD,OTH,,,,117,2003-08-27T00:00:00,2023-12-12T15:02:54,0,,active
6080533,93823863,,,Alsatian Avenue,,,,Alsatian Avenue,,Onslow Road,,,,Opp,,SE,N0078830,Drumry,Clydebank,,CLYDEBANK,,,,0,,250941,670744,,,BCT,MKD,OTH,,,,117,2003-08-27T00:00:00,2023-12-12T15:02:54,0,,active
6080534,93823727,,,Drumry Road,,,,Drumry Road,,Onslow Road,,,,after,,SE,N0078830,Drumry,Clydebank,,CLYDEBANK,,,,0,,250834,670887,,,BCT,MKD,OTH,,,,117,2003-08-27T00:00:00,2023-12-12T15:02:54,0,,active
6080535,93823852,,,Whiteford Avenue,,,,9 Whiteford Avenue,,Whiteford Avenue,,,,at 9,,N,N0068011,Bellsmyre,Dumbarton,,DUMBARTON,,,,0,,241028,675980,,,BCT,MKD,OTH,,,,117,2003-08-27T00:00:00,2023-12-12T15:02:54,0,,active
6080536,93823972,,,Singer Station,,,,Singer Station,,Kilbowie Road,,,,opp,,S,ES000746,Clydebank,,,CLYDEBANK,,,,1,,249825,670851,,,BCT,MKD,OTH,,,,117,2003-08-27T00:00:00,2023-12-12T15:02:54,0,,active
6080537,93823832,,,Freelands Place,,,,Freelands Place,,Dumbarton Road,,,,at,,NE,ES002912,Old Kilpatrick,Clydebank,,CLYDEBANK,,,,1,,247326,671962,,,BCT,MKD,OTH,,,,117,2003-08-27T00:00:00,2023-12-12T15:02:54,0,,active
6080538,93824637,,,Lower Stoneymollan Road,,,,A811,,A82,,,,opp,,N,N0067998,Balloch,,,BALLOCH,,,,0,,237928,681931,,,BCT,MKD,OTH,,,,117,2003-08-27T00:00:00,2023-12-12T15:02:54,0,,active
6080539,93824735,,,Lower Stoneymollan Road,,,,A811,,A82,,,,near,,S,N0067998,Balloch,,,BALLOCH,,,,0,,237963,681887,,,BCT,MKD,OTH,,,,117,2003-08-27T00:00:00,2023-12-12T15:02:54,0,,active
608054,93823853,,,Cunard Street,,,,Cunard Street,,Glasgow Road,,,,Before,,NW,ES000746,Clydebank,,,CLYDEBANK,,,,1,,250040,669699,,,BCT,MKD,OTH,,,,117,2003-08-27T00:00:00,2023-12-12T15:02:54,0,,active
6080540,93824946,,,Kilbowie Roundabout Eastbound,,,,Kilbowie Roundabout,,Great Western Road,,,,at,,SE,N0078721,Kilbowie,Clydebank,,CLYDEBANK,,,,0,,249686,672187,,,BCT,MKD,OTH,,,,117,2003-08-27T00:00:00,2023-12-12T15:02:54,0,,active
6080541,93825369,,,Kilbowie Roundabout Westbound,,,,Kilbowie Roundabout,,Great Western Road,,,,at,,NW,N0078721,Kilbowie,Clydebank,,CLYDEBANK,,,,0,,249822,672038,,,BCT,MKD,OTH,,,,117,2003-08-27T00:00:00,2023-12-12T15:02:54,0,,active
6080542,93825357,,,Chapelton Avenue,,,,Chapelton Avenue,,Townend Road,,,,opp,,NE,N0073044,Townend,Dumbarton,,DUMBARTON,,,,0,,240192,676121,,,BCT,MKD,OTH,,,,117,2003-08-27T00:00:00,2023-12-12T15:02:54,0,,active
6080543,93825372,,,Brisbane Street,,,,Brisbane Street,,Dumbarton Road,,,,opp,,NW,N0068070,Dalmuir,Clydebank,,CLYDEBANK,,,,1,,247532,671883,,,BCT,MKD,OTH,,,,117,2003-08-27T00:00:00,2023-12-12T15:02:54,0,,active
6080544,93825352,,,John Burnside Drive,,,,John Burnside Drive,,Faifley Road,,,,after,,W,ES001331,Faifley,Clydebank,,CLYDEBANK,,,,0,,250362,673294,,,BCT,MKD,OTH,,,,117,2003-08-27T00:00:00,2023-12-12T15:02:54,0,,active
6080545,93825375,,,Drumry Roundabout,,,,Drumry Road,,Great Western Road,,,,after,,NW,N0078830,Drumry,Clydebank,,CLYDEBANK,,,,0,,250788,671038,,,BCT,CUS,OTH,,,,117,2003-08-27T00:00:00,2023-12-12T15:02:54,0,,inactive
6080546,93825457,,,Perth Crescent,,,,House number 25,,Perth Crescent,,,,at 25,,NW,N0078722,Mountblow,Clydebank,,CLYDEBANK,,,,0,,247863,672288,,,BCT,MKD,OTH,,,,117,2003-08-27T00:00:00,2023-12-12T15:02:54,0,,active
6080547,93825454,,,Lawrence Drive,,,,Lawrence Drive,,Drymen Road,,,,After,,NE,N0067998,Balloch,,,VALE OF LEVEN,,,,0,,239626,682125,,,BCT,MKD,OTH,,,,117,2003-08-27T00:00:00,2023-12-12T15:02:54,0,,active
6080548,93827549,,,Levenbank Gardens,,,,Levenbank Gardens,,Main Street,,,,Before,,N,N0076102,Jamestown,,,VALE OF LEVEN,,,,0,,239699,681108,,,BCT,MKD,OTH,,,,117,2003-08-27T00:00:00,2023-12-12T15:02:54,0,,active
6080549,93827585,,,Gilmour Street,,,,Gilmour Street,,East Thomson Street,,,,Before,,E,N0078721,Kilbowie,Clydebank,,CLYDEBANK,,,,0,,249986,671449,,,BCT,MKD,OTH,,,,117,2003-08-27T00:00:00,2023-12-12T15:02:54,0,,active
608055,93823942,,,Cameron Street,,,,Cameron Street,,Glasgow Road,,,,Before,,SE,ES000746,Clydebank,,,CLYDEBANK,,,,0,,250021,669748,,,BCT,MKD,OTH,,,,117,2003-08-27T00:00:00,2023-12-12T15:02:54,0,,active
6080550,93827547,,,Peel View,,,,Peel View,,Kirkoswald Drive,,,,Before,,SE,N0078830,Drumry,Clydebank,,CLYDEBANK,,,,0,,250645,671110,,,BCT,MKD,OTH,,,,117,2003-08-27T00:00:00,2023-12-12T15:02:54,0,,active
6080551,93826768,,,Cullen Street,,,,Cullen Street,,McColl Avenue,,,,opp,,S,N0078765,Tullichewan,Alexandria,,VALE OF LEVEN,,,,0,,238405,681096,,,BCT,MKD,OTH,,,,117,2003-08-27T00:00:00,2023-12-12T15:02:54,0,,active
6080552,93828424,,,Robert Burns Avenue,,,,Robert Burns Avenue,,Kirkoswald Drive,,,,before,,NW,N0078830,Drumry,Clydebank,,CLYDEBANK,,,,1,,250737,671003,,,BCT,MKD,OTH,,,,117,2003-08-27T00:00:00,2023-12-12T15:02:54,0,,active
6080553,93828359,,,Ladyton,,,,Ladyton,,Bonhill,,,,at,,W,ES000408,Bonhill,,,VALE OF LEVEN,,,,1,,239856,679454,,,BCT,MKD,OTH,,,,117,2003-08-27T00:00:00,2023-12-12T15:02:54,0,,active
6080554,93828383,,,Comelybank Road,,,,Comelybank Road,,West Bridgend,,,,opp,,S,ES001089,Dumbarton,,,DUMBARTON,,,,1,,239062,675638,,,BCT,MKD,OTH,,,,117,2003-08-27T00:00:00,2023-12-12T15:02:54,0,,active
6080555,93828385,,,Vale of Leven Hospital,,,,Hospital main entrance,,Vale of Leven Hospital Grounds,,,,at,,N,ES000063,Alexandria,,,VALE OF LEVEN,,,,1,,238513,680685,,,BCT,MKD,OTH,,,,117,2003-08-27T00:00:00,2023-12-12T15:02:54,0,,active
6080556,93828389,,,Balloch Castle Car Park,,,,Balloch Castle,,Balloch Castle Park,,,,at,,S,N0073037,Balloch Castle,,,VALE OF LEVEN,,,,0,,239103,683139,,,BCT,CUS,OTH,,,,117,2003-08-27T00:00:00,2023-12-12T15:02:54,0,,inactive
6080557,93828386,,,Dalreoch Station,,,,West Bridgend,,Glasgow Road,,,,at,,SE,ES001089,Dumbarton,,,DUMBARTON,,,,1,,239154,675632,,,BCT,MKD,OTH,,,,117,2003-08-27T00:00:00,2023-12-12T15:02:54,0,,active
6080558,93828365,,,Asda St James Retail Park,,,,St James Retail Park,,access road,,,,at,,N,ES001089,Dumbarton,,,DUMBARTON,,,,0,,240322,675356,,,BCT,MKD,OTH,,,,117,2003-08-27T00:00:00,2023-12-12T15:02:54,0,,active
6080559,93828378,,,Roman Road,,,,Roman Road,,Dumbarton Road,,,,opp,,NE,N0078720,Duntocher,Clydebank,,CLYDEBANK,,,,0,,249401,672862,,,BCT,MKD,OTH,,,,117,2003-08-27T00:00:00,2023-12-12T15:02:54,0,,active
608056,93823524,,,North Bank Street,,,,North Bank Street,,Glasgow Road,,,,at,,SE,ES000746,Clydebank,,,CLYDEBANK,,,,1,,250247,669542,,,BCT,MKD,OTH,,,,117,2003-08-27T00:00:00,2023-12-12T15:02:54,0,,active
6080560,93828373,,,McColl Avenue,,,,McColl Avenue,,Bannachra Crescent,,,,before,,W,N0078765,Tullichewan,Alexandria,,VALE OF LEVEN,,,,0,,238505,680969,,,BCT,MKD,OTH,,,,117,2003-08-27T00:00:00,2023-12-12T15:02:54,0,,active
6080561,93828374,,,Clydebank College,,,,Clydebank College,,College Turning Circle,,,,Stop 1,,N,ES000746,Clydebank,,,CLYDEBANK,,,,0,,249601,669593,,,BCT,MKD,OTH,,,,117,2003-08-27T00:00:00,2023-12-12T15:02:54,0,,inactive
6080562,93828375,,,Clydebank College,,,,Clydebank College,,College Turning Circle,,,,Stop 2,,S,ES000746,Clydebank,,,CLYDEBANK,,,,0,,249613,669579,,,BCT,MKD,OTH,,,,117,2003-08-27T00:00:00,2023-12-12T15:02:54,0,,inactive
6080564,93828372,,,McColl Avenue,,,,McColl Avenue,,Bannachra Crescent,,,,after,,SE,N0078765,Tullichewan,Alexandria,,VALE OF LEVEN,,,,0,,238510,680987,,,BCT,MKD,OTH,,,,117,2003-08-27T00:00:00,2023-12-12T15:02:54,0,,active
6080565,93828369,,,Erskine House,,,,Erskine House council Office,,Clydebank Business Park,,,,at,,E,ES000746,Clydebank,,,CLYDEBANK,,,,0,,249722,670616,,,BCT,MKD,OTH,,,,117,2003-08-27T00:00:00,2023-12-12T15:02:54,0,,active
6080566,93828485,,,Jowitt Avenue,,,,Jowitt Avenue,,Livingstone Street,,,,opp,,E,N0073043,Linnvale,Clydebank,,CLYDEBANK,,,,0,,250735,670367,,,BCT,MKD,OTH,,,,117,2003-08-27T00:00:00,2023-12-12T15:02:54,0,,active
6080567,93828432,,,Cardross Rd,,,,,,Westcliff,,,,before,,NW,N0078772,Westcliff,Dumbarton,,DUMBARTON,,,,0,,237517,675867,,,BCT,MKD,OTH,,,,117,2003-08-27T00:00:00,2023-12-12T15:02:54,0,,active
6080568,93828396,,,Lenwood Gardens,,,,Lenwood Gardens,,George Street,,,,Before,,N,ES000408,Bonhill,,,VALE OF LEVEN,,,,0,,239676,679499,,,BCT,MKD,OTH,,,,117,2003-08-27T00:00:00,2023-12-12T15:02:54,0,,inactive
6080569,93826825,,,Balloch Road,,,,Balloch Road,,Pier Road,,,,before,,SE,N0067998,Balloch,,,BALLOCH,,,,0,,238921,681926,,,BCT,MKD,OTH,,,,117,2003-08-27T00:00:00,2023-12-12T15:02:54,0,,inactive
608057,93824329,,,South Bank Street,,,,South Bank Street,,Glasgow Road,,,,At,,NW,ES000746,Clydebank,,,CLYDEBANK,,,,1,,250245,669512,,,BCT,MKD,OTH,,,,117,2003-08-27T00:00:00,2023-12-12T15:02:54,0,,active
6080570,93826478,,,Redmoss Road,,,,Redmoss Road,,Beeches Road,,,,opp,,W,N0078720,Duntocher,Clydebank,,CLYDEBANK,,,,0,,248613,672957,,,BCT,MKD,OTH,,,,117,2003-08-27T00:00:00,2023-12-12T15:02:54,0,,inactive
6080571,93826479,,,Redmoss Road,,,,Redmoss Road,,Beeches Road,,,,after,,E,N0078720,Duntocher,Clydebank,,CLYDEBANK,,,,0,,248627,672963,,,BCT,MKD,OTH,,,,117,2003-08-27T00:00:00,2023-12-12T15:02:54,0,,active
6080572,93826376,,,St James Retail Park,,,,St James Retail Park,,access road,,,,at,,SW,ES001089,Dumbarton,,,DUMBARTON,,,,0,,240065,675428,,,BCT,MKD,OTH,,,,117,2003-08-27T00:00:00,2023-12-12T15:02:54,0,,active
6080573,93826497,,,Croftpark Rd,,,,Croftpark Road,,Cochno Road,,,,before,,N,N0078720,Duntocher,Clydebank,,DUNTOCHER,,,,0,,249796,673073,,,BCT,HAR,OTH,,,,117,2003-08-27T00:00:00,2023-12-12T15:02:54,0,,active
6080574,93826526,,,Greeenside Road,,,,Greenside Road,,Roman Hill Road,,,,opp,,W,N0078720,Duntocher,Clydebank,,DUNTOCHER,,,,0,,249700,673202,,,BCT,HAR,OTH,,,,117,2003-08-27T00:00:00,2023-12-12T15:02:54,0,,active
6080575,93828392,,,Breval Crescent,,,,Breval Crescent,,Greenside Road,,,,before,,N,N0078720,Duntocher,Clydebank,,DUNTOCHER,,,,0,,249641,673261,,,BCT,HAR,OTH,,,,117,2003-08-27T00:00:00,2023-12-12T15:02:54,0,,active
6080576,93828234,,,Westburn Crescent,,,,Westburn Crescent,,Breval Crescent,,,,opp,,W,N0078720,Duntocher,Clydebank,,DUNTOCHER,,,,0,,249581,673309,,,BCT,HAR,OTH,,,,117,2003-08-27T00:00:00,2023-12-12T15:02:54,0,,active
6080577,93827827,,,Breval Crescent,,,,Breval Crescent,,Roman Hill Road,,,,before,,NW,N0078720,Duntocher,Clydebank,,DUNTOCHER,,,,0,,249545,673214,,,BCT,HAR,OTH,,,,117,2003-08-27T00:00:00,2023-12-12T15:02:54,0,,inactive
6080578,93824846,,,Glenhead Crescent,,,,Glenhead Crescent,,Breval Crescent,,,,opp,,SW,N0078720,Duntocher,Clydebank,,DUNTOCHER,,,,0,,249354,673202,,,BCT,HAR,OTH,,,,117,2003-08-27T00:00:00,2023-12-12T15:02:54,0,,active
6080579,93824895,,,Craigielea Road,,,,Craigielea Road,,Farm Road,,,,before,,N,N0078720,Duntocher,Clydebank,,DUNTOCHER,,,,0,,249088,673122,,,BCT,HAR,OTH,,,,117,2003-08-27T00:00:00,2023-12-12T15:02:54,0,,active
608058,93823868,,,Napier Street,,,,Esso Garage,,Glasgow Road,,,,opp,,NW,N0078724,Whitecrook,Clydebank,,CLYDEBANK,,,,1,,250384,669379,,,BCT,MKD,OTH,,,,117,2003-08-27T00:00:00,2023-12-12T15:02:54,0,,active
6080580,93825286,,,Hillend Crescent,,,,Hillend Crescent,,Farm Road,,,,before,,N,N0078720,Duntocher,Clydebank,,DUNTOCHER,,,,0,,249080,673031,,,BCT,HAR,OTH,,,,117,2003-08-27T00:00:00,2023-12-12T15:02:54,0,,inactive
6080581,93825463,,,Chapel Road,,,,Chapel Road,,Beeches Road,,,,after,,W,N0078720,Duntocher,Clydebank,,DUNTOCHER,,,,0,,249006,672907,,,BCT,HAR,OTH,,,,117,2003-08-27T00:00:00,2023-12-12T15:02:54,0,,inactive
6080582,93825692,,,Duntiglennan Road,,,,Duntiglennan Road,,Beeches Road,,,,before,,W,N0078720,Duntocher,Clydebank,,DUNTOCHER,,,,0,,249178,672867,,,BCT,HAR,OTH,,,,117,2003-08-27T00:00:00,2023-12-12T15:02:54,0,,inactive
6080583,93827964,,,Dumbarton Road,,,,Dumbarton Road,,Morrison Street,,,,before,,SE,N0078720,Duntocher,Clydebank,,DUNTOCHER,,,,0,,248954,672756,,,BCT,HAR,OTH,,,,117,2003-08-27T00:00:00,2023-12-12T15:02:54,0,,active
6080584,93828395,,,Morrison Street,,,,Morrison Street,,Auchentoshan Avenue,,,,before,,SW,N0078720,Duntocher,Clydebank,,DUNTOCHER,,,,0,,248923,672841,,,BCT,HAR,OTH,,,,117,2003-08-27T00:00:00,2023-12-12T15:02:54,0,,active
6080585,93828523,,,Craigielea Road,,,,No 52 Craigielea Road,,Craigielea Road,,,,at,,W,N0078720,Duntocher,Clydebank,,DUNTOCHER,,,,0,,248743,673045,,,BCT,HAR,OTH,,,,117,2003-08-27T00:00:00,2023-12-12T15:02:54,0,,active
6080586,93828645,,,Beeches Avenue,,,,Beeches Avenue,,Beeches Road,,,,opp,,E,N0078720,Duntocher,Clydebank,,DUNTOCHER,,,,0,,248680,672954,,,BCT,HAR,OTH,,,,117,2003-08-27T00:00:00,2023-12-12T15:02:54,0,,inactive
6080587,93828793,,,Balloch Road,,,,Balloch Road,,Pier Road,,,,after,,NW,N0067998,Balloch,,,BALLOCH,,,,0,,238914,681923,,,BCT,CUS,OTH,,,,117,2003-08-27T00:00:00,2023-12-12T15:02:54,0,,active
6080588,93828789,,,Beeches Road,,,,Beeches Road,,Dumbarton Road,,,,at,,NE,N0078720,Duntocher,Clydebank,,CLYDEBANK,,,,0,,249287,672819,,,BCT,MKD,OTH,,,,117,2003-08-27T00:00:00,2023-12-12T15:02:54,0,,active
6080589,93828792,,,Beeches Road,,,,Beeches Road,,Dumbarton Road,,,,opp,,SW,N0078720,Duntocher,Clydebank,,CLYDEBANK,,,,0,,249286,672808,,,BCT,MKD,OTH,,,,117,2003-08-27T00:00:00,2023-12-12T15:02:54,0,,inactive
608059,93823672,,,Napier Street,,,,Napier Street,,Glasgow Road,,,,at,,SE,N0078724,Whitecrook,Clydebank,,CLYDEBANK,,,,1,,250425,669365,,,BCT,MKD,OTH,,,,117,2003-08-27T00:00:00,2023-12-12T15:02:54,0,,active
6080594,93824626,,,Broom Drive,,,,Hawthorn Drive,,Broom Drive,,,,at 32,,SE,N0078723,Parkhall,Clydebank,,CLYDEBANK,,,,0,,249509,671783,,,BCT,MKD,OTH,,,,117,2003-08-27T00:00:00,2023-12-12T15:02:54,0,,inactive
6080595,93824687,,,Maple Drive,,,,Maple Drive,,Milton Mains Road,,,,before,,N,N0078723,Parkhall,Clydebank,,CLYDEBANK,,,,0,,249403,672208,,,BCT,MKD,OTH,,,,117,2003-08-27T00:00:00,2023-12-12T15:02:54,0,,active
6080596,93824689,,,Chestnut Drive,,,,Chestnut Drive,,Maple Drive,,,,before,,W,N0078723,Parkhall,Clydebank,,CLYDEBANK,,,,0,,248967,672243,,,BCT,MKD,OTH,,,,117,2003-08-27T00:00:00,2023-12-12T15:02:54,0,,active
6080597,93824692,,,Alder Road,,,,Alder Road,,Maple Drive,,,,at,,S,N0078723,Parkhall,Clydebank,,CLYDEBANK,,,,0,,248937,672047,,,BCT,MKD,OTH,,,,117,2003-08-27T00:00:00,2023-12-12T15:02:54,0,,active
6080598,93824693,,,Birch Road,,,,Birch Road,,Hornbeam Drive,,,,after,,E,N0078723,Parkhall,Clydebank,,CLYDEBANK,,,,0,,249214,671941,,,BCT,MKD,OTH,,,,117,2003-08-27T00:00:00,2023-12-12T15:02:54,0,,active
6080599,93824627,,,Lomondgate Roundabout,,,,Lomondgate Roundabout,,Stirling Road,,,,before,,S,ES001089,Dumbarton,,,DUMBARTON,,,,0,,240174,676873,,,BCT,MKD,OTH,,,,117,2003-08-27T00:00:00,2023-12-12T15:02:54,0,,inactive
60806,93823463,,,Goldenhill Court,,,,Hardgate Roundabout,,Kilbowie Road,,,,opp,,S,N0078034,Hardgate,Clydebank,,CLYDEBANK,,,,0,,249937,672657,,,BCT,MKD,OTH,,,,117,2003-08-27T00:00:00,2023-12-12T15:02:54,0,,active
608060,93823975,,,Hamilton Street,,,,Hamilton Street,,Glasgow Road,,,,at,,SE,N0078724,Whitecrook,Clydebank,,CLYDEBANK,,,,1,,250612,669187,,,BCT,MKD,OTH,,,,117,2003-08-27T00:00:00,2023-12-12T15:02:54,0,,active
6080600,93824628,,,Lomondgate Roundabout,,,,Lomondgate Roundabout,,Stirling Road,,,,after,,N,ES001089,Dumbarton,,,DUMBARTON,,,,0,,240156,676880,,,BCT,MKD,OTH,,,,117,2003-08-27T00:00:00,2023-12-12T15:02:54,0,,inactive
6080601,93824674,,,Glasgow Road,,,,Glasgow Road,,Greenhead Road,,,,after,,NE,ES001089,Dumbarton,,,DUMBARTON,,,,0,,240902,674978,,,BCT,MKD,OTH,,,,117,2003-08-27T00:00:00,2023-12-12T15:02:54,0,,active
6080606,93824679,,,Waulking Mill Road,,,,Waulking Mill Road,,Faifley Road,,,,before,,E,ES001331,Faifley,Clydebank,,CLYDEBANK,,,,0,,250171,673274,,,BCT,MKD,OTH,,,,117,2003-08-27T00:00:00,2023-12-12T15:02:54,0,,active
6080607,93824732,,,Benbow Road,,,,Golden Jubilee Hospital,,Agamenmon Street,,,,before,,NE,N0068070,Dalmuir,Clydebank,,CLYDEBANK,,,,0,,248773,670701,,,BCT,MKD,OTH,,,,117,2003-08-27T00:00:00,2023-12-12T15:02:54,0,,active
6080608,93824684,,,Argyll Road,,,,Argyll Road,,Montrose Street,,,,before,,NW,N0078830,Drumry,Clydebank,,CLYDEBANK,,,,0,,250302,670675,,,BCT,MKD,OTH,,,,117,2003-08-27T00:00:00,2023-12-12T15:02:54,0,,active
6080609,93824686,,,Argyll Road,,,,Argyll Road,,Montrose Street,,,,after,,SE,N0078830,Drumry,Clydebank,,CLYDEBANK,,,,0,,250310,670680,,,BCT,CUS,OTH,,,,117,2003-08-27T00:00:00,2023-12-12T15:02:54,0,,active
608061,93823876,,,Dock Street,,,,Dock Street,,Glasgow Road,,,,at,,NW,N0078724,Whitecrook,Clydebank,,CLYDEBANK,,,,1,,250611,669159,,,BCT,MKD,OTH,,,,117,2003-08-27T00:00:00,2023-12-12T15:02:54,0,,active
6080611,93824695,,,Garshake Road,,,,Garshake Road,,Whiteford Avenue,,,,before,,S,N0068011,Bellsmyre,Dumbarton,,DUMBARTON,,,,0,,241034,675961,,,BCT,MKD,OTH,,,,117,2003-08-27T00:00:00,2023-12-12T15:02:54,0,,active
6080612,93824696,,,Aitkenbar Drive,,,,Aitkenbar Drive,,Howatshaws Road,,,,before,,NW,N0068011,Bellsmyre,Dumbarton,,DUMBARTON,,,,0,,240960,676662,,,BCT,MKD,OTH,,,,117,2003-08-27T00:00:00,2023-12-12T15:02:54,0,,active
6080613,93824697,,,Barwood Hill,,,,Barwood Hill,,Howatshaws Road,,,,after,,NW,N0068011,Bellsmyre,Dumbarton,,DUMBARTON,,,,0,,240837,676839,,,BCT,MKD,OTH,,,,117,2003-08-27T00:00:00,2023-12-12T15:02:54,0,,active
6080614,93824698,,,Tay Place,,,,Tay Place,,Howatshaws Road,,,,opp & before,,NW,ES001089,Dumbarton,,,DUMBARTON,,,,0,,240759,676939,,,BCT,MKD,OTH,,,,117,2003-08-27T00:00:00,2023-12-12T15:02:54,0,,active
6080615,93825792,,,Balloch Bus Terminus,,,,Balloch Turning Circle,,Carrochan Rd,,,,at Stop 2,,N,N0067998,Balloch,,,BALLOCH,,,,0,,239389,682016,,,BCT,MKD,OTH,,,,117,2003-08-27T00:00:00,2023-12-12T15:02:54,0,,active
6080616,93824747,,,Clarnish,,,,Clarnish,,Balloch Road,,,,before,,NE,N0067998,Balloch,,,BALLOCH,,,,0,,238666,681769,,,BCT,MKD,OTH,,,,117,2003-08-27T00:00:00,2023-12-12T15:02:54,0,,active
6080617,93824829,,,Whiteford Crescent,,,,Whiteford Crescent,,Howatshaws Road,,,,before,,S,N0068011,Bellsmyre,Dumbarton,,DUMBARTON,,,,0,,241100,676505,,,BCT,MKD,OTH,,,,117,2003-08-27T00:00:00,2023-12-12T15:02:54,0,,active
6080618,93824878,,,Whiteford Avenue,,,,Whiteford Avenue,,Howatshaws Road,,,,after,,N,N0068011,Bellsmyre,Dumbarton,,DUMBARTON,,,,0,,241082,676503,,,BCT,MKD,OTH,,,,117,2003-08-27T00:00:00,2023-12-12T15:02:54,0,,active
6080619,93824865,,,Broomfauld Gardens,,,,Broomfauld Gardens,,Crosslet Road,,,,opp,,SE,ES001089,Dumbarton,,,DUMBARTON,,,,0,,240303,675561,,,BCT,HAR,OTH,,,,117,2003-08-27T00:00:00,2023-12-12T15:02:54,0,,inactive
608062,93824534,,,Mill Road,,,,Mill Road,,Glasgow Road,,,,opp,,NW,N0078724,Whitecrook,Clydebank,,CLYDEBANK,,,,1,,250757,669044,,,BCT,MKD,OTH,,,,117,2003-08-27T00:00:00,2023-12-12T15:02:54,0,,active
6080620,93824958,,,Douglas Road,,,,Douglas Road,,Crosslet Road,,,,before,,SE,N0078771,Silverton,Dumbarton,,DUMBARTON,,,,0,,240579,675423,,,BCT,HAR,OTH,,,,117,2003-08-27T00:00:00,2023-12-12T15:02:54,0,,inactive
6080621,93825293,,,Alclutha Avenue,,,,Alclutha Avenue,,Crosslet Road,,,,opp,,NE,N0078771,Silverton,Dumbarton,,DUMBARTON,,,,0,,240897,675282,,,BCT,HAR,OTH,,,,117,2003-08-27T00:00:00,2023-12-12T15:02:54,0,,active
6080622,93825427,,,Dumbarton Road,,,,Dumbarton Road,,Mountblow Road,,,,before,,SE,N0068070,Dalmuir,Clydebank,,DALMUIR,,,,0,,247868,671664,,,BCT,MKD,OTH,,,,117,2003-08-27T00:00:00,2023-12-12T15:02:54,0,,active
6080623,93825856,,,Crosslet Road,,,,Crosslet Road,,Alclutha Avenue,,,,before,,NW,N0078771,Silverton,Dumbarton,,DUMBARTON,,,,0,,240937,675272,,,BCT,MKD,OTH,,,,117,2003-08-27T00:00:00,2023-12-12T15:02:54,0,,active
6080624,93825695,,,custom stop,,,,custom stop,,Balloch Bus Stances,,,,at,,E,N0067998,Balloch,,,BALLOCH,,,,0,,239401,682031,,,BCT,CUS,OTH,,,,117,2003-08-27T00:00:00,2023-12-12T15:02:54,0,,inactive
6080625,93825757,,,Abbotsford Road,,,,Abbotsford Road,,Chalmers Street,,,,stop 1,,SE,ES000746,Clydebank,,,CLYDEBANK,,,,0,,249806,670129,,,BCT,CUS,OTH,,,,117,2003-08-27T00:00:00,2023-12-12T15:02:54,0,,inactive
6080626,93825436,,,Abbotsford Road,,,,Abbotsford Road,,Chalmers Street,,,,stop 2,,SE,ES000746,Clydebank,,,CLYDEBANK,,,,0,,249811,670121,,,BCT,CUS,OTH,,,,117,2003-08-27T00:00:00,2023-12-12T15:02:54,0,,inactive
6080627,93828494,,,Hume Street,,,,Hume Street,,Chalmers Street,,,,after,,NW,ES000746,Clydebank,,,CLYDEBANK,,,,0,,249787,670128,,,BCT,CUS,OTH,,,,117,2003-08-27T00:00:00,2023-12-12T15:02:54,0,,inactive
6080628,93829294,,,King Edward Street,,,,Antartex Village,,Main Street,,,,before,,S,ES000063,Alexandria,,,ALEXANDRIA,,,,0,,238901,680630,,,BCT,MKD,OTH,,,,117,2003-08-27T00:00:00,2023-12-12T15:02:54,0,,active
6080629,93825456,,,Heather Avenue,,,,Antartex Village,,Main Street,,,,opp & before,,N,ES000063,Alexandria,,,ALEXANDRIA,,,,0,,238887,680650,,,BCT,MKD,OTH,,,,117,2003-08-27T00:00:00,2023-12-12T15:02:54,0,,active
608063,93823494,,,Clydeholm Terrace,,,,Clydeholm Terrace,,Mill Road,,,,at,,NE,N0078724,Whitecrook,Clydebank,,CLYDEBANK,,,,1,,250822,669091,,,BCT,MKD,OTH,,,,117,2003-08-27T00:00:00,2023-12-12T15:02:54,0,,active
6080630,93875352,,,Quay Street,,,,Quay Street,,Riverside Lane,,,,opp,,W,ES001089,Dumbarton,,,DUMBARTON,,,,0,,239504,675171,,,BCT,MKD,OTH,,,,117,2003-08-27T00:00:00,2023-12-12T15:02:54,0,,active
6080631,93898967,,,Crosslet Road,,,,Crosslet Road,,Lennox Road,,,,after,,NE,N0078771,Silverton,Dumbarton,,DUMBARTON,,,,0,,240759,675323,,,BCT,MKD,OTH,,,,117,2003-08-27T00:00:00,2023-12-12T15:02:54,0,,active
6080632,93898583,,,Ashfield Farm,,,,Ashfield Farm,,A811,,,,at,,NE,ES000063,Alexandria,,,VALE OF LEVEN,,,,0,,240651,684082,,,BCT,CUS,OTH,,,,117,2003-08-27T00:00:00,2023-12-12T15:02:54,0,,active
6080633,93835949,,,Main Street,,,,Main Street,,Bank Street,,,,before,,NW,ES000063,Alexandria,,,ALEXANDRIA,,,,0,,239121,680149,,,BCT,MKD,OTH,,,,117,2003-08-27T00:00:00,2023-12-12T15:02:54,0,,active
6080634,93874589,,,Quay St,,,,Shelter 2,,Riverside Lane,,,,opp,,W,ES001089,Dumbarton,,,DUMBARTON,,,,0,,239503,675171,,,BCT,CUS,OTH,,,,117,2003-08-27T00:00:00,2023-12-12T15:02:54,0,,inactive
6080635,93829242,,,Hawthornhill Road,,,,Hawthornhill Road,,Kyle Terrace,,,,before,,N,N0078769,Castlehill,Dumbarton,,DUMBARTON,,,,0,,237802,675988,,,BCT,MKD,OTH,,,,117,2003-08-27T00:00:00,2023-12-12T15:02:54,0,,active
6080636,93865425,,,Old School Road,,,,Old School Road,,Old Military Road,,,,at,,W,N0073041,Gartocharn,,,GARTOCHARN,,,,0,,244158,686979,,,BCT,MKD,OTH,,,,117,2003-08-27T00:00:00,2023-12-12T15:02:54,0,,active
6080638,93834736,,,School Road,,,,School Road,,Old Military Road,,,,at,,SW,N0073041,Gartocharn,,,GARTOCHARN,,,,0,,242516,685980,,,BCT,MKD,OTH,,,,117,2003-08-27T00:00:00,2023-12-12T15:02:54,0,,active
6080639,93878648,,,Primary School,,,,Primary School,,Old Military Road,,,,at,,NE,N0073041,Gartocharn,,,GARTOCHARN,,,,0,,242424,685953,,,BCT,MKD,OTH,,,,117,2003-08-27T00:00:00,2023-12-12T15:02:54,0,,active
608064,93823232,,,Edward Street,,,,Edward Street,,East Barns Street,,,,at,,SE,N0078724,Whitecrook,Clydebank,,CLYDEBANK,,,,0,,250933,669325,,,BCT,MKD,OTH,,,,117,2003-08-27T00:00:00,2023-12-12T15:02:54,0,,active
6080640,93858672,,,Dillichip Close,,,,Dillichip Close,,Main Street,,,,after,,N,ES000408,Bonhill,,,BONHILL,,,,0,,239758,678927,,,BCT,MKD,OTH,,,,117,2003-08-27T00:00:00,2023-12-12T15:02:54,0,,active
6080641,93849432,,,Strathleven House,,,,Strathleven House,,Vale of Leven Industrial Estate,,,,before,,S,ES003134,Renton,,,RENTON,,,,0,,239427,678260,,,BCT,CUS,OTH,,,,117,2003-08-27T00:00:00,2023-12-12T15:02:54,0,,active
6080642,93849436,,,Miller Road,,,,Talbot Road,,Cook Road,,,,before,,NW,N0078766,Haldane,Balloch,,VALE OF LEVEN,,,,0,,240017,681730,,,BCT,MKD,OTH,,,,117,2003-08-27T00:00:00,2023-12-12T15:02:54,0,,active
6080643,9384489,,,Croft Street,,,,Croft Street,,Main Street,,,,opp,,N,ES000408,Bonhill,,,BONHILL,,,,0,,239543,679489,,,BCT,MKD,OTH,,,,117,2003-08-27T00:00:00,2023-12-12T15:02:54,0,,active
6080644,93849458,,,Bute Dr,,,,,,Western Isles Rd,,,,before,,S,ES000746,Clydebank,,,CLYDEBANK,,,,0,,247318,672536,,,BCT,MKD,OTH,,,,117,2003-08-27T00:00:00,2023-12-12T15:02:54,0,,active
6080645,93824584,,,Wallace Street,,,,,,Glasgow Road,,,,before,,NW,ES000746,Clydebank,,,CLYDEBANK,,,,0,,249718,670011,,,BCT,MKD,OTH,,,,117,2003-08-27T00:00:00,2023-12-12T15:02:54,0,,active
6080646,93824585,,,Ailsa Road,,,,,,Queens Quay Main Avenue,,,,after,,N,ES000746,Clydebank,,,CLYDEBANK,,,,0,,249745,669724,,,BCT,MKD,OTH,,,,117,2003-08-27T00:00:00,2023-12-12T15:02:54,0,,active
6080647,93824586,,,Health Centre,,,,,,Queens Quay Main Avenue,,,,after,,SE,ES000746,Clydebank,,,CLYDEBANK,,,,0,,249686,669868,,,BCT,MKD,OTH,,,,117,2003-08-27T00:00:00,2023-12-12T15:02:54,0,,active
6080648,93824587,,,Health Centre,,,,,,Queens Quay Main Avenue,,,,opp,,NW,ES000746,Clydebank,,,CLYDEBANK,,,,0,,249568,669933,,,BCT,MKD,OTH,,,,117,2003-08-27T00:00:00,2023-12-12T15:02:54,0,,active
6080649,93824589,,,Dickens Avenue,,,,Dickens Avenue,,Janetta Street,,,,before,,N,ES000746,Clydebank,,,CLYDEBANK,,,,0,,249309,671618,,,BCT,MKD,OTH,,,,117,2003-08-27T00:00:00,2023-12-12T15:02:54,0,,active
608065,93824263,,,St Margarets Hospice,,,,St Margarets Hospice,,East Barns Street,,,,opp,,NW,N0078724,Whitecrook,Clydebank,,CLYDEBANK,,,,0,,250868,669386,,,BCT,MKD,OTH,,,,117,2003-08-27T00:00:00,2023-12-12T15:02:54,0,,active
608066,93823586,,,McDonald Crescent,,,,McDonald Crescent,,East Barns Street,,,,at,,SE,N0078724,Whitecrook,Clydebank,,CLYDEBANK,,,,0,,250785,669497,,,BCT,MKD,OTH,,,,117,2003-08-27T00:00:00,2023-12-12T15:02:54,0,,active
608067,93824282,,,McDonald Crescent,,,,McDonald Crescent,,East Barns Street,,,,opp,,NW,N0078724,Whitecrook,Clydebank,,CLYDEBANK,,,,0,,250745,669521,,,BCT,MKD,OTH,,,,117,2003-08-27T00:00:00,2023-12-12T15:02:54,0,,active
608068,93823527,,,MacDonald Crescent,,,,MacDonald Crescent,,East Barns Street,,,,before,,SE,N0078724,Whitecrook,Clydebank,,CLYDEBANK,,,,0,,250620,669659,,,BCT,MKD,OTH,,,,117,2003-08-27T00:00:00,2023-12-12T15:02:54,0,,active
608069,93824347,,,North Elgin Street,,,,North Elgin Street,,Barns Street,,,,After,,NW,N0078724,Whitecrook,Clydebank,,CLYDEBANK,,,,0,,250534,669729,,,BCT,MKD,OTH,,,,117,2003-08-27T00:00:00,2023-12-12T15:02:54,0,,active
60807,93823764,,,Hardgate Roundabout,,,,Cochno Burn,,Faifley Road,,,,after,,N,N0078034,Hardgate,Clydebank,,CLYDEBANK,,,,0,,249934,672869,,,BCT,MKD,OTH,,,,117,2003-08-27T00:00:00,2023-12-12T15:02:54,0,,active
608070,93823747,,,Andrew Drive,,,,Bowling green,,Barns Street,,,,at,,SE,N0078724,Whitecrook,Clydebank,,CLYDEBANK,,,,0,,250404,669857,,,BCT,MKD,OTH,,,,117,2003-08-27T00:00:00,2023-12-12T15:02:54,0,,active
608071,93824358,,,Andrew Drive,,,,Bowling Green,,Barns Street,,,,opp,,NW,N0078724,Whitecrook,Clydebank,,CLYDEBANK,,,,0,,250422,669828,,,BCT,MKD,OTH,,,,117,2003-08-27T00:00:00,2023-12-12T15:02:54,0,,active
608072,93823642,,,Taylor Street,,,,Taylor Street,,Barns Street,,,,at,,NW,N0078724,Whitecrook,Clydebank,,CLYDEBANK,,,,0,,250141,670004,,,BCT,MKD,OTH,,,,117,2003-08-27T00:00:00,2023-12-12T15:02:54,0,,active
608073,93824376,,,Stanford Street,,,,Stanford Street,,Whitecrook Street,,,,at,,S,ES000746,Clydebank,,,CLYDEBANK,,,,0,,250057,670122,,,BCT,MKD,OTH,,,,117,2003-08-27T00:00:00,2023-12-12T15:02:54,0,,active
608075,93823836,,,Shopping Centre,,,,Shopping Centre,,Coldstream Road,,,,at,,E,ES000746,Clydebank,,,CLYDEBANK,,,,1,,249946,670440,,,BCT,MKD,OTH,,,,117,2003-08-27T00:00:00,2023-12-12T15:02:54,0,,active
608076,93824385,,,Argyll Road,,,,Argyll Road,,Livingstone Street,,,,before,,W,N0073043,Linnvale,Clydebank,,CLYDEBANK,,,,0,,250184,670383,,,BCT,MKD,OTH,,,,117,2003-08-27T00:00:00,2023-12-12T15:02:54,0,,active
608077,93823542,,,Argyll Road,,,,Argyll Road,,Livingstone Street,,,,after,,E,N0073043,Linnvale,Clydebank,,CLYDEBANK,,,,0,,250220,670395,,,BCT,MKD,OTH,,,,117,2003-08-27T00:00:00,2023-12-12T15:02:54,0,,active
608078,93824527,,,Cripps Avenue,,,,Cripps Avenue,,Livingstone Street,,,,after,,E,N0073043,Linnvale,Clydebank,,CLYDEBANK,,,,0,,250574,670366,,,BCT,MKD,OTH,,,,117,2003-08-27T00:00:00,2023-12-12T15:02:54,0,,active
608079,93823959,,,Cripps Avenue,,,,Cripps Avenue,,Livingstone Street,,,,opp,,W,N0073043,Linnvale,Clydebank,,CLYDEBANK,,,,0,,250581,670350,,,BCT,MKD,OTH,,,,117,2003-08-27T00:00:00,2023-12-12T15:02:54,0,,active
60808,93823698,,,Milldam Road,,,,Cochno Burn,,Faifley Road,,,,after,,S,N0078034,Hardgate,Clydebank,,CLYDEBANK,,,,0,,249962,672929,,,BCT,MKD,OTH,,,,117,2003-08-27T00:00:00,2023-12-12T15:02:54,0,,active
608080,93824265,,,Bevin Avenue,,,,Bevin Avenue,,Livingstone Street,,,,at,,E,N0073043,Linnvale,Clydebank,,CLYDEBANK,,,,0,,250959,670359,,,BCT,MKD,OTH,,,,117,2003-08-27T00:00:00,2023-12-12T15:02:54,0,,active
608081,93823736,,,Attlee Place,,,,Attlee Place,,Dalton Avenue,,,,opp,,SE,N0073043,Linnvale,Clydebank,,CLYDEBANK,,,,0,,251043,670322,,,BCT,MKD,OTH,,,,117,2003-08-27T00:00:00,2023-12-12T15:02:54,0,,active
608082,93824364,,,Attlee Avenue,,,,Attlee Avenue,,Dalton Avenue,,,,at,,SE,N0073043,Linnvale,Clydebank,,CLYDEBANK,,,,0,,251200,670184,,,BCT,MKD,OTH,,,,117,2003-08-27T00:00:00,2023-12-12T15:02:54,0,,active
608083,93823752,,,Westwood Quadrant,,,,No 130,,Kirkwood Avenue,,,,before,,NW,N0073043,Linnvale,Clydebank,,CLYDEBANK,,,,0,,251151,670080,,,BCT,MKD,OTH,,,,117,2003-08-27T00:00:00,2023-12-12T15:02:54,0,,active
608084,93824563,,,Livingstone Street,,,,Livingstone Street,,Kirkwood Avenue,,,,at,,N,N0073043,Linnvale,Clydebank,,CLYDEBANK,,,,0,,250867,670324,,,BCT,MKD,OTH,,,,117,2003-08-27T00:00:00,2023-12-12T15:02:54,0,,active
608085,93823894,,,Warilda Avenue,,,,Warilda Aveue,,Montrose Street,,,,Near,,NW,N0078830,Drumry,Clydebank,,CLYDEBANK,,,,0,,250403,670626,,,BCT,MKD,OTH,,,,117,2003-08-27T00:00:00,2023-12-12T15:02:54,0,,active
608086,93823264,,,Montrose Street,,,,Montrose Street,,Warilda Avenue,,,,At,,S,N0078830,Drumry,Clydebank,,CLYDEBANK,,,,0,,250364,670619,,,BCT,MKD,OTH,,,,117,2003-08-27T00:00:00,2023-12-12T15:02:54,0,,active
608087,93824576,,,Wandilla Avenue,,,,Wandilla Avenue,,Montrose Street,,,,after,,W,N0078830,Drumry,Clydebank,,CLYDEBANK,,,,0,,250560,670595,,,BCT,MKD,OTH,,,,117,2003-08-27T00:00:00,2023-12-12T15:02:54,0,,active
608088,93823858,,,Wandilla Avenue,,,,Wandilla Avenue,,Onslow Road,,,,before,,E,N0078830,Drumry,Clydebank,,CLYDEBANK,,,,0,,250515,670543,,,BCT,MKD,OTH,,,,117,2003-08-27T00:00:00,2023-12-12T15:02:54,0,,active
608089,93823647,,,York Street,,,,house no 69,,Onslow Road,,,,Opp,,W,N0078830,Drumry,Clydebank,,CLYDEBANK,,,,0,,250681,670526,,,BCT,MKD,OTH,,,,117,2003-08-27T00:00:00,2023-12-12T15:02:54,0,,active
60809,93823783,,,Milldam Road,,,,Spinners Lane,,Faifley Road,,,,before,,SE,ES001331,Faifley,Clydebank,,CLYDEBANK,,,,0,,249976,673160,,,BCT,MKD,OTH,,,,117,2003-08-27T00:00:00,2023-12-12T15:02:54,0,,active
608090,93823685,,,York Street,,,,Before York Street,,Onslow Road,,,,Before,,E,N0078830,Drumry,Clydebank,,CLYDEBANK,,,,0,,250721,670534,,,BCT,MKD,OTH,,,,117,2003-08-27T00:00:00,2023-12-12T15:02:54,0,,active
608091,93824545,,,Bedford Avenue,,,,Bedford Avenue,,Onslow Road,,,,opp,,S,N0078830,Drumry,Clydebank,,CLYDEBANK,,,,1,,250979,670639,,,BCT,MKD,OTH,,,,117,2003-08-27T00:00:00,2023-12-12T15:02:54,0,,active
608092,93823936,,,Alsatian Avenue,,,,Alsatian Avenue,,Onslow Road,,,,at,,NW,N0078830,Drumry,Clydebank,,CLYDEBANK,,,,0,,250910,670771,,,BCT,MKD,OTH,,,,117,2003-08-27T00:00:00,2023-12-12T15:02:54,0,,active
608093,93824565,,,Drumry Road,,,,Drumry Road,,Onslow Road,,,,Before,,NW,N0078830,Drumry,Clydebank,,CLYDEBANK,,,,0,,250805,670912,,,BCT,MKD,OTH,,,,117,2003-08-27T00:00:00,2023-12-12T15:02:54,0,,active
608094,93826572,,,Queen Mary Avenue,,,,Queen Mary Avenue,,Drumry Road,,,,before,,W,N0078830,Drumry,Clydebank,,CLYDEBANK,,,,0,,250709,670972,,,BCT,MKD,OTH,,,,117,2003-08-27T00:00:00,2023-12-12T15:02:54,0,,active
608095,93826537,,,Kirkoswald Drive,,,,Kirkoswald Drive,,Drumry Road,,,,before,,E,N0078830,Drumry,Clydebank,,CLYDEBANK,,,,0,,250709,670981,,,BCT,MKD,OTH,,,,117,2003-08-27T00:00:00,2023-12-12T15:02:54,0,,active
608096,93826476,,,Melfort Avenue,,,,Melfort Avenue,,Drumry Road,,,,opp,,E,N0078830,Drumry,Clydebank,,CLYDEBANK,,,,0,,250412,671011,,,BCT,MKD,OTH,,,,117,2003-08-27T00:00:00,2023-12-12T15:02:54,0,,active
608097,93824678,,,Melfort Avenue,,,,Melfort Avenue,,Drumry Road,,,,before,,W,N0078830,Drumry,Clydebank,,CLYDEBANK,,,,0,,250391,671006,,,BCT,MKD,OTH,,,,117,2003-08-27T00:00:00,2023-12-12T15:02:54,0,,active
608098,93824694,,,Clarence Street,,,,Kilbowie Road,,Drumry Road,,,,after,,W,N0078830,Drumry,Clydebank,,CLYDEBANK,,,,0,,249932,671135,,,BCT,MKD,OTH,,,,117,2003-08-27T00:00:00,2023-12-12T15:02:54,0,,active
608099,93823489,,,Mossgeil Drive,,,,St Eunans church,,Kirkoswald Drive,,,,after,,W,N0078830,Drumry,Clydebank,,CLYDEBANK,,,,0,,250111,671445,,,BCT,MKD,OTH,,,,117,2003-08-27T00:00:00,2023-12-12T15:02:54,0,,active
