ATCOCode,NaptanCode,PlateCode,CleardownCode,CommonName,CommonNameLang,ShortCommonName,ShortCommonNameLang,Landmark,LandmarkLang,Street,StreetLang,Crossing,CrossingLang,Indicator,IndicatorLang,Bearing,NptgLocalityCode,LocalityName,ParentLocalityName,GrandParentLocalityName,Town,TownLang,Suburb,SuburbLang,LocalityCentre,GridType,Easting,Northing,Longitude,Latitude,StopType,BusStopType,TimingStatus,DefaultWaitTime,Notes,NotesLang,AdministrativeAreaCode,CreationDateTime,ModificationDateTime,RevisionNumber,Modification,Status
61101,65424285,,,Abbotsford Lodge,,,,Whistlefield Court,,Canniesburn Road,,,,opp,,W,N0078781,Canniesburn,Bearsden,,BEARSDEN,,,,1,,254585,671170,,,BCT,MKD,OTH,,,,121,2003-08-27T00:00:00,2023-12-12T15:02:54,0,,active
611010,65424347,,,Carron Crescent,,,,Carron Crescent,,Canniesburn Road,,,,opp,,SW,ES003830,Westerton,Bearsden,,BEARSDEN,,,,0,,253452,670975,,,BCT,MKD,OTH,,,,121,2003-08-27T00:00:00,2023-12-12T15:02:54,0,,active
6110100,65423936,,,South Mains Farm,,,,South Mains Farm,,Craigdhu Road,,,,opp,,SW,ES002623,Milngavie,,,MILNGAVIE,,,,0,,254180,673910,,,BCT,MKD,OTH,,,,121,2003-08-27T00:00:00,2023-12-12T15:02:54,0,,inactive
6110101,65423726,,,Fire Station,,,,Fire Station,,Craigdhu Road,,,,at,,W,ES002623,Milngavie,,,MILNGAVIE,,,,0,,254465,674265,,,BCT,MKD,OTH,,,,121,2003-08-27T00:00:00,2023-12-12T15:02:54,0,,inactive
6110102,65423957,,,Milngavie Fire Station,,,,Fire Station,,Craigdhu Road,,,,opp,,E,ES002623,Milngavie,,,MILNGAVIE,,,,0,,254577,674292,,,BCT,MKD,OTH,,,,121,2003-08-27T00:00:00,2023-12-12T15:02:54,0,,inactive
6110103,65424354,,,Campbell Avenue,,,,North Campbell Avenue,,Craigdhu Road,,,,opp,,E,ES002623,Milngavie,,,MILNGAVIE,,,,0,,254978,674318,,,BCT,MKD,OTH,,,,121,2003-08-27T00:00:00,2023-12-12T15:02:54,0,,active
6110104,65423685,,,Campbell Avenue,,,,Campbell Avenue,,Craigdhu Road,,,,before,,W,ES002623,Milngavie,,,MILNGAVIE,,,,0,,255030,674318,,,BCT,MKD,OTH,,,,121,2003-08-27T00:00:00,2023-12-12T15:02:54,0,,active
6110105,65423897,,,Craigton Gardens,,,,Craigton Gardens,,Dumgoyne Avenue,,,,after,,N,ES002623,Milngavie,,,MILNGAVIE,,,,0,,254775,674926,,,BCT,MKD,OTH,,,,121,2003-08-27T00:00:00,2023-12-12T15:02:54,0,,active
6110106,65423853,,,Dumgoyne Avenue,,,,Craigton Gardens,,Dumgoyne Avenue,,,,at 3,,S,ES002623,Milngavie,,,MILNGAVIE,,,,0,,254762,674852,,,BCT,MKD,OTH,,,,121,2003-08-27T00:00:00,2023-12-12T15:02:54,0,,active
6110107,65424368,,,Balvie Crescent,,,,Balvie Crescent,,Dumgoyne Avenue,,,,after,,S,ES002623,Milngavie,,,MILNGAVIE,,,,0,,254697,674635,,,BCT,MKD,OTH,,,,121,2003-08-27T00:00:00,2023-12-12T15:02:54,0,,active
6110108,65423642,,,Balvie Road,,,,Balvie Road,,Dumgoyne Avenue,,,,before,,N,ES002623,Milngavie,,,MILNGAVIE,,,,0,,254676,674586,,,BCT,MKD,OTH,,,,121,2003-08-27T00:00:00,2023-12-12T15:02:54,0,,active
6110109,65423838,,,Oakburn Avenue,,,,Oakburn Avenue,,Dumgoyne Avenue,,,,after,,N,ES002623,Milngavie,,,MILNGAVIE,,,,0,,254633,674425,,,BCT,MKD,OTH,,,,121,2003-08-27T00:00:00,2023-12-12T15:02:54,0,,active
611011,65423824,,,Colquhoun Park Primary School,,,,Colquhoun Park Primary School,,Canniesburn Road,,,,at,,NE,ES003830,Westerton,Bearsden,,BEARSDEN,,,,0,,253526,671046,,,BCT,MKD,OTH,,,,121,2003-08-27T00:00:00,2023-12-12T15:02:54,0,,active
6110110,65424392,,,Dumgoyne Gardens,,,,Dumgoyne Gardens,,Dumgoyne Avenue,,,,before,,S,ES002623,Milngavie,,,MILNGAVIE,,,,0,,254635,674389,,,BCT,MKD,OTH,,,,121,2003-08-27T00:00:00,2023-12-12T15:02:54,0,,active
6110111,65424264,,,Hunter Place,,,,Hunter Place,,Hunter Road,,,,after,,SE,ES002623,Milngavie,,,MILNGAVIE,,,,0,,254287,674406,,,BCT,MKD,OTH,,,,121,2003-08-27T00:00:00,2023-12-12T15:02:54,0,,inactive
6110112,65424328,,,Kirk Street,,,,Kirk Street,,Hunter Road,,,,before,,N,ES002623,Milngavie,,,MILNGAVIE,,,,0,,254203,674681,,,BCT,MKD,OTH,,,,121,2003-08-27T00:00:00,2023-12-12T15:02:54,0,,active
6110113,65423256,,,Kirk Street,,,,Kirk Street,,Hunter Road,,,,after,,S,ES002623,Milngavie,,,MILNGAVIE,,,,0,,254235,674774,,,BCT,MKD,OTH,,,,121,2003-08-27T00:00:00,2023-12-12T15:02:54,0,,active
6110114,65424329,,,Hilton Road,,,,Hilton Road,,Hunter Road,,,,at,,S,ES002623,Milngavie,,,MILNGAVIE,,,,0,,254280,674974,,,BCT,MKD,OTH,,,,121,2003-08-27T00:00:00,2023-12-12T15:02:54,0,,active
6110115,65423292,,,Craigton Road,,,,Craigton Road,,Hunter Road,,,,before,,N,ES002623,Milngavie,,,MILNGAVIE,,,,0,,254279,675142,,,BCT,MKD,OTH,,,,121,2003-08-27T00:00:00,2023-12-12T15:02:54,0,,active
6110116,65423626,,,Baljaffray Rdbt,,,,Baljaffray Rdbt,,Stockiemuir Road,,,,Northbound,,N,ES000318,Bearsden,,,BEARSDEN,,,,0,,253717,673539,,,BCT,MKD,OTH,,,,121,2003-08-27T00:00:00,2023-12-12T15:02:54,0,,inactive
6110117,65423467,,,Baljaffray Rdbt,,,,Baljaffray Rdbt,,Stockiemuir Road,,,,southbound,,S,ES000318,Bearsden,,,BEARSDEN,,,,0,,253752,673465,,,BCT,MKD,OTH,,,,121,2003-08-27T00:00:00,2023-12-12T15:02:54,0,,inactive
6110118,65423532,,,Stockiemuir Avenue,,,,Stockiemuir Avenue,,Stockiemuir Road,,,,opp,,N,ES000318,Bearsden,,,BEARSDEN,,,,0,,253795,673226,,,BCT,MKD,OTH,,,,121,2003-08-27T00:00:00,2023-12-12T15:02:54,0,,inactive
6110119,65424525,,,Stockiemuir Avenue,,,,Stockiemuir Avenue,,Stockiemuir Road,,,,at,,S,ES000318,Bearsden,,,BEARSDEN,,,,0,,253804,673207,,,BCT,MKD,OTH,,,,121,2003-08-27T00:00:00,2023-12-12T15:02:54,0,,inactive
611012,65424279,,,Tweed Drive,,,,Tweed Drive,,Canniesburn Road,,,,opp,,SW,ES003830,Westerton,Bearsden,,BEARSDEN,,,,0,,253718,671146,,,BCT,MKD,OTH,,,,121,2003-08-27T00:00:00,2023-12-12T15:02:54,0,,active
6110120,65424397,,,Dumgoyne Drive,,,,Dumgoyne Drive,,Stockiemuir Avenue,,,,westbound,,NE,ES000318,Bearsden,,,BEARSDEN,,,,0,,253965,673245,,,BCT,MKD,OTH,,,,121,2003-08-27T00:00:00,2023-12-12T15:02:54,0,,inactive
6110121,65423273,,,Stockiemuir Court,,,,Stockiemuir Court,,Stockiemuir Avenue,,,,at,,E,ES000318,Bearsden,,,BEARSDEN,,,,0,,254292,673286,,,BCT,MKD,OTH,,,,121,2003-08-27T00:00:00,2023-12-12T15:02:54,0,,inactive
6110122,65423946,,,Thorn Drive,,,,Thorn Drive,,Drymen Road,,,,before,,NW,ES000318,Bearsden,,,BEARSDEN,,,,1,,253884,672720,,,BCT,MKD,OTH,,,,121,2003-08-27T00:00:00,2023-12-12T15:02:54,0,,active
6110123,65424258,,,Thorn Drive,,,,Thorn Drive,,Drymen Road,,,,after,,SE,ES000318,Bearsden,,,BEARSDEN,,,,1,,253952,672695,,,BCT,MKD,OTH,,,,121,2003-08-27T00:00:00,2023-12-12T15:02:54,0,,active
6110124,65423567,,,South Erskine Park,,,,Library,,Drymen Road,,,,before,,NW,ES000318,Bearsden,,,BEARSDEN,,,,1,,254112,672379,,,BCT,MKD,OTH,,,,121,2003-08-27T00:00:00,2023-12-12T15:02:54,0,,active
6110125,65423863,,,Colquhoun Drive,,,,Colquhoun Drive,,Drymen Road,,,,opp,,SE,ES000318,Bearsden,,,BEARSDEN,,,,1,,254181,672289,,,BCT,MKD,OTH,,,,121,2003-08-27T00:00:00,2023-12-12T15:02:54,0,,active
6110126,65423725,,,Glenburn Road,,,,Glenburn Road,,Drymen Road,,,,before,,NW,ES000318,Bearsden,,,BEARSDEN,,,,1,,254217,672143,,,BCT,MKD,OTH,,,,121,2003-08-27T00:00:00,2023-12-12T15:02:54,0,,active
6110127,65423452,,,Ralston Road,,,,Ralston Road,,Drymen Road,,,,Before,,SE,ES000318,Bearsden,,,BEARSDEN,,,,1,,254060,672454,,,BCT,MKD,OTH,,,,121,2003-08-27T00:00:00,2023-12-12T15:02:54,0,,active
6110129,65423457,,,Cochno Road,,,,Before Cochno Road,,Duntocher Road,,,,Before,,E,ES000318,Bearsden,,,BEARSDEN,,,,0,,251484,673150,,,BCT,MKD,OTH,,,,121,2003-08-27T00:00:00,2023-12-12T15:02:54,0,,inactive
611013,65424243,,,Pendicle Road,,,,Pendicle Road,,Canniesburn Road,,,,opp,,NE,ES003830,Westerton,Bearsden,,BEARSDEN,,,,0,,253784,671200,,,BCT,MKD,OTH,,,,121,2003-08-27T00:00:00,2023-12-12T15:02:54,0,,active
6110130,65424237,,,Baljaffray Road,,,,Roads Direct Depot,,Duntocher Road,,,,opp,,NW,ES000318,Bearsden,,,BEARSDEN,,,,0,,251860,672986,,,BCT,MKD,OTH,,,,121,2003-08-27T00:00:00,2023-12-12T15:02:54,0,,active
6110131,65424289,,,Baljaffray Road,,,,Roads Direct Depot,,Duntocher Road,,,,before,,SE,ES000318,Bearsden,,,BEARSDEN,,,,0,,251817,673033,,,BCT,MKD,OTH,,,,121,2003-08-27T00:00:00,2023-12-12T15:02:54,0,,active
6110132,65423576,,,Antonine Road,,,,Antonine Road,,Duntocher Road,,,,after,,W,ES000318,Bearsden,,,BEARSDEN,,,,0,,252645,672816,,,BCT,MKD,OTH,,,,121,2003-08-27T00:00:00,2023-12-12T15:02:54,0,,active
6110133,65423638,,,Antonine Road,,,,Antonine Road,,Duntocher Road,,,,opp,,E,ES000318,Bearsden,,,BEARSDEN,,,,0,,252699,672812,,,BCT,MKD,OTH,,,,121,2003-08-27T00:00:00,2023-12-12T15:02:54,0,,active
6110134,65423473,,,Ledi Drive,,,,Ledi Drive,,Duntocher Road,,,,opp,,W,ES000318,Bearsden,,,BEARSDEN,,,,1,,253102,672795,,,BCT,MKD,OTH,,,,121,2003-08-27T00:00:00,2023-12-12T15:02:54,0,,active
6110135,65423246,,,Ledi Drive,,,,Ledi Drive,,Duntocher Road,,,,after,,E,ES000318,Bearsden,,,BEARSDEN,,,,1,,253227,672821,,,BCT,MKD,OTH,,,,121,2003-08-27T00:00:00,2023-12-12T15:02:54,0,,active
6110136,65423723,,,Whitehurst,,,,Bearsden Academy,,Duntocher Road,,,,at,,W,ES000318,Bearsden,,,BEARSDEN,,,,0,,253479,672830,,,BCT,MKD,OTH,,,,121,2003-08-27T00:00:00,2023-12-12T15:02:54,0,,active
6110137,65423682,,,Stockiemuir Road,,,,Stockiemuir Road,,Duntocher Road,,,,Before,,E,ES000318,Bearsden,,,BEARSDEN,,,,0,,253488,672840,,,BCT,MKD,OTH,,,,121,2003-08-27T00:00:00,2023-12-12T15:02:54,0,,active
6110139,65423492,,,Menteith Gardens,,,,Baljaffray Shops,,Grampian Way,,,,before,,SW,N0078780,Baljaffray,Bearsden,,BEARSDEN,,,,0,,253243,673607,,,BCT,MKD,OTH,,,,121,2003-08-27T00:00:00,2023-12-12T15:02:54,0,,active
611014,65423257,,,Westerton Post Office,,,,Monreith Avenue,,Maxwell Avenue,,,,at,,S,ES000318,Bearsden,,,BEARSDEN,,,,0,,254038,670851,,,BCT,MKD,OTH,,,,121,2003-08-27T00:00:00,2023-12-12T15:02:54,0,,inactive
6110140,65423759,,,Grampian Court,,,,Baljaffray Shops,,Grampian Way,,,,opp,,E,ES000318,Bearsden,,,BEARSDEN,,,,0,,253295,673631,,,BCT,MKD,OTH,,,,121,2003-08-27T00:00:00,2023-12-12T15:02:54,0,,active
6110141,65423968,,,Loyal Gardens,,,,Loyal Gardens,,Grampian Way,,,,opp,,W,ES000318,Bearsden,,,BEARSDEN,,,,0,,252859,673561,,,BCT,MKD,OTH,,,,121,2003-08-27T00:00:00,2023-12-12T15:02:54,0,,inactive
6110142,65423456,,,Grampian Way,,,,Grampian Way,,Ledi Drive,,,,opp,,N,N0078780,Baljaffray,Bearsden,,BEARSDEN,,,,0,,252643,673342,,,BCT,MKD,OTH,,,,121,2003-08-27T00:00:00,2023-12-12T15:02:54,0,,active
6110143,65423498,,,Cruachan Road,,,,Cruachan Road,,Ledi Drive,,,,before,,E,N0078780,Baljaffray,Bearsden,,BEARSDEN,,,,0,,252984,673157,,,BCT,MKD,OTH,,,,121,2003-08-27T00:00:00,2023-12-12T15:02:54,0,,active
6110144,65423728,,,Cruachan Road,,,,Cruachan Road,,Ledi Drive,,,,opp,,W,N0078780,Baljaffray,Bearsden,,BEARSDEN,,,,0,,253050,673142,,,BCT,MKD,OTH,,,,121,2003-08-27T00:00:00,2023-12-12T15:02:54,0,,active
6110147,65424537,,,Grange Road,,,,Grange Road,,Roman Road,,,,opp,,E,ES000318,Bearsden,,,BEARSDEN,,,,0,,254620,672073,,,BCT,MKD,OTH,,,,121,2003-08-27T00:00:00,2023-12-12T15:02:54,0,,inactive
6110148,65423648,,,Cairnsmore Drive,,,,Cairnsmore Drive,,Grampian Way,,,,opp,,W,ES000318,Bearsden,,,BEARSDEN,,,,0,,252699,673399,,,BCT,MKD,OTH,,,,121,2003-08-27T00:00:00,2023-12-12T15:02:54,0,,active
6110149,65423735,,,Culvain Avenue,,,,Culvain Avenue,,Grampian Way,,,,before,,SE,N0078780,Baljaffray,Bearsden,,BEARSDEN,,,,0,,252961,673369,,,BCT,MKD,OTH,,,,121,2003-08-27T00:00:00,2023-12-12T15:02:54,0,,active
611015,65424373,,,Monreith Avenue,,,,Monreith Avenue,,Maxwell Avenue,,,,Northbound,,N,ES000318,Bearsden,,,BEARSDEN,,,,0,,254026,670793,,,BCT,MKD,OTH,,,,121,2003-08-27T00:00:00,2023-12-12T15:02:54,0,,inactive
6110150,65423937,,,Lammermuir Gardens,,,,Lammermuir Gardens,,Grampian Way,,,,opp,,NW,ES000318,Bearsden,,,BEARSDEN,,,,0,,253223,673149,,,BCT,MKD,OTH,,,,121,2003-08-27T00:00:00,2023-12-12T15:02:54,0,,inactive
6110151,65423635,,,Vorlich Gardens,,,,Vorlich Gardens,,Grampian Way,,,,before,,NE,N0078780,Baljaffray,Bearsden,,BEARSDEN,,,,0,,253365,673230,,,BCT,MKD,OTH,,,,121,2003-08-27T00:00:00,2023-12-12T15:02:54,0,,active
6110152,65423575,,,Torridon Gardens,,,,Torridon Gardens,,Grampian Way,,,,before,,E,N0078780,Baljaffray,Bearsden,,BEARSDEN,,,,0,,253529,673390,,,BCT,MKD,OTH,,,,121,2003-08-27T00:00:00,2023-12-12T15:02:54,0,,active
6110153,65423285,,,The Poplars,,,,Alva Gardens,,Grampian Way,,,,opp,,NW,N0078780,Baljaffray,Bearsden,,BEARSDEN,,,,0,,253606,673556,,,BCT,MKD,OTH,,,,121,2003-08-27T00:00:00,2023-12-12T15:02:54,0,,active
6110154,65424284,,,Alva Gardens,,,,Alva Gardens,,Grampian Way,,,,opp,,SE,ES000318,Bearsden,,,BEARSDEN,,,,0,,253629,673541,,,BCT,MKD,OTH,,,,121,2003-08-27T00:00:00,2023-12-12T15:02:54,0,,active
6110155,65423938,,,Strathblane Road,,,,No 110,,Strathblane Road,,,,at 110,,W,ES002623,Milngavie,,,MILNGAVIE,,,,1,,255986,674999,,,BCT,MKD,OTH,,,,121,2003-08-27T00:00:00,2023-12-12T15:02:54,0,,active
6110156,65423784,,,Westerton Station,,,,Westerton Station,,Maxwell Avenue,,,,at,,NW,ES000318,Bearsden,,,BEARSDEN,,,,1,,254140,670442,,,BCT,MKD,OTH,,,,121,2003-08-27T00:00:00,2023-12-12T15:02:54,0,,inactive
6110157,65424234,,,Dumgoyne Avenue,,,,Tambowie Avenue,,Dumgoyne Avenue,,,,at 8,,N,ES002623,Milngavie,,,MILNGAVIE,,,,0,,254727,674778,,,BCT,MKD,OTH,,,,121,2003-08-27T00:00:00,2023-12-12T15:02:54,0,,active
6110158,65423987,,,Bardowie Roundabout,,,,Bardowie Rdbt,,A807,,,,after,,NE,N0068004,Bardowie,,,BARDOWIE,,,,0,,257617,673013,,,BCT,MKD,OTH,,,,121,2003-08-27T00:00:00,2023-12-12T15:02:54,0,,active
6110159,65424532,,,Station Road,,,,Station Road,,A807,,,,before,,NE,N0068004,Bardowie,,,BARDOWIE,,,,1,,258361,673454,,,BCT,MKD,OTH,,,,121,2003-08-27T00:00:00,2023-12-12T15:02:54,0,,active
611016,65424364,,,Westerton Library,,,,Stirling Avenue,,Maxwell Avenue,,,,at,,N,ES000318,Bearsden,,,BEARSDEN,,,,0,,254028,670653,,,BCT,MKD,OTH,,,,121,2003-08-27T00:00:00,2023-12-12T15:02:54,0,,inactive
6110160,65424385,,,Station Road,,,,Station Road,,A807,,,,after,,SW,N0068004,Bardowie,,,BARDOWIE,,,,1,,258401,673471,,,BCT,MKD,OTH,,,,121,2003-08-27T00:00:00,2023-12-12T15:02:54,0,,active
6110161,65423842,,,Branziet Bridge,,,,Branziet Bridge,,Balmore Road,,,,at,,W,N0068004,Bardowie,,,BARDOWIE,,,,1,,258910,673624,,,BCT,MKD,OTH,,,,121,2003-08-27T00:00:00,2023-12-12T15:02:54,0,,active
6110162,65423487,,,Colbeg Kennels and Cattery,,,,Colbeg Kennels and Cattery,,Balmore Road,,,,at,,E,N0067999,Balmore,,,BALMORE,,,,1,,259623,673587,,,BCT,MKD,OTH,,,,121,2003-08-27T00:00:00,2023-12-12T15:02:54,0,,active
6110163,65423984,,,Birnie Acre House,,,,Birnie Acre House,,Balmore Road,,,,at,,E,N0067999,Balmore,,,BALMORE,,,,1,,259919,673564,,,BCT,MKD,OTH,,,,121,2003-08-27T00:00:00,2023-12-12T15:02:54,0,,active
6110164,65423683,,,Station House,,,,Opp Station House,,Balmore Road,,,,Opp,,W,N0067999,Balmore,,,BALMORE,,,,1,,259945,673547,,,BCT,MKD,OTH,,,,121,2003-08-27T00:00:00,2023-12-12T15:02:54,0,,active
6110165,65423698,,,Coach House,,,,Coach House,,Balmore Road,,,,after,,W,N0067999,Balmore,,,BALMORE,,,,1,,260253,673537,,,BCT,MKD,OTH,,,,121,2003-08-27T00:00:00,2023-12-12T15:02:54,0,,active
6110166,65423846,,,Coach House,,,,Glenorchard Road,,Balmore Road,,,,opp,,E,N0067999,Balmore,,,BALMORE,,,,1,,260310,673561,,,BCT,MKD,OTH,,,,121,2003-08-27T00:00:00,2023-12-12T15:02:54,0,,active
6110167,65423297,,,Tower Road,,,,Tower Road,,Balmore,,,,opp,,W,ES003678,Torrance,,,TORRANCE,,,,1,,261270,673687,,,BCT,MKD,OTH,,,,121,2003-08-27T00:00:00,2023-12-12T15:02:54,0,,active
6110168,65423526,,,Michael McParland Drive,,,,Michael McParland Drive,,Main Street,,,,after,,N,ES003678,Torrance,,,TORRANCE,,,,1,,261877,673830,,,BCT,MKD,OTH,,,,121,2003-08-27T00:00:00,2023-12-12T15:02:54,0,,active
6110169,65423872,,,War Memorial,,,,War Memorial,,Main Street,,,,before,,NE,ES003678,Torrance,,,TORRANCE,,,,1,,261957,674032,,,BCT,MKD,OTH,,,,121,2003-08-27T00:00:00,2023-12-12T15:02:54,0,,active
611017,65424268,,,Westerton Library,,,,Stirling Avenue,,Maxwell Avenue,,,,opp,,S,ES000318,Bearsden,,,BEARSDEN,,,,0,,254041,670614,,,BCT,MKD,OTH,,,,121,2003-08-27T00:00:00,2023-12-12T15:02:54,0,,inactive
6110170,65423768,,,War Memorial,,,,War Memorial,,Main Street,,,,opp,,SW,ES003678,Torrance,,,TORRANCE,,,,1,,261990,674088,,,BCT,MKD,OTH,,,,121,2003-08-27T00:00:00,2023-12-12T15:02:54,0,,active
6110171,65423835,,,Mill Crescent,,,,Mill Crescent,,Campsie Road,,,,after,,NE,ES003678,Torrance,,,TORRANCE,,,,0,,262305,674308,,,BCT,MKD,OTH,,,,121,2003-08-27T00:00:00,2023-12-12T15:02:54,0,,active
6110172,65423464,,,Benvue Road,,,,Benvue Rd,,Rowantree Place,,,,after,,SE,ES002324,Lennoxtown,,,LENNOXTOWN,,,,0,,263340,677245,,,BCT,MKD,OTH,,,,121,2003-08-27T00:00:00,2023-12-12T15:02:54,0,,active
6110173,65423497,,,Benvue Road,,,,Benvue Rd,,Rowantree Place,,,,before,,NW,ES002324,Lennoxtown,,,LENNOXTOWN,,,,0,,263309,677254,,,BCT,MKD,OTH,,,,121,2003-08-27T00:00:00,2023-12-12T15:02:54,0,,active
6110174,65423579,,,Bencloich Road,,,,Bencloich Rd,,Milton Road,,,,opp,,NW,ES002324,Lennoxtown,,,LENNOXTOWN,,,,1,,263102,677429,,,BCT,MKD,OTH,,,,121,2003-08-27T00:00:00,2023-12-12T15:02:54,0,,active
6110175,65423983,,,Bencloich Road,,,,Bencloich Rd,,Milton Road,,,,after,,SE,ES002324,Lennoxtown,,,LENNOXTOWN,,,,1,,263128,677427,,,BCT,MKD,OTH,,,,121,2003-08-27T00:00:00,2023-12-12T15:02:54,0,,active
6110176,65423982,,,Chapel Street,,,,Chapel St,,Main Street,,,,after,,SE,ES002324,Lennoxtown,,,LENNOXTOWN,,,,0,,262913,677677,,,BCT,MKD,OTH,,,,121,2003-08-27T00:00:00,2023-12-12T15:02:54,0,,active
6110177,65424534,,,Chapel Street,,,,Chapel St,,Main Street,,,,opp,,NW,ES002324,Lennoxtown,,,LENNOXTOWN,,,,0,,262891,677684,,,BCT,MKD,OTH,,,,121,2003-08-27T00:00:00,2023-12-12T15:02:54,0,,active
6110178,65423738,,,School Lane,,,,School Lane,,Main Street,,,,after,,SE,ES002324,Lennoxtown,,,LENNOXTOWN,,,,1,,262818,677789,,,BCT,MKD,OTH,,,,121,2003-08-27T00:00:00,2023-12-12T15:02:54,0,,active
6110179,65424252,,,School Lane,,,,School Lane,,Main Street,,,,opp,,NW,ES002324,Lennoxtown,,,LENNOXTOWN,,,,1,,262790,677806,,,BCT,MKD,OTH,,,,121,2003-08-27T00:00:00,2023-12-12T15:02:54,0,,active
611018,65424395,,,Westerton Station,,,,Crarae Avenue,,Maxwell Avenue,,,,opp,,SE,ES000318,Bearsden,,,BEARSDEN,,,,1,,254235,670397,,,BCT,MKD,OTH,,,,121,2003-08-27T00:00:00,2023-12-12T15:02:54,0,,inactive
6110180,65424528,,,Station Road,,,,Station Road,,Main Street,,,,opp,,SE,ES002324,Lennoxtown,,,LENNOXTOWN,,,,0,,262676,677960,,,BCT,MKD,OTH,,,,121,2003-08-27T00:00:00,2023-12-12T15:02:54,0,,active
6110181,65423876,,,Station Road,,,,Station Road,,Main Street,,,,after,,NW,ES002324,Lennoxtown,,,LENNOXTOWN,,,,0,,262649,677973,,,BCT,MKD,OTH,,,,121,2003-08-27T00:00:00,2023-12-12T15:02:54,0,,active
6110182,65423294,,,Crosshill Street,,,,Crosshill Street,,Lennox Road,,,,after,,SW,ES002324,Lennoxtown,,,LENNOXTOWN,,,,0,,262465,678300,,,BCT,MKD,OTH,,,,121,2003-08-27T00:00:00,2023-12-12T15:02:54,0,,active
6110183,65423895,,,Lennox Road,,,,Lennox Rd,,Whitefield Terrace,,,,after,,SE,ES002324,Lennoxtown,,,LENNOXTOWN,,,,1,,262261,678166,,,BCT,MKD,OTH,,,,121,2003-08-27T00:00:00,2023-12-12T15:02:54,0,,active
6110184,65423463,,,East Lodge,,,,East Lodge,,Glen Road,,,,After,,S,ES002324,Lennoxtown,,,LENNOXTOWN,,,,1,,262101,678336,,,BCT,MKD,OTH,,,,121,2003-08-27T00:00:00,2023-12-12T15:02:54,0,,active
6110185,65424235,,,Millhill,,,,Millhill,,Glen Road,,,,opp,,NW,ES002324,Lennoxtown,,,LENNOXTOWN,,,,0,,261913,678538,,,BCT,CUS,OTH,,,,121,2003-08-27T00:00:00,2023-12-12T15:02:54,0,,active
6110187,65423656,,,old Lennox Castle Hospital,,,,Lennox Castle Hospital,,Glen Road,,,,opp,,SE,ES002324,Lennoxtown,,,LENNOXTOWN,,,,1,,261587,678667,,,BCT,MKD,OTH,,,,121,2003-08-27T00:00:00,2023-12-12T15:02:54,0,,active
6110188,65423896,,,Lennox Castle,,,,Lennox Castle,,Glen Road,,,,at,,NW,ES002324,Lennoxtown,,,LENNOXTOWN,,,,1,,261491,678677,,,BCT,MKD,OTH,,,,121,2003-08-27T00:00:00,2023-12-12T15:02:54,0,,active
6110189,65423265,,,Strathblane Road,,,,Haughead,,A891 Haughead,,,,opp,,S,N0072844,Haughhead,,,CLACHAN OF CAMPSIE,,,,1,,261108,679184,,,BCT,MKD,OTH,,,,121,2003-08-27T00:00:00,2023-12-12T15:02:54,0,,active
611019,65423956,,,Maxwell Avenue,,,,No 129,,Maxwell Avenue,,,,Opp 129,,NW,ES000318,Bearsden,,,BEARSDEN,,,,0,,254331,670218,,,BCT,MKD,OTH,,,,121,2003-08-27T00:00:00,2023-12-12T15:02:54,0,,inactive
6110190,65423754,,,A891,,,,Aldessan House,,Crosshouse Road,,,,after,,SE,N0072843,Clachan Of Campsie,,,CLACHAN OF CAMPSIE,,,,1,,261095,679560,,,BCT,MKD,OTH,,,,121,2003-08-27T00:00:00,2023-12-12T15:02:54,0,,active
6110191,65423253,,,Fingarry House,,,,Fingarry House,,Campsie Road,,,,opp,,SE,N0068157,Milton of Campsie,,,MILTON OF CAMPSIE,,,,0,,264356,676984,,,BCT,MKD,OTH,,,,121,2003-08-27T00:00:00,2023-12-12T15:02:54,0,,active
6110192,65424379,,,Mount Pleasant Crescent,,,,Mount Pleasant Cres,,Campsie Road,,,,after,,W,N0068157,Milton of Campsie,,,MILTON OF CAMPSIE,,,,1,,264629,676906,,,BCT,MKD,OTH,,,,121,2003-08-27T00:00:00,2023-12-12T15:02:54,0,,active
6110193,65424578,,,Mount Pleasant Crescent,,,,Mount Pleasant Crescent,,Campsie Road,,,,opp,,SE,N0068157,Milton of Campsie,,,MILTON OF CAMPSIE,,,,1,,264683,676913,,,BCT,MKD,OTH,,,,121,2003-08-27T00:00:00,2023-12-12T15:02:54,0,,active
6110194,65423947,,,Baldoran House,,,,Baldoran House,,Campsie Road,,,,opp,,NW,N0068157,Milton of Campsie,,,MILTON OF CAMPSIE,,,,0,,264854,676810,,,BCT,MKD,OTH,,,,121,2003-08-27T00:00:00,2023-12-12T15:02:54,0,,active
6110195,65423654,,,Baldoran Drive,,,,Baldoran Drive,,Campsie Road,,,,opp,,E,N0068157,Milton of Campsie,,,MILTON OF CAMPSIE,,,,0,,264945,676822,,,BCT,MKD,OTH,,,,121,2003-08-27T00:00:00,2023-12-12T15:02:54,0,,active
6110196,65423873,,,Birdston Road,,,,Birdston Road,,Campsie Road,,,,after,,NW,N0068157,Milton of Campsie,,,MILTON OF CAMPSIE,,,,1,,265112,676789,,,BCT,MKD,OTH,,,,121,2003-08-27T00:00:00,2023-12-12T15:02:54,0,,active
6110197,65423767,,,Birdston Road,,,,Birdston Road,,Campsie Road,,,,opp,,SE,N0068157,Milton of Campsie,,,MILTON OF CAMPSIE,,,,1,,265132,676793,,,BCT,MKD,OTH,,,,121,2003-08-27T00:00:00,2023-12-12T15:02:54,0,,active
6110199,65424232,,,Cairnview Road,,,,Cairnview Road,,Birdston Road,,,,opp,,S,N0068157,Milton of Campsie,,,MILTON OF CAMPSIE,,,,0,,265170,676410,,,BCT,MKD,OTH,,,,121,2003-08-27T00:00:00,2023-12-12T15:02:54,0,,active
61102,65424376,,,Rubislaw Drive,,,,Rubislaw Drive,,Canniesburn Road,,,,opp,,W,ES003830,Westerton,Bearsden,,BEARSDEN,,,,1,,254433,671171,,,BCT,MKD,OTH,,,,121,2003-08-27T00:00:00,2023-12-12T15:02:54,0,,active
611020,65424295,,,Maxwell Avenue,,,,No 143,,Maxwell Avenue,,,,At 143,,SE,ES000318,Bearsden,,,BEARSDEN,,,,0,,254411,670149,,,BCT,MKD,OTH,,,,121,2003-08-27T00:00:00,2023-12-12T15:02:54,0,,inactive
6110200,65423856,,,Glenburn Crescent,,,,Redmoss Road,,Birdston Road,,,,opp,,N,N0068157,Milton of Campsie,,,MILTON OF CAMPSIE,,,,1,,265192,676221,,,BCT,MKD,OTH,,,,121,2003-08-27T00:00:00,2023-12-12T15:02:54,0,,active
6110201,65423598,,,Kincaid Field,,,,Kincaid Field,,Birdston Road,,,,after,,SE,N0068157,Milton of Campsie,,,MILTON OF CAMPSIE,,,,1,,265238,676164,,,BCT,MKD,OTH,,,,121,2003-08-27T00:00:00,2023-12-12T15:02:54,0,,active
6110202,65423687,,,Birdston Road,,,,Lilyburn Care Home,,Birdston Road,,,,after 100,,NW,N0072841,Birdston,Milton of Campsie,,MILTON OF CAMPSIE,,,,1,,265407,675772,,,BCT,MKD,OTH,,,,121,2003-08-27T00:00:00,2023-12-12T15:02:54,0,,active
6110203,65423534,,,Birdston Road,,,,Lilyburn Care Home,,Birdston Road,,,,opp 100,,SE,N0072841,Birdston,Milton of Campsie,,MILTON OF CAMPSIE,,,,1,,265421,675765,,,BCT,MKD,OTH,,,,121,2003-08-27T00:00:00,2023-12-12T15:02:54,0,,active
6110204,65423484,,,Birdston House,,,,Birdstonbank Farm,,Birdston Road,,,,after,,N,N0072841,Birdston,Milton of Campsie,,MILTON OF CAMPSIE,,,,0,,265392,675444,,,BCT,MKD,OTH,,,,121,2003-08-27T00:00:00,2023-12-12T15:02:54,0,,active
6110205,65423965,,,Birdston Farm,,,,Birdston Farm,,Birdston Road,,,,opp,,S,N0072841,Birdston,Milton of Campsie,,MILTON OF CAMPSIE,,,,0,,265408,675340,,,BCT,MKD,OTH,,,,121,2003-08-27T00:00:00,2023-12-12T15:02:54,0,,active
6110206,65423474,,,Auchenreoch Holdings,,,,Kennels,,A803,,,,northbound,,NE,N0067992,Auchenreoch,,,AUCHENREOCH,,,,0,,267738,676732,,,BCT,MKD,OTH,,,,121,2003-08-27T00:00:00,2023-12-12T15:02:54,0,,active
6110207,65423287,,,Auchenreoch Holdings,,,,Kennels,,A803,,,,southbound,,SW,N0067992,Auchenreoch,,,AUCHENREOCH,,,,0,,267752,676726,,,BCT,MKD,OTH,,,,121,2003-08-27T00:00:00,2023-12-12T15:02:54,0,,active
6110208,65423583,,,Burnside Cottage,,,,A891,,A803,,,,before,,SW,N0067992,Auchenreoch,,,AUCHENREOCH,,,,0,,267390,676255,,,BCT,MKD,OTH,,,,121,2003-08-27T00:00:00,2023-12-12T15:02:54,0,,active
6110209,65424384,,,Burnside Cottage,,,,A891,,A803,,,,opp,,NE,N0067992,Auchenreoch,,,AUCHENREOCH,,,,0,,267347,676199,,,BCT,MKD,OTH,,,,121,2003-08-27T00:00:00,2023-12-12T15:02:54,0,,active
611021,65423925,,,Maxwell Avenue,,,,No 177,,Maxwell Avenue,,,,opp 177,,NW,ES000318,Bearsden,,,BEARSDEN,,,,0,,254558,670023,,,BCT,MKD,OTH,,,,121,2003-08-27T00:00:00,2023-12-12T15:02:54,0,,inactive
6110212,65423269,,,Main Street,,,,Main st,,Alexander Avenue,,,,before,,NE,ES003727,Twechar,,,TWECHAR,,,,0,,269936,675888,,,BCT,MKD,OTH,,,,121,2003-08-27T00:00:00,2023-12-12T15:02:54,0,,active
6110213,65423263,,,Main Street,,,,Main Street,,Alexander Avenue,,,,After,,SW,ES003727,Twechar,,,TWECHAR,,,,0,,269900,675830,,,BCT,MKD,OTH,,,,121,2003-08-27T00:00:00,2023-12-12T15:02:54,0,,active
6110214,65423843,,,Burnbrae,,,,Burnbrae,,Alexander Avenue,,,,before,,NE,ES003727,Twechar,,,TWECHAR,,,,0,,269686,675711,,,BCT,MKD,OTH,,,,121,2003-08-27T00:00:00,2023-12-12T15:02:54,0,,active
6110215,65423868,,,Burnbrae,,,,Burnbrae,,Alexander Avenue,,,,after,,SW,ES003727,Twechar,,,TWECHAR,,,,0,,269678,675695,,,BCT,MKD,OTH,,,,121,2003-08-27T00:00:00,2023-12-12T15:02:54,0,,active
6110216,65424262,,,Park Avenue,,,,No 27,,Alexander Avenue,,,,After,,SW,ES003727,Twechar,,,TWECHAR,,,,0,,269411,675555,,,BCT,MKD,OTH,,,,121,2003-08-27T00:00:00,2023-12-12T15:02:54,0,,active
6110217,65423643,,,Alexander Avenue,,,,No 59,,Alexander Avenue,,,,at 59,,E,ES003727,Twechar,,,TWECHAR,,,,0,,269326,675466,,,BCT,MKD,OTH,,,,121,2003-08-27T00:00:00,2023-12-12T15:02:54,0,,active
6110218,65423645,,,Park Avenue,,,,Park Avenue,,Alexander Avenue,,,,before,,NE,ES003727,Twechar,,,TWECHAR,,,,0,,269481,675499,,,BCT,MKD,OTH,,,,121,2003-08-27T00:00:00,2023-12-12T15:02:54,0,,active
6110219,65424529,,,Melrose Gardens,,,,Park Avenue,,Alexander Avenue,,,,opp,,SW,ES003727,Twechar,,,TWECHAR,,,,1,,269533,675599,,,BCT,MKD,OTH,,,,121,2003-08-27T00:00:00,2023-12-12T15:02:54,0,,active
611022,65423796,,,Maxwell Avenue,,,,No 195,,Maxwell Avenue,,,,at 195,,SE,ES000318,Bearsden,,,BEARSDEN,,,,0,,254654,669973,,,BCT,MKD,OTH,,,,121,2003-08-27T00:00:00,2023-12-12T15:02:54,0,,inactive
6110220,65424372,,,Alexander Avenue,,,,Alexander Avenue,,Main Street,,,,after,,SE,ES003727,Twechar,,,TWECHAR,,,,1,,269967,675904,,,BCT,MKD,OTH,,,,121,2003-08-27T00:00:00,2023-12-12T15:02:54,0,,active
6110221,65424362,,,Alexander Avenue,,,,Alexander Avenue,,Main Street,,,,before,,NW,ES003727,Twechar,,,TWECHAR,,,,1,,269981,675881,,,BCT,MKD,OTH,,,,121,2003-08-27T00:00:00,2023-12-12T15:02:54,0,,active
6110222,65423454,,,Barrhill Lane,,,,Quarry Inn,,Main Street,,,,after,,N,ES003727,Twechar,,,TWECHAR,,,,1,,270038,675646,,,BCT,MKD,OTH,,,,121,2003-08-27T00:00:00,2023-12-12T15:02:54,0,,active
6110223,65423242,,,War Memorial,,,,Quarry Inn,,Main Street,,,,after,,S,ES003727,Twechar,,,TWECHAR,,,,1,,270057,675610,,,BCT,MKD,OTH,,,,121,2003-08-27T00:00:00,2023-12-12T15:02:54,0,,active
6110224,65423432,,,Twechar Primary School,,,,Twechar Primary School,,Main Street,,,,Opp,,S,ES003727,Twechar,,,TWECHAR,,,,0,,270075,675215,,,BCT,MKD,OTH,,,,121,2003-08-27T00:00:00,2023-12-12T15:02:54,0,,active
6110225,65424278,,,Main Street,,,,Main Street,,MacDonald Crescent,,,,at,,E,ES003727,Twechar,,,TWECHAR,,,,1,,270084,675145,,,BCT,MKD,OTH,,,,121,2003-08-27T00:00:00,2023-12-12T15:02:54,0,,inactive
6110226,65423426,,,MacDonald Crescent,,,,Twechar Primary School,,MacDonald Crescent,,,,before 43,,SW,ES003727,Twechar,,,TWECHAR,,,,1,,269975,675099,,,BCT,MKD,OTH,,,,121,2003-08-27T00:00:00,2023-12-12T15:02:54,0,,active
6110227,65423686,,,Kelvin View,,,,Post Office,,MacDonald Crescent,,,,after,,NE,ES003727,Twechar,,,TWECHAR,,,,0,,269905,675084,,,BCT,MKD,OTH,,,,121,2003-08-27T00:00:00,2023-12-12T15:02:54,0,,active
6110228,65424375,,,Kelvin Terrace,,,,Kelvin Terrace,,Kelvin View,,,,before,,SW,ES003727,Twechar,,,TWECHAR,,,,0,,269689,675027,,,BCT,MKD,OTH,,,,121,2003-08-27T00:00:00,2023-12-12T15:02:54,0,,active
6110229,65423978,,,Westerboard Cottages,,,,Westerboard Cottages,,Twechar Road,,,,before,,SE,ES003727,Twechar,,,TWECHAR,,,,0,,270683,675009,,,BCT,MKD,OTH,,,,121,2003-08-27T00:00:00,2023-12-12T15:02:54,0,,inactive
611023,65423262,,,Henderland Road,,,,Equine Welfare Centre,,Switchback Road,,,,opp,,S,N0078785,Switchback,Bearsden,,BEARSDEN,,,,1,,254911,670090,,,BCT,MKD,OTH,,,,121,2003-08-27T00:00:00,2023-12-12T15:02:54,0,,active
6110230,65423865,,,Westerboard Cottages,,,,Westerboard Cottages,,Twechar Road,,,,opp,,NW,ES003727,Twechar,,,TWECHAR,,,,0,,270699,674988,,,BCT,MKD,OTH,,,,121,2003-08-27T00:00:00,2023-12-12T15:02:54,0,,inactive
6110231,65423494,,,Easterton,,,,Easterton,,Kirkintilloch Road,,,,before,,E,ES002189,Kirkintilloch,,,KIRKINTILLOCH,,,,0,,269702,674249,,,BCT,MKD,OTH,,,,121,2003-08-27T00:00:00,2023-12-12T15:02:54,0,,active
6110232,65423286,,,Waterside Road,,,,Waterside Road,,Bankhead Road,,,,before,,NW,N0068238,Waterside,Kirkintilloch,,KIRKINTILLOCH,,,,0,,267422,673505,,,BCT,MKD,OTH,,,,121,2003-08-27T00:00:00,2023-12-12T15:02:54,0,,active
6110233,65423535,,,Glenluggie Road,,,,Glenluggie Road,,Bankhead Road,,,,opp,,SE,N0068238,Waterside,Kirkintilloch,,KIRKINTILLOCH,,,,0,,267508,673361,,,BCT,MKD,OTH,,,,121,2003-08-27T00:00:00,2023-12-12T15:02:54,0,,active
6110234,65423756,,,Glenluggie Road,,,,Glenluggie Road,,Bankhead Road,,,,before,,NW,N0068238,Waterside,Kirkintilloch,,KIRKINTILLOCH,,,,0,,267515,673318,,,BCT,MKD,OTH,,,,121,2003-08-27T00:00:00,2023-12-12T15:02:54,0,,active
6110235,65423493,,,Back O'Dykes Road,,,,Back O'Dykes Rd,,Bankhead Road,,,,opp,,NW,N0068238,Waterside,Kirkintilloch,,KIRKINTILLOCH,,,,0,,267646,673208,,,BCT,MKD,OTH,,,,121,2003-08-27T00:00:00,2023-12-12T15:02:54,0,,active
6110236,65423564,,,Turning Circle,,,,Turning Circle,,Bankhead Road,,,,at,,NW,N0068238,Waterside,Kirkintilloch,,KIRKINTILLOCH,,,,0,,267808,673098,,,BCT,MKD,OTH,,,,121,2003-08-27T00:00:00,2023-12-12T15:02:54,0,,active
6110237,65423823,,,Gartconner Avenue,,,,Gartconner Avenue,,Waterside Road,,,,after,,NE,ES002189,Kirkintilloch,,,KIRKINTILLOCH,,,,0,,267744,673663,,,BCT,MKD,OTH,,,,121,2003-08-27T00:00:00,2023-12-12T15:02:54,0,,active
6110238,65423585,,,Gartconner Avenue,,,,Gartconner Avenue,,Waterside Road,,,,opp,,SW,ES002189,Kirkintilloch,,,KIRKINTILLOCH,,,,0,,267595,673604,,,BCT,MKD,OTH,,,,121,2003-08-27T00:00:00,2023-12-12T15:02:54,0,,active
6110239,65423764,,,Bankhead Road,,,,Bankhead Road,,Waterside Road,,,,opp,,NE,ES002189,Kirkintilloch,,,KIRKINTILLOCH,,,,0,,267330,673530,,,BCT,MKD,OTH,,,,121,2003-08-27T00:00:00,2023-12-12T15:02:54,0,,active
611024,65424274,,,Henderland Road,,,,Henderland Road,,Switchback Road,,,,after,,N,N0078785,Switchback,Bearsden,,BEARSDEN,,,,1,,254883,670102,,,BCT,MKD,OTH,,,,121,2003-08-27T00:00:00,2023-12-12T15:02:54,0,,active
6110240,65423536,,,Merkland Drive,,,,Merkland Drive,,Waterside Road,,,,at,,NE,ES002189,Kirkintilloch,,,KIRKINTILLOCH,,,,0,,267083,673429,,,BCT,MKD,OTH,,,,121,2003-08-27T00:00:00,2023-12-12T15:02:54,0,,active
6110241,65423496,,,Market Road,,,,Kirkintilloch High School,,Waterside Road,,,,before,,W,ES002189,Kirkintilloch,,,KIRKINTILLOCH,,,,0,,267035,673402,,,BCT,MKD,OTH,,,,121,2003-08-27T00:00:00,2023-12-12T15:02:54,0,,active
6110242,65424523,,,Market Road,,,,Kirkintilloch High School,,Waterside Road,,,,opp,,E,ES002189,Kirkintilloch,,,KIRKINTILLOCH,,,,0,,266942,673397,,,BCT,MKD,OTH,,,,121,2003-08-27T00:00:00,2023-12-12T15:02:54,0,,inactive
6110243,65423628,,,Lammermoor Road,,,,Oxgang Primary School,,Waterside Road,,,,opp,,W,ES002189,Kirkintilloch,,,KIRKINTILLOCH,,,,0,,266753,673440,,,BCT,MKD,OTH,,,,121,2003-08-27T00:00:00,2023-12-12T15:02:54,0,,active
6110244,65423786,,,Lammermoor Road,,,,Oxgang Primary School,,Waterside Road,,,,after,,SE,ES002189,Kirkintilloch,,,KIRKINTILLOCH,,,,0,,266745,673460,,,BCT,MKD,OTH,,,,121,2003-08-27T00:00:00,2023-12-12T15:02:54,0,,active
6110245,65423523,,,Old Aisle Road,,,,Old Aisle Road,,Waterside Road,,,,opp,,NE,ES002189,Kirkintilloch,,,KIRKINTILLOCH,,,,0,,266483,673365,,,BCT,MKD,OTH,,,,121,2003-08-27T00:00:00,2023-12-12T15:02:54,0,,active
6110246,65424269,,,Old Aisle Road,,,,Old Aisle Road,,Waterside Road,,,,after,,W,ES002189,Kirkintilloch,,,KIRKINTILLOCH,,,,0,,266462,673349,,,BCT,MKD,OTH,,,,121,2003-08-27T00:00:00,2023-12-12T15:02:54,0,,active
6110247,65423237,,,Kirksyde Avenue,,,,Kirksyde Avenue,,Waterside Road,,,,before,,W,ES002189,Kirkintilloch,,,KIRKINTILLOCH,,,,0,,266305,673353,,,BCT,MKD,OTH,,,,121,2003-08-27T00:00:00,2023-12-12T15:02:54,0,,active
6110248,65423769,,,Kirksyde Avenue,,,,Kirksyde Avenue,,Waterside Road,,,,opp,,E,ES002189,Kirkintilloch,,,KIRKINTILLOCH,,,,0,,266212,673373,,,BCT,MKD,OTH,,,,121,2003-08-27T00:00:00,2023-12-12T15:02:54,0,,active
6110249,65423568,,,Bothlyn Avenue,,,,Bothlyn Avenue,,Waterside Road,,,,after,,W,ES002189,Kirkintilloch,,,KIRKINTILLOCH,,,,0,,266136,673359,,,BCT,MKD,OTH,,,,121,2003-08-27T00:00:00,2023-12-12T15:02:54,0,,active
611025,65423293,,,Home Farm,,,,Ascog Road,,Switchback Road,,,,opp,,N,N0078785,Switchback,Bearsden,,BEARSDEN,,,,1,,254745,670540,,,BCT,MKD,OTH,,,,121,2003-08-27T00:00:00,2023-12-12T15:02:54,0,,active
6110250,65423235,,,Loch Road,,,,Loch Road,,Waterside Road,,,,at,,NW,ES002189,Kirkintilloch,,,KIRKINTILLOCH,,,,0,,265953,673376,,,BCT,MKD,OTH,,,,121,2003-08-27T00:00:00,2023-12-12T15:02:54,0,,inactive
6110251,65423574,,,Woodhead Avenue,,,,Loch Road,,New Lairdsland Road,,,,opp,,SE,ES002189,Kirkintilloch,,,KIRKINTILLOCH,,,,0,,265830,673451,,,BCT,MKD,OTH,,,,121,2003-08-27T00:00:00,2023-12-12T15:02:54,0,,active
6110252,65423249,,,Woodhead Avenue,,,,Loch Road,,New Lairdsland Road,,,,at,,NW,ES002189,Kirkintilloch,,,KIRKINTILLOCH,,,,0,,265860,673409,,,BCT,MKD,OTH,,,,121,2003-08-27T00:00:00,2023-12-12T15:02:54,0,,active
6110253,65424383,,,Lithgow Avenue,,,,Lithgow Avenue,,Loch Road,,,,before,,S,ES002189,Kirkintilloch,,,KIRKINTILLOCH,,,,0,,265956,673312,,,BCT,MKD,OTH,,,,121,2003-08-27T00:00:00,2023-12-12T15:02:54,0,,active
6110254,65423739,,,Lithgow Avenue,,,,Lithgow Avenue,,Loch Road,,,,opp,,N,ES002189,Kirkintilloch,,,KIRKINTILLOCH,,,,0,,265950,673293,,,BCT,MKD,OTH,,,,121,2003-08-27T00:00:00,2023-12-12T15:02:54,0,,active
6110255,65423595,,,Woodilee Road,,,,No 78,,Loch Road,,,,after,,W,ES002189,Kirkintilloch,,,KIRKINTILLOCH,,,,0,,266089,673110,,,BCT,MKD,OTH,,,,121,2003-08-27T00:00:00,2023-12-12T15:02:54,0,,active
6110256,65423724,,,Woodilee Industrial Estate,,,,Woodilee Industrial Estate,,Woodilee Road,,,,Southbound,,S,ES002189,Kirkintilloch,,,KIRKINTILLOCH,,,,0,,266243,672931,,,BCT,MKD,OTH,,,,121,2003-08-27T00:00:00,2023-12-12T15:02:54,0,,active
6110257,65423658,,,Woodilee Industrial Estate,,,,Woodilee Industrial Estate,,Woodilee Road,,,,Northbound,,N,ES002189,Kirkintilloch,,,KIRKINTILLOCH,,,,0,,266212,673000,,,BCT,MKD,OTH,,,,121,2003-08-27T00:00:00,2023-12-12T15:02:54,0,,active
6110258,65424298,,,Woodilee Cottages,,,,Woodilee Cottages,,Woodilee Road,,,,at,,S,ES002189,Kirkintilloch,,,KIRKINTILLOCH,,,,0,,266325,672695,,,BCT,MKD,OTH,,,,121,2003-08-27T00:00:00,2023-12-12T15:02:54,0,,inactive
6110259,65423923,,,Woodilee Cottages,,,,Woodilee Cottages,,Woodilee Road,,,,opp,,N,ES002189,Kirkintilloch,,,KIRKINTILLOCH,,,,0,,266328,672659,,,BCT,MKD,OTH,,,,121,2003-08-27T00:00:00,2023-12-12T15:02:54,0,,inactive
611026,65423469,,,Home Farm,,,,Braemar Crescent,,Switchback Road,,,,before,,S,N0078785,Switchback,Bearsden,,BEARSDEN,,,,1,,254779,670530,,,BCT,MKD,OTH,,,,121,2003-08-27T00:00:00,2023-12-12T15:02:54,0,,active
6110260,65423543,,,Larkfield Road,,,,Woodilee Hospital,,Woodilee Road,,,,after,,NE,ES002326,Lenzie,Kirkintilloch,,LENZIE,,,,0,,266195,672363,,,BCT,MKD,OTH,,,,121,2003-08-27T00:00:00,2023-12-12T15:02:54,0,,active
6110265,65423945,,,Cyprian Drive,,,,Crosshill Road,,Auchinloch Road,,,,opp,,NW,ES002326,Lenzie,Kirkintilloch,,KIRKINTILLOCH,,,,1,,265893,671144,,,BCT,MKD,OTH,,,,121,2003-08-27T00:00:00,2023-12-12T15:02:54,0,,active
6110266,65423625,,,Crosshill Road,,,,Crosshill Road,,Auchinloch Road,,,,after,,N,ES002326,Lenzie,Kirkintilloch,,LENZIE,,,,1,,265834,671285,,,BCT,MKD,OTH,,,,121,2003-08-27T00:00:00,2023-12-12T15:02:54,0,,active
6110267,65423989,,,Millersneuk Avenue,,,,Millersneuk Avenue,,Auchinloch Road,,,,after,,S,ES002326,Lenzie,Kirkintilloch,,LENZIE,,,,1,,265851,671283,,,BCT,MKD,OTH,,,,121,2003-08-27T00:00:00,2023-12-12T15:02:54,0,,active
6110268,65423827,,,Lindsaybeg Road,,,,Gillespie Garage,,Auchinloch Road,,,,opp,,NW,ES002326,Lenzie,Kirkintilloch,,LENZIE,,,,1,,265702,671546,,,BCT,MKD,OTH,,,,121,2003-08-27T00:00:00,2023-12-12T15:02:54,0,,active
6110269,65424346,,,Glenhead Road,,,,Glenhead Road,,Auchinloch Road,,,,after,,SE,ES002326,Lenzie,Kirkintilloch,,LENZIE,,,,1,,265665,671608,,,BCT,MKD,OTH,,,,121,2003-08-27T00:00:00,2023-12-12T15:02:54,0,,active
611027,65424247,,,Canniesburn Drive,,,,Canniesburn Toll,,Switchback Road,,,,after,,NE,N0078781,Canniesburn,Bearsden,,BEARSDEN,,,,1,,254755,670885,,,BCT,MKD,OTH,,,,121,2003-08-27T00:00:00,2023-12-12T15:02:54,0,,active
6110270,65424273,,,Millersneuk Road,,,,Millersneuk Road,,Auchinloch Road,,,,after,,S,ES002326,Lenzie,Kirkintilloch,,LENZIE,,,,1,,265615,671850,,,BCT,MKD,OTH,,,,121,2003-08-27T00:00:00,2023-12-12T15:02:54,0,,active
6110271,65423589,,,Lenzie Railway Station,,,,Lenzie Railway station,,Kirkintilloch Road,,,,at,,NE,ES002326,Lenzie,Kirkintilloch,,KIRKINTILLOCH,,,,1,,265491,671912,,,BCT,MKD,OTH,,,,121,2003-08-27T00:00:00,2023-12-12T15:02:54,0,,inactive
6110272,65423459,,,Heath Avenue,,,,Heath Avenue,,Kirkintilloch Road,,,,after,,NW,ES002326,Lenzie,Kirkintilloch,,LENZIE,,,,1,,265441,672050,,,BCT,MKD,OTH,,,,121,2003-08-27T00:00:00,2023-12-12T15:02:54,0,,active
6110273,65423252,,,Moncrieff Avenue,,,,Moncrieff Avenue,,Kirkintilloch Road,,,,after,,SE,ES002326,Lenzie,Kirkintilloch,,LENZIE,,,,1,,265434,672094,,,BCT,MKD,OTH,,,,121,2003-08-27T00:00:00,2023-12-12T15:02:54,0,,active
6110274,65423296,,,Lenzie Primary School,,,,Hawthorn Avenue,,Kirkintilloch Road,,,,Near,,N,ES002326,Lenzie,Kirkintilloch,,KIRKINTILLOCH,,,,1,,265382,672166,,,BCT,MKD,OTH,,,,121,2003-08-27T00:00:00,2023-12-12T15:02:54,0,,inactive
6110275,65423857,,,Cedar Drive,,,,Cedar Drive,,Kirkintilloch Road,,,,before,,SE,ES002326,Lenzie,Kirkintilloch,,LENZIE,,,,1,,265354,672250,,,BCT,MKD,OTH,,,,121,2003-08-27T00:00:00,2023-12-12T15:02:54,0,,active
6110276,65423472,,,Myrtle Avenue,,,,Myrtle Avenue,,Kirkintilloch Road,,,,before,,N,ES002326,Lenzie,Kirkintilloch,,LENZIE,,,,1,,265326,672317,,,BCT,MKD,OTH,,,,121,2003-08-27T00:00:00,2023-12-12T15:02:54,0,,active
6110277,65423298,,,Beech Road,,,,Beech Road,,Kirkintilloch Road,,,,opp,,SW,ES002326,Lenzie,Kirkintilloch,,LENZIE,,,,1,,265402,672462,,,BCT,MKD,OTH,,,,121,2003-08-27T00:00:00,2023-12-12T15:02:54,0,,active
6110278,65423545,,,Beech Road,,,,Beech Road,,Kirkintilloch Road,,,,after,,NE,ES002326,Lenzie,Kirkintilloch,,LENZIE,,,,1,,265380,672462,,,BCT,MKD,OTH,,,,121,2003-08-27T00:00:00,2023-12-12T15:02:54,0,,active
6110279,65424245,,,Laurel Avenue,,,,Laurel Avenue,,Kirkintilloch Road,,,,before,,S,ES002326,Lenzie,Kirkintilloch,,LENZIE,,,,1,,265540,672665,,,BCT,MKD,OTH,,,,121,2003-08-27T00:00:00,2023-12-12T15:02:54,0,,active
611028,65423653,,,Canniesburn Drive,,,,Canniesburn Drive,,Switchback Road,,,,opp,,SW,N0078781,Canniesburn,Bearsden,,BEARSDEN,,,,1,,254763,670842,,,BCT,MKD,OTH,,,,121,2003-08-27T00:00:00,2023-12-12T15:02:54,0,,active
6110280,65423847,,,Laurel Avenue,,,,Laurel Avenue,,Kirkintilloch Road,,,,opp,,N,ES002326,Lenzie,Kirkintilloch,,LENZIE,,,,1,,265542,672713,,,BCT,MKD,OTH,,,,121,2003-08-27T00:00:00,2023-12-12T15:02:54,0,,active
6110281,65423696,,,Marguerite Avenue,,,,Marguerite Avenue,,Gallowhill Road,,,,before,,SW,N0072845,High Gallowhill,Kirkintilloch,,KIRKINTILLOCH,,,,0,,265437,672950,,,BCT,MKD,OTH,,,,121,2003-08-27T00:00:00,2023-12-12T15:02:54,0,,active
6110282,65423892,,,Marguerite Avenue,,,,Westergreens Avenue,,Gallowhill Road,,,,opp,,NE,N0072845,High Gallowhill,Kirkintilloch,,KIRKINTILLOCH,,,,0,,265402,672944,,,BCT,MKD,OTH,,,,121,2003-08-27T00:00:00,2023-12-12T15:02:54,0,,active
6110283,65423762,,,Elm Avenue,,,,Elm Avenue,,Gallowhill Road,,,,opp,,NE,N0072845,High Gallowhill,Kirkintilloch,,KIRKINTILLOCH,,,,0,,265192,672837,,,BCT,MKD,OTH,,,,121,2003-08-27T00:00:00,2023-12-12T15:02:54,0,,active
6110284,65423282,,,Elm Avenue,,,,Elm Avenue,,Gallowhill Road,,,,before,,SW,N0072845,High Gallowhill,Kirkintilloch,,KIRKINTILLOCH,,,,0,,265185,672825,,,BCT,MKD,OTH,,,,121,2003-08-27T00:00:00,2023-12-12T15:02:54,0,,active
6110285,65423932,,,Moss Road,,,,Moss Road,,Boghead Road,,,,after,,SW,N0072845,High Gallowhill,Kirkintilloch,,KIRKINTILLOCH,,,,0,,264915,672676,,,BCT,MKD,OTH,,,,121,2003-08-27T00:00:00,2023-12-12T15:02:54,0,,active
6110286,65424387,,,Cypress Court,,,,Cypress Court,,Boghead Road,,,,opp,,NE,N0072845,High Gallowhill,Kirkintilloch,,KIRKINTILLOCH,,,,0,,264828,672654,,,BCT,MKD,OTH,,,,121,2003-08-27T00:00:00,2023-12-12T15:02:54,0,,active
6110287,65423649,,,Broom Gardens,,,,Broom Gardens,,Boghead Road,,,,before,,NE,N0072845,High Gallowhill,Kirkintilloch,,KIRKINTILLOCH,,,,0,,264675,672484,,,BCT,MKD,OTH,,,,121,2003-08-27T00:00:00,2023-12-12T15:02:54,0,,active
6110288,65423974,,,Boghead Road,,,,No 53,,Boghead Road,,,,at 53,,SW,N0072845,High Gallowhill,Kirkintilloch,,KIRKINTILLOCH,,,,0,,264603,672413,,,BCT,MKD,OTH,,,,121,2003-08-27T00:00:00,2023-12-12T15:02:54,0,,active
6110289,65423569,,,Spruce Drive,,,,Spruce Road,,Boghead Road,,,,opp,,NE,N0072845,High Gallowhill,Kirkintilloch,,KIRKINTILLOCH,,,,0,,264302,672235,,,BCT,MKD,OTH,,,,121,2003-08-27T00:00:00,2023-12-12T15:02:54,0,,active
611029,65423826,,,Horseshoe Road,,,,Horseshoe Road,,Roman Road,,,,at,,E,ES000318,Bearsden,,,BEARSDEN,,,,0,,254388,672080,,,BCT,MKD,OTH,,,,121,2003-08-27T00:00:00,2023-12-12T15:02:54,0,,inactive
6110290,65423942,,,Glenwood Road,,,,Glenwood Road,,Boghead Road,,,,opp,,S,N0072845,High Gallowhill,Kirkintilloch,,KIRKINTILLOCH,,,,0,,264265,672120,,,BCT,MKD,OTH,,,,121,2003-08-27T00:00:00,2023-12-12T15:02:54,0,,active
6110293,65423782,,,Cherry Bank,,,,Cherry Bank,,Oak Drive,,,,Near,,W,ES002326,Lenzie,Kirkintilloch,,KIRKINTILLOCH,,,,0,,264555,672303,,,BCT,MKD,OTH,,,,121,2003-08-27T00:00:00,2023-12-12T15:02:54,0,,inactive
6110296,65423787,,,Juniper Court,,,,Juniper Court,,Oak Drive,,,,Near,,SW,ES002326,Lenzie,Kirkintilloch,,KIRKINTILLOCH,,,,0,,264685,672386,,,BCT,MKD,OTH,,,,121,2003-08-27T00:00:00,2023-12-12T15:02:54,0,,inactive
6110297,65423428,,,Chestnut Drive,,,,Chestnut Drive,,Alder Avenue,,,,at,,NE,ES002326,Lenzie,Kirkintilloch,,KIRKINTILLOCH,,,,0,,264938,672520,,,BCT,MKD,OTH,,,,121,2003-08-27T00:00:00,2023-12-12T15:02:54,0,,inactive
6110298,65423476,,,Chestnut Drive,,,,Chestnut Drive,,Alder Avenue,,,,opp,,SW,ES002326,Lenzie,Kirkintilloch,,KIRKINTILLOCH,,,,0,,264967,672525,,,BCT,MKD,OTH,,,,121,2003-08-27T00:00:00,2023-12-12T15:02:54,0,,inactive
6110299,65423758,,,Westergreens Avenue,,,,No 123,,Westergreens Avenue,,,,at 123,,NE,N0072845,High Gallowhill,Kirkintilloch,,KIRKINTILLOCH,,,,0,,264957,672955,,,BCT,MKD,OTH,,,,121,2003-08-27T00:00:00,2023-12-12T15:02:54,0,,inactive
61103,65424238,,,Rubislaw Drive,,,,Rubislaw Drive,,Canniesburn Road,,,,before,,E,ES003830,Westerton,Bearsden,,BEARSDEN,,,,1,,254391,671176,,,BCT,MKD,OTH,,,,121,2003-08-27T00:00:00,2023-12-12T15:02:54,0,,active
611030,65424263,,,Roman Court,,,,Grange Road,,Roman Road,,,,at,,W,ES000318,Bearsden,,,BEARSDEN,,,,0,,254584,672066,,,BCT,MKD,OTH,,,,121,2003-08-27T00:00:00,2023-12-12T15:02:54,0,,inactive
6110300,65423928,,,The Greens,,,,Parkburn Avenue,,Scotsblair Avenue,,,,at,,W,ES002326,Lenzie,Kirkintilloch,,KIRKINTILLOCH,,,,0,,265129,673020,,,BCT,MKD,OTH,,,,121,2003-08-27T00:00:00,2023-12-12T15:02:54,0,,inactive
6110301,65423425,,,Monkland Avenue,,,,Council Offices,,Lenzie Road,,,,before,,S,ES002189,Kirkintilloch,,,KIRKINTILLOCH,,,,1,,265560,673120,,,BCT,MKD,OTH,,,,121,2003-08-27T00:00:00,2023-12-12T15:02:54,0,,active
6110302,65423565,,,Civic Way,,,,Council Offices,,Lenzie Road,,,,After,,N,ES002189,Kirkintilloch,,,KIRKINTILLOCH,,,,1,,265544,673194,,,BCT,MKD,OTH,,,,121,2003-08-27T00:00:00,2023-12-12T15:02:54,0,,active
6110303,65423483,,,Eastergreens Avenue,,,,Eastergreens Avenue,,Lenzie Road,,,,opp,,S,ES002189,Kirkintilloch,,,KIRKINTILLOCH,,,,1,,265568,673352,,,BCT,MKD,OTH,,,,121,2003-08-27T00:00:00,2023-12-12T15:02:54,0,,active
6110304,65423639,,,Donaldson Place,,,,Donaldson Place,,Townhead,,,,after,,NE,ES002189,Kirkintilloch,,,KIRKINTILLOCH,,,,1,,265599,673475,,,BCT,MKD,OTH,,,,121,2003-08-27T00:00:00,2023-12-12T15:02:54,0,,active
6110305,65424286,,,Freeland Place,,,,Freeland Place,,Townhead,,,,after,,SE,ES002189,Kirkintilloch,,,KIRKINTILLOCH,,,,1,,265595,673658,,,BCT,MKD,OTH,,,,121,2003-08-27T00:00:00,2023-12-12T15:02:54,0,,active
6110306,65423763,,,Freeland Place,,,,Freeland Place,,Townhead,,,,opp,,NW,ES002189,Kirkintilloch,,,KIRKINTILLOCH,,,,1,,265552,673692,,,BCT,MKD,OTH,,,,121,2003-08-27T00:00:00,2023-12-12T15:02:54,0,,active
6110307,65423929,,,Alexandra Street,,,,Alexandra Street,,Cowgate,,,,after,,NW,ES002189,Kirkintilloch,,,KIRKINTILLOCH,,,,1,,265450,673855,,,BCT,MKD,OTH,,,,121,2003-08-27T00:00:00,2023-12-12T15:02:54,0,,active
6110308,65423624,,,Catherine Street,,,,Catherine Street,,Cowgate,,,,before,,SE,ES002189,Kirkintilloch,,,KIRKINTILLOCH,,,,1,,265404,673930,,,BCT,MKD,OTH,,,,121,2003-08-27T00:00:00,2023-12-12T15:02:54,0,,active
6110309,65423634,,,West High Street,,,,West High St,,Cowgate,,,,before,,NW,ES002189,Kirkintilloch,,,KIRKINTILLOCH,,,,1,,265268,674066,,,BCT,MKD,OTH,,,,121,2003-08-27T00:00:00,2023-12-12T15:02:54,0,,active
611031,65423436,,,Roman Avenue,,,,Roman Avenue,,Roman Road,,,,at,,E,ES000318,Bearsden,,,BEARSDEN,,,,0,,254842,672079,,,BCT,MKD,OTH,,,,121,2003-08-27T00:00:00,2023-12-12T15:02:54,0,,inactive
6110311,65423829,,,Kelvin Court,,,,Kelvin Court,,West High Street,,,,after,,E,ES002189,Kirkintilloch,,,KIRKINTILLOCH,,,,1,,265169,674120,,,BCT,MKD,OTH,,,,121,2003-08-27T00:00:00,2023-12-12T15:02:54,0,,active
6110314,65423943,,,Rochdale Place,,,,Rochdale Place,,Catherine Street,,,,after,,SW,ES002189,Kirkintilloch,,,KIRKINTILLOCH,,,,1,,265467,673928,,,BCT,MKD,OTH,,,,121,2003-08-27T00:00:00,2023-12-12T15:02:54,0,,active
6110315,65423749,,,Broadcroft Road,,,,Broadcroft Road,,New Lairdsland Road,,,,opp,,NW,ES002189,Kirkintilloch,,,KIRKINTILLOCH,,,,1,,265379,674040,,,BCT,MKD,OTH,,,,121,2003-08-27T00:00:00,2023-12-12T15:02:54,0,,active
6110316,65424265,,,Broadcroft Road,,,,Broadcroft Road,,New Lairdsland Road,,,,Before,,SE,ES002189,Kirkintilloch,,,KIRKINTILLOCH,,,,1,,265350,674087,,,BCT,MKD,OTH,,,,121,2003-08-27T00:00:00,2023-12-12T15:02:54,0,,active
6110317,65424374,,,High Street,,,,High Street,,New Lairdsland Road,,,,opp,,NW,ES002189,Kirkintilloch,,,KIRKINTILLOCH,,,,1,,265291,674180,,,BCT,MKD,OTH,,,,121,2003-08-27T00:00:00,2023-12-12T15:02:54,0,,active
6110318,65424389,,,High Street,,,,High Street,,New Lairdsland Road,,,,before,,SE,ES002189,Kirkintilloch,,,KIRKINTILLOCH,,,,1,,265310,674184,,,BCT,MKD,OTH,,,,121,2003-08-27T00:00:00,2023-12-12T15:02:54,0,,active
6110319,65423295,,,Turret Theatre,,,,Turret Theatre,,Eastside,,,,opp,,W,ES002189,Kirkintilloch,,,KIRKINTILLOCH,,,,1,,265511,674178,,,BCT,MKD,OTH,,,,121,2003-08-27T00:00:00,2023-12-12T15:02:54,0,,active
611032,65423549,,,Roman Avenue,,,,Roman Avenue,,Roman Road,,,,opp,,SW,N0078782,Hillfoot,Bearsden,,BEARSDEN,,,,0,,254859,672072,,,BCT,MKD,OTH,,,,121,2003-08-27T00:00:00,2023-12-12T15:02:54,0,,inactive
6110320,65423752,,,Ledgate,,,,at Ledgate,,Eastside,,,,after,,E,ES002189,Kirkintilloch,,,KIRKINTILLOCH,,,,1,,265584,674208,,,BCT,MKD,OTH,,,,121,2003-08-27T00:00:00,2023-12-12T15:02:54,0,,active
6110321,65423684,,,Hopkins Brae,,,,Hopkins Brae,,Eastside,,,,before,,W,ES002189,Kirkintilloch,,,KIRKINTILLOCH,,,,1,,265744,674236,,,BCT,MKD,OTH,,,,121,2003-08-27T00:00:00,2023-12-12T15:02:54,0,,active
6110322,65423267,,,Kelvinvale,,,,Kelvinvale,,Kilsyth Road,,,,after,,NE,ES002189,Kirkintilloch,,,KIRKINTILLOCH,,,,0,,265936,674370,,,BCT,MKD,OTH,,,,121,2003-08-27T00:00:00,2023-12-12T15:02:54,0,,inactive
6110323,65423596,,,Kelvinvale,,,,Kelvin Bank House,,Kilsyth Road,,,,before,,SW,ES002189,Kirkintilloch,,,KIRKINTILLOCH,,,,0,,265893,674334,,,BCT,MKD,OTH,,,,121,2003-08-27T00:00:00,2023-12-12T15:02:54,0,,active
6110324,65423636,,,Kilsyth Road,,,,No 38,,Kilsyth Road,,,,at 38,,SW,ES002189,Kirkintilloch,,,KIRKINTILLOCH,,,,0,,266224,674500,,,BCT,MKD,OTH,,,,121,2003-08-27T00:00:00,2023-12-12T15:02:54,0,,active
6110325,65423437,,,Kilsyth Road,,,,No 44,,Kilsyth Road,,,,opp 44,,NE,ES002189,Kirkintilloch,,,KIRKINTILLOCH,,,,0,,266242,674524,,,BCT,MKD,OTH,,,,121,2003-08-27T00:00:00,2023-12-12T15:02:54,0,,active
6110326,65423874,,,Arran Drive,,,,Arran Drive,,Kilsyth Road,,,,after,,SW,ES002189,Kirkintilloch,,,KIRKINTILLOCH,,,,0,,266374,674595,,,BCT,MKD,OTH,,,,121,2003-08-27T00:00:00,2023-12-12T15:02:54,0,,active
6110327,65424253,,,Arran Drive,,,,Arran Drive,,Kilsyth Road,,,,opp,,NE,ES002189,Kirkintilloch,,,KIRKINTILLOCH,,,,0,,266392,674617,,,BCT,MKD,OTH,,,,121,2003-08-27T00:00:00,2023-12-12T15:02:54,0,,active
6110328,65423479,,,John Street,,,,John Street,,Hillhead Road,,,,opp,,E,ES002189,Kirkintilloch,,,KIRKINTILLOCH,,,,1,,265828,674190,,,BCT,MKD,OTH,,,,121,2003-08-27T00:00:00,2023-12-12T15:02:54,0,,active
6110329,65423939,,,John Street,,,,John Street,,Hillhead Road,,,,before,,W,ES002189,Kirkintilloch,,,KIRKINTILLOCH,,,,1,,265854,674185,,,BCT,MKD,OTH,,,,121,2003-08-27T00:00:00,2023-12-12T15:02:54,0,,active
611033,65424526,,,Hillfoot Station,,,,Roman Drive,,Milngavie Road,,,,opp,,NE,N0078782,Hillfoot,Bearsden,,BEARSDEN,,,,1,,255075,672138,,,BCT,MKD,OTH,,,,121,2003-08-27T00:00:00,2023-12-12T15:02:54,0,,active
6110330,65423587,,,Redbrae Road,,,,Redbrae Road,,Hillhead Road,,,,opp,,E,ES002189,Kirkintilloch,,,KIRKINTILLOCH,,,,1,,265960,674206,,,BCT,MKD,OTH,,,,121,2003-08-27T00:00:00,2023-12-12T15:02:54,0,,active
6110331,65424342,,,Cleddans Road,,,,Cleddans Road,,Hillhead Road,,,,after,,W,ES002189,Kirkintilloch,,,KIRKINTILLOCH,,,,1,,266079,674216,,,BCT,MKD,OTH,,,,121,2003-08-27T00:00:00,2023-12-12T15:02:54,0,,active
6110332,65423524,,,Shells Road,,,,Shells Road,,Hillhead Road,,,,before,,W,ES002189,Kirkintilloch,,,KIRKINTILLOCH,,,,1,,266370,674243,,,BCT,MKD,OTH,,,,121,2003-08-27T00:00:00,2023-12-12T15:02:54,0,,active
6110334,65423283,,,Langmuir Avenue,,,,Langmuir Avenue,,Hillhead Road,,,,after,,E,ES002189,Kirkintilloch,,,KIRKINTILLOCH,,,,1,,266586,674269,,,BCT,MKD,OTH,,,,121,2003-08-27T00:00:00,2023-12-12T15:02:54,0,,active
6110335,65423245,,,Langmuir Avenue,,,,Langmuir Avenue,,Hillhead Road,,,,opp,,W,ES002189,Kirkintilloch,,,KIRKINTILLOCH,,,,1,,266606,674262,,,BCT,MKD,OTH,,,,121,2003-08-27T00:00:00,2023-12-12T15:02:54,0,,active
6110336,65423729,,,Fellsview Avenue,,,,Newdyke Road,,Hillhead Road,,,,opp,,W,ES002189,Kirkintilloch,,,KIRKINTILLOCH,,,,0,,266738,674246,,,BCT,MKD,OTH,,,,121,2003-08-27T00:00:00,2023-12-12T15:02:54,0,,active
6110337,65423958,,,Alloway Drive,,,,Alloway Drive,,Langmuir Road,,,,before,,E,ES002189,Kirkintilloch,,,KIRKINTILLOCH,,,,0,,266886,674238,,,BCT,MKD,OTH,,,,121,2003-08-27T00:00:00,2023-12-12T15:02:54,0,,active
6110338,65423745,,,Merkland Drive,,,,Merkland Drive,,Langmuir Road,,,,after,,W,ES002189,Kirkintilloch,,,KIRKINTILLOCH,,,,0,,266969,674232,,,BCT,MKD,OTH,,,,121,2003-08-27T00:00:00,2023-12-12T15:02:54,0,,active
611034,65423529,,,Hillfoot Station,,,,Roman Drive,,Milngavie Road,,,,at,,SW,N0078782,Hillfoot,Bearsden,,BEARSDEN,,,,1,,255101,672137,,,BCT,MKD,OTH,,,,121,2003-08-27T00:00:00,2023-12-12T15:02:54,0,,active
6110345,65423597,,,Alloway Drive,,,,Alloway Drive,,Ellisland Drive,,,,after,,E,ES001718,Harestanes,Kirkintilloch,,KIRKINTILLOCH,,,,0,,267377,674692,,,BCT,MKD,OTH,,,,121,2003-08-27T00:00:00,2023-12-12T15:02:54,0,,active
6110346,65423424,,,Kingsway,,,,Kingsway,,Ellisland Drive,,,,opp,,E,ES001718,Harestanes,Kirkintilloch,,KIRKINTILLOCH,,,,0,,267515,674711,,,BCT,MKD,OTH,,,,121,2003-08-27T00:00:00,2023-12-12T15:02:54,0,,active
6110347,65424256,,,Ellisland Terminus,,,,Turning Circle,,Ellisland Drive,,,,at,,W,ES001718,Harestanes,Kirkintilloch,,KIRKINTILLOCH,,,,0,,267831,674738,,,BCT,MKD,OTH,,,,121,2003-08-27T00:00:00,2023-12-12T15:02:54,0,,active
6110348,65423783,,,Drumhill,,,,Drumhill,,Ellisland Drive,,,,after,,W,ES001718,Harestanes,Kirkintilloch,,KIRKINTILLOCH,,,,0,,267661,674720,,,BCT,MKD,OTH,,,,121,2003-08-27T00:00:00,2023-12-12T15:02:54,0,,active
6110349,65423427,,,Kingsway,,,,Kingsway,,Ellisland Drive,,,,after,,W,ES001718,Harestanes,Kirkintilloch,,KIRKINTILLOCH,,,,0,,267483,674691,,,BCT,MKD,OTH,,,,121,2003-08-27T00:00:00,2023-12-12T15:02:54,0,,active
611035,65423832,,,West Chapelton Drive,,,,West Chapelton Drive,,Milngavie Road,,,,after,,N,N0078782,Hillfoot,Bearsden,,BEARSDEN,,,,1,,254974,671844,,,BCT,MKD,OTH,,,,121,2003-08-27T00:00:00,2023-12-12T15:02:54,0,,active
6110350,65423632,,,Carrick Court,,,,Carrick Court,,Alloway Drive,,,,opp,,S,ES001718,Harestanes,Kirkintilloch,,KIRKINTILLOCH,,,,0,,267330,674618,,,BCT,MKD,OTH,,,,121,2003-08-27T00:00:00,2023-12-12T15:02:54,0,,active
6110351,65423794,,,Carrick Court,,,,Carrick Court,,Alloway Drive,,,,before,,N,ES001718,Harestanes,Kirkintilloch,,KIRKINTILLOCH,,,,0,,267320,674623,,,BCT,MKD,OTH,,,,121,2003-08-27T00:00:00,2023-12-12T15:02:54,0,,active
6110352,65423898,,,Armour Court,,,,Armour Drive,,Burns Road,,,,opp,,NE,ES001718,Harestanes,Kirkintilloch,,KIRKINTILLOCH,,,,0,,267257,674441,,,BCT,MKD,OTH,,,,121,2003-08-27T00:00:00,2023-12-12T15:02:54,0,,active
6110353,65423475,,,Burns Drive,,,,Armour Drive,,Burns Road,,,,before,,SW,ES001718,Harestanes,Kirkintilloch,,KIRKINTILLOCH,,,,0,,267220,674415,,,BCT,MKD,OTH,,,,121,2003-08-27T00:00:00,2023-12-12T15:02:54,0,,active
6110354,65423949,,,Alloway Quadrant,,,,Alloway Quadrant,,Burns Road,,,,opp,,E,ES001718,Harestanes,Kirkintilloch,,KIRKINTILLOCH,,,,0,,267003,674321,,,BCT,MKD,OTH,,,,121,2003-08-27T00:00:00,2023-12-12T15:02:54,0,,active
6110355,65423747,,,Alloway Quadrant,,,,Alloway Quadrant,,Burns Road,,,,after,,W,ES001718,Harestanes,Kirkintilloch,,KIRKINTILLOCH,,,,0,,267000,674309,,,BCT,MKD,OTH,,,,121,2003-08-27T00:00:00,2023-12-12T15:02:54,0,,active
6110356,65423694,,,Glenconner Way,,,,Glenconner Way,,Merkland Drive,,,,opp,,N,ES002189,Kirkintilloch,,,KIRKINTILLOCH,,,,0,,267050,674155,,,BCT,MKD,OTH,,,,121,2003-08-27T00:00:00,2023-12-12T15:02:54,0,,active
6110357,65423926,,,David Gray Drive,,,,David Gray Drive,,Merkland Drive,,,,after,,S,ES002189,Kirkintilloch,,,KIRKINTILLOCH,,,,0,,267093,674064,,,BCT,MKD,OTH,,,,121,2003-08-27T00:00:00,2023-12-12T15:02:54,0,,active
6110358,65423972,,,Woodstock Avenue,,,,Woodstock Avenue,,Merkland Drive,,,,after,,N,ES002189,Kirkintilloch,,,KIRKINTILLOCH,,,,0,,267075,673953,,,BCT,MKD,OTH,,,,121,2003-08-27T00:00:00,2023-12-12T15:02:54,0,,active
6110359,65424535,,,Woodstock Avenue,,,,Woodstock Avenue,,Merkland Drive,,,,opp,,S,ES002189,Kirkintilloch,,,KIRKINTILLOCH,,,,0,,267084,673936,,,BCT,MKD,OTH,,,,121,2003-08-27T00:00:00,2023-12-12T15:02:54,0,,active
611036,65423952,,,West Chapelton Drive,,,,West Chapelton Drive,,Milngavie Road,,,,opp,,S,N0078782,Hillfoot,Bearsden,,BEARSDEN,,,,1,,254989,671838,,,BCT,MKD,OTH,,,,121,2003-08-27T00:00:00,2023-12-12T15:02:54,0,,active
6110360,65423746,,,Quarry Drive,,,,Quarry Drive,,Merkland Drive,,,,after,,N,ES002189,Kirkintilloch,,,KIRKINTILLOCH,,,,0,,267085,673771,,,BCT,MKD,OTH,,,,121,2003-08-27T00:00:00,2023-12-12T15:02:54,0,,active
6110361,65423478,,,Barrhill Road,,,,Barrhill Road,,Merkland Drive,,,,after,,S,ES002189,Kirkintilloch,,,KIRKINTILLOCH,,,,0,,267100,673692,,,BCT,MKD,OTH,,,,121,2003-08-27T00:00:00,2023-12-12T15:02:54,0,,active
6110362,65424929,,,Dun Park,,,,Dun Park,,Redbrae Road,,,,after,,NW,ES002189,Kirkintilloch,,,KIRKINTILLOCH,,,,0,,266206,673636,,,BCT,MKD,OTH,,,,121,2003-08-27T00:00:00,2023-12-12T15:02:54,0,,active
6110363,65424874,,,Waverley Crescent,,,,Waverley Crescent,,Redbrae Road,,,,after,,N,ES002189,Kirkintilloch,,,KIRKINTILLOCH,,,,0,,266158,673789,,,BCT,MKD,OTH,,,,121,2003-08-27T00:00:00,2023-12-12T15:02:54,0,,active
6110364,65424276,,,Waverley Park,,,,Newdyke Road,,Redbrae Road,,,,opp,,SE,ES002189,Kirkintilloch,,,KIRKINTILLOCH,,,,0,,266085,673971,,,BCT,MKD,OTH,,,,121,2003-08-27T00:00:00,2023-12-12T15:02:54,0,,active
6110365,65424248,,,Meiklehill Road,,,,Meiklehill Road,,Redbrae Road,,,,after,,SE,ES002189,Kirkintilloch,,,KIRKINTILLOCH,,,,0,,266023,674083,,,BCT,MKD,OTH,,,,121,2003-08-27T00:00:00,2023-12-12T15:02:54,0,,active
6110366,65423924,,,Meiklehill Road,,,,Meiklehill Road,,Redbrae Road,,,,opp,,NW,ES002189,Kirkintilloch,,,KIRKINTILLOCH,,,,0,,265993,674113,,,BCT,MKD,OTH,,,,121,2003-08-27T00:00:00,2023-12-12T15:02:54,0,,active
6110367,65425257,,,Newdyke Road,,,,Newdyke,,Redbrae Road,,,,after,,S,ES002189,Kirkintilloch,,,KIRKINTILLOCH,,,,0,,266166,673825,,,BCT,MKD,OTH,,,,121,2003-08-27T00:00:00,2023-12-12T15:02:54,0,,active
6110368,65425658,,,Kenilworth Road,,,,Kenilworth Road,,Newdyke Road,,,,opp,,E,ES002189,Kirkintilloch,,,KIRKINTILLOCH,,,,1,,266333,673946,,,BCT,MKD,OTH,,,,121,2003-08-27T00:00:00,2023-12-12T15:02:54,0,,active
6110369,65425736,,,Kenilworth Road,,,,Kenilworth Road,,Newdyke Road,,,,before,,W,ES002189,Kirkintilloch,,,KIRKINTILLOCH,,,,1,,266354,673935,,,BCT,MKD,OTH,,,,121,2003-08-27T00:00:00,2023-12-12T15:02:54,0,,active
611037,65423284,,,Kessington Road,,,,Kessington Road,,Milngavie Road,,,,opp,,N,N0078783,Kessington,Bearsden,,BEARSDEN,,,,1,,255012,671526,,,BCT,MKD,OTH,,,,121,2003-08-27T00:00:00,2023-12-12T15:02:54,0,,active
6110370,65424326,,,Eildon Road,,,,Eildon Road,,Newdyke Road,,,,opp,,E,ES002189,Kirkintilloch,,,KIRKINTILLOCH,,,,0,,266591,673923,,,BCT,CUS,OTH,,,,121,2003-08-27T00:00:00,2023-12-12T15:02:54,0,,active
6110371,65424357,,,Eildon Road,,,,Eildon Road,,Newdyke Road,,,,before,,W,ES002189,Kirkintilloch,,,KIRKINTILLOCH,,,,0,,266561,673916,,,BCT,MKD,OTH,,,,121,2003-08-27T00:00:00,2023-12-12T15:02:54,0,,active
6110372,65423848,,,Woodstock Avenue,,,,Woodstock Avenue,,Newdyke Road,,,,before,,S,ES002189,Kirkintilloch,,,KIRKINTILLOCH,,,,0,,266696,674027,,,BCT,MKD,OTH,,,,121,2003-08-27T00:00:00,2023-12-12T15:02:54,0,,active
6110373,65423693,,,Highfield Road,,,,Highfield Road,,Newdyke Road,,,,after,,N,ES002189,Kirkintilloch,,,KIRKINTILLOCH,,,,0,,266699,674074,,,BCT,MKD,OTH,,,,121,2003-08-27T00:00:00,2023-12-12T15:02:54,0,,active
6110374,65423458,,,St Flannan's Primary School,,,,Meiklehill Road,,Newdyke Road,,,,at,,S,ES002189,Kirkintilloch,,,KIRKINTILLOCH,,,,0,,266711,674180,,,BCT,MKD,OTH,,,,121,2003-08-27T00:00:00,2023-12-12T15:02:54,0,,inactive
6110375,65423737,,,Meiklhill Road,,,,St Flannan's Primary School,,Newdyke Road,,,,after,,N,ES002189,Kirkintilloch,,,KIRKINTILLOCH,,,,0,,266701,674195,,,BCT,MKD,OTH,,,,121,2003-08-27T00:00:00,2023-12-12T15:02:54,0,,inactive
611038,65424356,,,Kessington Road,,,,Kessington Road,,Milngavie Road,,,,after,,S,N0078783,Kessington,Bearsden,,BEARSDEN,,,,1,,255012,671462,,,BCT,MKD,OTH,,,,121,2003-08-27T00:00:00,2023-12-12T15:02:54,0,,active
6110380,65424382,,,Fire Station,,,,Fire Station,,Glasgow Road,,,,opp,,NE,ES002189,Kirkintilloch,,,KIRKINTILLOCH,,,,1,,264851,673999,,,BCT,MKD,OTH,,,,121,2003-08-27T00:00:00,2023-12-12T15:02:54,0,,active
6110381,65423869,,,Bellvue Road,,,,Bellvue Road,,Glasgow Road,,,,Before,,SW,ES002189,Kirkintilloch,,,KIRKINTILLOCH,,,,1,,264828,673970,,,BCT,MKD,OTH,,,,121,2003-08-27T00:00:00,2023-12-12T15:02:54,0,,active
6110382,65423864,,,Lovat Drive,,,,Claremont Avenue,,Glasgow Road,,,,opp,,NE,ES002189,Kirkintilloch,,,KIRKINTILLOCH,,,,1,,264605,673874,,,BCT,MKD,OTH,,,,121,2003-08-27T00:00:00,2023-12-12T15:02:54,0,,active
6110383,65424283,,,Hayston Road,,,,Hayston Road,,Glasgow Road,,,,opp,,SW,N0068108,Hayston,Kirkintilloch,,KIRKINTILLOCH,,,,1,,264418,673761,,,BCT,MKD,OTH,,,,121,2003-08-27T00:00:00,2023-12-12T15:02:54,0,,active
6110384,65424236,,,Adamslie Crescent,,,,Adamslie Crescent,,Glasgow Road,,,,after,,NE,N0068108,Hayston,Kirkintilloch,,KIRKINTILLOCH,,,,1,,264304,673719,,,BCT,MKD,OTH,,,,121,2003-08-27T00:00:00,2023-12-12T15:02:54,0,,active
6110385,65423582,,,The Stables,,,,Glasgow Bridge,,A803,,,,opp,,SW,N0068108,Hayston,Kirkintilloch,,KIRKINTILLOCH,,,,1,,263471,673030,,,BCT,MKD,OTH,,,,121,2003-08-27T00:00:00,2023-12-12T15:02:54,0,,active
6110386,65423785,,,Torrance Road,,,,Torrance Roundabout,,Kirkintilloch Road,,,,after,,E,ES000526,Cadder,Bishopbriggs,,BISHOPBRIGGS,,,,1,,262427,672781,,,BCT,MKD,OTH,,,,121,2003-08-27T00:00:00,2023-12-12T15:02:54,0,,active
6110387,65423462,,,Cole Road,,,,Torrance Roundabout,,Kirkintilloch Road,,,,after,,SW,ES000526,Cadder,Bishopbriggs,,BISHOPBRIGGS,,,,1,,262384,672722,,,BCT,MKD,OTH,,,,121,2003-08-27T00:00:00,2023-12-12T15:02:54,0,,active
6110388,65423637,,,Marley Works,,,,Marley Works,,Kirkintilloch Road,,,,at,,NE,ES000526,Cadder,Bishopbriggs,,BISHOPBRIGGS,,,,1,,262179,672410,,,BCT,MKD,OTH,,,,121,2003-08-27T00:00:00,2023-12-12T15:02:54,0,,active
6110389,65423268,,,Lowmoss Roundabout,,,,Strathkelvin Retail Park,,Crosshill Road,,,,before,,NE,ES000526,Cadder,Bishopbriggs,,BISHOPBRIGGS,,,,1,,262030,672034,,,BCT,MKD,OTH,,,,121,2003-08-27T00:00:00,2023-12-12T15:02:54,0,,active
611039,65423689,,,MacFarlane Road,,,,MacFarlane Road,,Milngavie Road,,,,at,,S,N0078781,Canniesburn,Bearsden,,BEARSDEN,,,,1,,254930,671156,,,BCT,MKD,OTH,,,,121,2003-08-27T00:00:00,2023-12-12T15:02:54,0,,active
6110391,65423584,,,Crosshill Road,,,,Crosshill Road,,Kirkintilloch Road,,,,opp,,NE,ES000526,Cadder,Bishopbriggs,,BISHOPBRIGGS,,,,1,,261966,672054,,,BCT,MKD,OTH,,,,121,2003-08-27T00:00:00,2023-12-12T15:02:54,0,,active
6110392,65423243,,,Cadder Road,,,,Strathkelvin Retail Park,,Kirkintilloch Road,,,,opp,,SW,ES000526,Cadder,Bishopbriggs,,BISHOPBRIGGS,,,,1,,261908,671928,,,BCT,MKD,OTH,,,,121,2003-08-27T00:00:00,2023-12-12T15:02:54,0,,active
6110393,65423695,,,Westerhill Road,,,,Westerhill Road,,Kirkintilloch Road,,,,opp,,NE,ES000526,Cadder,Bishopbriggs,,BISHOPBRIGGS,,,,1,,261792,671764,,,BCT,MKD,OTH,,,,121,2003-08-27T00:00:00,2023-12-12T15:02:54,0,,active
6110394,65423289,,,Westerhill Road,,,,Westerhill Road,,Kirkintilloch Road,,,,after,,SW,ES000526,Cadder,Bishopbriggs,,BISHOPBRIGGS,,,,1,,261717,671612,,,BCT,MKD,OTH,,,,121,2003-08-27T00:00:00,2023-12-12T15:02:54,0,,active
6110395,65423272,,,Meadowburn,,,,Meadowburn,,Kirkintilloch Road,,,,before,,NE,ES000526,Cadder,Bishopbriggs,,BISHOPBRIGGS,,,,1,,261545,671361,,,BCT,MKD,OTH,,,,121,2003-08-27T00:00:00,2023-12-12T15:02:54,0,,active
6110396,65424398,,,Hilton Road,,,,Asda Superstore,,Kirkintilloch Road,,,,opp & before,,SW,ES000526,Cadder,Bishopbriggs,,BISHOPBRIGGS,,,,1,,261452,671164,,,BCT,MKD,OTH,,,,121,2003-08-27T00:00:00,2023-12-12T15:02:54,0,,active
6110397,65423852,,,Park Road,,,,Park Road,,Kirkintilloch Road,,,,opp,,NE,ES000362,Bishopbriggs,,,BISHOPBRIGGS,,,,1,,261320,670982,,,BCT,MKD,OTH,,,,121,2003-08-27T00:00:00,2023-12-12T15:02:54,0,,active
6110398,65423959,,,Allan Glen Sports Ground,,,,Park Road,,Kirkintilloch Road,,,,after,,SW,ES000362,Bishopbriggs,,,BISHOPBRIGGS,,,,1,,261253,670849,,,BCT,MKD,OTH,,,,121,2003-08-27T00:00:00,2023-12-12T15:02:54,0,,active
6110399,65423963,,,Wester Cleddens Road,,,,Wester Cleddens Road,,Kirkintilloch Road,,,,before,,SW,ES000362,Bishopbriggs,,,BISHOPBRIGGS,,,,1,,261157,670690,,,BCT,MKD,OTH,,,,121,2003-08-27T00:00:00,2023-12-12T15:02:54,0,,active
61104,65424359,,,Lochend Road,,,,Lochend Road,,Canniesburn Road,,,,after,,E,ES003830,Westerton,Bearsden,,BEARSDEN,,,,1,,254281,671168,,,BCT,MKD,OTH,,,,121,2003-08-27T00:00:00,2023-12-12T15:02:54,0,,active
611040,65423236,,,MacFarlane Road,,,,MacFarlane Road,,Milngavie Road,,,,before,,N,N0078781,Canniesburn,Bearsden,,BEARSDEN,,,,1,,254906,671010,,,BCT,MKD,OTH,,,,121,2003-08-27T00:00:00,2023-12-12T15:02:54,0,,active
6110400,65423742,,,Wester Cleddens Road,,,,Wester Cleddens Road,,Kirkintilloch Road,,,,opp,,NE,ES000362,Bishopbriggs,,,BISHOPBRIGGS,,,,1,,261123,670656,,,BCT,MKD,OTH,,,,121,2003-08-27T00:00:00,2023-12-12T15:02:54,0,,active
6110401,65423948,,,Kirkintilloch Road,,,,Kirkintilloch Road,,Balmuildy Road,,,,before,,E,N0078825,Mavis Valley,Bishopbriggs,,BISHOPBRIGGS,,,,0,,261040,670625,,,BCT,MKD,OTH,,,,121,2003-08-27T00:00:00,2023-12-12T15:02:54,0,,active
6110402,65423748,,,Morar Crescent,,,,Morar Crescent,,Balmuildy Road,,,,after,,S,N0078825,Mavis Valley,Bishopbriggs,,BISHOPBRIGGS,,,,0,,260863,670770,,,BCT,MKD,OTH,,,,121,2003-08-27T00:00:00,2023-12-12T15:02:54,0,,active
6110403,65423798,,,Morar Crescent,,,,Morar Crescent,,Balmuildy Road,,,,opp,,N,N0078825,Mavis Valley,Bishopbriggs,,BISHOPBRIGGS,,,,0,,260839,670827,,,BCT,MKD,OTH,,,,121,2003-08-27T00:00:00,2023-12-12T15:02:54,0,,active
6110404,65423538,,,Lomond Drive,,,,Lomond Drive,,Balmuildy Road,,,,after,,S,N0078825,Mavis Valley,Bishopbriggs,,BISHOPBRIGGS,,,,0,,260829,671042,,,BCT,MKD,OTH,,,,121,2003-08-27T00:00:00,2023-12-12T15:02:54,0,,active
6110405,65423954,,,Stirling Drive,,,,Stirling Drive,,Balmuildy Road,,,,after,,N,N0078825,Mavis Valley,Bishopbriggs,,BISHOPBRIGGS,,,,0,,260819,671117,,,BCT,MKD,OTH,,,,121,2003-08-27T00:00:00,2023-12-12T15:02:54,0,,active
6110406,65424393,,,Hilton Terrace,,,,HiltonTerrace,,Hilton Road,,,,opp,,W,N0078825,Mavis Valley,Bishopbriggs,,BISHOPBRIGGS,,,,0,,260851,671244,,,BCT,MKD,OTH,,,,121,2003-08-27T00:00:00,2023-12-12T15:02:54,0,,active
6110407,65423849,,,Hilton Terrace,,,,Hilton Terrace,,Hilton Road,,,,after,,E,N0078825,Mavis Valley,Bishopbriggs,,BISHOPBRIGGS,,,,0,,260886,671252,,,BCT,MKD,OTH,,,,121,2003-08-27T00:00:00,2023-12-12T15:02:54,0,,active
6110408,65423736,,,Gleneagles Drive,,,,Fire Station,,Hilton Road,,,,after,,W,N0078825,Mavis Valley,Bishopbriggs,,BISHOPBRIGGS,,,,0,,261130,671224,,,BCT,MKD,OTH,,,,121,2003-08-27T00:00:00,2023-12-12T15:02:54,0,,active
611041,65424352,,,Westend,,,,Westend,,Maryhill Road,,,,before,,NW,N0078784,Killermont,Bearsden,,BEARSDEN,,,,1,,255234,670782,,,BCT,MKD,OTH,,,,121,2003-08-27T00:00:00,2023-12-12T15:02:54,0,,active
6110410,65424257,,,Boclair Crescent,,,,Boclair Crescent,,South Crosshill Road,,,,opp,,W,ES000362,Bishopbriggs,,,BISHOPBRIGGS,,,,0,,261154,670398,,,BCT,MKD,OTH,,,,121,2003-08-27T00:00:00,2023-12-12T15:02:54,0,,inactive
6110411,65423239,,,Cleddens Court,,,,After Cleddens Court,,South Crosshill Road,,,,After,,SW,ES000362,Bishopbriggs,,,BISHOPBRIGGS,,,,1,,261274,670442,,,BCT,MKD,OTH,,,,121,2003-08-27T00:00:00,2023-12-12T15:02:54,0,,inactive
6110412,65423248,,,Boclair Crescent,,,,Boclair Crescent,,South Crosshill Road,,,,after,,NE,ES000362,Bishopbriggs,,,BISHOPBRIGGS,,,,1,,261281,670458,,,BCT,MKD,OTH,,,,121,2003-08-27T00:00:00,2023-12-12T15:02:54,0,,inactive
6110413,65423465,,,Wester Cleddens Primary School,,,,Hillside Drive,,Wester Cleddens Road,,,,at,,E,ES000362,Bishopbriggs,,,BISHOPBRIGGS,,,,0,,261558,670509,,,BCT,MKD,OTH,,,,121,2003-08-27T00:00:00,2023-12-12T15:02:54,0,,inactive
6110414,65423676,,,Wester Cleddens Primary School,,,,South Crosshill Road,,Wester Cleddens Road,,,,opp,,W,ES000362,Bishopbriggs,,,BISHOPBRIGGS,,,,0,,261585,670495,,,BCT,MKD,OTH,,,,121,2003-08-27T00:00:00,2023-12-12T15:02:54,0,,inactive
6110415,65423732,,,Laggan Road,,,,Laggan Road,,Wester Cleddens Road,,,,after,,W,N0078829,Auchinairn,Bishopbriggs,,BISHOPBRIGGS,,,,0,,261700,670475,,,BCT,MKD,OTH,,,,121,2003-08-27T00:00:00,2023-12-12T15:02:54,0,,inactive
6110416,65423573,,,Ailsa Road,,,,Ailsa Road,,Wester Cleddens Road,,,,before,,E,N0078829,Auchinairn,Bishopbriggs,,BISHOPBRIGGS,,,,0,,261862,670505,,,BCT,MKD,OTH,,,,121,2003-08-27T00:00:00,2023-12-12T15:02:54,0,,inactive
6110417,65423727,,,Woodhill Road,,,,Woodhill Road,,Wester Cleddens Road,,,,opp,,NE,N0078829,Auchinairn,Bishopbriggs,,BISHOPBRIGGS,,,,0,,262110,670593,,,BCT,MKD,OTH,,,,121,2003-08-27T00:00:00,2023-12-12T15:02:54,0,,active
6110418,65424343,,,Kirriemuir Gardens,,,,Kirriemuir Gardens,,Wester Cleddens Road,,,,opp,,SW,N0078829,Auchinairn,Bishopbriggs,,BISHOPBRIGGS,,,,0,,262161,670610,,,BCT,MKD,OTH,,,,121,2003-08-27T00:00:00,2023-12-12T15:02:54,0,,active
6110419,65423234,,,Bemersyde,,,,Bemersyde,,Wester Cleddens Road,,,,after,,E,N0078829,Auchinairn,Bishopbriggs,,BISHOPBRIGGS,,,,1,,262376,670663,,,BCT,MKD,OTH,,,,121,2003-08-27T00:00:00,2023-12-12T15:02:54,0,,active
611042,65424325,,,Cluny Park,,,,Cluny Park,,Maryhill Road,,,,at,,SE,N0078784,Killermont,Bearsden,,BEARSDEN,,,,1,,255201,670829,,,BCT,MKD,OTH,,,,121,2003-08-27T00:00:00,2023-12-12T15:02:54,0,,active
6110420,65423525,,,Pentland Drive,,,,Pentland Drive,,Wester Cleddens Road,,,,opp,,NW,N0078829,Auchinairn,Bishopbriggs,,BISHOPBRIGGS,,,,0,,262637,670614,,,BCT,MKD,OTH,,,,121,2003-08-27T00:00:00,2023-12-12T15:02:54,0,,active
6110421,65423547,,,Pentland Drive,,,,Pentland Drive,,Wester Cleddens Road,,,,after,,SE,N0078829,Auchinairn,Bishopbriggs,,BISHOPBRIGGS,,,,0,,262655,670622,,,BCT,MKD,OTH,,,,121,2003-08-27T00:00:00,2023-12-12T15:02:54,0,,active
6110423,65423434,,,Wester Cleddens Road,,,,Wester Cleddens Road,,Angus Avenue,,,,before,,N,N0078829,Auchinairn,Bishopbriggs,,BISHOPBRIGGS,,,,0,,262685,670577,,,BCT,MKD,OTH,,,,121,2003-08-27T00:00:00,2023-12-12T15:02:54,0,,active
6110424,65423259,,,Dunnottar Street,,,,Dunnottar Street,,Angus Avenue,,,,after,,S,N0078829,Auchinairn,Bishopbriggs,,BISHOPBRIGGS,,,,0,,262694,670460,,,BCT,MKD,OTH,,,,121,2003-08-27T00:00:00,2023-12-12T15:02:54,0,,active
6110425,65424259,,,Torr Road,,,,Torr Road,,Angus Avenue,,,,opp,,S,N0078829,Auchinairn,Bishopbriggs,,BISHOPBRIGGS,,,,0,,262599,670262,,,BCT,MKD,OTH,,,,121,2003-08-27T00:00:00,2023-12-12T15:02:54,0,,active
6110426,65423976,,,Torr Road,,,,Torr Road,,Angus Avenue,,,,before,,N,N0078829,Auchinairn,Bishopbriggs,,BISHOPBRIGGS,,,,0,,262583,670188,,,BCT,MKD,OTH,,,,121,2003-08-27T00:00:00,2023-12-12T15:02:54,0,,active
6110427,65423495,,,Morven Avenue,,,,Morven Avenue,,Angus Avenue,,,,opp,,SW,N0078829,Auchinairn,Bishopbriggs,,BISHOPBRIGGS,,,,1,,262581,670016,,,BCT,MKD,OTH,,,,121,2003-08-27T00:00:00,2023-12-12T15:02:54,0,,active
6110428,65423423,,,Morven Avenue,,,,Morven Avenue,,Angus Avenue,,,,after,,NE,N0078829,Auchinairn,Bishopbriggs,,BISHOPBRIGGS,,,,1,,262578,670026,,,BCT,MKD,OTH,,,,121,2003-08-27T00:00:00,2023-12-12T15:02:54,0,,active
6110429,65423485,,,Angus Avenue,,,,Falkland Crescent,,Letham Drive,,,,before,,N,N0078829,Auchinairn,Bishopbriggs,,BISHOPBRIGGS,,,,0,,262484,669762,,,BCT,MKD,OTH,,,,121,2003-08-27T00:00:00,2023-12-12T15:02:54,0,,active
611043,65423646,,,Rannoch Drive,,,,Rannoch Drive,,Maryhill Road,,,,before,,SE,N0078784,Killermont,Bearsden,,BEARSDEN,,,,1,,255377,670708,,,BCT,MKD,OTH,,,,121,2003-08-27T00:00:00,2023-12-12T15:02:54,0,,active
6110430,65423647,,,Letham Oval,,,,Falkland Crescent,,Letham Drive,,,,before,,S,N0078829,Auchinairn,Bishopbriggs,,BISHOPBRIGGS,,,,0,,262551,669633,,,BCT,MKD,OTH,,,,121,2003-08-27T00:00:00,2023-12-12T15:02:54,0,,active
6110431,65423439,,,The Groves,,,,Auchinairn Road,,Woodhill Road,,,,opp,,N,N0078829,Auchinairn,Bishopbriggs,,BISHOPBRIGGS,,,,0,,262373,669470,,,BCT,MKD,OTH,,,,121,2003-08-27T00:00:00,2023-12-12T15:02:54,0,,active
6110432,65423542,,,The Groves,,,,Auchinairn Road,,Woodhill Road,,,,before,,S,N0078829,Auchinairn,Bishopbriggs,,BISHOPBRIGGS,,,,0,,262379,669480,,,BCT,MKD,OTH,,,,121,2003-08-27T00:00:00,2023-12-12T15:02:54,0,,active
6110433,65423435,,,Angus Avenue,,,,Angus Avenue,,Woodhill Road,,,,after,,S,N0078829,Auchinairn,Bishopbriggs,,BISHOPBRIGGS,,,,0,,262254,669762,,,BCT,MKD,OTH,,,,121,2003-08-27T00:00:00,2023-12-12T15:02:54,0,,active
6110434,65424242,,,Angus Avenue,,,,Rosie Crescent,,Woodhill Road,,,,opp,,N,N0078829,Auchinairn,Bishopbriggs,,BISHOPBRIGGS,,,,0,,262215,669883,,,BCT,MKD,OTH,,,,121,2003-08-27T00:00:00,2023-12-12T15:02:54,0,,active
6110435,65423593,,,Brechin Road,,,,Brechin Road,,Woodhill Road,,,,after,,S,N0078829,Auchinairn,Bishopbriggs,,BISHOPBRIGGS,,,,1,,262221,670163,,,BCT,MKD,OTH,,,,121,2003-08-27T00:00:00,2023-12-12T15:02:54,0,,active
6110436,65423836,,,Brechin Road,,,,Brechin Road,,Woodhill Road,,,,opp,,N,N0078829,Auchinairn,Bishopbriggs,,BISHOPBRIGGS,,,,1,,262200,670211,,,BCT,MKD,OTH,,,,121,2003-08-27T00:00:00,2023-12-12T15:02:54,0,,active
6110437,65423254,,,Thrums Avenue,,,,Thrums Avenue,,Woodhill Road,,,,after,,S,N0078829,Auchinairn,Bishopbriggs,,BISHOPBRIGGS,,,,0,,262178,670321,,,BCT,MKD,OTH,,,,121,2003-08-27T00:00:00,2023-12-12T15:02:54,0,,active
6110438,65423659,,,The Triangle,,,,Churchill Way,,Kirkintilloch Road,,,,opp,,N,ES000362,Bishopbriggs,,,BISHOPBRIGGS,,,,1,,261035,670315,,,BCT,MKD,OTH,,,,121,2003-08-27T00:00:00,2023-12-12T15:02:54,0,,active
6110439,65423453,,,The Triangle,,,,The Triangle,,Kirkintilloch Road,,,,after,,S,ES000362,Bishopbriggs,,,BISHOPBRIGGS,,,,1,,261043,670228,,,BCT,MKD,OTH,,,,121,2003-08-27T00:00:00,2023-12-12T15:02:54,0,,active
611044,65424369,,,Canniesburn Toll,,,,Canniesburn Toll,,Drymen Road,,,,before,,S,N0078781,Canniesburn,Bearsden,,BEARSDEN,,,,1,,254769,671085,,,BCT,MKD,OTH,,,,121,2003-08-27T00:00:00,2023-12-12T15:02:54,0,,active
6110440,65424568,,,Kenmure Drive,,,,Kenmure Drive,,Kenmure Avenue,,,,after,,SE,ES000362,Bishopbriggs,,,BISHOPBRIGGS,,,,0,,260960,670183,,,BCT,MKD,OTH,,,,121,2003-08-27T00:00:00,2023-12-12T15:02:54,0,,active
6110441,65424536,,,Kenmure Drive,,,,Kenmure Drive,,Kenmure Avenue,,,,opp,,NW,ES000362,Bishopbriggs,,,BISHOPBRIGGS,,,,0,,260923,670182,,,BCT,MKD,OTH,,,,121,2003-08-27T00:00:00,2023-12-12T15:02:54,0,,active
6110442,65423753,,,Pollock Drive,,,,Pollock Drive,,Kenmure Drive,,,,before,,E,ES000362,Bishopbriggs,,,BISHOPBRIGGS,,,,0,,260371,670238,,,BCT,MKD,OTH,,,,121,2003-08-27T00:00:00,2023-12-12T15:02:54,0,,active
6110443,65424693,,,Novar Gardens,,,,Novar Gardens,,St Mary's Road,,,,after,,S,ES000362,Bishopbriggs,,,BISHOPBRIGGS,,,,0,,260202,670433,,,BCT,MKD,OTH,,,,121,2003-08-27T00:00:00,2023-12-12T15:02:54,0,,active
6110444,65424927,,,Brackenbrae Avenue,,,,Brackenbrae Avenue,,St Marys Road,,,,after,,S,ES000362,Bishopbriggs,,,BISHOPBRIGGS,,,,0,,260189,670564,,,BCT,MKD,OTH,,,,121,2003-08-27T00:00:00,2023-12-12T15:02:54,0,,active
6110445,65424629,,,Beaufort Gardens,,,,Beaufort Gardens,,Brackenbrae Road,,,,before,,N,ES000362,Bishopbriggs,,,BISHOPBRIGGS,,,,0,,260640,670315,,,BCT,MKD,OTH,,,,121,2003-08-27T00:00:00,2023-12-12T15:02:54,0,,inactive
6110446,65423858,,,Bishopbriggs Station,,,,Kenmure Avenue,,Kirkintilloch Road,,,,opp,,NE,ES000362,Bishopbriggs,,,BISHOPBRIGGS,,,,1,,260961,670122,,,BCT,MKD,OTH,,,,121,2003-08-27T00:00:00,2023-12-12T15:02:54,0,,active
6110447,65423935,,,Brackenbrae Road,,,,Brackenbrae Road,,Kirkintilloch Road,,,,opp,,SW,ES000362,Bishopbriggs,,,BISHOPBRIGGS,,,,1,,260715,669951,,,BCT,MKD,OTH,,,,121,2003-08-27T00:00:00,2023-12-12T15:02:54,0,,active
6110448,65423967,,,Brackenbrae Road,,,,Brackenbrae Road,,Kirkintilloch Road,,,,after,,NE,ES000362,Bishopbriggs,,,BISHOPBRIGGS,,,,1,,260689,669949,,,BCT,MKD,OTH,,,,121,2003-08-27T00:00:00,2023-12-12T15:02:54,0,,active
6110449,65423875,,,Stuart Drive,,,,Stuart Drive,,Kirkintilloch Road,,,,opp,,S,ES000362,Bishopbriggs,,,BISHOPBRIGGS,,,,1,,260586,669611,,,BCT,MKD,OTH,,,,121,2003-08-27T00:00:00,2023-12-12T15:02:54,0,,active
611045,65423562,,,Canniesburn Road,,,,Canniesburn Road,,Drymen Road,,,,after,,N,N0078781,Canniesburn,Bearsden,,BEARSDEN,,,,1,,254718,671185,,,BCT,MKD,OTH,,,,121,2003-08-27T00:00:00,2023-12-12T15:02:54,0,,active
6110450,65423697,,,Stuart Drive,,,,Stuart Drive,,Kirkintilloch Road,,,,before,,N,ES000362,Bishopbriggs,,,BISHOPBRIGGS,,,,1,,260570,669585,,,BCT,MKD,OTH,,,,121,2003-08-27T00:00:00,2023-12-12T15:02:54,0,,active
6110451,65423934,,,Colston Drive,,,,Colston Drive,,Kirkintilloch Road,,,,opp,,S,N0068049,Colston,Bishopbriggs,,BISHOPBRIGGS,,,,1,,260570,669410,,,BCT,MKD,OTH,,,,121,2003-08-27T00:00:00,2023-12-12T15:02:54,0,,active
6110452,65423927,,,Glendale Drive,,,,Glendale Drive,,Auchinairn Road,,,,after,,NE,N0078829,Auchinairn,Bishopbriggs,,BISHOPBRIGGS,,,,1,,262281,669391,,,BCT,MKD,OTH,,,,121,2003-08-27T00:00:00,2023-12-12T15:02:54,0,,active
6110453,65423652,,,Northgate Road,,,,Northgate Road,,Auchinairn Road,,,,opp,,NE,N0078829,Auchinairn,Bishopbriggs,,BISHOPBRIGGS,,,,0,,262158,669368,,,BCT,MKD,OTH,,,,121,2003-08-27T00:00:00,2023-12-12T15:02:54,0,,active
6110454,65423429,,,Graham Terrace,,,,Graham Terrace,,Auchinairn Road,,,,before,,SE,N0078829,Auchinairn,Bishopbriggs,,BISHOPBRIGGS,,,,1,,261826,669386,,,BCT,MKD,OTH,,,,121,2003-08-27T00:00:00,2023-12-12T15:02:54,0,,active
6110455,65424323,,,Beech Road,,,,Beech Road,,Auchinairn Road,,,,after,,SE,N0078829,Auchinairn,Bishopbriggs,,BISHOPBRIGGS,,,,0,,261702,669413,,,BCT,MKD,OTH,,,,121,2003-08-27T00:00:00,2023-12-12T15:02:54,0,,active
6110456,65423789,,,Beech Road,,,,Auchinairn Tavern,,Auchinairn Road,,,,opp,,W,N0078829,Auchinairn,Bishopbriggs,,BISHOPBRIGGS,,,,0,,261611,669408,,,BCT,MKD,OTH,,,,121,2003-08-27T00:00:00,2023-12-12T15:02:54,0,,active
6110457,65424378,,,Liddells Court,,,,Liddells Court,,Auchinairn Road,,,,after,,E,N0078829,Auchinairn,Bishopbriggs,,BISHOPBRIGGS,,,,1,,261491,669411,,,BCT,MKD,OTH,,,,121,2003-08-27T00:00:00,2023-12-12T15:02:54,0,,active
6110458,65423862,,,Springfield Avenue,,,,Springfield Avenue,,Auchinairn Road,,,,after,,E,N0078829,Auchinairn,Bishopbriggs,,BISHOPBRIGGS,,,,1,,261334,669387,,,BCT,MKD,OTH,,,,121,2003-08-27T00:00:00,2023-12-12T15:02:54,0,,active
6110459,65423985,,,Crowhill Road,,,,Crowhill Road,,Auchinairn Road,,,,opp,,W,N0078829,Auchinairn,Bishopbriggs,,BISHOPBRIGGS,,,,1,,260881,669307,,,BCT,MKD,OTH,,,,121,2003-08-27T00:00:00,2023-12-12T15:02:54,0,,active
611046,65423629,,,Beechwood Lane,,,,Beechwood Lane,,Drymen Road,,,,after,,S,ES000318,Bearsden,,,BEARSDEN,,,,1,,254696,671316,,,BCT,MKD,OTH,,,,121,2003-08-27T00:00:00,2023-12-12T15:02:54,0,,active
6110460,65423962,,,Crowhill Road,,,,Bishopbriggs Free Church,,Auchinairn Road,,,,before,,E,N0078829,Auchinairn,Bishopbriggs,,BISHOPBRIGGS,,,,1,,260878,669315,,,BCT,CUS,OTH,,,,121,2003-08-27T00:00:00,2023-12-12T15:02:54,0,,active
6110461,65424365,,,Bishopsgate Road,,,,Bishopsgate Road,,Colston Road,,,,opp,,E,N0068049,Colston,Bishopbriggs,,BISHOPBRIGGS,,,,0,,260362,669333,,,BCT,MKD,OTH,,,,121,2003-08-27T00:00:00,2023-12-12T15:02:54,0,,active
6110462,65423986,,,Ashgill Road,,,,Ashgill Road,,Colston Road,,,,after,,E,N0068049,Colston,Bishopbriggs,,BISHOPBRIGGS,,,,0,,260280,669343,,,BCT,MKD,OTH,,,,121,2003-08-27T00:00:00,2023-12-12T15:02:54,0,,inactive
6110463,65423743,,,Parkburn Avenue,,,,After Parkburn Avenue,,Westergreens Avenue,,,,After,,SW,N0072845,High Gallowhill,Kirkintilloch,,KIRKINTILLOCH,,,,0,,265008,672825,,,BCT,MKD,OTH,,,,121,2003-08-27T00:00:00,2023-12-12T15:02:54,0,,inactive
6110464,65423586,,,Coronation Way,,,,Coronation Way,,Maryhill Road,,,,after,,NW,N0078781,Canniesburn,Bearsden,,BEARSDEN,,,,0,,255012,670931,,,BCT,MKD,OTH,,,,121,2003-08-27T00:00:00,2023-12-12T15:02:54,0,,active
6110465,65423627,,,Canniesburn Road,,,,Canniesburn Hospital (rear),,Maxwell Avenue,,,,after,,S,ES000318,Bearsden,,,BEARSDEN,,,,0,,254030,670971,,,BCT,MKD,OTH,,,,121,2003-08-27T00:00:00,2023-12-12T15:02:54,0,,inactive
6110466,65423894,,,Glasgow Road,,,,Glasgow Road,,Milton Road,,,,after,,N,ES002189,Kirkintilloch,,,KIRKINTILLOCH,,,,1,,265510,674384,,,BCT,MKD,OTH,,,,121,2003-08-27T00:00:00,2023-12-12T15:02:54,0,,active
6110467,65424272,,,Kilsyth Road,,,,Kilsyth Road,,Milton Road,,,,before,,S,ES002189,Kirkintilloch,,,KIRKINTILLOCH,,,,1,,265519,674388,,,BCT,CUS,OTH,,,,121,2003-08-27T00:00:00,2023-12-12T15:02:54,0,,active
6110468,65423276,,,Cameron Drive,,,,Cameron Drive,,Rannoch Drive,,,,after,,NE,N0078783,Kessington,Bearsden,,BEARSDEN,,,,0,,255551,671252,,,BCT,MKD,OTH,,,,121,2003-08-27T00:00:00,2023-12-12T15:02:54,0,,active
6110469,65423278,,,Cluny Avenue,,,,Cluny Avenue,,Rannoch Drive,,,,after,,NE,N0078784,Killermont,Bearsden,,BEARSDEN,,,,0,,255409,670875,,,BCT,MKD,OTH,,,,121,2003-08-27T00:00:00,2023-12-12T15:02:54,0,,active
611047,65424249,,,Lochside,,,,Lochside,,Drymen Road,,,,opp,,NW,ES000318,Bearsden,,,BEARSDEN,,,,1,,254621,671389,,,BCT,MKD,OTH,,,,121,2003-08-27T00:00:00,2023-12-12T15:02:54,0,,active
6110470,65424527,,,Hutchison Drive,,,,Hutchison Drive,,Rannoch Drive,,,,after,,SW,N0078784,Killermont,Bearsden,,BEARSDEN,,,,0,,255427,670898,,,BCT,MKD,OTH,,,,121,2003-08-27T00:00:00,2023-12-12T15:02:54,0,,active
6110471,65423468,,,Boclair Crescent,,,,Boclair Crescent,,Boclair Road,,,,before,,SW,N0078782,Hillfoot,Bearsden,,BEARSDEN,,,,0,,255384,672041,,,BCT,MKD,OTH,,,,121,2003-08-27T00:00:00,2023-12-12T15:02:54,0,,active
6110472,65423528,,,Rannoch Drive,,,,Rannoch Drive,,Boclair Road,,,,before,,NE,ES000318,Bearsden,,,BEARSDEN,,,,0,,255595,672191,,,BCT,MKD,OTH,,,,121,2003-08-27T00:00:00,2023-12-12T15:02:54,0,,inactive
6110473,65423563,,,New Kilpatrick Cemetery,,,,New Kilpatrick Cemetery,,Boclair Road,,,,opp,,SW,N0078783,Kessington,Bearsden,,BEARSDEN,,,,0,,255728,672229,,,BCT,MKD,OTH,,,,121,2003-08-27T00:00:00,2023-12-12T15:02:54,0,,active
6110474,65423973,,,New Kilpatrick Cemetery,,,,Ardoch Road,,Boclair Road,,,,at,,NE,N0078783,Kessington,Bearsden,,BEARSDEN,,,,0,,255752,672246,,,BCT,MKD,OTH,,,,121,2003-08-27T00:00:00,2023-12-12T15:02:54,0,,active
6110475,65423878,,,The Stables,,,,Glasgow Bridge,,A803,,,,at,,NE,N0068108,Hayston,Kirkintilloch,,KIRKINTILLOCH,,,,1,,263507,673091,,,BCT,MKD,OTH,,,,121,2003-08-27T00:00:00,2023-12-12T15:02:54,0,,active
6110476,65423674,,,Craigend Drive West,,,,Craigash Road,,Craigton Road,,,,at,,NW,ES002623,Milngavie,,,MILNGAVIE,,,,0,,254598,675048,,,BCT,MKD,OTH,,,,121,2003-08-27T00:00:00,2023-12-12T15:02:54,0,,active
6110477,65423578,,,Castle Mains Road,,,,Castle Mains Road,,Hunter Road,,,,opp,,SE,ES002623,Milngavie,,,MILNGAVIE,,,,0,,254230,674551,,,BCT,MKD,OTH,,,,121,2003-08-27T00:00:00,2023-12-12T15:02:54,0,,active
6110478,65423879,,,Cauldstream Place,,,,62 Castle Mains Road,,Castle Mains Road,,,,opp,,E,N0078786,Castlemains,Milngavie,,MILNGAVIE,,,,0,,254029,674498,,,BCT,MKD,OTH,,,,121,2003-08-27T00:00:00,2023-12-12T15:02:54,0,,active
6110479,65423546,,,Dalnair Place,,,,After Cauldstream Place,,Castle Mains Road,,,,before,,NW,N0078786,Castlemains,Milngavie,,MILNGAVIE,,,,0,,253945,674494,,,BCT,MKD,OTH,,,,121,2003-08-27T00:00:00,2023-12-12T15:02:54,0,,active
611048,65423828,,,West Chapelton Avenue,,,,West Chappelton Avenue,,Drymen Road,,,,after,,SE,ES000318,Bearsden,,,BEARSDEN,,,,1,,254470,671658,,,BCT,MKD,OTH,,,,121,2003-08-27T00:00:00,2023-12-12T15:02:54,0,,active
6110480,65423795,,,Craighirst Road,,,,Craighirst Road,,Castle Mains Road,,,,after,,N,N0078786,Castlemains,Milngavie,,MILNGAVIE,,,,0,,253717,674782,,,BCT,MKD,OTH,,,,121,2003-08-27T00:00:00,2023-12-12T15:02:54,0,,active
6110481,65424348,,,Douglas Muir Drive,,,,Douglas Muir Drive,,Douglas Muir Road,,,,before,,E,N0078786,Castlemains,Milngavie,,MILNGAVIE,,,,0,,253627,674864,,,BCT,MKD,OTH,,,,121,2003-08-27T00:00:00,2023-12-12T15:02:54,0,,active
6110482,65423793,,,Craighead Drive,,,,Craighead Drive,,Douglas Muir Road,,,,before,,S,N0078786,Castlemains,Milngavie,,MILNGAVIE,,,,0,,253487,674678,,,BCT,MKD,OTH,,,,121,2003-08-27T00:00:00,2023-12-12T15:02:54,0,,active
6110483,65423274,,,Gleneagles Drive,,,,St James The Less Church,,Hilton Road,,,,opp,,SE,N0078825,Mavis Valley,Bishopbriggs,,BISHOPBRIGGS,,,,0,,261162,671225,,,BCT,MKD,OTH,,,,121,2003-08-27T00:00:00,2023-12-12T15:02:54,0,,active
6110484,65423837,,,Caird Terrace,,,,Caird Terrace,,Grampian Way,,,,opp,,W,ES000318,Bearsden,,,BEARSDEN,,,,0,,253561,673383,,,BCT,MKD,OTH,,,,121,2003-08-27T00:00:00,2023-12-12T15:02:54,0,,active
6110485,65423859,,,MacFarlane Road,,,,MacFarlane Road,,Kessington Road,,,,Before,,W,N0078783,Kessington,Bearsden,,BEARSDEN,,,,0,,255113,671474,,,BCT,MKD,OTH,,,,121,2003-08-27T00:00:00,2023-12-12T15:02:54,0,,active
6110486,65423734,,,Ross Avenue,,,,Ross Avenue,,Redbrae Road,,,,after,,E,ES002189,Kirkintilloch,,,KIRKINTILLOCH,,,,0,,266601,673476,,,BCT,MKD,OTH,,,,121,2003-08-27T00:00:00,2023-12-12T15:02:54,0,,active
6110487,65423527,,,Waterside Road,,,,Waterside Road,,Redbrae Road,,,,after,,W,ES002189,Kirkintilloch,,,KIRKINTILLOCH,,,,0,,266607,673466,,,BCT,MKD,OTH,,,,121,2003-08-27T00:00:00,2023-12-12T15:02:54,0,,active
6110488,65423964,,,Dumgoyne Drive,,,,Dumgoyne Drive,,Stockiemuir Avenue,,,,eastbound,,SW,ES000318,Bearsden,,,BEARSDEN,,,,0,,253964,673246,,,BCT,MKD,OTH,,,,121,2003-08-27T00:00:00,2023-12-12T15:02:54,0,,inactive
6110489,65423657,,,Cochno Road,,,,Cochno Road,,Duntocher Road,,,,opp,,W,ES000318,Bearsden,,,BEARSDEN,,,,0,,251485,673142,,,BCT,CUS,OTH,,,,121,2003-08-27T00:00:00,2023-12-12T15:02:54,0,,active
611049,65423592,,,Station Road,,,,Bearsden Station,,Drymen Road,,,,before,,NW,ES000318,Bearsden,,,BEARSDEN,,,,1,,254420,671748,,,BCT,MKD,OTH,,,,121,2003-08-27T00:00:00,2023-12-12T15:02:54,0,,active
6110490,65423489,,,Firbank Avenue,,,,Firbank Avenue,,Main Street,,,,before,,S,ES003678,Torrance,,,TORRANCE,,,,1,,261887,673830,,,BCT,MKD,OTH,,,,121,2003-08-27T00:00:00,2023-12-12T15:02:54,0,,active
6110491,65423275,,,Mill Crescent,,,,Mill Crescent,,Campsie Road,,,,Opp,,SW,ES003678,Torrance,,,TORRANCE,,,,0,,262279,674275,,,BCT,MKD,OTH,,,,121,2003-08-27T00:00:00,2023-12-12T15:02:54,0,,active
6110492,65423623,,,Millhill,,,,Millhill,,Glen Road,,,,at,,NW,ES002324,Lennoxtown,,,LENNOXTOWN,,,,0,,261918,678543,,,BCT,MKD,OTH,,,,121,2003-08-27T00:00:00,2023-12-12T15:02:54,0,,active
6110493,65423834,,,Fingarry House,,,,Fingarry House,,Campsie Road,,,,after,,NW,N0068157,Milton of Campsie,,,MILTON OF CAMPSIE,,,,0,,264353,676974,,,BCT,CUS,OTH,,,,121,2003-08-27T00:00:00,2023-12-12T15:02:54,0,,active
6110494,65423867,,,Murray Gardens,,,,Murray Gardens,,Birdston Road,,,,opp,,N,N0068157,Milton of Campsie,,,MILTON OF CAMPSIE,,,,0,,265167,676543,,,BCT,MKD,OTH,,,,121,2003-08-27T00:00:00,2023-12-12T15:02:54,0,,active
6110495,65423482,,,Back O'Dykes Road,,,,Back O'Dykes Rd,,Bankhead Road,,,,after,,SE,N0068238,Waterside,Kirkintilloch,,KIRKINTILLOCH,,,,0,,267658,673210,,,BCT,MKD,OTH,,,,121,2003-08-27T00:00:00,2023-12-12T15:02:54,0,,active
6110496,65423548,,,Cyprian Drive,,,,Crosshill Road,,Auchinloch Road,,,,before,,SE,ES002326,Lenzie,Kirkintilloch,,KIRKINTILLOCH,,,,1,,265902,671148,,,BCT,MKD,OTH,,,,121,2003-08-27T00:00:00,2023-12-12T15:02:54,0,,active
6110497,65424386,,,Millersneuk Road,,,,Millersneuk Road,,Auchinloch Road,,,,opp,,N,ES002326,Lenzie,Kirkintilloch,,LENZIE,,,,1,,265602,671850,,,BCT,MKD,OTH,,,,121,2003-08-27T00:00:00,2023-12-12T15:02:54,0,,active
61105,65423975,,,Lochend Road,,,,Lochend Road,,Canniesburn Road,,,,opp,,W,ES003830,Westerton,Bearsden,,BEARSDEN,,,,1,,254201,671148,,,BCT,MKD,OTH,,,,121,2003-08-27T00:00:00,2023-12-12T15:02:54,0,,active
611050,65423797,,,Roman Road,,,,Roman Road,,Drymen Road,,,,after,,SE,ES000318,Bearsden,,,BEARSDEN,,,,1,,254286,672013,,,BCT,MKD,OTH,,,,121,2003-08-27T00:00:00,2023-12-12T15:02:54,0,,active
6110500,65423969,,,Drumhill,,,,Drumhill,,Ellisland Drive,,,,opp,,E,ES001718,Harestanes,Kirkintilloch,,KIRKINTILLOCH,,,,0,,267661,674729,,,BCT,CUS,OTH,,,,121,2003-08-27T00:00:00,2023-12-12T15:02:54,0,,active
6110501,65423757,,,Waverley Park,,,,Highfield Road,,Redbrae Road,,,,after,,NW,ES002189,Kirkintilloch,,,KIRKINTILLOCH,,,,0,,266078,673969,,,BCT,MKD,OTH,,,,121,2003-08-27T00:00:00,2023-12-12T15:02:54,0,,active
6110503,65423679,,,Thrums Avenue,,,,Thrums Avenue,,Woodhill Road,,,,opp,,N,N0078829,Auchinairn,Bishopbriggs,,BISHOPBRIGGS,,,,0,,262169,670319,,,BCT,CUS,OTH,,,,121,2003-08-27T00:00:00,2023-12-12T15:02:54,0,,active
6110504,65423839,,,Westergreens Avenue,,,,No 57,,Westergreens Avenue,,,,opp 57,,NE,ES002326,Lenzie,Kirkintilloch,,KIRKINTILLOCH,,,,0,,265005,672834,,,BCT,MKD,OTH,,,,121,2003-08-27T00:00:00,2023-12-12T15:02:54,0,,inactive
6110505,65424353,,,Canniesburn Road,,,,Canniesburn Hospital (rear),,Maxwell Avenue,,,,before,,N,ES000318,Bearsden,,,BEARSDEN,,,,0,,254022,670974,,,BCT,MKD,OTH,,,,121,2003-08-27T00:00:00,2023-12-12T15:02:54,0,,inactive
6110506,65424294,,,Craighead Drive,,,,Craighead Drive,,Douglas Muir Road,,,,opp,,NE,N0078786,Castlemains,Milngavie,,MILNGAVIE,,,,0,,253479,674679,,,BCT,MKD,OTH,,,,121,2003-08-27T00:00:00,2023-12-12T15:02:54,0,,active
6110507,65423893,,,Kikintilloch Road,,,,Kirkintilloch Road,,Balmuildy Road,,,,after,,W,N0078825,Mavis Valley,Bishopbriggs,,BISHOPBRIGGS,,,,0,,261044,670615,,,BCT,CUS,OTH,,,,121,2003-08-27T00:00:00,2023-12-12T15:02:54,0,,active
6110508,65424358,,,Strathblane Road,,,,Strathblane Road,,Haughhead,,,,before,,NW,N0072844,Haughhead,,,CLACHAN OF CAMPSIE,,,,0,,261099,679145,,,BCT,MKD,OTH,,,,121,2003-08-27T00:00:00,2023-12-12T15:02:54,0,,active
6110509,65425263,,,Cadder Cemetery,,,,Cadder Cemetery,,Crosshill Road,,,,at,,NE,ES000526,Cadder,Bishopbriggs,,BISHOPBRIGGS,,,,1,,262441,672267,,,BCT,MKD,OTH,,,,121,2003-08-27T00:00:00,2023-12-12T15:02:54,0,,active
611051,65424293,,,Milngavie Road,,,,Milngavie Road,,Kessington Road,,,,after,,E,N0078783,Kessington,Bearsden,,BEARSDEN,,,,0,,255042,671488,,,BCT,MKD,OTH,,,,121,2003-08-27T00:00:00,2023-12-12T15:02:54,0,,active
6110510,65425323,,,Strathkelvin Retail Park,,,,Cadder Cemetery,,Crosshill Road,,,,before,,SW,ES000526,Cadder,Bishopbriggs,,BISHOPBRIGGS,,,,1,,262300,672184,,,BCT,MKD,OTH,,,,121,2003-08-27T00:00:00,2023-12-12T15:02:54,0,,active
6110511,65425373,,,Letham Oval,,,,Auchinairn Road,,Letham Drive,,,,opp,,NW,N0078829,Auchinairn,Bishopbriggs,,BISHOPBRIGGS,,,,0,,262579,669550,,,BCT,MKD,OTH,,,,121,2003-08-27T00:00:00,2023-12-12T15:02:54,0,,active
6110512,65425452,,,Balvie Road,,,,Balvie Road,,Clober Road,,,,opp,,S,ES002623,Milngavie,,,MILNGAVIE,,,,0,,255040,674667,,,BCT,MKD,OTH,,,,121,2003-08-27T00:00:00,2023-12-12T15:02:54,0,,inactive
6110513,65425659,,,Balvie Road,,,,Balvie Road,,Clober Road,,,,at,,N,ES002623,Milngavie,,,MILNGAVIE,,,,0,,255031,674639,,,BCT,MKD,OTH,,,,121,2003-08-27T00:00:00,2023-12-12T15:02:54,0,,inactive
6110514,65425694,,,Boclair Crescent,,,,Boclair Crescent,,Boclair Road,,,,opp,,NE,N0078782,Hillfoot,Bearsden,,BEARSDEN,,,,0,,255379,672053,,,BCT,MKD,OTH,,,,121,2003-08-27T00:00:00,2023-12-12T15:02:54,0,,active
6110518,65425696,,,Grahamsdyke Road,,,,Grahamsdyke Road,,Hillhead Road,,,,Before,,E,ES002189,Kirkintilloch,,,KIRKINTILLOCH,,,,0,,266187,674242,,,BCT,MKD,OTH,,,,121,2003-08-27T00:00:00,2023-12-12T15:02:54,0,,active
611052,65424267,,,Clathic Avenue,,,,Calthic Avenue,,Kessington Road,,,,before,,E,N0078783,Kessington,Bearsden,,BEARSDEN,,,,0,,255307,671474,,,BCT,MKD,OTH,,,,121,2003-08-27T00:00:00,2023-12-12T15:02:54,0,,active
6110520,65425945,,,Cairnsmore Drive,,,,Cairnsmore Drive,,Grampian Way,,,,Before,,W,N0078780,Baljaffray,Bearsden,,BEARSDEN,,,,0,,252866,673552,,,BCT,MKD,OTH,,,,121,2003-08-27T00:00:00,2023-12-12T15:02:54,0,,active
6110524,65425898,,,Kennedy Drive,,,,Kennedy Drive,,Main Street,,,,before,,N,ES003727,Twechar,,,TWECHAR,,,,0,,270036,675341,,,BCT,MKD,OTH,,,,121,2003-08-27T00:00:00,2023-12-12T15:02:54,0,,active
6110525,,,,Collylinn Road,,,,Collylinn Road,,Whitehill Road,,,,opp,,N,ES000318,Bearsden,,,BEARSDEN,,,,1,,253971,671966,,,BCT,MKD,OTH,,,,121,2003-08-27T00:00:00,2023-12-12T15:02:54,0,,inactive
6110526,,,,Campbell Drive,,,,Campbell Drive,,Thorn Drive,,,,opp,,N,ES000318,Bearsden,,,BEARSDEN,,,,1,,253796,672321,,,BCT,MKD,OTH,,,,121,2003-08-27T00:00:00,2023-12-12T15:02:54,0,,inactive
6110527,,,,Manse Gardens,,,,Manse Gardens,,Manse Road,,,,opp,,E,ES000318,Bearsden,,,BEARSDEN,,,,1,,254506,672310,,,BCS,MKD,OTH,,,,121,2003-08-27T00:00:00,2023-12-12T15:02:54,0,,inactive
6110528,,,,Grange Road,,,,Grange Road,,Roman Road,,,,after,,E,ES000318,Bearsden,,,BEARSDEN,,,,1,,254761,672070,,,BCT,MKD,OTH,,,,121,2003-08-27T00:00:00,2023-12-12T15:02:54,0,,inactive
6110529,,,,Thorn Drive,,,,Thorn Drive,,Drymen Road,,,,after,,W,ES000318,Bearsden,,,BEARSDEN,,,,1,,253787,672766,,,BCT,MKD,OTH,,,,121,2003-08-27T00:00:00,2023-12-12T15:02:54,0,,inactive
611053,65424327,,,Killermont Road,,,,Killermont Road,,Kessington Road,,,,before,,W,N0078783,Kessington,Bearsden,,BEARSDEN,,,,0,,255358,671458,,,BCT,MKD,OTH,,,,121,2003-08-27T00:00:00,2023-12-12T15:02:54,0,,active
6110530,65425923,,,Cadder Cemetry,,,,Cemetry,,Crosshill Road,,,,opp,,SW,ES000526,Cadder,Bishopbriggs,,BISHOPBRIGGS,,,,0,,262482,672270,,,BCT,MKD,OTH,,,,121,2003-08-27T00:00:00,2023-12-12T15:02:54,0,,active
6110531,65425927,,,Lochnagar Drive,,,,Lochnagar Drive,,Grampian Way,,,,before,,E,N0078780,Baljaffray,Bearsden,,BEARSDEN,,,,0,,252697,673408,,,BCT,MKD,OTH,,,,121,2003-08-27T00:00:00,2023-12-12T15:02:54,0,,active
6110532,65425928,,,Miller Drive,,,,Miller Drive,,Auchinairn Road,,,,opp,,SW,N0068199,Robroyston,Glasgow,,BISHOPBRIGGS,,,,1,,262872,669577,,,BCT,MKD,OTH,,,,121,2003-08-27T00:00:00,2023-12-12T15:02:54,0,,active
6110533,65489594,,,Miller Drive,,,,Miller Drive,,Auchinairn Road,,,,after,,NE,N0068199,Robroyston,Glasgow,,BISHOPBRIGGS,,,,1,,262960,669637,,,BCT,MKD,OTH,,,,121,2003-08-27T00:00:00,2023-12-12T15:02:54,0,,active
6110534,65489587,,,Heather Drive,,,,Mid Boghead Cottage,,Boghead Road,,,,Opp,,N,N0072845,High Gallowhill,Kirkintilloch,,KIRKINTILLOCH,,,,0,,264150,671918,,,BCT,MKD,OTH,,,,121,2003-08-27T00:00:00,2023-12-12T15:02:54,0,,active
6110535,65489589,,,Heather Drive,,,,Boghead Cottages,,Boghead Road,,,,After,,S,N0072845,High Gallowhill,Kirkintilloch,,KIRKINTILLOCH,,,,0,,264167,671919,,,BCT,MKD,OTH,,,,121,2003-08-27T00:00:00,2023-12-12T15:02:54,0,,active
6110536,65489578,,,Grampian Way,,,,Grampian Way,,Ledi Drive,,,,after,,S,N0078780,Baljaffray,Bearsden,,BEARSDEN,,,,1,,252656,673345,,,BCT,MKD,OTH,,,,121,2003-08-27T00:00:00,2023-12-12T15:02:54,0,,active
6110537,65497452,,,Craigton Road,,,,Craigton Road,,Hunter Road,,,,after,,S,ES002623,Milngavie,,,MILNGAVIE,,,,1,,254292,675128,,,BCT,MKD,OTH,,,,121,2003-08-27T00:00:00,2023-12-12T15:02:54,0,,active
6110538,65425638,,,Craigash Road,,,,Craigash Road,,Craigton Road,,,,before,,NW,ES002623,Milngavie,,,MILNGAVIE,,,,1,,254471,675119,,,BCT,MKD,OTH,,,,121,2003-08-27T00:00:00,2023-12-12T15:02:54,0,,active
6110539,65425645,,,Hilton Road,,,,Hilton Road,,Meadowburn,,,,After,,NW,N0078825,Mavis Valley,Bishopbriggs,,BISHOPBRIGGS,,,,0,,261204,671286,,,BCT,MKD,OTH,,,,121,2003-08-27T00:00:00,2023-12-12T15:02:54,0,,active
611054,65423792,,,Rannoch Drive,,,,Rannoch Drive,,Kessington Road,,,,before,,E,N0078783,Kessington,Bearsden,,BEARSDEN,,,,0,,255555,671387,,,BCT,MKD,OTH,,,,121,2003-08-27T00:00:00,2023-12-12T15:02:54,0,,active
6110540,65425646,,,Calder Gate,,,,Calder Gate,,Meadowburn,,,,Before,,NW,N0078825,Mavis Valley,Bishopbriggs,,BISHOPBRIGGS,,,,0,,260975,671400,,,BCT,MKD,OTH,,,,121,2003-08-27T00:00:00,2023-12-12T15:02:54,0,,active
6110541,65425647,,,Yarrow Road,,,,,,Meadowburn,,,,opp,,NE,N0078825,Mavis Valley,Bishopbriggs,,BISHOPBRIGGS,,,,0,,261036,671579,,,BCT,MKD,OTH,,,,121,2003-08-27T00:00:00,2023-12-12T15:02:54,0,,active
6110542,65425648,,,Bowmont Hill,,,,Bowmont Hill,,Meadowburn,,,,After,,SE,N0078825,Mavis Valley,Bishopbriggs,,BISHOPBRIGGS,,,,0,,261310,671673,,,BCT,MKD,OTH,,,,121,2003-08-27T00:00:00,2023-12-12T15:02:54,0,,active
6110543,65425649,,,Beech Place,,,,,,Beech Road,,,,before,,N,N0078829,Auchinairn,Bishopbriggs,,BISHOPBRIGGS,,,,0,,261632,669514,,,BCT,MKD,OTH,,,,121,2003-08-27T00:00:00,2023-12-12T15:02:54,0,,active
6110544,65425652,,,Kentigern Terrace,,,,,,East Springfield Terrace,,,,before,,N,N0078829,Auchinairn,Bishopbriggs,,BISHOPBRIGGS,,,,0,,261612,669817,,,BCT,MKD,OTH,,,,121,2003-08-27T00:00:00,2023-12-12T15:02:54,0,,active
6110545,65425653,,,Springfield Square,,,,,,Callieburn Road,,,,before,,N,N0078829,Auchinairn,Bishopbriggs,,BISHOPBRIGGS,,,,0,,261469,669956,,,BCT,MKD,OTH,,,,121,2003-08-27T00:00:00,2023-12-12T15:02:54,0,,active
6110546,65425727,,,Larkfield Centre,,,,,,Woodilee Rd,,,,at,,SW,ES002326,Lenzie,Kirkintilloch,,LENZIE,,,,0,,266202,672344,,,BCT,MKD,OTH,,,,121,2003-08-27T00:00:00,2023-12-12T15:02:54,0,,active
6110547,65425686,,,Easter Garngaber Rd,,,,,,Garngaber Rd,,,,after,,SW,ES002326,Lenzie,Kirkintilloch,,LENZIE,,,,0,,266058,672197,,,BCT,MKD,OTH,,,,121,2003-08-27T00:00:00,2023-12-12T15:02:54,0,,active
6110548,65425675,,,Easter Garngaber Rd,,,,,,Garngaber Rd,,,,opp,,NE,ES002326,Lenzie,Kirkintilloch,,LENZIE,,,,0,,266035,672204,,,BCT,MKD,OTH,,,,121,2003-08-27T00:00:00,2023-12-12T15:02:54,0,,active
6110549,65425735,,,Lomond Rd,,,,,,Garngaber Avenue,,,,before,,NE,ES002326,Lenzie,Kirkintilloch,,LENZIE,,,,0,,265737,672078,,,BCT,MKD,OTH,,,,121,2003-08-27T00:00:00,2023-12-12T15:02:54,0,,active
611055,65424363,,,Rannoch Drive,,,,Rannoch Drive,,Kessington Road,,,,at,,W,ES000318,Bearsden,,,BEARSDEN,,,,0,,255604,671366,,,BCT,MKD,OTH,,,,121,2003-08-27T00:00:00,2023-12-12T15:02:54,0,,inactive
6110550,65425738,,,Lomond Rd,,,,,,Garngaber Avenue,,,,opp,,W,ES002326,Lenzie,Kirkintilloch,,LENZIE,,,,0,,265716,672060,,,BCT,MKD,OTH,,,,121,2003-08-27T00:00:00,2023-12-12T15:02:54,0,,active
6110551,65425858,,,Bankhead Road,,,,Bankhead Road,,Waterside Road,,,,After,,SW,ES002189,Kirkintilloch,,,KIRKINTILLOCH,,,,0,,267337,673521,,,BCT,MKD,OTH,,,,121,2003-08-27T00:00:00,2023-12-12T15:02:54,0,,active
6110552,65426272,,,McCabe Gardens,,,,McCabe Gardens,,Rowantree Place,,,,after,,E,ES002324,Lennoxtown,,,LENNOXTOWN,,,,0,,263515,677149,,,BCT,MKD,OTH,,,,121,2003-08-27T00:00:00,2023-12-12T15:02:54,0,,active
6110553,65426279,,,McCabe Gardens,,,,McCabe Gardens,,Rowantree Place,,,,opp,,NW,ES002324,Lennoxtown,,,LENNOXTOWN,,,,0,,263478,677157,,,BCT,MKD,OTH,,,,121,2003-08-27T00:00:00,2023-12-12T15:02:54,0,,active
6110554,65425935,,,Park Road,,,,Park Road,,Park Crescent,,,,before,,S,ES000362,Bishopbriggs,,,BISHOPBRIGGS,,,,0,,261481,670919,,,BCT,MKD,OTH,,,,121,2003-08-27T00:00:00,2023-12-12T15:02:54,0,,inactive
6110555,65425876,,,Park Road,,,,Park Road,,Hillside Drive,,,,after,,SW,ES000362,Bishopbriggs,,,BISHOPBRIGGS,,,,0,,261477,670686,,,BCT,MKD,OTH,,,,121,2003-08-27T00:00:00,2023-12-12T15:02:54,0,,inactive
6110556,65425949,,,Balmuildy Road,,,,Balmuildy Road,,Keir Drive,,,,after,,SW,N0078825,Mavis Valley,Bishopbriggs,,BISHOPBRIGGS,,,,0,,260836,670759,,,BCT,MKD,OTH,,,,121,2003-08-27T00:00:00,2023-12-12T15:02:54,0,,active
6110557,65425965,,,Tofthill Avenue,,,,Tofthill Avenue,,Southesk Avenue,,,,before,,NW,N0078825,Mavis Valley,Bishopbriggs,,BISHOPBRIGGS,,,,0,,260689,670798,,,BCT,MKD,OTH,,,,121,2003-08-27T00:00:00,2023-12-12T15:02:54,0,,active
6110558,65425956,,,Southesk Avenue,,,,Southesk Avenue,,Stirling Drive,,,,after,,SW,N0078825,Mavis Valley,Bishopbriggs,,BISHOPBRIGGS,,,,0,,260560,671026,,,BCT,MKD,OTH,,,,121,2003-08-27T00:00:00,2023-12-12T15:02:54,0,,active
6110559,65425976,,,Faskally Avenue,,,,Faskally Avenue,,Stirling Drive,,,,opp,,NW,N0078825,Mavis Valley,Bishopbriggs,,BISHOPBRIGGS,,,,0,,260404,670999,,,BCT,MKD,OTH,,,,121,2003-08-27T00:00:00,2023-12-12T15:02:54,0,,active
6110560,65425987,,,Westfields,,,,Westfields,,Stirling Drive,,,,before,,NW,N0078825,Mavis Valley,Bishopbriggs,,BISHOPBRIGGS,,,,0,,260331,671154,,,BCT,MKD,OTH,,,,121,2003-08-27T00:00:00,2023-12-12T15:02:54,0,,active
6110561,65426238,,,Muirton Drive,,,,Muirton Drive,,Stirling Drive,,,,opp,,NE,N0078825,Mavis Valley,Bishopbriggs,,BISHOPBRIGGS,,,,0,,260501,671291,,,BCT,MKD,OTH,,,,121,2003-08-27T00:00:00,2023-12-12T15:02:54,0,,active
6110562,65426386,,,Wyvis Avenue,,,,Wyvis Avenue,,Grampian Way,,,,after,,SE,N0078780,Baljaffray,Bearsden,,BEARSDEN,,,,0,,253110,673287,,,BCT,MKD,OTH,,,,121,2003-08-27T00:00:00,2023-12-12T15:02:54,0,,active
6110563,65426349,,,Marley Tile Factory,,,,Marley Tile Factory,,Kirkintilloch Road,,,,opp,,SW,ES000526,Cadder,Bishopbriggs,,BISHOPBRIGGS,,,,0,,262191,672399,,,BCT,MKD,OTH,,,,121,2003-08-27T00:00:00,2023-12-12T15:02:54,0,,active
6110567,65426364,,,Glen Road,,,,22 Glen Road,,Glen Road,,,,opp 22,,NW,ES002324,Lennoxtown,,,LENNOXTOWN,,,,0,,262065,678382,,,BCT,MKD,OTH,,,,121,2003-08-27T00:00:00,2023-12-12T15:02:54,0,,active
6110568,65426359,,,Cairnlea Road,,,,Hunter Road,,Castle Mains Road,,,,opp,,E,N0078786,Castlemains,Milngavie,,MILNGAVIE,,,,0,,254213,674499,,,BCT,MKD,OTH,,,,121,2003-08-27T00:00:00,2023-12-12T15:02:54,0,,active
6110569,65426362,,,Cairnlea Road,,,,Cairnlea Road,,Castle Mains Road,,,,after,,W,N0078786,Castlemains,Milngavie,,MILNGAVIE,,,,0,,254180,674479,,,BCT,MKD,OTH,,,,121,2003-08-27T00:00:00,2023-12-12T15:02:54,0,,active
611057,65423845,,,Killermont Primary,,,,Afton Crescent,,Kessington Road,,,,at,,W,ES000318,Bearsden,,,BEARSDEN,,,,0,,255724,671354,,,BCT,MKD,OTH,,,,121,2003-08-27T00:00:00,2023-12-12T15:02:54,0,,inactive
6110570,65426365,,,Bagallan Place,,,,Bagallan Place,,Castle Mains Road,,,,after,,S,N0078786,Castlemains,Milngavie,,MILNGAVIE,,,,0,,253730,674773,,,BCT,MKD,OTH,,,,121,2003-08-27T00:00:00,2023-12-12T15:02:54,0,,active
6110571,65426367,,,Dumbeg Terrace,,,,Dumbeg Terrace,,Douglas Muir Road,,,,before,,W,N0078786,Castlemains,Milngavie,,MILNGAVIE,,,,0,,253629,674854,,,BCT,MKD,OTH,,,,121,2003-08-27T00:00:00,2023-12-12T15:02:54,0,,active
6110572,65424573,,,Robinsfield,,,,Robinsfield,,A807,,,,after,,NE,N0068004,Bardowie,,,BARDOWIE,,,,0,,258072,673285,,,BCT,MKD,OTH,,,,121,2003-08-27T00:00:00,2023-12-12T15:02:54,0,,active
6110573,65424574,,,Robinsfield,,,,Robinsfield,,A807,,,,opp,,SW,N0068004,Bardowie,,,BARDOWIE,,,,0,,258065,673275,,,BCT,CUS,OTH,,,,121,2003-08-27T00:00:00,2023-12-12T15:02:54,0,,active
6110577,65425269,,,Westerhill Business Park,,,,Turning Circle,,Westerhill Road,,,,at,,NW,N0078829,Auchinairn,Bishopbriggs,,BISHOPBRIGGS,,,,0,,262732,671087,,,BCT,MKD,OTH,,,,121,2003-08-27T00:00:00,2023-12-12T15:02:54,0,,active
6110578,65424659,,,Low Moss Prison,,,,Low Moss Prison,,Crosshill Road,,,,opp,,E,ES000362,Bishopbriggs,,,BISHOPBRIGGS,,,,0,,262770,672380,,,BCT,MKD,OTH,,,,121,2003-08-27T00:00:00,2023-12-12T15:02:54,0,,active
6110579,65424868,,,Low Moss Prison,,,,Low Moss Prison,,Crosshill Road,,,,at,,W,ES000362,Bishopbriggs,,,BISHOPBRIGGS,,,,0,,262755,672355,,,BCT,MKD,OTH,,,,121,2003-08-27T00:00:00,2023-12-12T15:02:54,0,,active
611058,65423678,,,Afton Crescent,,,,Afton Crescent,,Kessington Road,,,,opp,,W,ES000318,Bearsden,,,BEARSDEN,,,,0,,255896,671329,,,BCT,MKD,OTH,,,,121,2003-08-27T00:00:00,2023-12-12T15:02:54,0,,inactive
6110580,65424835,,,West Balgrochan Road,,,,West Balgrochan Road,,School Road,,,,after,,NE,ES003678,Torrance,,,TORRANCE,,,,0,,262039,674302,,,BCT,HAR,OTH,,,,121,2003-08-27T00:00:00,2023-12-12T15:02:54,0,,active
6110581,65425258,,,School Road,,,,School Road,,Mill Crescent,,,,after,,NE,ES003678,Torrance,,,TORRANCE,,,,0,,262189,674321,,,BCT,HAR,OTH,,,,121,2003-08-27T00:00:00,2023-12-12T15:02:54,0,,inactive
6110582,65425356,,,Forth Road,,,,Forth Road,,Allander Road,,,,before,,SE,ES000318,Bearsden,,,BEARSDEN,,,,0,,253621,671057,,,BCT,CUS,OTH,,,,121,2003-08-27T00:00:00,2023-12-12T15:02:54,0,,inactive
6110583,65425396,,,Allander Road,,,,Allander Road,,Spey Road,,,,after,,SW,ES000318,Bearsden,,,BEARSDEN,,,,0,,253698,670887,,,BCT,CUS,OTH,,,,121,2003-08-27T00:00:00,2023-12-12T15:02:54,0,,inactive
6110584,65425454,,,Deveron Road,,,,Deveron Road,,Spey Road,,,,before,,SW,ES000318,Bearsden,,,BEARSDEN,,,,0,,253436,670728,,,BCT,CUS,OTH,,,,121,2003-08-27T00:00:00,2023-12-12T15:02:54,0,,inactive
6110585,65424952,,,Monreith Avenue,,,,Monreith Avenue,,Maxwell Avenue,,,,before,,S,ES000318,Bearsden,,,BEARSDEN,,,,0,,254033,670853,,,BCT,CUS,OTH,,,,121,2003-08-27T00:00:00,2023-12-12T15:02:54,0,,inactive
6110586,65424786,,,Crarae Avenue,,,,Crarae Avenue,,Maxwell Avenue,,,,before,,SE,ES000318,Bearsden,,,BEARSDEN,,,,0,,254238,670395,,,BCT,CUS,OTH,,,,121,2003-08-27T00:00:00,2023-12-12T15:02:54,0,,inactive
6110587,65424582,,,Maxwell Avenue,,,,No. 151,,Maxwell Avenue,,,,at 151,,SE,ES003830,Westerton,Bearsden,,BEARSDEN,,,,0,,254445,670121,,,BCT,CUS,OTH,,,,121,2003-08-27T00:00:00,2023-12-12T15:02:54,0,,inactive
6110588,65424754,,,Boclair Academy Car Park,,,,Car Park,,Boclair Academy,,,,at,,W,N0078783,Kessington,Bearsden,,BEARSDEN,,,,0,,255976,671706,,,BCT,CUS,OTH,,,,121,2003-08-27T00:00:00,2023-12-12T15:02:54,0,,active
6110589,65424753,,,Dyke Road,,,,Dyke Road,,A803,,,,after,,NE,N0067992,Auchenreoch,,,AUCHENREOCH,,,,0,,267547,676522,,,BCT,MKD,OTH,,,,121,2003-08-27T00:00:00,2023-12-12T15:02:54,0,,active
611059,65424367,,,Arisaig Drive,,,,After Arisaig Drive,,Albert Drive,,,,After,,NE,ES000318,Bearsden,,,BEARSDEN,,,,0,,255862,671247,,,BCT,MKD,OTH,,,,121,2003-08-27T00:00:00,2023-12-12T15:02:54,0,,inactive
6110590,65424756,,,Dyke Rd,,,,Dyke Road,,A803,,,,opp & after,,SW,N0067992,Auchenreoch,,,AUCHENREOCH,,,,0,,267557,676523,,,BCT,MKD,OTH,,,,121,2003-08-27T00:00:00,2023-12-12T15:02:54,0,,active
6110591,65424762,,,Mill Crescent,,,,no 16,,Mill Crescent,,,,at 16,,SW,ES003678,Torrance,,,TORRANCE,,,,0,,262171,674297,,,BCT,CUS,OTH,,,,121,2003-08-27T00:00:00,2023-12-12T15:02:54,0,,inactive
6110592,65424963,,,Mill Crescent,,,,,,Mill Crescent,,,,at 13,,NE,ES003678,Torrance,,,TORRANCE,,,,0,,262190,674320,,,BCT,MKD,OTH,,,,121,2003-08-27T00:00:00,2023-12-12T15:02:54,0,,active
6110593,65424849,,,Turning Circle,,,,Turning Circle,,Ellisland Drive,,,,before,,E,ES001718,Harestanes,Kirkintilloch,,KIRKINTILLOCH,,,,0,,267814,674744,,,BCT,MKD,OTH,,,,121,2003-08-27T00:00:00,2023-12-12T15:02:54,0,,active
6110594,65425275,,,Wyvis Avenue,,,,Wyvis Avenue,,Grampian Way,,,,opp,,NW,ES000318,Bearsden,,,BEARSDEN,,,,0,,253105,673277,,,BCT,MKD,OTH,,,,121,2003-08-27T00:00:00,2023-12-12T15:02:54,0,,active
6110595,65425624,,,Lammermuir Gardens,,,,Lammermuir Gardens,,Grampian Way,,,,opp,,SW,ES000318,Bearsden,,,BEARSDEN,,,,0,,253347,673195,,,BCT,MKD,OTH,,,,121,2003-08-27T00:00:00,2023-12-12T15:02:54,0,,active
6110596,65425764,,,Tower Road,,,,Tower Road,,Balmore Road,,,,after,,E,ES003678,Torrance,,,TORRANCE,,,,0,,261325,673708,,,BCT,MKD,OTH,,,,121,2003-08-27T00:00:00,2023-12-12T15:02:54,0,,active
6110597,65425943,,,Kenilworth Road,,,,Kenilworth Road,,Redbrae Road,,,,before,,SE,ES002189,Kirkintilloch,,,KIRKINTILLOCH,,,,0,,266205,673650,,,BCT,MKD,OTH,,,,121,2003-08-27T00:00:00,2023-12-12T15:02:54,0,,active
6110598,65452587,,,Muir Street,,,,Muir St,,Springfield Road,,,,before,,W,ES000362,Bishopbriggs,,,BISHOPBRIGGS,,,,0,,261351,670089,,,BCT,MKD,OTH,,,,121,2003-08-27T00:00:00,2023-12-12T15:02:54,0,,active
6110599,65497285,,,Brackenbrae Road,,,,Brackenbrae Road,,Kenmure Avenue,,,,before,,E,ES000362,Bishopbriggs,,,BISHOPBRIGGS,,,,0,,260612,670250,,,BCT,MKD,OTH,,,,121,2003-08-27T00:00:00,2023-12-12T15:02:54,0,,active
611060,65423765,,,King George Playing Field,,,,At King George Playing Field,,Spiers Road,,,,At,,SE,ES000318,Bearsden,,,BEARSDEN,,,,0,,255604,671133,,,BCT,MKD,OTH,,,,121,2003-08-27T00:00:00,2023-12-12T15:02:54,0,,inactive
6110600,65454953,,,Lennox Road,,,,Lennox Road,,Whitefield Terrace,,,,opp,,W,ES002324,Lennoxtown,,,LENNOXTOWN,,,,0,,262227,678158,,,BCT,MKD,OTH,,,,121,2003-08-27T00:00:00,2023-12-12T15:02:54,0,,active
6110601,65497636,,,Woodilee Road,,,,Woodilee Road,,Initiative Road,,,,after,,N,ES002326,Lenzie,Kirkintilloch,,KIRKINTILLOCH,,,,0,,266231,672403,,,BCT,MKD,OTH,,,,121,2003-08-27T00:00:00,2023-12-12T15:02:54,0,,active
6110602,65484527,,,Woodilee Road,,,,Woodilee Road,,Initiative Road,,,,at,,SE,ES002326,Lenzie,Kirkintilloch,,KIRKINTILLOCH,,,,0,,266282,672339,,,BCT,MKD,OTH,,,,121,2003-08-27T00:00:00,2023-12-12T15:02:54,0,,inactive
6110603,65479283,,,Hunter Road,,,,Hunter Road,,Craigton Road,,,,before,,NW,ES002623,Milngavie,,,MILNGAVIE,,,,0,,254392,675167,,,BCT,MKD,OTH,,,,121,2003-08-27T00:00:00,2023-12-12T15:02:54,0,,active
6110604,65462687,,,Bemersyde,,,,Bemersyde,,Wester Cleddens Road,,,,opp,,W,N0078829,Auchinairn,Bishopbriggs,,BISHOPBRIGGS,,,,0,,262326,670649,,,BCT,MKD,OTH,,,,121,2003-08-27T00:00:00,2023-12-12T15:02:54,0,,active
6110605,65492687,,,Differ Avenue,,,,Differ Avenue,,Gartshore Crescent,,,,before,,E,ES003727,Twechar,,,TWECHAR,,,,0,,269681,674918,,,BCT,MKD,OTH,,,,121,2003-08-27T00:00:00,2023-12-12T15:02:54,0,,inactive
6110606,65462736,,,Johnstone Terrace,,,,Johnstone Terrace,,Gartshore Crescent,,,,after,,N,ES003727,Twechar,,,TWECHAR,,,,0,,269841,674987,,,BCT,MKD,OTH,,,,121,2003-08-27T00:00:00,2023-12-12T15:02:54,0,,inactive
6110607,65432634,,,Tinto Road,,,,Tinto Road,,Ledi Drive,,,,after,,N,ES000318,Bearsden,,,BEARSDEN,,,,0,,253144,672919,,,BCT,MKD,OTH,,,,121,2003-08-27T00:00:00,2023-12-12T15:02:54,0,,active
6110608,65498958,,,Wester Lumloch Road,,,,Wester Lumloch Road,,Wester Cleddens Road,,,,after,,W,ES000362,Bishopbriggs,,,BISHOPBRIGGS,,,,0,,262868,670553,,,BCT,MKD,OTH,,,,121,2003-08-27T00:00:00,2023-12-12T15:02:54,0,,active
6110609,65427845,,,Westerhill Road,,,,Westerhill Road,,Wester Cleddens Road,,,,before,,E,ES000362,Bishopbriggs,,,BISHOPBRIGGS,,,,0,,262872,670566,,,BCT,MKD,OTH,,,,121,2003-08-27T00:00:00,2023-12-12T15:02:54,0,,active
611061,65424275,,,Borland Road,,,,Borland Road,,Rannoch Drive,,,,opp,,SW,N0078783,Kessington,Bearsden,,BEARSDEN,,,,0,,255580,671311,,,BCT,MKD,OTH,,,,121,2003-08-27T00:00:00,2023-12-12T15:02:54,0,,active
6110610,65469376,,,Millersneuk Avenue,,,,Millersneuk Avenue,,Lindsaybeg Road,,,,opp,,NE,ES002326,Lenzie,Kirkintilloch,,LENZIE,,,,0,,265921,671643,,,BCT,MKD,OTH,,,,121,2003-08-27T00:00:00,2023-12-12T15:02:54,0,,active
6110611,65437672,,,Millersneuk Avenue,,,,Millersneuk Avenue,,Lindsaybeg Road,,,,after,,SW,ES002326,Lenzie,Kirkintilloch,,LENZIE,,,,0,,265902,671622,,,BCT,MKD,OTH,,,,121,2003-08-27T00:00:00,2023-12-12T15:02:54,0,,active
6110612,65467987,,,Laxton Drive,,,,Laxton Drive,,Lindsaybeg Road,,,,before,,SW,ES002326,Lenzie,Kirkintilloch,,LENZIE,,,,0,,266263,671805,,,BCT,MKD,OTH,,,,121,2003-08-27T00:00:00,2023-12-12T15:02:54,0,,active
6110613,65485642,,,Garngaber Road,,,,Garngaber Road,,Lindsaybeg Road,,,,before,,E,ES002326,Lenzie,Kirkintilloch,,LENZIE,,,,0,,266293,671832,,,BCT,MKD,OTH,,,,121,2003-08-27T00:00:00,2023-12-12T15:02:54,0,,active
6110614,65438242,,,Initiative Road,,,,Initiative Road,,Lindsaybeg Road,,,,before,,SE,ES002326,Lenzie,Kirkintilloch,,LENZIE,,,,0,,266591,671819,,,BCT,MKD,OTH,,,,121,2003-08-27T00:00:00,2023-12-12T15:02:54,0,,active
6110615,65482496,,,Initiative Road,,,,Initiative Road,,Lindsaybeg Road,,,,after,,NW,ES002326,Lenzie,Kirkintilloch,,LENZIE,,,,0,,266594,671798,,,BCT,MKD,OTH,,,,121,2003-08-27T00:00:00,2023-12-12T15:02:54,0,,active
6110616,65427595,,,A807,,,,A807,,Balmore Road,,,,before,,SW,N0068004,Bardowie,,,BARDOWIE,,,,0,,257616,672995,,,BCT,MKD,OTH,,,,121,2003-08-27T00:00:00,2023-12-12T15:02:54,0,,active
6110617,65427629,,,Rotary Way,,,,Gartconner Primary School,,Kirkintilloch Road,,,,after,,NE,ES002189,Kirkintilloch,,,KIRKINTILLOCH,,,,0,,268220,673781,,,BCT,MKD,OTH,,,,121,2003-08-27T00:00:00,2023-12-12T15:02:54,0,,active
6110618,65427672,,,Rotary Way,,,,Gartconner Primary School,,Kirkintilloch Road,,,,opp and before,,SW,ES002189,Kirkintilloch,,,KIRKINTILLOCH,,,,0,,268119,673737,,,BCT,MKD,OTH,,,,121,2003-08-27T00:00:00,2023-12-12T15:02:54,0,,active
6110619,65427656,,,Harper Collins,,,,Harper Collins,,Westerhill Road,,,,at,,SE,ES000362,Bishopbriggs,,,BISHOPBRIGGS,,,,0,,262409,671484,,,BCT,MKD,OTH,,,,121,2003-08-27T00:00:00,2023-12-12T15:02:54,0,,active
611062,65423264,,,Lynn Drive,,,,Lynn Drive,,Strathblane Road,,,,after,,W,ES002623,Milngavie,,,MILNGAVIE,,,,0,,256140,674989,,,BCT,MKD,OTH,,,,121,2003-08-27T00:00:00,2023-12-12T15:02:54,0,,active
6110621,65425342,,,Harestanes Gardens,,,,,,Langmuir Road,,,,opp,,W,ES002189,Kirkintilloch,,,KIRKINTILLOCH,,,,0,,267207,674253,,,BCT,MKD,OTH,,,,121,2003-08-27T00:00:00,2023-12-12T15:02:54,0,,active
6110622,65425348,,,Harestanes Gardens,,,,,,Langmuir Road,,,,opp,,E,ES002189,Kirkintilloch,,,KIRKINTILLOCH,,,,0,,267229,674265,,,BCT,MKD,OTH,,,,121,2003-08-27T00:00:00,2023-12-12T15:02:54,0,,active
6110623,65425276,,,Scotsblair Avenue,,,,No. 35,,Scotsblair Avenue,,,,at,,W,ES002189,Kirkintilloch,,,KIRKINTILLOCH,,,,0,,265175,673030,,,BCT,MKD,OTH,,,,121,2003-08-27T00:00:00,2023-12-12T15:02:54,0,,active
6110624,65425278,,,Westergreens Avenue,,,,,,Parkburn Avenue,,,,opposite,,S,ES002189,Kirkintilloch,,,KIRKINTILLOCH,,,,0,,265051,672909,,,BCT,MKD,OTH,,,,121,2003-08-27T00:00:00,2023-12-12T15:02:54,0,,active
6110625,65425279,,,Westergreens Avenue,,,,,,Parkburn Avenue,,,,after,,N,ES002189,Kirkintilloch,,,KIRKINTILLOCH,,,,1,,265050,672891,,,BCT,MKD,OTH,,,,121,2003-08-27T00:00:00,2023-12-12T15:02:54,0,,active
6110626,65425282,,,Larch Avenue,,,,,,Myrtle Avenue,,,,opposite,,W,ES002326,Lenzie,Kirkintilloch,,LENZIE,,,,0,,265108,672379,,,BCT,MKD,OTH,,,,121,2003-08-27T00:00:00,2023-12-12T15:02:54,0,,active
6110627,65425283,,,Larch Avenue,,,,,,Myrtle Avenue,,,,after,,E,ES002326,Lenzie,Kirkintilloch,,LENZIE,,,,0,,265116,672384,,,BCT,MKD,OTH,,,,121,2003-08-27T00:00:00,2023-12-12T15:02:54,0,,active
611063,65423692,,,Roselea Drive,,,,Roselea Drive,,Strathblane Road,,,,before,,E,ES002623,Milngavie,,,MILNGAVIE,,,,1,,256077,675005,,,BCT,MKD,OTH,,,,121,2003-08-27T00:00:00,2023-12-12T15:02:54,0,,active
6110630,65425286,,,Juniper Court,,,,,,Oak Drive,,,,opposite & after,,NE,ES002326,Lenzie,Kirkintilloch,,LENZIE,,,,0,,264723,672441,,,BCT,MKD,OTH,,,,121,2003-08-27T00:00:00,2023-12-12T15:02:54,0,,active
6110631,65425287,,,Juniper Court,,,,,,Oak Drive,,,,after,,SW,ES002326,Lenzie,Kirkintilloch,,LENZIE,,,,0,,264696,672396,,,BCT,MKD,OTH,,,,121,2003-08-27T00:00:00,2023-12-12T15:02:54,0,,active
6110632,65425289,,,Health Club,,,,,,Strathblane Road,,,,after,,SW,ES002623,Milngavie,,,MILNGAVIE,,,,0,,256452,675123,,,BCT,MKD,OTH,,,,121,2003-08-27T00:00:00,2023-12-12T15:02:54,0,,active
6110633,65425292,,,Health Club,,,,,,Strathblane Road,,,,opposite,,NE,ES002623,Milngavie,,,MILNGAVIE,,,,0,,256466,675146,,,BCT,MKD,OTH,,,,121,2003-08-27T00:00:00,2023-12-12T15:02:54,0,,active
6110634,65424538,,,Crematorium,,,,,,Crosshill Road,,,,at,,NE,ES000362,Bishopbriggs,,,BISHOPBRIGGS,,,,0,,263227,672261,,,BCT,MKD,OTH,,,,121,2003-08-27T00:00:00,2023-12-12T15:02:54,0,,active
6110635,65424539,,,Crematorium,,,,Crematorium,,Crosshill Road,,,,before,,NW,ES000362,Bishopbriggs,,,BISHOPBRIGGS,,,,0,,263276,672227,,,BCT,MKD,OTH,,,,121,2003-08-27T00:00:00,2023-12-12T15:02:54,0,,active
611064,65423247,,,Moor Road,,,,Moor Road,,Strathblane Road,,,,before,,N,ES002623,Milngavie,,,MILNGAVIE,,,,0,,255781,674852,,,BCT,MKD,OTH,,,,121,2003-08-27T00:00:00,2023-12-12T15:02:54,0,,active
611065,65423673,,,Strathblane Road,,,,No 70,,Strathblane Road,,,,at 70,,S,ES002623,Milngavie,,,MILNGAVIE,,,,0,,255782,674726,,,BCT,MKD,OTH,,,,121,2003-08-27T00:00:00,2023-12-12T15:02:54,0,,active
611066,65423825,,,Kesland Lane,,,,Kersland Lane,,Strathblane Road,,,,before,,N,ES002623,Milngavie,,,MILNGAVIE,,,,1,,255742,674555,,,BCT,MKD,OTH,,,,121,2003-08-27T00:00:00,2023-12-12T15:02:54,0,,active
611067,65423979,,,Station Road,,,,St Pauls Church,,Strathblane Road,,,,before,,S,ES002623,Milngavie,,,MILNGAVIE,,,,1,,255750,674543,,,BCT,MKD,OTH,,,,121,2003-08-27T00:00:00,2023-12-12T15:02:54,0,,active
611068,65424246,,,Mosshead Road,,,,Mosshead Road,,Milngavie Road,,,,after,,N,ES002623,Milngavie,,,BEARSDEN,,,,1,,255387,673306,,,BCT,MKD,OTH,,,,121,2003-08-27T00:00:00,2023-12-12T15:02:54,0,,active
611069,65423854,,,Mosshead Road,,,,Mosshead Road,,Milngavie Road,,,,opp,,S,ES002623,Milngavie,,,BEARSDEN,,,,1,,255403,673271,,,BCT,MKD,OTH,,,,121,2003-08-27T00:00:00,2023-12-12T15:02:54,0,,active
61107,65424254,,,Maxwell Avenue,,,,Maxwell AveNue,,Canniesburn Road,,,,opp,,E,ES003830,Westerton,Bearsden,,BEARSDEN,,,,1,,254072,671134,,,BCT,MKD,OTH,,,,121,2003-08-27T00:00:00,2023-12-12T15:02:54,0,,active
611070,65424396,,,Kilmardinny Avenue,,,,Kilmardinny Avenue,,Milngavie Road,,,,before,,N,N0078782,Hillfoot,Bearsden,,BEARSDEN,,,,1,,255431,672875,,,BCT,MKD,OTH,,,,121,2003-08-27T00:00:00,2023-12-12T15:02:54,0,,active
611071,65423486,,,Kilmardinny Avenue,,,,Kilmardinny Avenue,,Milngavie Road,,,,opp,,S,N0078782,Hillfoot,Bearsden,,BEARSDEN,,,,1,,255436,673008,,,BCT,MKD,OTH,,,,121,2003-08-27T00:00:00,2023-12-12T15:02:54,0,,active
611072,65424297,,,Reid Avenue,,,,Reid Avenue,,Milngavie Road,,,,opp,,SW,N0078782,Hillfoot,Bearsden,,BEARSDEN,,,,1,,255387,672618,,,BCT,MKD,OTH,,,,121,2003-08-27T00:00:00,2023-12-12T15:02:54,0,,active
611073,65423675,,,Reid Avenue,,,,Reid Avenue,,Milngavie Road,,,,before,,NE,N0078782,Hillfoot,Bearsden,,BEARSDEN,,,,1,,255346,672582,,,BCT,MKD,OTH,,,,121,2003-08-27T00:00:00,2023-12-12T15:02:54,0,,active
611074,65423438,,,Manse Road,,,,Manse Road,,Milngavie Road,,,,after,,NE,N0078782,Hillfoot,Bearsden,,BEARSDEN,,,,1,,255254,672466,,,BCT,MKD,OTH,,,,121,2003-08-27T00:00:00,2023-12-12T15:02:54,0,,active
611075,65423238,,,Manse Road,,,,Manse Road,,Milngavie Road,,,,opp,,SW,N0078782,Hillfoot,Bearsden,,BEARSDEN,,,,1,,255228,672385,,,BCT,MKD,OTH,,,,121,2003-08-27T00:00:00,2023-12-12T15:02:54,0,,active
611076,65423258,,,Nethermains Road,,,,Nethermains Road,,Main Street,,,,before,,N,ES002623,Milngavie,,,MILNGAVIE,,,,1,,255371,673665,,,BCT,MKD,OTH,,,,121,2003-08-27T00:00:00,2023-12-12T15:02:54,0,,active
611077,65423594,,,Nethermains Road,,,,Nethermains Road,,Main Street,,,,opp,,S,ES002623,Milngavie,,,MILNGAVIE,,,,1,,255388,673725,,,BCT,MKD,OTH,,,,121,2003-08-27T00:00:00,2023-12-12T15:02:54,0,,active
611078,65423279,,,Keystone Quadrant,,,,Keystone Quadrant,,Main Street,,,,before,,N,ES002623,Milngavie,,,MILNGAVIE,,,,1,,255366,673844,,,BCT,MKD,OTH,,,,121,2003-08-27T00:00:00,2023-12-12T15:02:54,0,,active
611079,65424292,,,Keystone Road,,,,Keystone Road,,Main Street,,,,before,,S,ES002623,Milngavie,,,MILNGAVIE,,,,1,,255371,673928,,,BCT,MKD,OTH,,,,121,2003-08-27T00:00:00,2023-12-12T15:02:54,0,,active
61108,65424524,,,Maxwell Avenue,,,,Maxwell Avenue,,Canniesburn Road,,,,before,,W,ES003830,Westerton,Bearsden,,BEARSDEN,,,,1,,254045,671115,,,BCT,MKD,OTH,,,,121,2003-08-27T00:00:00,2023-12-12T15:02:54,0,,active
611080,65424345,,,South Mains Road,,,,South Mains Road,,Main Street,,,,before,,N,ES002623,Milngavie,,,MILNGAVIE,,,,0,,255349,673981,,,BCT,MKD,OTH,,,,121,2003-08-27T00:00:00,2023-12-12T15:02:54,0,,active
611081,65423539,,,Keystone Avenue,,,,Keystone Avenue,,Main Street,,,,before,,S,ES002623,Milngavie,,,MILNGAVIE,,,,1,,255356,674073,,,BCT,MKD,OTH,,,,121,2003-08-27T00:00:00,2023-12-12T15:02:54,0,,active
611083,65424287,,,Main Street,,,,Marks & Spencer,,Woodburn Way,,,,after,,NE,ES002623,Milngavie,,,MILNGAVIE,,,,1,,255345,674282,,,BCT,MKD,OTH,,,,121,2003-08-27T00:00:00,2023-12-12T15:02:54,0,,active
611091,65424282,,,Milngavie Railway Station,,,,Milngavie Rail Station,,Fulton Road,,,,at,,N,ES002623,Milngavie,,,MILNGAVIE,,,,1,,255560,674439,,,BCT,MKD,OTH,,,,121,2003-08-27T00:00:00,2023-12-12T15:02:54,0,,active
611092,65423672,,,Ashfield Road,,,,Ashfield Road,,Park Road,,,,before,,SE,ES002623,Milngavie,,,MILNGAVIE,,,,1,,255245,674253,,,BCT,MKD,OTH,,,,121,2003-08-27T00:00:00,2023-12-12T15:02:54,0,,active
611093,65424394,,,Stewart Street,,,,Stewart Street,,Park Road,,,,opp,,NW,ES002623,Milngavie,,,MILNGAVIE,,,,1,,255209,674309,,,BCT,MKD,OTH,,,,121,2003-08-27T00:00:00,2023-12-12T15:02:54,0,,active
611094,65424239,,,Craigton Avenue,,,,Craigton Avenue,,Craigton Road,,,,opp,,SE,ES002623,Milngavie,,,MILNGAVIE,,,,0,,254989,674829,,,BCT,MKD,OTH,,,,121,2003-08-27T00:00:00,2023-12-12T15:02:54,0,,inactive
611095,65424296,,,Craigton Avenue,,,,Craigton Avenue,,Craigton Road,,,,at,,NW,ES002623,Milngavie,,,MILNGAVIE,,,,0,,254925,674855,,,BCT,MKD,OTH,,,,121,2003-08-27T00:00:00,2023-12-12T15:02:54,0,,inactive
611096,65423232,,,North Dumgoyne Avenue,,,,Clober Golf Club,,Craigton Road,,,,before,,SE,ES002623,Milngavie,,,MILNGAVIE,,,,0,,254756,674964,,,BCT,MKD,OTH,,,,121,2003-08-27T00:00:00,2023-12-12T15:02:54,0,,active
611097,65424349,,,Craigend Drive West,,,,Craigash Road,,Craigton Road,,,,opp,,SE,ES002623,Milngavie,,,MILNGAVIE,,,,0,,254598,675057,,,BCT,MKD,OTH,,,,121,2003-08-27T00:00:00,2023-12-12T15:02:54,0,,active
611098,65423953,,,Clober Farm Lane,,,,Craigton Bus Terminus,,Craigton Road,,,,opp,,SE,ES002623,Milngavie,,,MILNGAVIE,,,,0,,254420,675163,,,BCT,MKD,OTH,,,,121,2003-08-27T00:00:00,2023-12-12T15:02:54,0,,active
611099,65424324,,,Hilton Park Golf Club,,,,Golf Club,,A809,,,,opp,,NE,ES002623,Milngavie,,,MILNGAVIE,,,,0,,252611,677654,,,BCT,MKD,OTH,,,,121,2003-08-27T00:00:00,2023-12-12T15:02:54,0,,inactive
