ATCOCode,NaptanCode,PlateCode,CleardownCode,CommonName,CommonNameLang,ShortCommonName,ShortCommonNameLang,Landmark,LandmarkLang,Street,StreetLang,Crossing,CrossingLang,Indicator,IndicatorLang,Bearing,NptgLocalityCode,LocalityName,ParentLocalityName,GrandParentLocalityName,Town,TownLang,Suburb,SuburbLang,LocalityCentre,GridType,Easting,Northing,Longitude,Latitude,StopType,BusStopType,TimingStatus,DefaultWaitTime,Notes,NotesLang,AdministrativeAreaCode,CreationDateTime,ModificationDateTime,RevisionNumber,Modification,Status
612010,37323428,,,Victoria Road,,,,Victoria Road,,Paisley Road,,,,opp,,N,ES000295,Barrhead,,,BARRHEAD,,,,1,,249756,659534,,,BCT,MKD,OTH,,,,123,2003-08-27T00:00:00,2023-12-12T15:02:54,0,,active
6120100,37323232,,,Double Hedges Road,,,,Double Hedges Road,,Main Street,,,,before,,SW,ES002751,Neilston,,,NEILSTON,,,,0,,247600,657021,,,BCT,MKD,OTH,,,,123,2003-08-27T00:00:00,2023-12-12T15:02:54,0,,active
6120101,37323273,,,Holehouse Brae,,,,Holehouse Brae,,Uplawmoor Road,,,,before,,NE,ES002751,Neilston,,,NEILSTON,,,,0,,247536,656976,,,BCT,MKD,OTH,,,,123,2003-08-27T00:00:00,2023-12-12T15:02:54,0,,active
6120102,37323868,,,Mure Place,,,,Library,,Neilston Road,,,,before,,NE,ES003749,Uplawmoor,,,UPLAWMOOR,,,,0,,243546,655241,,,BCT,MKD,OTH,,,,123,2003-08-27T00:00:00,2023-12-12T15:02:54,0,,active
6120106,37323979,,,Eastwood cemetery,,,,Thornliebank Railway Station,,Thornliebank Road,,,,at,,SW,ES003639,Thornliebank,,,THORNLIEBANK,,,,1,,255173,659901,,,BCT,MKD,OTH,,,,123,2003-08-27T00:00:00,2023-12-12T15:02:54,0,,active
6120107,37323249,,,Bangorshill Street,,,,Thornliebank Primary,,Thornliebank Road,,,,opp,,SW,ES003639,Thornliebank,,,THORNLIEBANK,,,,1,,255138,659783,,,BCT,MKD,OTH,,,,123,2003-08-27T00:00:00,2023-12-12T15:02:54,0,,active
6120108,37323727,,,Bangorshill Street,,,,Thornliebank Primary,,Thornliebank Road,,,,before,,NE,ES003639,Thornliebank,,,THORNLIEBANK,,,,1,,255104,659745,,,BCT,MKD,OTH,,,,123,2003-08-27T00:00:00,2023-12-12T15:02:54,0,,active
6120109,37323754,,,Eastwood Crescent,,,,Eastwood Crescent,,Main Street,,,,after,,NE,ES003639,Thornliebank,,,THORNLIEBANK,,,,1,,254953,659581,,,BCT,MKD,OTH,,,,123,2003-08-27T00:00:00,2023-12-12T15:02:54,0,,active
612011,37323525,,,Victoria Road,,,,Fereneeze Grove,,Paisley Road,,,,after,,S,ES000295,Barrhead,,,BARRHEAD,,,,1,,249778,659515,,,BCT,MKD,OTH,,,,123,2003-08-27T00:00:00,2023-12-12T15:02:54,0,,active
6120110,37323534,,,Eastwood Crescent,,,,Eastwood Crescent,,Main Street,,,,opp,,SW,ES003639,Thornliebank,,,THORNLIEBANK,,,,1,,254921,659543,,,BCT,MKD,OTH,,,,123,2003-08-27T00:00:00,2023-12-12T15:02:54,0,,active
6120111,37323939,,,Spiersbridge Avenue,,,,Spiers Grove,,Main Street,,,,after,,N,ES003639,Thornliebank,,,THORNLIEBANK,,,,1,,254753,659364,,,BCT,MKD,OTH,,,,123,2003-08-27T00:00:00,2023-12-12T15:02:54,0,,active
6120112,37323478,,,Spiersbridge Avenue,,,,Spiersbridge Avenue,,Spiersbridge Road,,,,opp,,S,ES003639,Thornliebank,,,THORNLIEBANK,,,,1,,254757,659315,,,BCT,MKD,OTH,,,,123,2003-08-27T00:00:00,2023-12-12T15:02:54,0,,active
6120113,37323265,,,Rouken Glen Road,,,,Woodlands Road,,Spiersbridge Road,,,,before,,SW,ES003639,Thornliebank,,,THORNLIEBANK,,,,1,,254618,658918,,,BCT,MKD,OTH,,,,123,2003-08-27T00:00:00,2023-12-12T15:02:54,0,,active
6120114,37323794,,,Rouken Glen Road,,,,Thornliebank Church,,Spiersbridge Road,,,,opp,,NE,ES003639,Thornliebank,,,THORNLIEBANK,,,,1,,254596,658914,,,BCT,MKD,OTH,,,,123,2003-08-27T00:00:00,2023-12-12T15:02:54,0,,active
6120115,37323429,,,Rouken Glen Garden Centre,,,,Spiersbridge Roundabout,,Rouken Glen Road,,,,after,,W,N0078822,Rouken Glen,,,THORNLIEBANK,,,,1,,254669,658751,,,BCT,MKD,OTH,,,,123,2003-08-27T00:00:00,2023-12-12T15:02:54,0,,active
6120116,37323642,,,Rouken Glen Garden Centre,,,,Spiersbridge Roundabout,,Rouken Glen Road,,,,opp,,E,N0078822,Rouken Glen,,,THORNLIEBANK,,,,1,,254738,658777,,,BCT,MKD,OTH,,,,123,2003-08-27T00:00:00,2023-12-12T15:02:54,0,,active
6120117,37323957,,,Rouken Glen Garden Centre,,,,Rowallan Road,,Rouken Glen Road,,,,before,,NW,N0078822,Rouken Glen,,,THORNLIEBANK,,,,1,,254857,658710,,,BCT,MKD,OTH,,,,123,2003-08-27T00:00:00,2023-12-12T15:02:54,0,,active
6120118,37323842,,,Rowallan Road,,,,Rowallan Road,,Rouken Glen Road,,,,after,,SE,N0078822,Rouken Glen,,,THORNLIEBANK,,,,1,,254964,658637,,,BCT,MKD,OTH,,,,123,2003-08-27T00:00:00,2023-12-12T15:02:54,0,,active
6120119,37323524,,,Davieland Road,,,,Davieland Road,,Rouken Glen Road,,,,after,,NW,N0078822,Rouken Glen,,,THORNLIEBANK,,,,1,,255241,658464,,,BCT,MKD,OTH,,,,123,2003-08-27T00:00:00,2023-12-12T15:02:54,0,,active
612012,37323548,,,Railway Station,,,,Railway Station,,Cross Arthurlie Street,,,,opp,,N,ES000295,Barrhead,,,BARRHEAD,,,,1,,249785,659247,,,BCT,MKD,OTH,,,,123,2003-08-27T00:00:00,2023-12-12T15:02:54,0,,active
6120120,37323575,,,Woodfarm Road,,,,Woodfarm Road,,Rouken Glen Road,,,,after,,SE,N0078822,Rouken Glen,,,GIFFNOCK,,,,1,,255360,658440,,,BCT,MKD,OTH,,,,123,2003-08-27T00:00:00,2023-12-12T15:02:54,0,,active
6120121,37323798,,,Eastwood Park,,,,Eastwood Park,,Rouken Glen Road,,,,at,,SE,N0078822,Rouken Glen,,,GIFFNOCK,,,,1,,255528,658385,,,BCT,MKD,OTH,,,,123,2003-08-27T00:00:00,2023-12-12T15:02:54,0,,active
6120122,37323584,,,Eastwood Park,,,,Eastwood Park,,Rouken Glen Road,,,,opp,,NW,N0078822,Rouken Glen,,,GIFFNOCK,,,,1,,255543,658365,,,BCT,MKD,OTH,,,,123,2003-08-27T00:00:00,2023-12-12T15:02:54,0,,active
6120123,37323895,,,Berryhill Road,,,,Eastwood Toll,,Fenwick Road,,,,before,,E,ES001509,Giffnock,,,GIFFNOCK,,,,1,,255919,658367,,,BCT,MKD,OTH,,,,123,2003-08-27T00:00:00,2023-12-12T15:02:54,0,,active
6120124,37323279,,,Berryhill Road,,,,Eastwood Toll,,Fenwick Road,,,,opp,,W,ES001509,Giffnock,,,GIFFNOCK,,,,1,,255889,658345,,,BCT,MKD,OTH,,,,123,2003-08-27T00:00:00,2023-12-12T15:02:54,0,,active
6120125,37323928,,,Montgomery Drive,,,,Montgomery Drive,,Fenwick Road,,,,before,,SW,ES001509,Giffnock,,,GIFFNOCK,,,,1,,256105,658467,,,BCT,MKD,OTH,,,,123,2003-08-27T00:00:00,2023-12-12T15:02:54,0,,active
6120126,37323873,,,Montgomery Drive,,,,Eglinton Drive,,Fenwick Road,,,,opp,,NE,ES001509,Giffnock,,,GIFFNOCK,,,,1,,256122,658517,,,BCT,MKD,OTH,,,,123,2003-08-27T00:00:00,2023-12-12T15:02:54,0,,active
6120127,37323643,,,Park Road,,,,Park Road,,Fenwick Road,,,,before,,N,ES001509,Giffnock,,,GIFFNOCK,,,,1,,256217,658818,,,BCT,MKD,OTH,,,,123,2003-08-27T00:00:00,2023-12-12T15:02:54,0,,active
6120128,37323762,,,Park Road,,,,Park Road,,Fenwick Road,,,,opp,,S,ES001509,Giffnock,,,GIFFNOCK,,,,1,,256238,658877,,,BCT,MKD,OTH,,,,123,2003-08-27T00:00:00,2023-12-12T15:02:54,0,,active
6120129,37323494,,,Orchard Drive,,,,Orchard Drive,,Fenwick Road,,,,before,,N,ES001509,Giffnock,,,GIFFNOCK,,,,1,,256237,658990,,,BCT,MKD,OTH,,,,123,2003-08-27T00:00:00,2023-12-12T15:02:54,0,,active
612013,37323628,,,Graham Street,,,,Railway Station,,Cross Arthurlie Street,,,,opp,,S,ES000295,Barrhead,,,BARRHEAD,,,,1,,249806,659330,,,BCT,MKD,OTH,,,,123,2003-08-27T00:00:00,2023-12-12T15:02:54,0,,active
6120130,37323954,,,Railway Station,,,,Station Road,,Fenwick Road,,,,opp,,N,ES001509,Giffnock,,,GIFFNOCK,,,,1,,256261,659172,,,BCT,MKD,OTH,,,,123,2003-08-27T00:00:00,2023-12-12T15:02:54,0,,active
6120131,37323843,,,Railway Station,,,,Station Road,,Fenwick Road,,,,before,,S,ES001509,Giffnock,,,GIFFNOCK,,,,1,,256278,659191,,,BCT,MKD,OTH,,,,123,2003-08-27T00:00:00,2023-12-12T15:02:54,0,,active
6120132,37323685,,,Braidholm Road,,,,Braidholm Road,,Fenwick Road,,,,before,,S,ES001509,Giffnock,,,GIFFNOCK,,,,1,,256323,659472,,,BCT,MKD,OTH,,,,123,2003-08-27T00:00:00,2023-12-12T15:02:54,0,,active
6120133,37323764,,,Braidholm Road,,,,Congregational Church,,Fenwick Road,,,,opp,,N,ES001509,Giffnock,,,GIFFNOCK,,,,1,,256312,659475,,,BCT,MKD,OTH,,,,123,2003-08-27T00:00:00,2023-12-12T15:02:54,0,,active
6120134,37323796,,,Norbreck Drive,,,,Norbreck Drive,,Fenwick Road,,,,before,,N,N0068152,Merrylee,,,GIFFNOCK,,,,1,,256342,659743,,,BCT,MKD,OTH,,,,123,2003-08-27T00:00:00,2023-12-12T15:02:54,0,,active
6120135,37323989,,,Merryton Avenue,,,,Merryton Avenue,,Fenwick Road,,,,after,,S,N0068152,Merrylee,,,GIFFNOCK,,,,1,,256366,659809,,,BCT,MKD,OTH,,,,123,2003-08-27T00:00:00,2023-12-12T15:02:54,0,,active
6120136,37323769,,,Dinard Drive,,,,Dinard Drive,,Fenwick Road,,,,after,,NE,N0068152,Merrylee,,,GIFFNOCK,,,,1,,256368,659874,,,BCT,MKD,OTH,,,,123,2003-08-27T00:00:00,2023-12-12T15:02:54,0,,active
6120137,37323293,,,Merrylee Crescent,,,,Merrylee Crescent,,Fenwick Road,,,,opp,,SW,N0068152,Merrylee,,,GIFFNOCK,,,,1,,256467,660066,,,BCT,MKD,OTH,,,,123,2003-08-27T00:00:00,2023-12-12T15:02:54,0,,active
6120138,37323427,,,Brooklea Drive,,,,Merrylee Crescent,,Fenwick Road,,,,before,,NE,N0068152,Merrylee,,,GIFFNOCK,,,,1,,256448,660074,,,BCT,MKD,OTH,,,,123,2003-08-27T00:00:00,2023-12-12T15:02:54,0,,active
6120139,37323564,,,St Clair Avenue,,,,St Clair Avenue,,Burnfield Road,,,,before,,NW,ES001509,Giffnock,,,GIFFNOCK,,,,0,,256151,659441,,,BCT,MKD,OTH,,,,123,2003-08-27T00:00:00,2023-12-12T15:02:54,0,,active
612014,37323726,,,George Street,,,,George Street,,Cross Arthurlie Street,,,,opp,,N,ES000295,Barrhead,,,BARRHEAD,,,,1,,249808,659003,,,BCT,MKD,OTH,,,,123,2003-08-27T00:00:00,2023-12-12T15:02:54,0,,active
6120140,37323938,,,St Clair Avenue,,,,St Clair Avenue,,Burnfield Road,,,,opp,,SE,ES001509,Giffnock,,,GIFFNOCK,,,,0,,256118,659477,,,BCT,MKD,OTH,,,,123,2003-08-27T00:00:00,2023-12-12T15:02:54,0,,active
6120141,37323527,,,Struan Avenue,,,,Struan Avenue,,Burnfield Road,,,,at,,NW,N0068152,Merrylee,,,GIFFNOCK,,,,0,,256060,659502,,,BCT,MKD,OTH,,,,123,2003-08-27T00:00:00,2023-12-12T15:02:54,0,,inactive
6120142,37323268,,,Motor Auctions,,,,Motor Auctions,,Burnfield Road,,,,at,,S,N0068152,Merrylee,,,GIFFNOCK,,,,0,,256028,659671,,,BCT,MKD,OTH,,,,123,2003-08-27T00:00:00,2023-12-12T15:02:54,0,,inactive
6120143,37323729,,,Belmont Drive,,,,Belmont Drive,,Orchard Drive,,,,before,,NW,N0078821,Orchard Park,,,GIFFNOCK,,,,0,,255991,659193,,,BCT,MKD,OTH,,,,123,2003-08-27T00:00:00,2023-12-12T15:02:54,0,,active
6120144,37323735,,,Belmont Drive,,,,Belmont Drive,,Orchard Drive,,,,opp,,SE,N0078821,Orchard Park,,,GIFFNOCK,,,,0,,255968,659243,,,BCT,MKD,OTH,,,,123,2003-08-27T00:00:00,2023-12-12T15:02:54,0,,active
6120145,37323765,,,Ravenscliffe Drive,,,,Ravenscliffe Drive,,Orchard Park Avenue,,,,after,,E,N0078821,Orchard Park,,,GIFFNOCK,,,,0,,255709,659346,,,BCT,MKD,OTH,,,,123,2003-08-27T00:00:00,2023-12-12T15:02:54,0,,active
6120146,37323286,,,Ravenscliffe Drive,,,,Ravenscliffe Drive,,Orchard Park Avenue,,,,Opp,,W,N0078821,Orchard Park,,,GIFFNOCK,,,,0,,255674,659350,,,BCT,MKD,OTH,,,,123,2003-08-27T00:00:00,2023-12-12T15:02:54,0,,active
6120147,37323543,,,Heathwood Drive,,,,Robslee Drive,,Orchard Park Avenue,,,,opp,,E,N0078821,Orchard Park,,,THORNLIEBANK,,,,0,,255478,659385,,,BCT,MKD,OTH,,,,123,2003-08-27T00:00:00,2023-12-12T15:02:54,0,,active
6120148,37323724,,,Heathwood Drive,,,,Heathwood Drive,,Orchard Park Avenue,,,,before,,W,N0078821,Orchard Park,,,THORNLIEBANK,,,,0,,255465,659381,,,BCT,MKD,OTH,,,,123,2003-08-27T00:00:00,2023-12-12T15:02:54,0,,active
6120149,37323692,,,Sherwood Drive,,,,Sherwood Drive,,Orchard Park Avenue,,,,opp,,SE,N0078821,Orchard Park,,,THORNLIEBANK,,,,0,,255294,659523,,,BCT,MKD,OTH,,,,123,2003-08-27T00:00:00,2023-12-12T15:02:54,0,,active
612015,37323473,,,George Street,,,,George Street,,Cross Arthurlie Street,,,,before,,S,ES000295,Barrhead,,,BARRHEAD,,,,1,,249799,659068,,,BCT,MKD,OTH,,,,123,2003-08-27T00:00:00,2023-12-12T15:02:54,0,,active
6120150,37323438,,,Sherwood Drive,,,,Sherwood Drive,,Orchard Park Avenue,,,,after,,NW,N0078821,Orchard Park,,,GIFFNOCK,,,,0,,255269,659544,,,BCT,MKD,OTH,,,,123,2003-08-27T00:00:00,2023-12-12T15:02:54,0,,active
6120151,37323785,,,Main Street,,,,Main Street,,Orchard Park Avenue,,,,after,,SE,N0078821,Orchard Park,,,THORNLIEBANK,,,,0,,255154,659694,,,BCT,MKD,OTH,,,,123,2003-08-27T00:00:00,2023-12-12T15:02:54,0,,active
6120152,37323236,,,Main Street,,,,Main Street,,Orchard Park Avenue,,,,before,,NW,N0078821,Orchard Park,,,THORNLIEBANK,,,,0,,255126,659701,,,BCT,MKD,OTH,,,,123,2003-08-27T00:00:00,2023-12-12T15:02:54,0,,active
6120153,37323474,,,Moorburn Avenue,,,,Moorburn Avenue,,Robslee Road,,,,after,,SW,N0078823,Woodfarm,,,GIFFNOCK,,,,0,,255526,659259,,,BCT,MKD,OTH,,,,123,2003-08-27T00:00:00,2023-12-12T15:02:54,0,,active
6120154,37323452,,,Woodfarm High School,,,,Woodfarm High School,,Robslee Road,,,,opp,,SW,N0078823,Woodfarm,,,THORNLIEBANK,,,,0,,255348,659091,,,BCT,MKD,OTH,,,,123,2003-08-27T00:00:00,2023-12-12T15:02:54,0,,active
6120155,37323872,,,Inglestone Avenue,,,,Inglestone Avenue,,Robslee Road,,,,opp,,NE,N0078823,Woodfarm,,,THORNLIEBANK,,,,0,,255084,658961,,,BCT,MKD,OTH,,,,123,2003-08-27T00:00:00,2023-12-12T15:02:54,0,,active
6120156,37323467,,,Inglestone Avenue,,,,Inglestone Avenue,,Robslee Road,,,,before,,SW,N0078823,Woodfarm,,,THORNLIEBANK,,,,0,,255094,658958,,,BCT,MKD,OTH,,,,123,2003-08-27T00:00:00,2023-12-12T15:02:54,0,,active
6120157,37323475,,,Lynton Avenue,,,,Lynton Avenue,,Davieland Road,,,,at,,S,ES001509,Giffnock,,,GIFFNOCK,,,,0,,255272,658368,,,BCT,MKD,OTH,,,,123,2003-08-27T00:00:00,2023-12-12T15:02:54,0,,inactive
6120158,37323786,,,Rouken Glen Park,,,,Rouken Glen Park,,Davieland Road,,,,opp,,SE,N0068241,Whitecraigs,Newton Mearns,,GIFFNOCK,,,,0,,255154,657890,,,BCT,MKD,OTH,,,,123,2003-08-27T00:00:00,2023-12-12T15:02:54,0,,inactive
6120159,37323627,,,Rouken Glen Park,,,,Rouken Glen Park,,Davieland Road,,,,at,,NW,N0068241,Whitecraigs,Newton Mearns,,GIFFNOCK,,,,0,,255125,657912,,,BCT,MKD,OTH,,,,123,2003-08-27T00:00:00,2023-12-12T15:02:54,0,,inactive
6120160,37323578,,,Woodvale Avenue,,,,Woodvale Avenue,,Ayr Road,,,,after,,SW,N0068241,Whitecraigs,Newton Mearns,,GIFFNOCK,,,,1,,255679,657978,,,BCT,MKD,OTH,,,,123,2003-08-27T00:00:00,2023-12-12T15:02:54,0,,active
6120161,37323492,,,Langtree Avenue,,,,Langtree Avenue,,Ayr Road,,,,after,,NE,N0068241,Whitecraigs,Newton Mearns,,GIFFNOCK,,,,1,,255646,657972,,,BCT,MKD,OTH,,,,123,2003-08-27T00:00:00,2023-12-12T15:02:54,0,,active
6120162,37323976,,,Treemain Road,,,,Treemain Road,,Ayr Road,,,,opp,,SW,N0068241,Whitecraigs,Newton Mearns,,GIFFNOCK,,,,1,,255448,657779,,,BCT,MKD,OTH,,,,123,2003-08-27T00:00:00,2023-12-12T15:02:54,0,,active
6120163,37323978,,,Treemain Road,,,,Treemain Road,,Ayr Road,,,,before,,NE,N0068241,Whitecraigs,Newton Mearns,,GIFFNOCK,,,,1,,255362,657730,,,BCT,MKD,OTH,,,,123,2003-08-27T00:00:00,2023-12-12T15:02:54,0,,active
6120164,37323248,,,Whitecraigs Golf Course,,,,Craignethan Road,,Ayr Road,,,,at,,N,N0068241,Whitecraigs,Newton Mearns,,NEWTON MEARNS,,,,1,,255294,657319,,,BCT,MKD,OTH,,,,123,2003-08-27T00:00:00,2023-12-12T15:02:54,0,,active
6120165,37323262,,,Whitecraigs Golf Course,,,,Lethington Road,,Ayr Road,,,,opp,,SW,N0068241,Whitecraigs,Newton Mearns,,NEWTON MEARNS,,,,1,,255284,657265,,,BCT,MKD,OTH,,,,123,2003-08-27T00:00:00,2023-12-12T15:02:54,0,,active
6120166,37323728,,,Netherton Court,,,,Netherton Court,,Ayr Road,,,,after,,NE,N0068241,Whitecraigs,Newton Mearns,,NEWTON MEARNS,,,,1,,255095,657017,,,BCT,MKD,OTH,,,,123,2003-08-27T00:00:00,2023-12-12T15:02:54,0,,active
6120167,37323937,,,The Broom Estate,,,,The Broom Estate,,Ayr Road,,,,after,,SW,N0068241,Whitecraigs,Newton Mearns,,NEWTON MEARNS,,,,1,,255010,656905,,,BCT,MKD,OTH,,,,123,2003-08-27T00:00:00,2023-12-12T15:02:54,0,,active
6120168,37323848,,,Elmwood Avenue,,,,Elmwood Avenue,,Ayr Road,,,,after,,NE,ES002826,Newton Mearns,,,NEWTON MEARNS,,,,1,,254728,656644,,,BCT,MKD,OTH,,,,123,2003-08-27T00:00:00,2023-12-12T15:02:54,0,,active
6120169,37323484,,,Lochbroom Drive,,,,Lochbroom Drive,,Ayr Road,,,,after,,SW,ES002826,Newton Mearns,,,NEWTON MEARNS,,,,1,,254713,656599,,,BCT,MKD,OTH,,,,123,2003-08-27T00:00:00,2023-12-12T15:02:54,0,,active
6120170,37323648,,,Fruin Avenue,,,,Fruin Avenue,,Ayr Road,,,,after,,NE,ES002826,Newton Mearns,,,NEWTON MEARNS,,,,1,,254479,656356,,,BCT,MKD,OTH,,,,123,2003-08-27T00:00:00,2023-12-12T15:02:54,0,,active
6120171,37323298,,,Broomvale Drive,,,,Broomvale Drive,,Ayr Road,,,,after,,SW,ES002826,Newton Mearns,,,NEWTON MEARNS,,,,1,,254503,656358,,,BCT,MKD,OTH,,,,123,2003-08-27T00:00:00,2023-12-12T15:02:54,0,,active
6120172,37323824,,,Rysland Avenue,,,,Rysland Avenue,,Ayr Road,,,,opp,,SW,ES002826,Newton Mearns,,,NEWTON MEARNS,,,,1,,254365,656240,,,BCT,MKD,OTH,,,,123,2003-08-27T00:00:00,2023-12-12T15:02:54,0,,active
6120173,37323983,,,Crookfur Road,,,,Crookfur Road,,Ayr Road,,,,before,,NE,ES002826,Newton Mearns,,,NEWTON MEARNS,,,,1,,254249,656155,,,BCT,MKD,OTH,,,,123,2003-08-27T00:00:00,2023-12-12T15:02:54,0,,active
6120174,37323695,,,Shaw Road,,,,Shaw Road,,Ayr Road,,,,before,,SW,ES002826,Newton Mearns,,,NEWTON MEARNS,,,,1,,254075,655956,,,BCT,MKD,OTH,,,,123,2003-08-27T00:00:00,2023-12-12T15:02:54,0,,active
6120175,37323865,,,Glebe Road,,,,Glebe Road,,Ayr Road,,,,after,,NE,ES002826,Newton Mearns,,,NEWTON MEARNS,,,,1,,254037,655937,,,BCT,MKD,OTH,,,,123,2003-08-27T00:00:00,2023-12-12T15:02:54,0,,active
6120176,37323458,,,Eaglesham Road,,,,Eaglesham Road,,Ayr Road,,,,before,,SW,ES002826,Newton Mearns,,,NEWTON MEARNS,,,,1,,253785,655698,,,BCT,MKD,OTH,,,,123,2003-08-27T00:00:00,2023-12-12T15:02:54,0,,active
6120177,37324234,,,Newton Mearns Church,,,,Newton Mearns Church,,Ayr Road,,,,at,,NE,ES002826,Newton Mearns,,,NEWTON MEARNS,,,,1,,253766,655708,,,BCT,MKD,OTH,,,,123,2003-08-27T00:00:00,2023-12-12T15:02:54,0,,active
6120178,37323237,,,Moorhill Road,,,,Moorhill Road,,Ayr Road,,,,opp,,SW,ES002826,Newton Mearns,,,NEWTON MEARNS,,,,1,,253478,655442,,,BCT,MKD,OTH,,,,123,2003-08-27T00:00:00,2023-12-12T15:02:54,0,,active
6120179,37323734,,,Moorhill Road,,,,Moorhill Road,,Ayr Road,,,,after,,NE,ES002826,Newton Mearns,,,NEWTON MEARNS,,,,1,,253438,655428,,,BCT,MKD,OTH,,,,123,2003-08-27T00:00:00,2023-12-12T15:02:54,0,,active
612018,37323275,,,Cogan Street,,,,Cogan Street,,Cross Arthurlie Street,,,,opp,,S,ES000295,Barrhead,,,BARRHEAD,,,,1,,249819,658902,,,BCT,MKD,OTH,,,,123,2003-08-27T00:00:00,2023-12-12T15:02:54,0,,active
6120180,37323538,,,Paidmyre Road,,,,Paidmyre Road,,Ayr Road,,,,after,,SW,ES002826,Newton Mearns,,,NEWTON MEARNS,,,,1,,253333,655292,,,BCT,MKD,OTH,,,,123,2003-08-27T00:00:00,2023-12-12T15:02:54,0,,active
6120181,37323563,,,St Vigeans Place,,,,St Vigeans,,Ayr Road,,,,after,,NE,ES002826,Newton Mearns,,,NEWTON MEARNS,,,,1,,253184,655207,,,BCT,MKD,OTH,,,,123,2003-08-27T00:00:00,2023-12-12T15:02:54,0,,inactive
6120182,37323245,,,Malletsheugh Road,,,,Malletsheugh Inn,,Ayr Road,,,,after,,NE,ES002826,Newton Mearns,,,NEWTON MEARNS,,,,1,,252698,655033,,,BCT,MKD,OTH,,,,123,2003-08-27T00:00:00,2023-12-12T15:02:54,0,,active
6120183,37373636,,,Malletsheugh Road,,,,Malletsheugh Road,,Ayr Road,,,,opp,,SW,ES002826,Newton Mearns,,,NEWTON MEARNS,,,,0,,252668,654996,,,BCT,MKD,OTH,,,,123,2003-08-27T00:00:00,2023-12-12T15:02:54,0,,active
6120184,37323986,,,Ayr Road,,,,The Avenue Shopping Centre,,Barrhead Road,,,,before,,S,ES002826,Newton Mearns,,,NEWTON MEARNS,,,,1,,253568,655651,,,BCT,MKD,OTH,,,,123,2003-08-27T00:00:00,2023-12-12T15:02:54,0,,active
6120185,37323437,,,Ayr Road,,,,The Avenue Shopping Centre,,Barrhead Road,,,,after,,NW,ES002826,Newton Mearns,,,NEWTON MEARNS,,,,1,,253562,655615,,,BCT,MKD,OTH,,,,123,2003-08-27T00:00:00,2023-12-12T15:02:54,0,,active
6120186,37323738,,,Pollock Road,,,,Pollock Road,,Netherplace Road,,,,after,,NE,N0072850,Netherplace,Newton Mearns,,NEWTON MEARNS,,,,0,,253313,655632,,,BCT,MKD,OTH,,,,123,2003-08-27T00:00:00,2023-12-12T15:02:54,0,,active
6120187,37323253,,,Pollock Road,,,,Hill Avenue,,Netherplace Road,,,,opp,,W,N0072850,Netherplace,Newton Mearns,,NEWTON MEARNS,,,,0,,253255,655594,,,BCT,MKD,OTH,,,,123,2003-08-27T00:00:00,2023-12-12T15:02:54,0,,active
6120188,37323535,,,William Mann Drive,,,,William Mann Drive,,Netherplace Road,,,,opp,,W,N0072850,Netherplace,Newton Mearns,,NEWTON MEARNS,,,,0,,253066,655570,,,BCT,MKD,OTH,,,,123,2003-08-27T00:00:00,2023-12-12T15:02:54,0,,active
6120189,37323532,,,Netherplace,,,,Netherplace,,Fairweather Place,,,,before,,N,N0072850,Netherplace,Newton Mearns,,NEWTON MEARNS,,,,0,,253047,655546,,,BCT,MKD,OTH,,,,123,2003-08-27T00:00:00,2023-12-12T15:02:54,0,,active
612019,37323739,,,Cogan Street,,,,Cogan Street,,Cross Arthurlie Street,,,,before,,N,ES000295,Barrhead,,,BARRHEAD,,,,1,,249790,658854,,,BCT,MKD,OTH,,,,123,2003-08-27T00:00:00,2023-12-12T15:02:54,0,,active
6120190,37323657,,,Fairweather Place,,,,Fairweather Place,,St Vigeans Avenue,,,,before,,SE,N0072850,Netherplace,Newton Mearns,,NEWTON MEARNS,,,,0,,253082,655399,,,BCT,MKD,OTH,,,,123,2003-08-27T00:00:00,2023-12-12T15:02:54,0,,active
6120191,37323496,,,St Vigeans Avenue,,,,St Vigeans Avenue,,Fairweather Place,,,,after,,NW,N0072850,Netherplace,Newton Mearns,,NEWTON MEARNS,,,,0,,253111,655444,,,BCT,MKD,OTH,,,,123,2003-08-27T00:00:00,2023-12-12T15:02:54,0,,inactive
6120192,37323797,,,Castle Road,,,,Castle Road,,Barrhead Road,,,,opp,,SE,ES002826,Newton Mearns,,,NEWTON MEARNS,,,,0,,253276,655853,,,BCT,MKD,OTH,,,,123,2003-08-27T00:00:00,2023-12-12T15:02:54,0,,active
6120194,37323725,,,Rodger Avenue,,,,Rodger Avenue,,Barrhead Road,,,,opp,,NW,ES002826,Newton Mearns,,,NEWTON MEARNS,,,,0,,253027,655974,,,BCT,MKD,OTH,,,,123,2003-08-27T00:00:00,2023-12-12T15:02:54,0,,active
6120198,37323932,,,Islay Drive,,,,Islay Drive,,Greenfarm Road,,,,opp,,N,ES002826,Newton Mearns,,,NEWTON MEARNS,,,,0,,252803,656299,,,BCT,MKD,OTH,,,,123,2003-08-27T00:00:00,2023-12-12T15:02:54,0,,active
6120199,37323878,,,Eriskay Avenue,,,,Eriskay Avenue,,Greenfarm Road,,,,after,,N,ES002826,Newton Mearns,,,NEWTON MEARNS,,,,0,,252769,656441,,,BCT,MKD,OTH,,,,123,2003-08-27T00:00:00,2023-12-12T15:02:54,0,,active
61202,37323285,,,Brownside Avenue,,,,Harelaw Burn,,Caplethill Road,,,,after,,NW,ES000295,Barrhead,,,BARRHEAD,,,,0,,249414,660375,,,BCT,MKD,OTH,,,,123,2003-08-27T00:00:00,2023-12-12T15:02:54,0,,active
612020,37323598,,,Centenary Court,,,,Centenary Court,,Main Street,,,,before,,NE,ES000295,Barrhead,,,BARRHEAD,,,,1,,249838,658806,,,BCT,MKD,OTH,,,,123,2003-08-27T00:00:00,2023-12-12T15:02:54,0,,active
6120200,37323795,,,Jura Drive,,,,Jura Drive,,Greenfarm Road,,,,after,,NE,ES002826,Newton Mearns,,,NEWTON MEARNS,,,,0,,252780,656595,,,BCT,MKD,OTH,,,,123,2003-08-27T00:00:00,2023-12-12T15:02:54,0,,active
6120201,37323459,,,Whitelee Gate,,,,Whitelee Gate,,Greenfarm Road,,,,before,,NE,ES002826,Newton Mearns,,,NEWTON MEARNS,,,,0,,252899,656692,,,BCT,MKD,OTH,,,,123,2003-08-27T00:00:00,2023-12-12T15:02:54,0,,active
6120202,37323894,,,Ladeside Close,,,,Ladeside Close,,Greenfarm Road,,,,after,,SE,ES002826,Newton Mearns,,,NEWTON MEARNS,,,,0,,253102,656731,,,BCT,MKD,OTH,,,,123,2003-08-27T00:00:00,2023-12-12T15:02:54,0,,active
6120205,37323732,,,Warnock Road,,,,Warnock Road,,Crookfur Road,,,,opp,,NW,ES000886,Crookfur,Newton Mearns,,NEWTON MEARNS,,,,0,,253136,656850,,,BCT,MKD,OTH,,,,123,2003-08-27T00:00:00,2023-12-12T15:02:54,0,,inactive
6120206,37323925,,,Warnock Road,,,,Abercorn Road,,Crookfur Road,,,,after,,SE,ES000886,Crookfur,Newton Mearns,,NEWTON MEARNS,,,,0,,253157,656832,,,BCT,MKD,OTH,,,,123,2003-08-27T00:00:00,2023-12-12T15:02:54,0,,inactive
6120207,37323426,,,Greenfarm Road,,,,St Cadocs School,,Crookfur Road,,,,before,,NW,ES000886,Crookfur,Newton Mearns,,NEWTON MEARNS,,,,0,,253230,656545,,,BCT,MKD,OTH,,,,123,2003-08-27T00:00:00,2023-12-12T15:02:54,0,,active
6120209,37323747,,,Harvie Avenue,,,,Harvie Avenue,,Crookfur Road,,,,after,,E,ES000886,Crookfur,Newton Mearns,,NEWTON MEARNS,,,,0,,253477,656405,,,BCT,MKD,OTH,,,,123,2003-08-27T00:00:00,2023-12-12T15:02:54,0,,active
612021,37323759,,,Centenary Court,,,,Centenary Court,,Main Street,,,,opp,,SW,ES000295,Barrhead,,,BARRHEAD,,,,1,,249846,658780,,,BCT,MKD,OTH,,,,123,2003-08-27T00:00:00,2023-12-12T15:02:54,0,,active
6120210,37323257,,,Wellmeadow Way,,,,Wellmeadow Way,,Crookfur Road,,,,before,,E,ES000886,Crookfur,Newton Mearns,,NEWTON MEARNS,,,,0,,253600,656419,,,BCT,MKD,OTH,,,,123,2003-08-27T00:00:00,2023-12-12T15:02:54,0,,inactive
6120216,37323975,,,Fordyce Court,,,,Fordyce Court,,Capelrig Road,,,,before,,SE,ES002826,Newton Mearns,,,NEWTON MEARNS,,,,1,,253547,655833,,,BCT,MKD,OTH,,,,123,2003-08-27T00:00:00,2023-12-12T15:02:54,0,,active
6120217,37323948,,,Fordyce Court,,,,Rosshill Court,,Capelrig Road,,,,opp,,NW,ES002826,Newton Mearns,,,NEWTON MEARNS,,,,1,,253613,655798,,,BCT,MKD,OTH,,,,123,2003-08-27T00:00:00,2023-12-12T15:02:54,0,,active
6120218,37323432,,,Meadowhill,,,,Meadowhill,,Capelrig Road,,,,opp,,S,ES000886,Crookfur,Newton Mearns,,NEWTON MEARNS,,,,0,,253842,656236,,,BCT,MKD,OTH,,,,123,2003-08-27T00:00:00,2023-12-12T15:02:54,0,,active
6120219,37323892,,,Meadowhill,,,,Crookfur Cottage Homes,,Capelrig Road,,,,after,,N,ES000886,Crookfur,Newton Mearns,,NEWTON MEARNS,,,,0,,253838,656255,,,BCT,MKD,OTH,,,,123,2003-08-27T00:00:00,2023-12-12T15:02:54,0,,active
612022,37323238,,,Arthurlie Parish Church,,,,Arthurlie Parish Church,,Main Street,,,,at,,W,ES000295,Barrhead,,,BARRHEAD,,,,1,,250073,658834,,,BCT,MKD,OTH,,,,123,2003-08-27T00:00:00,2023-12-12T15:02:54,0,,active
6120220,37395979,,,Machrie Drive,,,,Machrie Drive,,Capelrig Road,,,,after,,S,ES000886,Crookfur,Newton Mearns,,NEWTON MEARNS,,,,0,,254047,656630,,,BCT,MKD,OTH,,,,123,2003-08-27T00:00:00,2023-12-12T15:02:54,0,,active
6120221,37323763,,,Machrie Drive,,,,Machrie Drive,,Capelrig Road,,,,opp,,N,ES000886,Crookfur,Newton Mearns,,NEWTON MEARNS,,,,0,,254041,656657,,,BCT,MKD,OTH,,,,123,2003-08-27T00:00:00,2023-12-12T15:02:54,0,,active
6120222,37323847,,,Fruin Avenue,,,,Fruin Avenue,,Capelrig Road,,,,opp,,N,ES000886,Crookfur,Newton Mearns,,NEWTON MEARNS,,,,0,,254091,656897,,,BCT,MKD,OTH,,,,123,2003-08-27T00:00:00,2023-12-12T15:02:54,0,,active
6120225,37323876,,,Laggan Road,,,,Laggan Road,,Harvie Avenue,,,,opp,,W,ES000886,Crookfur,Newton Mearns,,NEWTON MEARNS,,,,0,,253920,656988,,,BCT,MKD,OTH,,,,123,2003-08-27T00:00:00,2023-12-12T15:02:54,0,,active
6120227,37323528,,,Rannoch Avenue,,,,Rannoch Avenue,,Harvie Avenue,,,,opp,,S,ES000886,Crookfur,Newton Mearns,,NEWTON MEARNS,,,,0,,253694,656855,,,BCT,MKD,OTH,,,,123,2003-08-27T00:00:00,2023-12-12T15:02:54,0,,active
6120229,37323856,,,Abercorn Road,,,,Abercorn Road,,Harvie Avenue,,,,opp,,S,ES000886,Crookfur,Newton Mearns,,NEWTON MEARNS,,,,0,,253493,656612,,,BCT,MKD,OTH,,,,123,2003-08-27T00:00:00,2023-12-12T15:02:54,0,,active
6120230,37323523,,,Abercorn Road,,,,Crookfur Road,,Harvie Avenue,,,,opp & after,,S,ES000886,Crookfur,Newton Mearns,,NEWTON MEARNS,,,,0,,253438,656442,,,BCT,MKD,OTH,,,,123,2003-08-27T00:00:00,2023-12-12T15:02:54,0,,active
6120231,37323959,,,Maple Avenue,,,,Maple Avenue,,Eaglesham Road,,,,opp,,NW,ES002826,Newton Mearns,,,NEWTON MEARNS,,,,1,,253733,655594,,,BCT,MKD,OTH,,,,123,2003-08-27T00:00:00,2023-12-12T15:02:54,0,,active
6120232,37323497,,,Maple Avenue,,,,Maple Avenue,,Eaglesham Road,,,,after,,SE,ES002826,Newton Mearns,,,NEWTON MEARNS,,,,0,,253762,655583,,,BCT,MKD,OTH,,,,123,2003-08-27T00:00:00,2023-12-12T15:02:54,0,,active
6120233,37323465,,,Poplar Avenue,,,,Paidmyre Crescent,,Eaglesham Road,,,,opp,,NW,ES002826,Newton Mearns,,,NEWTON MEARNS,,,,0,,253940,655394,,,BCT,MKD,OTH,,,,123,2003-08-27T00:00:00,2023-12-12T15:02:54,0,,active
6120234,37323698,,,Poplar Avenue,,,,Poplar Avenue,,Eaglesham Road,,,,after,,SE,ES002826,Newton Mearns,,,NEWTON MEARNS,,,,0,,253948,655419,,,BCT,MKD,OTH,,,,123,2003-08-27T00:00:00,2023-12-12T15:02:54,0,,active
6120235,37323234,,,Newton Grove,,,,Newton Grove,,Eaglesham Road,,,,opp,,SE,ES002826,Newton Mearns,,,NEWTON MEARNS,,,,0,,254119,655241,,,BCT,MKD,OTH,,,,123,2003-08-27T00:00:00,2023-12-12T15:02:54,0,,active
6120236,37323869,,,Newton Grove,,,,Newton Grove,,Eaglesham Road,,,,before,,NW,ES002826,Newton Mearns,,,NEWTON MEARNS,,,,0,,254150,655201,,,BCT,MKD,OTH,,,,123,2003-08-27T00:00:00,2023-12-12T15:02:54,0,,active
6120237,37323278,,,Kirkview Crescent,,,,Kirkview Crescent,,Eaglesham Road,,,,after,,SE,ES002826,Newton Mearns,,,NEWTON MEARNS,,,,0,,254287,655163,,,BCT,MKD,OTH,,,,123,2003-08-27T00:00:00,2023-12-12T15:02:54,0,,active
6120238,37323859,,,Kirkview Crescent,,,,Kirkview Crescent,,Eaglesham Road,,,,opp,,NW,ES002826,Newton Mearns,,,NEWTON MEARNS,,,,0,,254307,655143,,,BCT,MKD,OTH,,,,123,2003-08-27T00:00:00,2023-12-12T15:02:54,0,,active
6120239,37324363,,,Mearnskirk Road,,,,Mearnskirk Road,,Mearns Road,,,,after,,NE,ES002826,Newton Mearns,,,NEWTON MEARNS,,,,0,,254147,654781,,,BCT,MKD,OTH,,,,123,2003-08-27T00:00:00,2023-12-12T15:02:54,0,,active
612024,37323874,,,Glen Street,,,,Library,,Main Street,,,,after,,NE,ES000295,Barrhead,,,BARRHEAD,,,,1,,250211,658933,,,BCT,MKD,OTH,,,,123,2003-08-27T00:00:00,2023-12-12T15:02:54,0,,active
6120241,37324547,,,Mearnskirk Road,,,,Mearnskirk Road,,Mearns Road,,,,before,,NE,ES002826,Newton Mearns,,,NEWTON MEARNS,,,,0,,253935,654444,,,BCT,MKD,OTH,,,,123,2003-08-27T00:00:00,2023-12-12T15:02:54,0,,active
6120243,37323626,,,Waterfoot Road,,,,Waterfoot Road,,Mearns Road,,,,after,,SW,ES000470,Broom,Newton Mearns,,NEWTON MEARNS,,,,0,,254437,655180,,,BCT,MKD,OTH,,,,123,2003-08-27T00:00:00,2023-12-12T15:02:54,0,,active
6120244,37323852,,,Waterfoot Road,,,,Waterfoot Road,,Mearns Road,,,,opp,,NE,ES000470,Broom,Newton Mearns,,NEWTON MEARNS,,,,1,,254459,655252,,,BCT,MKD,OTH,,,,123,2003-08-27T00:00:00,2023-12-12T15:02:54,0,,active
6120245,37323935,,,Firwood Road,,,,Shawwood Crescent,,Mearns Road,,,,before,,NE,ES000470,Broom,Newton Mearns,,NEWTON MEARNS,,,,0,,254594,655495,,,BCT,MKD,OTH,,,,123,2003-08-27T00:00:00,2023-12-12T15:02:54,0,,active
6120246,37323947,,,Firwood Road,,,,Firwood Road,,Mearns Road,,,,opp,,NE,ES000470,Broom,Newton Mearns,,NEWTON MEARNS,,,,0,,254651,655593,,,BCT,MKD,OTH,,,,123,2003-08-27T00:00:00,2023-12-12T15:02:54,0,,active
6120247,37323682,,,Broompark Drive,,,,Broomvale Drive,,Mearns Road,,,,before,,NE,ES000470,Broom,Newton Mearns,,NEWTON MEARNS,,,,0,,254981,656005,,,BCT,MKD,OTH,,,,123,2003-08-27T00:00:00,2023-12-12T15:02:54,0,,active
6120248,37323565,,,Broompark Drive,,,,Broompark Drive,,Mearns Road,,,,opp,,SW,ES000470,Broom,Newton Mearns,,NEWTON MEARNS,,,,0,,255022,656031,,,BCT,MKD,OTH,,,,123,2003-08-27T00:00:00,2023-12-12T15:02:54,0,,active
6120249,37323857,,,Broom Road East,,,,Broomroad East,,Mearns Road,,,,after,,SW,ES000470,Broom,Newton Mearns,,NEWTON MEARNS,,,,0,,255301,656277,,,BCT,MKD,OTH,,,,123,2003-08-27T00:00:00,2023-12-12T15:02:54,0,,active
612025,37323586,,,Arthurlie Street,,,,Arthurlie Street,,Main Street,,,,after,,SW,ES000295,Barrhead,,,BARRHEAD,,,,1,,250283,658951,,,BCT,MKD,OTH,,,,123,2003-08-27T00:00:00,2023-12-12T15:02:54,0,,active
6120250,37323495,,,Broom Road East,,,,Broom Road East,,Mearns Road,,,,opp,,NE,ES000470,Broom,Newton Mearns,,NEWTON MEARNS,,,,0,,255329,656323,,,BCT,MKD,OTH,,,,123,2003-08-27T00:00:00,2023-12-12T15:02:54,0,,active
6120251,37323863,,,Laigh Road,,,,Laigh Road,,Mearns Road,,,,before,,SW,ES000470,Broom,Newton Mearns,,NEWTON MEARNS,,,,0,,255619,656553,,,BCT,MKD,OTH,,,,123,2003-08-27T00:00:00,2023-12-12T15:02:54,0,,active
6120252,37323969,,,Neidpath Road East,,,,Neidpath Road East,,Mearns Road,,,,after,,NE,ES000470,Broom,Newton Mearns,,NEWTON MEARNS,,,,0,,255671,656630,,,BCT,MKD,OTH,,,,123,2003-08-27T00:00:00,2023-12-12T15:02:54,0,,active
6120253,37323487,,,Roddinghead Road,,,,Roddinghead Road,,Mearns Road,,,,opp & before,,SW,ES000726,Clarkston,,,NEWTON MEARNS,,,,0,,255829,656854,,,BCT,MKD,OTH,,,,123,2003-08-27T00:00:00,2023-12-12T15:02:54,0,,active
6120254,37323942,,,Roddinghead Road,,,,Roddinghead Road,,Mearns Road,,,,after,,NE,ES000726,Clarkston,,,NEWTON MEARNS,,,,0,,255850,656916,,,BCT,MKD,OTH,,,,123,2003-08-27T00:00:00,2023-12-12T15:02:54,0,,active
6120255,37323476,,,Flenders Road,,,,Flenders Road,,Mearns Road,,,,before,,SW,ES000726,Clarkston,,,CLARKSTON,,,,0,,256014,657034,,,BCT,MKD,OTH,,,,123,2003-08-27T00:00:00,2023-12-12T15:02:54,0,,active
6120256,37323585,,,Flenders Road,,,,Flenders Road,,Mearns Road,,,,opp,,NE,ES000726,Clarkston,,,CLARKSTON,,,,0,,256041,657052,,,BCT,MKD,OTH,,,,123,2003-08-27T00:00:00,2023-12-12T15:02:54,0,,active
6120257,37323283,,,Cathcart Castle Golf Course,,,,Opp Cathcart Castle Golf Course,,Mearns Road,,,,opp,,W,ES000726,Clarkston,,,CLARKSTON,,,,0,,256236,657084,,,BCT,MKD,OTH,,,,123,2003-08-27T00:00:00,2023-12-12T15:02:54,0,,active
6120258,37323587,,,Cathcart Castle Golf Course,,,,Cathcart Castle Golf Course,,Mearns Road,,,,at,,E,ES000726,Clarkston,,,CLARKSTON,,,,0,,256206,657095,,,BCT,MKD,OTH,,,,123,2003-08-27T00:00:00,2023-12-12T15:02:54,0,,active
6120259,37324235,,,Sunbury Avenue,,,,Sunbury Avenue,,Mearns Road,,,,after,,W,ES000726,Clarkston,,,CLARKSTON,,,,0,,256336,657094,,,BCT,MKD,OTH,,,,123,2003-08-27T00:00:00,2023-12-12T15:02:54,0,,active
612026,37323893,,,Health Centre,,,,Health Centre,,Main Street,,,,opp,,SW,ES000295,Barrhead,,,BARRHEAD,,,,1,,250439,659051,,,BCT,MKD,OTH,,,,123,2003-08-27T00:00:00,2023-12-12T15:02:54,0,,active
6120260,37323965,,,Sunbury Avenue,,,,Sunbury Avenue,,Mearns Road,,,,opp,,NE,ES000726,Clarkston,,,CLARKSTON,,,,0,,256400,657139,,,BCT,MKD,OTH,,,,123,2003-08-27T00:00:00,2023-12-12T15:02:54,0,,active
6120261,37323679,,,Highfield Drive,,,,Highfield Drive,,Mearns Road,,,,before,,SW,ES000726,Clarkston,,,CLARKSTON,,,,0,,256539,657248,,,BCT,MKD,OTH,,,,123,2003-08-27T00:00:00,2023-12-12T15:02:54,0,,active
6120262,37323439,,,Hillview Drive,,,,Hillview Drive,,Mearns Road,,,,opp,,NE,ES000726,Clarkston,,,CLARKSTON,,,,0,,256620,657331,,,BCT,MKD,OTH,,,,123,2003-08-27T00:00:00,2023-12-12T15:02:54,0,,active
6120263,37323757,,,Hillview Drive,,,,Hillview Drive,,Mearns Road,,,,before,,SW,ES000726,Clarkston,,,CLARKSTON,,,,0,,256685,657352,,,BCT,MKD,OTH,,,,123,2003-08-27T00:00:00,2023-12-12T15:02:54,0,,active
6120264,37323748,,,Mearns Road,,,,Benview Road,,Mearns Road,,,,at 59,,W,ES000726,Clarkston,,,CLARKSTON,,,,0,,256824,657388,,,BCT,MKD,OTH,,,,123,2003-08-27T00:00:00,2023-12-12T15:02:54,0,,active
6120265,37323239,,,Mearns Road,,,,Benview Road,,Mearns Road,,,,opp 59,,E,ES000726,Clarkston,,,CLARKSTON,,,,0,,256855,657402,,,BCT,MKD,OTH,,,,123,2003-08-27T00:00:00,2023-12-12T15:02:54,0,,active
6120266,37323456,,,Stewart Drive,,,,Clarkston Toll,,Benview Road,,,,after,,NE,ES000726,Clarkston,,,CLARKSTON,,,,1,,257204,657542,,,BCT,MKD,OTH,,,,123,2003-08-27T00:00:00,2023-12-12T15:02:54,0,,active
6120267,37323987,,,Aidans Brae,,,,St Aidan's Episcopal Church,,Mearns Road,,,,after,,W,ES000726,Clarkston,,,CLARKSTON,,,,0,,257217,657437,,,BCT,MKD,OTH,,,,123,2003-08-27T00:00:00,2023-12-12T15:02:54,0,,active
6120268,37323593,,,Fenwick Place,,,,Eastwood Toll,,Eastwoodmains Road,,,,before,,SE,ES001509,Giffnock,,,GIFFNOCK,,,,1,,255887,658289,,,BCT,MKD,OTH,,,,123,2003-08-27T00:00:00,2023-12-12T15:02:54,0,,active
6120269,37323596,,,Denholm Drive,,,,Denholm Drive,,Eastwoodmains Road,,,,after,,NW,ES001509,Giffnock,,,GIFFNOCK,,,,1,,256137,658213,,,BCT,MKD,OTH,,,,123,2003-08-27T00:00:00,2023-12-12T15:02:54,0,,active
612027,37323594,,,Water Road,,,,Sports centre,,Main Street,,,,before,,NE,ES000295,Barrhead,,,BARRHEAD,,,,1,,250387,659048,,,BCT,MKD,OTH,,,,123,2003-08-27T00:00:00,2023-12-12T15:02:54,0,,active
6120270,37323675,,,Lotterburn Drive,,,,Lotterburn Drive,,Eastwoodmains Road,,,,after,,E,ES001509,Giffnock,,,GIFFNOCK,,,,1,,256236,658203,,,BCT,MKD,OTH,,,,123,2003-08-27T00:00:00,2023-12-12T15:02:54,0,,active
6120271,37323678,,,Broomley Drive,,,,Broomley Drive,,Eastwoodmains Road,,,,after,,SE,ES003875,Williamwood,,,GIFFNOCK,,,,1,,256470,658178,,,BCT,MKD,OTH,,,,123,2003-08-27T00:00:00,2023-12-12T15:02:54,0,,active
6120272,37323539,,,Carrick Crescent,,,,Carrick Crescent,,Eastwoodmains Road,,,,after,,NW,ES003875,Williamwood,,,GIFFNOCK,,,,1,,256537,658128,,,BCT,MKD,OTH,,,,123,2003-08-27T00:00:00,2023-12-12T15:02:54,0,,active
6120273,37323274,,,Etive Drive,,,,Etive Drive,,Eastwoodmains Road,,,,after,,SE,ES003875,Williamwood,,,CLARKSTON,,,,1,,256640,658069,,,BCT,MKD,OTH,,,,123,2003-08-27T00:00:00,2023-12-12T15:02:54,0,,active
6120274,37323597,,,Seres Road,,,,Williamwood Station,,Eastwoodmains Road,,,,after,,NW,ES003875,Williamwood,,,CLARKSTON,,,,1,,256640,658055,,,BCT,MKD,OTH,,,,123,2003-08-27T00:00:00,2023-12-12T15:02:54,0,,active
6120275,37323254,,,Golf Road,,,,Golf Road,,Eastwoodmains Road,,,,after,,NW,ES000726,Clarkston,,,CLARKSTON,,,,1,,256984,657776,,,BCT,MKD,OTH,,,,123,2003-08-27T00:00:00,2023-12-12T15:02:54,0,,active
6120276,37323943,,,Golf Road,,,,Drumby Crescent,,Eastwoodmains Road,,,,opp,,SE,ES000726,Clarkston,,,CLARKSTON,,,,1,,257018,657763,,,BCT,MKD,OTH,,,,123,2003-08-27T00:00:00,2023-12-12T15:02:54,0,,active
6120277,37323967,,,Queens Gate,,,,Clarkston Toll,,Eastwoodmains Road,,,,after,,SE,ES000726,Clarkston,,,CLARKSTON,,,,1,,257184,657663,,,BCT,MKD,OTH,,,,123,2003-08-27T00:00:00,2023-12-12T15:02:54,0,,active
6120278,37323829,,,Clarkston Halls,,,,Clarkston Halls,,Clarkston Road,,,,opp,,N,N0078787,Stamperland,,,CLARKSTON,,,,1,,257296,657766,,,BCT,MKD,OTH,,,,123,2003-08-27T00:00:00,2023-12-12T15:02:54,0,,active
6120279,37323267,,,Clarkston Halls,,,,Williamwood Golf Course,,Clarkston Road,,,,before,,S,N0078787,Stamperland,,,CLARKSTON,,,,1,,257351,657849,,,BCT,MKD,OTH,,,,123,2003-08-27T00:00:00,2023-12-12T15:02:54,0,,active
612028,37323697,,,Millview,,,,Manse Court,,Main Street,,,,after,,NE,ES000295,Barrhead,,,BARRHEAD,,,,1,,250619,659209,,,BCT,MKD,OTH,,,,123,2003-08-27T00:00:00,2023-12-12T15:02:54,0,,active
6120280,37323629,,,Stamperland Gardens,,,,Stamperland Gardens,,Clarkston Road,,,,opp,,N,N0078787,Stamperland,,,CLARKSTON,,,,1,,257566,658127,,,BCT,MKD,OTH,,,,123,2003-08-27T00:00:00,2023-12-12T15:02:54,0,,active
6120281,37323469,,,Stamperland Gardens,,,,Stamperland Gardens,,Clarkston Road,,,,before,,S,N0078787,Stamperland,,,CLARKSTON,,,,1,,257581,658115,,,BCT,MKD,OTH,,,,123,2003-08-27T00:00:00,2023-12-12T15:02:54,0,,active
6120282,37323746,,,Beechlands Avenue,,,,Williamwood Golf Club,,Clarkston Road,,,,opp,,S,ES002763,Netherlee,,,CLARKSTON,,,,1,,257613,658402,,,BCT,MKD,OTH,,,,123,2003-08-27T00:00:00,2023-12-12T15:02:54,0,,active
6120283,37323854,,,Beechlands Avenue,,,,Williamwood Golf Club,,Clarkston Road,,,,after,,N,ES002763,Netherlee,,,CLARKSTON,,,,1,,257603,658449,,,BCT,MKD,OTH,,,,123,2003-08-27T00:00:00,2023-12-12T15:02:54,0,,active
6120284,37323793,,,Williamwood Drive,,,,Williamwood Drive,,Clarkston Road,,,,opp,,SW,ES002763,Netherlee,,,CLARKSTON,,,,1,,257743,658766,,,BCT,MKD,OTH,,,,123,2003-08-27T00:00:00,2023-12-12T15:02:54,0,,active
6120285,37323652,,,Williamwood Drive,,,,Williamwood Drive,,Clarkston Road,,,,after,,NE,ES002763,Netherlee,,,CLARKSTON,,,,1,,257747,658800,,,BCT,MKD,OTH,,,,123,2003-08-27T00:00:00,2023-12-12T15:02:54,0,,active
6120286,37323247,,,Linnpark Avenue,,,,Linnpark Avenue,,Clarkston Road,,,,before,,SW,ES002763,Netherlee,,,CLARKSTON,,,,1,,257853,658993,,,BCT,MKD,OTH,,,,123,2003-08-27T00:00:00,2023-12-12T15:02:54,0,,active
6120287,37323562,,,Parklands Road,,,,Parklands Road,,Clarkston Road,,,,before,,NW,ES002763,Netherlee,,,CLARKSTON,,,,1,,257813,659129,,,BCT,MKD,OTH,,,,123,2003-08-27T00:00:00,2023-12-12T15:02:54,0,,active
6120288,37323736,,,Parklands Road,,,,Parklands Road,,Clarkston Road,,,,opp,,SE,ES002763,Netherlee,,,CLARKSTON,,,,1,,257766,659286,,,BCT,MKD,OTH,,,,123,2003-08-27T00:00:00,2023-12-12T15:02:54,0,,active
6120289,37323434,,,Parklands Road,,,,Deanwood Road,,Clarkston Road,,,,after,,N,ES002763,Netherlee,,,CLARKSTON,,,,1,,257717,659354,,,BCT,MKD,OTH,,,,123,2003-08-27T00:00:00,2023-12-12T15:02:54,0,,active
612029,37323436,,,Millview,,,,Manse Court,,Main Street,,,,opp,,SW,ES000295,Barrhead,,,BARRHEAD,,,,1,,250607,659164,,,BCT,MKD,OTH,,,,123,2003-08-27T00:00:00,2023-12-12T15:02:54,0,,active
6120290,37323296,,,Bute Gardens,,,,Bute Gardens,,Clarkston Road,,,,before,,S,ES002763,Netherlee,,,CLARKSTON,,,,1,,257712,659525,,,BCT,MKD,OTH,,,,123,2003-08-27T00:00:00,2023-12-12T15:02:54,0,,active
6120291,37323949,,,Bute Gardens,,,,Bute Gardens,,Clarkston Road,,,,opp,,N,ES002763,Netherlee,,,CLARKSTON,,,,1,,257701,659535,,,BCT,MKD,OTH,,,,123,2003-08-27T00:00:00,2023-12-12T15:02:54,0,,active
6120292,37396237,,,Kingsford Avenue,,,,Kingsford Avenue,,Muirend Road,,,,opp,,NW,N0068167,Muirend,Glasgow,,MUIREND,,,,0,,257461,659710,,,BCT,MKD,OTH,,,,123,2003-08-27T00:00:00,2023-12-12T15:02:54,0,,inactive
6120293,37323924,,,Mearns Road,,,,Clarkston Toll,,Busby Road,,,,opp,,SE,ES000726,Clarkston,,,CLARKSTON,,,,1,,257306,657550,,,BCT,MKD,OTH,,,,123,2003-08-27T00:00:00,2023-12-12T15:02:54,0,,active
6120294,37323489,,,Mearns Road,,,,Mearns Road,,Busby Road,,,,before,,NW,ES000726,Clarkston,,,CLARKSTON,,,,1,,257341,657478,,,BCT,MKD,OTH,,,,123,2003-08-27T00:00:00,2023-12-12T15:02:54,0,,active
6120295,37323676,,,Strawhill Road,,,,Strawhill Road,,Busby Road,,,,after,,S,ES000726,Clarkston,,,CLARKSTON,,,,0,,257469,657296,,,BCT,MKD,OTH,,,,123,2003-08-27T00:00:00,2023-12-12T15:02:54,0,,active
6120296,37323737,,,Arthur Street,,,,Viaduct Road,,Busby Road,,,,opp,,SE,ES000726,Clarkston,,,CLARKSTON,,,,1,,257521,657046,,,BCT,MKD,OTH,,,,123,2003-08-27T00:00:00,2023-12-12T15:02:54,0,,active
6120297,37323425,,,Arthur Street,,,,Arthur Street,,Busby Road,,,,before,,NW,ES000726,Clarkston,,,CLARKSTON,,,,1,,257564,656994,,,BCT,MKD,OTH,,,,123,2003-08-27T00:00:00,2023-12-12T15:02:54,0,,active
6120298,37323572,,,Bull Road,,,,Bull Road,,Busby Main Street,,,,opp,,SE,ES000521,Busby,,,BUSBY,,,,1,,257864,656667,,,BCT,MKD,OTH,,,,123,2003-08-27T00:00:00,2023-12-12T15:02:54,0,,active
6120299,37323589,,,Bull Road,,,,Bull road,,Main Street,,,,before,,NW,ES000521,Busby,,,BUSBY,,,,1,,257863,656637,,,BCT,MKD,OTH,,,,123,2003-08-27T00:00:00,2023-12-12T15:02:54,0,,active
61203,37323542,,,Brownside Avenue,,,,Brownside Avenue,,Caplethill Road,,,,before,,NW,ES000295,Barrhead,,,BARRHEAD,,,,0,,249518,660260,,,BCT,MKD,OTH,,,,123,2003-08-27T00:00:00,2023-12-12T15:02:54,0,,inactive
612030,37323483,,,Carlibar Road,,,,Carlibar Road,,Dovecothall Street,,,,before,,N,ES000295,Barrhead,,,BARRHEAD,,,,1,,250768,659364,,,BCT,MKD,OTH,,,,123,2003-08-27T00:00:00,2023-12-12T15:02:54,0,,active
6120300,37323243,,,The Paddock,,,,The Paddock,,East Kilbride Road,,,,before,,NW,ES000521,Busby,,,BUSBY,,,,1,,258154,656500,,,BCT,MKD,OTH,,,,123,2003-08-27T00:00:00,2023-12-12T15:02:54,0,,active
6120301,37323832,,,The Paddock,,,,Easter Road,,East Kilbride Road,,,,opp,,SE,ES000521,Busby,,,BUSBY,,,,1,,258168,656511,,,BCT,MKD,OTH,,,,123,2003-08-27T00:00:00,2023-12-12T15:02:54,0,,active
6120302,37323782,,,Carmunnock Road,,,,Busby Rail Station,,East Kilbride Road,,,,opp,,NW,ES000521,Busby,,,BUSBY,,,,1,,258269,656407,,,BCT,MKD,OTH,,,,123,2003-08-27T00:00:00,2023-12-12T15:02:54,0,,active
6120303,37323653,,,Carmunnock Road,,,,Busby Rail Station,,East Kilbride Road,,,,after,,SE,ES000521,Busby,,,BUSBY,,,,1,,258328,656377,,,BCT,MKD,OTH,,,,123,2003-08-27T00:00:00,2023-12-12T15:02:54,0,,active
6120304,37323276,,,The Crescent,,,,The Crescent,,East Kilbride Road,,,,opp,,NW,ES000521,Busby,,,BUSBY,,,,1,,258490,656323,,,BCT,MKD,OTH,,,,123,2003-08-27T00:00:00,2023-12-12T15:02:54,0,,active
6120305,37323654,,,The Crescent,,,,The Crescent,,East Kilbride Road,,,,after,,SE,ES000521,Busby,,,BUSBY,,,,1,,258490,656332,,,BCT,MKD,OTH,,,,123,2003-08-27T00:00:00,2023-12-12T15:02:54,0,,active
6120306,37323839,,,Kippen Drive,,,,Kippen Drive,,East Kilbride Road,,,,opp,,SE,ES000521,Busby,,,BUSBY,,,,1,,258648,656278,,,BCT,MKD,OTH,,,,123,2003-08-27T00:00:00,2023-12-12T15:02:54,0,,active
6120307,37323693,,,Kippen Drive,,,,Kippen Drive,,East Kilbride Road,,,,before,,NW,ES000521,Busby,,,BUSBY,,,,1,,258693,656226,,,BCT,MKD,OTH,,,,123,2003-08-27T00:00:00,2023-12-12T15:02:54,0,,active
6120308,37323929,,,Greenwood Road,,,,Sheddens Roundabout,,Eaglesham Road,,,,after,,N,ES000726,Clarkston,,,CLARKSTON,,,,1,,257433,657029,,,BCT,MKD,OTH,,,,123,2003-08-27T00:00:00,2023-12-12T15:02:54,0,,active
6120309,37323753,,,Greenwood Road,,,,Greenwood Road,,Eaglesham Road,,,,opp,,S,ES000726,Clarkston,,,CLARKSTON,,,,1,,257432,656954,,,BCT,MKD,OTH,,,,123,2003-08-27T00:00:00,2023-12-12T15:02:54,0,,active
612031,37323537,,,Carlibar Road,,,,Carlibar Road,,Dovecothall Street,,,,opp,,S,ES000295,Barrhead,,,BARRHEAD,,,,1,,250819,659459,,,BCT,MKD,OTH,,,,123,2003-08-27T00:00:00,2023-12-12T15:02:54,0,,active
6120310,37323294,,,Mansefield Road,,,,Mansfield Road,,Eaglesham Road,,,,after,,N,ES000726,Clarkston,,,CLARKSTON,,,,1,,257400,656859,,,BCT,MKD,OTH,,,,123,2003-08-27T00:00:00,2023-12-12T15:02:54,0,,active
6120311,37323864,,,Greenfield Road,,,,Hawthorn Road,,Eaglesham Road,,,,opp,,S,ES000726,Clarkston,,,CLARKSTON,,,,1,,257360,656681,,,BCT,MKD,OTH,,,,123,2003-08-27T00:00:00,2023-12-12T15:02:54,0,,active
6120312,37323879,,,Greenfield Road,,,,Greenfield Road,,Eaglesham Road,,,,before,,N,ES000726,Clarkston,,,CLARKSTON,,,,1,,257330,656612,,,BCT,MKD,OTH,,,,123,2003-08-27T00:00:00,2023-12-12T15:02:54,0,,active
6120313,37323742,,,Ashfield Road,,,,Ashfield Road,,Eaglesham Road,,,,opp,,S,ES000726,Clarkston,,,CLARKSTON,,,,1,,257286,656443,,,BCT,MKD,OTH,,,,123,2003-08-27T00:00:00,2023-12-12T15:02:54,0,,active
6120314,37323898,,,Ashfield Road,,,,Ashfield Road,,Eaglesham Road,,,,before,,N,ES000726,Clarkston,,,CLARKSTON,,,,1,,257268,656424,,,BCT,MKD,OTH,,,,123,2003-08-27T00:00:00,2023-12-12T15:02:54,0,,active
6120315,37323897,,,Low Flender Road,,,,Williamwood School,,Eaglesham Road,,,,opp,,S,ES000726,Clarkston,,,CLARKSTON,,,,1,,257150,656009,,,BCT,MKD,OTH,,,,123,2003-08-27T00:00:00,2023-12-12T15:02:54,0,,active
6120316,37323962,,,Fairfield Drive,,,,Williamwood School,,Eaglesham Road,,,,opp,,N,ES000726,Clarkston,,,CLARKSTON,,,,0,,257218,656274,,,BCT,MKD,OTH,,,,123,2003-08-27T00:00:00,2023-12-12T15:02:54,0,,active
6120317,37323583,,,Millerston Cottages,,,,Millerston Cottages,,Eaglesham Road,,,,at,,S,ES000726,Clarkston,,,CLARKSTON,,,,1,,257055,655740,,,BCT,MKD,OTH,,,,123,2003-08-27T00:00:00,2023-12-12T15:02:54,0,,active
6120318,37323836,,,Millerston Cottages,,,,Millerston Cottages,,Eaglesham Road,,,,opp,,N,ES000726,Clarkston,,,CLARKSTON,,,,1,,257034,655711,,,BCT,MKD,OTH,,,,123,2003-08-27T00:00:00,2023-12-12T15:02:54,0,,active
6120319,37323258,,,Waterfoot Row,,,,Waterfoot Row,,Glasgow Road,,,,after,,S,ES003785,Waterfoot,,,WATERFOOT,,,,1,,256899,655274,,,BCT,MKD,OTH,,,,123,2003-08-27T00:00:00,2023-12-12T15:02:54,0,,active
612032,37323745,,,Bridgebar Bridge,,,,Bowerwalls Street,,Glasgow Road,,,,before,,SW,ES000295,Barrhead,,,BARRHEAD,,,,1,,250903,659617,,,BCT,MKD,OTH,,,,123,2003-08-27T00:00:00,2023-12-12T15:02:54,0,,active
6120320,37323985,,,Waterfoot Row,,,,Waterfoot Row,,Glasgow Road,,,,opp,,N,ES003785,Waterfoot,,,WATERFOOT,,,,1,,256894,655288,,,BCT,MKD,OTH,,,,123,2003-08-27T00:00:00,2023-12-12T15:02:54,0,,active
6120321,37323689,,,Craighlaw Avenue,,,,Craighlaw Avenue,,Glasgow Road,,,,opp,,S,ES003785,Waterfoot,,,WATERFOOT,,,,1,,256934,654823,,,BCT,MKD,OTH,,,,123,2003-08-27T00:00:00,2023-12-12T15:02:54,0,,active
6120322,37323284,,,Craighlaw Drive,,,,Craighlaw Drive,,Glasgow Road,,,,after,,N,ES003785,Waterfoot,,,WATERFOOT,,,,1,,256926,654816,,,BCT,MKD,OTH,,,,123,2003-08-27T00:00:00,2023-12-12T15:02:54,0,,active
6120323,37323696,,,Floors Road,,,,Floors Road,,Glasgow Road,,,,after,,N,ES003785,Waterfoot,,,WATERFOOT,,,,1,,256959,654573,,,BCT,MKD,OTH,,,,123,2003-08-27T00:00:00,2023-12-12T15:02:54,0,,active
6120324,37323482,,,Brackenrig Crescent,,,,Brackenrig Crescent,,Glasgow Road,,,,after,,S,ES003785,Waterfoot,,,WATERFOOT,,,,1,,257019,654134,,,BCT,MKD,OTH,,,,123,2003-08-27T00:00:00,2023-12-12T15:02:54,0,,active
6120325,37324232,,,Barlae Avenue,,,,Eaglesham House Farm,,Glasgow Road,,,,opp,,N,ES003785,Waterfoot,,,WATERFOOT,,,,1,,257018,653948,,,BCT,MKD,OTH,,,,123,2003-08-27T00:00:00,2023-12-12T15:02:54,0,,active
6120326,37323952,,,Barlae Avenue,,,,Barlae Avenue,,Glasgow Road,,,,after,,S,ES003785,Waterfoot,,,WATERFOOT,,,,1,,257043,653790,,,BCT,MKD,OTH,,,,123,2003-08-27T00:00:00,2023-12-12T15:02:54,0,,active
6120327,37323749,,,Low Borland Mill,,,,Low Borland Mill,,Glasgow Road,,,,opp,,S,ES001208,Eaglesham,,,WATERFOOT,,,,1,,257105,653159,,,BCT,MKD,OTH,,,,123,2003-08-27T00:00:00,2023-12-12T15:02:54,0,,active
6120328,37323752,,,Humbie Road,,,,Humbie Road,,Glasgow Road,,,,after,,N,ES001208,Eaglesham,,,EAGLESHAM,,,,1,,257150,652553,,,BCT,MKD,OTH,,,,123,2003-08-27T00:00:00,2023-12-12T15:02:54,0,,active
6120329,37323784,,,Alexander Avenue,,,,Alexander Avenue,,Glasgow Road,,,,after,,S,ES001208,Eaglesham,,,EAGLESHAM,,,,1,,257175,652423,,,BCT,MKD,OTH,,,,123,2003-08-27T00:00:00,2023-12-12T15:02:54,0,,active
612033,37323282,,,Bridgebar Bridge,,,,Waulkmill Avenue,,Glasgow Road,,,,opp,,NE,ES000295,Barrhead,,,BARRHEAD,,,,1,,250872,659594,,,BCT,MKD,OTH,,,,123,2003-08-27T00:00:00,2023-12-12T15:02:54,0,,active
6120330,37323567,,,Tarff Avenue,,,,Tarff Avenue,,Gilmour Street,,,,before,,N,ES001208,Eaglesham,,,EAGLESHAM,,,,1,,257188,652297,,,BCT,MKD,OTH,,,,123,2003-08-27T00:00:00,2023-12-12T15:02:54,0,,active
6120331,37323683,,,Polnoon Street,,,,Polnoon Street,,Gilmour Street,,,,opp,,SE,ES001208,Eaglesham,,,EAGLESHAM,,,,1,,257328,652120,,,BCT,MKD,OTH,,,,123,2003-08-27T00:00:00,2023-12-12T15:02:54,0,,active
6120332,37323823,,,Polnoon Street,,,,Polnoon Street,,Gilmour Street,,,,before,,NW,ES001208,Eaglesham,,,EAGLESHAM,,,,1,,257355,652046,,,BCT,MKD,OTH,,,,123,2003-08-27T00:00:00,2023-12-12T15:02:54,0,,active
6120333,37323625,,,West Glebe,,,,West Glebe,,Cheapside Street,,,,opp,,NE,ES001208,Eaglesham,,,EAGLESHAM,,,,1,,257506,652020,,,BCT,MKD,OTH,,,,123,2003-08-27T00:00:00,2023-12-12T15:02:54,0,,active
6120334,37323838,,,Montgomery Square,,,,Montgomery Square,,Strathaven Road,,,,opp,,SE,ES001208,Eaglesham,,,EAGLESHAM,,,,1,,257485,651890,,,BCT,MKD,OTH,,,,123,2003-08-27T00:00:00,2023-12-12T15:02:54,0,,active
6120335,37323783,,,Hill Drive,,,,Hill Road,,Strathaven Road,,,,after,,NW,ES001208,Eaglesham,,,EAGLESHAM,,,,1,,257631,651669,,,BCT,MKD,OTH,,,,123,2003-08-27T00:00:00,2023-12-12T15:02:54,0,,active
6120336,37323789,,,Hill Drive,,,,No 27,,Hill Drive,,,,at 27,,NW,ES001208,Eaglesham,,,EAGLESHAM,,,,1,,257520,651543,,,BCT,MKD,OTH,,,,123,2003-08-27T00:00:00,2023-12-12T15:02:54,0,,active
6120337,37323479,,,Brownmuir Avenue,,,,Brownmuir Avenue,,Hill Drive,,,,before,,E,ES001208,Eaglesham,,,EAGLESHAM,,,,1,,257482,651699,,,BCT,MKD,OTH,,,,123,2003-08-27T00:00:00,2023-12-12T15:02:54,0,,active
6120338,37323956,,,Polnoon Mews,,,,Polnoon Mews,,Polnoon Street,,,,opp,,SW,ES001208,Eaglesham,,,EAGLESHAM,,,,0,,257282,652105,,,BCT,MKD,OTH,,,,123,2003-08-27T00:00:00,2023-12-12T15:02:54,0,,inactive
6120339,37323454,,,Glendinning Place,,,,Glendinning Place,,Polnoon Street,,,,after,,SW,ES001208,Eaglesham,,,EAGLESHAM,,,,0,,257065,651927,,,BCT,MKD,OTH,,,,123,2003-08-27T00:00:00,2023-12-12T15:02:54,0,,inactive
612034,37323767,,,Blackbyres Road,,,,Blackbyres Road,,Glasgow Road,,,,before,,N,ES000295,Barrhead,,,BARRHEAD,,,,1,,250989,659877,,,BCT,MKD,OTH,,,,123,2003-08-27T00:00:00,2023-12-12T15:02:54,0,,active
6120340,37323423,,,Quarry Lane,,,,Quarry Lane,,Polnoon Street,,,,opp,,SW,ES001208,Eaglesham,,,EAGLESHAM,,,,0,,256941,651819,,,BCT,MKD,OTH,,,,123,2003-08-27T00:00:00,2023-12-12T15:02:54,0,,inactive
6120341,37323845,,,Moor Road,,,,Moor Road,,Polnoon Street,,,,before,,SW,ES001208,Eaglesham,,,EAGLESHAM,,,,0,,256750,651669,,,BCT,MKD,OTH,,,,123,2003-08-27T00:00:00,2023-12-12T15:02:54,0,,inactive
6120342,37323485,,,Linn Cottage,,,,Linn Cottage,,Montgomery Street,,,,before,,NE,ES001208,Eaglesham,,,EAGLESHAM,,,,0,,256962,651693,,,BCT,MKD,OTH,,,,123,2003-08-27T00:00:00,2023-12-12T15:02:54,0,,inactive
6120343,37323635,,,Mid Road,,,,Mid Road,,Montgomery Street,,,,before,,NE,ES001208,Eaglesham,,,EAGLESHAM,,,,0,,257218,651847,,,BCT,MKD,OTH,,,,123,2003-08-27T00:00:00,2023-12-12T15:02:54,0,,inactive
6120344,37323923,,,Nethercairn Road,,,,Nerthercairn Road,,Burnfield Road,,,,opp,,NW,N0078818,Mansewood,Glasgow,,GIFFNOCK,,,,0,,256005,659797,,,BCT,MKD,OTH,,,,123,2003-08-27T00:00:00,2023-12-12T15:02:54,0,,active
6120345,37323686,,,Kirkhill Road,,,,Kirkhill Road,,Broom Road,,,,before,,SE,ES002183,Kirkhill,Newton Mearns,,NEWTON MEARNS,,,,0,,255392,656247,,,BCT,MKD,OTH,,,,123,2003-08-27T00:00:00,2023-12-12T15:02:54,0,,inactive
6120346,37323656,,,Gleneagles Drive,,,,Gleneagles Drive,,Broom Road,,,,before,,S,ES002183,Kirkhill,Newton Mearns,,NEWTON MEARNS,,,,0,,255534,655813,,,BCT,MKD,OTH,,,,123,2003-08-27T00:00:00,2023-12-12T15:02:54,0,,inactive
6120347,37323723,,,Alloway Drive,,,,Alloway Drive,,Broom Road,,,,opp,,S,ES002183,Kirkhill,Newton Mearns,,NEWTON MEARNS,,,,0,,255523,655665,,,BCT,MKD,OTH,,,,123,2003-08-27T00:00:00,2023-12-12T15:02:54,0,,active
6120348,37323464,,,Castle Farm,,,,Castle Farm,,Broom Road,,,,at,,S,ES000470,Broom,Newton Mearns,,NEWTON MEARNS,,,,0,,255512,655577,,,BCT,MKD,OTH,,,,123,2003-08-27T00:00:00,2023-12-12T15:02:54,0,,inactive
6120349,37323646,,,Mearns Castle High School,,,,Mearns Castle School,,Waterfoot Road,,,,opp,,SW,ES002183,Kirkhill,Newton Mearns,,NEWTON MEARNS,,,,0,,255360,655199,,,BCT,MKD,OTH,,,,123,2003-08-27T00:00:00,2023-12-12T15:02:54,0,,inactive
6120350,37323649,,,Cruachan Drive,,,,Cruachan Drive,,Waterfoot Road,,,,opp,,NW,ES002183,Kirkhill,Newton Mearns,,NEWTON MEARNS,,,,0,,254760,655035,,,BCT,MKD,OTH,,,,123,2003-08-27T00:00:00,2023-12-12T15:02:54,0,,inactive
6120351,37323792,,,Mearnscroft Road,,,,Mearnscroft Road,,Waterfoot Road,,,,after,,NW,ES002183,Kirkhill,Newton Mearns,,NEWTON MEARNS,,,,0,,254583,655148,,,BCT,MKD,OTH,,,,123,2003-08-27T00:00:00,2023-12-12T15:02:54,0,,inactive
6120352,37323636,,,Kingsford Crescent,,,,Kingsford Crescent,,Greenfarm Road,,,,before,,NW,ES002826,Newton Mearns,,,NEWTON MEARNS,,,,0,,253036,656739,,,BCT,MKD,OTH,,,,123,2003-08-27T00:00:00,2023-12-12T15:02:54,0,,active
6120353,37323926,,,Fenwick Place,,,,Fenwick Place,,Eastwoodmains Road,,,,opp,,W,ES001509,Giffnock,,,GIFFNOCK,,,,1,,255946,658259,,,BCT,MKD,OTH,,,,123,2003-08-27T00:00:00,2023-12-12T15:02:54,0,,active
6120354,37323549,,,Lismore Place,,,,Lismore Close,,Greenfarm Road,,,,before,,S,ES002826,Newton Mearns,,,NEWTON MEARNS,,,,0,,252780,656525,,,BCT,MKD,OTH,,,,123,2003-08-27T00:00:00,2023-12-12T15:02:54,0,,active
6120355,37323936,,,Todhill,,,,Crookfur Road,,Capelrig Road,,,,at,,NE,ES000886,Crookfur,Newton Mearns,,NEWTON MEARNS,,,,0,,253943,656444,,,BCT,MKD,OTH,,,,123,2003-08-27T00:00:00,2023-12-12T15:02:54,0,,active
6120356,37323827,,,Kelvin Drive,,,,Kelvin Drive,,Aurs Drive,,,,at,,SW,N0072848,Auchenback,Barrhead,,BARRHEAD,,,,0,,250611,658387,,,BCT,MKD,OTH,,,,123,2003-08-27T00:00:00,2023-12-12T15:02:54,0,,inactive
6120357,37323849,,,Mearnscroft Road,,,,Mearnscroft Road,,Waterfoot Road,,,,opp,,SE,ES002183,Kirkhill,Newton Mearns,,NEWTON MEARNS,,,,0,,254625,655138,,,BCT,MKD,OTH,,,,123,2003-08-27T00:00:00,2023-12-12T15:02:54,0,,inactive
6120358,37323834,,,Cruachan Drive,,,,Mearns Cemetery,,Waterfoot Road,,,,after,,SE,ES002183,Kirkhill,Newton Mearns,,NEWTON MEARNS,,,,0,,254801,655031,,,BCT,MKD,OTH,,,,123,2003-08-27T00:00:00,2023-12-12T15:02:54,0,,inactive
6120359,37323825,,,Mearns Castle High School,,,,Mearns Castle High School,,Waterfoot Road,,,,at,,NE,ES002183,Kirkhill,Newton Mearns,,NEWTON MEARNS,,,,0,,255361,655216,,,BCT,MKD,OTH,,,,123,2003-08-27T00:00:00,2023-12-12T15:02:54,0,,inactive
612036,37323435,,,Blackbyres Road,,,,Blackbyres Road,,Glasgow Road,,,,opp,,S,ES000295,Barrhead,,,BARRHEAD,,,,1,,250981,659799,,,BCT,MKD,OTH,,,,123,2003-08-27T00:00:00,2023-12-12T15:02:54,0,,active
6120360,37323982,,,Alloway Drive,,,,Alloway Drive,,Broom Road,,,,before,,N,ES002183,Kirkhill,Newton Mearns,,NEWTON MEARNS,,,,0,,255506,655618,,,BCT,MKD,OTH,,,,123,2003-08-27T00:00:00,2023-12-12T15:02:54,0,,active
6120365,37323462,,,Abercorn Road,,,,Abercorn Road,,Harvie Avenue,,,,before,,N,ES000886,Crookfur,Newton Mearns,,NEWTON MEARNS,,,,0,,253455,656530,,,BCT,MKD,OTH,,,,123,2003-08-27T00:00:00,2023-12-12T15:02:54,0,,inactive
6120366,37323896,,,Corrour Road,,,,Corrour Road,,Harvie Avenue,,,,before,,NE,ES000886,Crookfur,Newton Mearns,,NEWTON MEARNS,,,,0,,253520,656708,,,BCT,MKD,OTH,,,,123,2003-08-27T00:00:00,2023-12-12T15:02:54,0,,inactive
6120367,37323242,,,Rannoch Avenue,,,,Rannoch Avenue,,Harvie Avenue,,,,before,,N,ES000886,Crookfur,Newton Mearns,,NEWTON MEARNS,,,,0,,253697,656896,,,BCT,MKD,OTH,,,,123,2003-08-27T00:00:00,2023-12-12T15:02:54,0,,inactive
6120368,37323623,,,Laggan Road,,,,Laggan Road,,Harvie Avenue,,,,before,,E,ES000886,Crookfur,Newton Mearns,,NEWTON MEARNS,,,,0,,253860,656991,,,BCT,MKD,OTH,,,,123,2003-08-27T00:00:00,2023-12-12T15:02:54,0,,inactive
6120369,37323828,,,Capelrig Road,,,,Capelrig Road,,Harvie Avenue,,,,before,,NE,ES000886,Crookfur,Newton Mearns,,NEWTON MEARNS,,,,0,,254034,657074,,,BCT,CUS,OTH,,,,123,2003-08-27T00:00:00,2023-12-12T15:02:54,0,,inactive
612037,37323545,,,Stewart Crescent,,,,Wraes Avenue,,Stewart Street,,,,before,,SW,ES000295,Barrhead,,,BARRHEAD,,,,0,,250722,659859,,,BCT,CUS,OTH,,,,123,2003-08-27T00:00:00,2023-12-12T15:02:54,0,,inactive
6120370,37323647,,,Ailsa Caravan Site,,,,Ailsa Caravan Site,,Fereneze Road,,,,at,,NE,ES003749,Uplawmoor,,,UPLAWMOOR,,,,0,,245371,657075,,,BCT,MKD,OTH,,,,123,2003-08-27T00:00:00,2023-12-12T15:02:54,0,,inactive
6120371,37323846,,,Westacres Road,,,,Westacres Road,,Barrhead Road,,,,before,,NW,ES002826,Newton Mearns,,,NEWTON MEARNS,,,,0,,252914,656062,,,BCT,MKD,OTH,,,,123,2003-08-27T00:00:00,2023-12-12T15:02:54,0,,active
6120372,37323672,,,Greenfarm Road,,,,Greenfarm Road,,Barrhead Road,,,,after,,SE,ES002826,Newton Mearns,,,NEWTON MEARNS,,,,0,,252870,656106,,,BCT,MKD,OTH,,,,123,2003-08-27T00:00:00,2023-12-12T15:02:54,0,,active
6120373,37323946,,,Cecil Street,,,,Cecil Street,,Busby Road,,,,after,,N,ES000726,Clarkston,,,CLARKSTON,,,,0,,257447,657266,,,BCT,MKD,OTH,,,,123,2003-08-27T00:00:00,2023-12-12T15:02:54,0,,active
6120374,37323858,,,St Vigeans Place,,,,St Vigeans Place,,Ayr Road,,,,before,,NE,ES002826,Newton Mearns,,,NEWTON MEARNS,,,,1,,253074,655167,,,BCT,MKD,OTH,,,,123,2003-08-27T00:00:00,2023-12-12T15:02:54,0,,active
6120375,37323287,,,Hunters Drive,,,,Hunters Drive,,Ayr Road,,,,opp,,SW,ES002826,Newton Mearns,,,NEWTON MEARNS,,,,1,,253036,655141,,,BCT,MKD,OTH,,,,123,2003-08-27T00:00:00,2023-12-12T15:02:54,0,,active
6120376,37323875,,,Floors Road,,,,Floors Road,,Glasgow Road,,,,opp,,S,ES003785,Waterfoot,,,WATERFOOT,,,,1,,256973,654536,,,BCT,MKD,OTH,,,,123,2003-08-27T00:00:00,2023-12-12T15:02:54,0,,active
6120377,37324236,,,Low Borland Mill,,,,Low Borland Mill,,Glasgow Road,,,,at,,N,ES001208,Eaglesham,,,WATERFOOT,,,,1,,257092,653154,,,BCT,CUS,OTH,,,,123,2003-08-27T00:00:00,2023-12-12T15:02:54,0,,active
6120378,37323743,,,Montgomery Square,,,,Montgomery Square,,Strathaven Road,,,,before,,NW,ES001208,Eaglesham,,,EAGLESHAM,,,,1,,257479,651881,,,BCT,MKD,OTH,,,,123,2003-08-27T00:00:00,2023-12-12T15:02:54,0,,active
6120379,37323862,,,Hill Drive,,,,Hill Drive,,Strathaven Road,,,,opp,,SE,ES001208,Eaglesham,,,EAGLESHAM,,,,1,,257653,651664,,,BCT,CUS,OTH,,,,123,2003-08-27T00:00:00,2023-12-12T15:02:54,0,,active
6120380,37323468,,,Police Station,,,,Police Station,,Station Road,,,,opp,,NW,ES002751,Neilston,,,NEILSTON,,,,0,,247832,657159,,,BCT,MKD,OTH,,,,123,2003-08-27T00:00:00,2023-12-12T15:02:54,0,,active
6120381,37323756,,,Woodfarm High School,,,,Woodfarm High School,,Robslee Road,,,,at,,NE,N0078823,Woodfarm,,,THORNLIEBANK,,,,0,,255357,659111,,,BCT,MKD,OTH,,,,123,2003-08-27T00:00:00,2023-12-12T15:02:54,0,,active
6120382,37323645,,,Castle Road,,,,Castle Road,,Barrhead Road,,,,before,,W,ES002826,Newton Mearns,,,NEWTON MEARNS,,,,0,,253282,655842,,,BCT,MKD,OTH,,,,123,2003-08-27T00:00:00,2023-12-12T15:02:54,0,,active
6120383,37323536,,,Rodger Avenue,,,,Rodger Avenue,,Barrhead Road,,,,after,,SE,ES002826,Newton Mearns,,,NEWTON MEARNS,,,,0,,253053,655959,,,BCT,MKD,OTH,,,,123,2003-08-27T00:00:00,2023-12-12T15:02:54,0,,active
6120384,37323637,,,Islay Drive,,,,Islay Drive,,Greenfarm Road,,,,after,,S,ES002826,Newton Mearns,,,NEWTON MEARNS,,,,0,,252819,656293,,,BCT,MKD,OTH,,,,123,2003-08-27T00:00:00,2023-12-12T15:02:54,0,,active
6120385,37323263,,,Greenfarm Road,,,,St Cadocs School,,Crookfur Road,,,,opp,,SE,ES000886,Crookfur,Newton Mearns,,NEWTON MEARNS,,,,0,,253241,656552,,,BCT,MKD,OTH,,,,123,2003-08-27T00:00:00,2023-12-12T15:02:54,0,,active
6120386,37323867,,,Mid Road,,,,Mid Road,,Montgomery Street,,,,opp,,SW,ES001208,Eaglesham,,,EAGLESHAM,,,,0,,257220,651833,,,BCT,CUS,OTH,,,,123,2003-08-27T00:00:00,2023-12-12T15:02:54,0,,inactive
6120387,37323574,,,Molendinar Terrace,,,,Molendinar Terrace,,Main Street,,,,after,,NE,ES002751,Neilston,,,NEILSTON,,,,0,,247460,656916,,,BCT,MKD,OTH,,,,123,2003-08-27T00:00:00,2023-12-12T15:02:54,0,,active
6120388,37323758,,,Molendinar Terrace,,,,Molendinar Terrace,,Main Street,,,,opp,,SW,ES002751,Neilston,,,NEILSTON,,,,0,,247451,656897,,,BCT,MKD,OTH,,,,123,2003-08-27T00:00:00,2023-12-12T15:02:54,0,,active
612039,37323958,,,Salterland Road,,,,St Convals Cemetery,,Glasgow Road,,,,at,,S,ES000295,Barrhead,,,BARRHEAD,,,,0,,251190,660419,,,BCT,MKD,OTH,,,,123,2003-08-27T00:00:00,2023-12-12T15:02:54,0,,active
6120390,37323256,,,Rowallan Road,,,,house 51,,Rouken Glen Road,,,,opp,,NW,N0078822,Rouken Glen,,,THORNLIEBANK,,,,1,,254985,658597,,,BCT,MKD,OTH,,,,123,2003-08-27T00:00:00,2023-12-12T15:02:54,0,,active
6120391,37324272,,,Crebar Street,,,,Auldhouse Burn,,Carnwadric Road,,,,opp,,NW,N0068035,Carnwadric,Glasgow,,THORNLIEBANK,,,,0,,254343,659657,,,BCT,MKD,OTH,,,,123,2003-08-27T00:00:00,2023-12-12T15:02:54,0,,active
6120392,37324245,,,Ardconnel Street,,,,Ardconnel Street,,Carnwadric Road,,,,opp,,W,N0068035,Carnwadric,Glasgow,,THORNLIEBANK,,,,0,,254517,659630,,,BCT,MKD,OTH,,,,123,2003-08-27T00:00:00,2023-12-12T15:02:54,0,,active
6120393,37324359,,,North Park Avenue,,,,North Park Avenue,,Carnwadric road,,,,before,,W,N0068035,Carnwadric,Glasgow,,THORNLIEBANK,,,,0,,254719,659646,,,BCT,MKD,OTH,,,,123,2003-08-27T00:00:00,2023-12-12T15:02:54,0,,active
6120394,37324592,,,Llawellyn,,,,Llawellyn,,Neilston Road,,,,at,,NE,ES002751,Neilston,,,NEILSTON,,,,0,,248727,657833,,,BCT,MKD,OTH,,,,123,2003-08-27T00:00:00,2023-12-12T15:02:54,0,,active
6120395,37324743,,,Sewage Works,,,,Sewage Works,,Lochlibo Road,,,,at,,W,ES002751,Neilston,,,NEILSTON,,,,0,,247734,657699,,,BCT,MKD,OTH,,,,123,2003-08-27T00:00:00,2023-12-12T15:02:54,0,,inactive
6120396,37324954,,,Sewage Works,,,,Sewage Works,,Lochlibo Road,,,,opp,,E,ES002751,Neilston,,,NEILSTON,,,,0,,247753,657714,,,BCT,MKD,OTH,,,,123,2003-08-27T00:00:00,2023-12-12T15:02:54,0,,inactive
6120397,37324275,,,Moorburn Avenue,,,,Moorburn Avenue,,Robslee Road,,,,opp,,NE,N0078823,Woodfarm,,,GIFFNOCK,,,,0,,255514,659270,,,BCT,MKD,OTH,,,,123,2003-08-27T00:00:00,2023-12-12T15:02:54,0,,active
6120398,37324372,,,Whitelee Gate,,,,Whitelee Gate,,Greenfarm Road,,,,opp,,NE,ES002826,Newton Mearns,,,NEWTON MEARNS,,,,0,,252914,656675,,,BCT,MKD,OTH,,,,123,2003-08-27T00:00:00,2023-12-12T15:02:54,0,,active
6120399,37324947,,,Nether Kirkton Avenue,,,,Nether Kirkton Avenue,,Neilston Road,,,,after,,SW,ES002751,Neilston,,,NEILSTON,,,,0,,248364,657612,,,BCT,MKD,OTH,,,,123,2003-08-27T00:00:00,2023-12-12T15:02:54,0,,active
61204,37323264,,,Grahamston Road,,,,Grahamston Road,,Paisley Road,,,,Opp,,NW,ES000295,Barrhead,,,BARRHEAD,,,,1,,249655,660128,,,BCT,MKD,OTH,,,,123,2003-08-27T00:00:00,2023-12-12T15:02:54,0,,active
612040,37323246,,,Salterland Road,,,,St Convals Cemetery,,Glasgow Road,,,,opp,,N,ES000295,Barrhead,,,BARRHEAD,,,,0,,251184,660447,,,BCT,MKD,OTH,,,,123,2003-08-27T00:00:00,2023-12-12T15:02:54,0,,active
6120400,37325348,,,Pollick Avenue,,,,Pollick Avenue,,Tannoch Road,,,,after,,NW,ES003749,Uplawmoor,,,UPLAWMOOR,,,,1,,243655,655098,,,BCT,MKD,OTH,,,,123,2003-08-27T00:00:00,2023-12-12T15:02:54,0,,inactive
6120401,37398985,,,Mure Place,,,,Mure Place,,Neilston Road,,,,opp,,SW,ES003749,Uplawmoor,,,UPLAWMOOR,,,,1,,243551,655233,,,BCT,CUS,OTH,,,,123,2003-08-27T00:00:00,2023-12-12T15:02:54,0,,inactive
6120402,37396424,,,Cowdenmill Cottages,,,,Cowdenmill Cottages,,Uplawmoor Road,,,,before,,NE,ES002751,Neilston,,,NEILSTON,,,,1,,245362,656180,,,BCT,CUS,OTH,,,,123,2003-08-27T00:00:00,2023-12-12T15:02:54,0,,active
6120403,37362843,,,Cowdenmill Cottages,,,,Cowdenmill Cottages,,Uplawmoor Road,,,,opp,,SW,ES002751,Neilston,,,NEILSTON,,,,1,,245379,656173,,,BCT,MKD,OTH,,,,123,2003-08-27T00:00:00,2023-12-12T15:02:54,0,,active
6120404,37395435,,,Glen Doll Road,,,,Glen Doll Road,,Uplawmoor Road,,,,opp,,E,ES002751,Neilston,,,NEILSTON,,,,1,,247038,656742,,,BCT,MKD,OTH,,,,123,2003-08-27T00:00:00,2023-12-12T15:02:54,0,,active
6120405,37354672,,,Glen Doll Road,,,,Glen Doll Road,,Uplawmoor Road,,,,before,,SW,ES002751,Neilston,,,NEILSTON,,,,1,,247057,656734,,,BCT,CUS,OTH,,,,123,2003-08-27T00:00:00,2023-12-12T15:02:54,0,,inactive
6120406,37324946,,,Kirkhill Road,,,,Mearns Castle Golf Academy,,Waterfoot Road,,,,after,,E,ES003785,Waterfoot,,,NEWTON MEARNS,,,,1,,256336,655310,,,BCT,MKD,OTH,,,,123,2003-08-27T00:00:00,2023-12-12T15:02:54,0,,active
6120407,37375386,,,Kirkhill Road,,,,Mearns Castle Golf Academy,,Waterfoot Road,,,,opp,,W,ES003785,Waterfoot,,,NEWTON MEARNS,,,,1,,256320,655301,,,BCT,MKD,OTH,,,,123,2003-08-27T00:00:00,2023-12-12T15:02:54,0,,active
6120408,37395727,,,Capelrig Road,,,,Capelrig Road,,Crookfur Road,,,,before,,E,ES000886,Crookfur,Newton Mearns,,NEWTON MEARNS,,,,0,,253874,656388,,,BCT,MKD,OTH,,,,123,2003-08-27T00:00:00,2023-12-12T15:02:54,0,,active
612041,37323498,,,Levernholme Lodge,,,,Leverholme Lodge,,Glasgow Road,,,,after,,SW,ES000295,Barrhead,,,BARRHEAD,,,,0,,251328,660730,,,BCT,MKD,OTH,,,,123,2003-08-27T00:00:00,2023-12-12T15:02:54,0,,active
6120410,37395726,,,Rufflees Avenue,,,,Carlibar Road,,Rufflees Avenue,,,,opp 4,,N,ES000295,Barrhead,,,BARRHEAD,,,,0,,250696,659451,,,BCT,MKD,OTH,,,,123,2003-08-27T00:00:00,2023-12-12T15:02:54,0,,inactive
6120411,37395737,,,Arthurlie Avenue,,,,Arthurlie Avenue,,Neilston Road,,,,opp,,SW,ES003749,Uplawmoor,,,UPLAWMOOR,,,,1,,243677,655318,,,BCT,MKD,OTH,,,,123,2003-08-27T00:00:00,2023-12-12T15:02:54,0,,inactive
6120412,37395696,,,Rysland Avenue,,,,Rysland Avenue,,Crookfur Road,,,,after,,SE,ES000886,Crookfur,Newton Mearns,,NEWTON MEARNS,,,,0,,254155,656250,,,BCT,MKD,OTH,,,,123,2003-08-27T00:00:00,2023-12-12T15:02:54,0,,active
6120413,37395697,,,Rysland Avenue,,,,Crookfur Cottage Homes,,Crookfur Road,,,,opp,,NW,ES000886,Crookfur,Newton Mearns,,NEWTON MEARNS,,,,0,,254045,656257,,,BCT,MKD,OTH,,,,123,2003-08-27T00:00:00,2023-12-12T15:02:54,0,,active
6120414,37395728,,,Gateside Road,,,,Gateside Road,,Lochlibo road,,,,after,,NE,ES000295,Barrhead,,,BARRHEAD,,,,0,,248815,658082,,,BCT,MKD,OTH,,,,123,2003-08-27T00:00:00,2023-12-12T15:02:54,0,,inactive
6120415,37395723,,,Holehouse Brae,,,,Holehouse Brae,,Lochlibo Road,,,,opp,,NE,ES002751,Neilston,,,NEILSTON,,,,0,,247288,657512,,,BCT,MKD,OTH,,,,123,2003-08-27T00:00:00,2023-12-12T15:02:54,0,,inactive
6120416,37395724,,,Holehouse Brae,,,,Holehouse Brae,,Lochlibo Road,,,,after,,SW,ES002751,Neilston,,,NEILSTON,,,,0,,247283,657489,,,BCT,MKD,OTH,,,,123,2003-08-27T00:00:00,2023-12-12T15:02:54,0,,inactive
6120417,37395763,,,Elliot Avenue,,,,Elliot Avenue,,Orchard Drive,,,,opp,,E,ES001509,Giffnock,,,GIFFNOCK,,,,0,,256176,659120,,,BCT,MKD,OTH,,,,123,2003-08-27T00:00:00,2023-12-12T15:02:54,0,,active
6120418,37395826,,,Elliot Avenue,,,,Rowand Avenue,,Orchard Drive,,,,after,,W,ES001509,Giffnock,,,GIFFNOCK,,,,0,,256157,659113,,,BCT,MKD,OTH,,,,123,2003-08-27T00:00:00,2023-12-12T15:02:54,0,,active
6120419,37395856,,,Caldwell Golf Course,,,,Caldwell Golf Course,,A736,,,,opp,,SW,ES003749,Uplawmoor,,,UPLAWMOOR,,,,0,,242827,655054,,,BCT,MKD,OTH,,,,123,2003-08-27T00:00:00,2023-12-12T15:02:54,0,,inactive
612042,37323632,,,Levernholme Lodge,,,,Leverholme Lodge,,Glasgow Road,,,,opp,,NE,ES000295,Barrhead,,,BARRHEAD,,,,0,,251345,660766,,,BCT,MKD,OTH,,,,123,2003-08-27T00:00:00,2023-12-12T15:02:54,0,,active
6120420,37395852,,,Caldwell Golf Course,,,,Caldwell Golf Course,,A736,,,,at,,NE,ES003749,Uplawmoor,,,UPLAWMOOR,,,,0,,242801,655048,,,BCT,MKD,OTH,,,,123,2003-08-27T00:00:00,2023-12-12T15:02:54,0,,inactive
6120421,37395898,,,Lochlibo Terrace,,,,Dalmeny Park Hotel,,Lochlibo Rd,,,,opp,,SE,ES000295,Barrhead,,,BARRHEAD,,,,0,,249255,658449,,,BCT,MKD,OTH,,,,123,2003-08-27T00:00:00,2023-12-12T15:02:54,0,,inactive
6120422,37395962,,,Lochlibo Terrace,,,,Dalmeny Park Hotel,,Lochlibo Rd,,,,before,,NW,ES000295,Barrhead,,,BARRHEAD,,,,0,,249266,658427,,,BCT,MKD,OTH,,,,123,2003-08-27T00:00:00,2023-12-12T15:02:54,0,,inactive
6120423,37396259,,,Braeside Crescent,,,,Braeside Crescent,,Firbank Terrace,,,,before,,NW,N0072848,Auchenback,Barrhead,,BARRHEAD,,,,0,,251176,658168,,,BCT,MKD,OTH,,,,123,2003-08-27T00:00:00,2023-12-12T15:02:54,0,,active
6120424,37395989,,,Deaconsgait Way,,,,Deaconsgait Way,,Stewarton Road,,,,before,,NE,N0078820,Deaconsbank,,,THORNLIEBANK,,,,0,,253915,658112,,,BCT,MKD,OTH,,,,123,2003-08-27T00:00:00,2023-12-12T15:02:54,0,,active
6120425,37396257,,,Deaconsgait Way,,,,Deaconsgait Way,,Stewarton Road,,,,opp,,SW,N0078820,Deaconsbank,,,THORNLIEBANK,,,,0,,253974,658167,,,BCT,MKD,OTH,,,,123,2003-08-27T00:00:00,2023-12-12T15:02:54,0,,active
6120426,37395954,,,Invergarry Drive,,,,Invergarry Drive,,Stewarton Road,,,,after,,NE,N0078820,Deaconsbank,,,THORNLIEBANK,,,,0,,254315,658586,,,BCT,MKD,OTH,,,,123,2003-08-27T00:00:00,2023-12-12T15:02:54,0,,active
6120427,37395973,,,Invergarry Drive,,,,Invergarry Drive,,Stewarton Road,,,,opp,,SW,N0078820,Deaconsbank,,,THORNLIEBANK,,,,0,,254307,658559,,,BCT,MKD,OTH,,,,123,2003-08-27T00:00:00,2023-12-12T15:02:54,0,,active
6120428,37396273,,,Lomond Drive,,,,Lomond Drive,,Capelrig Road,,,,before,,N,ES000886,Crookfur,Newton Mearns,,CROOKFUR,,,,0,,253973,657250,,,BCT,MKD,OTH,,,,123,2003-08-27T00:00:00,2023-12-12T15:02:54,0,,active
6120429,37396249,,,Eastwood High School,,,,Eastwood High School,,Capelrig Road,,,,at,,SE,ES000886,Crookfur,Newton Mearns,,CROOKFUR,,,,0,,254032,657212,,,BCT,MKD,OTH,,,,123,2003-08-27T00:00:00,2023-12-12T15:02:54,0,,active
612043,37323963,,,Glasgow Road,,,,Glasgow Road,,Hurlet Road,,,,at,,NW,ES000295,Barrhead,,,BARRHEAD,,,,0,,251451,660938,,,BCT,MKD,OTH,,,,123,2003-08-27T00:00:00,2023-12-12T15:02:54,0,,inactive
6120430,37396264,,,Braidholm Road,,,,Braidholm Road,,Merrylee Park Avenue,,,,before,,SE,N0068152,Merrylee,,,MERRYLEE,,,,0,,256658,659635,,,BCT,MKD,OTH,,,,123,2003-08-27T00:00:00,2023-12-12T15:02:54,0,,inactive
6120431,37396278,,,Braidholm Road,,,,Braidholm Road,,Merrylee Park Avenue,,,,after,,NW,N0068152,Merrylee,,,MERRYLEE,,,,0,,256678,659606,,,BCT,MKD,OTH,,,,123,2003-08-27T00:00:00,2023-12-12T15:02:54,0,,inactive
6120432,37396287,,,Merrycrest Avenue,,,,Greens Gym,,Braidholm Road,,,,opp,,W,N0068152,Merrylee,,,GIFFNOCK,,,,0,,257009,659604,,,BCT,MKD,OTH,,,,123,2003-08-27T00:00:00,2023-12-12T15:02:54,0,,inactive
6120433,37396327,,,Merrycrest Avenue,,,,Merryton Avenue,,Braidholm Road,,,,before,,E,N0068152,Merrylee,,,GIFFNOCK,,,,0,,256969,659609,,,BCT,CUS,OTH,,,,123,2003-08-27T00:00:00,2023-12-12T15:02:54,0,,inactive
6120434,37395936,,,Giffnock Park Avenue,,,,Giffnock Park Avenue,,Merrylee Park Avenue,,,,after,,E,N0068152,Merrylee,,,GIFFNOCK,,,,0,,256459,659706,,,BCT,MKD,OTH,,,,123,2003-08-27T00:00:00,2023-12-12T15:02:54,0,,inactive
6120435,37395878,,,Giffnock Park Avenue,,,,Giffnock Park Avenue,,Merrylee Park Avenue,,,,before,,W,N0068152,Merrylee,,,GIFFNOCK,,,,0,,256458,659690,,,BCT,CUS,OTH,,,,123,2003-08-27T00:00:00,2023-12-12T15:02:54,0,,inactive
6120436,37395879,,,Divernia Way,,,,No.27,,Newton Avenue,,,,opp,,E,N0072848,Auchenback,Barrhead,,BARRHEAD,,,,0,,250499,658024,,,BCT,MKD,OTH,,,,123,2003-08-27T00:00:00,2023-12-12T15:02:54,0,,active
6120437,37395895,,,Drumby Crescent,,,,Drumby Crescent,,Eastwoodmains Road,,,,after,,SE,ES000726,Clarkston,,,CLARKSTON,,,,0,,256821,657931,,,BCT,MKD,OTH,,,,123,2003-08-27T00:00:00,2023-12-12T15:02:54,0,,active
6120438,37395896,,,Blackhouse Road,,,,Blackhouse Road,,Mearns Road,,,,before,,SW,ES000470,Broom,Newton Mearns,,NEWTON MEARNS,,,,0,,254784,655774,,,BCT,MKD,OTH,,,,123,2003-08-27T00:00:00,2023-12-12T15:02:54,0,,active
6120439,37395893,,,Blackhouse Road,,,,Firwood Road,,Mearns Road,,,,opp,,NE,ES000470,Broom,Newton Mearns,,NEWTON MEARNS,,,,0,,254746,655740,,,BCT,MKD,OTH,,,,123,2003-08-27T00:00:00,2023-12-12T15:02:54,0,,active
612044,37323235,,,Hurlet,,,,Barrhead Road,,Nitshill Road,,,,before,,NW,N0068177,Nitshill,Glasgow,,BARRHEAD,,,,0,,251687,660848,,,BCT,MKD,OTH,,,,123,2003-08-27T00:00:00,2023-12-12T15:02:54,0,,active
6120440,37324256,,,Arthurlie Gardens,,,,Arthurlie Gardens,,Arthurlie Street,,,,before,,SE,ES000295,Barrhead,,,BARRHEAD,,,,0,,250398,658849,,,BCT,MKD,OTH,,,,123,2003-08-27T00:00:00,2023-12-12T15:02:54,0,,active
6120441,37324257,,,Moorhouse Street,,,,Moorhouse Street,,Arthurlie Street,,,,after,,NW,ES000295,Barrhead,,,BARRHEAD,,,,0,,250386,658848,,,BCT,MKD,OTH,,,,123,2003-08-27T00:00:00,2023-12-12T15:02:54,0,,active
6120442,37324258,,,Campbell Drive,,,,Campbell Drive,,Arthurlie Street,,,,before,,NW,ES000295,Barrhead,,,BARRHEAD,,,,0,,250534,658598,,,BCT,MKD,OTH,,,,123,2003-08-27T00:00:00,2023-12-12T15:02:54,0,,active
6120443,37324259,,,Campbell Drive,,,,Campbell Drive,,Arthurlie Street,,,,opp & after,,SE,ES000295,Barrhead,,,BARRHEAD,,,,0,,250546,658597,,,BCT,MKD,OTH,,,,123,2003-08-27T00:00:00,2023-12-12T15:02:54,0,,active
6120444,37324262,,,Aurs Drive,,,,Aurs Drive,,Arthurlie Street,,,,after,,NW,N0072848,Auchenback,Barrhead,,BARRHEAD,,,,0,,250633,658467,,,BCT,MKD,OTH,,,,123,2003-08-27T00:00:00,2023-12-12T15:02:54,0,,active
6120445,37324263,,,Aurs Drive,,,,Aurs Drive,,Arthurlie Street,,,,before,,NE,N0072848,Auchenback,Barrhead,,BARRHEAD,,,,0,,250645,658467,,,BCT,MKD,OTH,,,,123,2003-08-27T00:00:00,2023-12-12T15:02:54,0,,active
6120446,37324246,,,Balgray Road,,,,Carswell Road,,Barrhead Road,,,,after,,SE,ES002826,Newton Mearns,,,NEWTON MEARNS,,,,0,,252578,656265,,,BCT,MKD,OTH,,,,123,2003-08-27T00:00:00,2023-12-12T15:02:54,0,,active
6120447,37324247,,,Balgray Road,,,,Carswell Road,,Barrhead Road,,,,opp,,W,ES002826,Newton Mearns,,,NEWTON MEARNS,,,,0,,252521,656260,,,BCT,MKD,OTH,,,,123,2003-08-27T00:00:00,2023-12-12T15:02:54,0,,active
6120448,37324248,,,Jura Drive,,,,Jura Drive,,Stewarton Road,,,,at,,SW,ES002826,Newton Mearns,,,NEWTON MEARNS,,,,0,,252654,656697,,,BCT,MKD,OTH,,,,123,2003-08-27T00:00:00,2023-12-12T15:02:54,0,,active
6120449,37324249,,,Jura Drive,,,,Jura Drive,,Stewarton Road,,,,opp,,NE,ES002826,Newton Mearns,,,NEWTON MEARNS,,,,0,,252674,656716,,,BCT,MKD,OTH,,,,123,2003-08-27T00:00:00,2023-12-12T15:02:54,0,,active
612045,37323972,,,Cowan Park,,,,Dovecothall Rbt,,Darnley Road,,,,opp,,NE,ES000295,Barrhead,,,BARRHEAD,,,,0,,250866,659329,,,BCT,MKD,OTH,,,,123,2003-08-27T00:00:00,2023-12-12T15:02:54,0,,active
6120450,37324252,,,Crookfur Roundabout,,,,Tesco,,Stewarton Street,,,,before,,NE,ES002826,Newton Mearns,,,NEWTON MEARNS,,,,0,,252929,656842,,,BCT,MKD,OTH,,,,123,2003-08-27T00:00:00,2023-12-12T15:02:54,0,,active
6120451,37324253,,,Tesco,,,,Crookfur Road,,Stewarton Road,,,,at,,SW,ES002826,Newton Mearns,,,NEWTON MEARNS,,,,0,,252909,656818,,,BCT,MKD,OTH,,,,123,2003-08-27T00:00:00,2023-12-12T15:02:54,0,,active
6120452,37324296,,,Tesco,,,,Tesco,,Kelburn Street,,,,at,,SE,ES000295,Barrhead,,,BARRHEAD,,,,0,,249606,658624,,,BCT,MKD,OTH,,,,123,2003-08-27T00:00:00,2023-12-12T15:02:54,0,,active
6120453,37324283,,,Broomstone Avenue,,,,Broomstone Avenue,,Castlehill Drive,,,,before,,NW,ES002183,Kirkhill,Newton Mearns,,NEWTON MEARNS,,,,0,,254923,655441,,,BCT,HAR,OTH,,,,123,2003-08-27T00:00:00,2023-12-12T15:02:54,0,,active
6120454,37324284,,,Broomstone Avenue,,,,Broomstone Avenue,,Castlehill Drive,,,,opp,,SE,ES002826,Newton Mearns,,,NEWTON MEARNS,,,,0,,254931,655443,,,BCT,HAR,OTH,,,,123,2003-08-27T00:00:00,2023-12-12T15:02:54,0,,active
6120455,37324285,,,Castlehill Drive,,,,No 65,,Castlehill Drive,,,,at 65,,NE,ES002826,Newton Mearns,,,NEWTON MEARNS,,,,0,,255082,655301,,,BCT,HAR,OTH,,,,123,2003-08-27T00:00:00,2023-12-12T15:02:54,0,,active
6120456,37324286,,,Castlehill Road,,,,No 65,,Castlehill Road,,,,opp 65,,NW,ES002826,Newton Mearns,,,NEWTON MEARNS,,,,0,,255088,655294,,,BCT,HAR,OTH,,,,123,2003-08-27T00:00:00,2023-12-12T15:02:54,0,,active
6120457,37324287,,,Blackhouse Avenue,,,,Blackhouse Avenue,,Broomburn Drive,,,,opp,,SE,ES002183,Kirkhill,Newton Mearns,,NEWTON MEARNS,,,,0,,255072,655670,,,BCT,HAR,OTH,,,,123,2003-08-27T00:00:00,2023-12-12T15:02:54,0,,active
6120458,37324289,,,Blackhouse Avenue,,,,Blackhouse Avenue,,Broomburn Drive,,,,before,,NW,ES002183,Kirkhill,Newton Mearns,,NEWTON MEARNS,,,,0,,255064,655664,,,BCT,HAR,OTH,,,,123,2003-08-27T00:00:00,2023-12-12T15:02:54,0,,active
6120459,37324546,,,Rail Station,,,,Rail Station,,Carlibar Road,,,,at,,E,ES000295,Barrhead,,,BARRHEAD,,,,0,,249849,659323,,,BCT,MKD,OTH,,,,123,2003-08-27T00:00:00,2023-12-12T15:02:54,0,,inactive
612046,37323547,,,Cowan Park,,,,Dovecothall Rbt,,Darnley Road,,,,after,,SW,ES000295,Barrhead,,,BARRHEAD,,,,0,,250858,659316,,,BCT,MKD,OTH,,,,123,2003-08-27T00:00:00,2023-12-12T15:02:54,0,,active
6120460,37324523,,,Caplerig Drive,,,,Stewarton Road,,Capelrig Road,,,,before,,N,ES000886,Crookfur,Newton Mearns,,CROOKFUR,,,,0,,253778,657831,,,BCT,MKD,OTH,,,,123,2003-08-27T00:00:00,2023-12-12T15:02:54,0,,active
6120462,37324524,,,Kingston Road,,,,Kingston Road,,Glen Shee Avenue,,,,before,,SE,ES002751,Neilston,,,NEILSTON,,,,0,,247549,656559,,,BCT,MKD,OTH,,,,123,2003-08-27T00:00:00,2023-12-12T15:02:54,0,,active
6120463,37324525,,,Glen Isla Avenue,,,,,,Glen Shee Avenue,,,,opposite,,NE,ES002751,Neilston,,,NEILSTON,,,,0,,247419,656447,,,BCT,MKD,OTH,,,,123,2003-08-27T00:00:00,2023-12-12T15:02:54,0,,active
6120464,37324526,,,Glen Creran Crescent,,,,Glen Creran Crescent,,Glen Shee Avenue,,,,before,,SE,ES002751,Neilston,,,NEILSTON,,,,0,,247296,656651,,,BCT,MKD,OTH,,,,123,2003-08-27T00:00:00,2023-12-12T15:02:54,0,,active
6120465,37324527,,,Glennorrin Way,,,,Glennorrin Way,,Glen Shee Avenue,,,,before,,E,ES002751,Neilston,,,NEILSTON,,,,0,,247125,656682,,,BCT,MKD,OTH,,,,123,2003-08-27T00:00:00,2023-12-12T15:02:54,0,,active
6120466,37324528,,,Glen Shee Avenue,,,,Glen Shee Avenue,,Glen Doll Road,,,,before,,S,ES002751,Neilston,,,NEILSTON,,,,0,,247028,656717,,,BCT,MKD,OTH,,,,123,2003-08-27T00:00:00,2023-12-12T15:02:54,0,,active
6120467,37324537,,,Kingston Avenue,,,,Kingston Avenue,,Kingston Road,,,,before,,NE,ES002751,Neilston,,,NEILSTON,,,,0,,247736,656586,,,BCT,MKD,OTH,,,,123,2003-08-27T00:00:00,2023-12-12T15:02:54,0,,active
6120468,37324398,,,Lochiel Road,,,,No.5,,Eastwood Crescent,,,,before,,N,ES003639,Thornliebank,,,THORNLIEBANK,,,,0,,254892,659587,,,BCT,MKD,OTH,,,,123,2003-08-27T00:00:00,2023-12-12T15:02:54,0,,active
6120469,37324529,,,Summerlea Road,,,,Summerlea Road,,Kennishead Road,,,,opp,,SE,ES003639,Thornliebank,,,THORNLIEBANK,,,,0,,254799,659581,,,BCT,MKD,OTH,,,,123,2003-08-27T00:00:00,2023-12-12T15:02:54,0,,active
612047,37323974,,,Rankin Way,,,,War Memorial,,Darnley Road,,,,after,,NE,ES000295,Barrhead,,,BARRHEAD,,,,0,,251088,659403,,,BCT,MKD,OTH,,,,123,2003-08-27T00:00:00,2023-12-12T15:02:54,0,,active
6120470,37324542,,,Glen Doll Road,,,,Glen Doll Road,,Uplawmoor Road,,,,at,,W,ES002751,Neilston,,,NEILSTON,,,,0,,247038,656736,,,BCT,MKD,OTH,,,,123,2003-08-27T00:00:00,2023-12-12T15:02:54,0,,active
6120471,37324567,,,Springfield Grove,,,,Sprinfield Grove,,Springfield Road,,,,before,,NE,N0072848,Auchenback,Barrhead,,BARRHEAD,,,,0,,250613,657736,,,BCT,CUS,OTH,,,,123,2003-08-27T00:00:00,2023-12-12T15:02:54,0,,inactive
6120472,37324928,,,Birchwood Road,,,,Birchwood Road,,Neilston Road,,,,before,,NE,ES003749,Uplawmoor,,,UPLAWMOOR,,,,0,,243845,655441,,,BCT,MKD,OTH,,,,123,2003-08-27T00:00:00,2023-12-12T15:02:54,0,,active
6120473,37324959,,,Birchwood Road,,,,Birchwood Road,,Neilston Road,,,,opp,,SW,ES003749,Uplawmoor,,,UPLAWMOOR,,,,0,,243863,655440,,,BCT,MKD,OTH,,,,123,2003-08-27T00:00:00,2023-12-12T15:02:54,0,,inactive
6120474,37325287,,,Deaconsbank Avenue,,,,Deaconsbank Avenue,,Stewarton Road,,,,after,,NE,ES003639,Thornliebank,,,THORNLIEBANK,,,,0,,254094,658323,,,BCT,MKD,OTH,,,,123,2003-08-27T00:00:00,2023-12-12T15:02:54,0,,active
6120475,37352626,,,Stewarton Road,,,,Stewarton Road,,Capelrig Road,,,,after,,SE,ES000886,Crookfur,Newton Mearns,,CROOKFUR,,,,0,,253787,657836,,,BCT,MKD,OTH,,,,123,2003-08-27T00:00:00,2023-12-12T15:02:54,0,,active
6120476,37373259,,,Strathaven Road,,,,Strathaven Road,,Cheapside Street,,,,before,,SW,ES001208,Eaglesham,,,EAGLESHAM,,,,0,,257510,652008,,,BCT,MKD,OTH,,,,123,2003-08-27T00:00:00,2023-12-12T15:02:54,0,,active
6120477,37396585,,,Nether Kirkton Avenue,,,,Nether Kirkton Avenue,,Neilston Road,,,,opp,,NE,ES002751,Neilston,,,NEILSTON,,,,0,,248376,657633,,,BCT,MKD,OTH,,,,123,2003-08-27T00:00:00,2023-12-12T15:02:54,0,,active
6120478,37378592,,,Donnies Brae,,,,Donnies Brae,,Lochlibo Road,,,,before,,SW,ES002751,Neilston,,,NEILSTON,,,,0,,248821,658066,,,BCT,MKD,OTH,,,,123,2003-08-27T00:00:00,2023-12-12T15:02:54,0,,inactive
6120479,37359629,,,The Red House,,,,The Red House,,A77,,,,at,,NE,ES002826,Newton Mearns,,,NEWTON MEARNS,,,,0,,251529,652438,,,BCT,CUS,OTH,,,,123,2003-08-27T00:00:00,2023-12-12T15:02:54,0,,active
612048,37323968,,,Rankin Way,,,,Dubs Road,,Darnley Road,,,,opp,,SW,ES000295,Barrhead,,,BARRHEAD,,,,0,,251071,659386,,,BCT,MKD,OTH,,,,123,2003-08-27T00:00:00,2023-12-12T15:02:54,0,,active
6120480,37342792,,,Mearns Road,,,,Mearns Road,,A77,,,,after,,SW,ES002826,Newton Mearns,,,NEWTON MEARNS,,,,0,,251537,652427,,,BCT,CUS,OTH,,,,123,2003-08-27T00:00:00,2023-12-12T15:02:54,0,,active
6120481,37357987,,,Braefoot Lane,,,,Braefoot Lane,,Neilston Road,,,,before,,E,ES003749,Uplawmoor,,,UPLAWMOOR,,,,0,,243125,655167,,,BCT,MKD,OTH,,,,123,2003-08-27T00:00:00,2023-12-12T15:02:54,0,,active
6120482,37379474,,,Shilford,,,,Shilford,,Lochlibo Link Road,,,,at,,NW,ES003749,Uplawmoor,,,UPLAWMOOR,,,,0,,244837,656210,,,BCT,MKD,OTH,,,,123,2003-08-27T00:00:00,2023-12-12T15:02:54,0,,active
6120483,37384656,,,Car Park,,,,Car Park,,Patterton Station,,,,at,,SW,ES002826,Newton Mearns,,,NEWTON MEARNS,,,,0,,253685,657852,,,BCT,MKD,OTH,,,,123,2003-08-27T00:00:00,2023-12-12T15:02:54,0,,inactive
6120484,37325495,,,Leslie Avenue,,,,Leslie Avenue,,Capelrig Road,,,,after,,S,ES000886,Crookfur,Newton Mearns,,CROOKFUR,,,,0,,254119,657040,,,BCT,MKD,OTH,,,,123,2003-08-27T00:00:00,2023-12-12T15:02:54,0,,active
6120485,37379298,,,Harvie Avenue,,,,Harvie Avenue,,Capelrig Road,,,,before,,N,ES000886,Crookfur,Newton Mearns,,CROOKFUR,,,,0,,254106,657054,,,BCT,MKD,OTH,,,,123,2003-08-27T00:00:00,2023-12-12T15:02:54,0,,active
6120486,37348969,,,Broom Road East,,,,Broom Road East,,Waterfoot Road,,,,after,,E,ES002826,Newton Mearns,,,NEWTON MEARNS,,,,0,,255535,655302,,,BCT,MKD,OTH,,,,123,2003-08-27T00:00:00,2023-12-12T15:02:54,0,,active
6120487,37398326,,,Broom Road East,,,,Broom Road east,,Waterfoot Road,,,,before,,E,ES002826,Newton Mearns,,,NEWTON MEARNS,,,,0,,255528,655295,,,BCT,MKD,OTH,,,,123,2003-08-27T00:00:00,2023-12-12T15:02:54,0,,active
6120488,37398264,,,Foxglove Road,,,,Foxglove Road,,Capelrig Road,,,,before,,N,ES000886,Crookfur,Newton Mearns,,NEWTON MEARNS,,,,0,,253936,657608,,,BCT,MKD,OTH,,,,123,2003-08-27T00:00:00,2023-12-12T15:02:54,0,,active
6120489,37345278,,,Barcapel Avenue,,,,Barcapel Avenue,,Capelrig Road,,,,before,,S,ES000886,Crookfur,Newton Mearns,,CROOKFUR,,,,0,,253956,657623,,,BCT,MKD,OTH,,,,123,2003-08-27T00:00:00,2023-12-12T15:02:54,0,,active
612049,37323295,,,Manse Court,,,,St Johns church,,Aurs Road,,,,opp,,S,ES000295,Barrhead,,,BARRHEAD,,,,0,,250768,659200,,,BCT,MKD,OTH,,,,123,2003-08-27T00:00:00,2023-12-12T15:02:54,0,,active
6120490,37345327,,,Boydstone Road,,,,Boydstone Road,,Thornliebank Road,,,,before,,NE,ES003639,Thornliebank,,,THORNLIEBANK,,,,0,,255164,659931,,,BCT,MKD,OTH,,,,123,2003-08-27T00:00:00,2023-12-12T15:02:54,0,,active
6120491,37325754,,,Woodlands Park,,,,Woodlands Park,,Woodlands Road,,,,before,,E,ES003639,Thornliebank,,,THORNLIEBANK,,,,0,,254854,658938,,,BCT,MKD,OTH,,,,123,2003-08-27T00:00:00,2023-12-12T15:02:54,0,,active
6120492,37358498,,,Glenwood Drive,,,,Glenwood Drive,,Woodlands Road,,,,before,,W,ES003639,Thornliebank,,,THORNLIEBANK,,,,0,,254850,658925,,,BCT,CUS,OTH,,,,123,2003-08-27T00:00:00,2023-12-12T15:02:54,0,,active
6120493,37389656,,,Arthurlie Street,,,,Tesco,,Kelburn Street,,,,before,,NE,ES000295,Barrhead,,,BARRHEAD,,,,0,,249696,658649,,,BCT,MKD,OTH,,,,123,2003-08-27T00:00:00,2023-12-12T15:02:54,0,,active
6120496,37324238,,,Ayr Road,,,,,,Davieland Road,,,,after,,NE,N0068241,Whitecraigs,Newton Mearns,,WHITECRAIGS,,,,0,,255292,657724,,,BCT,MKD,OTH,,,,123,2003-08-27T00:00:00,2023-12-12T15:02:54,0,,active
6120497,37324239,,,Patterton Railway Station,,,,Patterton Railway Station,,Turning Circle,,,,at,,W,ES002826,Newton Mearns,,,NEWTON MEARNS,,,,0,,253627,657722,,,BCT,MKD,OTH,,,,123,2003-08-27T00:00:00,2023-12-12T15:02:54,0,,active
6120498,37324242,,,Witchwood Grove,,,,Witchwood Grove,,Stewarton Road,,,,before,,NE,ES002826,Newton Mearns,,,NEWTON MEARNS,,,,0,,253311,657421,,,BCT,MKD,OTH,,,,123,2003-08-27T00:00:00,2023-12-12T15:02:54,0,,active
6120499,37324243,,,Witchwood Grove,,,,,,Stewarton Road,,,,opposite,,SW,ES002826,Newton Mearns,,,NEWTON MEARNS,,,,0,,253317,657417,,,BCT,MKD,OTH,,,,123,2003-08-27T00:00:00,2023-12-12T15:02:54,0,,active
61205,37323576,,,Grahamston Road,,,,Grahamston Road,,Paisley Road,,,,after,,S,ES000295,Barrhead,,,BARRHEAD,,,,1,,249674,660104,,,BCT,MKD,OTH,,,,123,2003-08-27T00:00:00,2023-12-12T15:02:54,0,,active
612050,37323526,,,Manse Court,,,,St Johns Church,,Aurs Road,,,,after,,N,ES000295,Barrhead,,,BARRHEAD,,,,0,,250755,659183,,,BCT,MKD,OTH,,,,123,2003-08-27T00:00:00,2023-12-12T15:02:54,0,,active
6120500,37324254,,,Albertslund Hall,,,,Albertslund Hall,,Westacres Road,,,,at,,S,ES002826,Newton Mearns,,,NEWTON MEARNS,,,,0,,252496,656002,,,BCT,MKD,OTH,,,,123,2003-08-27T00:00:00,2023-12-12T15:02:54,0,,active
6120501,37324264,,,Albertslund Hall,,,,Albertslund Hall,,Westacres Road,,,,opposite,,N,ES002826,Newton Mearns,,,NEWTON MEARNS,,,,1,,252488,656003,,,BCT,MKD,OTH,,,,123,2003-08-27T00:00:00,2023-12-12T15:02:54,0,,active
6120502,37324265,,,Westerlands Drive,,,,,,Westacres Road,,,,opposite,,N,ES002826,Newton Mearns,,,NEWTON MEARNS,,,,0,,252752,655938,,,BCT,MKD,OTH,,,,123,2003-08-27T00:00:00,2023-12-12T15:02:54,0,,active
6120503,37324267,,,Westerlands Drive,,,,,,Westacres Road,,,,after,,S,ES002826,Newton Mearns,,,NEWTON MEARNS,,,,0,,252759,655936,,,BCT,MKD,OTH,,,,123,2003-08-27T00:00:00,2023-12-12T15:02:54,0,,active
6120504,37324268,,,Staffin Way,,,,,,Maindenhill Grove,,,,before,,N,ES002826,Newton Mearns,,,NEWTON MEARNS,,,,0,,252684,654418,,,BCT,MKD,OTH,,,,123,2003-08-27T00:00:00,2023-12-12T15:02:54,0,,active
6120505,37324269,,,Dervaig Wynd,,,,,,Maidenhill Grove,,,,after,,SE,ES002826,Newton Mearns,,,NEWTON MEARNS,,,,0,,253075,654637,,,BCT,MKD,OTH,,,,123,2003-08-27T00:00:00,2023-12-12T15:02:54,0,,active
6120507,37324274,,,Orchid Way,,,,,,Grahamston Road,,,,at,,SW,ES000295,Barrhead,,,BARRHEAD,,,,0,,249955,660463,,,BCT,MKD,OTH,,,,123,2003-08-27T00:00:00,2023-12-12T15:02:54,0,,active
612051,37323953,,,High School,,,,Aursbridge Drive,,Aurs Road,,,,opp,,NW,ES000295,Barrhead,,,BARRHEAD,,,,0,,250794,659037,,,BCT,MKD,OTH,,,,123,2003-08-27T00:00:00,2023-12-12T15:02:54,0,,active
612052,37323973,,,High School,,,,Aursbridge Drive,,Aurs Road,,,,at,,SE,ES000295,Barrhead,,,BARRHEAD,,,,0,,250937,658873,,,BCT,MKD,OTH,,,,123,2003-08-27T00:00:00,2023-12-12T15:02:54,0,,active
612053,37323768,,,Aurs Place,,,,Aurs Place,,Aurs Road,,,,opp,,NW,N0072848,Auchenback,Barrhead,,BARRHEAD,,,,0,,250960,658824,,,BCT,MKD,OTH,,,,123,2003-08-27T00:00:00,2023-12-12T15:02:54,0,,active
612054,37323624,,,Aurs Place,,,,Aurs Place,,Aurs Road,,,,before,,SE,N0072848,Auchenback,Barrhead,,BARRHEAD,,,,0,,250976,658822,,,BCT,MKD,OTH,,,,123,2003-08-27T00:00:00,2023-12-12T15:02:54,0,,inactive
612055,37323272,,,Aurs Crescent,,,,Aurs Road,,Aurs Drive,,,,after,,NE,N0072848,Auchenback,Barrhead,,BARRHEAD,,,,0,,251008,658715,,,BCT,MKD,OTH,,,,123,2003-08-27T00:00:00,2023-12-12T15:02:54,0,,active
612056,37323595,,,Aurs Crescent,,,,Aurs Road,,Aurs Drive,,,,opp,,SW,N0072848,Auchenback,Barrhead,,BARRHEAD,,,,0,,251007,658702,,,BCT,MKD,OTH,,,,123,2003-08-27T00:00:00,2023-12-12T15:02:54,0,,active
612057,37323673,,,Aurs Crescent,,,,Aurs Crescent,,Aurs Drive,,,,before,,NE,N0072848,Auchenback,Barrhead,,BARRHEAD,,,,0,,250854,658593,,,BCT,MKD,OTH,,,,123,2003-08-27T00:00:00,2023-12-12T15:02:54,0,,active
612058,37323292,,,Patterton Drive,,,,Patterton Drive,,Aurs Drive,,,,before,,SW,N0072848,Auchenback,Barrhead,,BARRHEAD,,,,0,,250818,658553,,,BCT,MKD,OTH,,,,123,2003-08-27T00:00:00,2023-12-12T15:02:54,0,,active
612059,37323546,,,Kelvin Drive,,,,Arthurlie Street,,Aurs Drive,,,,before,,SW,N0072848,Auchenback,Barrhead,,BARRHEAD,,,,0,,250652,658421,,,BCT,MKD,OTH,,,,123,2003-08-27T00:00:00,2023-12-12T15:02:54,0,,active
6120594,37324632,,,Woodlands Road,,,,Woodlands Road,,Rowallan Road,,,,before,,NE,N0078823,Woodfarm,,,THORNLIEBANK,,,,0,,254979,658848,,,BCT,MKD,OTH,,,,123,2003-08-27T00:00:00,2023-12-12T15:02:54,0,,active
6120595,37324728,,,Glenpark Avenue,,,,Glenpark Avenue,,Rowallan Road,,,,after,,SW,N0078823,Woodfarm,,,THORNLIEBANK,,,,0,,254941,658733,,,BCT,MKD,OTH,,,,123,2003-08-27T00:00:00,2023-12-12T15:02:54,0,,active
61206,37323592,,,Burnside Avenue,,,,Burnside Avenue,,Paisley Road,,,,opp,,N,ES000295,Barrhead,,,BARRHEAD,,,,1,,249700,659870,,,BCT,MKD,OTH,,,,123,2003-08-27T00:00:00,2023-12-12T15:02:54,0,,inactive
612060,37323424,,,Aurs Drive,,,,No 79,,Aurs Drive,,,,opp 79,,NE,N0072848,Auchenback,Barrhead,,BARRHEAD,,,,0,,250570,658367,,,BCT,MKD,OTH,,,,123,2003-08-27T00:00:00,2023-12-12T15:02:54,0,,inactive
612061,37323259,,,Clyde Avenue,,,,Clyde Avenue,,Aurs Drive,,,,after,,SW,N0072848,Auchenback,Barrhead,,BARRHEAD,,,,0,,250510,658309,,,BCT,MKD,OTH,,,,123,2003-08-27T00:00:00,2023-12-12T15:02:54,0,,active
612062,37323694,,,St Marks Primary School,,,,Fenwick Drive,,Roebank Drive,,,,opp,,SW,N0072848,Auchenback,Barrhead,,BARRHEAD,,,,0,,250421,658144,,,BCT,MKD,OTH,,,,123,2003-08-27T00:00:00,2023-12-12T15:02:54,0,,active
612063,37323659,,,Hawthorn Drive,,,,Hawthorn Drive,,Newton Avenue,,,,opp,,E,N0072848,Auchenback,Barrhead,,BARRHEAD,,,,0,,250689,658010,,,BCT,MKD,OTH,,,,123,2003-08-27T00:00:00,2023-12-12T15:02:54,0,,active
612064,37323684,,,Larchwood Terrace,,,,Larchwood Terrace,,Newton Avenue,,,,opp,,NE,N0072848,Auchenback,Barrhead,,BARRHEAD,,,,0,,250936,658019,,,BCT,MKD,OTH,,,,123,2003-08-27T00:00:00,2023-12-12T15:02:54,0,,active
612065,37323826,,,Oakbank Drive,,,,No 135,,Newton Avenue,,,,before,,SE,N0072848,Auchenback,Barrhead,,BARRHEAD,,,,0,,251048,658068,,,BCT,MKD,OTH,,,,123,2003-08-27T00:00:00,2023-12-12T15:02:54,0,,active
612066,37323463,,,Fenwick Drive,,,,Fenwick Drive,,Oakbank Drive,,,,before,,NE,N0072848,Auchenback,Barrhead,,BARRHEAD,,,,0,,251180,658012,,,BCT,MKD,OTH,,,,123,2003-08-27T00:00:00,2023-12-12T15:02:54,0,,active
612067,37323984,,,Springfield Drive,,,,Springfield Drive,,Firbank Terrace,,,,after,,NW,N0072848,Auchenback,Barrhead,,BARRHEAD,,,,0,,251250,658093,,,BCT,MKD,OTH,,,,123,2003-08-27T00:00:00,2023-12-12T15:02:54,0,,inactive
612068,37323569,,,Firbank Terrace,,,,Firbank Terrace,,Braeside Crescent,,,,after,,NW,N0072848,Auchenback,Barrhead,,BARRHEAD,,,,0,,251120,658182,,,BCT,MKD,OTH,,,,123,2003-08-27T00:00:00,2023-12-12T15:02:54,0,,inactive
612069,37323835,,,Fingleton Avenue,,,,Fingleton Avenue,,Patterton Drive,,,,before,,NW,N0072848,Auchenback,Barrhead,,BARRHEAD,,,,0,,251003,658256,,,BCT,MKD,OTH,,,,123,2003-08-27T00:00:00,2023-12-12T15:02:54,0,,active
61207,37323493,,,Burnside Avenue,,,,Burnside Avenue,,Paisley Road,,,,After,,S,ES000295,Barrhead,,,BARRHEAD,,,,1,,249715,659860,,,BCT,MKD,OTH,,,,123,2003-08-27T00:00:00,2023-12-12T15:02:54,0,,active
612070,37323639,,,Harelaw Avenue,,,,Harelaw Avenue,,Patterton Drive,,,,after,,NW,N0072848,Auchenback,Barrhead,,BARRHEAD,,,,0,,250823,658482,,,BCT,MKD,OTH,,,,123,2003-08-27T00:00:00,2023-12-12T15:02:54,0,,active
612074,37323853,,,Kirkton Bridge,,,,Kirkton Bridge,,Kelburn Street,,,,after,,SW,ES000295,Barrhead,,,BARRHEAD,,,,0,,249729,658677,,,BCT,MKD,OTH,,,,123,2003-08-27T00:00:00,2023-12-12T15:02:54,0,,active
612075,37323573,,,Kirkton Avenue,,,,Kirkton Avenue,,Kelburn Street,,,,after,,SW,ES000295,Barrhead,,,BARRHEAD,,,,0,,249618,658536,,,BCT,MKD,OTH,,,,123,2003-08-27T00:00:00,2023-12-12T15:02:54,0,,active
612076,37323582,,,Gertrude Place,,,,Gertrude Place,,Kelburn Street,,,,after,,NE,ES000295,Barrhead,,,BARRHEAD,,,,0,,249552,658505,,,BCT,MKD,OTH,,,,123,2003-08-27T00:00:00,2023-12-12T15:02:54,0,,active
612077,37323289,,,Kelburn Street,,,,Lochlibo Road,,Neilston Road,,,,after,,S,ES000295,Barrhead,,,BARRHEAD,,,,0,,249407,658349,,,BCT,MKD,OTH,,,,123,2003-08-27T00:00:00,2023-12-12T15:02:54,0,,active
612078,37323837,,,Kelburn Street,,,,Lochlibo Road,,Neilston Road,,,,before,,N,ES000295,Barrhead,,,BARRHEAD,,,,0,,249401,658362,,,BCT,MKD,OTH,,,,123,2003-08-27T00:00:00,2023-12-12T15:02:54,0,,active
612079,37323638,,,Neilston Cemetery,,,,cemetery,,Neilston Road,,,,after,,NE,ES000295,Barrhead,,,BARRHEAD,,,,0,,249288,658194,,,BCT,MKD,OTH,,,,123,2003-08-27T00:00:00,2023-12-12T15:02:54,0,,active
61208,37323529,,,Dealston Road,,,,Dealston Road,,Paisley Road,,,,opp,,N,ES000295,Barrhead,,,BARRHEAD,,,,1,,249718,659759,,,BCT,MKD,OTH,,,,123,2003-08-27T00:00:00,2023-12-12T15:02:54,0,,active
612080,37323658,,,Neilston Cemetery,,,,Neilston Cemetery,,Neilston Road,,,,opp,,SW,ES000295,Barrhead,,,BARRHEAD,,,,0,,249220,658139,,,BCT,MKD,OTH,,,,123,2003-08-27T00:00:00,2023-12-12T15:02:54,0,,active
612081,37323787,,,Donnies Brae,,,,Donnies Brae,,Neilston Road,,,,after,,NE,ES000295,Barrhead,,,BARRHEAD,,,,0,,248891,657956,,,BCT,MKD,OTH,,,,123,2003-08-27T00:00:00,2023-12-12T15:02:54,0,,active
612082,37323934,,,Donnies Brae,,,,Donnies Brae,,Neilston Road,,,,opp,,SW,ES000295,Barrhead,,,BARRHEAD,,,,0,,248921,657965,,,BCT,MKD,OTH,,,,123,2003-08-27T00:00:00,2023-12-12T15:02:54,0,,active
612084,37323634,,,Llawellyn,,,,Llawellyn,,Neilston Road,,,,opp,,SW,ES002751,Neilston,,,NEILSTON,,,,0,,248750,657838,,,BCT,MKD,OTH,,,,123,2003-08-27T00:00:00,2023-12-12T15:02:54,0,,active
612085,37323297,,,Kirktonfield Road,,,,Manse Road,,Neilston Road,,,,opp,,NE,ES002751,Neilston,,,NEILSTON,,,,0,,248163,657473,,,BCT,MKD,OTH,,,,123,2003-08-27T00:00:00,2023-12-12T15:02:54,0,,active
612086,37323945,,,Kirktonfield Road,,,,Kirk Glebe,,Neilston Road,,,,after,,SW,ES002751,Neilston,,,NEILSTON,,,,0,,248124,657426,,,BCT,MKD,OTH,,,,123,2003-08-27T00:00:00,2023-12-12T15:02:54,0,,active
612087,37323927,,,Post Office,,,,Broadlie Court,,Main Street,,,,at,,NE,ES002751,Neilston,,,NEILSTON,,,,1,,247944,657269,,,BCT,MKD,OTH,,,,123,2003-08-27T00:00:00,2023-12-12T15:02:54,0,,active
612088,37323457,,,Post Office,,,,Broadlie Court,,Main Street,,,,opp,,SW,ES002751,Neilston,,,NEILSTON,,,,1,,247958,657263,,,BCT,MKD,OTH,,,,123,2003-08-27T00:00:00,2023-12-12T15:02:54,0,,active
612089,37323964,,,Police Station,,,,Police Station,,Station Road,,,,at,,SE,ES002751,Neilston,,,NEILSTON,,,,0,,247852,657152,,,BCT,MKD,OTH,,,,123,2003-08-27T00:00:00,2023-12-12T15:02:54,0,,active
61209,37323486,,,Dealston Road,,,,Dealston Road,,Paisley Road,,,,before,,S,ES000295,Barrhead,,,BARRHEAD,,,,1,,249738,659719,,,BCT,MKD,OTH,,,,123,2003-08-27T00:00:00,2023-12-12T15:02:54,0,,active
612090,37323579,,,High Street,,,,Neilston Station,,Station Road,,,,before,,E,ES002751,Neilston,,,NEILSTON,,,,1,,247968,657104,,,BCT,MKD,OTH,,,,123,2003-08-27T00:00:00,2023-12-12T15:02:54,0,,active
612091,37323674,,,Luckiesfauld,,,,Luckiesfauld,,Kingston Road,,,,opp,,NE,ES002751,Neilston,,,NEILSTON,,,,1,,247957,657051,,,BCT,MKD,OTH,,,,123,2003-08-27T00:00:00,2023-12-12T15:02:54,0,,inactive
612092,37323687,,,Kirkton Road,,,,Kirkton Road,,Kingston Road,,,,before,,SW,ES002751,Neilston,,,NEILSTON,,,,0,,247923,656955,,,BCT,MKD,OTH,,,,123,2003-08-27T00:00:00,2023-12-12T15:02:54,0,,inactive
612093,37323453,,,Kirkton Road,,,,Kirkton Road,,Kingston Road,,,,opp,,NE,ES002751,Neilston,,,NEILSTON,,,,0,,247904,656926,,,BCT,MKD,OTH,,,,123,2003-08-27T00:00:00,2023-12-12T15:02:54,0,,active
612096,37323252,,,Loanfoot Avenue,,,,Craig Road,,Kingston Road,,,,opp,,NE,ES002751,Neilston,,,NEILSTON,,,,0,,247805,656714,,,BCT,MKD,OTH,,,,123,2003-08-27T00:00:00,2023-12-12T15:02:54,0,,active
612097,37323568,,,Neilston South Parish Church,,,,Kirkstyle Lane,,High Street,,,,at,,SW,ES002751,Neilston,,,NEILSTON,,,,0,,248031,657198,,,BCT,MKD,OTH,,,,123,2003-08-27T00:00:00,2023-12-12T15:02:54,0,,active
612098,37323269,,,Kirkstyle Crescent,,,,Braehead Avenue,,Main Street,,,,before,,SW,ES002751,Neilston,,,NEILSTON,,,,0,,247684,657087,,,BCT,MKD,OTH,,,,123,2003-08-27T00:00:00,2023-12-12T15:02:54,0,,active
612099,37323472,,,Kirkstyle Crescent,,,,Kirkstyle Crescent,,Main Street,,,,opp,,NE,ES002751,Neilston,,,NEILSTON,,,,0,,247654,657073,,,BCT,MKD,OTH,,,,123,2003-08-27T00:00:00,2023-12-12T15:02:54,0,,active
