ATCOCode,NaptanCode,PlateCode,CleardownCode,CommonName,CommonNameLang,ShortCommonName,ShortCommonNameLang,Landmark,LandmarkLang,Street,StreetLang,Crossing,CrossingLang,Indicator,IndicatorLang,Bearing,NptgLocalityCode,LocalityName,ParentLocalityName,GrandParentLocalityName,Town,TownLang,Suburb,SuburbLang,LocalityCentre,GridType,Easting,Northing,Longitude,Latitude,StopType,BusStopType,TimingStatus,DefaultWaitTime,Notes,NotesLang,AdministrativeAreaCode,CreationDateTime,ModificationDateTime,RevisionNumber,Modification,Status
61301,46823948,,,Woodhall Terrace,,,,Woodhall Terrace,,Glasgow Road,,,,at,,NW,N0068246,Woodhall,Port Glasgow,,PORT GLASGOW,,,,0,,234482,673963,,,BCT,MKD,OTH,,,,129,2003-08-27T00:00:00,2023-12-12T15:02:54,0,,active
613010,46823265,,,Bruce Street,,,,Bruce Street,,Glasgow Road,,,,opp,,SE,ES003052,Port Glasgow,,,PORT GLASGOW,,,,0,,232971,674304,,,BCT,MKD,OTH,,,,129,2003-08-27T00:00:00,2023-12-12T15:02:54,0,,active
6130100,46823274,,,Coronation Park,,,,Coronation Park,,Greenock Road,,,,at,,SE,ES003052,Port Glasgow,,,PORT GLASGOW,,,,1,,232322,674581,,,BCT,MKD,OTH,,,,129,2003-08-27T00:00:00,2023-12-12T15:02:54,0,,active
6130101,46823868,,,Bay Street,,,,Bay Street,,Greenock Road,,,,opp,,W,ES003052,Port Glasgow,,,PORT GLASGOW,,,,1,,232513,674461,,,BCT,MKD,OTH,,,,129,2003-08-27T00:00:00,2023-12-12T15:02:54,0,,active
6130102,46824329,,,William Street,,,,William Street,,Greenock Road,,,,at,,W,ES003052,Port Glasgow,,,PORT GLASGOW,,,,1,,231550,674641,,,BCT,MKD,OTH,,,,129,2003-08-27T00:00:00,2023-12-12T15:02:54,0,,active
6130103,46823236,,,Brown Street,,,,Brown Street,,Greenock Road,,,,opp,,E,ES003052,Port Glasgow,,,PORT GLASGOW,,,,1,,231679,674663,,,BCT,MKD,OTH,,,,129,2003-08-27T00:00:00,2023-12-12T15:02:54,0,,inactive
6130104,46823648,,,Lower Mary Street,,,,St John's Primary School,,Brown Street,,,,opp & after,,NW,N0072852,Bogston,Port Glasgow,,PORT GLASGOW,,,,1,,231369,674690,,,BCT,MKD,OTH,,,,129,2003-08-27T00:00:00,2023-12-12T15:02:54,0,,active
6130105,46823258,,,Lower Mary Street,,,,St John's Primary School,,Brown Street,,,,before,,SE,N0072852,Bogston,Port Glasgow,,PORT GLASGOW,,,,1,,231396,674697,,,BCT,MKD,OTH,,,,129,2003-08-27T00:00:00,2023-12-12T15:02:54,0,,active
6130106,46823635,,,Bogston station,,,,Bogston station,,Greenock Road,,,,at,,NW,N0072852,Bogston,Port Glasgow,,GREENOCK,,,,1,,230763,674894,,,BCT,MKD,OTH,,,,129,2003-08-27T00:00:00,2023-12-12T15:02:54,0,,active
6130107,46824378,,,Bogston station,,,,Bogston station,,Greenock Road,,,,opp,,SE,N0072852,Bogston,Port Glasgow,,GREENOCK,,,,1,,230778,674914,,,BCT,MKD,OTH,,,,129,2003-08-27T00:00:00,2023-12-12T15:02:54,0,,active
6130108,46823498,,,Cartsburn Street,,,,Cartsburn Street,,Ingleston Street,,,,before,,SE,ES001670,Greenock,,,GREENOCK,,,,0,,228466,675414,,,BCT,MKD,OTH,,,,129,2003-08-27T00:00:00,2023-12-12T15:02:54,0,,active
6130109,46823246,,,Cartsburn Street,,,,Cartsburn Street,,Ingleston Street,,,,after,,NW,ES001670,Greenock,,,GREENOCK,,,,0,,228444,675417,,,BCT,MKD,OTH,,,,129,2003-08-27T00:00:00,2023-12-12T15:02:54,0,,active
613011,46823272,,,Ashgrove Lane,,,,Ashgrove Lane,,Clune Brae,,,,after,,SE,ES003052,Port Glasgow,,,PORT GLASGOW,,,,1,,232776,674258,,,BCT,MKD,OTH,,,,129,2003-08-27T00:00:00,2023-12-12T15:02:54,0,,active
6130110,46823782,,,Hawick Court,,,,Hawick Court,,Belville Street,,,,at,,NW,ES001670,Greenock,,,GREENOCK,,,,0,,228652,675301,,,BCT,MKD,OTH,,,,129,2003-08-27T00:00:00,2023-12-12T15:02:54,0,,active
6130111,46823587,,,Kelso Court,,,,Kelso Court,,Belville Street,,,,at,,NE,ES001670,Greenock,,,GREENOCK,,,,0,,228717,675304,,,BCT,MKD,OTH,,,,129,2003-08-27T00:00:00,2023-12-12T15:02:54,0,,active
6130112,46823469,,,Belville Avenue,,,,Belville Avenue,,Belville Street,,,,at,,SW,ES001670,Greenock,,,GREENOCK,,,,0,,228882,675385,,,BCT,MKD,OTH,,,,129,2003-08-27T00:00:00,2023-12-12T15:02:54,0,,active
6130113,46823492,,,Serpentine Walk,,,,Serpentine Walk,,Belville Street,,,,before,,NE,ES000660,Cartsdyke,Greenock,,GREENOCK,,,,0,,228945,675434,,,BCT,MKD,OTH,,,,129,2003-08-27T00:00:00,2023-12-12T15:02:54,0,,active
6130114,46823296,,,East William Street,,,,East William Street,,Belville Street,,,,at,,SW,ES000660,Cartsdyke,Greenock,,GREENOCK,,,,0,,229025,675454,,,BCT,MKD,OTH,,,,129,2003-08-27T00:00:00,2023-12-12T15:02:54,0,,active
6130115,46824365,,,St Lawrence Street,,,,St Lawrence Street,,Belville Street,,,,at,,SW,ES000660,Cartsdyke,Greenock,,GREENOCK,,,,0,,229156,675503,,,BCT,MKD,OTH,,,,129,2003-08-27T00:00:00,2023-12-12T15:02:54,0,,active
6130116,46823875,,,St Lawrence Street,,,,St Lawrence Street,,Belville Street,,,,opp,,NE,ES000660,Cartsdyke,Greenock,,GREENOCK,,,,0,,229159,675513,,,BCT,MKD,OTH,,,,129,2003-08-27T00:00:00,2023-12-12T15:02:54,0,,active
6130117,46823758,,,Bawhirley Road,,,,Bawhirley Road,,East Crawford Street,,,,after,,N,N0078738,Bridgend,Greenock,,GREENOCK,,,,0,,229342,675465,,,BCT,MKD,OTH,,,,129,2003-08-27T00:00:00,2023-12-12T15:02:54,0,,active
6130118,46823682,,,Bawhirley Road,,,,Bawhirley Road,,East Crawford Street,,,,before,,S,N0078738,Bridgend,Greenock,,GREENOCK,,,,0,,229359,675436,,,BCT,MKD,OTH,,,,129,2003-08-27T00:00:00,2023-12-12T15:02:54,0,,active
6130119,46823879,,,Gray Street,,,,Gray Street,,Strone Crescent,,,,at,,N,N0078743,Strone Farm,Greenock,,GREENOCK,,,,0,,228853,675191,,,BCT,MKD,OTH,,,,129,2003-08-27T00:00:00,2023-12-12T15:02:54,0,,active
613012,46823674,,,Kilmory Terrace,,,,Kilmory Terrace,,Clune Brae,,,,at,,NW,ES003052,Port Glasgow,,,PORT GLASGOW,,,,1,,232786,674226,,,BCT,MKD,OTH,,,,129,2003-08-27T00:00:00,2023-12-12T15:02:54,0,,active
6130120,46823427,,,Gray Street,,,,Gray Street,,Strone Crescent,,,,opp,,S,N0078743,Strone Farm,Greenock,,GREENOCK,,,,0,,228859,675172,,,BCT,MKD,OTH,,,,129,2003-08-27T00:00:00,2023-12-12T15:02:54,0,,active
6130121,46823632,,,Millar Street,,,,Millar Street,,Strone Crescent,,,,opp,,NE,N0078743,Strone Farm,Greenock,,GREENOCK,,,,1,,228763,675014,,,BCT,MKD,OTH,,,,129,2003-08-27T00:00:00,2023-12-12T15:02:54,0,,active
6130122,46823954,,,Millar Street,,,,Millar Street,,Strone Crescent,,,,after,,W,N0078743,Strone Farm,Greenock,,GREENOCK,,,,1,,228743,675007,,,BCT,MKD,OTH,,,,129,2003-08-27T00:00:00,2023-12-12T15:02:54,0,,active
6130123,46823579,,,Glenbrae Road,,,,Glenbrae Road,,Kilmacolm Road,,,,at,,NW,N0078743,Strone Farm,Greenock,,GREENOCK,,,,0,,228735,674900,,,BCT,MKD,OTH,,,,129,2003-08-27T00:00:00,2023-12-12T15:02:54,0,,active
6130124,46823872,,,Burnhead Street,,,,Burnhead Street,,Kilmacolm Road,,,,opp,,NW,N0078743,Strone Farm,Greenock,,GREENOCK,,,,0,,228810,674775,,,BCT,MKD,OTH,,,,129,2003-08-27T00:00:00,2023-12-12T15:02:54,0,,active
6130126,46824678,,,Kilcreggan View,,,,Kilcreggan View,,Cardross Crescent,,,,after,,S,ES001670,Greenock,,,GREENOCK,,,,0,,229222,674653,,,BCT,MKD,OTH,,,,129,2003-08-27T00:00:00,2023-12-12T15:02:54,0,,active
6130127,46823294,,,Ardbeg Road,,,,Ardbeg Road,,Blairmore Road,,,,at,,NW,N0078743,Strone Farm,Greenock,,GREENOCK,,,,0,,229173,674687,,,BCT,MKD,OTH,,,,129,2003-08-27T00:00:00,2023-12-12T15:02:54,0,,inactive
6130129,46823434,,,St Kenneths school,,,,St Kenneths school,,Blairmore Road,,,,at,,SW,N0078743,Strone Farm,Greenock,,GREENOCK,,,,0,,228977,674703,,,BCT,MKD,OTH,,,,129,2003-08-27T00:00:00,2023-12-12T15:02:54,0,,inactive
613013,46823756,,,Clune Park Primary School,,,,Clune Park Primary School,,Clune Brae,,,,opp,,NW,ES003052,Port Glasgow,,,PORT GLASGOW,,,,1,,232900,674120,,,BCT,MKD,OTH,,,,129,2003-08-27T00:00:00,2023-12-12T15:02:54,0,,active
6130131,46823856,,,Bridgend Road,,,,Bridgend Road,,Kilcreggan View,,,,opp,,W,N0078743,Strone Farm,Greenock,,GREENOCK,,,,0,,229381,674694,,,BCT,MKD,OTH,,,,129,2003-08-27T00:00:00,2023-12-12T15:02:54,0,,inactive
6130132,46823535,,,Cardross Place,,,,Cardross Place,,Clynder Road,,,,at,,SE,N0078743,Strone Farm,Greenock,,GREENOCK,,,,0,,229500,674597,,,BCT,MKD,OTH,,,,129,2003-08-27T00:00:00,2023-12-12T15:02:54,0,,inactive
6130133,46823295,,,Grosvenor Road,,,,Oakfield Primary School,,East Crawford Street,,,,before,,S,N0078738,Bridgend,Greenock,,GREENOCK,,,,0,,229457,675145,,,BCT,MKD,OTH,,,,129,2003-08-27T00:00:00,2023-12-12T15:02:54,0,,active
6130134,46823786,,,Grosvenor Road,,,,Oakfield Primary School,,East Crawford Street,,,,after,,N,N0078738,Bridgend,Greenock,,GREENOCK,,,,0,,229448,675141,,,BCT,MKD,OTH,,,,129,2003-08-27T00:00:00,2023-12-12T15:02:54,0,,active
6130135,46824264,,,Border Street,,,,Border Street,,East Crawford Street,,,,opp,,SE,N0078738,Bridgend,Greenock,,GREENOCK,,,,0,,229392,675274,,,BCT,MKD,OTH,,,,129,2003-08-27T00:00:00,2023-12-12T15:02:54,0,,active
6130136,46823695,,,Border Street,,,,Border Street,,East Crawford Street,,,,at,,N,N0078738,Bridgend,Greenock,,GREENOCK,,,,0,,229376,675297,,,BCT,MKD,OTH,,,,129,2003-08-27T00:00:00,2023-12-12T15:02:54,0,,active
6130137,46823275,,,Gibshill Road,,,,Gibshill Road,,Port Glasgow Road,,,,at,,NW,N0068135,Ladyburn,Greenock,,GREENOCK,,,,1,,230465,675124,,,BCT,MKD,OTH,,,,129,2003-08-27T00:00:00,2023-12-12T15:02:54,0,,active
6130138,46823589,,,Pottery Street,,,,Pottery Street,,Port Glasgow Road,,,,after,,SE,N0068135,Ladyburn,Greenock,,GREENOCK,,,,1,,230335,675219,,,BCT,MKD,OTH,,,,129,2003-08-27T00:00:00,2023-12-12T15:02:54,0,,active
6130139,46823474,,,Pottery Street,,,,Pottery Street,,Port Glasgow Road,,,,at 22,,NW,N0068135,Ladyburn,Greenock,,GREENOCK,,,,1,,230254,675246,,,BCT,MKD,OTH,,,,129,2003-08-27T00:00:00,2023-12-12T15:02:54,0,,active
613014,46823925,,,Clune Brae,,,,Church of the Nazarene,,Clune Brae,,,,at 90,,NW,ES003052,Port Glasgow,,,PORT GLASGOW,,,,1,,233353,673980,,,BCT,MKD,OTH,,,,129,2003-08-27T00:00:00,2023-12-12T15:02:54,0,,active
6130140,46824342,,,Ladyburn Street,,,,Ladyburn Street,,East Hamilton Street,,,,at,,NW,ES001670,Greenock,,,GREENOCK,,,,1,,230033,675365,,,BCT,MKD,OTH,,,,129,2003-08-27T00:00:00,2023-12-12T15:02:54,0,,active
6130141,46823642,,,Ladyburn Street,,,,Ladyburn Street,,East Hamilton Street,,,,opp,,SE,ES001670,Greenock,,,GREENOCK,,,,1,,230066,675373,,,BCT,MKD,OTH,,,,129,2003-08-27T00:00:00,2023-12-12T15:02:54,0,,active
6130142,46823753,,,Sinclair Street,,,,Sinclair Street,,East Hamilton Street,,,,at,,NW,ES001670,Greenock,,,GREENOCK,,,,1,,229833,675476,,,BCT,MKD,OTH,,,,129,2003-08-27T00:00:00,2023-12-12T15:02:54,0,,active
6130143,46823942,,,Ratho Street,,,,Ratho Street,,East Hamilton Street,,,,opp,,SE,ES001670,Greenock,,,GREENOCK,,,,1,,229549,675642,,,BCT,MKD,OTH,,,,129,2003-08-27T00:00:00,2023-12-12T15:02:54,0,,active
6130144,46823972,,,Ratho Street,,,,Ratho Street,,East Hamilton Street,,,,at,,NW,ES001670,Greenock,,,GREENOCK,,,,1,,229462,675665,,,BCT,MKD,OTH,,,,129,2003-08-27T00:00:00,2023-12-12T15:02:54,0,,active
6130145,46823729,,,Clyde Port Authority,,,,Clyde Port Authority,,East Hamilton Street,,,,at,,SE,ES001670,Greenock,,,GREENOCK,,,,1,,229358,675722,,,BCT,MKD,OTH,,,,129,2003-08-27T00:00:00,2023-12-12T15:02:54,0,,active
6130146,46823598,,,Clyde Port Authority,,,,Clyde Port Authority,,East Hamilton Street,,,,opp,,NW,ES001670,Greenock,,,GREENOCK,,,,1,,229290,675727,,,BCT,MKD,OTH,,,,129,2003-08-27T00:00:00,2023-12-12T15:02:54,0,,active
6130147,46823935,,,Knowe Road,,,,Ambulance Centre,,Main Street,,,,after,,NW,ES000660,Cartsdyke,Greenock,,GREENOCK,,,,1,,228828,675664,,,BCT,MKD,OTH,,,,129,2003-08-27T00:00:00,2023-12-12T15:02:54,0,,active
6130148,46823974,,,Knowe Road,,,,Ambulance Centre,,Main Street,,,,opp,,E,ES000660,Cartsdyke,Greenock,,GREENOCK,,,,1,,228839,675685,,,BCT,MKD,OTH,,,,129,2003-08-27T00:00:00,2023-12-12T15:02:54,0,,active
6130149,46823739,,,Victoria Quay,,,,East Blackhall Street,,Rue End Street,,,,at,,SE,ES001670,Greenock,,,GREENOCK,,,,1,,228543,675802,,,BCT,MKD,OTH,,,,129,2003-08-27T00:00:00,2023-12-12T15:02:54,0,,active
613015,46823538,,,High Carnegie Road,,,,High Carnegie Road,,Clune Brae,,,,at,,SE,ES003052,Port Glasgow,,,PORT GLASGOW,,,,1,,233446,673964,,,BCT,MKD,OTH,,,,129,2003-08-27T00:00:00,2023-12-12T15:02:54,0,,active
6130152,46823428,,,Galt Street,,,,Galt Street,,Bawhirley Road,,,,opp,,NE,N0078738,Bridgend,Greenock,,GREENOCK,,,,0,,229166,675300,,,BCT,MKD,OTH,,,,129,2003-08-27T00:00:00,2023-12-12T15:02:54,0,,active
6130153,46823789,,,Poplar Street,,,,Poplar Street,,Lansbury Street,,,,opp,,SE,ES001508,Gibshill,Port Glasgow,,GREENOCK,,,,0,,230481,674779,,,BCT,MKD,OTH,,,,129,2003-08-27T00:00:00,2023-12-12T15:02:54,0,,active
61301539,46858539,,,Wren Road,,,,,,Fancy Farm Road,,,,before,,E,N0078740,Fancy Farm,Greenock,,GREENOCK,,,,0,,225330,676003,,,BCT,MKD,OTH,,,,129,2003-08-27T00:00:00,2023-12-12T15:02:54,0,,active
6130154,46823843,,,Lansbury Street,,,,Lansbury Street,,Smillie Street,,,,opp,,NW,ES001508,Gibshill,Port Glasgow,,GREENOCK,,,,0,,230303,674793,,,BCT,MKD,OTH,,,,129,2003-08-27T00:00:00,2023-12-12T15:02:54,0,,active
61301540,46858542,,,Wren Road,,,,Wren Road,,Fancy Farm Road,,,,after,,W,N0078740,Fancy Farm,Greenock,,GREENOCK,,,,0,,225321,675995,,,BCT,MKD,OTH,,,,129,2003-08-27T00:00:00,2023-12-12T15:02:54,0,,active
61301541,46858543,,,Canmore Crescent,,,,Canmore Crescent,,Fancy Farm Road,,,,before,,SW,N0078740,Fancy Farm,Greenock,,GREENOCK,,,,0,,225175,675947,,,BCT,MKD,OTH,,,,129,2003-08-27T00:00:00,2023-12-12T15:02:54,0,,active
6130156,46824235,,,Cathcart Street,,,,Cathcart Street,,Rue End Street,,,,before,,NW,ES001670,Greenock,,,GREENOCK,,,,1,,228320,675981,,,BCT,MKD,OTH,,,,129,2003-08-27T00:00:00,2023-12-12T15:02:54,0,,active
6130157,46824259,,,Terrace Road,,,,Terrace Road,,Dalrymple Street,,,,opp,,SE,ES001670,Greenock,,,GREENOCK,,,,1,,228184,676137,,,BCT,MKD,OTH,,,,129,2003-08-27T00:00:00,2023-12-12T15:02:54,0,,active
6130158,46823734,,,Cross Shore Street,,,,Cross Shore Street,,Dalrymple Street,,,,after,,NW,ES001670,Greenock,,,GREENOCK,,,,1,,228113,676152,,,BCT,MKD,OTH,,,,129,2003-08-27T00:00:00,2023-12-12T15:02:54,0,,active
6130159,46824353,,,Roxburgh Street,,,,Roxburgh Street,,Regent Street,,,,at,,W,ES001670,Greenock,,,GREENOCK,,,,0,,227621,675984,,,BCT,MKD,OTH,,,,129,2003-08-27T00:00:00,2023-12-12T15:02:54,0,,active
613016,46823768,,,Boglestone Roundabout,,,,Boglestone Roundabout,,Kilmacolm Road,,,,after,,N,N0078745,Boglestone,Port Glasgow,,PORT GLASGOW,,,,1,,233680,673625,,,BCT,MKD,OTH,,,,129,2003-08-27T00:00:00,2023-12-12T15:02:54,0,,active
6130160,46823897,,,Trafalgar Street,,,,Trafalgar Street,,Regent Street,,,,opp,,SE,ES001670,Greenock,,,GREENOCK,,,,0,,227726,676002,,,BCT,MKD,OTH,,,,129,2003-08-27T00:00:00,2023-12-12T15:02:54,0,,active
6130161,46824326,,,Shaw Place,,,,Shaw Place,,Regent Street,,,,opp,,NW,ES001670,Greenock,,,GREENOCK,,,,0,,227825,675968,,,BCT,MKD,OTH,,,,129,2003-08-27T00:00:00,2023-12-12T15:02:54,0,,active
6130162,46824354,,,Well Park,,,,Well Park,,Regent Street,,,,at,,SE,ES001670,Greenock,,,GREENOCK,,,,0,,228010,675904,,,BCT,MKD,OTH,,,,129,2003-08-27T00:00:00,2023-12-12T15:02:54,0,,active
6130163,46824296,,,Well Park,,,,Well Park,,Regent Street,,,,opp,,NW,ES001670,Greenock,,,GREENOCK,,,,0,,228004,675891,,,BCT,MKD,OTH,,,,129,2003-08-27T00:00:00,2023-12-12T15:02:54,0,,active
6130164,46823657,,,Dellingburn Street,,,,BP Garage,,Regent Street,,,,after,,NW,ES001670,Greenock,,,GREENOCK,,,,1,,228228,675767,,,BCT,MKD,OTH,,,,129,2003-08-27T00:00:00,2023-12-12T15:02:54,0,,active
6130165,46823494,,,Terrace Road,,,,Job Centre,,Regent Street,,,,after,,SE,ES001670,Greenock,,,GREENOCK,,,,1,,228189,675804,,,BCT,MKD,OTH,,,,129,2003-08-27T00:00:00,2023-12-12T15:02:54,0,,active
6130166,46823485,,,Bearhope Street,,,,Bearhope Street,,Roxburgh Street,,,,at,,SE,ES001670,Greenock,,,GREENOCK,,,,0,,227468,676026,,,BCT,MKD,OTH,,,,129,2003-08-27T00:00:00,2023-12-12T15:02:54,0,,inactive
6130167,46823264,,,Pleasant Street,,,,Pleasant Street,,Roxburgh Street,,,,before,,NW,ES001670,Greenock,,,GREENOCK,,,,1,,227265,676087,,,BCT,MKD,OTH,,,,129,2003-08-27T00:00:00,2023-12-12T15:02:54,0,,active
6130168,46823546,,,Murdieston Street,,,,Murdieston Street,,Brachelston Street,,,,at,,SW,ES001670,Greenock,,,GREENOCK,,,,1,,226965,676038,,,BCT,MKD,OTH,,,,129,2003-08-27T00:00:00,2023-12-12T15:02:54,0,,active
6130169,46823976,,,Old Inverkip Road,,,,Old Inverkip Road,,Brachelston Street,,,,at,,SW,ES001670,Greenock,,,GREENOCK,,,,1,,226761,675945,,,BCT,MKD,OTH,,,,129,2003-08-27T00:00:00,2023-12-12T15:02:54,0,,active
613017,46823984,,,Boglestone Roundabout,,,,Boglestone Roundabout,,Kilmacolm Road,,,,before,,S,N0078745,Boglestone,Port Glasgow,,PORT GLASGOW,,,,1,,233694,673608,,,BCT,MKD,OTH,,,,129,2003-08-27T00:00:00,2023-12-12T15:02:54,0,,active
6130170,46823863,,,Brachelston Street,,,,Brachelston Street,,Old Inverkip Road,,,,before,,NE,ES001670,Greenock,,,GREENOCK,,,,1,,226661,675861,,,BCT,MKD,OTH,,,,129,2003-08-27T00:00:00,2023-12-12T15:02:54,0,,active
6130171,46823694,,,Thom Street,,,,Thom Street,,Old Inverkip Road,,,,at,,SW,ES001505,Gateside,Greenock,,GREENOCK,,,,0,,226473,675777,,,BCT,MKD,OTH,,,,129,2003-08-27T00:00:00,2023-12-12T15:02:54,0,,active
6130172,46823297,,,Old Inverkip Road,,,,Police Club,,Thom Street,,,,before,,NW,ES001505,Gateside,Greenock,,GREENOCK,,,,0,,226465,675731,,,BCT,MKD,OTH,,,,129,2003-08-27T00:00:00,2023-12-12T15:02:54,0,,active
6130173,46823242,,,Hibernia Street,,,,Hibernia Street,,Columba Street,,,,opp,,S,ES001505,Gateside,Greenock,,GREENOCK,,,,0,,226614,675611,,,BCT,MKD,OTH,,,,129,2003-08-27T00:00:00,2023-12-12T15:02:54,0,,active
6130174,46823493,,,Hibernia Street,,,,Hibernia Street,,Columba Street,,,,at,,N,ES001505,Gateside,Greenock,,GREENOCK,,,,0,,226603,675605,,,BCT,MKD,OTH,,,,129,2003-08-27T00:00:00,2023-12-12T15:02:54,0,,active
6130175,46823735,,,Peat Road,,,,Peat Road,,Dunlop Street,,,,at,,SW,N0078739,Cornhaddock,Greenock,,GREENOCK,,,,1,,226869,675621,,,BCT,MKD,OTH,,,,129,2003-08-27T00:00:00,2023-12-12T15:02:54,0,,active
6130176,46823968,,,Peat Road,,,,Peat Road,,Dunlop Street,,,,opp,,E,N0078739,Cornhaddock,Greenock,,GREENOCK,,,,1,,226883,675630,,,BCT,MKD,OTH,,,,129,2003-08-27T00:00:00,2023-12-12T15:02:54,0,,active
6130177,46823439,,,Lime Street,,,,Lime Street,,Cornhaddock Street,,,,opp,,SE,N0078739,Cornhaddock,Greenock,,GREENOCK,,,,1,,227125,675582,,,BCT,MKD,OTH,,,,129,2003-08-27T00:00:00,2023-12-12T15:02:54,0,,active
6130178,46823893,,,Pine Street,,,,Pine Street,,Cornhaddock Street,,,,at,,NW,N0078739,Cornhaddock,Greenock,,GREENOCK,,,,1,,227156,675564,,,BCT,MKD,OTH,,,,129,2003-08-27T00:00:00,2023-12-12T15:02:54,0,,active
6130179,46824375,,,Ann Street,,,,Ann Street,,Drumfrochar Road,,,,at,,SE,N0078739,Cornhaddock,Greenock,,GREENOCK,,,,1,,227385,675522,,,BCT,MKD,OTH,,,,129,2003-08-27T00:00:00,2023-12-12T15:02:54,0,,active
613018,46858623,,,Burnside Avenue,,,,Burnside Avenue,,Southfield Avenue,,,,opp,,W,N0078746,Broadfield,Port Glasgow,,PORT GLASGOW,,,,0,,234082,673542,,,BCT,MKD,OTH,,,,129,2003-08-27T00:00:00,2023-12-12T15:02:54,0,,inactive
6130180,46824349,,,Ann Street,,,,Ann Street,,Drumfrochar Road,,,,opp,,NW,N0078739,Cornhaddock,Greenock,,GREENOCK,,,,1,,227375,675514,,,BCT,MKD,OTH,,,,129,2003-08-27T00:00:00,2023-12-12T15:02:54,0,,active
6130181,46824364,,,Lynedoch Street,,,,Lynedoch Street,,Drumfrochar Road,,,,at,,SE,ES001670,Greenock,,,GREENOCK,,,,1,,227758,675461,,,BCT,MKD,OTH,,,,129,2003-08-27T00:00:00,2023-12-12T15:02:54,0,,active
6130182,46823854,,,Lynedoch Street,,,,Lynedoch Street,,Drumfrochar Road,,,,opp,,NW,ES001670,Greenock,,,GREENOCK,,,,1,,227762,675452,,,BCT,MKD,OTH,,,,129,2003-08-27T00:00:00,2023-12-12T15:02:54,0,,active
6130183,46823684,,,Hay Street,,,,Hay Street,,Lynedoch Street,,,,at,,NE,ES001670,Greenock,,,GREENOCK,,,,0,,227914,675638,,,BCT,MKD,OTH,,,,129,2003-08-27T00:00:00,2023-12-12T15:02:54,0,,active
6130184,46823437,,,Hay Street,,,,Hay Street,,Lynedoch Street,,,,opp,,SW,ES001670,Greenock,,,GREENOCK,,,,0,,227897,675585,,,BCT,MKD,OTH,,,,129,2003-08-27T00:00:00,2023-12-12T15:02:54,0,,active
6130185,46823985,,,Lyle Street,,,,Lyle Street,,Lynedoch Street,,,,opp,,SW,ES001670,Greenock,,,GREENOCK,,,,0,,227969,675721,,,BCT,MKD,OTH,,,,129,2003-08-27T00:00:00,2023-12-12T15:02:54,0,,active
6130186,46824262,,,Killochend Drive,,,,Killochend Drive,,Drumfrochar Road,,,,Before,,SW,N0078739,Cornhaddock,Greenock,,GREENOCK,,,,1,,227251,675506,,,BCT,MKD,OTH,,,,129,2003-08-27T00:00:00,2023-12-12T15:02:54,0,,inactive
6130187,46824372,,,Glen Douglas Road,,,,Glen Douglas Road,,Overton,,,,opp,,W,N0078741,Overton,Greenock,,GREENOCK,,,,0,,226544,674911,,,BCT,MKD,OTH,,,,129,2003-08-27T00:00:00,2023-12-12T15:02:54,0,,active
6130188,46823757,,,Kenilworth Crescent,,,,Kenilworth Crescent,,Hole Farm Road,,,,at,,W,N0078742,Pennyfern,Greenock,,GREENOCK,,,,0,,226767,675293,,,BCT,MKD,OTH,,,,129,2003-08-27T00:00:00,2023-12-12T15:02:54,0,,active
6130189,46824279,,,Kenilworth Crescent,,,,Kenilworth Crescent,,Hole Farm Road,,,,opp,,E,N0078742,Pennyfern,Greenock,,GREENOCK,,,,0,,226767,675303,,,BCT,MKD,OTH,,,,129,2003-08-27T00:00:00,2023-12-12T15:02:54,0,,active
613019,46823254,,,Northfield Avenue,,,,Northfield Avenue,,Southfield Avenue,,,,opp,,SW,N0078746,Broadfield,Port Glasgow,,PORT GLASGOW,,,,0,,234249,673575,,,BCT,MKD,OTH,,,,129,2003-08-27T00:00:00,2023-12-12T15:02:54,0,,inactive
6130190,46823847,,,Hole Farm Road,,,,Hole Farm Road,,Woodstock Road,,,,after,,SW,N0078742,Pennyfern,Greenock,,GREENOCK,,,,0,,226395,675207,,,BCT,MKD,OTH,,,,129,2003-08-27T00:00:00,2023-12-12T15:02:54,0,,active
6130191,46823463,,,Hole Farm Road,,,,Hole Farm Road,,Woodstock Road,,,,before,,NE,N0078742,Pennyfern,Greenock,,GREENOCK,,,,0,,226369,675200,,,BCT,MKD,OTH,,,,129,2003-08-27T00:00:00,2023-12-12T15:02:54,0,,active
6130192,46823767,,,Pennyfern Drive,,,,Pennyfern Drive,,Woodstock Road,,,,before,,NW,N0078742,Pennyfern,Greenock,,GREENOCK,,,,0,,226056,675221,,,BCT,MKD,OTH,,,,129,2003-08-27T00:00:00,2023-12-12T15:02:54,0,,active
6130193,46823285,,,Pennyfern Drive,,,,Pennyfern Drive,,Maple Road,,,,opp,,NW,N0078742,Pennyfern,Greenock,,GREENOCK,,,,0,,225966,675245,,,BCT,MKD,OTH,,,,129,2003-08-27T00:00:00,2023-12-12T15:02:54,0,,inactive
6130194,46823762,,,Maple Road,,,,Outside 14 Maple Road,,Maple Road,,,,Outside 14,,SE,N0078742,Pennyfern,Greenock,,GREENOCK,,,,0,,225779,675324,,,BCT,MKD,OTH,,,,129,2003-08-27T00:00:00,2023-12-12T15:02:54,0,,inactive
6130195,46823978,,,Maple Road,,,,Maple Road,,Pennyfern Road,,,,opp,,N,N0078742,Pennyfern,Greenock,,GREENOCK,,,,0,,225683,675328,,,BCT,MKD,OTH,,,,129,2003-08-27T00:00:00,2023-12-12T15:02:54,0,,inactive
6130196,46823693,,,Pennyfern Drive,,,,Pennyfern Drive,,Pennyfern Road,,,,opp,,NW,N0078742,Pennyfern,Greenock,,GREENOCK,,,,0,,225901,675175,,,BCT,MKD,OTH,,,,129,2003-08-27T00:00:00,2023-12-12T15:02:54,0,,inactive
6130197,46823568,,,Peat Road,,,,Hole Farm Road,,Peat Road,,,,at 10,,N,N0078739,Cornhaddock,Greenock,,GREENOCK,,,,0,,226880,675365,,,BCT,MKD,OTH,,,,129,2003-08-27T00:00:00,2023-12-12T15:02:54,0,,active
6130198,46823746,,,Abbot Street,,,,Abbot Street,,Dunlop Street,,,,at,,SW,ES001505,Gateside,Greenock,,GREENOCK,,,,1,,226491,675480,,,BCT,MKD,OTH,,,,129,2003-08-27T00:00:00,2023-12-12T15:02:54,0,,active
6130199,46823874,,,Abbot Street,,,,Abbot Street,,Dunlop Street,,,,opp,,NE,ES001505,Gateside,Greenock,,GREENOCK,,,,1,,226453,675474,,,BCT,MKD,OTH,,,,129,2003-08-27T00:00:00,2023-12-12T15:02:54,0,,active
61302,46823287,,,Woodhall Station,,,,Heggies Avenue,,Glasgow Road,,,,at,,NW,N0068246,Woodhall,Port Glasgow,,PORT GLASGOW,,,,1,,234281,674039,,,BCT,MKD,OTH,,,,129,2003-08-27T00:00:00,2023-12-12T15:02:54,0,,active
613020,46823465,,,Bracken Road,,,,Bracken Road,,Northfield Avenue,,,,opp,,SE,N0078746,Broadfield,Port Glasgow,,PORT GLASGOW,,,,0,,234177,673628,,,BCT,MKD,OTH,,,,129,2003-08-27T00:00:00,2023-12-12T15:02:54,0,,inactive
6130200,46824324,,,Waverley Street,,,,Waverley Street,,Dunlop Street,,,,at,,NW,ES001505,Gateside,Greenock,,GREENOCK,,,,1,,226214,675482,,,BCT,MKD,OTH,,,,129,2003-08-27T00:00:00,2023-12-12T15:02:54,0,,active
6130201,46823956,,,Greenock Library,,,,Old Inverkip Road,,Inverkip Road,,,,at,,S,ES001505,Gateside,Greenock,,GREENOCK,,,,1,,226142,675613,,,BCT,MKD,OTH,,,,129,2003-08-27T00:00:00,2023-12-12T15:02:54,0,,active
6130202,46823873,,,Florence Street,,,,Florence Street,,Inverkip Road,,,,at,,NE,ES001505,Gateside,Greenock,,GREENOCK,,,,1,,226100,675736,,,BCT,MKD,OTH,,,,129,2003-08-27T00:00:00,2023-12-12T15:02:54,0,,active
6130203,46823937,,,Rankin Court,,,,Service Station,,Inverkip Road,,,,opp,,NE,ES001505,Gateside,Greenock,,GREENOCK,,,,1,,226331,675863,,,BCT,MKD,OTH,,,,129,2003-08-27T00:00:00,2023-12-12T15:02:54,0,,active
6130204,46823473,,,Rankin Court,,,,Service Station,,Inverkip Road,,,,at,,SW,ES001505,Gateside,Greenock,,GREENOCK,,,,1,,226343,675848,,,BCT,MKD,OTH,,,,129,2003-08-27T00:00:00,2023-12-12T15:02:54,0,,active
6130205,46823565,,,Brachelston Street,,,,Brachelston Street,,Inverkip Road,,,,at,,SW,ES001670,Greenock,,,GREENOCK,,,,1,,226678,675970,,,BCT,MKD,OTH,,,,129,2003-08-27T00:00:00,2023-12-12T15:02:54,0,,active
6130206,46824273,,,South Street,,,,South Street,,Nelson Street,,,,opp,,SW,ES001670,Greenock,,,GREENOCK,,,,1,,227134,676183,,,BCT,MKD,OTH,,,,129,2003-08-27T00:00:00,2023-12-12T15:02:54,0,,active
6130207,46824367,,,Finnart Street,,,,West College Scotland,,Nelson Street,,,,before,,NE,ES001670,Greenock,,,GREENOCK,,,,0,,227228,676291,,,BCT,MKD,OTH,,,,129,2003-08-27T00:00:00,2023-12-12T15:02:54,0,,active
6130209,46823738,,,Ardgowan Street,,,,Ardgowan Street,,Nelson Street,,,,at,,NE,ES001670,Greenock,,,GREENOCK,,,,0,,227400,676431,,,BCT,MKD,OTH,,,,129,2003-08-27T00:00:00,2023-12-12T15:02:54,0,,active
613021,46823584,,,Northfield Avenue,,,,No 88,,Northfield Avenue,,,,opp 88,,N,N0078746,Broadfield,Port Glasgow,,PORT GLASGOW,,,,0,,233732,673645,,,BCT,MKD,OTH,,,,129,2003-08-27T00:00:00,2023-12-12T15:02:54,0,,inactive
6130211,46823626,,,Roxburgh Street,,,,Roxburgh Street,,Bruce Street,,,,before,,S,ES001670,Greenock,,,GREENOCK,,,,1,,227334,676112,,,BCT,MKD,OTH,,,,129,2003-08-27T00:00:00,2023-12-12T15:02:54,0,,inactive
6130213,46856546,,,Roxburgh Street,,,,Roxburgh Avenue,,Duncan Avenue,,,,before,,NE,ES001670,Greenock,,,GREENOCK,,,,0,,227398,675984,,,BCT,MKD,OTH,,,,129,2003-08-27T00:00:00,2023-12-12T15:02:54,0,,active
6130214,46825645,,,Ann Street,,,,Ann Street,,Wellington Street,,,,before,,NW,ES001670,Greenock,,,GREENOCK,,,,0,,227576,675795,,,BCT,MKD,OTH,,,,129,2003-08-27T00:00:00,2023-12-12T15:02:54,0,,active
6130215,46824942,,,Wellington Street,,,,Wellington Street,,Mearns Street,,,,before,,NE,ES001670,Greenock,,,GREENOCK,,,,0,,227731,675701,,,BCT,MKD,OTH,,,,129,2003-08-27T00:00:00,2023-12-12T15:02:54,0,,active
6130216,46836258,,,Mearns Street,,,,Mearns Street,,Dempster Street,,,,before,,SE,ES001670,Greenock,,,GREENOCK,,,,0,,227563,675721,,,BCT,MKD,OTH,,,,129,2003-08-27T00:00:00,2023-12-12T15:02:54,0,,active
6130217,46823787,,,Iona Street,,,,Iona Street,,Bow Road,,,,at,,W,ES001505,Gateside,Greenock,,GREENOCK,,,,0,,226495,676022,,,BCT,MKD,OTH,,,,129,2003-08-27T00:00:00,2023-12-12T15:02:54,0,,active
6130218,46824389,,,Rose Street,,,,Rose Street,,Bow Road,,,,at,,SW,ES001505,Gateside,Greenock,,GREENOCK,,,,0,,226220,676027,,,BCT,MKD,OTH,,,,129,2003-08-27T00:00:00,2023-12-12T15:02:54,0,,active
6130219,46824289,,,Rose Street,,,,Rose Street,,Bow Road,,,,opp,,E,ES001505,Gateside,Greenock,,GREENOCK,,,,0,,226234,676041,,,BCT,MKD,OTH,,,,129,2003-08-27T00:00:00,2023-12-12T15:02:54,0,,active
613022,46823858,,,School Road,,,,School Road,,Parkhill Avenue,,,,at,,NW,N0068246,Woodhall,Port Glasgow,,PORT GLASGOW,,,,0,,234220,673763,,,BCT,MKD,OTH,,,,129,2003-08-27T00:00:00,2023-12-12T15:02:54,0,,active
6130220,46823839,,,Nicol Street,,,,Nicol Street,,Bow Road,,,,at,,NE,ES001505,Gateside,Greenock,,GREENOCK,,,,0,,226056,675952,,,BCT,MKD,OTH,,,,129,2003-08-27T00:00:00,2023-12-12T15:02:54,0,,active
6130221,46823256,,,Tasker Street,,,,Tasker Street,,Davey Street,,,,at,,NE,ES001505,Gateside,Greenock,,GREENOCK,,,,0,,225896,676083,,,BCT,MKD,OTH,,,,129,2003-08-27T00:00:00,2023-12-12T15:02:54,0,,inactive
6130222,46823832,,,Tay Street,,,,Tay Street,,Davey Street,,,,at,,SW,ES001505,Gateside,Greenock,,GREENOCK,,,,0,,226038,676187,,,BCT,MKD,OTH,,,,129,2003-08-27T00:00:00,2023-12-12T15:02:54,0,,inactive
6130223,46823289,,,Ness Road,,,,Ness Road,,Tweed Street,,,,at,,NE,ES001505,Gateside,Greenock,,GREENOCK,,,,0,,226036,676332,,,BCT,MKD,OTH,,,,129,2003-08-27T00:00:00,2023-12-12T15:02:54,0,,inactive
6130224,46824243,,,Tay Street,,,,Tay Street,,Tweed Street,,,,opp,,E,ES001505,Gateside,Greenock,,GREENOCK,,,,0,,225948,676322,,,BCT,MKD,OTH,,,,129,2003-08-27T00:00:00,2023-12-12T15:02:54,0,,inactive
6130225,46823659,,,Dee Street,,,,Dee Street,,Tay Street,,,,at,,W,ES001505,Gateside,Greenock,,GREENOCK,,,,0,,225950,676242,,,BCT,MKD,OTH,,,,129,2003-08-27T00:00:00,2023-12-12T15:02:54,0,,inactive
6130226,46823647,,,Buchanan Street,,,,Buchanan Street,,Bow Road,,,,before,,NE,ES001505,Gateside,Greenock,,GREENOCK,,,,0,,225747,675853,,,BCT,MKD,OTH,,,,129,2003-08-27T00:00:00,2023-12-12T15:02:54,0,,active
6130227,46823548,,,Grieve Road,,,,Grieve Road,,Bow Road,,,,before,,SW,ES001505,Gateside,Greenock,,GREENOCK,,,,0,,225747,675846,,,BCT,MKD,OTH,,,,129,2003-08-27T00:00:00,2023-12-12T15:02:54,0,,active
6130228,46823543,,,Community Centre,,,,Community Centre,,Grieve Road,,,,opp,,S,N0078737,Bow Hill,Greenock,,GREENOCK,,,,0,,225658,676077,,,BCT,MKD,OTH,,,,129,2003-08-27T00:00:00,2023-12-12T15:02:54,0,,active
6130229,46823943,,,Community Centre,,,,Community Centre,,Grieve Road,,,,after,,N,N0078737,Bow Hill,Greenock,,GREENOCK,,,,0,,225641,676123,,,BCT,MKD,OTH,,,,129,2003-08-27T00:00:00,2023-12-12T15:02:54,0,,active
613023,46824274,,,Parkhill Avenue,,,,No 5 Parkhill Avenue,,Parkhill Avenue,,,,at 5,,SE,N0068246,Woodhall,Port Glasgow,,PORT GLASGOW,,,,0,,234130,673823,,,BCT,MKD,OTH,,,,129,2003-08-27T00:00:00,2023-12-12T15:02:54,0,,active
6130230,46824379,,,Auchneagh Farm Road,,,,Auchneagh Farm Road,,Grieve Road,,,,before,,N,N0078737,Bow Hill,Greenock,,GREENOCK,,,,0,,225603,676279,,,BCT,MKD,OTH,,,,129,2003-08-27T00:00:00,2023-12-12T15:02:54,0,,active
6130231,46823865,,,Auchneagh Farm Road,,,,Auchneagh Farm Road,,Grieve Road,,,,opp,,S,N0078737,Bow Hill,Greenock,,GREENOCK,,,,0,,225604,676312,,,BCT,MKD,OTH,,,,129,2003-08-27T00:00:00,2023-12-12T15:02:54,0,,active
6130232,46823629,,,Lyle Road,,,,Lyle Road,,Grieve Road,,,,after,,S,N0078737,Bow Hill,Greenock,,GREENOCK,,,,0,,225637,676606,,,BCT,MKD,OTH,,,,129,2003-08-27T00:00:00,2023-12-12T15:02:54,0,,active
6130233,46823253,,,Lyle Road,,,,Lyle Road,,Grieve Road,,,,before,,NW,N0078737,Bow Hill,Greenock,,GREENOCK,,,,0,,225624,676682,,,BCT,MKD,OTH,,,,129,2003-08-27T00:00:00,2023-12-12T15:02:54,0,,active
6130234,46823678,,,Falcon Crescent,,,,Falcon Crescent,,Mallard Crescent,,,,opp,,S,N0078737,Bow Hill,Greenock,,GREENOCK,,,,0,,225432,676670,,,BCT,MKD,OTH,,,,129,2003-08-27T00:00:00,2023-12-12T15:02:54,0,,active
6130235,46824246,,,Falcon Crescent,,,,Falcon Crescent,,Mallard Crescent,,,,at,,NW,N0078737,Bow Hill,Greenock,,GREENOCK,,,,0,,225407,676708,,,BCT,MKD,OTH,,,,129,2003-08-27T00:00:00,2023-12-12T15:02:54,0,,active
6130236,46824283,,,Mallard Crescent,,,,No 73,,Mallard Crescent,,,,at 73,,S,N0078737,Bow Hill,Greenock,,GREENOCK,,,,0,,225294,676616,,,BCT,MKD,OTH,,,,129,2003-08-27T00:00:00,2023-12-12T15:02:54,0,,active
6130237,46823263,,,Mallard Crescent,,,,No 121,,Mallard Crescent,,,,opp 121,,N,N0078737,Bow Hill,Greenock,,GREENOCK,,,,0,,225262,676399,,,BCT,MKD,OTH,,,,129,2003-08-27T00:00:00,2023-12-12T15:02:54,0,,active
6130238,46824286,,,Inverkip Road,,,,Old Inverkip Road,,Inverkip Road,,,,at 162,,NE,ES001670,Greenock,,,GREENOCK,,,,1,,225724,675456,,,BCT,MKD,OTH,,,,129,2003-08-27T00:00:00,2023-12-12T15:02:54,0,,active
6130239,46824363,,,Inverkip Road,,,,Pennyfern Road,,Inverkip Road,,,,opp 174,,W,ES001670,Greenock,,,GREENOCK,,,,1,,225668,675434,,,BCT,MKD,OTH,,,,129,2003-08-27T00:00:00,2023-12-12T15:02:54,0,,active
6130240,46823482,,,Neil Street,,,,Neil Street,,Inverkip Road,,,,at,,E,N0068023,Branchton,Greenock,,GREENOCK,,,,1,,225404,675522,,,BCT,MKD,OTH,,,,129,2003-08-27T00:00:00,2023-12-12T15:02:54,0,,active
6130241,46823927,,,Neil Street,,,,Neil Street,,Inverkip Road,,,,opp,,W,N0068023,Branchton,Greenock,,GREENOCK,,,,1,,225400,675502,,,BCT,MKD,OTH,,,,129,2003-08-27T00:00:00,2023-12-12T15:02:54,0,,active
6130242,46823594,,,Sutherland Road,,,,Sutherland Road,,Gleninver Road,,,,at,,E,N0068023,Branchton,Greenock,,GREENOCK,,,,0,,225100,675589,,,BCT,MKD,OTH,,,,129,2003-08-27T00:00:00,2023-12-12T15:02:54,0,,inactive
6130243,46823475,,,Sutherland Road,,,,Sutherland Road,,Gleninver Road,,,,opp,,NW,N0068023,Branchton,Greenock,,GREENOCK,,,,0,,225010,675596,,,BCT,MKD,OTH,,,,129,2003-08-27T00:00:00,2023-12-12T15:02:54,0,,active
6130244,46824253,,,Fancy Farm Road,,,,Fancy Farm Road,,Larkfield Road,,,,opp,,N,N0068023,Branchton,Greenock,,GREENOCK,,,,0,,224878,675722,,,BCT,MKD,OTH,,,,129,2003-08-27T00:00:00,2023-12-12T15:02:54,0,,active
6130245,46823549,,,Larkfield Road,,,,Larkfield Road,,Fancy Farm Road,,,,before,,SW,N0078740,Fancy Farm,Greenock,,GREENOCK,,,,0,,224926,675736,,,BCT,MKD,OTH,,,,129,2003-08-27T00:00:00,2023-12-12T15:02:54,0,,active
6130246,46823452,,,Kirkwall Road,,,,Kirkwall Road,,Branchton Road,,,,opp,,SW,N0068023,Branchton,Greenock,,GREENOCK,,,,0,,224990,675386,,,BCT,MKD,OTH,,,,129,2003-08-27T00:00:00,2023-12-12T15:02:54,0,,active
6130247,46823237,,,Rothesay Road,,,,Rothesay Road,,Branchton Road,,,,opp,,NE,N0068023,Branchton,Greenock,,GREENOCK,,,,0,,224786,675217,,,BCT,MKD,OTH,,,,129,2003-08-27T00:00:00,2023-12-12T15:02:54,0,,active
6130248,46823829,,,Rothesay Road,,,,Rothesay Road,,Branchton Road,,,,at,,SW,N0068023,Branchton,Greenock,,GREENOCK,,,,0,,224787,675206,,,BCT,MKD,OTH,,,,129,2003-08-27T00:00:00,2023-12-12T15:02:54,0,,active
6130249,46824267,,,Branchton Station,,,,Branchton Station,,Inverkip Road,,,,at,,SW,N0068023,Branchton,Greenock,,GREENOCK,,,,1,,225006,675514,,,BCT,MKD,OTH,,,,129,2003-08-27T00:00:00,2023-12-12T15:02:54,0,,active
613025,46823596,,,Sunnyside Avenue,,,,Sunnyside Avenue,,Heggies Avenue,,,,opp,,E,N0068246,Woodhall,Port Glasgow,,PORT GLASGOW,,,,0,,233910,673925,,,BCT,MKD,OTH,,,,129,2003-08-27T00:00:00,2023-12-12T15:02:54,0,,active
6130250,46823835,,,Branchton Station,,,,Branchton Station,,Inverkip Road,,,,opp,,NE,N0068023,Branchton,Greenock,,GREENOCK,,,,1,,224924,675508,,,BCT,MKD,OTH,,,,129,2003-08-27T00:00:00,2023-12-12T15:02:54,0,,active
6130251,46824297,,,Westmorland Road,,,,Westmorland Road,,Cumberland Road,,,,opp,,W,N0068023,Branchton,Greenock,,GREENOCK,,,,0,,224707,675497,,,BCT,MKD,OTH,,,,129,2003-08-27T00:00:00,2023-12-12T15:02:54,0,,active
6130252,46823585,,,Cumberland Court,,,,Cumberland Court,,Cumberland Road,,,,before,,NW,N0068023,Branchton,Greenock,,GREENOCK,,,,0,,224376,675579,,,BCT,MKD,OTH,,,,129,2003-08-27T00:00:00,2023-12-12T15:02:54,0,,active
6130253,46823576,,,Cumberland Court,,,,Cumberland Court,,Cumberland Road,,,,opp,,SE,N0068023,Branchton,Greenock,,GREENOCK,,,,0,,224362,675597,,,BCT,MKD,OTH,,,,129,2003-08-27T00:00:00,2023-12-12T15:02:54,0,,active
6130254,46824249,,,Auchmead Road,,,,Auchmead Road,,Cumberland Road,,,,opp,,S,ES002293,Larkfield,Greenock,,GREENOCK,,,,0,,224179,675910,,,BCT,MKD,OTH,,,,129,2003-08-27T00:00:00,2023-12-12T15:02:54,0,,active
6130255,46823435,,,Auchmead Road,,,,Auchmead Road,,Cumberland Road,,,,at,,N,ES002293,Larkfield,Greenock,,GREENOCK,,,,0,,224166,675929,,,BCT,MKD,OTH,,,,129,2003-08-27T00:00:00,2023-12-12T15:02:54,0,,active
6130256,46823849,,,Cumberland Road,,,,Cumberland Road,,Burns Road,,,,at,,E,ES002293,Larkfield,Greenock,,GREENOCK,,,,0,,224077,676164,,,BCT,MKD,OTH,,,,129,2003-08-27T00:00:00,2023-12-12T15:02:54,0,,active
6130257,46823245,,,Burns Square,,,,Burns Square,,Burns Road,,,,at,,E,ES002293,Larkfield,Greenock,,GREENOCK,,,,0,,223800,675714,,,BCT,MKD,OTH,,,,129,2003-08-27T00:00:00,2023-12-12T15:02:54,0,,active
6130259,46823268,,,Springfield school,,,,Springfield school,,Banff Road,,,,at,,S,ES002293,Larkfield,Greenock,,GREENOCK,,,,0,,223332,675767,,,BCT,MKD,OTH,,,,129,2003-08-27T00:00:00,2023-12-12T15:02:54,0,,active
613026,46823979,,,Sunnyside Avenue,,,,Sunnyside Avenue,,Heggies Avenue,,,,at,,W,N0068246,Woodhall,Port Glasgow,,PORT GLASGOW,,,,0,,233924,673919,,,BCT,MKD,OTH,,,,129,2003-08-27T00:00:00,2023-12-12T15:02:54,0,,active
6130261,46823946,,,Caithness Road,,,,Caithness Road,,Banff Road,,,,at,,NW,ES002293,Larkfield,Greenock,,GREENOCK,,,,0,,223617,676097,,,BCT,MKD,OTH,,,,129,2003-08-27T00:00:00,2023-12-12T15:02:54,0,,active
6130263,46823896,,,Angus Road,,,,Angus Road,,Banff Road,,,,after,,NW,ES002293,Larkfield,Greenock,,GREENOCK,,,,0,,223762,676045,,,BCT,MKD,OTH,,,,129,2003-08-27T00:00:00,2023-12-12T15:02:54,0,,active
6130266,46823878,,,Minerva Terrace,,,,Minerva Terrace,,Burns Road,,,,opp,,SE,N0072853,Braeside,Greenock,,GREENOCK,,,,0,,223936,675441,,,BCT,MKD,OTH,,,,129,2003-08-27T00:00:00,2023-12-12T15:02:54,0,,inactive
6130267,46823262,,,Minerva Terrace,,,,Minerva Terrace,,Burns Road,,,,at,,NW,N0072853,Braeside,Greenock,,GREENOCK,,,,0,,223942,675415,,,BCT,MKD,OTH,,,,129,2003-08-27T00:00:00,2023-12-12T15:02:54,0,,inactive
6130268,46824282,,,Glencairn Road,,,,Glencairn Road,,Burns Road,,,,at,,E,N0072853,Braeside,Greenock,,GREENOCK,,,,0,,224176,675306,,,BCT,MKD,OTH,,,,129,2003-08-27T00:00:00,2023-12-12T15:02:54,0,,active
6130269,46824374,,,Glencairn Road,,,,Glencairn Road,,Burns Road,,,,opp,,W,N0072853,Braeside,Greenock,,GREENOCK,,,,0,,224197,675307,,,BCT,MKD,OTH,,,,129,2003-08-27T00:00:00,2023-12-12T15:02:54,0,,active
613027,46824293,,,Brightside Avenue,,,,Brightside Avenue,,Heggies Avenue,,,,at,,SW,N0068246,Woodhall,Port Glasgow,,PORT GLASGOW,,,,0,,234230,674013,,,BCT,MKD,OTH,,,,129,2003-08-27T00:00:00,2023-12-12T15:02:54,0,,active
6130270,46824284,,,Burns Road,,,,Burns Road,,Auchmead Road,,,,opp,,S,N0072853,Braeside,Greenock,,GREENOCK,,,,0,,224375,675302,,,BCT,MKD,OTH,,,,129,2003-08-27T00:00:00,2023-12-12T15:02:54,0,,active
6130271,46823575,,,Burns Road,,,,Burns Road,,Auchmead Road,,,,at,,N,N0072853,Braeside,Greenock,,GREENOCK,,,,0,,224365,675270,,,BCT,MKD,OTH,,,,129,2003-08-27T00:00:00,2023-12-12T15:02:54,0,,active
6130272,46824298,,,Braeside Road,,,,Burns Road,,Braeside Road,,,,at 4,,SW,N0072853,Braeside,Greenock,,GREENOCK,,,,0,,223882,675318,,,BCT,MKD,OTH,,,,129,2003-08-27T00:00:00,2023-12-12T15:02:54,0,,active
6130273,46823794,,,Davaar Road,,,,Davaar Road,,Braeside Road,,,,before,,NE,N0072853,Braeside,Greenock,,GREENOCK,,,,0,,223692,675165,,,BCT,MKD,OTH,,,,129,2003-08-27T00:00:00,2023-12-12T15:02:54,0,,active
6130274,46823278,,,Cumberland Road,,,,Cumberland Road,,Inverkip Road,,,,opp,,SW,N0068023,Branchton,Greenock,,GREENOCK,,,,1,,224779,675422,,,BCT,MKD,OTH,,,,129,2003-08-27T00:00:00,2023-12-12T15:02:54,0,,inactive
6130275,46823578,,,Auchmead Road,,,,Ravenscraig Service Station,,Inverkip Road,,,,after,,NE,N0068023,Branchton,Greenock,,GREENOCK,,,,1,,224543,675285,,,BCT,MKD,OTH,,,,129,2003-08-27T00:00:00,2023-12-12T15:02:54,0,,active
6130276,46823929,,,Auchmead Road,,,,Ravenscraig Service Station,,Inverkip Road,,,,opp,,SW,N0068023,Branchton,Greenock,,GREENOCK,,,,1,,224467,675224,,,BCT,MKD,OTH,,,,129,2003-08-27T00:00:00,2023-12-12T15:02:54,0,,active
6130277,46823483,,,Flatterton Road,,,,Glenburn school,,Inverkip Road,,,,after,,NE,N0072853,Braeside,Greenock,,GREENOCK,,,,1,,224053,675101,,,BCT,MKD,OTH,,,,129,2003-08-27T00:00:00,2023-12-12T15:02:54,0,,active
6130278,46824369,,,Robertson Street,,,,Robertson Street,,Union Street,,,,after,,NW,ES001670,Greenock,,,GREENOCK,,,,1,,227194,676797,,,BCT,MKD,OTH,,,,129,2003-08-27T00:00:00,2023-12-12T15:02:54,0,,active
6130279,46824394,,,Campbell Street,,,,Campbell Street,,Union Street,,,,Near,,SE,ES001670,Greenock,,,GREENOCK,,,,1,,227091,676934,,,BCT,MKD,OTH,,,,129,2003-08-27T00:00:00,2023-12-12T15:02:54,0,,active
613028,46823476,,,Brightside Avenue,,,,Brightside Avenue,,Heggies Avenue,,,,opp,,NE,N0068246,Woodhall,Port Glasgow,,PORT GLASGOW,,,,0,,234219,674015,,,BCT,MKD,OTH,,,,129,2003-08-27T00:00:00,2023-12-12T15:02:54,0,,active
6130280,46823848,,,Margaret Street,,,,Margaret Street,,Union Street,,,,before,,NW,ES001670,Greenock,,,GREENOCK,,,,1,,226968,677053,,,BCT,MKD,OTH,,,,129,2003-08-27T00:00:00,2023-12-12T15:02:54,0,,active
6130281,46823542,,,Fox Street,,,,Fox Street,,Union Street,,,,before,,SE,ES001670,Greenock,,,GREENOCK,,,,1,,226860,677187,,,BCT,MKD,OTH,,,,129,2003-08-27T00:00:00,2023-12-12T15:02:54,0,,active
6130282,46823247,,,Bedford Street,,,,Bedford Street,,Newark Street,,,,at,,NW,ES001670,Greenock,,,GREENOCK,,,,1,,226753,677266,,,BCT,MKD,OTH,,,,129,2003-08-27T00:00:00,2023-12-12T15:02:54,0,,active
6130283,46823532,,,Dungourney Drive,,,,Dungourney Drive,,Newark Street,,,,at,,NW,ES001670,Greenock,,,GREENOCK,,,,1,,226550,677367,,,BCT,MKD,OTH,,,,129,2003-08-27T00:00:00,2023-12-12T15:02:54,0,,active
6130284,46823957,,,Dungourney Drive,,,,Dungourney Drive,,Newark Street,,,,opp,,SE,ES001670,Greenock,,,GREENOCK,,,,1,,226529,677390,,,BCT,MKD,OTH,,,,129,2003-08-27T00:00:00,2023-12-12T15:02:54,0,,active
6130285,46823796,,,Stoneleigh Road,,,,Stoneleigh Road,,Newark Street,,,,at,,NW,ES001670,Greenock,,,GREENOCK,,,,1,,226322,677482,,,BCT,MKD,OTH,,,,129,2003-08-27T00:00:00,2023-12-12T15:02:54,0,,active
6130286,46823672,,,Stoneleigh Road,,,,Stoneleigh Road,,Newark Street,,,,opp,,SE,ES001670,Greenock,,,GREENOCK,,,,1,,226321,677495,,,BCT,MKD,OTH,,,,129,2003-08-27T00:00:00,2023-12-12T15:02:54,0,,active
6130287,46823765,,,Finnart Street,,,,Mariners Home,,Newark Street,,,,after,,W,ES001670,Greenock,,,GREENOCK,,,,1,,226096,677591,,,BCT,MKD,OTH,,,,129,2003-08-27T00:00:00,2023-12-12T15:02:54,0,,active
6130288,46824357,,,Wood Street,,,,Mariners Home,,Newark Street,,,,after,,SE,ES001670,Greenock,,,GREENOCK,,,,1,,226060,677614,,,BCT,MKD,OTH,,,,129,2003-08-27T00:00:00,2023-12-12T15:02:54,0,,active
6130289,46823975,,,Fort Matilda Station,,,,Octavia Terrace,,Newark Street,,,,opp,,NE,N0068087,Fort Matilda,Greenock,,GREENOCK,,,,0,,225668,677596,,,BCT,MKD,OTH,,,,129,2003-08-27T00:00:00,2023-12-12T15:02:54,0,,active
613029,46824257,,,Heggies Avenue,,,,Heggies Avenue,,Parkhill Avenue,,,,at,,SE,N0068246,Woodhall,Port Glasgow,,PORT GLASGOW,,,,0,,233953,673876,,,BCT,MKD,OTH,,,,129,2003-08-27T00:00:00,2023-12-12T15:02:54,0,,active
6130290,46823749,,,Fort Matilda Station,,,,Octavia Terrace,,Newark Street,,,,at,,SW,N0068087,Fort Matilda,Greenock,,GREENOCK,,,,1,,225592,677564,,,BCT,MKD,OTH,,,,129,2003-08-27T00:00:00,2023-12-12T15:02:54,0,,active
6130291,46823279,,,Newark Street,,,,Newark Street,,Eldon Street,,,,opp,,NE,ES001670,Greenock,,,GREENOCK,,,,1,,225302,677429,,,BCT,MKD,OTH,,,,129,2003-08-27T00:00:00,2023-12-12T15:02:54,0,,active
6130292,46823869,,,Battery Park,,,,Battery Park,,Eldon Street,,,,at,,NE,N0068087,Fort Matilda,Greenock,,GREENOCK,,,,1,,225496,677611,,,BCT,MKD,OTH,,,,129,2003-08-27T00:00:00,2023-12-12T15:02:54,0,,inactive
6130293,46823539,,,Octavia Terrace,,,,Octavia Terrace,,Eldon Street,,,,Opp,,NE,ES001670,Greenock,,,GREENOCK,,,,1,,225592,677703,,,BCT,MKD,OTH,,,,129,2003-08-27T00:00:00,2023-12-12T15:02:54,0,,active
6130294,46823634,,,Battery Park Avenue,,,,Battery Park Avenue,,Eldon Street,,,,opp,,SW,ES001670,Greenock,,,GREENOCK,,,,1,,225675,677767,,,BCT,MKD,OTH,,,,129,2003-08-27T00:00:00,2023-12-12T15:02:54,0,,active
6130295,46823834,,,Esplanade,,,,Esplanade,,Eldon Street,,,,at,,E,ES001670,Greenock,,,GREENOCK,,,,1,,225950,677851,,,BCT,MKD,OTH,,,,129,2003-08-27T00:00:00,2023-12-12T15:02:54,0,,active
6130296,46823458,,,Esplanade,,,,Esplanade,,Eldon Street,,,,opp,,W,ES001670,Greenock,,,GREENOCK,,,,1,,225918,677841,,,BCT,MKD,OTH,,,,129,2003-08-27T00:00:00,2023-12-12T15:02:54,0,,active
6130297,46823547,,,North Street,,,,North Street,,Eldon Street,,,,opp,,NW,ES001670,Greenock,,,GREENOCK,,,,1,,226068,677819,,,BCT,MKD,OTH,,,,129,2003-08-27T00:00:00,2023-12-12T15:02:54,0,,active
6130298,46824268,,,Wood Street,,,,Wood Street,,Eldon Street,,,,opp,,SE,ES001670,Greenock,,,GREENOCK,,,,1,,226161,677812,,,BCT,MKD,OTH,,,,129,2003-08-27T00:00:00,2023-12-12T15:02:54,0,,active
6130299,46823643,,,Bentinck Street,,,,Bentinck Street,,Eldon Street,,,,opp,,SE,ES001670,Greenock,,,GREENOCK,,,,1,,226607,677623,,,BCT,MKD,OTH,,,,129,2003-08-27T00:00:00,2023-12-12T15:02:54,0,,active
61303,46823837,,,Woodhall Station,,,,Heggies Avenue,,Glasgow Road,,,,opp,,SE,N0068246,Woodhall,Port Glasgow,,PORT GLASGOW,,,,1,,234269,674051,,,BCT,MKD,OTH,,,,129,2003-08-27T00:00:00,2023-12-12T15:02:54,0,,active
613030,46823876,,,Mansion Avenue,,,,Mansion Avenue,,Parkhill Avenue,,,,at,,SE,ES003052,Port Glasgow,,,PORT GLASGOW,,,,0,,234588,673684,,,BCT,MKD,OTH,,,,129,2003-08-27T00:00:00,2023-12-12T15:02:54,0,,active
6130300,46823479,,,Bentinck Street,,,,Bentinck Street,,Eldon Street,,,,at,,NW,ES001670,Greenock,,,GREENOCK,,,,1,,226643,677589,,,BCT,MKD,OTH,,,,129,2003-08-27T00:00:00,2023-12-12T15:02:54,0,,active
6130301,46823454,,,Madeira Street,,,,Madeira Street,,Eldon Street,,,,opp & after,,SE,ES001670,Greenock,,,GREENOCK,,,,1,,226851,677499,,,BCT,MKD,OTH,,,,129,2003-08-27T00:00:00,2023-12-12T15:02:54,0,,active
6130302,46824247,,,Maderia Street,,,,Maderia Street,,Eldon Street,,,,at,,NW,ES001670,Greenock,,,GREENOCK,,,,1,,226861,677477,,,BCT,MKD,OTH,,,,129,2003-08-27T00:00:00,2023-12-12T15:02:54,0,,active
6130303,46823636,,,Johnston Street,,,,Johnston Street,,Eldon Street,,,,before,,NW,ES001670,Greenock,,,GREENOCK,,,,1,,227025,677345,,,BCT,MKD,OTH,,,,129,2003-08-27T00:00:00,2023-12-12T15:02:54,0,,active
6130304,46823827,,,Johnston Street,,,,No 30,,Eldon Street,,,,after,,SE,ES001670,Greenock,,,GREENOCK,,,,1,,227036,677348,,,BCT,MKD,OTH,,,,129,2003-08-27T00:00:00,2023-12-12T15:02:54,0,,active
6130305,46823797,,,Brougham Street,,,,Margaret Street,,Brougham Street,,,,at 53,,NW,ES001670,Greenock,,,GREENOCK,,,,1,,227129,677197,,,BCT,MKD,OTH,,,,129,2003-08-27T00:00:00,2023-12-12T15:02:54,0,,active
6130306,46823952,,,Margaret Street,,,,After Margaret Street,,Brougham Street,,,,After,,SE,ES001670,Greenock,,,GREENOCK,,,,1,,227144,677201,,,BCT,MKD,OTH,,,,129,2003-08-27T00:00:00,2023-12-12T15:02:54,0,,active
6130307,46823628,,,Campbell Street,,,,Campbell Street,,Brougham Street,,,,after,,NW,ES001670,Greenock,,,GREENOCK,,,,1,,227231,677064,,,BCT,MKD,OTH,,,,129,2003-08-27T00:00:00,2023-12-12T15:02:54,0,,active
6130308,46823276,,,Campbell Street,,,,Campbell Street,,Brougham Street,,,,before,,SE,ES001670,Greenock,,,GREENOCK,,,,1,,227251,677054,,,BCT,MKD,OTH,,,,129,2003-08-27T00:00:00,2023-12-12T15:02:54,0,,active
6130309,46823526,,,Patrick Street,,,,Patrick Street,,Brougham Street,,,,before,,SE,ES001670,Greenock,,,GREENOCK,,,,1,,227421,676867,,,BCT,MKD,OTH,,,,129,2003-08-27T00:00:00,2023-12-12T15:02:54,0,,active
613031,46824323,,,Cumbrae Avenue,,,,Cumbrae Avenue,,Arran Avenue,,,,after,,NW,N0078748,Park Farm,Port Glasgow,,PORT GLASGOW,,,,0,,234660,673390,,,BCT,MKD,OTH,,,,129,2003-08-27T00:00:00,2023-12-12T15:02:54,0,,active
6130310,46823457,,,Robertson Street,,,,,,Brougham Street,,,,after,,NW,ES001670,Greenock,,,GREENOCK,,,,1,,227347,676923,,,BCT,MKD,OTH,,,,129,2003-08-27T00:00:00,2023-12-12T15:02:54,0,,active
6130311,46823593,,,West Stewart Street,,,,Stance 1,,West Stewart Street,,,,Stance 1,,NW,ES001670,Greenock,,,GREENOCK,,,,1,,227632,676358,,,BCS,MKD,OTH,,,,129,2003-08-27T00:00:00,2023-12-12T15:02:54,0,,active
6130312,46823432,,,West Stewart Street,,,,Stance 2,,West Stewart Street,,,,Stance 2,,NW,ES001670,Greenock,,,GREENOCK,,,,1,,227626,676373,,,BCS,MKD,OTH,,,,129,2003-08-27T00:00:00,2023-12-12T15:02:54,0,,active
6130313,46824358,,,West Stewart Street,,,,Stance 3,,West Stewart Street,,,,Stance 3,,NW,ES001670,Greenock,,,GREENOCK,,,,1,,227621,676384,,,BCS,MKD,OTH,,,,129,2003-08-27T00:00:00,2023-12-12T15:02:54,0,,active
6130314,46823637,,,West Stewart Street,,,,Stance 4,,West Stewart Street,,,,Stance 4,,NW,ES001670,Greenock,,,GREENOCK,,,,1,,227616,676397,,,BCS,MKD,OTH,,,,129,2003-08-27T00:00:00,2023-12-12T15:02:54,0,,inactive
6130315,46823524,,,West Stewart Street,,,,Stance 4,,West Stewart Street,,,,Stance 4,,NW,ES001670,Greenock,,,GREENOCK,,,,1,,227610,676410,,,BCS,MKD,OTH,,,,129,2003-08-27T00:00:00,2023-12-12T15:02:54,0,,active
6130317,46823583,,,Stance 5,,,,Nicholson Street,,Kilblain Street,,,,at,,NW,ES001670,Greenock,,,GREENOCK,,,,1,,227566,676309,,,BCS,MKD,OTH,,,,129,2003-08-27T00:00:00,2023-12-12T15:02:54,0,,active
6130318,46823673,,,Stance 6,,,,Nicholson Street,,Kilblain Street,,,,at,,NW,ES001670,Greenock,,,GREENOCK,,,,1,,227561,676320,,,BCS,MKD,OTH,,,,129,2003-08-27T00:00:00,2023-12-12T15:02:54,0,,active
6130319,46823563,,,Stance 7,,,,Nicholson Street,,Kilblain Street,,,,at,,NW,ES001670,Greenock,,,GREENOCK,,,,1,,227559,676330,,,BCS,MKD,OTH,,,,129,2003-08-27T00:00:00,2023-12-12T15:02:54,0,,active
613032,46823646,,,Bute Avenue,,,,Bute Avenue,,Arran Avenue,,,,at,,SE,N0078748,Park Farm,Port Glasgow,,PORT GLASGOW,,,,0,,234691,673389,,,BCT,MKD,OTH,,,,129,2003-08-27T00:00:00,2023-12-12T15:02:54,0,,active
6130320,46824346,,,Stance 8,,,,Nicholson Street,,Kilblain Street,,,,at,,NW,ES001670,Greenock,,,GREENOCK,,,,1,,227555,676341,,,BCS,MKD,OTH,,,,129,2003-08-27T00:00:00,2023-12-12T15:02:54,0,,active
6130321,46823234,,,Newark Street,,,,Newark Street,,Eldon Street,,,,after,,SW,ES001670,Greenock,,,GREENOCK,,,,1,,225283,677387,,,BCT,MKD,OTH,,,,129,2003-08-27T00:00:00,2023-12-12T15:02:54,0,,active
6130322,46824383,,,Manor Crescent,,,,Manor Crescent,,Cardwell Road,,,,before,,SW,N0078735,Cardwell Bay,Gourock,,GOUROCK,,,,1,,225164,677282,,,BCT,MKD,OTH,,,,129,2003-08-27T00:00:00,2023-12-12T15:02:54,0,,active
6130323,46824265,,,Cove Road,,,,Cove Road,,Cardwell Road,,,,before,,NE,N0078735,Cardwell Bay,Gourock,,GOUROCK,,,,1,,225047,677260,,,BCT,MKD,OTH,,,,129,2003-08-27T00:00:00,2023-12-12T15:02:54,0,,active
6130324,46824238,,,Caledonia Crescent,,,,Caledonia Crescent,,Cardwell Road,,,,opp,,NE,N0078735,Cardwell Bay,Gourock,,GOUROCK,,,,1,,224702,677192,,,BCT,MKD,OTH,,,,129,2003-08-27T00:00:00,2023-12-12T15:02:54,0,,active
6130325,46823963,,,Chalmers Street,,,,Chalmers Street,,Shore Street,,,,before,,SE,ES001638,Gourock,,,GOUROCK,,,,1,,224545,677341,,,BCT,MKD,OTH,,,,129,2003-08-27T00:00:00,2023-12-12T15:02:54,0,,active
6130326,46823732,,,Broomberry Drive,,,,Broomberry Drive,,Shore Street,,,,after,,NW,ES001638,Gourock,,,GOUROCK,,,,1,,224563,677307,,,BCT,MKD,OTH,,,,129,2003-08-27T00:00:00,2023-12-12T15:02:54,0,,active
6130327,46823983,,,King Street,,,,King Street,,Shore Street,,,,at,,NW,ES001638,Gourock,,,GOUROCK,,,,1,,224434,677434,,,BCT,MKD,OTH,,,,129,2003-08-27T00:00:00,2023-12-12T15:02:54,0,,active
6130328,46824272,,,King Street,,,,King Street,,Shore Street,,,,opp,,SE,ES001638,Gourock,,,GOUROCK,,,,1,,224411,677475,,,BCT,MKD,OTH,,,,129,2003-08-27T00:00:00,2023-12-12T15:02:54,0,,active
6130329,46823769,,,John Street,,,,John Street,,Shore Street,,,,opp,,SE,ES001638,Gourock,,,GOUROCK,,,,1,,224333,677608,,,BCT,MKD,OTH,,,,129,2003-08-27T00:00:00,2023-12-12T15:02:54,0,,active
613033,46823949,,,Cumbrae Avenue,,,,Cumbrae Avenue,,Arran Avenue,,,,opp,,SW,N0078748,Park Farm,Port Glasgow,,PORT GLASGOW,,,,0,,234569,673248,,,BCT,MKD,OTH,,,,129,2003-08-27T00:00:00,2023-12-12T15:02:54,0,,active
6130330,46823497,,,Kempock Place,,,,Health Centre,,Shore Street,,,,opp,,S,ES001638,Gourock,,,GOUROCK,,,,1,,224256,677819,,,BCT,MKD,OTH,,,,129,2003-08-27T00:00:00,2023-12-12T15:02:54,0,,active
6130331,46823737,,,Station Road,,,,Station Road,,Shore Street,,,,opp,,NW,ES001638,Gourock,,,GOUROCK,,,,1,,224208,677872,,,BCT,MKD,OTH,,,,129,2003-08-27T00:00:00,2023-12-12T15:02:54,0,,inactive
6130332,46823752,,,Railway Station,,,,Gourock Station,,Station Road,,,,stop 1,,NW,ES001638,Gourock,,,GOUROCK,,,,1,,224281,677945,,,BCT,MKD,OTH,,,,129,2003-08-27T00:00:00,2023-12-12T15:02:54,0,,inactive
6130333,46823853,,,Gourock Station 2,,,,Gourock Station 2,,Station Road,,,,Stop,,NE,ES001638,Gourock,,,GOUROCK,,,,1,,224279,677912,,,BCT,MKD,OTH,,,,129,2003-08-27T00:00:00,2023-12-12T15:02:54,0,,inactive
6130334,46823683,,,Railway Station,,,,Gourock,,Station Road,,,,at,,SW,ES001638,Gourock,,,GOUROCK,,,,1,,224244,677942,,,BCT,MKD,OTH,,,,129,2003-08-27T00:00:00,2023-12-12T15:02:54,0,,active
6130335,46823592,,,Station Road,,,,no 70,,Kempock Street,,,,before,,NE,ES001638,Gourock,,,GOUROCK,,,,1,,224033,677878,,,BCT,MKD,OTH,,,,129,2003-08-27T00:00:00,2023-12-12T15:02:54,0,,inactive
6130336,46824294,,,Kempock Street,,,,No 53,,Kempock Street,,,,at,,SW,ES001638,Gourock,,,GOUROCK,,,,1,,224055,677883,,,BCT,MKD,OTH,,,,129,2003-08-27T00:00:00,2023-12-12T15:02:54,0,,active
6130337,46823792,,,Albert Road,,,,No 33,,Albert Road,,,,at 33,,SW,ES001638,Gourock,,,GOUROCK,,,,1,,223862,677677,,,BCT,MKD,OTH,,,,129,2003-08-27T00:00:00,2023-12-12T15:02:54,0,,active
6130338,46823456,,,Albert Road,,,,Outdoor Pool,,Albert Road,,,,opp 26,,NE,ES001638,Gourock,,,GOUROCK,,,,1,,223880,677731,,,BCT,MKD,OTH,,,,129,2003-08-27T00:00:00,2023-12-12T15:02:54,0,,active
6130339,46823959,,,Hillside Road,,,,Hillside Road,,Albert Road,,,,at,,SW,N0078734,Ashton,Gourock,,GOUROCK,,,,1,,223598,677401,,,BCT,MKD,OTH,,,,129,2003-08-27T00:00:00,2023-12-12T15:02:54,0,,active
613034,46823426,,,Lismore Avenue,,,,Lismore Avenue,,Arran Avenue,,,,opp,,NE,N0078748,Park Farm,Port Glasgow,,PORT GLASGOW,,,,0,,234498,673240,,,BCT,MKD,OTH,,,,129,2003-08-27T00:00:00,2023-12-12T15:02:54,0,,active
6130340,46823857,,,Hillside Road,,,,Hillside Road,,Albert Road,,,,opp,,NE,N0078734,Ashton,Gourock,,GOUROCK,,,,1,,223596,677410,,,BCT,MKD,OTH,,,,129,2003-08-27T00:00:00,2023-12-12T15:02:54,0,,active
6130341,46823894,,,Ashburn Gate,,,,Ashburn Gate,,Albert Road,,,,at,,SW,N0078734,Ashton,Gourock,,GOUROCK,,,,1,,223448,677265,,,BCT,MKD,OTH,,,,129,2003-08-27T00:00:00,2023-12-12T15:02:54,0,,active
6130342,46823525,,,Ashburn Gardens,,,,Ashburn Gardens,,Albert Road,,,,opp,,NE,N0078734,Ashton,Gourock,,GOUROCK,,,,1,,223403,677240,,,BCT,MKD,OTH,,,,129,2003-08-27T00:00:00,2023-12-12T15:02:54,0,,active
6130343,46824328,,,Ashton Place,,,,no 20,,Ashton Road,,,,after,,SW,N0078734,Ashton,Gourock,,GOUROCK,,,,1,,223206,677152,,,BCT,MKD,OTH,,,,129,2003-08-27T00:00:00,2023-12-12T15:02:54,0,,active
6130344,46823267,,,Ashton Place,,,,No 20,,Ashton Road,,,,opp,,NE,N0078734,Ashton,Gourock,,GOUROCK,,,,1,,223207,677162,,,BCT,MKD,OTH,,,,129,2003-08-27T00:00:00,2023-12-12T15:02:54,0,,active
6130345,46823582,,,Victoria Road,,,,Yacht Club,,Ashton Road,,,,after,,SW,N0078734,Ashton,Gourock,,GOUROCK,,,,1,,223004,677101,,,BCT,MKD,OTH,,,,129,2003-08-27T00:00:00,2023-12-12T15:02:54,0,,active
6130346,46823864,,,Royal Gourock Yacht Club,,,,Victoria Road,,Ashton Road,,,,before,,NE,N0078734,Ashton,Gourock,,GOUROCK,,,,1,,222969,677103,,,BCT,MKD,OTH,,,,129,2003-08-27T00:00:00,2023-12-12T15:02:54,0,,active
6130347,46824248,,,Cloch Road,,,,No 14,,Cloch Road,,,,opp 14,,NE,N0078734,Ashton,Gourock,,GOUROCK,,,,1,,222725,676984,,,BCT,MKD,OTH,,,,129,2003-08-27T00:00:00,2023-12-12T15:02:54,0,,active
6130348,46823725,,,Cloch Road,,,,No 15,,Cloch Road,,,,at 15,,SW,N0078734,Ashton,Gourock,,GOUROCK,,,,1,,222706,676969,,,BCT,MKD,OTH,,,,129,2003-08-27T00:00:00,2023-12-12T15:02:54,0,,active
6130349,46824345,,,Cloch Brae,,,,Cloch Brae,,Cloch Road,,,,after,,SW,N0078734,Ashton,Gourock,,GOUROCK,,,,1,,222403,676864,,,BCT,MKD,OTH,,,,129,2003-08-27T00:00:00,2023-12-12T15:02:54,0,,active
613035,46824356,,,Mull Avenue,,,,Mull Avenue,,Oronsay Avenue,,,,before,,N,N0078748,Park Farm,Port Glasgow,,PORT GLASGOW,,,,0,,234486,673022,,,BCT,MKD,OTH,,,,129,2003-08-27T00:00:00,2023-12-12T15:02:54,0,,inactive
6130350,46823239,,,McInroys Point,,,,McInroys Point,,Cloch Road,,,,opp,,W,N0072858,Levan,Gourock,,GOUROCK,,,,1,,222039,676766,,,BCT,MKD,OTH,,,,129,2003-08-27T00:00:00,2023-12-12T15:02:54,0,,active
6130351,46823424,,,McInroys Point,,,,McInroys Point,,Cloch Road,,,,at,,E,N0072858,Levan,Gourock,,GOUROCK,,,,1,,222014,676780,,,BCT,MKD,OTH,,,,129,2003-08-27T00:00:00,2023-12-12T15:02:54,0,,active
6130352,46823726,,,Cameron Court,,,,Cameron Court,,Cloch Road,,,,at,,SW,N0072858,Levan,Gourock,,GOUROCK,,,,1,,221808,676700,,,BCT,MKD,OTH,,,,129,2003-08-27T00:00:00,2023-12-12T15:02:54,0,,active
6130353,46823826,,,Cameron Court,,,,Cameron Court,,Cloch Road,,,,opp,,NE,N0072858,Levan,Gourock,,GOUROCK,,,,1,,221793,676698,,,BCT,MKD,OTH,,,,129,2003-08-27T00:00:00,2023-12-12T15:02:54,0,,active
6130354,46824292,,,Dunvegan Avenue,,,,Dunvegan Avenue,,Cloch Road,,,,opp,,NE,N0072858,Levan,Gourock,,GOUROCK,,,,1,,221423,676474,,,BCT,MKD,OTH,,,,129,2003-08-27T00:00:00,2023-12-12T15:02:54,0,,active
6130355,46823982,,,Cloch Caravan Park,,,,Cloch Caravan Park,,A770,,,,opp,,NE,N0072858,Levan,Gourock,,GOUROCK,,,,0,,220613,676049,,,BCT,MKD,OTH,,,,129,2003-08-27T00:00:00,2023-12-12T15:02:54,0,,active
6130356,46823627,,,Daff Avenue,,,,Daff Avenue,,Main Street,,,,opp,,NE,ES001874,Inverkip,,,INVERKIP,,,,1,,220882,672211,,,BCT,MKD,OTH,,,,129,2003-08-27T00:00:00,2023-12-12T15:02:54,0,,active
6130357,46823939,,,Daff Avenue,,,,Daff Avenue,,Main Street,,,,at,,SW,ES001874,Inverkip,,,INVERKIP,,,,1,,220893,672203,,,BCT,MKD,OTH,,,,129,2003-08-27T00:00:00,2023-12-12T15:02:54,0,,active
6130358,46823698,,,Police Station,,,,Police Station,,Main Street,,,,opp,,SW,ES001874,Inverkip,,,INVERKIP,,,,1,,220608,672045,,,BCT,MKD,OTH,,,,129,2003-08-27T00:00:00,2023-12-12T15:02:54,0,,active
6130359,46823852,,,Police Station,,,,Police Station,,Main Street,,,,at,,NE,ES001874,Inverkip,,,INVERKIP,,,,1,,220611,672057,,,BCT,MKD,OTH,,,,129,2003-08-27T00:00:00,2023-12-12T15:02:54,0,,active
613036,46823562,,,Oronsay Avenue,,,,No 124,,Oronsay Avenue,,,,before 124,,NW,N0078748,Park Farm,Port Glasgow,,PORT GLASGOW,,,,0,,234609,672825,,,BCT,MKD,OTH,,,,129,2003-08-27T00:00:00,2023-12-12T15:02:54,0,,active
6130360,46823639,,,Station Avenue,,,,Station Avenue,,Main Street,,,,at,,SW,ES001874,Inverkip,,,INVERKIP,,,,1,,220463,671975,,,BCT,MKD,OTH,,,,129,2003-08-27T00:00:00,2023-12-12T15:02:54,0,,active
6130361,46823783,,,North Lodge,,,,Ardgowan Road,,Greenock Road,,,,opp,,S,ES003798,Wemyss Bay,,,WEMYSS BAY,,,,1,,219605,670214,,,BCT,MKD,OTH,,,,129,2003-08-27T00:00:00,2023-12-12T15:02:54,0,,active
6130362,46823527,,,North Lodge,,,,Ardgowan Road,,Greenock Road,,,,at,,N,ES003798,Wemyss Bay,,,WEMYSS BAY,,,,1,,219574,670116,,,BCT,MKD,OTH,,,,129,2003-08-27T00:00:00,2023-12-12T15:02:54,0,,active
6130363,46824258,,,Forbes Place,,,,St Joseph's Church,,Greenock Road,,,,opp,,S,ES003798,Wemyss Bay,,,WEMYSS BAY,,,,1,,219535,669870,,,BCT,MKD,OTH,,,,129,2003-08-27T00:00:00,2023-12-12T15:02:54,0,,active
6130364,46823472,,,Forbes Place,,,,St Joseph's church,,Greenock Road,,,,at,,N,ES003798,Wemyss Bay,,,WEMYSS BAY,,,,1,,219524,669854,,,BCT,MKD,OTH,,,,129,2003-08-27T00:00:00,2023-12-12T15:02:54,0,,active
6130365,46823763,,,Cliff Terrace Road,,,,Cliff Terrace Road,,Greenock Road,,,,opp,,S,ES003798,Wemyss Bay,,,WEMYSS BAY,,,,1,,219465,669497,,,BCT,MKD,OTH,,,,129,2003-08-27T00:00:00,2023-12-12T15:02:54,0,,active
6130366,46823676,,,Cliff Terrace Road,,,,Cliff Terrace Road,,Greenock Road,,,,at,,N,ES003798,Wemyss Bay,,,WEMYSS BAY,,,,1,,219455,669488,,,BCT,MKD,OTH,,,,129,2003-08-27T00:00:00,2023-12-12T15:02:54,0,,active
6130367,46824384,,,The Meadows,,,,The Meadows,,Greenock Road,,,,opp,,N,ES003798,Wemyss Bay,,,WEMYSS BAY,,,,1,,219403,668944,,,BCT,MKD,OTH,,,,129,2003-08-27T00:00:00,2023-12-12T15:02:54,0,,active
6130368,46823569,,,Bathfield,,,,Bathfield,,Greenock Road,,,,before,,S,ES003798,Wemyss Bay,,,WEMYSS BAY,,,,1,,219411,668910,,,BCT,MKD,OTH,,,,129,2003-08-27T00:00:00,2023-12-12T15:02:54,0,,active
6130369,46823793,,,Wemyss Bay Station,,,,Ferry Terminal,,Greenock Road,,,,at,,N,ES003798,Wemyss Bay,,,WEMYSS BAY,,,,1,,219370,668517,,,BCT,MKD,OTH,,,,129,2003-08-27T00:00:00,2023-12-12T15:02:54,0,,active
613037,46824382,,,Lismore Avenue,,,,Lismore Avenue,,Mull Avenue,,,,at,,NE,N0078748,Park Farm,Port Glasgow,,PORT GLASGOW,,,,0,,234554,673107,,,BCT,MKD,OTH,,,,129,2003-08-27T00:00:00,2023-12-12T15:02:54,0,,active
6130370,46824242,,,Wemyss Bay Station,,,,Ferry Terminal,,Greenock Road,,,,opp,,S,ES003798,Wemyss Bay,,,WEMYSS BAY,,,,1,,219387,668514,,,BCT,MKD,OTH,,,,129,2003-08-27T00:00:00,2023-12-12T15:02:54,0,,active
6130371,46823973,,,IBM Factory,,,,IBM,,Inverkip Road,,,,at,,SW,N0068219,Spango,Greenock,,GREENOCK,,,,1,,223197,674471,,,BCT,MKD,OTH,,,,129,2003-08-27T00:00:00,2023-12-12T15:02:54,0,,active
6130372,46823528,,,IBM Factory,,,,IBM,,Inverkip Road,,,,opp,,NE,N0068219,Spango,Greenock,,GREENOCK,,,,1,,223210,674517,,,BCT,MKD,OTH,,,,129,2003-08-27T00:00:00,2023-12-12T15:02:54,0,,active
6130373,46824275,,,Hilltop Road,,,,Hilltop Road,,Larkfield Road,,,,after,,SW,ES001638,Gourock,,,GOUROCK,,,,0,,224403,676477,,,BCT,MKD,OTH,,,,129,2003-08-27T00:00:00,2023-12-12T15:02:54,0,,active
6130374,46823286,,,Reservoir Road,,,,Grenville Road,,Larkfield Road,,,,before,,N,N0078735,Cardwell Bay,Gourock,,GOUROCK,,,,0,,224518,676795,,,BCT,MKD,OTH,,,,129,2003-08-27T00:00:00,2023-12-12T15:02:54,0,,active
6130375,46824352,,,Reservoir Road,,,,Reservoir Road,,Larkfield Road,,,,after,,S,N0078735,Cardwell Bay,Gourock,,GOUROCK,,,,0,,224536,676822,,,BCT,MKD,OTH,,,,129,2003-08-27T00:00:00,2023-12-12T15:02:54,0,,active
6130376,46824252,,,Rodney Road,,,,Rodney Road,,Reservoir Road,,,,at,,E,N0078735,Cardwell Bay,Gourock,,GOUROCK,,,,0,,224571,676844,,,BCT,MKD,OTH,,,,129,2003-08-27T00:00:00,2023-12-12T15:02:54,0,,active
6130377,46823484,,,Rodney Road,,,,Rodney Road,,Reservoir Road,,,,opp,,W,N0078735,Cardwell Bay,Gourock,,GOUROCK,,,,0,,224587,676834,,,BCT,MKD,OTH,,,,129,2003-08-27T00:00:00,2023-12-12T15:02:54,0,,active
613038,46823724,,,Netherton Avenue,,,,Netherton Avenue,,Arran Avenue,,,,at,,SE,N0078748,Park Farm,Port Glasgow,,PORT GLASGOW,,,,0,,234305,673189,,,BCT,MKD,OTH,,,,129,2003-08-27T00:00:00,2023-12-12T15:02:54,0,,inactive
6130384,46823842,,,Craigmuschat Road,,,,Craigmuschat Road,,Drumshantie Road,,,,at,,NE,ES001638,Gourock,,,GOUROCK,,,,0,,224260,676983,,,BCT,MKD,OTH,,,,129,2003-08-27T00:00:00,2023-12-12T15:02:54,0,,active
6130385,46823836,,,Craigmuschat Road,,,,Craigmuschat Road,,Drumshantie Road,,,,opp,,SW,ES001638,Gourock,,,GOUROCK,,,,0,,224256,676970,,,BCT,MKD,OTH,,,,129,2003-08-27T00:00:00,2023-12-12T15:02:54,0,,active
6130386,46824525,,,Fire Station,,,,Fire Station,,George Road,,,,at,,W,ES001638,Gourock,,,GOUROCK,,,,0,,224162,676640,,,BCT,MKD,OTH,,,,129,2003-08-27T00:00:00,2023-12-12T15:02:54,0,,active
6130387,46823825,,,Stevens Place,,,,Stevens Place,,George Road,,,,opp,,SE,ES001638,Gourock,,,GOUROCK,,,,0,,224326,676660,,,BCT,MKD,OTH,,,,129,2003-08-27T00:00:00,2023-12-12T15:02:54,0,,active
6130388,46823785,,,Mathie Crescent,,,,Mathie Crescent,,George Road,,,,at,,NW,ES001638,Gourock,,,GOUROCK,,,,0,,224418,676609,,,BCT,MKD,OTH,,,,129,2003-08-27T00:00:00,2023-12-12T15:02:54,0,,active
6130389,46823934,,,Skye Crescent,,,,Skye Crescent,,Kirn Drive,,,,opp,,W,N0072859,Midton,Gourock,,GOUROCK,,,,0,,223546,676647,,,BCT,MKD,OTH,,,,129,2003-08-27T00:00:00,2023-12-12T15:02:54,0,,active
613039,46823928,,,Arran Avenue,,,,Arran Avenue,,Kilmacolm Road,,,,opp,,NW,N0078744,Bardrainney,Port Glasgow,,PORT GLASGOW,,,,0,,234162,673113,,,BCT,MKD,OTH,,,,129,2003-08-27T00:00:00,2023-12-12T15:02:54,0,,active
6130390,46823438,,,Moorfoot Drive,,,,Moorfoot Drive,,Kirn Drive,,,,before,,NW,N0072859,Midton,Gourock,,GOUROCK,,,,0,,223343,676723,,,BCT,MKD,OTH,,,,129,2003-08-27T00:00:00,2023-12-12T15:02:54,0,,active
6130391,46823658,,,Ailsa Road,,,,Ailsa Road,,Divert Road,,,,opp,,E,N0072859,Midton,Gourock,,GOUROCK,,,,0,,223283,676920,,,BCT,MKD,OTH,,,,129,2003-08-27T00:00:00,2023-12-12T15:02:54,0,,active
6130392,46824348,,,Bute Street,,,,Bute Street,,Divert Road,,,,opp,,NE,N0072859,Midton,Gourock,,GOUROCK,,,,0,,223514,676958,,,BCT,MKD,OTH,,,,129,2003-08-27T00:00:00,2023-12-12T15:02:54,0,,active
6130393,46823926,,,Jacobs Drive,,,,Jacobs Drive,,Tower Drive,,,,at,,E,N0072859,Midton,Gourock,,GOUROCK,,,,0,,223751,676895,,,BCT,MKD,OTH,,,,129,2003-08-27T00:00:00,2023-12-12T15:02:54,0,,active
6130394,46823495,,,Rose Crescent,,,,Rose Crescent,,Arran Road,,,,at,,S,N0072859,Midton,Gourock,,GOUROCK,,,,0,,223782,676799,,,BCT,MKD,OTH,,,,129,2003-08-27T00:00:00,2023-12-12T15:02:54,0,,active
6130395,46823824,,,Glenbervie Place,,,,Glenbervie Place,,St Andrews Drive,,,,at,,SE,N0078736,Trumpethill,Gourock,,GOUROCK,,,,0,,222605,676718,,,BCT,MKD,OTH,,,,129,2003-08-27T00:00:00,2023-12-12T15:02:54,0,,active
6130396,46823625,,,Kingsway,,,,Kingsway,,Tower Drive,,,,opp,,E,N0072859,Midton,Gourock,,GOUROCK,,,,0,,223951,676901,,,BCT,MKD,OTH,,,,129,2003-08-27T00:00:00,2023-12-12T15:02:54,0,,active
6130397,46823736,,,Kingsway,,,,Kingsway,,Tower Drive,,,,at,,W,N0072859,Midton,Gourock,,GOUROCK,,,,0,,223959,676883,,,BCT,MKD,OTH,,,,129,2003-08-27T00:00:00,2023-12-12T15:02:54,0,,active
6130398,46823429,,,Ivy Crescent,,,,Ivy Crescent,,Tower Drive,,,,at,,W,N0072859,Midton,Gourock,,GOUROCK,,,,0,,224100,676898,,,BCT,MKD,OTH,,,,129,2003-08-27T00:00:00,2023-12-12T15:02:54,0,,active
6130399,46823696,,,Upper Merlindale,,,,Upper Merlindale,,Port Glasgow Road,,,,at,,SE,ES002001,Kilmacolm,,,KILMACOLM,,,,0,,235390,670380,,,BCT,MKD,OTH,,,,129,2003-08-27T00:00:00,2023-12-12T15:02:54,0,,active
61304,46824278,,,Glasgow Road,,,,No 57,,Glasgow Road,,,,at 57,,E,ES003052,Port Glasgow,,,PORT GLASGOW,,,,0,,233660,674152,,,BCT,MKD,OTH,,,,129,2003-08-27T00:00:00,2023-12-12T15:02:54,0,,active
613040,46824362,,,Arran Avenue,,,,Arran Avenue,,Kilmacolm Road,,,,at,,SE,N0078744,Bardrainney,Port Glasgow,,PORT GLASGOW,,,,0,,234190,673086,,,BCT,MKD,OTH,,,,129,2003-08-27T00:00:00,2023-12-12T15:02:54,0,,active
6130400,46823282,,,Upper Merlindale,,,,Upper Merlindale,,Port Glasgow Road,,,,opp,,NW,ES002001,Kilmacolm,,,KILMACOLM,,,,0,,235395,670370,,,BCT,MKD,OTH,,,,129,2003-08-27T00:00:00,2023-12-12T15:02:54,0,,active
6130401,46823654,,,Carnmhor,,,,Carnmhor,,Port Glasgow Road,,,,at,,SE,ES002001,Kilmacolm,,,KILMACOLM,,,,0,,235634,670278,,,BCT,MKD,OTH,,,,129,2003-08-27T00:00:00,2023-12-12T15:02:54,0,,inactive
6130402,46824287,,,Cherrytrees,,,,Cherrytrees,,Port Glasgow Road,,,,opp,,NW,ES002001,Kilmacolm,,,KILMACOLM,,,,0,,235663,670221,,,BCT,MKD,OTH,,,,129,2003-08-27T00:00:00,2023-12-12T15:02:54,0,,active
6130403,46823697,,,Market Place,,,,Market Place,,Port Glasgow Road,,,,at,,S,ES002001,Kilmacolm,,,KILMACOLM,,,,1,,235825,669937,,,BCT,MKD,OTH,,,,129,2003-08-27T00:00:00,2023-12-12T15:02:54,0,,active
6130404,46823259,,,Moss Road,,,,Moss Road,,Bridge of Weir Road,,,,opp,,N,ES002001,Kilmacolm,,,KILMACOLM,,,,1,,235833,669842,,,BCT,MKD,OTH,,,,129,2003-08-27T00:00:00,2023-12-12T15:02:54,0,,active
6130405,46823728,,,Glebe Road,,,,Glebe Road,,Bridge of Weir Road,,,,before,,N,ES002001,Kilmacolm,,,KILMACOLM,,,,0,,235903,669663,,,BCT,MKD,OTH,,,,129,2003-08-27T00:00:00,2023-12-12T15:02:54,0,,active
6130406,46823459,,,Glebe Road,,,,Glebe Road,,Bridge of Weir Road,,,,opp,,S,ES002001,Kilmacolm,,,KILMACOLM,,,,0,,235912,669645,,,BCT,MKD,OTH,,,,129,2003-08-27T00:00:00,2023-12-12T15:02:54,0,,active
6130407,46824359,,,Porterfield Road,,,,Porterfield Road,,Bridge of Weir Road,,,,before,,S,ES002001,Kilmacolm,,,KILMACOLM,,,,0,,235953,669417,,,BCT,MKD,OTH,,,,129,2003-08-27T00:00:00,2023-12-12T15:02:54,0,,active
6130408,46824236,,,Porterfield Road,,,,Porterfield Road,,Bridge of Weir Road,,,,at,,N,ES002001,Kilmacolm,,,KILMACOLM,,,,0,,235955,669373,,,BCT,MKD,OTH,,,,129,2003-08-27T00:00:00,2023-12-12T15:02:54,0,,active
6130409,46823486,,,Houston Road,,,,Houston Road,,Bridge of Weir Road,,,,before,,SE,ES002001,Kilmacolm,,,KILMACOLM,,,,0,,236145,669148,,,BCT,MKD,OTH,,,,129,2003-08-27T00:00:00,2023-12-12T15:02:54,0,,active
6130410,46823953,,,Gryffe Road,,,,Gryffe Road,,Bridge of Weir Road,,,,after,,N,ES002001,Kilmacolm,,,KILMACOLM,,,,0,,236286,668872,,,BCT,MKD,OTH,,,,129,2003-08-27T00:00:00,2023-12-12T15:02:54,0,,active
6130412,46823687,,,Quarriers Village,,,,Quarriers Village,,Bridge of Weir Road,,,,at,,NW,N0068194,Quarriers Village,,,KILMACOLM,,,,0,,236485,667762,,,BCT,MKD,OTH,,,,129,2003-08-27T00:00:00,2023-12-12T15:02:54,0,,inactive
6130413,,,,Epilepsy Centre,,,,Epilepsy Centre,,Quarriers village,,,,at,,W,N0068194,Quarriers Village,,,QUARRIERS VILLAGE,,,,1,,235922,667001,,,BCT,MKD,OTH,,,,129,2003-08-27T00:00:00,2023-12-12T15:02:54,0,,inactive
6130417,46823859,,,Houston Road,,,,Houston Road,,Bridge of Weir Road,,,,after,,NW,ES002001,Kilmacolm,,,KILMACOLM,,,,0,,236113,669166,,,BCT,MKD,OTH,,,,129,2003-08-27T00:00:00,2023-12-12T15:02:54,0,,active
6130418,46823924,,,Hillside Avenue,,,,Hillside Avenue,,Wateryetts Drive,,,,opp,,NE,ES002001,Kilmacolm,,,KILMACOLM,,,,0,,235637,670439,,,BCT,MKD,OTH,,,,129,2003-08-27T00:00:00,2023-12-12T15:02:54,0,,active
6130419,46823969,,,Wateryetts Drive,,,,Wateryetts Drive,,Port Glasgow Road,,,,opp,,SE,ES002001,Kilmacolm,,,KILMACOLM,,,,0,,235588,670312,,,BCT,MKD,OTH,,,,129,2003-08-27T00:00:00,2023-12-12T15:02:54,0,,active
6130420,46823653,,,Magdala,,,,Magdala,,Port Glasgow Road,,,,opp,,NW,ES002001,Kilmacolm,,,KILMACOLM,,,,0,,235540,670325,,,BCT,MKD,OTH,,,,129,2003-08-27T00:00:00,2023-12-12T15:02:54,0,,active
6130422,46824327,,,Quarry Road,,,,Quarry Road,,Moss Road,,,,at,,NE,N0078744,Bardrainney,Port Glasgow,,PORT GLASGOW,,,,0,,233965,673198,,,BCT,MKD,OTH,,,,129,2003-08-27T00:00:00,2023-12-12T15:02:54,0,,active
6130423,46824256,,,Burnhead Street,,,,Burnhead Street,,Kilmacolm Road,,,,at,,SE,N0078743,Strone Farm,Greenock,,GREENOCK,,,,0,,228848,674741,,,BCT,MKD,OTH,,,,129,2003-08-27T00:00:00,2023-12-12T15:02:54,0,,active
6130424,46823537,,,Burns Road,,,,Burns Road,,Braeside Road,,,,before,,E,N0072853,Braeside,Greenock,,GREENOCK,,,,0,,223914,675338,,,BCT,MKD,OTH,,,,129,2003-08-27T00:00:00,2023-12-12T15:02:54,0,,active
6130425,46823798,,,Baker Street,,,,Baker Street,,Ingleston Street,,,,at,,NW,ES001670,Greenock,,,GREENOCK,,,,0,,228327,675489,,,BCT,MKD,OTH,,,,129,2003-08-27T00:00:00,2023-12-12T15:02:54,0,,inactive
6130426,46823496,,,Adam Street,,,,Adam Street,,Cardwell Road,,,,opp,,SW,N0078735,Cardwell Bay,Gourock,,GOUROCK,,,,1,,224853,677210,,,BCT,MKD,OTH,,,,129,2003-08-27T00:00:00,2023-12-12T15:02:54,0,,active
6130427,46824396,,,Woodrow Avenue,,,,Woodrow Avenue,,Port Glasgow Road,,,,at,,SE,ES002001,Kilmacolm,,,KILMACOLM,,,,0,,235731,670133,,,BCT,MKD,OTH,,,,129,2003-08-27T00:00:00,2023-12-12T15:02:54,0,,active
6130428,46824269,,,Poplar Street,,,,Poplar Street,,Lansbury Street,,,,at,,NW,ES001508,Gibshill,Port Glasgow,,GREENOCK,,,,0,,230565,674745,,,BCT,MKD,OTH,,,,129,2003-08-27T00:00:00,2023-12-12T15:02:54,0,,active
613043,46823489,,,Auchenbothie Road,,,,Auchenbothie Road,,Dubbs Road,,,,at,,SW,N0078745,Boglestone,Port Glasgow,,PORT GLASGOW,,,,0,,233571,673330,,,BCT,MKD,OTH,,,,129,2003-08-27T00:00:00,2023-12-12T15:02:54,0,,inactive
6130430,46823423,,,Cigna Healthcare,,,,Cigna Healthcare,,Main Street,,,,opp,,W,ES001670,Greenock,,,GREENOCK,,,,1,,228993,675650,,,BCT,MKD,OTH,,,,129,2003-08-27T00:00:00,2023-12-12T15:02:54,0,,inactive
6130431,46824393,,,Sinclair Street,,,,Sinclair Street,,East Hamilton Street,,,,opp,,SE,ES001670,Greenock,,,GREENOCK,,,,1,,229851,675487,,,BCT,MKD,OTH,,,,129,2003-08-27T00:00:00,2023-12-12T15:02:54,0,,active
6130432,46823947,,,St Andrews Lane,,,,St Andrews Lane,,St Andrews Drive,,,,before,,NE,N0078736,Trumpethill,Gourock,,GOUROCK,,,,0,,222152,676612,,,BCT,MKD,OTH,,,,129,2003-08-27T00:00:00,2023-12-12T15:02:54,0,,active
6130434,46824924,,,Prospecthill Street,,,,Prospecthill Street,,Ann Street,,,,after,,NE,ES001670,Greenock,,,GREENOCK,,,,0,,227484,675640,,,BCT,MKD,OTH,,,,129,2003-08-27T00:00:00,2023-12-12T15:02:54,0,,active
6130435,46824347,,,Galt Street,,,,Galt Street,,Bawhirley Road,,,,after,,SW,N0078738,Bridgend,Greenock,,GREENOCK,,,,0,,229163,675288,,,BCT,MKD,OTH,,,,129,2003-08-27T00:00:00,2023-12-12T15:02:54,0,,active
6130436,46823958,,,Belville Avenue,,,,Belville Avenue,,Belville Street,,,,opp,,NE,ES001670,Greenock,,,GREENOCK,,,,0,,228838,675362,,,BCT,MKD,OTH,,,,129,2003-08-27T00:00:00,2023-12-12T15:02:54,0,,active
6130437,46823645,,,Battery Park,,,,Battery Park,,Eldon Street,,,,opp,,SW,ES001670,Greenock,,,GREENOCK,,,,1,,225467,677566,,,BCT,MKD,OTH,,,,129,2003-08-27T00:00:00,2023-12-12T15:02:54,0,,active
613044,46824395,,,Crosshill Road,,,,Crosshill Road,,Dubbs Road,,,,at,,NE,N0078745,Boglestone,Port Glasgow,,PORT GLASGOW,,,,0,,233509,673240,,,BCT,MKD,OTH,,,,129,2003-08-27T00:00:00,2023-12-12T15:02:54,0,,active
6130441,46824232,,,Greenock High School,,,,Greenock High School,,Inverkip Road,,,,at,,SW,N0072853,Braeside,Greenock,,GREENOCK,,,,1,,223923,675000,,,BCT,MKD,OTH,,,,129,2003-08-27T00:00:00,2023-12-12T15:02:54,0,,active
6130442,46824386,,,Broadfield Avenue,,,,Broadfield Avenue,,Parkhill Avenue,,,,after,,NW,ES003052,Port Glasgow,,,PORT GLASGOW,,,,0,,234456,673711,,,BCT,MKD,OTH,,,,129,2003-08-27T00:00:00,2023-12-12T15:02:54,0,,active
6130443,46823564,,,Stance 1,,,,Nicholson Street,,Kilblain Street,,,,at,,SE,ES001670,Greenock,,,GREENOCK,,,,1,,227571,676349,,,BCS,MKD,OTH,,,,129,2003-08-27T00:00:00,2023-12-12T15:02:54,0,,active
6130444,46823462,,,Stance 2,,,,Nicholson Street,,Kilblain Street,,,,at,,SE,ES001670,Greenock,,,GREENOCK,,,,1,,227575,676337,,,BCS,MKD,OTH,,,,129,2003-08-27T00:00:00,2023-12-12T15:02:54,0,,active
6130445,46823292,,,Stance 3,,,,Nicholson Street,,Kilblain Street,,,,at,,SE,ES001670,Greenock,,,GREENOCK,,,,1,,227578,676327,,,BCS,MKD,OTH,,,,129,2003-08-27T00:00:00,2023-12-12T15:02:54,0,,active
6130446,46823754,,,Stance 4,,,,Stance H,,Kilblain Street,,,,at,,SE,ES001670,Greenock,,,GREENOCK,,,,1,,227581,676316,,,BCS,MKD,OTH,,,,129,2003-08-27T00:00:00,2023-12-12T15:02:54,0,,active
6130447,46823536,,,Stance I,,,,Nicholson Street,,Kilblain Street,,,,at,,SE,ES001670,Greenock,,,GREENOCK,,,,1,,227586,676307,,,BCS,MKD,OTH,,,,129,2003-08-27T00:00:00,2023-12-12T15:02:54,0,,inactive
613045,46823938,,,Morar Road,,,,Morar Road,,Dubbs Road,,,,at,,SW,N0078745,Boglestone,Port Glasgow,,PORT GLASGOW,,,,0,,233475,673211,,,BCT,MKD,OTH,,,,129,2003-08-27T00:00:00,2023-12-12T15:02:54,0,,inactive
6130450,46823689,,,Rankin Street,,,,Rankin Street,,Bow Road,,,,at,,SE,ES001670,Greenock,,,GREENOCK,,,,0,,226614,675944,,,BCT,MKD,OTH,,,,129,2003-08-27T00:00:00,2023-12-12T15:02:54,0,,active
6130453,46823742,,,Nicolson Street,,,,Stance 9,,Nicolson Street,,,,Stance 9,,SW,ES001670,Greenock,,,GREENOCK,,,,1,,227523,676362,,,BCS,MKD,OTH,,,,129,2003-08-27T00:00:00,2023-12-12T15:02:54,0,,inactive
6130454,46823284,,,Nicolson Street,,,,Stance 10,,Nicolson Street,,,,Stance 10,,SW,ES001670,Greenock,,,GREENOCK,,,,1,,227509,676357,,,BCS,CUS,OTH,,,,129,2003-08-27T00:00:00,2023-12-12T15:02:54,0,,active
6130455,46823862,,,Nicolson Street,,,,Stance 11,,Nicolson Street,,,,Stance 11,,SW,ES001670,Greenock,,,GREENOCK,,,,1,,227494,676353,,,BCS,MKD,OTH,,,,129,2003-08-27T00:00:00,2023-12-12T15:02:54,0,,active
6130456,46823572,,,Nicolson Street,,,,Stance 12,,Nicolson Street,,,,Stance 12,,SW,ES001670,Greenock,,,GREENOCK,,,,1,,227476,676349,,,BCS,MKD,OTH,,,,129,2003-08-27T00:00:00,2023-12-12T15:02:54,0,,inactive
6130457,46824234,,,Nicolson Street,,,,Stance 13,,Nicolson Street,,,,Stance 13,,SW,ES001670,Greenock,,,GREENOCK,,,,1,,227463,676344,,,BCS,MKD,OTH,,,,129,2003-08-27T00:00:00,2023-12-12T15:02:54,0,,active
6130458,46823838,,,John Street,,,,John Street,,Shore Street,,,,before,,N,ES001638,Gourock,,,GOUROCK,,,,1,,224318,677608,,,BCT,MKD,OTH,,,,129,2003-08-27T00:00:00,2023-12-12T15:02:54,0,,active
6130459,46823656,,,Cloch Brae,,,,Cloch Brae,,Cloch Road,,,,opp,,NE,N0078734,Ashton,Gourock,,GOUROCK,,,,1,,222387,676871,,,BCT,MKD,OTH,,,,129,2003-08-27T00:00:00,2023-12-12T15:02:54,0,,active
613046,46823243,,,Gryffe Road,,,,Gryffe Road,,Dubbs Road,,,,at,,SE,N0078745,Boglestone,Port Glasgow,,PORT GLASGOW,,,,0,,233329,673314,,,BCT,MKD,OTH,,,,129,2003-08-27T00:00:00,2023-12-12T15:02:54,0,,active
6130460,46823965,,,Dungaven Road,,,,Dungaven Road,,Cloch Road,,,,at,,SW,N0072858,Levan,Gourock,,GOUROCK,,,,1,,221450,676471,,,BCT,MKD,OTH,,,,129,2003-08-27T00:00:00,2023-12-12T15:02:54,0,,active
6130461,46823686,,,Bogside Road,,,,Bogside Road,,Northfield Avenue,,,,opp,,SE,N0078746,Broadfield,Port Glasgow,,PORT GLASGOW,,,,0,,233981,673715,,,BCT,MKD,OTH,,,,129,2003-08-27T00:00:00,2023-12-12T15:02:54,0,,inactive
6130462,46823967,,,Gibshill Road,,,,IMO Car Wash,,Port Glasgow Road,,,,opp,,SE,N0068135,Ladyburn,Greenock,,GREENOCK,,,,1,,230495,675129,,,BCT,MKD,OTH,,,,129,2003-08-27T00:00:00,2023-12-12T15:02:54,0,,active
6130465,46823727,,,Balfron Road,,,,Balfron Road,,Leven Road,,,,opp,,E,N0078743,Strone Farm,Greenock,,GREENOCK,,,,0,,229276,674423,,,BCT,MKD,OTH,,,,129,2003-08-27T00:00:00,2023-12-12T15:02:54,0,,inactive
6130466,46823567,,,Bus Station,,,,,,Fore Street,,,,Stance 1,,NW,ES003052,Port Glasgow,,,PORT GLASGOW,,,,1,,232166,674624,,,BCS,MKD,OTH,,,,129,2003-08-27T00:00:00,2023-12-12T15:02:54,0,,active
6130467,46823597,,,Bus Station,,,,,,Fore Street,,,,Stance 2,,NW,ES003052,Port Glasgow,,,PORT GLASGOW,,,,1,,232156,674639,,,BCS,MKD,OTH,,,,129,2003-08-27T00:00:00,2023-12-12T15:02:54,0,,active
6130468,46823945,,,Bus Station,,,,,,Fore Street,,,,stance 3,,NW,ES003052,Port Glasgow,,,PORT GLASGOW,,,,1,,232148,674652,,,BCS,MKD,OTH,,,,129,2003-08-27T00:00:00,2023-12-12T15:02:54,0,,inactive
6130469,46823649,,,Bus Station,,,,,,Fore Street,,,,Stance 3,,NW,ES003052,Port Glasgow,,,PORT GLASGOW,,,,1,,232173,674630,,,BCS,MKD,OTH,,,,129,2003-08-27T00:00:00,2023-12-12T15:02:54,0,,active
613047,46824237,,,Gryffe Road,,,,Gryffe Road,,Dubbs Road,,,,opp,,NW,N0078745,Boglestone,Port Glasgow,,PORT GLASGOW,,,,0,,233329,673303,,,BCT,MKD,OTH,,,,129,2003-08-27T00:00:00,2023-12-12T15:02:54,0,,active
6130470,46823764,,,Bus Station,,,,,,Fore Street,,,,Stance 4,,NW,ES003052,Port Glasgow,,,PORT GLASGOW,,,,1,,232163,674648,,,BCS,MKD,OTH,,,,129,2003-08-27T00:00:00,2023-12-12T15:02:54,0,,active
6130471,46823679,,,Bus Station,,,,,,Fore Street,,,,stance 6,,SE,ES003052,Port Glasgow,,,PORT GLASGOW,,,,1,,232174,674666,,,BCS,MKD,OTH,,,,129,2003-08-27T00:00:00,2023-12-12T15:02:54,0,,inactive
6130472,46823743,,,Bus Station,,,,,,Fore Street,,,,Stance 6,,SE,ES003052,Port Glasgow,,,PORT GLASGOW,,,,1,,232180,674655,,,BCS,MKD,OTH,,,,129,2003-08-27T00:00:00,2023-12-12T15:02:54,0,,active
6130473,46823573,,,Bus Station,,,,,,Fore Street,,,,Stance 5,,SE,ES003052,Port Glasgow,,,PORT GLASGOW,,,,1,,232189,674640,,,BCS,MKD,OTH,,,,129,2003-08-27T00:00:00,2023-12-12T15:02:54,0,,active
6130474,46823986,,,Gryffe Road,,,,Gryffe Road,,Bridge of Weir Road,,,,opp,,S,ES002001,Kilmacolm,,,KILMACOLM,,,,0,,236295,668914,,,BCT,MKD,OTH,,,,129,2003-08-27T00:00:00,2023-12-12T15:02:54,0,,active
6130475,46823923,,,Fyfe Shore Road,,,,Fyfe Shore Road,,Glasgow Road,,,,at,,E,ES003052,Port Glasgow,,,PORT GLASGOW,,,,0,,233903,674153,,,BCT,MKD,OTH,,,,129,2003-08-27T00:00:00,2023-12-12T15:02:54,0,,active
613048,46824325,,,Knocknair Street,,,,Knocknair Street,,Dubbs Road,,,,at,,SE,N0072856,Devol,Port Glasgow,,PORT GLASGOW,,,,0,,233049,673533,,,BCT,MKD,OTH,,,,129,2003-08-27T00:00:00,2023-12-12T15:02:54,0,,active
6130481,46824254,,,Pennyfern Road,,,,No 40,,Pennyfern Road,,,,at 40,,NW,N0078742,Pennyfern,Greenock,,GREENOCK,,,,0,,225758,675235,,,BCT,MKD,OTH,,,,129,2003-08-27T00:00:00,2023-12-12T15:02:54,0,,inactive
6130482,46823529,,,Tesco store,,,,Tesco store,,Container Way,,,,at,,NW,ES001670,Greenock,,,GREENOCK,,,,0,,227915,676436,,,BCT,MKD,OTH,,,,129,2003-08-27T00:00:00,2023-12-12T15:02:54,0,,active
6130483,46824276,,,Pladda Avenue,,,,Pladda Avenue,,Oronsay Avenue,,,,at,,SE,N0078748,Park Farm,Port Glasgow,,PORT GLASGOW,,,,0,,234720,673099,,,BCT,MKD,OTH,,,,129,2003-08-27T00:00:00,2023-12-12T15:02:54,0,,active
6130484,46823467,,,Skye Road,,,,Skye Road,,Oronsay Avenue,,,,at,,SW,N0078748,Park Farm,Port Glasgow,,PORT GLASGOW,,,,0,,234743,672944,,,BCT,MKD,OTH,,,,129,2003-08-27T00:00:00,2023-12-12T15:02:54,0,,active
6130485,46823747,,,Oronsay Avenue,,,,No 124,,Oronsay Avenue,,,,at 124,,SW,N0078748,Park Farm,Port Glasgow,,PORT GLASGOW,,,,0,,234615,672841,,,BCT,MKD,OTH,,,,129,2003-08-27T00:00:00,2023-12-12T15:02:54,0,,inactive
6130488,46823453,,,Retail Park,,,,Retail Park,,Custom House Way,,,,Outside,,SE,ES001670,Greenock,,,GREENOCK,,,,0,,228041,676459,,,BCT,MKD,OTH,,,,129,2003-08-27T00:00:00,2023-12-12T15:02:54,0,,inactive
6130489,46823235,,,Waterfront complex,,,,Waterfront complex,,Custom House Way,,,,at,,SE,ES001670,Greenock,,,GREENOCK,,,,0,,228128,676332,,,BCT,MKD,OTH,,,,129,2003-08-27T00:00:00,2023-12-12T15:02:54,0,,inactive
613049,46823745,,,Duchal Street,,,,Duchal Street,,Dubbs Road,,,,at,,SE,N0072856,Devol,Port Glasgow,,PORT GLASGOW,,,,0,,232686,673639,,,BCT,MKD,OTH,,,,129,2003-08-27T00:00:00,2023-12-12T15:02:54,0,,active
6130490,46824245,,,Cardwell Road,,,,Cardwell Road,,Manor Crescent,,,,at,,NE,N0078735,Cardwell Bay,Gourock,,GOUROCK,,,,1,,225086,677232,,,BCT,MKD,OTH,,,,129,2003-08-27T00:00:00,2023-12-12T15:02:54,0,,active
6130491,46823586,,,Kelly Street,,,,Kelly Street,,Union Street,,,,at,,SE,ES001670,Greenock,,,GREENOCK,,,,1,,227384,676614,,,BCT,MKD,OTH,,,,129,2003-08-27T00:00:00,2023-12-12T15:02:54,0,,active
6130492,46824573,,,Auchendarroch Street,,,,Auchendarroch St,,Carwood Street,,,,after,,NW,N0078738,Bridgend,Greenock,,GREENOCK,,,,0,,229561,675375,,,BCT,MKD,OTH,,,,129,2003-08-27T00:00:00,2023-12-12T15:02:54,0,,inactive
6130493,46823723,,,Elliot Court,,,,Elloit Court,,Carwood Street,,,,at,,SE,N0078738,Bridgend,Greenock,,GREENOCK,,,,0,,229434,675461,,,BCT,MKD,OTH,,,,129,2003-08-27T00:00:00,2023-12-12T15:02:54,0,,inactive
6130494,46823464,,,Glen Avenue,,,,Glen Avenue,,Burnside Road,,,,opp,,NW,N0078735,Cardwell Bay,Gourock,,GOUROCK,,,,0,,224919,676825,,,BCT,MKD,OTH,,,,129,2003-08-27T00:00:00,2023-12-12T15:02:54,0,,active
6130495,46823932,,,Dellingburn Street,,,,Dellingburn Street,,Regent Street,,,,opp,,SE,ES001670,Greenock,,,GREENOCK,,,,0,,228281,675751,,,BCT,MKD,OTH,,,,129,2003-08-27T00:00:00,2023-12-12T15:02:54,0,,active
6130497,46823845,,,Cameron Place,,,,Cameron Place,,Main Street,,,,At,,SW,ES001874,Inverkip,,,INVERKIP,,,,1,,220786,672125,,,BCT,MKD,OTH,,,,129,2003-08-27T00:00:00,2023-12-12T15:02:54,0,,active
6130498,46823692,,,Endrick Road,,,,Endrick Road,,Balloch Road,,,,before,,NW,N0078743,Strone Farm,Greenock,,GREENOCK,,,,0,,228950,674433,,,BCT,MKD,OTH,,,,129,2003-08-27T00:00:00,2023-12-12T15:02:54,0,,inactive
61305,46823269,,,Glasgow Road,,,,No 57,,Glasgow Road,,,,opp 57,,W,ES003052,Port Glasgow,,,PORT GLASGOW,,,,0,,233644,674140,,,BCT,MKD,OTH,,,,129,2003-08-27T00:00:00,2023-12-12T15:02:54,0,,active
613050,46823867,,,Moorfield Avenue,,,,Moorfield Avenue,,Muirdykes Avenue,,,,opp,,N,N0072856,Devol,Port Glasgow,,PORT GLASGOW,,,,0,,232585,673533,,,BCT,MKD,OTH,,,,129,2003-08-27T00:00:00,2023-12-12T15:02:54,0,,active
6130501,46823425,,,Millport Road,,,,Millport Road,,Montrose Avenue,,,,at,,W,N0078749,Slaemuir,Port Glasgow,,PORT GLASGOW,,,,0,,233664,672752,,,BCT,MKD,OTH,,,,129,2003-08-27T00:00:00,2023-12-12T15:02:54,0,,active
6130503,46824526,,,Bruce Street,,,,Bruce Street,,Roxburgh Street,,,,At,,SE,ES001670,Greenock,,,Greenock,,,,0,,227359,676064,,,BCT,MKD,OTH,,,,129,2003-08-27T00:00:00,2023-12-12T15:02:54,0,,inactive
6130504,46824572,,,Ferry Terminal,,,,McInroy's Point,,Cloch Road,,,,at,,E,N0072858,Levan,Gourock,,GOUROCK,,,,0,,221953,676806,,,BCT,CUS,OTH,,,,129,2003-08-27T00:00:00,2023-12-12T15:02:54,0,,active
6130505,46824696,,,Kip Marina,,,,Kip Marina,,A78,,,,opp,,SW,ES001874,Inverkip,,,Inverkip,,,,0,,220990,672306,,,BCT,CUS,OTH,,,,129,2003-08-27T00:00:00,2023-12-12T15:02:54,0,,inactive
6130506,46824868,,,Kip Marina,,,,Kip Marina,,A78,,,,near,,NE,ES001874,Inverkip,,,Inverkip,,,,0,,220774,672213,,,BCT,CUS,OTH,,,,129,2003-08-27T00:00:00,2023-12-12T15:02:54,0,,inactive
6130507,46824875,,,Nelson Street,,,,Nelson Street,,Finnart Street,,,,before,,SE,ES001670,Greenock,,,GREENOCK,,,,0,,227236,676343,,,BCT,MKD,OTH,,,,129,2003-08-27T00:00:00,2023-12-12T15:02:54,0,,inactive
6130508,46825286,,,Nicolson Street,,,,Nicolson Street,,Dalrymple Street,,,,opp,,SE,ES001670,Greenock,,,GREENOCK,,,,0,,227808,676441,,,BCT,MKD,OTH,,,,129,2003-08-27T00:00:00,2023-12-12T15:02:54,0,,active
6130509,46825293,,,Gibson Lane,,,,Gibson Lane,,Port Glasgow Road,,,,at,,NW,ES002001,Kilmacolm,,,KILMACOLM,,,,0,,235766,670060,,,BCT,MKD,OTH,,,,129,2003-08-27T00:00:00,2023-12-12T15:02:54,0,,active
613051,46823283,,,Golf Drive,,,,Glof Drive,,Muirdykes Avenue,,,,Near,,NW,N0072856,Devol,Port Glasgow,,PORT GLASGOW,,,,0,,232728,673420,,,BCT,MKD,OTH,,,,129,2003-08-27T00:00:00,2023-12-12T15:02:54,0,,active
6130510,46825269,,,Westmorland Road,,,,Westmorland Road,,Cumberland Road,,,,at,,E,N0068023,Branchton,Greenock,,GREENOCK,,,,0,,224667,675506,,,BCT,MKD,OTH,,,,129,2003-08-27T00:00:00,2023-12-12T15:02:54,0,,active
6130511,46892925,,,Ladyburn Street,,,,Ladyburn Street,,Weir Street,,,,After,,E,N0078738,Bridgend,Greenock,,GREENOCK,,,,0,,229906,674979,,,BCT,MKD,OTH,,,,129,2003-08-27T00:00:00,2023-12-12T15:02:54,0,,active
6130512,46892926,,,John Wilson Street,,,,John Wilson Street,,Weir Street,,,,before,,NW,N0078738,Bridgend,Greenock,,GREENOCK,,,,0,,229937,674969,,,BCT,MKD,OTH,,,,129,2003-08-27T00:00:00,2023-12-12T15:02:54,0,,active
6130513,46892927,,,Leitch Street,,,,Leitch Street,,Weir Street,,,,after,,E,N0078738,Bridgend,Greenock,,GREENOCK,,,,0,,230096,674978,,,BCT,MKD,OTH,,,,129,2003-08-27T00:00:00,2023-12-12T15:02:54,0,,active
6130514,46892928,,,Gibshill Road,,,,Gibshill Road,,Weir Street,,,,after,,W,N0078738,Bridgend,Greenock,,GREENOCK,,,,0,,230167,674961,,,BCT,MKD,OTH,,,,129,2003-08-27T00:00:00,2023-12-12T15:02:54,0,,active
6130515,46895648,,,Auchneagh Farm Road,,,,Lyle Road,,Grieve Road,,,,after,,N,N0078737,Bow Hill,Greenock,,GREENOCK,,,,0,,225602,676467,,,BCT,MKD,OTH,,,,129,2003-08-27T00:00:00,2023-12-12T15:02:54,0,,active
6130517,46824547,,,Finlaystone Road,,,,Finlaystone Road,,Quarry Road,,,,at,,NE,ES002001,Kilmacolm,,,KILMACOLM,,,,0,,235815,670662,,,BCT,MKD,OTH,,,,129,2003-08-27T00:00:00,2023-12-12T15:02:54,0,,active
6130518,46895637,,,Port Glasgow Road,,,,Port Glasgow Road,,Woodrow Avenue,,,,at,,SW,ES002001,Kilmacolm,,,KILMACOLM,,,,0,,235780,670125,,,BCT,MKD,OTH,,,,129,2003-08-27T00:00:00,2023-12-12T15:02:54,0,,active
6130519,46895649,,,Inverclyde Royal Hospital Main Building,,,,Hospital building,,Inverclyde Royal Hospital Grounds,,,,at,,N,N0068023,Branchton,Greenock,,GREENOCK,,,,1,,224672,675958,,,BCT,MKD,OTH,,,,129,2003-08-27T00:00:00,2023-12-12T15:02:54,0,,active
613052,46824285,,,Muirdykes Avenue,,,,No 117,,Muirdykes Avenue,,,,opp 117,,W,N0072856,Devol,Port Glasgow,,PORT GLASGOW,,,,0,,232923,673401,,,BCT,MKD,OTH,,,,129,2003-08-27T00:00:00,2023-12-12T15:02:54,0,,active
6130520,46895652,,,Leven Road,,,,Leven Road,,Balloch Road,,,,before,,NE,N0078743,Strone Farm,Greenock,,GREENOCK,,,,0,,228764,674587,,,BCT,MKD,OTH,,,,129,2003-08-27T00:00:00,2023-12-12T15:02:54,0,,inactive
6130521,46895628,,,Endrick Road,,,,Endrick Road,,Balloch Road,,,,after,,NW,N0078743,Strone Farm,Greenock,,GREENOCK,,,,0,,228862,674475,,,BCT,MKD,OTH,,,,129,2003-08-27T00:00:00,2023-12-12T15:02:54,0,,inactive
6130522,46895629,,,Balmore Road,,,,Balmore Road,,Renton Road,,,,after,,N,N0078743,Strone Farm,Greenock,,GREENOCK,,,,0,,229054,674418,,,BCT,MKD,OTH,,,,129,2003-08-27T00:00:00,2023-12-12T15:02:54,0,,active
6130523,46895634,,,Arden Road,,,,Arden Road,,Renton Road,,,,after,,W,N0078743,Strone Farm,Greenock,,GREENOCK,,,,0,,229324,674325,,,BCT,MKD,OTH,,,,129,2003-08-27T00:00:00,2023-12-12T15:02:54,0,,active
6130524,46895632,,,Renton Road,,,,Renton Road,,Leven Road,,,,opp,,SE,N0078743,Strone Farm,Greenock,,GREENOCK,,,,0,,229019,674547,,,BCT,MKD,OTH,,,,129,2003-08-27T00:00:00,2023-12-12T15:02:54,0,,inactive
6130525,46895635,,,Ardmore road,,,,Ardmore Road,,Leven Road,,,,opp,,SE,N0078743,Strone Farm,Greenock,,GREENOCK,,,,0,,229451,674396,,,BCT,MKD,OTH,,,,129,2003-08-27T00:00:00,2023-12-12T15:02:54,0,,inactive
6130526,46895654,,,Finneston Street,,,,Finneston Street,,Bawhirley Road,,,,opp,,SW,N0078738,Bridgend,Greenock,,GREENOCK,,,,0,,228984,675215,,,BCT,MKD,OTH,,,,129,2003-08-27T00:00:00,2023-12-12T15:02:54,0,,active
6130527,46892943,,,Mearns Street,,,,Mearns Street,,Regent Street,,,,before,,SE,ES001670,Greenock,,,GREENOCK,,,,0,,227806,675985,,,BCT,MKD,OTH,,,,129,2003-08-27T00:00:00,2023-12-12T15:02:54,0,,active
6130528,46858482,,,Glebe Street,,,,Glebe Street,,Bridge of Weir Road,,,,opp,,S,ES002001,Kilmacolm,,,KILMALCOLM,,,,0,,235903,669721,,,BCT,MKD,OTH,,,,129,2003-08-27T00:00:00,2023-12-12T15:02:54,0,,active
6130529,46893245,,,Robertson Street,,,,Robertson Street,,Union Street,,,,Before,,SE,ES001670,Greenock,,,GREENOCK,,,,0,,227198,676819,,,BCT,MKD,OTH,,,,129,2003-08-27T00:00:00,2023-12-12T15:02:54,0,,active
613053,46823759,,,Port Glasgow Ind Estate,,,,Port Glasgow Ind Estate,,Muirdykes Avenue,,,,At,,NW,N0072856,Devol,Port Glasgow,,PORT GLASGOW,,,,0,,233098,673349,,,BCT,MKD,OTH,,,,129,2003-08-27T00:00:00,2023-12-12T15:02:54,0,,active
6130530,46892954,,,Regent Street,,,,Regent Street,,Sir Michael Street,,,,Before,,S,ES001670,Greenock,,,GREENOCK,,,,0,,227566,676014,,,BCT,MKD,OTH,,,,129,2003-08-27T00:00:00,2023-12-12T15:02:54,0,,active
6130531,46892968,,,Hope Avenue,,,,Hope Avenue,,Love Avenue,,,,before,,NE,N0068194,Quarriers Village,,,QUARRIERS VILLAGE,,,,1,,236321,666809,,,BCT,MKD,OTH,,,,129,2003-08-27T00:00:00,2023-12-12T15:02:54,0,,inactive
6130532,46835482,,,Main Road,,,,Main Road,,Peace Avenue,,,,before,,S,N0068194,Quarriers Village,,,QUARRIERS VILLAGE,,,,1,,236531,666689,,,BCT,MKD,OTH,,,,129,2003-08-27T00:00:00,2023-12-12T15:02:54,0,,inactive
6130533,46824784,,,Cypress Grove,,,,Cypress Grove,,Main Road,,,,before,,NW,N0068194,Quarriers Village,,,QUARRIERS VILLAGE,,,,1,,236669,666595,,,BCT,MKD,OTH,,,,129,2003-08-27T00:00:00,2023-12-12T15:02:54,0,,active
6130534,46858472,,,Marcus Humphrey House,,,,Marcus Humphrey House,,Main Road,,,,at,,SE,N0068194,Quarriers Village,,,QUARRIERS VILLAGE,,,,1,,236043,666948,,,BCT,MKD,OTH,,,,129,2003-08-27T00:00:00,2023-12-12T15:02:54,0,,active
6130535,46898989,,,Marcus Humphrey House,,,,Marcus Humphrey House,,Main Road,,,,opp,,NW,N0068194,Quarriers Village,,,QUARIERS VILLAGE,,,,1,,236043,666939,,,BCT,CUS,OTH,,,,129,2003-08-27T00:00:00,2023-12-12T15:02:54,0,,active
6130536,46894637,,,Peace Avenue,,,,Peace Avenue,,Main Road,,,,opp,,NW,N0068194,Quarriers Village,,,QUARRIERS VILLAGE,,,,1,,236529,666665,,,BCT,CUS,OTH,,,,129,2003-08-27T00:00:00,2023-12-12T15:02:54,0,,active
6130537,46858484,,,Cypress Grove,,,,Cypress Grove,,Main Road,,,,opp,,SE,N0068194,Quarriers Village,,,QUARRIERS VILLAGE,,,,1,,236676,666605,,,BCT,CUS,OTH,,,,129,2003-08-27T00:00:00,2023-12-12T15:02:54,0,,active
613054,46823989,,,Moidart Road,,,,Moidart Road,,Montrose Avenue,,,,at,,SW,N0078745,Boglestone,Port Glasgow,,PORT GLASGOW,,,,0,,233300,673133,,,BCT,MKD,OTH,,,,129,2003-08-27T00:00:00,2023-12-12T15:02:54,0,,active
6130542,46858487,,,Mansion Avenue,,,,Mansion Avenue,,Parkhill Avenue,,,,opp,,NW,ES003052,Port Glasgow,,,PORT GLASGOW,,,,0,,234586,673675,,,BCT,MKD,OTH,,,,129,2003-08-27T00:00:00,2023-12-12T15:02:54,0,,active
6130543,46858568,,,Fyfe Park Road,,,,Fyfe Park Road,,Glasgow Road,,,,Before,,E,ES003052,Port Glasgow,,,PORT GLASGOW,,,,0,,233288,674203,,,BCT,MKD,OTH,,,,129,2003-08-27T00:00:00,2023-12-12T15:02:54,0,,active
6130544,46858547,,,Kilblain Street,,,,,,Inverkip Street,,,,at,,NE,ES001670,Greenock,,,GREENOCK,,,,0,,227538,676257,,,BCT,MKD,OTH,,,,129,2003-08-27T00:00:00,2023-12-12T15:02:54,0,,active
6130545,46858569,,,Grey Place,,,,St Mary's Church,,Patrick Street,,,,After,,NE,ES001670,Greenock,,,GREENOCK,,,,0,,227358,676703,,,BCT,MKD,OTH,,,,129,2003-08-27T00:00:00,2023-12-12T15:02:54,0,,active
6130546,46858548,,,Eldon Place,,,,Eldon Place,,Eldon Street,,,,after,,NW,ES001670,Greenock,,,GREENOCK,,,,0,,226380,677725,,,BCT,MKD,OTH,,,,129,2003-08-27T00:00:00,2023-12-12T15:02:54,0,,active
6130547,46858567,,,Eldon Place,,,,No133,,Eldon Street,,,,opp,,SE,ES001670,Greenock,,,GREENOCK,,,,0,,226372,677746,,,BCT,MKD,OTH,,,,129,2003-08-27T00:00:00,2023-12-12T15:02:54,0,,active
6130548,46858549,,,Hood Street,,,,Hood Street,,Grey Place,,,,Before,,SE,ES001670,Greenock,,,GREENOCK,,,,0,,227631,676704,,,BCT,MKD,OTH,,,,129,2003-08-27T00:00:00,2023-12-12T15:02:54,0,,active
6130549,46858625,,,Highholm Street,,,,,,William Street,,,,before,,S,ES003052,Port Glasgow,,,PORT GLASGOW,,,,0,,231610,674580,,,BCT,MKD,OTH,,,,129,2003-08-27T00:00:00,2023-12-12T15:02:54,0,,active
613055,46823675,,,Milton Road,,,,Milton Road,,Montrose Avenue,,,,at,,SE,N0078745,Boglestone,Port Glasgow,,PORT GLASGOW,,,,0,,233387,672931,,,BCT,MKD,OTH,,,,129,2003-08-27T00:00:00,2023-12-12T15:02:54,0,,active
6130550,46858624,,,Fire Station,,,,,,Greenock Road,,,,at,,E,ES003052,Port Glasgow,,,PORT GLASGOW,,,,0,,232647,674462,,,BCT,CUS,OTH,,,,129,2003-08-27T00:00:00,2023-12-12T15:02:54,0,,inactive
6130551,46858659,,,Oakfield Terrace,,,,,,Ratho Street,,,,before,,NE,ES001670,Greenock,,,GREENOCK,,,,0,,229409,675575,,,BCT,MKD,OTH,,,,129,2003-08-27T00:00:00,2023-12-12T15:02:54,0,,inactive
6130552,46858626,,,Oakfield Terrace,,,,,,Ratho Street,,,,opp,,SW,ES001670,Greenock,,,GREENOCK,,,,0,,229445,675581,,,BCT,MKD,OTH,,,,129,2003-08-27T00:00:00,2023-12-12T15:02:54,0,,active
6130553,46858689,,,Slaemuir Avenue,,,,Slaemuir Avenue,,Marloch Avenue,,,,opp,,NE,N0078749,Slaemuir,Port Glasgow,,PORT GLASGOW,,,,0,,234125,672968,,,BCT,MKD,OTH,,,,129,2003-08-27T00:00:00,2023-12-12T15:02:54,0,,active
6130554,46824768,,,Dubbs Road,,,,Dubbs Road,,Montrose Avenue,,,,before,,NE,ES003052,Port Glasgow,,,PORT GLASGOW,,,,0,,233305,673153,,,BCT,MKD,OTH,,,,129,2003-08-27T00:00:00,2023-12-12T15:02:54,0,,active
6130555,46858727,,,Forsyth Street,,,,Forsyth St,,Union Street,,,,before,,NW,ES001670,Greenock,,,GREENOCK,,,,0,,227050,676956,,,BCT,MKD,OTH,,,,129,2003-08-27T00:00:00,2023-12-12T15:02:54,0,,active
6130556,46858923,,,Pennyfern Drive,,,,Pennyfern Drive,,Pennyfern Road,,,,at,,E,N0078742,Pennyfern,Greenock,,GREENOCK,,,,0,,225925,675177,,,BCT,MKD,OTH,,,,129,2003-08-27T00:00:00,2023-12-12T15:02:54,0,,active
6130557,46858793,,,Pennyfern Road,,,,No 27,,Pennyfern Road,,,,at 27,,SE,N0078742,Pennyfern,Greenock,,GREENOCK,,,,0,,225806,675220,,,BCT,MKD,OTH,,,,129,2003-08-27T00:00:00,2023-12-12T15:02:54,0,,active
6130558,46858696,,,Maple Road,,,,Maple Road,,Pennyfern Road,,,,after,,SE,N0078742,Pennyfern,Greenock,,GREENOCK,,,,0,,225702,675292,,,BCT,MKD,OTH,,,,129,2003-08-27T00:00:00,2023-12-12T15:02:54,0,,active
6130559,46858765,,,Pennyfern Road,,,,Pennyfern Road,,Maple Road,,,,before,,NW,N0078742,Pennyfern,Greenock,,GREENOCK,,,,0,,225780,675316,,,BCT,MKD,OTH,,,,129,2003-08-27T00:00:00,2023-12-12T15:02:54,0,,active
613056,46823784,,,Millport Road,,,,Millport Road,,Montrose Avenue,,,,opp,,E,N0078749,Slaemuir,Port Glasgow,,PORT GLASGOW,,,,0,,233661,672759,,,BCT,MKD,OTH,,,,129,2003-08-27T00:00:00,2023-12-12T15:02:54,0,,active
6130560,46858753,,,Pennyfern Drive,,,,Pennyfern Drive,,Maple Road,,,,after,,NW,N0078742,Pennyfern,Greenock,,GREENOCK,,,,0,,225932,675239,,,BCT,MKD,OTH,,,,129,2003-08-27T00:00:00,2023-12-12T15:02:54,0,,active
6130561,46858939,,,Broadfield Avenue,,,,Broadfield Avenue,,Parkhill Avenue,,,,opp,,SE,N0068246,Woodhall,Port Glasgow,,PORT GLASGOW,,,,0,,234442,673723,,,BCT,MKD,OTH,,,,129,2003-08-27T00:00:00,2023-12-12T15:02:54,0,,active
6130562,46858767,,,Cowal Crescent,,,,Cowal Crescent,,Cowal View,,,,before,,NE,N0078736,Trumpethill,Gourock,,GOUROCK,,,,0,,222879,676774,,,BCT,CUS,OTH,,,,129,2003-08-27T00:00:00,2023-12-12T15:02:54,0,,active
6130563,46858768,,,Firth Crescent,,,,Firth Crescent,,Cowal View,,,,after,,SW,N0078736,Trumpethill,Gourock,,GOUROCK,,,,0,,222881,676764,,,BCT,MKD,OTH,,,,129,2003-08-27T00:00:00,2023-12-12T15:02:54,0,,active
6130564,46858769,,,Carnoustie Avenue,,,,Carnoustie Avenue,,Gleneagles Drive,,,,after,,NW,N0078736,Trumpethill,Gourock,,GOUROCK,,,,0,,222432,676610,,,BCT,MKD,OTH,,,,129,2003-08-27T00:00:00,2023-12-12T15:02:54,0,,active
6130565,46858782,,,Cowal Drive,,,,Cowal Drive,,Carnoustie Avenue,,,,after,,SW,N0078736,Trumpethill,Gourock,,GOUROCK,,,,0,,222556,676634,,,BCT,MKD,OTH,,,,129,2003-08-27T00:00:00,2023-12-12T15:02:54,0,,active
6130566,46858797,,,Brueacre Road,,,,Brueacre Road,,Ardgowan Road,,,,opp,,W,ES003798,Wemyss Bay,,,WEMYSS BAY,,,,0,,219418,670228,,,BCT,MKD,OTH,,,,129,2003-08-27T00:00:00,2023-12-12T15:02:54,0,,active
6130567,46858794,,,Bute Street,,,,Bute Street,,Divert Road,,,,at,,W,N0072859,Midton,Gourock,,GOUROCK,,,,1,,223515,676951,,,BCT,MKD,OTH,,,,129,2003-08-27T00:00:00,2023-12-12T15:02:54,0,,active
6130568,46858795,,,Henderson Terrace,,,,Henderson Terrace,,Tower Drive,,,,at,,NE,N0072859,Midton,Gourock,,GOUROCK,,,,0,,224140,676914,,,BCT,MKD,OTH,,,,129,2003-08-27T00:00:00,2023-12-12T15:02:54,0,,active
6130569,46858796,,,Ailsa Road,,,,Ailsa Road,,Divert Road,,,,at,,W,N0072859,Midton,Gourock,,GOUROCK,,,,0,,223264,676903,,,BCT,CUS,OTH,,,,129,2003-08-27T00:00:00,2023-12-12T15:02:54,0,,active
613057,46824385,,,Auchenbothie Road,,,,Auchenbothie Road,,Marloch Avenue,,,,Near,,S,N0078749,Slaemuir,Port Glasgow,,PORT GLASGOW,,,,0,,233728,672900,,,BCT,MKD,OTH,,,,129,2003-08-27T00:00:00,2023-12-12T15:02:54,0,,active
6130570,46858789,,,East Shaw Street,,,,East Shaw Street,,Inverkip Street,,,,before,,SW,ES001670,Greenock,,,GREENOCK,,,,0,,227536,676233,,,BCT,MKD,OTH,,,,129,2003-08-27T00:00:00,2023-12-12T15:02:54,0,,active
6130571,46858792,,,Nicol Street,,,,Nicol Street,,Bow Road,,,,opp,,SW,ES001670,Greenock,,,GREENOCK,,,,0,,225971,675908,,,BCT,MKD,OTH,,,,129,2003-08-27T00:00:00,2023-12-12T15:02:54,0,,active
6130572,46858798,,,Fancy Farm Place,,,,Fancy Farm Place,,Fancy Farm Road,,,,opp,,NE,N0078740,Fancy Farm,Greenock,,GREENOCK,,,,0,,224957,675756,,,BCT,MKD,OTH,,,,129,2003-08-27T00:00:00,2023-12-12T15:02:54,0,,active
6130573,46858946,,,Glamis Drive,,,,Glamis Drive,,Fancy Farm Road,,,,before,,NE,N0078740,Fancy Farm,Greenock,,GREENOCK,,,,0,,225148,675926,,,BCT,MKD,OTH,,,,129,2003-08-27T00:00:00,2023-12-12T15:02:54,0,,active
6130574,46858929,,,Marloch Avenue,,,,Marloch Avenue,,Auchenbothie Road,,,,before,,S,N0078744,Bardrainney,Port Glasgow,,PORT GLASGOW,,,,0,,233689,672990,,,BCT,MKD,OTH,,,,129,2003-08-27T00:00:00,2023-12-12T15:02:54,0,,active
6130575,46858932,,,Maybole Road,,,,Maybole Road,,Auchenbothie Road,,,,after,,N,N0078744,Bardrainney,Port Glasgow,,PORT GLASGOW,,,,0,,233671,673045,,,BCT,MKD,OTH,,,,129,2003-08-27T00:00:00,2023-12-12T15:02:54,0,,active
6130576,46858787,,,Arran Avenue,,,,Arran Avenue,,Tiree Avenue,,,,after,,S,N0078748,Park Farm,Port Glasgow,,PORT GLASGOW,,,,0,,234456,673165,,,BCT,MKD,OTH,,,,129,2003-08-27T00:00:00,2023-12-12T15:02:54,0,,active
6130577,46858924,,,Mull Avenue,,,,Mull Avenue,,Tiree Avenue,,,,after,,N,N0078748,Park Farm,Port Glasgow,,PORT GLASGOW,,,,0,,234465,673098,,,BCT,MKD,OTH,,,,129,2003-08-27T00:00:00,2023-12-12T15:02:54,0,,active
6130578,46858938,,,Nairn Road,,,,Nairn Road,,Berwick Road,,,,after,,E,ES002293,Larkfield,Greenock,,GREENOCK,,,,0,,223463,675639,,,BCT,MKD,OTH,,,,129,2003-08-27T00:00:00,2023-12-12T15:02:54,0,,active
6130579,46858943,,,Bus Station,,,,,,Kilblain Street,,,,Northbound,,N,ES001670,Greenock,,,GREENOCK,,,,0,,227556,676350,,,BCS,CUS,OTH,,,,129,2003-08-27T00:00:00,2023-12-12T15:02:54,0,,active
613058,46823257,,,Marloch Avenue,,,,No 4,,Marloch Avenue,,,,opp 4,,E,N0078749,Slaemuir,Port Glasgow,,PORT GLASGOW,,,,0,,233755,672923,,,BCT,MKD,OTH,,,,129,2003-08-27T00:00:00,2023-12-12T15:02:54,0,,active
6130580,46824567,,,Kirkwall Road,,,,Kikwall Road,,Branchton Road,,,,before,,NE,N0068023,Branchton,Greenock,,GREENOCK,,,,0,,224953,675354,,,BCT,MKD,OTH,,,,129,2003-08-27T00:00:00,2023-12-12T15:02:54,0,,active
6130581,46824568,,,Cupar Drive,,,,Cupar Drive,,Branchton Road,,,,opp,,E,N0068023,Branchton,Greenock,,GREENOCK,,,,0,,224623,675100,,,BCT,MKD,OTH,,,,129,2003-08-27T00:00:00,2023-12-12T15:02:54,0,,active
6130582,46824569,,,Branchton Road,,,,Branchton Road,,Forfar Road,,,,before,,N,N0068023,Branchton,Greenock,,GREENOCK,,,,0,,224753,675132,,,BCT,MKD,OTH,,,,129,2003-08-27T00:00:00,2023-12-12T15:02:54,0,,active
6130583,46824548,,,Bus Station,,,,,,Kilblain Street,,,,Southbound,,S,ES001670,Greenock,,,GREENOCK,,,,0,,227578,676317,,,BCS,CUS,OTH,,,,129,2003-08-27T00:00:00,2023-12-12T15:02:54,0,,active
6130584,46824783,,,Glenbrae Road,,,,Glenbrae Road,,Kilmacolm Road,,,,opp,,SE,ES001670,Greenock,,,GREENOCK,,,,0,,228763,674871,,,BCT,MKD,OTH,,,,129,2003-08-27T00:00:00,2023-12-12T15:02:54,0,,active
6130585,46824659,,,Teviot Road,,,,Teviot Road,,Sidlaw Avenue,,,,after,,E,N0078749,Slaemuir,Port Glasgow,,PORT GLASGOW,,,,0,,233813,672739,,,BCT,MKD,OTH,,,,129,2003-08-27T00:00:00,2023-12-12T15:02:54,0,,active
6130586,46824672,,,Slaemuir Avenue,,,,Slaemuir Avenue,,Pentland Avenue,,,,before,,S,N0078749,Slaemuir,Port Glasgow,,PORT GLASGOW,,,,0,,233893,672693,,,BCT,MKD,OTH,,,,129,2003-08-27T00:00:00,2023-12-12T15:02:54,0,,active
6130587,46824673,,,Grampian Road,,,,Grampian Road,,Slaemuir Avenue,,,,opp,,N,N0078749,Slaemuir,Port Glasgow,,PORT GLASGOW,,,,0,,234004,672654,,,BCT,MKD,OTH,,,,129,2003-08-27T00:00:00,2023-12-12T15:02:54,0,,active
6130588,46824674,,,Marloch Avenue,,,,Marloch Avenue,,Slaemuir Avenue,,,,before,,N,N0078749,Slaemuir,Port Glasgow,,PORT GLASGOW,,,,0,,234054,672871,,,BCT,MKD,OTH,,,,129,2003-08-27T00:00:00,2023-12-12T15:02:54,0,,active
6130589,46824769,,,Carron Road,,,,Carron Road,,Lomond Road,,,,after,,N,ES003798,Wemyss Bay,,,WEMYSS BAY,,,,0,,219394,670223,,,BCT,MKD,OTH,,,,129,2003-08-27T00:00:00,2023-12-12T15:02:54,0,,active
613059,46823523,,,Cuillins Avenue,,,,Cuillins Avenue,,Marloch Avenue,,,,opp,,E,N0078749,Slaemuir,Port Glasgow,,PORT GLASGOW,,,,0,,233928,672920,,,BCT,MKD,OTH,,,,129,2003-08-27T00:00:00,2023-12-12T15:02:54,0,,active
6130590,46824782,,,Milton Road,,,,Milton Road,,Montrose Avenue,,,,opp,,NW,ES003052,Port Glasgow,,,PORT GLASGOW,,,,0,,233372,672936,,,BCT,MKD,OTH,,,,129,2003-08-27T00:00:00,2023-12-12T15:02:54,0,,active
6130591,46824798,,,Deveron Road,,,,Deveron Road,,Burns Road,,,,before,,W,ES001670,Greenock,,,GREENOCK,,,,0,,224056,676159,,,BCT,MKD,OTH,,,,129,2003-08-27T00:00:00,2023-12-12T15:02:54,0,,active
6130592,46824824,,,Industrial Estate,,,,Turning Circle,,Earnhill Road,,,,before,,SW,ES002293,Larkfield,Greenock,,GREENOCK,,,,0,,223163,675869,,,BCT,MKD,OTH,,,,129,2003-08-27T00:00:00,2023-12-12T15:02:54,0,,active
6130593,46824743,,,Fife Road,,,,Larkfield Industrial Estate,,Earnhill Road,,,,before,,SW,ES002293,Larkfield,Greenock,,GREENOCK,,,,0,,223764,676214,,,BCT,MKD,OTH,,,,129,2003-08-27T00:00:00,2023-12-12T15:02:54,0,,active
6130594,46824835,,,Earnhill Place,,,,Earnhill Place,,Earnhill Road,,,,opp,,SW,ES002293,Larkfield,Greenock,,GREENOCK,,,,0,,223285,676061,,,BCT,CUS,OTH,,,,129,2003-08-27T00:00:00,2023-12-12T15:02:54,0,,active
61306,46823987,,,Glasgow Road,,,,No 43,,Glasgow Road,,,,opp 43,,NW,ES003052,Port Glasgow,,,PORT GLASGOW,,,,0,,233479,674142,,,BCT,MKD,OTH,,,,129,2003-08-27T00:00:00,2023-12-12T15:02:54,0,,active
613060,46824368,,,Slaemuir Avenue,,,,Slaemuir Avenue,,Marloch Avenue,,,,at,,W,N0078749,Slaemuir,Port Glasgow,,PORT GLASGOW,,,,0,,233983,672918,,,BCT,MKD,OTH,,,,129,2003-08-27T00:00:00,2023-12-12T15:02:54,0,,active
6130600,46824789,,,Sidlaw Avenue,,,,Sidlaw Avenue,,Auchenbothie Road,,,,before,,S,N0078744,Bardrainney,Port Glasgow,,PORT GLASGOW,,,,0,,233742,672756,,,BCT,MKD,OTH,,,,129,2003-08-27T00:00:00,2023-12-12T15:02:54,0,,active
6130601,46824792,,,Cuillins Avenue,,,,Cuillins Avenue,,Slaemuir Avenue,,,,after,,NE,N0078744,Bardrainney,Port Glasgow,,PORT GLASGOW,,,,0,,234010,672753,,,BCT,MKD,OTH,,,,129,2003-08-27T00:00:00,2023-12-12T15:02:54,0,,active
6130602,46824738,,,Margaret Street,,,,Margaret Street,,Esplanade,,,,before,,NW,ES001670,Greenock,,,GREENOCK,,,,0,,227242,677304,,,BCT,CUS,OTH,,,,129,2003-08-27T00:00:00,2023-12-12T15:02:54,0,,inactive
6130603,46824895,,,Johnston Street,,,,Johnston Street,,Esplanade,,,,opp,,SE,ES001670,Greenock,,,GREENOCK,,,,0,,227053,677500,,,BCT,CUS,OTH,,,,129,2003-08-27T00:00:00,2023-12-12T15:02:54,0,,inactive
6130604,46824859,,,Port Glasgow Road,,,,Port Glasgow Road,,Ardgowan Street,,,,before,,NW,N0072852,Bogston,Port Glasgow,,GREENOCK,,,,0,,231104,674897,,,BCT,CUS,OTH,,,,129,2003-08-27T00:00:00,2023-12-12T15:02:54,0,,inactive
6130605,46824826,,,T Mobile Call Centre,,,,T Mobile Call Centre,,Main Street,,,,at,,S,ES000660,Cartsdyke,Greenock,,GREENOCK,,,,0,,228758,675754,,,BCT,CUS,OTH,,,,129,2003-08-27T00:00:00,2023-12-12T15:02:54,0,,inactive
6130606,46825247,,,IBM Factory Park and Ride,,,,IBM Factory Park and Ride,,Inverkip Road,,,,at,,SE,N0068219,Spango,Greenock,,GREENOCK,,,,0,,223013,674119,,,BCT,CUS,OTH,,,,129,2003-08-27T00:00:00,2023-12-12T15:02:54,0,,inactive
6130607,46824986,,,Arthur Street,,,,Arthur Street,,St Lawrence Street,,,,after,,E,ES001670,Greenock,,,GREENOCK,,,,0,,228869,675521,,,BCT,MKD,OTH,,,,129,2003-08-27T00:00:00,2023-12-12T15:02:54,0,,inactive
6130608,46824987,,,Arthur Street,,,,Arthur Street,,St Lawrence Street,,,,opp & before,,W,ES001670,Greenock,,,GREENOCK,,,,0,,228964,675525,,,BCT,MKD,OTH,,,,129,2003-08-27T00:00:00,2023-12-12T15:02:54,0,,inactive
6130609,46824989,,,Cartsburn Street,,,,Cartsburn Street,,Arthur Street,,,,before,,NW,ES001670,Greenock,,,GREENOCK,,,,0,,228758,675561,,,BCT,HAR,OTH,,,,129,2003-08-27T00:00:00,2023-12-12T15:02:54,0,,inactive
613061,46823478,,,Moss Road,,,,Moss Road,,Marloch Avenue,,,,opp,,SE,N0078744,Bardrainney,Port Glasgow,,PORT GLASGOW,,,,0,,234085,673186,,,BCT,MKD,OTH,,,,129,2003-08-27T00:00:00,2023-12-12T15:02:54,0,,active
6130610,46825232,,,John Street,,,,John Street,,Crescent Street,,,,after,,SE,ES001670,Greenock,,,GREENOCK,,,,0,,228634,675504,,,BCT,HAR,OTH,,,,129,2003-08-27T00:00:00,2023-12-12T15:02:54,0,,inactive
6130611,46825234,,,Weir Street,,,,,,Sinclair Street,,,,opp,,NE,ES001670,Greenock,,,GREENOCK,,,,0,,229734,675058,,,BCT,MKD,OTH,,,,129,2003-08-27T00:00:00,2023-12-12T15:02:54,0,,inactive
6130612,46825235,,,Weir Street,,,,Weir Street,,Sinclair Street,,,,before,,SW,ES001670,Greenock,,,GREENOCK,,,,0,,229743,675054,,,BCT,MKD,OTH,,,,129,2003-08-27T00:00:00,2023-12-12T15:02:54,0,,inactive
6130613,46825236,,,Fairrie Street,,,,Fairrie Street,,Gilmour Street,,,,before,,E,ES001670,Greenock,,,GREENOCK,,,,0,,229455,675008,,,BCT,HAR,OTH,,,,129,2003-08-27T00:00:00,2023-12-12T15:02:54,0,,inactive
6130614,46825237,,,Fairrie Street,,,,Fairrie Street,,Gilmour Street,,,,opp,,W,ES001670,Greenock,,,GREENOCK,,,,0,,229453,675001,,,BCT,HAR,OTH,,,,129,2003-08-27T00:00:00,2023-12-12T15:02:54,0,,inactive
6130615,46825238,,,Bridgend Road,,,,No 78,,Bridgend Road,,,,opp 78,,S,ES001670,Greenock,,,GREENOCK,,,,0,,229368,674840,,,BCT,MKD,OTH,,,,129,2003-08-27T00:00:00,2023-12-12T15:02:54,0,,inactive
6130616,46825239,,,Bridgend Road,,,,No 78,,Bridgend Road,,,,at 78,,N,ES001670,Greenock,,,GREENOCK,,,,0,,229361,674838,,,BCT,CUS,OTH,,,,129,2003-08-27T00:00:00,2023-12-12T15:02:54,0,,inactive
6130617,46825242,,,Plymouth Avenue,,,,Plymouth Avenue,,Weymouth Crescent,,,,before,,NW,ES001670,Greenock,,,GREENOCK,,,,0,,224485,676134,,,BCT,HAR,OTH,,,,129,2003-08-27T00:00:00,2023-12-12T15:02:54,0,,inactive
6130618,46825243,,,Plymouth Avenue,,,,Plymouth Avenue,,Weymouth Crescent,,,,opp,,SE,ES001670,Greenock,,,GREENOCK,,,,0,,224487,676143,,,BCT,HAR,OTH,,,,129,2003-08-27T00:00:00,2023-12-12T15:02:54,0,,inactive
6130619,46825253,,,Gateside Gardens,,,,Gateside Gardens,,Grieve Road,,,,opp,,SE,ES001505,Gateside,Greenock,,GREENOCK,,,,0,,225805,675736,,,BCT,MKD,OTH,,,,129,2003-08-27T00:00:00,2023-12-12T15:02:54,0,,active
613062,46823898,,,Moss Road,,,,Moss Road,,Marloch Avenue,,,,before,,NW,N0078744,Bardrainney,Port Glasgow,,PORT GLASGOW,,,,0,,234101,673147,,,BCT,MKD,OTH,,,,129,2003-08-27T00:00:00,2023-12-12T15:02:54,0,,active
6130620,46825254,,,Gateside Gardens,,,,Gateside Gardens,,Grieve Road,,,,after,,NW,ES001505,Gateside,Greenock,,GREENOCK,,,,0,,225760,675767,,,BCT,MKD,OTH,,,,129,2003-08-27T00:00:00,2023-12-12T15:02:54,0,,active
6130621,46825256,,,Gael Street,,,,Gael Street,,Rankin Street,,,,after,,NE,ES001505,Gateside,Greenock,,GREENOCK,,,,0,,226145,675844,,,BCT,MKD,OTH,,,,129,2003-08-27T00:00:00,2023-12-12T15:02:54,0,,active
6130622,46825257,,,Gael Street,,,,Gael Street,,Rankin Street,,,,opp,,SW,ES001505,Gateside,Greenock,,GREENOCK,,,,0,,226112,675817,,,BCT,MKD,OTH,,,,129,2003-08-27T00:00:00,2023-12-12T15:02:54,0,,active
6130623,46825259,,,Kilmacolm Road,,,,Kilmacolm Road,,Blairmore Road,,,,before,,W,ES001670,Greenock,,,GREENOCK,,,,0,,228984,674704,,,BCT,HAR,OTH,,,,129,2003-08-27T00:00:00,2023-12-12T15:02:54,0,,inactive
6130624,46825262,,,Kilmacolm Road,,,,Kilmacolm Road,,Blairmore Road,,,,after,,E,ES001670,Greenock,,,GREENOCK,,,,0,,228982,674712,,,BCT,HAR,OTH,,,,129,2003-08-27T00:00:00,2023-12-12T15:02:54,0,,active
6130625,46825246,,,Bow Road,,,,Bow Road,,Inverkip Road,,,,before,,E,ES001670,Greenock,,,GREENOCK,,,,0,,226531,675915,,,BCT,MKD,OTH,,,,129,2003-08-27T00:00:00,2023-12-12T15:02:54,0,,active
6130626,46825248,,,Old Inverkip Road,,,,Old Inverkip Road,,Inverkip Road,,,,after,,W,ES001670,Greenock,,,GREENOCK,,,,0,,226558,675900,,,BCT,MKD,OTH,,,,129,2003-08-27T00:00:00,2023-12-12T15:02:54,0,,active
6130627,46825249,,,Iona Street,,,,Iona Street,,Rankin Street,,,,after,,E,ES001670,Greenock,,,GREENOCK,,,,0,,226460,675941,,,BCT,MKD,OTH,,,,129,2003-08-27T00:00:00,2023-12-12T15:02:54,0,,active
6130628,46825252,,,Iona Street,,,,Iona Street,,Rankin Street,,,,opp,,W,ES001670,Greenock,,,GREENOCK,,,,0,,226433,675928,,,BCT,MKD,OTH,,,,129,2003-08-27T00:00:00,2023-12-12T15:02:54,0,,active
6130629,46825258,,,Rose Street,,,,Rose Street,,Rankin Street,,,,after,,NE,ES001670,Greenock,,,GREENOCK,,,,0,,225921,675727,,,BCT,MKD,OTH,,,,129,2003-08-27T00:00:00,2023-12-12T15:02:54,0,,active
613063,46823273,,,Slaemuir Avenue,,,,Footpath,,Marloch Avenue,,,,before,,SW,N0078749,Slaemuir,Port Glasgow,,PORT GLASGOW,,,,0,,234111,672955,,,BCT,MKD,OTH,,,,129,2003-08-27T00:00:00,2023-12-12T15:02:54,0,,active
6130630,46825263,,,Rose Street,,,,Rose Street,,Rankin Street,,,,before,,W,ES001670,Greenock,,,GREENOCK,,,,0,,225915,675720,,,BCT,MKD,OTH,,,,129,2003-08-27T00:00:00,2023-12-12T15:02:54,0,,active
6130631,46825264,,,Davidson Drive,,,,Davidson Drive,,Broomberry Drive,,,,after,,SE,ES001638,Gourock,,,GOUROCK,,,,0,,224530,677215,,,BCT,MKD,OTH,,,,129,2003-08-27T00:00:00,2023-12-12T15:02:54,0,,active
6130632,46825265,,,Larkfield Road,,,,Larkfield Road,,Broomberry Drive,,,,after,,NW,ES001638,Gourock,,,GOUROCK,,,,0,,224559,677191,,,BCT,MKD,OTH,,,,129,2003-08-27T00:00:00,2023-12-12T15:02:54,0,,active
6130633,46825267,,,Arran Road,,,,Arran Road,,Kirn Drive,,,,opp,,W,ES001638,Gourock,,,GOUROCK,,,,0,,223799,676616,,,BCT,MKD,OTH,,,,129,2003-08-27T00:00:00,2023-12-12T15:02:54,0,,active
6130634,46825268,,,Arran Road,,,,Arran Road,,Kirn Drive,,,,before,,E,ES001638,Gourock,,,GOUROCK,,,,0,,223743,676625,,,BCT,MKD,OTH,,,,129,2003-08-27T00:00:00,2023-12-12T15:02:54,0,,active
6130635,46825272,,,Skye Crescent,,,,Skye Crescent,,Kirn Drive,,,,after,,E,ES001638,Gourock,,,GOUROCK,,,,0,,223561,676653,,,BCT,MKD,OTH,,,,129,2003-08-27T00:00:00,2023-12-12T15:02:54,0,,active
6130637,46825273,,,Glamis Drive,,,,Glamis Drive,,Wren Road,,,,before,,N,ES001670,Greenock,,,GREENOCK,,,,0,,225359,676153,,,BCT,MKD,OTH,,,,129,2003-08-27T00:00:00,2023-12-12T15:02:54,0,,active
6130638,46825274,,,Glamis Drive,,,,Glamis Drive,,Wren Road,,,,opp,,S,ES001670,Greenock,,,GREENOCK,,,,0,,225368,676166,,,BCT,MKD,OTH,,,,129,2003-08-27T00:00:00,2023-12-12T15:02:54,0,,active
6130639,46825275,,,Wren Road,,,,Wren Road,,Kestrel Crescent,,,,before,,NW,ES001670,Greenock,,,GREENOCK,,,,0,,225436,676265,,,BCT,MKD,OTH,,,,129,2003-08-27T00:00:00,2023-12-12T15:02:54,0,,active
613064,46824373,,,Mallaig Road,,,,Mallaig Road,,Auchenbothie Road,,,,at,,N,N0078744,Bardrainney,Port Glasgow,,PORT GLASGOW,,,,0,,233639,673270,,,BCT,MKD,OTH,,,,129,2003-08-27T00:00:00,2023-12-12T15:02:54,0,,active
6130640,46825276,,,Wren Road,,,,Wren Road,,Kestrel Crescent,,,,opp,,SE,ES001670,Greenock,,,GREENOCK,,,,0,,225443,676268,,,BCT,CUS,OTH,,,,129,2003-08-27T00:00:00,2023-12-12T15:02:54,0,,active
6130641,46825278,,,Kestrel Crescent,,,,Kestrel Crescent,,Finch Road,,,,before,,N,ES001670,Greenock,,,GREENOCK,,,,0,,225522,676399,,,BCT,MKD,OTH,,,,129,2003-08-27T00:00:00,2023-12-12T15:02:54,0,,active
6130642,46825279,,,Auchneagh Farm Road,,,,Auchneagh Farm Road,,Finch Road,,,,before,,S,ES001670,Greenock,,,GREENOCK,,,,0,,225528,676360,,,BCT,MKD,OTH,,,,129,2003-08-27T00:00:00,2023-12-12T15:02:54,0,,active
6130643,46825282,,,Merlin Avenue,,,,Merlin Avenue,,Finch Road,,,,before,,N,ES001670,Greenock,,,GREENOCK,,,,0,,225557,676599,,,BCT,MKD,OTH,,,,129,2003-08-27T00:00:00,2023-12-12T15:02:54,0,,active
6130644,46825283,,,Merlin Avenue,,,,Merlin Avenue,,Finch Road,,,,after,,S,ES001670,Greenock,,,GREENOCK,,,,0,,225562,676578,,,BCT,MKD,OTH,,,,129,2003-08-27T00:00:00,2023-12-12T15:02:54,0,,active
6130645,46825284,,,Moss Road,,,,Moss Road,,Bardrainney Avenue,,,,before,,S,ES003052,Port Glasgow,,,PORT GLASGOW,,,,0,,233846,673270,,,BCT,MKD,OTH,,,,129,2003-08-27T00:00:00,2023-12-12T15:02:54,0,,active
6130646,46825383,,,Jura Street,,,,Jura St,,Rankin Street,,,,opp,,SW,ES001670,Greenock,,,GREENOCK,,,,0,,226282,675880,,,BCT,MKD,OTH,,,,129,2003-08-27T00:00:00,2023-12-12T15:02:54,0,,active
6130647,46825485,,,Jura Street,,,,Jura Street,,after,,,,Rankin Street,,NE,ES001670,Greenock,,,GREENOCK,,,,0,,226280,675887,,,BCT,CUS,OTH,,,,129,2003-08-27T00:00:00,2023-12-12T15:02:54,0,,active
6130648,46825463,,,Dubbs Road,,,,Dubbs Road,,Montrose Avenue,,,,before,,NE,ES003052,Port Glasgow,,,PORT GLASGOW,,,,0,,233363,673232,,,BCT,MKD,OTH,,,,129,2003-08-27T00:00:00,2023-12-12T15:02:54,0,,active
6130649,46825464,,,Methil Road,,,,Methil Road,,Montrose Avenue,,,,opp,,NW,ES003052,Port Glasgow,,,PORT GLASGOW,,,,0,,233436,672857,,,BCT,MKD,OTH,,,,129,2003-08-27T00:00:00,2023-12-12T15:02:54,0,,active
613065,46824263,,,Mallaig Road,,,,Mallaig Road,,Auchenbothie Road,,,,opp,,S,N0078744,Bardrainney,Port Glasgow,,PORT GLASGOW,,,,0,,233648,673266,,,BCT,MKD,OTH,,,,129,2003-08-27T00:00:00,2023-12-12T15:02:54,0,,active
6130650,46824546,,,Caithness Road,,,,Caithness Road,,Banff Road,,,,after,,S,ES002293,Larkfield,Greenock,,GREENOCK,,,,0,,223514,676036,,,BCT,MKD,OTH,,,,129,2003-08-27T00:00:00,2023-12-12T15:02:54,0,,active
6130651,46824562,,,Bawhirley Road,,,,Bawhirley Road,,Carwood Road,,,,after,,NW,N0078738,Bridgend,Greenock,,GREENOCK,,,,0,,229439,675446,,,BCT,MKD,OTH,,,,129,2003-08-27T00:00:00,2023-12-12T15:02:54,0,,inactive
6130652,46824563,,,Auchendarroch Street,,,,Auchendarroch Street,,Carwood Road,,,,before,,SE,N0078738,Bridgend,Greenock,,GREENOCK,,,,0,,229598,675360,,,BCT,MKD,OTH,,,,129,2003-08-27T00:00:00,2023-12-12T15:02:54,0,,inactive
6130653,46824564,,,Baxter Street,,,,Baxter Street,,Carwood Road,,,,before,,NW,N0078738,Bridgend,Greenock,,GREENOCK,,,,0,,229724,675307,,,BCT,MKD,OTH,,,,129,2003-08-27T00:00:00,2023-12-12T15:02:54,0,,inactive
6130654,46824565,,,Muirdykes Avenue,,,,Muirdykes Avenue,,Dubbs Road,,,,before,,NW,ES003052,Port Glasgow,,,PORT GLASGOW,,,,0,,233228,673427,,,BCT,MKD,OTH,,,,129,2003-08-27T00:00:00,2023-12-12T15:02:54,0,,active
6130655,46824545,,,Luss Avenue,,,,Luss Avenue,,Renton Road,,,,before,,NW,ES001670,Greenock,,,GREENOCK,,,,0,,229160,674345,,,BCT,MKD,OTH,,,,129,2003-08-27T00:00:00,2023-12-12T15:02:54,0,,active
6130656,46824539,,,Canmore Crescent,,,,,,Fancy Farm Road,,,,before,,SW,ES001670,Greenock,,,GREENOCK,,,,0,,225058,675822,,,BCT,MKD,OTH,,,,129,2003-08-27T00:00:00,2023-12-12T15:02:54,0,,active
6130657,46824542,,,Garvie Avenue,,,,Garvie Avenue,,Reservoir Road,,,,after,,NW,ES001638,Gourock,,,GOUROCK,,,,0,,224765,676783,,,BCT,MKD,OTH,,,,129,2003-08-27T00:00:00,2023-12-12T15:02:54,0,,active
6130658,46824549,,,Burnside Road,,,,Burnside Road,,Reservoir Road,,,,before,,SE,ES001638,Gourock,,,GOUROCK,,,,0,,224804,676783,,,BCT,MKD,OTH,,,,129,2003-08-27T00:00:00,2023-12-12T15:02:54,0,,active
6130659,46824543,,,Lochview Avenue,,,,Lochview Avenue,,Manor Crescent,,,,after,,SW,ES001638,Gourock,,,GOUROCK,,,,0,,225005,677120,,,BCT,MKD,OTH,,,,129,2003-08-27T00:00:00,2023-12-12T15:02:54,0,,active
613066,46823574,,,Dubbs Road,,,,Dubbs Road,,Boglestone Avenue,,,,opp,,E,N0078745,Boglestone,Port Glasgow,,PORT GLASGOW,,,,0,,233588,673520,,,BCT,MKD,OTH,,,,129,2003-08-27T00:00:00,2023-12-12T15:02:54,0,,active
6130660,46824574,,,Oxford Avenue,,,,Oxford Avenue,,Burnside Road,,,,after,,SE,ES001638,Gourock,,,GOUROCK,,,,0,,224958,676777,,,BCT,MKD,OTH,,,,129,2003-08-27T00:00:00,2023-12-12T15:02:54,0,,active
6130661,46824684,,,Arran Road,,,,Arran Road,,Tower Drive,,,,after,,NW,N0072859,Midton,Gourock,,GOUROCK,,,,0,,223730,676885,,,BCT,MKD,OTH,,,,129,2003-08-27T00:00:00,2023-12-12T15:02:54,0,,active
6130662,46824575,,,Sinclair Street,,,,Sinclair Street,,Weir Street,,,,before,,NW,ES001670,Greenock,,,GREENOCK,,,,0,,229767,675070,,,BCT,MKD,OTH,,,,129,2003-08-27T00:00:00,2023-12-12T15:02:54,0,,active
6130663,468245676,,,Sinclair Street,,,,Sinclair Street,,Weir Street,,,,after,,SE,ES001670,Greenock,,,GREENOCK,,,,0,,229777,675070,,,BCT,MKD,OTH,,,,129,2003-08-27T00:00:00,2023-12-12T15:02:54,0,,active
6130664,46824578,,,Sinclair Street,,,,Sinclair Street,,Grosvenor Road,,,,before,,E,ES001670,Greenock,,,GREENOCK,,,,0,,229724,675132,,,BCT,CUS,OTH,,,,129,2003-08-27T00:00:00,2023-12-12T15:02:54,0,,active
6130665,46824579,,,Sinclair Street,,,,Sinclair Street,,Grosvenor Road,,,,after,,W,ES001670,Greenock,,,GREENOCK,,,,0,,229725,675122,,,BCT,MKD,OTH,,,,129,2003-08-27T00:00:00,2023-12-12T15:02:54,0,,active
6130666,46824582,,,McLeod Street,,,,McLeod Street,,Sinclair Street,,,,after,,SW,ES001670,Greenock,,,GREENOCK,,,,0,,229797,675169,,,BCT,MKD,OTH,,,,129,2003-08-27T00:00:00,2023-12-12T15:02:54,0,,inactive
6130667,46824583,,,McLeod Street,,,,McLeod Street,,Sinclair Street,,,,opp,,N,ES001670,Greenock,,,GREENOCK,,,,0,,229791,675179,,,BCT,MKD,OTH,,,,129,2003-08-27T00:00:00,2023-12-12T15:02:54,0,,inactive
6130668,46824584,,,Baxter Street,,,,Baxter Street,,Carwood Street,,,,opp,,SE,ES001670,Greenock,,,GREENOCK,,,,0,,229734,675320,,,BCT,MKD,OTH,,,,129,2003-08-27T00:00:00,2023-12-12T15:02:54,0,,inactive
6130669,46824589,,,Factory,,,,Factory,,Earnhill Road,,,,at,,NE,ES001670,Greenock,,,GREENOCK,,,,0,,223171,675898,,,BCT,MKD,OTH,,,,129,2003-08-27T00:00:00,2023-12-12T15:02:54,0,,active
613067,46823232,,,Dubbs Road,,,,Dubbs Road,,Boglestone Avenue,,,,at,,W,N0078745,Boglestone,Port Glasgow,,PORT GLASGOW,,,,0,,233570,673513,,,BCT,MKD,OTH,,,,129,2003-08-27T00:00:00,2023-12-12T15:02:54,0,,active
6130670,46824592,,,Fife Road,,,,Fife Road,,Earnhill Road,,,,opp,,NE,ES001670,Greenock,,,GREENOCK,,,,0,,223758,676224,,,BCT,MKD,OTH,,,,129,2003-08-27T00:00:00,2023-12-12T15:02:54,0,,active
6130671,46824594,,,Skye Crescent,,,,Skye Crescent,,Kirn Drive,,,,before,,SE,ES001638,Gourock,,,GOUROCK,,,,0,,223348,676728,,,BCT,CUS,OTH,,,,129,2003-08-27T00:00:00,2023-12-12T15:02:54,0,,active
6130672,46824787,,,Port Glasgow High School,,,,Port Glasgow High School,,Kilmacolm Road,,,,opp,,SE,N0078749,Slaemuir,Port Glasgow,,PORT GLASGOW,,,,0,,234295,672936,,,BCT,MKD,OTH,,,,129,2003-08-27T00:00:00,2023-12-12T15:02:54,0,,active
6130673,46824845,,,Port Glasgow High School,,,,Port Glasgow High School,,Kilmacolm Road,,,,at,,NW,N0078749,Slaemuir,Port Glasgow,,PORT GLASGOW,,,,0,,234274,672947,,,BCT,MKD,OTH,,,,129,2003-08-27T00:00:00,2023-12-12T15:02:54,0,,active
6130674,46825326,,,Murdieston Street,,,,Murdieston Street,,Prospecthill Street,,,,after,,SE,ES001670,Greenock,,,GREENOCK,,,,1,,227035,675785,,,BCT,MKD,OTH,,,,129,2003-08-27T00:00:00,2023-12-12T15:02:54,0,,active
6130675,46825483,,,Broomhill Street,,,,Broomhill Street,,Prospecthill Street,,,,opp,,SE,ES001670,Greenock,,,GREENOCK,,,,0,,227317,675684,,,BCT,MKD,OTH,,,,129,2003-08-27T00:00:00,2023-12-12T15:02:54,0,,active
6130676,46825672,,,Parkhill Avenue,,,,No 67,,Parkhill Avenue,,,,opp 67,,NW,N0068246,Woodhall,Port Glasgow,,PORT GLASGOW,,,,1,,234125,673817,,,BCT,MKD,OTH,,,,129,2003-08-27T00:00:00,2023-12-12T15:02:54,0,,active
6130677,46825862,,,Kelburn Bridge,,,,Cemetery,,Glasgow Road,,,,opp,,W,ES003052,Port Glasgow,,,PORT GLASGOW,,,,0,,233902,674143,,,BCT,CUS,OTH,,,,129,2003-08-27T00:00:00,2023-12-12T15:02:54,0,,active
6130678,46825965,,,Woodhall Terrace,,,,Woodhall Terrace,,Glasgow Road,,,,at,,W,N0068246,Woodhall,Port Glasgow,,PORT GLASGOW,,,,0,,234716,673894,,,BCT,MKD,OTH,,,,129,2003-08-27T00:00:00,2023-12-12T15:02:54,0,,active
6130679,46826278,,,Woodhall Terrace,,,,Woodhall Terrace,,Glasgow Road,,,,opp,,E,N0068246,Woodhall,Port Glasgow,,PORT GLASGOW,,,,0,,234718,673903,,,BCT,MKD,OTH,,,,129,2003-08-27T00:00:00,2023-12-12T15:02:54,0,,active
613068,46823252,,,Stane Road,,,,Stane Road,,Boglestone Avenue,,,,opp,,NW,N0078745,Boglestone,Port Glasgow,,PORT GLASGOW,,,,0,,233342,673579,,,BCT,MKD,OTH,,,,129,2003-08-27T00:00:00,2023-12-12T15:02:54,0,,active
6130680,46826385,,,Holy Family School,,,,Holy Family School,,Parkhill Avenue,,,,opp,,SE,ES003052,Port Glasgow,,,PORT GLASGOW,,,,0,,234223,673771,,,BCT,MKD,OTH,,,,129,2003-08-27T00:00:00,2023-12-12T15:02:54,0,,active
6130681,46826489,,,Darroch Drive,,,,Darroch Drive,,Broomberry Drive,,,,after,,W,ES001638,Gourock,,,GOUROCK,,,,0,,224383,677259,,,BCT,MKD,OTH,,,,129,2003-08-27T00:00:00,2023-12-12T15:02:54,0,,active
6130682,46836367,,,Prospecthill Place,,,,Prospecthill Place,,Prospecthill Street,,,,after,,SE,ES001670,Greenock,,,GREENOCK,,,,0,,227205,675724,,,BCT,MKD,OTH,,,,129,2003-08-27T00:00:00,2023-12-12T15:02:54,0,,active
6130683,46836268,,,Whitelees Road,,,,Whitelees Road,,Mitchell Street,,,,before,,SE,ES001508,Gibshill,Port Glasgow,,GREENOCK,,,,0,,230697,674666,,,BCT,MKD,OTH,,,,129,2003-08-27T00:00:00,2023-12-12T15:02:54,0,,active
6130684,46836482,,,Captain Street,,,,Captain Street,,Wellington Street,,,,before,,NW,ES001670,Greenock,,,GREENOCK,,,,0,,227486,675828,,,BCT,MKD,OTH,,,,129,2003-08-27T00:00:00,2023-12-12T15:02:54,0,,active
6130685,46836434,,,Caithness Road,,,,Caithness Road,,Banff Road,,,,before,,SW,ES002293,Larkfield,Greenock,,GREENOCK,,,,0,,223447,675904,,,BCT,MKD,OTH,,,,129,2003-08-27T00:00:00,2023-12-12T15:02:54,0,,active
6130686,46836453,,,Church Street,,,,Fore Street,,Church Street,,,,at Stop 1,,SW,ES003052,Port Glasgow,,,PORT GLASGOW,,,,1,,232152,674600,,,BCT,MKD,OTH,,,,129,2003-08-27T00:00:00,2023-12-12T15:02:54,0,,inactive
6130687,46835975,,,Church Street,,,,Fore Street,,Church Street,,,,at Stop 2,,SW,ES003052,Port Glasgow,,,PORT GLASGOW,,,,0,,232129,674585,,,BCT,MKD,OTH,,,,129,2003-08-27T00:00:00,2023-12-12T15:02:54,0,,inactive
6130688,46836396,,,Church Street,,,,Princes Street,,Church Street,,,,at Stop 3,,SW,ES003052,Port Glasgow,,,PORT GLASGOW,,,,1,,232113,674575,,,BCT,MKD,OTH,,,,129,2003-08-27T00:00:00,2023-12-12T15:02:54,0,,inactive
6130689,46836285,,,Nicol Drive,,,,Nicol Drive,,Nicol Street,,,,opp,,NW,ES001670,Greenock,,,GREENOCK,,,,0,,225943,675993,,,BCT,MKD,OTH,,,,129,2003-08-27T00:00:00,2023-12-12T15:02:54,0,,active
613069,46823828,,,Stane Road,,,,Stane Road,,Boglestone Avenue,,,,at,,SE,N0078745,Boglestone,Port Glasgow,,PORT GLASGOW,,,,0,,233270,673637,,,BCT,MKD,OTH,,,,129,2003-08-27T00:00:00,2023-12-12T15:02:54,0,,active
6130690,46835932,,,Nicol Drive,,,,Nicol Drive,,Nicol Street,,,,before,,SE,ES001670,Greenock,,,GREENOCK,,,,0,,225932,676006,,,BCT,CUS,OTH,,,,129,2003-08-27T00:00:00,2023-12-12T15:02:54,0,,active
6130691,46835836,,,Walker Street,,,,,,Tasker Street,,,,after,,NE,ES001670,Greenock,,,GREENOCK,,,,0,,226006,676087,,,BCT,MKD,OTH,,,,129,2003-08-27T00:00:00,2023-12-12T15:02:54,0,,active
6130692,46835679,,,Nicol Street,,,,,,Tasker Street,,,,after,,SW,ES001670,Greenock,,,GREENOCK,,,,0,,225999,676092,,,BCT,CUS,OTH,,,,129,2003-08-27T00:00:00,2023-12-12T15:02:54,0,,active
6130693,46827976,,,Rowan Street,,,,,,Walker Street,,,,after,,NE,ES001670,Greenock,,,GREENOCK,,,,0,,226134,676075,,,BCT,CUS,OTH,,,,129,2003-08-27T00:00:00,2023-12-12T15:02:54,0,,active
6130694,46827876,,,Brae View,,,,,,Walker Street,,,,before,,SW,ES001670,Greenock,,,GREENOCK,,,,0,,226128,676077,,,BCT,MKD,OTH,,,,129,2003-08-27T00:00:00,2023-12-12T15:02:54,0,,active
6130695,46828383,,,Barrs Brae Lane,,,,Barrs Brae Lane,,Glenhuntly Road,,,,after,,SE,ES003052,Port Glasgow,,,PORT GLASGOW,,,,0,,232050,674227,,,BCT,MKD,OTH,,,,129,2003-08-27T00:00:00,2023-12-12T15:02:54,0,,active
6130696,46828478,,,Kinross Avenue,,,,Kinross Avenue,,Glenhuntly Road,,,,before,,SE,ES003052,Port Glasgow,,,PORT GLASGOW,,,,0,,232157,674179,,,BCT,MKD,OTH,,,,129,2003-08-27T00:00:00,2023-12-12T15:02:54,0,,active
6130697,46828592,,,Glenhuntly Road,,,,Barr's Brae,,Kinross Avenue,,,,after,,SE,ES003052,Port Glasgow,,,PORT GLASGOW,,,,0,,232363,674123,,,BCT,MKD,OTH,,,,129,2003-08-27T00:00:00,2023-12-12T15:02:54,0,,active
6130698,46828525,,,Springhill Road,,,,Springhill Road,,Kinross Avenue,,,,before,,SE,ES003052,Port Glasgow,,,PORT GLASGOW,,,,0,,232479,674077,,,BCT,MKD,OTH,,,,129,2003-08-27T00:00:00,2023-12-12T15:02:54,0,,active
6130699,46828594,,,Custom House Way,,,,Custom House Way,,Container Way,,,,opp,,NW,ES001670,Greenock,,,GREENOCK,,,,0,,227908,676455,,,BCT,CUS,OTH,,,,129,2003-08-27T00:00:00,2023-12-12T15:02:54,0,,inactive
61307,46823436,,,Fyfe Park Road,,,,Fyfe Park Road,,Glasgow Road,,,,at,,SE,ES003052,Port Glasgow,,,PORT GLASGOW,,,,0,,233457,674163,,,BCT,MKD,OTH,,,,129,2003-08-27T00:00:00,2023-12-12T15:02:54,0,,active
613070,46823892,,,Bridgend Avenue,,,,Bridgend Avenue,,Boglestone Avenue,,,,opp,,NW,N0078745,Boglestone,Port Glasgow,,PORT GLASGOW,,,,0,,233111,673742,,,BCT,MKD,OTH,,,,129,2003-08-27T00:00:00,2023-12-12T15:02:54,0,,active
6130700,46839763,,,Cawdor Crescent,,,,Cawdor Crescent,,Fancy Farm Road,,,,at,,NE,N0072834,Smithston,,,GREENOCK,,,,0,,225054,675832,,,BCT,MKD,OTH,,,,129,2003-08-27T00:00:00,2023-12-12T15:02:54,0,,active
6130701,46824527,,,Glebe Road,,,,Glebe Road,,Glen Crescent,,,,opp,,NW,ES001874,Inverkip,,,INVERKIP,,,,0,,221063,672038,,,BCT,CUS,OTH,,,,129,2003-08-27T00:00:00,2023-12-12T15:02:54,0,,active
6130704,46836234,,,Brisbane Street,,,,Brisbane Street,,Nelson Street,,,,opp,,SW,ES001670,Greenock,,,GREENOCK,,,,0,,227340,676370,,,BCT,MKD,OTH,,,,129,2003-08-27T00:00:00,2023-12-12T15:02:54,0,,active
6130705,46827637,,,Faith Avenue,,,,Faith Avenue,,Craigbet Road,,,,before,,SE,N0068194,Quarriers Village,,,QUARRIERS VILLAGE,,,,0,,236293,666789,,,BCT,MKD,OTH,,,,129,2003-08-27T00:00:00,2023-12-12T15:02:54,0,,active
6130706,46872437,,,Torr Lane,,,,Torr Lane,,Craigbet Road,,,,at,,NW,N0068194,Quarriers Village,,,QUARRIERS VILLAGE,,,,0,,236287,666786,,,BCT,CUS,OTH,,,,129,2003-08-27T00:00:00,2023-12-12T15:02:54,0,,active
6130707,46869787,,,Union Street,,,,Union Street,,Patrick Street,,,,before,,SW,ES001670,Greenock,,,GREENOCK,,,,0,,227363,676687,,,BCT,MKD,OTH,,,,129,2003-08-27T00:00:00,2023-12-12T15:02:54,0,,active
6130708,46898974,,,Smillie Street,,,,Smillie Street,,Lansbury Street,,,,after,,E,ES001508,Gibshill,Port Glasgow,,GREENOCK,,,,0,,230329,674794,,,BCT,MKD,OTH,,,,129,2003-08-27T00:00:00,2023-12-12T15:02:54,0,,active
6130709,46854869,,,Broomberry Drive,,,,Broomberry Drive,,Drumshantie Road,,,,after,,SE,ES001638,Gourock,,,GOUROCK,,,,0,,224268,677252,,,BCT,MKD,OTH,,,,129,2003-08-27T00:00:00,2023-12-12T15:02:54,0,,active
613071,46824343,,,Bridgend Avenue,,,,Bridgend Avenue,,Boglestone Avenue,,,,at,,SE,N0078745,Boglestone,Port Glasgow,,PORT GLASGOW,,,,0,,233129,673744,,,BCT,MKD,OTH,,,,129,2003-08-27T00:00:00,2023-12-12T15:02:54,0,,active
6130710,46834856,,,Broomberry Drive,,,,Broomberry Drive,,Drumshantie Road,,,,before,,N,ES001638,Gourock,,,GOUROCK,,,,0,,224258,677256,,,BCT,MKD,OTH,,,,129,2003-08-27T00:00:00,2023-12-12T15:02:54,0,,active
6130711,46895283,,,James Watt Dock,,,,James Watt Dock,,Access Road,,,,at,,N,ES001670,Greenock,,,GREENOCK,,,,0,,229971,675532,,,BCT,MKD,OTH,,,,129,2003-08-27T00:00:00,2023-12-12T15:02:54,0,,inactive
6130712,46898965,,,Cardross Crescent,,,,Cardross Crescent,,Clynder Road,,,,after,,E,ES001670,Greenock,,,GREENOCK,,,,0,,229370,674620,,,BCT,MKD,OTH,,,,129,2003-08-27T00:00:00,2023-12-12T15:02:54,0,,inactive
6130713,46845459,,,High Carnegie Road,,,,High Carnegie Road,,Parkhill Avenue,,,,before,,W,N0068246,Woodhall,Port Glasgow,,PORT GLASGOW,,,,0,,233958,673867,,,BCT,MKD,OTH,,,,129,2003-08-27T00:00:00,2023-12-12T15:02:54,0,,active
6130714,46837385,,,Lothian Road,,,,Lothian Road,,Burns Road,,,,after,,NE,ES001670,Greenock,,,GREENOCK,,,,0,,223803,675865,,,BCT,MKD,OTH,,,,129,2003-08-27T00:00:00,2023-12-12T15:02:54,0,,active
6130715,46862354,,,Cambridge Road,,,,Cambridge Road,,Burns Road,,,,opp,,NE,ES001670,Greenock,,,GREENOCK,,,,0,,223908,676124,,,BCT,MKD,OTH,,,,129,2003-08-27T00:00:00,2023-12-12T15:02:54,0,,active
6130716,46824597,,,Cambridge Road,,,,Cambridge Road,,Burns Road,,,,after,,SW,ES002293,Larkfield,Greenock,,GREENOCK,,,,0,,223904,676096,,,BCT,MKD,OTH,,,,129,2003-08-27T00:00:00,2023-12-12T15:02:54,0,,active
6130717,46876872,,,Exmouth Drive,,,,Exmouth Drive,,Weymouth Crescent,,,,before,,E,ES001670,Greenock,,,GREENOCK,,,,0,,224491,676269,,,BCT,MKD,OTH,,,,129,2003-08-27T00:00:00,2023-12-12T15:02:54,0,,active
6130718,46897979,,,Portsmouth Drive,,,,Portsmouth Drive,,Weymouth Crescent,,,,at,,W,ES001670,Greenock,,,GREENOCK,,,,0,,224515,676255,,,BCT,CUS,OTH,,,,129,2003-08-27T00:00:00,2023-12-12T15:02:54,0,,active
6130719,46875989,,,Plymouth Avenue,,,,Plymouth Avenue,,Weymouth Crescent,,,,before,,NW,ES001670,Greenock,,,GREENOCK,,,,0,,224457,676154,,,BCT,MKD,OTH,,,,129,2003-08-27T00:00:00,2023-12-12T15:02:54,0,,active
613072,46823468,,,Cardross Avenue,,,,Cardross Avenue,,Ardmore Road,,,,near,,SE,ES003052,Port Glasgow,,,PORT GLASGOW,,,,0,,232933,673931,,,BCT,MKD,OTH,,,,129,2003-08-27T00:00:00,2023-12-12T15:02:54,0,,active
6130720,46836378,,,Falmouth Drive,,,,Falmouth Drive,,Weymouth Crescent,,,,before,,SE,ES001670,Greenock,,,GREENOCK,,,,0,,224489,676140,,,BCT,MKD,OTH,,,,129,2003-08-27T00:00:00,2023-12-12T15:02:54,0,,active
6130721,46824528,,,Bournemouth Road,,,,Bournemouth Road,,Weymouth Crescent,,,,after,,NW,ES001670,Greenock,,,GREENOCK,,,,0,,224594,676087,,,BCT,MKD,OTH,,,,129,2003-08-27T00:00:00,2023-12-12T15:02:54,0,,active
6130722,46856959,,,Larkfield Road,,,,Larkfield Road,,Weymouth Crescent,,,,before,,SE,ES001670,Greenock,,,GREENOCK,,,,0,,224621,676085,,,BCT,MKD,OTH,,,,129,2003-08-27T00:00:00,2023-12-12T15:02:54,0,,active
6130723,46893783,,,Arden Road,,,,Arden Road,,Renton Road,,,,after,,W,N0078743,Strone Farm,Greenock,,GREENOCK,,,,0,,229468,674315,,,BCT,MKD,OTH,,,,129,2003-08-27T00:00:00,2023-12-12T15:02:54,0,,active
6130724,46824632,,,George Road,,,,George Road,,Larkfield Road,,,,before,,NE,ES001638,Gourock,,,GOUROCK,,,,0,,224391,676485,,,BCT,MKD,OTH,,,,129,2003-08-27T00:00:00,2023-12-12T15:02:54,0,,active
6130725,46834364,,,Belville Street,,,,Belville Street,,St Lawrence Street,,,,after,,N,ES000660,Cartsdyke,Greenock,,GREENOCK,,,,0,,229177,675559,,,BCT,MKD,OTH,,,,129,2003-08-27T00:00:00,2023-12-12T15:02:54,0,,inactive
6130726,46879562,,,Belville Street,,,,Belville Street,,St Lawrence Street,,,,before,,E,ES000660,Cartsdyke,Greenock,,GREENOCK,,,,0,,229165,675576,,,BCT,MKD,OTH,,,,129,2003-08-27T00:00:00,2023-12-12T15:02:54,0,,inactive
6130727,46842872,,,West Blackhall Street,,,,West Blackhall Street,,Patrick Street,,,,before,,SW,ES001670,Greenock,,,GREENOCK,,,,0,,227537,676843,,,BCT,MKD,OTH,,,,129,2003-08-27T00:00:00,2023-12-12T15:02:54,0,,active
6130728,46895682,,,Angus Road,,,,Angus Road,,Berwick Road,,,,before,,E,ES002293,Larkfield,Greenock,,GREENOCK,,,,0,,223698,675622,,,BCT,MKD,OTH,,,,129,2003-08-27T00:00:00,2023-12-12T15:02:54,0,,active
6130729,46853458,,,Woodhall Terrace,,,,Woodhall Terrace,,Glasgow Road,,,,opp,,E,N0068246,Woodhall,Port Glasgow,,PORT GLASGOW,,,,0,,234476,673976,,,BCT,MKD,OTH,,,,129,2003-08-27T00:00:00,2023-12-12T15:02:54,0,,active
613073,46823823,,,Selkirk Road,,,,Selkirk Road,,Ardmore Road,,,,at,,NW,ES003052,Port Glasgow,,,PORT GLASGOW,,,,0,,232846,673938,,,BCT,MKD,OTH,,,,129,2003-08-27T00:00:00,2023-12-12T15:02:54,0,,active
6130730,46896874,,,Clyde Road,,,,Clyde Road,,Burnside Road,,,,opp,,SW,ES001638,Gourock,,,GOUROCK,,,,0,,224901,676956,,,BCT,MKD,OTH,,,,129,2003-08-27T00:00:00,2023-12-12T15:02:54,0,,active
6130731,46868752,,,Argyle Road,,,,Argyle Road,,Burnside Road,,,,after,,NE,ES001638,Gourock,,,GOUROCK,,,,0,,224880,676954,,,BCT,MKD,OTH,,,,129,2003-08-27T00:00:00,2023-12-12T15:02:54,0,,active
6130732,46867635,,,Hole Farm Road,,,,Hole Farm Road,,Peat Road,,,,opp,,S,N0078741,Overton,Greenock,,GREENOCK,,,,0,,226892,675356,,,BCT,MKD,OTH,,,,129,2003-08-27T00:00:00,2023-12-12T15:02:54,0,,active
6130733,46849523,,,Station Road,,,,Station Road,,Lower Kempock Street,,,,before,,NE,ES001638,Gourock,,,GOUROCK,,,,0,,224019,677913,,,BCT,MKD,OTH,,,,129,2003-08-27T00:00:00,2023-12-12T15:02:54,0,,active
6130734,46872745,,,Yetts Avenue,,,,Yetts Avenue,,Finlaystone Road,,,,opp,,S,ES002001,Kilmacolm,,,KILMACOLM,,,,0,,235822,670500,,,BCT,MKD,OTH,,,,129,2003-08-27T00:00:00,2023-12-12T15:02:54,0,,active
6130735,46838962,,,Oldhall Drive,,,,Oldhall Drive,,Finlaystone Road,,,,before,,S,ES002001,Kilmacolm,,,KILMACOLM,,,,0,,235862,670233,,,BCT,MKD,OTH,,,,129,2003-08-27T00:00:00,2023-12-12T15:02:54,0,,active
6130736,46868495,,,Gourock Rail Station,,,,Gourock Rail Station,,Station Road,,,,Stop 2,,SW,ES001638,Gourock,,,GOUROCK,,,,0,,224211,677947,,,BCT,MKD,OTH,,,,129,2003-08-27T00:00:00,2023-12-12T15:02:54,0,,active
6130737,46824586,,,Pembroke Road,,,,Pembroke Road,,Auchmead Road,,,,before,,NW,ES002293,Larkfield,Greenock,,GREENOCK,,,,0,,224141,675479,,,BCT,MKD,OTH,,,,129,2003-08-27T00:00:00,2023-12-12T15:02:54,0,,inactive
6130738,46836236,,,Auchmead Road,,,,Auchmead Road,,Warwick Road,,,,after,,SE,ES002293,Larkfield,Greenock,,GREENOCK,,,,0,,224218,675466,,,BCT,MKD,OTH,,,,129,2003-08-27T00:00:00,2023-12-12T15:02:54,0,,inactive
6130739,46894738,,,Cumberland Road,,,,Cumberland Road,,Auchmead Road,,,,before,,SW,ES002293,Larkfield,Greenock,,GREENOCK,,,,0,,224113,675951,,,BCT,MKD,OTH,,,,129,2003-08-27T00:00:00,2023-12-12T15:02:54,0,,inactive
613074,46823895,,,Selkirk Road,,,,Selkirk Road,,Ardmore Road,,,,opp,,SE,ES003052,Port Glasgow,,,PORT GLASGOW,,,,0,,232812,673965,,,BCT,MKD,OTH,,,,129,2003-08-27T00:00:00,2023-12-12T15:02:54,0,,inactive
6130740,46843969,,,Cumberland Road,,,,Cumberland Road,,Auchmead Road,,,,before,,NE,ES002293,Larkfield,Greenock,,GREENOCK,,,,0,,224103,675933,,,BCT,MKD,OTH,,,,129,2003-08-27T00:00:00,2023-12-12T15:02:54,0,,inactive
6130741,46896236,,,Drumshantie Road,,,,Drumshantie Road,,George Road,,,,after,,E,ES001638,Gourock,,,GOUROCK,,,,0,,224214,676650,,,BCT,MKD,OTH,,,,129,2003-08-27T00:00:00,2023-12-12T15:02:54,0,,active
6130742,46897397,,,Faulds Park Road,,,,Faulds Park Road,,Cloch Road,,,,before,,SW,N0072858,Levan,Gourock,,GOUROCK,,,,0,,221083,676238,,,BCT,MKD,OTH,,,,129,2003-08-27T00:00:00,2023-12-12T15:02:54,0,,active
6130743,46845485,,,Faulds Park Road,,,,Faulds Park Road,,Cloch Road,,,,opp & after,,NE,N0072858,Levan,Gourock,,GOUROCK,,,,0,,221070,676245,,,BCT,MKD,OTH,,,,129,2003-08-27T00:00:00,2023-12-12T15:02:54,0,,active
6130744,46837357,,,Dunlop Street,,,,Dunlop Street,,Murdieston Street,,,,after,,N,ES001670,Greenock,,,GREENOCK,,,,0,,226956,675700,,,BCT,MKD,OTH,,,,129,2003-08-27T00:00:00,2023-12-12T15:02:54,0,,active
6130745,46867452,,,Inchgreen Gardens,,,,Inchgreen Gardens,,Scott Way,,,,at,,S,ES003052,Port Glasgow,,,PORT GLASGOW,,,,0,,230888,675092,,,BCT,MKD,OTH,,,,129,2003-08-27T00:00:00,2023-12-12T15:02:54,0,,inactive
6130746,46845348,,,Inchgreen Gardens,,,,Inchgreen Gardens,,Scott Way,,,,opp,,N,ES003052,Port Glasgow,,,PORT GLASGOW,,,,0,,230872,675100,,,BCT,MKD,OTH,,,,129,2003-08-27T00:00:00,2023-12-12T15:02:54,0,,inactive
6130747,46874378,,,Caledonia Drive,,,,Caledonia Drive,,Scott Way,,,,after,,W,ES003052,Port Glasgow,,,PORT GLASGOW,,,,0,,231093,675048,,,BCT,MKD,OTH,,,,129,2003-08-27T00:00:00,2023-12-12T15:02:54,0,,inactive
6130748,46898923,,,Adamston Way,,,,Adamston Way,,Scott Way,,,,at,,SE,ES003052,Port Glasgow,,,PORT GLASGOW,,,,0,,231099,675064,,,BCT,MKD,OTH,,,,129,2003-08-27T00:00:00,2023-12-12T15:02:54,0,,inactive
6130749,46846359,,,Kingston Crescent,,,,Kingston Crescent,,Lithgow Way,,,,after,,NW,ES003052,Port Glasgow,,,PORT GLASGOW,,,,0,,231278,675080,,,BCT,MKD,OTH,,,,129,2003-08-27T00:00:00,2023-12-12T15:02:54,0,,inactive
613075,46824376,,,Kinross Avenue,,,,Kinross Avenue,,Ardmore Road,,,,at,,NW,ES003052,Port Glasgow,,,PORT GLASGOW,,,,0,,232590,674041,,,BCT,MKD,OTH,,,,129,2003-08-27T00:00:00,2023-12-12T15:02:54,0,,active
6130750,46824598,,,Octavia Walk,,,,Octavia Walk,,Lithgow Way,,,,opp,,E,ES003052,Port Glasgow,,,PORT GLASGOW,,,,0,,231367,675047,,,BCT,MKD,OTH,,,,129,2003-08-27T00:00:00,2023-12-12T15:02:54,0,,inactive
6130751,46852845,,,B&Q,,,,B&Q,,Russell Way,,,,at,,NW,ES003052,Port Glasgow,,,PORT GLASGOW,,,,0,,231508,674909,,,BCT,MKD,OTH,,,,129,2003-08-27T00:00:00,2023-12-12T15:02:54,0,,inactive
6130752,46873698,,,Costa Coffee,,,,Costa,,Russell Way,,,,opp,,NE,ES003052,Port Glasgow,,,PORT GLASGOW,,,,0,,231566,674922,,,BCT,MKD,OTH,,,,129,2003-08-27T00:00:00,2023-12-12T15:02:54,0,,inactive
6130753,46827823,,,Tesco,,,,Tesco,,Glenmill Way,,,,at,,S,ES003052,Port Glasgow,,,PORT GLASGOW,,,,0,,231658,674726,,,BCT,MKD,OTH,,,,129,2003-08-27T00:00:00,2023-12-12T15:02:54,0,,active
6130755,46859594,,,Chalmers Lane,,,,Chalmers Lane,,Scott Way,,,,opp,,E,ES003052,Port Glasgow,,,PORT GLASGOW,,,,0,,230985,675140,,,BCT,MKD,OTH,,,,129,2003-08-27T00:00:00,2023-12-12T15:02:54,0,,inactive
6130756,46895457,,,Chalmers Lane,,,,Chalmers Lane,,Scott Way,,,,at,,W,ES003052,Port Glasgow,,,PORT GLASGOW,,,,0,,230972,675123,,,BCT,MKD,OTH,,,,129,2003-08-27T00:00:00,2023-12-12T15:02:54,0,,inactive
6130757,46879539,,,John Street,,,,John Street,,Crescent Street,,,,after,,SE,ES000660,Cartsdyke,Greenock,,GREENOCK,,,,0,,228648,675494,,,BCT,MKD,OTH,,,,129,2003-08-27T00:00:00,2023-12-12T15:02:54,0,,inactive
6130758,46879542,,,Lunderston Bay,,,,Cardwell Garden Centre,,A770,,,,opp,,SE,N0072858,Levan,Gourock,,GOUROCK,,,,0,,220455,674650,,,BCT,MKD,OTH,,,,129,2003-08-27T00:00:00,2023-12-12T15:02:54,0,,active
6130759,46879576,,,Lunderston Bay,,,,Cardwell Garden Centre,,A770,,,,at,,NW,N0072858,Levan,Gourock,,GOUROCK,,,,0,,220436,674649,,,BCT,MKD,OTH,,,,129,2003-08-27T00:00:00,2023-12-12T15:02:54,0,,active
613076,46823249,,,Kinross Avenue,,,,Kinross Avenue,,Ardmore Road,,,,opp,,SE,ES003052,Port Glasgow,,,PORT GLASGOW,,,,0,,232581,674059,,,BCT,MKD,OTH,,,,129,2003-08-27T00:00:00,2023-12-12T15:02:54,0,,active
6130760,46879528,,,Tummel Road,,,,Tummel Road,,Lomond Road,,,,at,,S,ES003798,Wemyss Bay,,,WEMYSS BAY,,,,0,,219373,669736,,,BCT,MKD,OTH,,,,129,2003-08-27T00:00:00,2023-12-12T15:02:54,0,,active
6130761,46879524,,,Tummel Road,,,,Tummel Road,,Lomond Road,,,,opp,,N,ES003798,Wemyss Bay,,,WEMYSS BAY,,,,0,,219366,669748,,,BCT,MKD,OTH,,,,129,2003-08-27T00:00:00,2023-12-12T15:02:54,0,,active
6130762,46879583,,,Iona Road,,,,Iona Road,,Arran Avenue,,,,opp,,W,N0078748,Park Farm,Port Glasgow,,PORT GLASGOW,,,,0,,234287,673185,,,BCT,MKD,OTH,,,,129,2003-08-27T00:00:00,2023-12-12T15:02:54,0,,inactive
6130763,46879494,,,Eriskay Avenue,,,,Eriskay Avenue,,Arran Avenue,,,,at,,NE,N0078748,Park Farm,Port Glasgow,,PORT GLASGOW,,,,0,,234661,673281,,,BCT,MKD,OTH,,,,129,2003-08-27T00:00:00,2023-12-12T15:02:54,0,,active
6130764,46824654,,,William Street,,,,William Street,,Glen Avenue,,,,opp,,NW,ES003052,Port Glasgow,,,PORT GLASGOW,,,,0,,231549,674535,,,BCT,MKD,OTH,,,,129,2003-08-27T00:00:00,2023-12-12T15:02:54,0,,active
6130765,46824529,,,Quarry Drive,,,,,,Springwood Drive,,,,before,,NW,ES002001,Kilmacolm,,,KILMACOLM,,,,0,,235636,670538,,,BCT,MKD,OTH,,,,129,2003-08-27T00:00:00,2023-12-12T15:02:54,0,,active
6130766,46824593,,,Moorfoot Drive,,,,,,Moorfoot Drive,,,,at,,SW,ES001638,Gourock,,,GOUROCK,,,,0,,223172,676675,,,BCT,MKD,OTH,,,,129,2003-08-27T00:00:00,2023-12-12T15:02:54,0,,active
6130767,46824636,,,Firth Crescent,,,,,,Moorfoot Drive,,,,Opp,,W,ES001638,Gourock,,,GOUROCK,,,,0,,223060,676639,,,BCT,MKD,OTH,,,,129,2003-08-27T00:00:00,2023-12-12T15:02:54,0,,active
6130768,46824535,,,Nursery,,,,Nursery,,Oronsay Avenue,,,,at,,NE,ES003052,Port Glasgow,,,PORT GLASGOW,,,,0,,234473,672920,,,BCT,MKD,OTH,,,,129,2003-08-27T00:00:00,2023-12-12T15:02:54,0,,active
6130769,46824643,,,Cowal View,,,,,,Cowal View,,,,at 18,,E,ES001638,Gourock,,,GOUROCK,,,,0,,222993,676864,,,BCT,MKD,OTH,,,,129,2003-08-27T00:00:00,2023-12-12T15:02:54,0,,active
613077,46823962,,,Bouverie Street,,,,Bouverie Street,,Springhill Road,,,,at,,SE,ES003052,Port Glasgow,,,PORT GLASGOW,,,,0,,232388,674288,,,BCT,MKD,OTH,,,,129,2003-08-27T00:00:00,2023-12-12T15:02:54,0,,active
6130770,46824648,,,Divert Road,,,,,,Golf Road,,,,before,,S,ES001638,Gourock,,,GOUROCK,,,,0,,223213,676911,,,BCT,MKD,OTH,,,,129,2003-08-27T00:00:00,2023-12-12T15:02:54,0,,active
6130771,46824626,,,Drumshantie Road,,,,,,Kirn Drive,,,,before,,W,ES001638,Gourock,,,GOUROCK,,,,0,,224007,676626,,,BCT,MKD,OTH,,,,129,2003-08-27T00:00:00,2023-12-12T15:02:54,0,,active
6130773,46824532,,,Coll Avenue,,,,Coll Avneue,,Arran Avenue,,,,before,,N,ES003052,Port Glasgow,,,PORT GLASGOW,,,,0,,234565,673501,,,BCT,MKD,OTH,,,,129,2003-08-27T00:00:00,2023-12-12T15:02:54,0,,active
6130774,46824534,,,Coll Avenue,,,,Coll Avenue,,Arran Avenue,,,,at,,S,ES003052,Port Glasgow,,,PORT GLASGOW,,,,0,,234575,673527,,,BCT,MKD,OTH,,,,129,2003-08-27T00:00:00,2023-12-12T15:02:54,0,,active
6130775,46824679,,,Wellyard Wynd,,,,Wellyard Wynd,,Drumillan Hill,,,,before,,NW,N0072853,Braeside,Greenock,,GREENOCK,,,,0,,223206,674893,,,BCT,CUS,OTH,,,,129,2003-08-27T00:00:00,2023-12-12T15:02:54,0,,active
6130776,46824694,,,Maclean Place,,,,Maclean Place,,Kilmacolm Road,,,,at,,SE,ES003052,Port Glasgow,,,PORT GLASGOW,,,,0,,234091,673224,,,BCT,MKD,OTH,,,,129,2003-08-27T00:00:00,2023-12-12T15:02:54,0,,active
6130777,46824742,,,Marloch Avenue,,,,Marloch Avenue,,Kilmacolm Road,,,,after,,NW,ES003052,Port Glasgow,,,PORT GLASGOW,,,,1,,234075,673230,,,BCT,MKD,OTH,,,,129,2003-08-27T00:00:00,2023-12-12T15:02:54,0,,active
6130778,46824645,,,Moss Road,,,,Moss Road,,Bardrainney Avenue,,,,after,,NW,ES003052,Port Glasgow,,,PORT GLASGOW,,,,0,,234052,673219,,,BCT,MKD,OTH,,,,129,2003-08-27T00:00:00,2023-12-12T15:02:54,0,,active
6130779,46824587,,,Shandon Place,,,,Shandon Place,,Kilmacolm Road,,,,after,,E,N0078743,Strone Farm,Greenock,,GREENOCK,,,,0,,229382,674453,,,BCT,MKD,OTH,,,,129,2003-08-27T00:00:00,2023-12-12T15:02:54,0,,active
613078,46823624,,,Bouverie Street,,,,Bouverie Street,,Springhill Road,,,,opp,,W,ES003052,Port Glasgow,,,PORT GLASGOW,,,,0,,232331,674285,,,BCT,MKD,OTH,,,,129,2003-08-27T00:00:00,2023-12-12T15:02:54,0,,active
6130780,46824595,,,Strathblane Road,,,,Strathblane Road,,Kilmacolm Road,,,,at,,E,N0078743,Strone Farm,Greenock,,GREENOCK,,,,0,,229097,674561,,,BCT,MKD,OTH,,,,129,2003-08-27T00:00:00,2023-12-12T15:02:54,0,,active
6130781,46824596,,,Renton Road,,,,Renton Road,,Leven Road,,,,after,,W,N0078743,Strone Farm,Greenock,,GREENOCK,,,,1,,228965,674549,,,BCT,MKD,OTH,,,,129,2003-08-27T00:00:00,2023-12-12T15:02:54,0,,active
6130782,46824623,,,Merino Road,,,,Merino Road,,Drumfrochar Road,,,,before,,S,ES001670,Greenock,,,GREENOCK,,,,0,,226931,675216,,,BCT,MKD,OTH,,,,129,2003-08-27T00:00:00,2023-12-12T15:02:54,0,,active
6130783,46824642,,,Merino  Road,,,,Merino Road,,Drumfrochar Road,,,,opp,,N,ES001670,Greenock,,,GREENOCK,,,,0,,226917,675204,,,BCT,MKD,OTH,,,,129,2003-08-27T00:00:00,2023-12-12T15:02:54,0,,active
6130784,46824764,,,Balloch Road,,,,,,Leven Road,,,,before,,NW,N0078743,Strone Farm,Greenock,,GREENOCK,,,,0,,228827,674591,,,BCT,MKD,OTH,,,,129,2003-08-27T00:00:00,2023-12-12T15:02:54,0,,active
6130785,46824695,,,Carrick Lane,,,,,,Burns Road,,,,at,,E,N0072853,Braeside,Greenock,,GREENOCK,,,,0,,224038,675277,,,BCT,MKD,OTH,,,,129,2003-08-27T00:00:00,2023-12-12T15:02:54,0,,active
6130786,46824728,,,Cloch Caravan Park,,,,Caravan Park,,A770 Cloch Road,,,,at,,SW,N0072858,Levan,Gourock,,GOUROCK,,,,0,,220652,676043,,,BCT,MKD,OTH,,,,129,2003-08-27T00:00:00,2023-12-12T15:02:54,0,,active
613079,46824239,,,Glenhuntly Road,,,,Glenhuntly Road,,Springhill Road,,,,opp,,E,ES003052,Port Glasgow,,,PORT GLASGOW,,,,0,,232124,674295,,,BCT,MKD,OTH,,,,129,2003-08-27T00:00:00,2023-12-12T15:02:54,0,,active
61308,46823534,,,Robert Street,,,,Robert Street,,Glasgow Road,,,,at,,NW,ES003052,Port Glasgow,,,PORT GLASGOW,,,,0,,233281,674188,,,BCT,MKD,OTH,,,,129,2003-08-27T00:00:00,2023-12-12T15:02:54,0,,active
613080,46824392,,,Glenhuntly Road,,,,Glenhuntly Road,,Springhill Road,,,,at,,NW,ES003052,Port Glasgow,,,PORT GLASGOW,,,,0,,232029,674316,,,BCT,MKD,OTH,,,,129,2003-08-27T00:00:00,2023-12-12T15:02:54,0,,active
613081,46823685,,,Glen Avenue,,,,Glen Avenue,,Highholm Avenue,,,,before,,NW,ES003052,Port Glasgow,,,PORT GLASGOW,,,,0,,231885,674469,,,BCT,MKD,OTH,,,,129,2003-08-27T00:00:00,2023-12-12T15:02:54,0,,active
613082,46823964,,,Balfour Street,,,,Balfour Street,,Highholm Avenue,,,,after,,SE,ES003052,Port Glasgow,,,PORT GLASGOW,,,,0,,231913,674466,,,BCT,MKD,OTH,,,,129,2003-08-27T00:00:00,2023-12-12T15:02:54,0,,active
613083,46824397,,,Highholm Street,,,,Highholm Street,,Glen Avenue,,,,at,,SE,N0072852,Bogston,Port Glasgow,,PORT GLASGOW,,,,0,,231542,674552,,,BCT,MKD,OTH,,,,129,2003-08-27T00:00:00,2023-12-12T15:02:54,0,,active
613084,46823652,,,Birkmyre Avenue,,,,Birkmyre Avenue,,Lilybank Road,,,,at,,NW,N0078747,Lilybank,Port Glasgow,,PORT GLASGOW,,,,0,,231206,674642,,,BCT,MKD,OTH,,,,129,2003-08-27T00:00:00,2023-12-12T15:02:54,0,,active
613085,46823595,,,Whitelees Road,,,,Whitelees Road,,Mitchell Street,,,,opp,,W,N0078747,Lilybank,Port Glasgow,,PORT GLASGOW,,,,0,,230795,674646,,,BCT,MKD,OTH,,,,129,2003-08-27T00:00:00,2023-12-12T15:02:54,0,,active
613086,46824398,,,Whitelees Road,,,,After Whitelees Road,,Mitchell Street,,,,After,,SE,N0078747,Lilybank,Port Glasgow,,PORT GLASGOW,,,,0,,230888,674646,,,BCT,MKD,OTH,,,,129,2003-08-27T00:00:00,2023-12-12T15:02:54,0,,active
613087,46823638,,,Braemar House,,,,Opp Braemar House,,Mitchell Street,,,,Opp,,NW,N0078747,Lilybank,Port Glasgow,,PORT GLASGOW,,,,0,,230956,674624,,,BCT,MKD,OTH,,,,129,2003-08-27T00:00:00,2023-12-12T15:02:54,0,,active
613088,46823748,,,Broadstone Gardens,,,,Broadstone Gardens,,Farquhar Road,,,,opp,,SE,N0078747,Lilybank,Port Glasgow,,PORT GLASGOW,,,,0,,231117,674579,,,BCT,MKD,OTH,,,,129,2003-08-27T00:00:00,2023-12-12T15:02:54,0,,active
613089,46824523,,,Broadstone Gardens,,,,Broadstone Gardens,,Farquhar Road,,,,at,,NW,N0078747,Lilybank,Port Glasgow,,PORT GLASGOW,,,,0,,231144,674562,,,BCT,MKD,OTH,,,,129,2003-08-27T00:00:00,2023-12-12T15:02:54,0,,active
61309,46823795,,,Bruce Street,,,,Bruce Street,,Glasgow Road,,,,at,,NW,ES003052,Port Glasgow,,,PORT GLASGOW,,,,0,,232988,674278,,,BCT,MKD,OTH,,,,129,2003-08-27T00:00:00,2023-12-12T15:02:54,0,,active
613090,46823623,,,Lilybank School,,,,Lilybank School,,Birkmyre Avenue,,,,at,,NE,N0078747,Lilybank,Port Glasgow,,PORT GLASGOW,,,,0,,231179,674623,,,BCT,MKD,OTH,,,,129,2003-08-27T00:00:00,2023-12-12T15:02:54,0,,active
613091,46824524,,,Shore Street,,,,Shore Street,,Balfour Street,,,,at,,N,ES003052,Port Glasgow,,,PORT GLASGOW,,,,1,,231851,674572,,,BCT,MKD,OTH,,,,129,2003-08-27T00:00:00,2023-12-12T15:02:54,0,,active
613092,46823293,,,Balfour Street,,,,Balfour Street,,Shore Street,,,,before,,W,ES003052,Port Glasgow,,,PORT GLASGOW,,,,1,,231895,674595,,,BCT,MKD,OTH,,,,129,2003-08-27T00:00:00,2023-12-12T15:02:54,0,,active
613093,46824387,,,Jean Street,,,,Jean Street,,Brown Street,,,,opp,,E,ES003052,Port Glasgow,,,PORT GLASGOW,,,,1,,231754,674613,,,BCT,MKD,OTH,,,,129,2003-08-27T00:00:00,2023-12-12T15:02:54,0,,active
613094,46823936,,,Princes Street,,,,Princes Street,,Scarlow Street,,,,at,,SW,ES003052,Port Glasgow,,,PORT GLASGOW,,,,1,,232014,674632,,,BCT,MKD,OTH,,,,129,2003-08-27T00:00:00,2023-12-12T15:02:54,0,,active
613095,46824295,,,Water Street,,,,Water Street,,Scarlow Street,,,,before,,NE,ES003052,Port Glasgow,,,PORT GLASGOW,,,,1,,232006,674643,,,BCT,MKD,OTH,,,,129,2003-08-27T00:00:00,2023-12-12T15:02:54,0,,active
613099,46823298,,,Coronation Park,,,,Coronation Park,,Greenock Road,,,,opp,,NW,ES003052,Port Glasgow,,,PORT GLASGOW,,,,1,,232268,674606,,,BCT,MKD,OTH,,,,129,2003-08-27T00:00:00,2023-12-12T15:02:54,0,,active
