ATCOCode,NaptanCode,PlateCode,CleardownCode,CommonName,CommonNameLang,ShortCommonName,ShortCommonNameLang,Landmark,LandmarkLang,Street,StreetLang,Crossing,CrossingLang,Indicator,IndicatorLang,Bearing,NptgLocalityCode,LocalityName,ParentLocalityName,GrandParentLocalityName,Town,TownLang,Suburb,SuburbLang,LocalityCentre,GridType,Easting,Northing,Longitude,Latitude,StopType,BusStopType,TimingStatus,DefaultWaitTime,Notes,NotesLang,AdministrativeAreaCode,CreationDateTime,ModificationDateTime,RevisionNumber,Modification,Status
61901,29723586,,,Cambusdoon Drive,,,,Cambusdoon Drive,,Alloway,,,,after,,NE,ES000073,Alloway,Ayr,,AYR,,,,1,,233325,618438,,,BCT,MKD,OTH,,,,138,2003-08-27T00:00:00,2023-12-12T15:02:54,0,,active
619010,29723675,,,Earls Way,,,,Earls Way,,Dunure Road,,,,After,,NE,N0072945,Doonfoot,Ayr,,AYR,,,,0,,232215,618643,,,BCT,MKD,OTH,,,,138,2003-08-27T00:00:00,2023-12-12T15:02:54,0,,active
6190100,29723462,,,Allenfield Road,,,,Allenfield Road,,Holmston Road,,,,Opp,,E,ES001777,Holmston,Ayr,,AYR,,,,0,,235606,621055,,,BCT,MKD,OTH,,,,138,2003-08-27T00:00:00,2023-12-12T15:02:54,0,,active
61901000,29764347,,,Barns Farm,,,,Barns Farm,,B734,,,,at,,E,ES000787,Colmonell,,,COLMONELL,,,,0,,212355,585736,,,BCT,CUS,OTH,,,,138,2003-08-27T00:00:00,2023-12-12T15:02:54,0,,active
61901001,29737852,,,Barns Farm,,,,Barns Farm,,B734,,,,opp,,W,ES000787,Colmonell,,,COLMONELL,,,,0,,212356,585729,,,BCT,CUS,OTH,,,,138,2003-08-27T00:00:00,2023-12-12T15:02:54,0,,active
61901002,29767839,,,Kilantringan Loch,,,,Kilantringan Loch,,A77,,,,at,,N,N0067996,Ballantrae,,,BALLANTRAE,,,,0,,209442,578961,,,BCT,CUS,OTH,,,,138,2003-08-27T00:00:00,2023-12-12T15:02:54,0,,active
61901003,29738939,,,Kilantringan Loch,,,,Kilantringan Loch,,A77,,,,opp,,S,N0067996,Ballantrae,,,BALLANTRAE,,,,0,,209456,578939,,,BCT,CUS,OTH,,,,138,2003-08-27T00:00:00,2023-12-12T15:02:54,0,,active
61901004,29724945,,,Barrhill Holiday Park,,,,Barrhill Holiday Park,,A714,,,,at,,SE,N0068007,Barrhill,,,BARHILL,,,,0,,221548,583622,,,BCT,CUS,OTH,,,,138,2003-08-27T00:00:00,2023-12-12T15:02:54,0,,active
61901005,29756757,,,Barrhill Holiday Park,,,,Barrhill Holiday Park,,A714,,,,opp,,NW,N0068007,Barrhill,,,BARHILL,,,,0,,221539,583612,,,BCT,CUS,OTH,,,,138,2003-08-27T00:00:00,2023-12-12T15:02:54,0,,active
61901006,29784356,,,Daljarrock Caravan Park,,,,Daljarrock Caravan Park,,A714,,,,at,,N,N0068186,Pinwherry,,,PINWHERRY,,,,0,,219620,588260,,,BCT,CUS,OTH,,,,138,2003-08-27T00:00:00,2023-12-12T15:02:54,0,,active
61901007,29742756,,,Daljarrock Caravan Park,,,,Daljarrock Caravan Park,,A714,,,,opp,,SE,N0068186,Pinwherry,,,PINWHERRY,,,,0,,219631,588258,,,BCT,CUS,OTH,,,,138,2003-08-27T00:00:00,2023-12-12T15:02:54,0,,active
61901008,29789356,,,Creeside,,,,Creeside,,A714,,,,at,,NW,N0068007,Barrhill,,,BARRHILL,,,,0,,229951,580822,,,BCT,CUS,OTH,,,,138,2003-08-27T00:00:00,2023-12-12T15:02:54,0,,active
61901009,29752752,,,Creeside,,,,Creeside,,A714,,,,opp,,SE,N0068007,Barrhill,,,BARRHILL,,,,0,,229943,580804,,,BCT,CUS,OTH,,,,138,2003-08-27T00:00:00,2023-12-12T15:02:54,0,,active
6190101,29723265,,,Holmston Drive,,,,Holmstone Drive,,Holmston Road,,,,Opp,,W,ES001777,Holmston,Ayr,,AYR,,,,1,,235341,621089,,,BCT,MKD,OTH,,,,138,2003-08-27T00:00:00,2023-12-12T15:02:54,0,,active
61901010,29752768,,,Corwar Schoolhouse,,,,Corwar Schoolhouse,,A714,,,,opp,,NE,N0068007,Barrhill,,,BARRHILL,,,,0,,228229,580910,,,BCT,CUS,OTH,,,,138,2003-08-27T00:00:00,2023-12-12T15:02:54,0,,active
61901011,29752857,,,Corwar Schoolhouse,,,,Corwar Schoolhouse,,A714,,,,at,,SW,N0068007,Barrhill,,,BARHILL,,,,0,,228234,580899,,,BCT,CUS,OTH,,,,138,2003-08-27T00:00:00,2023-12-12T15:02:54,0,,active
61901012,29764565,,,Holmhead Farm,,,,Holmhead Farm,,A714,,,,at,,S,N0072956,Holmhead,,,PINMORE,,,,0,,220191,589591,,,BCT,CUS,OTH,,,,138,2003-08-27T00:00:00,2023-12-12T15:02:54,0,,active
61901013,29797275,,,Holmhead Farm,,,,Holmhead Farm,,A714,,,,opp,,N,N0072956,Holmhead,,,PIRNMILL,,,,0,,220185,589603,,,BCT,CUS,OTH,,,,138,2003-08-27T00:00:00,2023-12-12T15:02:54,0,,active
61901014,29793562,,,Ballochmorrie Farm,,,,Ballochmorrie Farm,,A714,,,,at,,SE,N0068007,Barrhill,,,BARRHILL,,,,0,,221226,583981,,,BCT,CUS,OTH,,,,138,2003-08-27T00:00:00,2023-12-12T15:02:54,0,,active
61901015,29763783,,,Ballochmorrie Farm,,,,Ballochmorrie Farm,,A714,,,,opp,,NW,N0068007,Barrhill,,,BARRHILL,,,,0,,221214,583972,,,BCT,CUS,OTH,,,,138,2003-08-27T00:00:00,2023-12-12T15:02:54,0,,active
61901016,29738273,,,Byne Hill,,,,Cemetery,,A714,,,,at,,S,ES001522,Girvan,,,BALLANTRAE,,,,0,,218762,595640,,,BCT,CUS,OTH,,,,138,2003-08-27T00:00:00,2023-12-12T15:02:54,0,,active
61901017,29767456,,,Blair Farm,,,,Blair Farm,,A714,,,,at,,E,N0068007,Barrhill,,,BARRHILL,,,,0,,224374,581633,,,BCT,CUS,OTH,,,,138,2003-08-27T00:00:00,2023-12-12T15:02:54,0,,active
61901018,29767483,,,Blair Farm,,,,Blair Farm,,A714,,,,opp,,W,N0068007,Barrhill,,,BARRHILL,,,,0,,224370,581625,,,BCT,CUS,OTH,,,,138,2003-08-27T00:00:00,2023-12-12T15:02:54,0,,active
61901019,29748363,,,Main Street,,,,Main Street,,Bridge Street,,,,after,,SE,ES000953,Dailly,,,DAILLY,,,,0,,226753,601402,,,BCT,CUS,OTH,,,,138,2003-08-27T00:00:00,2023-12-12T15:02:54,0,,active
6190102,29724267,,,Ayr cemetery,,,,Ayr Cemetery,,Holmston Road,,,,Opp,,E,ES000201,Ayr,,,AYR,,,,1,,235026,621146,,,BCT,MKD,OTH,,,,138,2003-08-27T00:00:00,2023-12-12T15:02:54,0,,active
61901020,29785697,,,Killochan Road,,,,Killochan Road,,B741,,,,opp,,E,ES001522,Girvan,,,GIRVAN,,,,0,,222269,600528,,,BCT,CUS,OTH,,,,138,2003-08-27T00:00:00,2023-12-12T15:02:54,0,,active
61901021,29748652,,,Killochan Road,,,,Killochan Road,,B741,,,,at,,W,ES001522,Girvan,,,GIRVAN,,,,0,,222276,600517,,,BCT,CUS,OTH,,,,138,2003-08-27T00:00:00,2023-12-12T15:02:54,0,,active
61901022,29725269,,,Rowanston,,,,Rowanston,,B7023,,,,opp,,NE,ES000895,Crosshill,,,CROSSHILL,,,,0,,231547,605626,,,BCT,CUS,OTH,,,,138,2003-08-27T00:00:00,2023-12-12T15:02:54,0,,active
61901023,29782462,,,Rowanston,,,,Rowanston,,B7023,,,,at,,SW,ES000895,Crosshill,,,CROSSHILL,,,,0,,231554,605622,,,BCT,CUS,OTH,,,,138,2003-08-27T00:00:00,2023-12-12T15:02:54,0,,active
61901024,29756749,,,Low Craighead,,,,Low Craighead,,B741,,,,at,,NE,ES001522,Girvan,,,GIRVAN,,,,0,,223629,601259,,,BCT,CUS,OTH,,,,138,2003-08-27T00:00:00,2023-12-12T15:02:54,0,,active
61901025,29728363,,,Low Craighead,,,,Low Craighead,,B741,,,,opp,,SW,ES001522,Girvan,,,GIRVAN,,,,0,,223629,601250,,,BCT,CUS,OTH,,,,138,2003-08-27T00:00:00,2023-12-12T15:02:54,0,,active
61901026,29762842,,,Bargany Road,,,,Bargany Road,,B741,,,,opp,,E,ES001522,Girvan,,,GIRVAN,,,,0,,224514,601485,,,BCT,CUS,OTH,,,,138,2003-08-27T00:00:00,2023-12-12T15:02:54,0,,active
61901027,29787376,,,Bargany Road,,,,Bargany Road,,B741,,,,at,,W,ES001522,Girvan,,,GIRVAN,,,,0,,224515,601472,,,BCT,CUS,OTH,,,,138,2003-08-27T00:00:00,2023-12-12T15:02:54,0,,active
61901028,29756797,,,Moorston Farm,,,,Moorston Farm,,B741,,,,opp,,NE,ES000953,Dailly,,,DAILLY,,,,0,,227990,602128,,,BCT,CUS,OTH,,,,138,2003-08-27T00:00:00,2023-12-12T15:02:54,0,,active
61901029,29787576,,,Moorston Farm,,,,Moorston Farm,,B741,,,,at,,SW,ES000953,Dailly,,,DAILLY,,,,0,,227995,602122,,,BCT,CUS,OTH,,,,138,2003-08-27T00:00:00,2023-12-12T15:02:54,0,,active
6190103,29723849,,,Lothian Road,,,,Lothian Road,,Holmston Road,,,,after,,NW,ES000201,Ayr,,,AYR,,,,1,,234514,621214,,,BCT,MKD,OTH,,,,138,2003-08-27T00:00:00,2023-12-12T15:02:54,0,,active
61901030,29783632,,,Kilkerran Road,,,,Kilkerran Road,,B741,,,,opp,,NE,ES000895,Crosshill,,,CROSSHILL,,,,0,,230406,604317,,,BCT,CUS,OTH,,,,138,2003-08-27T00:00:00,2023-12-12T15:02:54,0,,active
61901031,29734787,,,Kilkerran Road,,,,Kilkerran Road,,B741,,,,at,,SW,ES000895,Crosshill,,,CROSSHILL,,,,0,,230415,604311,,,BCT,CUS,OTH,,,,138,2003-08-27T00:00:00,2023-12-12T15:02:54,0,,active
61901032,29743934,,,B742,,,,B742,,A77,,,,opp,,NE,ES002566,Maybole,,,MAYBOLE,,,,0,,232122,611751,,,BCT,CUS,OTH,,,,138,2003-08-27T00:00:00,2023-12-12T15:02:54,0,,active
61901033,29794237,,,B742,,,,B742,,A77,,,,before,,SW,ES002566,Maybole,,,MAYBOLE,,,,0,,232130,611744,,,BCT,CUS,OTH,,,,138,2003-08-27T00:00:00,2023-12-12T15:02:54,0,,active
61901034,29724928,,,B7034,,,,B7034,,A77,,,,opp,,NE,ES000201,Ayr,,,AYR,,,,0,,233875,616045,,,BCT,CUS,OTH,,,,138,2003-08-27T00:00:00,2023-12-12T15:02:54,0,,active
61901035,29783726,,,B7034,,,,B7034,,A77,,,,before,,SW,ES000201,Ayr,,,AYR,,,,0,,233896,616044,,,BCT,CUS,OTH,,,,138,2003-08-27T00:00:00,2023-12-12T15:02:54,0,,active
61901036,29783735,,,Jelliston Farm,,,,Jelliston Farm,,B742,,,,at,,SW,ES000824,Coylton,,,COYLTON,,,,0,,239481,617995,,,BCT,CUS,OTH,,,,138,2003-08-27T00:00:00,2023-12-12T15:02:54,0,,active
61901037,29783752,,,Jelliston Farm,,,,Jelliston Farm,,B742,,,,opp,,NE,ES000824,Coylton,,,COYLTON,,,,0,,239475,618005,,,BCT,CUS,OTH,,,,138,2003-08-27T00:00:00,2023-12-12T15:02:54,0,,active
61901038,29792876,,,Ladywell Avenue,,,,Ladywell Avenue,,B741,,,,opp,,SW,ES001522,Girvan,,,GIRVAN,,,,0,,220694,599963,,,BCT,MKD,OTH,,,,138,2003-08-27T00:00:00,2023-12-12T15:02:54,0,,active
61901039,29735946,,,Barskimming Road,,,,Barskimming,,B743,,,,opp,,E,N0076081,Failford,,,FAILFORD,,,,0,,246967,626296,,,BCT,CUS,OTH,,,,138,2003-08-27T00:00:00,2023-12-12T15:02:54,0,,active
6190104,29724754,,,Lothian Road,,,,Lothian Road,,Holmston Road,,,,opp & before,,SE,ES000201,Ayr,,,AYR,,,,1,,234493,621236,,,BCT,MKD,OTH,,,,138,2003-08-27T00:00:00,2023-12-12T15:02:54,0,,active
61901040,29789239,,,Barskimming Road,,,,Barskimming Road,,B743,,,,at,,W,N0076081,Failford,,,FAILFORD,,,,0,,246962,626284,,,BCT,CUS,OTH,,,,138,2003-08-27T00:00:00,2023-12-12T15:02:54,0,,active
61901041,29746538,,,Merkland Road,,,,Merkland Road,,The Loaning,,,,after,,SW,N0079274,Rozelle,Ayr,,AYR,,,,0,,234097,618663,,,BCT,CUS,OTH,,,,138,2003-08-27T00:00:00,2023-12-12T15:02:54,0,,active
61901042,29782463,,,University Avenue,,,,University Avenue,,UWS Ayr Campus,,,,after,,W,ES000201,Ayr,,,AYR,,,,0,,234673,621451,,,BCT,MKD,OTH,,,,138,2003-08-27T00:00:00,2023-12-12T15:02:54,0,,inactive
61901043,29763769,,,Content Avenue,,,,Content Avenue,,Ayr College,,,,after,,SE,ES000201,Ayr,,,AYR,,,,0,,234444,621541,,,BCT,MKD,OTH,,,,138,2003-08-27T00:00:00,2023-12-12T15:02:54,0,,inactive
61901044,29789827,,,Content Avenue,,,,Content Avenue,,Ayr College,,,,before,,NW,ES000201,Ayr,,,AYR,,,,0,,234411,621572,,,BCT,MKD,OTH,,,,138,2003-08-27T00:00:00,2023-12-12T15:02:54,0,,inactive
61901045,29725323,,,Whins Road,,,,Whins Road,,Lang Road,,,,after,,NE,ES003704,Troon,,,TROON,,,,0,,233264,633225,,,BCT,MKD,OTH,,,,138,2003-08-27T00:00:00,2023-12-12T15:02:54,0,,active
61901046,29745683,,,Old Toll,,,,Old Toll,,A70,,,,at,,SE,ES000201,Ayr,,,AYR,,,,0,,236587,620821,,,BCT,CUS,OTH,,,,138,2003-08-27T00:00:00,2023-12-12T15:02:54,0,,active
61901047,29767643,,,Glebe Road,,,,Glebe Road,,Stinchar Road,,,,at,,E,ES000292,Barr,,,BARR,,,,0,,227466,594050,,,BCT,CUS,OTH,,,,138,2003-08-27T00:00:00,2023-12-12T15:02:54,0,,active
61901048,29728296,,,Brae Toll,,,,Brae Toll,,B734,,,,at,,W,ES001522,Girvan,,,GIRVAN,,,,0,,220358,598661,,,BCT,CUS,OTH,,,,138,2003-08-27T00:00:00,2023-12-12T15:02:54,0,,active
61901049,29798965,,,Brae Toll,,,,Brae Toll,,B734,,,,opp,,E,ES001522,Girvan,,,GIRVAN,,,,0,,220358,598671,,,BCT,CUS,OTH,,,,138,2003-08-27T00:00:00,2023-12-12T15:02:54,0,,active
6190105,29724787,,,Mill Brae,,,,Mill Brae,,Holmston Road,,,,Opp,,W,ES000201,Ayr,,,AYR,,,,0,,234265,621328,,,BCT,MKD,OTH,,,,138,2003-08-27T00:00:00,2023-12-12T15:02:54,0,,active
61901050,29758473,,,Lanes Farm,,,,Lanes Farm,,B734,,,,opp,,NW,ES000292,Barr,,,BARR,,,,0,,226003,595941,,,BCT,CUS,OTH,,,,138,2003-08-27T00:00:00,2023-12-12T15:02:54,0,,active
61901051,29738427,,,Lanes Farm,,,,Lanes Farm,,B734,,,,at,,SE,ES000292,Barr,,,BARR,,,,0,,226021,595946,,,BCT,CUS,OTH,,,,138,2003-08-27T00:00:00,2023-12-12T15:02:54,0,,active
61901052,29789898,,,Penwhapple Waterworks,,,,Waterworks,,B734,,,,opp,,NW,ES000292,Barr,,,BARR,,,,0,,225100,597075,,,BCT,CUS,OTH,,,,138,2003-08-27T00:00:00,2023-12-12T15:02:54,0,,active
61901053,29764248,,,Penwhapple Water Works,,,,Water Works,,B734,,,,at,,SE,ES000292,Barr,,,BARR,,,,0,,225105,597082,,,BCT,CUS,OTH,,,,138,2003-08-27T00:00:00,2023-12-12T15:02:54,0,,active
61901054,29748358,,,Penkill Castle,,,,Penkill Castle,,B734,,,,at,,NW,N0072970,Penkill,Old Dailly,,PENKILL,,,,0,,223296,598510,,,BCT,CUS,OTH,,,,138,2003-08-27T00:00:00,2023-12-12T15:02:54,0,,active
61901055,29783429,,,Penkill Castle,,,,Penkill Castle,,B734,,,,opp,,SE,N0072970,Penkill,Old Dailly,,PENKILL,,,,0,,223301,598517,,,BCT,CUS,OTH,,,,138,2003-08-27T00:00:00,2023-12-12T15:02:54,0,,active
61901056,29747453,,,Hawkhill Road,,,,Hawkhill Road,,B734,,,,before,,NW,N0068179,Old Dailly,,,OLD DAILLY,,,,0,,222610,599311,,,BCT,CUS,OTH,,,,138,2003-08-27T00:00:00,2023-12-12T15:02:54,0,,inactive
61901057,29798923,,,Hawkhill Road,,,,Hawkhill Road,,B734,,,,after,,SE,N0068179,Old Dailly,,,OLD DAILLY,,,,0,,222618,599314,,,BCT,CUS,OTH,,,,138,2003-08-27T00:00:00,2023-12-12T15:02:54,0,,inactive
61901058,29767542,,,Auchensoul,,,,Auchensoul,,B734,,,,at,,NW,ES000292,Barr,,,BARR,,,,0,,227264,594637,,,BCT,CUS,OTH,,,,138,2003-08-27T00:00:00,2023-12-12T15:02:54,0,,active
61901059,29724894,,,Auchensoul,,,,Auchensoul,,B734,,,,opp,,SE,ES000292,Barr,,,BARR,,,,0,,227279,594644,,,BCT,CUS,OTH,,,,138,2003-08-27T00:00:00,2023-12-12T15:02:54,0,,active
6190106,29723492,,,Mill Brae,,,,Mill Brae,,Holmston Road,,,,before,,E,ES000201,Ayr,,,AYR,,,,0,,234244,621339,,,BCT,MKD,OTH,,,,138,2003-08-27T00:00:00,2023-12-12T15:02:54,0,,active
61901062,29753739,,,Nether Barr,,,,Nether Barr,,Glenginnet Road,,,,at,,NE,ES000292,Barr,,,BARR,,,,0,,228090,594791,,,BCT,CUS,OTH,,,,138,2003-08-27T00:00:00,2023-12-12T15:02:54,0,,active
61901063,29795458,,,Nether Barr,,,,Nether Barr,,Glenginnet Road,,,,opp,,SW,ES000292,Barr,,,BARR,,,,0,,228104,594781,,,BCT,CUS,OTH,,,,138,2003-08-27T00:00:00,2023-12-12T15:02:54,0,,active
61901064,29753869,,,Brackenhill Farm,,,,Brackenhill Farm,,B738 unnamed road,,,,at,,N,N0068179,Old Dailly,,,OLD DAILLY,,,,0,,223462,599057,,,BCT,CUS,OTH,,,,138,2003-08-27T00:00:00,2023-12-12T15:02:54,0,,active
61901065,29724927,,,Brackenhill Farm,,,,Brackenhill Farm,,B734 unnamed road,,,,opp,,S,N0068179,Old Dailly,,,OLD DAILLY,,,,0,,223469,599028,,,BCT,CUS,OTH,,,,138,2003-08-27T00:00:00,2023-12-12T15:02:54,0,,active
61901066,29763287,,,Burnhead,,,,Some hae Meat,,B741,,,,after,,E,ES001522,Girvan,,,GIRVAN,,,,0,,223038,600885,,,BCT,MKD,OTH,,,,138,2003-08-27T00:00:00,2023-12-12T15:02:54,0,,active
61901067,29793539,,,Cairnhill Farm road,,,,Some Hae Meat,,B741,,,,before,,W,ES001522,Girvan,,,GIRVAN,,,,0,,223046,600868,,,BCT,CUS,OTH,,,,138,2003-08-27T00:00:00,2023-12-12T15:02:54,0,,active
61901068,29746245,,,Carrick Drive,,,,Carrick Drive,,Kirkmichael Road,,,,before,,E,ES000895,Crosshill,,,CROSSHILL,,,,0,,232857,606615,,,BCT,MKD,OTH,,,,138,2003-08-27T00:00:00,2023-12-12T15:02:54,0,,active
61901069,29798982,,,Scaur o Doon Road,,,,Doonview Gardens,,Dunure Road,,,,opp,,SW,N0072945,Doonfoot,Ayr,,AYR,,,,0,,232493,618931,,,BCT,MKD,OTH,,,,138,2003-08-27T00:00:00,2023-12-12T15:02:54,0,,active
6190107,29724629,,,Castlehill Road,,,,Castlehill Road,,Ashgrove Street,,,,after,,E,ES000201,Ayr,,,AYR,,,,0,,234142,621252,,,BCT,MKD,OTH,,,,138,2003-08-27T00:00:00,2023-12-12T15:02:54,0,,active
61901070,29786286,,,Ramseyston Avenue,,,,Ramseyston Avenue,,Hole Road,,,,after,,N,ES000824,Coylton,,,COYLTON,,,,0,,240845,619610,,,BCT,MKD,OTH,,,,138,2003-08-27T00:00:00,2023-12-12T15:02:54,0,,active
61901071,29745376,,,Ramseyston Avenue,,,,Ramseyston Avenue,,Hole Road,,,,opp,,S,ES000824,Coylton,,,COYLTON,,,,0,,240854,619593,,,BCT,MKD,OTH,,,,138,2003-08-27T00:00:00,2023-12-12T15:02:54,0,,active
61901072,29798983,,,Highpark Road,,,,Highpark Road,,Hole Road,,,,before,,S,ES000824,Coylton,,,COYLTON,,,,0,,240867,619316,,,BCT,MKD,OTH,,,,138,2003-08-27T00:00:00,2023-12-12T15:02:54,0,,active
61901073,29736237,,,Garvine Road,,,,Garvine Road,,Hole Road,,,,after,,N,ES000824,Coylton,,,COYLTON,,,,0,,240854,619364,,,BCT,MKD,OTH,,,,138,2003-08-27T00:00:00,2023-12-12T15:02:54,0,,active
61901074,29793956,,,Thornyflat Road,,,,Drummond Crescent,,Westwood Avenue,,,,before,,NE,N0079269,Dalmilling,Ayr,,AYR,,,,0,,236569,622726,,,BCT,CUS,OTH,,,,138,2003-08-27T00:00:00,2023-12-12T15:02:54,0,,active
61901075,29794245,,,Beech Grove,,,,Beech Grove,,Craigie Way,,,,after,,W,ES000201,Ayr,,,AYR,,,,0,,235151,621641,,,BCT,CUS,OTH,,,,138,2003-08-27T00:00:00,2023-12-12T15:02:54,0,,active
61901076,29794232,,,Shore Road,,,,Shore Road,,Main Street,,,,opposite,,S,N0067996,Ballantrae,,,BALLANTRAE,,,,0,,208415,582722,,,BCT,MKD,OTH,,,,138,2003-08-27T00:00:00,2023-12-12T15:02:54,0,,active
61901077,29794254,,,Shore Road,,,,Shore Road,,Main Street,,,,after,,N,N0067996,Ballantrae,,,BALLANTRAE,,,,0,,208397,582765,,,BCT,MKD,OTH,,,,138,2003-08-27T00:00:00,2023-12-12T15:02:54,0,,active
61901078,29793962,,,B7044,,,,A77 Northbound,,A77 Northbound,,,,opp and before,,NW,N0067996,Ballantrae,,,BALLANTRAE,,,,0,,208655,582248,,,BCT,MKD,OTH,,,,138,2003-08-27T00:00:00,2023-12-12T15:02:54,0,,active
61901079,29794248,,,B7044,,,,A77 Southbound,,A77 Southbound,,,,after,,SW,N0067996,Ballantrae,,,Ballantrae,,,,0,,208672,582250,,,BCT,MKD,OTH,,,,138,2003-08-27T00:00:00,2023-12-12T15:02:54,0,,active
6190108,29723276,,,Dongola Road,,,,Dongola Road,,Ashgrove Street,,,,At,,E,ES000201,Ayr,,,AYR,,,,0,,234277,621231,,,BCT,MKD,OTH,,,,138,2003-08-27T00:00:00,2023-12-12T15:02:54,0,,active
61901080,29793975,,,Craigie House,,,,Craigie House,,University Avenue,,,,opp,,SE,ES000201,Ayr,,,AYR,,,,0,,234968,621439,,,BCT,CUS,OTH,,,,138,2003-08-27T00:00:00,2023-12-12T15:02:54,0,,active
61901081,29725764,,,Dunure Road,,,,,,Cumbrae Drive,,,,before,,S,N0072945,Doonfoot,Ayr,,AYR,,,,0,,231749,618672,,,BCT,MKD,OTH,,,,138,2003-08-27T00:00:00,2023-12-12T15:02:54,0,,active
61901082,29725739,,,Crofthead Rd,,,,,,Masonhill Rd,,,,before,,SE,ES000201,Ayr,,,AYR,,,,0,,235628,620448,,,BCT,MKD,OTH,,,,138,2003-08-27T00:00:00,2023-12-12T15:02:54,0,,active
61901083,29725678,,,Crofthead Rd,,,,,,Masonhill Rd,,,,after,,NW,ES000201,Ayr,,,AYR,,,,0,,235616,620451,,,BCT,MKD,OTH,,,,138,2003-08-27T00:00:00,2023-12-12T15:02:54,0,,active
61901085,29725698,,,Barrhill Holiday Park,,,,,,A714,,,,At,,SE,N0068007,Barrhill,,,BARRHILL,,,,0,,221574,583597,,,BCT,MKD,OTH,,,,138,2003-08-27T00:00:00,2023-12-12T15:02:54,0,,active
61901086,29725757,,,Barrhill Holiday Park,,,,,,A714,,,,opp,,NW,N0068007,Barrhill,,,BARRHILL,,,,0,,221563,583595,,,BCT,MKD,OTH,,,,138,2003-08-27T00:00:00,2023-12-12T15:02:54,0,,active
61901087,29725249,,,Burns Drive,,,,,,B7032 Culzean Road,,,,at,,W,ES002566,Maybole,,,MAYBOLE,,,,0,,229263,610014,,,BCT,MKD,OTH,,,,138,2003-08-27T00:00:00,2023-12-12T15:02:54,0,,active
61901088,29725257,,,McAdam Way,,,,,,B7032 Culzean Road,,,,opp,,E,ES002566,Maybole,,,MAYBOLE,,,,0,,229391,609988,,,BCT,MKD,OTH,,,,138,2003-08-27T00:00:00,2023-12-12T15:02:54,0,,active
61901089,29725276,,,Earl Drive,,,,,,Kilmarnock Road,,,,Before,,W,ES001123,Dundonald,,,DUNDONALD,,,,0,,236828,634691,,,BCT,MKD,OTH,,,,138,2003-08-27T00:00:00,2023-12-12T15:02:54,0,,active
6190109,29723832,,,Lothian Road,,,,Lothian Road,,Ashgrove Street,,,,Near,,E,ES000201,Ayr,,,AYR,,,,0,,234420,621210,,,BCT,MKD,OTH,,,,138,2003-08-27T00:00:00,2023-12-12T15:02:54,0,,active
61901090,29725285,,,School Wynd,,,,,,Kilmarnock Road,,,,After,,W,ES001123,Dundonald,,,DUNDONALD,,,,0,,236657,634671,,,BCT,MKD,OTH,,,,138,2003-08-27T00:00:00,2023-12-12T15:02:54,0,,active
61901091,29725329,,,Daniel Walk,,,,Daniel Walk,,Main Street,,,,at,,NE,N0068143,Loans,,,LOANS,,,,0,,234056,632903,,,BCT,MKD,OTH,,,,138,2003-08-27T00:00:00,2023-12-12T15:02:54,0,,active
61901092,29725282,,,Daniel Walk,,,,Daniel Walk,,Main Street,,,,opp,,SW,N0068143,Loans,,,LOANS,,,,0,,234067,632903,,,BCT,MKD,OTH,,,,138,2003-08-27T00:00:00,2023-12-12T15:02:54,0,,active
61901095,29725239,,,Doonbank Park,,,,Doonbank Park,,Longhill Avenue,,,,opp,,NW,N0072945,Doonfoot,Ayr,,AYR,,,,0,,232844,617922,,,BCT,MKD,OTH,,,,138,2003-08-27T00:00:00,2023-12-12T15:02:54,0,,active
61901096,29725264,,,Doonbank Park,,,,,,Longhill Avenue,,,,after,,SE,N0072945,Doonfoot,Ayr,,AYR,,,,0,,232868,617921,,,BCT,CUS,OTH,,,,138,2003-08-27T00:00:00,2023-12-12T15:02:54,0,,active
61901097,29725293,,,Citadel Leisure Centre,,,,,,South Harbour Street,,,,at,,NW,ES000201,Ayr,,,AYR,,,,0,,233425,622291,,,BCT,HAR,OTH,,,,138,2003-08-27T00:00:00,2023-12-12T15:02:54,0,,active
61901098,29725294,,,Churchill Tower,,,,,,South Harbour Street,,,,opp,,SW,ES000201,Ayr,,,AYR,,,,0,,233215,622497,,,BCT,HAR,OTH,,,,138,2003-08-27T00:00:00,2023-12-12T15:02:54,0,,active
61901099,29725295,,,Glenford Place,,,,,,Esplanade,,,,after,,S,ES000201,Ayr,,,AYR,,,,0,,233121,622243,,,BCT,HAR,OTH,,,,138,2003-08-27T00:00:00,2023-12-12T15:02:54,0,,active
619011,29723426,,,Scaur o Doon Road,,,,Scaur O Doon Road,,Dunure Road,,,,Opp,,NE,N0072945,Doonfoot,Ayr,,AYR,,,,0,,232528,618969,,,BCT,MKD,OTH,,,,138,2003-08-27T00:00:00,2023-12-12T15:02:54,0,,active
6190110,29723596,,,Leslie Crescent,,,,Leslie Crescent,,Lothian Road,,,,opp,,SW,ES000201,Ayr,,,AYR,,,,0,,234480,621002,,,BCT,MKD,OTH,,,,138,2003-08-27T00:00:00,2023-12-12T15:02:54,0,,active
61901100,29725296,,,Cromwell Road,,,,,,Esplanade,,,,after,,S,ES000201,Ayr,,,AYR,,,,0,,233102,622027,,,BCT,HAR,OTH,,,,138,2003-08-27T00:00:00,2023-12-12T15:02:54,0,,active
61901101,29725297,,,Cassillis Street,,,,,,Bath Place,,,,before,,E,ES000201,Ayr,,,AYR,,,,0,,233270,621810,,,BCT,HAR,OTH,,,,138,2003-08-27T00:00:00,2023-12-12T15:02:54,0,,active
61901102,29725298,,,Nursery Square,,,,Nursery Square,,Main Road,,,,opposite,,S,N0068158,Minishant,,,MINISHANT,,,,0,,232697,613903,,,BCT,MKD,OTH,,,,138,2003-08-27T00:00:00,2023-12-12T15:02:54,0,,active
61901103,29725237,,,Cree Lodge Court,,,,Ayr Bowling Club,,Craigie Road,,,,before,,N,ES000201,Ayr,,,AYR,,,,0,,234555,622101,,,BCT,CUS,OTH,,,,138,2003-08-27T00:00:00,2023-12-12T15:02:54,0,,active
61901104,29725238,,,Charlotte Street,,,,,,Esplanade,,,,after,,S,ES000201,Ayr,,,AYR,,,,0,,233084,621921,,,BCT,CUS,OTH,,,,138,2003-08-27T00:00:00,2023-12-12T15:02:54,0,,active
6190111,29724289,,,Hamilton Crescent,,,,Hamilton Crescent,,Lothian Road,,,,At,,N,ES000201,Ayr,,,AYR,,,,0,,234471,620998,,,BCT,MKD,OTH,,,,138,2003-08-27T00:00:00,2023-12-12T15:02:54,0,,active
6190116,29723976,,,Caledonia Road,,,,Cessnock Place,,Holmston Drive,,,,after,,NW,ES000201,Ayr,,,AYR,,,,0,,235377,620712,,,BCT,MKD,OTH,,,,138,2003-08-27T00:00:00,2023-12-12T15:02:54,0,,active
6190117,29723926,,,Forehill road,,,,Forehill Road,,Holmston Drive,,,,At,,N,ES000201,Ayr,,,AYR,,,,0,,235348,620868,,,BCT,MKD,OTH,,,,138,2003-08-27T00:00:00,2023-12-12T15:02:54,0,,active
6190118,29723827,,,Clarendon Place,,,,Clarendon Place,,Caledonia Road,,,,opp,,NE,ES000201,Ayr,,,AYR,,,,0,,235144,620499,,,BCT,MKD,OTH,,,,138,2003-08-27T00:00:00,2023-12-12T15:02:54,0,,active
6190119,29724292,,,Glencairn Road,,,,Glencairn Road,,Caledonia Road,,,,At,,E,ES000201,Ayr,,,AYR,,,,0,,234806,620598,,,BCT,MKD,OTH,,,,138,2003-08-27T00:00:00,2023-12-12T15:02:54,0,,active
619012,29723925,,,Greenfield Avenue,,,,Greenfield Avenue,,Doonfoot Road,,,,Opp,,NE,N0072945,Doonfoot,Ayr,,AYR,,,,1,,232665,619082,,,BCT,MKD,OTH,,,,138,2003-08-27T00:00:00,2023-12-12T15:02:54,0,,active
6190120,29723594,,,Lochlea Drive,,,,Lochlea Drive,,Caledonia Road,,,,At,,NW,ES000201,Ayr,,,AYR,,,,0,,234669,620722,,,BCT,MKD,OTH,,,,138,2003-08-27T00:00:00,2023-12-12T15:02:54,0,,active
6190121,29723249,,,Mount Oliphant Place,,,,Mount Oliphant Place,,Mount Oliphant Crescent,,,,Opp,,SE,ES000201,Ayr,,,AYR,,,,0,,234548,620853,,,BCT,MKD,OTH,,,,138,2003-08-27T00:00:00,2023-12-12T15:02:54,0,,active
6190122,29724678,,,Ayr Railway Station,,,,Ayr Railway Station,,Station Road,,,,after,,NE,ES000201,Ayr,,,AYR,,,,1,,234132,621432,,,BCT,MKD,OTH,,,,138,2003-08-27T00:00:00,2023-12-12T15:02:54,0,,active
6190123,29724643,,,Ayr Railway Station,,,,Ayr Railway Station,,Station Road,,,,opp,,SW,ES000201,Ayr,,,AYR,,,,1,,234175,621472,,,BCT,MKD,OTH,,,,138,2003-08-27T00:00:00,2023-12-12T15:02:54,0,,active
6190124,29724857,,,John Street,,,,John Street,,Station Road,,,,before,,NE,ES000201,Ayr,,,AYR,,,,0,,234284,621627,,,BCT,MKD,OTH,,,,138,2003-08-27T00:00:00,2023-12-12T15:02:54,0,,active
6190125,29723786,,,Fire Station,,,,John Street,,Station Road,,,,Opp,,SW,ES000201,Ayr,,,AYR,,,,0,,234292,621608,,,BCT,MKD,OTH,,,,138,2003-08-27T00:00:00,2023-12-12T15:02:54,0,,active
6190126,29724365,,,Craigie Way,,,,Craigie Way,,Craigie Road,,,,At,,SW,ES000201,Ayr,,,AYR,,,,0,,234512,621904,,,BCT,MKD,OTH,,,,138,2003-08-27T00:00:00,2023-12-12T15:02:54,0,,active
6190127,29723625,,,Beech Grove,,,,Beech Grove,,James Campbell Road,,,,At,,NW,ES000201,Ayr,,,AYR,,,,0,,235164,621770,,,BCT,MKD,OTH,,,,138,2003-08-27T00:00:00,2023-12-12T15:02:54,0,,active
6190128,29723469,,,Lymburn Place,,,,Lymburn Place,,Craigie Way,,,,At,,SE,ES000201,Ayr,,,AYR,,,,0,,234589,621931,,,BCT,MKD,OTH,,,,138,2003-08-27T00:00:00,2023-12-12T15:02:54,0,,active
6190129,29724374,,,Craigie Lea,,,,Craigie Lea,,James Campbell Road,,,,Near,,NW,ES000201,Ayr,,,AYR,,,,0,,234906,621825,,,BCT,MKD,OTH,,,,138,2003-08-27T00:00:00,2023-12-12T15:02:54,0,,active
619013,29723284,,,Cunning Park Drive,,,,Cunning Park Drive,,Doonfoot Road,,,,Opp,,SW,N0072945,Doonfoot,Ayr,,AYR,,,,1,,232719,619148,,,BCT,MKD,OTH,,,,138,2003-08-27T00:00:00,2023-12-12T15:02:54,0,,active
6190130,29724834,,,Craigie way,,,,Craigie Way,,James Campbell Road,,,,At,,SW,ES000201,Ayr,,,AYR,,,,0,,234789,621737,,,BCT,MKD,OTH,,,,138,2003-08-27T00:00:00,2023-12-12T15:02:54,0,,active
6190131,29723948,,,Churchill Crescent,,,,Churchill Crescent,,Hayhill,,,,Opp,,SW,ES000201,Ayr,,,AYR,,,,0,,235656,621818,,,BCT,MKD,OTH,,,,138,2003-08-27T00:00:00,2023-12-12T15:02:54,0,,active
6190132,29724345,,,Robertson Crescent,,,,Robertson Crescent,,Hayhill,,,,opp,,SW,ES000201,Ayr,,,AYR,,,,0,,235931,621958,,,BCT,MKD,OTH,,,,138,2003-08-27T00:00:00,2023-12-12T15:02:54,0,,active
6190133,29724535,,,Dunlop Terrace,,,,Dunlop Terrace,,Hayhill,,,,Opp,,SW,ES000201,Ayr,,,AYR,,,,0,,236135,622075,,,BCT,MKD,OTH,,,,138,2003-08-27T00:00:00,2023-12-12T15:02:54,0,,active
6190134,29724875,,,Westwood Avenue,,,,Westwood Avenue,,Mainholm Road,,,,opp,,NW,N0079269,Dalmilling,Ayr,,AYR,,,,0,,235738,622335,,,BCT,MKD,OTH,,,,138,2003-08-27T00:00:00,2023-12-12T15:02:54,0,,active
6190135,29723493,,,Braehead Avenue,,,,Braehead Avenue,,Mainholm Road,,,,Near,,N,N0079269,Dalmilling,Ayr,,AYR,,,,0,,235645,622557,,,BCT,MKD,OTH,,,,138,2003-08-27T00:00:00,2023-12-12T15:02:54,0,,active
6190136,29724856,,,Dalmilling Drive,,,,Dalmilling Drive,,Dalmilling Road,,,,At,,W,ES003863,Whitletts,Ayr,,AYR,,,,0,,235948,622683,,,BCT,MKD,OTH,,,,138,2003-08-27T00:00:00,2023-12-12T15:02:54,0,,inactive
6190137,29723267,,,Thornyflat Drive,,,,Thornyflat Drive,,Dalmilling Road,,,,At,,SW,ES003863,Whitletts,Ayr,,AYR,,,,0,,236180,622781,,,BCT,MKD,OTH,,,,138,2003-08-27T00:00:00,2023-12-12T15:02:54,0,,inactive
6190138,29724376,,,Thornlyflat Road,,,,St Quivox Parish Church,,Dalmilling Road,,,,after,,S,ES003863,Whitletts,Ayr,,AYR,,,,0,,236281,622949,,,BCT,MKD,OTH,,,,138,2003-08-27T00:00:00,2023-12-12T15:02:54,0,,inactive
6190139,29724296,,,Thorneyflat Street,,,,Thorneyflat Street,,Thornyflat Road,,,,Opp,,SE,N0079269,Dalmilling,Ayr,,AYR,,,,0,,236433,622920,,,BCT,MKD,OTH,,,,138,2003-08-27T00:00:00,2023-12-12T15:02:54,0,,active
619014,29723968,,,Belleisle Park,,,,Belleisle Park,,Doonfoot Road,,,,Opp,,NE,N0072945,Doonfoot,Ayr,,AYR,,,,1,,232940,619520,,,BCT,MKD,OTH,,,,138,2003-08-27T00:00:00,2023-12-12T15:02:54,0,,active
6190140,29724769,,,Thornyflat Road,,,,Turning Circle,,Westwood Avenue,,,,after,,N,N0079269,Dalmilling,Ayr,,AYR,,,,0,,236578,622722,,,BCT,MKD,OTH,,,,138,2003-08-27T00:00:00,2023-12-12T15:02:54,0,,active
6190141,29724659,,,Thorneyflat Drive,,,,Thorneyflat Drive,,Westwood Avenue,,,,Opp,,SW,N0079269,Dalmilling,Ayr,,AYR,,,,0,,236420,622640,,,BCT,MKD,OTH,,,,138,2003-08-27T00:00:00,2023-12-12T15:02:54,0,,active
6190143,29724369,,,Dalmilling Drive,,,,Dalmilling Drive,,Westwood Avenue,,,,opp,,SW,N0079269,Dalmilling,Ayr,,AYR,,,,0,,235938,622424,,,BCT,MKD,OTH,,,,138,2003-08-27T00:00:00,2023-12-12T15:02:54,0,,active
6190144,29723623,,,Galloway Avenue,,,,Galloway Avenue,,Whitletts Road,,,,Opp,,SW,ES003863,Whitletts,Ayr,,AYR,,,,1,,235415,622636,,,BCT,MKD,OTH,,,,138,2003-08-27T00:00:00,2023-12-12T15:02:54,0,,active
6190145,29724285,,,Galloway Avenue,,,,Galloway Avenue,,Whitletts Road,,,,Near,,NE,ES003863,Whitletts,Ayr,,AYR,,,,1,,235337,622625,,,BCT,MKD,OTH,,,,138,2003-08-27T00:00:00,2023-12-12T15:02:54,0,,active
6190146,29723698,,,Walker Road,,,,Walker Road,,Whitletts Road,,,,Near,,E,ES003863,Whitletts,Ayr,,AYR,,,,1,,235053,622522,,,BCT,MKD,OTH,,,,138,2003-08-27T00:00:00,2023-12-12T15:02:54,0,,active
6190147,29723898,,,Walker Road,,,,Walker Road,,Whitletts Road,,,,Opp,,SW,ES003863,Whitletts,Ayr,,AYR,,,,1,,235048,622507,,,BCT,MKD,OTH,,,,138,2003-08-27T00:00:00,2023-12-12T15:02:54,0,,active
6190148,29723289,,,Hawkhill Avenue,,,,Hawkhill Avenue,,Whitletts Road,,,,At,,NE,ES003863,Whitletts,Ayr,,AYR,,,,1,,234897,622474,,,BCT,MKD,OTH,,,,138,2003-08-27T00:00:00,2023-12-12T15:02:54,0,,active
6190149,29723678,,,Hawkhill Avenue,,,,Hawkhill Avenue,,Whitletts Road,,,,Opp,,SW,ES003863,Whitletts,Ayr,,AYR,,,,1,,234890,622458,,,BCT,MKD,OTH,,,,138,2003-08-27T00:00:00,2023-12-12T15:02:54,0,,active
619015,29723239,,,Belleisle Golf Club,,,,Belleisle Golf Club,,Doonfoot Road,,,,At,,SW,N0072945,Doonfoot,Ayr,,AYR,,,,1,,232946,619504,,,BCT,MKD,OTH,,,,138,2003-08-27T00:00:00,2023-12-12T15:02:54,0,,active
6190150,29724238,,,Hawkhill Avenue,,,,Hawkhill Avenue,,Whitletts Road,,,,Near,,E,ES003863,Whitletts,Ayr,,AYR,,,,1,,234690,622435,,,BCT,MKD,OTH,,,,138,2003-08-27T00:00:00,2023-12-12T15:02:54,0,,active
6190151,29723478,,,Craigie Road,,,,Craigie Road,,Whitletts Road,,,,near,,SW,ES003863,Whitletts,Ayr,,AYR,,,,1,,234693,622415,,,BCT,MKD,OTH,,,,138,2003-08-27T00:00:00,2023-12-12T15:02:54,0,,active
6190153,29723624,,,Albert Terrace,,,,Wallacetown Church,,John Street,,,,before,,SE,ES000201,Ayr,,,AYR,,,,0,,234147,621968,,,BCT,MKD,OTH,,,,138,2003-08-27T00:00:00,2023-12-12T15:02:54,0,,active
6190155,29724757,,,Newton Primary School,,,,Newton Primary School,,King Street,,,,At,,E,ES000201,Ayr,,,AYR,,,,1,,234163,622362,,,BCT,MKD,OTH,,,,138,2003-08-27T00:00:00,2023-12-12T15:02:54,0,,active
6190156,29724726,,,Newton Primary School,,,,Newton Primary School,,King Street,,,,Opp,,W,ES000201,Ayr,,,AYR,,,,1,,234156,622344,,,BCT,MKD,OTH,,,,138,2003-08-27T00:00:00,2023-12-12T15:02:54,0,,active
6190157,29724584,,,Burnett Terrace,,,,Adult Education Centre,,Whitletts Road,,,,before,,NE,ES003863,Whitletts,Ayr,,AYR,,,,1,,234477,622386,,,BCT,MKD,OTH,,,,138,2003-08-27T00:00:00,2023-12-12T15:02:54,0,,active
6190158,29723538,,,Craigie Road,,,,Adult Education Centre,,Whitletts Road,,,,after,,SW,ES003863,Whitletts,Ayr,,AYR,,,,1,,234496,622376,,,BCT,MKD,OTH,,,,138,2003-08-27T00:00:00,2023-12-12T15:02:54,0,,active
6190159,29724626,,,Wills Road,,,,Wills Road,,Whitletts Road,,,,Opp,,SW,ES003863,Whitletts,Ayr,,AYR,,,,1,,235204,622561,,,BCT,MKD,OTH,,,,138,2003-08-27T00:00:00,2023-12-12T15:02:54,0,,active
619016,29724589,,,Belleisle Park Golf ground,,,,Belleisle Park Golf ground,,Doonfoot Road,,,,At,,SW,N0072945,Doonfoot,Ayr,,AYR,,,,1,,233060,619803,,,BCT,MKD,OTH,,,,138,2003-08-27T00:00:00,2023-12-12T15:02:54,0,,active
6190160,29723824,,,Mainholm Road,,,,Mainholm Road,,Whitletts Road,,,,Near,,W,ES003863,Whitletts,Ayr,,AYR,,,,1,,235689,622704,,,BCT,MKD,OTH,,,,138,2003-08-27T00:00:00,2023-12-12T15:02:54,0,,active
6190161,29724642,,,Mainholm Road,,,,Mianholm Road,,Whitletts Road,,,,Opp,,NE,ES003863,Whitletts,Ayr,,AYR,,,,1,,235739,622730,,,BCT,MKD,OTH,,,,138,2003-08-27T00:00:00,2023-12-12T15:02:54,0,,active
6190162,29724549,,,Glenmuir Place,,,,Glenmuir Place,,Main Road,,,,Opp,,SW,ES003863,Whitletts,Ayr,,AYR,,,,1,,235935,622796,,,BCT,MKD,OTH,,,,138,2003-08-27T00:00:00,2023-12-12T15:02:54,0,,active
6190163,29724672,,,Whitletts Court,,,,Whitletts Court,,Main Road,,,,Near,,NE,ES003863,Whitletts,Ayr,,AYR,,,,1,,236050,622886,,,BCT,MKD,OTH,,,,138,2003-08-27T00:00:00,2023-12-12T15:02:54,0,,active
6190164,29723974,,,Whitletts Court,,,,Whitletts Court,,Main Road,,,,Opp,,SW,ES003863,Whitletts,Ayr,,AYR,,,,1,,236137,622916,,,BCT,MKD,OTH,,,,138,2003-08-27T00:00:00,2023-12-12T15:02:54,0,,active
6190165,29723692,,,Whitletts Pr School,,,,Whitletts Pr School,,Main Road,,,,At,,NE,ES003863,Whitletts,Ayr,,AYR,,,,1,,236196,622977,,,BCT,MKD,OTH,,,,138,2003-08-27T00:00:00,2023-12-12T15:02:54,0,,active
6190166,29724876,,,Thornyflat Road,,,,Thornyflat Road,,High Road,,,,Before,,SW,ES003863,Whitletts,Ayr,,AYR,,,,1,,236337,623087,,,BCT,MKD,OTH,,,,138,2003-08-27T00:00:00,2023-12-12T15:02:54,0,,active
6190167,29723823,,,Low Road,,,,Low Road,,High Road,,,,After,,NE,ES003863,Whitletts,Ayr,,AYR,,,,1,,236418,623189,,,BCT,MKD,OTH,,,,138,2003-08-27T00:00:00,2023-12-12T15:02:54,0,,active
6190168,29723936,,,Low Road,,,,Low Road,,James Brown Avenue,,,,at,,SW,ES003863,Whitletts,Ayr,,AYR,,,,0,,236270,623156,,,BCT,CUS,OTH,,,,138,2003-08-27T00:00:00,2023-12-12T15:02:54,0,,active
6190169,29723296,,,James Brown Avenue,,,,No 43,,James Brown Avenue,,,,opp 43,,SW,ES003863,Whitletts,Ayr,,AYR,,,,0,,236024,623044,,,BCT,CUS,OTH,,,,138,2003-08-27T00:00:00,2023-12-12T15:02:54,0,,active
619017,29723752,,,Carwinshoch View,,,,Carwinshoch View,,Doonfoot Road,,,,Past,,N,ES003278,Seafield,Ayr,,AYR,,,,1,,233077,620062,,,BCT,MKD,OTH,,,,138,2003-08-27T00:00:00,2023-12-12T15:02:54,0,,active
6190170,29723685,,,Glenmuir Place,,,,Glenmuir Place,,James Brown Avenue,,,,At,,NE,ES003863,Whitletts,Ayr,,AYR,,,,0,,235905,622951,,,BCT,MKD,OTH,,,,138,2003-08-27T00:00:00,2023-12-12T15:02:54,0,,active
6190171,29724279,,,Braeside,,,,Braeside,,Glenmuir Road,,,,Near,,SW,ES003863,Whitletts,Ayr,,AYR,,,,0,,235798,622846,,,BCT,CUS,OTH,,,,138,2003-08-27T00:00:00,2023-12-12T15:02:54,0,,active
6190172,29723439,,,Braeside,,,,Braeside,,Glenmuir Road,,,,Near,,E,ES003863,Whitletts,Ayr,,AYR,,,,0,,235750,622839,,,BCT,MKD,OTH,,,,138,2003-08-27T00:00:00,2023-12-12T15:02:54,0,,active
6190173,29724294,,,Thomson Street,,,,Thomson Street,,Sloan Street,,,,Opp,,S,ES003863,Whitletts,Ayr,,AYR,,,,0,,235591,622861,,,BCT,MKD,OTH,,,,138,2003-08-27T00:00:00,2023-12-12T15:02:54,0,,active
6190174,29723949,,,Sloan Street,,,,Sloan Street,,Ferguson Street,,,,Opp,,NE,ES003863,Whitletts,Ayr,,AYR,,,,0,,235509,623043,,,BCT,MKD,OTH,,,,138,2003-08-27T00:00:00,2023-12-12T15:02:54,0,,active
6190175,29724829,,,Cowan Crescent,,,,Cowan Street,,Ferguson Street,,,,Opp,,NE,ES003863,Whitletts,Ayr,,AYR,,,,0,,235332,623013,,,BCT,MKD,OTH,,,,138,2003-08-27T00:00:00,2023-12-12T15:02:54,0,,active
6190176,29724848,,,Gould Street,,,,Gould Street,,Walker Road,,,,Near,,SE,ES003863,Whitletts,Ayr,,AYR,,,,0,,234985,622673,,,BCT,MKD,OTH,,,,138,2003-08-27T00:00:00,2023-12-12T15:02:54,0,,active
6190177,29723729,,,Walker Road,,,,Lochside Road,,Walker Road,,,,at 29,,NW,ES003863,Whitletts,Ayr,,AYR,,,,0,,234982,622664,,,BCT,MKD,OTH,,,,138,2003-08-27T00:00:00,2023-12-12T15:02:54,0,,active
6190178,29724828,,,Mclean Street,,,,McLean Street,,Galloway Avenue,,,,Opp,,SE,ES003863,Whitletts,Ayr,,AYR,,,,0,,235389,622798,,,BCT,CUS,OTH,,,,138,2003-08-27T00:00:00,2023-12-12T15:02:54,0,,active
6190179,29724585,,,McLean Street,,,,McLean Street,,Galloway Avenue,,,,after,,NW,ES003863,Whitletts,Ayr,,AYR,,,,0,,235369,622825,,,BCT,MKD,OTH,,,,138,2003-08-27T00:00:00,2023-12-12T15:02:54,0,,active
619018,29724727,,,Seafield Crescent,,,,Health Board Head Office,,Doonfoot Road,,,,before,,NE,ES003278,Seafield,Ayr,,AYR,,,,1,,233117,620264,,,BCT,MKD,OTH,,,,138,2003-08-27T00:00:00,2023-12-12T15:02:54,0,,active
6190180,29723958,,,Ferguson Street,,,,Ferguson Street,,Galloway Avenue,,,,at,,NW,ES003863,Whitletts,Ayr,,AYR,,,,0,,235233,622940,,,BCT,MKD,OTH,,,,138,2003-08-27T00:00:00,2023-12-12T15:02:54,0,,active
6190181,29723629,,,Walker Road,,,,Lochside Road,,Walker Road,,,,at 40,,SE,ES003863,Whitletts,Ayr,,AYR,,,,0,,234862,622754,,,BCT,MKD,OTH,,,,138,2003-08-27T00:00:00,2023-12-12T15:02:54,0,,active
6190182,29723893,,,Wilson Street,,,,Wilson Street,,Walker Road,,,,Near,,NW,ES003863,Whitletts,Ayr,,AYR,,,,0,,234830,622762,,,BCT,MKD,OTH,,,,138,2003-08-27T00:00:00,2023-12-12T15:02:54,0,,active
6190183,29723589,,,St Georges Rd,,,,No 53,,St Georges Road,,,,at 53,,SW,N0072969,Newton-On-Ayr,Ayr,,AYR,,,,0,,234605,623083,,,BCT,MKD,OTH,,,,138,2003-08-27T00:00:00,2023-12-12T15:02:54,0,,active
6190184,29723946,,,Cambuslea Road,,,,Cambuslea Road,,Hunters Avenue,,,,At,,SW,N0072969,Newton-On-Ayr,Ayr,,AYR,,,,0,,234664,623283,,,BCT,MKD,OTH,,,,138,2003-08-27T00:00:00,2023-12-12T15:02:54,0,,active
6190185,29724293,,,Tweed Street,,,,Tweed Street,,Hunters Avenue,,,,Opp,,NE,ES001742,Heathfield,Ayr,,AYR,,,,0,,234746,623572,,,BCT,MKD,OTH,,,,138,2003-08-27T00:00:00,2023-12-12T15:02:54,0,,active
6190186,29723294,,,Ettrick Place,,,,Ettrick Place,,Hunters Avenue,,,,At,,SW,ES001742,Heathfield,Ayr,,AYR,,,,0,,234808,623679,,,BCT,MKD,OTH,,,,138,2003-08-27T00:00:00,2023-12-12T15:02:54,0,,active
6190187,29724582,,,Woodfield Avenue,,,,Woodfield Avenue,,Prestwick Road,,,,At,,NE,ES001742,Heathfield,Ayr,,AYR,,,,1,,234597,624052,,,BCT,MKD,OTH,,,,138,2003-08-27T00:00:00,2023-12-12T15:02:54,0,,active
6190188,29723723,,,Woodfield Avenue,,,,Woodfield Avenue,,Prestwick Road,,,,Opp,,SW,ES001742,Heathfield,Ayr,,AYR,,,,1,,234603,624044,,,BCT,MKD,OTH,,,,138,2003-08-27T00:00:00,2023-12-12T15:02:54,0,,active
6190189,29724768,,,Woodfield Crescent,,,,Woodfield Crescent,,Prestwick Road,,,,At,,NE,ES001742,Heathfield,Ayr,,AYR,,,,1,,234494,623814,,,BCT,MKD,OTH,,,,138,2003-08-27T00:00:00,2023-12-12T15:02:54,0,,active
619019,29723459,,,Seafield Crescent,,,,Seafield Crescent,,Doonfoot Road,,,,Opp,,SW,ES003278,Seafield,Ayr,,AYR,,,,1,,233181,620439,,,BCT,MKD,OTH,,,,138,2003-08-27T00:00:00,2023-12-12T15:02:54,0,,active
6190191,29723873,,,Pleasantfield Road,,,,Pleasantfield Road,,Ayr Road,,,,Opp,,S,ES001742,Heathfield,Ayr,,PRESTWICK,,,,1,,234708,624324,,,BCT,MKD,OTH,,,,138,2003-08-27T00:00:00,2023-12-12T15:02:54,0,,active
6190192,29724852,,,Marchfield Road,,,,Marchfield Road,,Ayr Road,,,,after,,NE,ES001742,Heathfield,Ayr,,AYR,,,,1,,234663,624207,,,BCT,MKD,OTH,,,,138,2003-08-27T00:00:00,2023-12-12T15:02:54,0,,active
6190193,29723637,,,Kirkholm Avenue,,,,Kirkholm Avenue,,Prestwick Road,,,,Opp,,SW,ES001742,Heathfield,Ayr,,AYR,,,,1,,234463,623724,,,BCT,MKD,OTH,,,,138,2003-08-27T00:00:00,2023-12-12T15:02:54,0,,active
6190194,29723429,,,Bellesleyhill Road,,,,Bellesleyhill Road,,Prestwick Road,,,,Opp,,NE,N0072969,Newton-On-Ayr,Ayr,,AYR,,,,1,,234368,623526,,,BCT,MKD,OTH,,,,138,2003-08-27T00:00:00,2023-12-12T15:02:54,0,,active
6190195,29723295,,,Alderston Avenue,,,,Alderston Avenue,,Prestwick Road,,,,At,,SW,N0072969,Newton-On-Ayr,Ayr,,AYR,,,,1,,234363,623494,,,BCT,MKD,OTH,,,,138,2003-08-27T00:00:00,2023-12-12T15:02:54,0,,active
6190196,29723543,,,Lansdowne Road,,,,Lansdowne Road,,Prestwick Road,,,,Near,,NE,N0072969,Newton-On-Ayr,Ayr,,AYR,,,,1,,234305,623380,,,BCT,MKD,OTH,,,,138,2003-08-27T00:00:00,2023-12-12T15:02:54,0,,active
6190197,29724838,,,Northfield Avenue,,,,Dunward Hotel,,Prestwick Road,,,,At,,SW,N0072969,Newton-On-Ayr,Ayr,,AYR,,,,1,,234276,623292,,,BCT,MKD,OTH,,,,138,2003-08-27T00:00:00,2023-12-12T15:02:54,0,,active
6190198,29724835,,,Tig Road,,,,Tig Road,,Prestwick Road,,,,Opp,,NE,N0072969,Newton-On-Ayr,Ayr,,AYR,,,,1,,234221,623188,,,BCT,MKD,OTH,,,,138,2003-08-27T00:00:00,2023-12-12T15:02:54,0,,active
6190199,29723956,,,McCalls Avenue,,,,McCalls Avenue,,Prestwick Road,,,,Near,,SW,N0072969,Newton-On-Ayr,Ayr,,AYR,,,,1,,234190,623093,,,BCT,MKD,OTH,,,,138,2003-08-27T00:00:00,2023-12-12T15:02:54,0,,active
61902,29723828,,,Cambusdoon Drive,,,,Cambusdoon Drive,,Alloway,,,,before,,SW,ES000073,Alloway,Ayr,,AYR,,,,1,,233338,618437,,,BCT,MKD,OTH,,,,138,2003-08-27T00:00:00,2023-12-12T15:02:54,0,,active
619020,29724597,,,Bentfield Avenue,,,,Bentfield Avenue,,Racecourse Road,,,,Opp,,SW,ES003278,Seafield,Ayr,,AYR,,,,1,,233248,620680,,,BCT,MKD,OTH,,,,138,2003-08-27T00:00:00,2023-12-12T15:02:54,0,,active
6190200,29724382,,,The Smithy,,,,The Smithy,,Kilmarnock Road,,,,Opp,,NE,N0072938,Bogend,,,BOGEND,,,,0,,239638,632305,,,BCT,MKD,OTH,,,,138,2003-08-27T00:00:00,2023-12-12T15:02:54,0,,active
6190201,29724893,,,Tarbolton Road,,,,Tarbolton Road,,Kilmarnock Road,,,,At,,SW,N0072938,Bogend,,,BOGEND,,,,0,,239606,632207,,,BCT,MKD,OTH,,,,138,2003-08-27T00:00:00,2023-12-12T15:02:54,0,,active
6190202,29724849,,,Hansel Village,,,,Hansel Village,,Kilmarnock Road,,,,Opp,,NE,N0072953,Hansel Village,,,HANSEL VILLAGE,,,,0,,237909,630213,,,BCT,MKD,OTH,,,,138,2003-08-27T00:00:00,2023-12-12T15:02:54,0,,active
6190203,29724326,,,Hansel Village,,,,Hansel Village,,Kilmarnock Road,,,,At,,SW,N0072953,Hansel Village,,,HANSEL VILLAGE,,,,0,,237866,630126,,,BCT,MKD,OTH,,,,138,2003-08-27T00:00:00,2023-12-12T15:02:54,0,,active
6190204,29723796,,,Prestwick Airport,,,,Prestwick Airport,,A79,,,,opp,,N,ES003088,Prestwick,,,PRESTWICK,,,,1,,235036,627005,,,BCT,MKD,OTH,,,,138,2003-08-27T00:00:00,2023-12-12T15:02:54,0,,active
6190205,29724695,,,Prestwick Airport,,,,Prestwick Airport,,A79,,,,Opp,,N,ES003088,Prestwick,,,PRESTWICK,,,,1,,235036,627012,,,BCT,MKD,OTH,,,,138,2003-08-27T00:00:00,2023-12-12T15:02:54,0,,active
6190206,29724546,,,Oswald Drive,,,,Prestwick Academy,,Monkton Road,,,,before,,SW,ES003088,Prestwick,,,PRESTWICK,,,,1,,235385,626481,,,BCT,MKD,OTH,,,,138,2003-08-27T00:00:00,2023-12-12T15:02:54,0,,active
6190207,29724254,,,Oswald Drive,,,,Oswald Drive,,Monkton Road,,,,Opp,,NE,ES003088,Prestwick,,,PRESTWICK,,,,1,,235343,626441,,,BCT,MKD,OTH,,,,138,2003-08-27T00:00:00,2023-12-12T15:02:54,0,,active
6190208,29724252,,,The Cross,,,,The Cross,,Alexandra Avenue,,,,before,,SW,ES003088,Prestwick,,,PRESTWICK,,,,0,,235284,626237,,,BCT,MKD,OTH,,,,138,2003-08-27T00:00:00,2023-12-12T15:02:54,0,,active
6190209,29723846,,,Caelaverock Road,,,,Caelaverock Road,,Alexandra Avenue,,,,before,,NE,ES003088,Prestwick,,,PRESTWICK,,,,0,,235399,626251,,,BCT,MKD,OTH,,,,138,2003-08-27T00:00:00,2023-12-12T15:02:54,0,,active
619021,29723565,,,Southpark Road,,,,SouthPark Road,,Racecourse Road,,,,Opp,,NE,ES003278,Seafield,Ayr,,AYR,,,,1,,233269,620774,,,BCT,MKD,OTH,,,,138,2003-08-27T00:00:00,2023-12-12T15:02:54,0,,active
6190210,29723432,,,Berelands Road,,,,No 4,,Berelands Road,,,,at 4,,W,ES003088,Prestwick,,,PRESTWICK,,,,0,,235433,626164,,,BCT,MKD,OTH,,,,138,2003-08-27T00:00:00,2023-12-12T15:02:54,0,,active
6190211,29723837,,,Merrick Avenue,,,,Merrick Avenue,,Berelands Road,,,,Opp,,NW,ES003088,Prestwick,,,PRESTWICK,,,,0,,235574,626135,,,BCT,MKD,OTH,,,,138,2003-08-27T00:00:00,2023-12-12T15:02:54,0,,active
6190212,29724625,,,Merrick Avenue,,,,Merrick Avenue,,Berelands Road,,,,At,,SE,ES003088,Prestwick,,,PRESTWICK,,,,0,,235610,626138,,,BCT,MKD,OTH,,,,138,2003-08-27T00:00:00,2023-12-12T15:02:54,0,,active
6190213,29723879,,,McNeill Avenue,,,,McNeill Avenue,,Berelands Road,,,,Opp,,NW,ES003088,Prestwick,,,PRESTWICK,,,,0,,235748,626054,,,BCT,MKD,OTH,,,,138,2003-08-27T00:00:00,2023-12-12T15:02:54,0,,active
6190214,29723986,,,Newdykes Road,,,,Newdykes Road,,Alvord Avenue,,,,At,,SW,ES003088,Prestwick,,,PRESTWICK,,,,0,,235832,626185,,,BCT,MKD,OTH,,,,138,2003-08-27T00:00:00,2023-12-12T15:02:54,0,,active
6190215,29723657,,,Shaw Road,,,,Shaw Road,,Newdykes Road,,,,At,,NW,ES003088,Prestwick,,,PRESTWICK,,,,0,,235970,626116,,,BCT,MKD,OTH,,,,138,2003-08-27T00:00:00,2023-12-12T15:02:54,0,,active
6190216,29724789,,,Manson Avenue,,,,Sherwood Road,,Shaw Road,,,,opp,,SW,ES003088,Prestwick,,,PRESTWICK,,,,0,,235958,625994,,,BCT,MKD,OTH,,,,138,2003-08-27T00:00:00,2023-12-12T15:02:54,0,,active
6190217,29723745,,,Sherwood Road,,,,Sherwood Road,,Adamton Road,,,,before,,NE,ES003088,Prestwick,,,PRESTWICK,,,,0,,235954,625913,,,BCT,MKD,OTH,,,,138,2003-08-27T00:00:00,2023-12-12T15:02:54,0,,active
6190218,29723562,,,Briarhill Road,,,,Briarhill Road,,Adamton Road,,,,At,,NE,ES003088,Prestwick,,,PRESTWICK,,,,0,,235868,625769,,,BCT,MKD,OTH,,,,138,2003-08-27T00:00:00,2023-12-12T15:02:54,0,,active
6190219,29724257,,,Westbourne Gardens,,,,Westbourne Gardens,,Adamton Road,,,,Near,,NE,ES003088,Prestwick,,,PRESTWICK,,,,0,,235727,625563,,,BCT,MKD,OTH,,,,138,2003-08-27T00:00:00,2023-12-12T15:02:54,0,,active
619022,29723496,,,Blackburn Road,,,,Blackburn Road,,Racecourse Road,,,,At,,N,ES000201,Ayr,,,AYR,,,,1,,233313,620918,,,BCT,MKD,OTH,,,,138,2003-08-27T00:00:00,2023-12-12T15:02:54,0,,active
6190220,29724598,,,St Quivox Road,,,,St Quivox Road,,Adamton Road,,,,At,,SW,ES003088,Prestwick,,,PRESTWICK,,,,0,,235727,625544,,,BCT,MKD,OTH,,,,138,2003-08-27T00:00:00,2023-12-12T15:02:54,0,,inactive
6190221,29723468,,,Underwood Road,,,,Underwood Road,,Adamton Road,,,,after,,SW,ES003088,Prestwick,,,PRESTWICK,,,,0,,235497,625298,,,BCT,MKD,OTH,,,,138,2003-08-27T00:00:00,2023-12-12T15:02:54,0,,active
6190222,29723864,,,Cunninghame Road,,,,Cunninghame Road,,Adamton Road,,,,Opp,,SW,ES003088,Prestwick,,,PRESTWICK,,,,1,,235374,625213,,,BCT,MKD,OTH,,,,138,2003-08-27T00:00:00,2023-12-12T15:02:54,0,,inactive
6190223,29723724,,,Cunninghame Road,,,,Cunninghame Road,,Adamton Road,,,,At,,NE,ES003088,Prestwick,,,PRESTWICK,,,,1,,235369,625218,,,BCT,MKD,OTH,,,,138,2003-08-27T00:00:00,2023-12-12T15:02:54,0,,inactive
6190224,29724527,,,Auchincruive Avenue,,,,Auchincruive Avenue,,Adamton Road,,,,At,,SW,ES003088,Prestwick,,,PRESTWICK,,,,0,,235195,625078,,,BCT,MKD,OTH,,,,138,2003-08-27T00:00:00,2023-12-12T15:02:54,0,,inactive
6190225,29723892,,,Crawford Avenue,,,,Crawford Avenue,,Adamton Road,,,,Opp,,N,ES003088,Prestwick,,,PRESTWICK,,,,0,,235097,624895,,,BCT,MKD,OTH,,,,138,2003-08-27T00:00:00,2023-12-12T15:02:54,0,,inactive
6190226,29724242,,,Blanefield Avenue,,,,Blanefield Avenue,,Adamton Road,,,,Opp,,S,ES003088,Prestwick,,,PRESTWICK,,,,0,,235083,624720,,,BCT,MKD,OTH,,,,138,2003-08-27T00:00:00,2023-12-12T15:02:54,0,,inactive
6190227,29723534,,,Arran Park,,,,Arran Park,,Adamton Road,,,,Opp,,S,ES001742,Heathfield,Ayr,,PRESTWICK,,,,0,,235074,624407,,,BCT,MKD,OTH,,,,138,2003-08-27T00:00:00,2023-12-12T15:02:54,0,,inactive
6190228,29724269,,,Arran Park,,,,Arran Park,,Adamton Road,,,,Near,,N,ES001742,Heathfield,Ayr,,PRESTWICK,,,,0,,235063,624408,,,BCT,MKD,OTH,,,,138,2003-08-27T00:00:00,2023-12-12T15:02:54,0,,inactive
6190229,29724638,,,Doon Avenue,,,,Doon Avenue,,Afton Avenue,,,,Opp,,SW,ES001742,Heathfield,Ayr,,PRESTWICK,,,,0,,235079,624156,,,BCT,MKD,OTH,,,,138,2003-08-27T00:00:00,2023-12-12T15:02:54,0,,inactive
619023,29723528,,,Savoy Park,,,,Savoy Park,,Racecourse Road,,,,Opp,,SW,ES000201,Ayr,,,AYR,,,,1,,233394,621161,,,BCT,MKD,OTH,,,,138,2003-08-27T00:00:00,2023-12-12T15:02:54,0,,active
6190231,29724275,,,Heathfield Primary,,,,Heathfield Pr School,,Heatherfield Road,,,,At,,SE,ES001742,Heathfield,Ayr,,AYR,,,,0,,234905,624053,,,BCT,MKD,OTH,,,,138,2003-08-27T00:00:00,2023-12-12T15:02:54,0,,inactive
6190232,29724347,,,Heathfield Primary,,,,Heathfield Primary School,,Heathfield Road,,,,Opp,,NW,ES001742,Heathfield,Ayr,,AYR,,,,0,,234843,624073,,,BCT,MKD,OTH,,,,138,2003-08-27T00:00:00,2023-12-12T15:02:54,0,,inactive
6190233,29724539,,,Prestwick Road,,,,Prestwick Road,,Heathfield Road,,,,Near,,NW,ES001742,Heathfield,Ayr,,AYR,,,,0,,234704,624140,,,BCT,MKD,OTH,,,,138,2003-08-27T00:00:00,2023-12-12T15:02:54,0,,inactive
6190234,29724842,,,Elmbank Street,,,,Virginia Gardens,,Prestwick Road,,,,before,,NE,ES000201,Ayr,,,AYR,,,,1,,234088,622915,,,BCT,MKD,OTH,,,,138,2003-08-27T00:00:00,2023-12-12T15:02:54,0,,active
6190235,29723287,,,Damside,,,,Damside,,Allison Street,,,,Opp,,SW,ES000201,Ayr,,,AYR,,,,1,,234040,622621,,,BCT,MKD,OTH,,,,138,2003-08-27T00:00:00,2023-12-12T15:02:54,0,,active
6190236,29724579,,,Police Station,,,,Police Station,,King Street,,,,Opp,,W,ES000201,Ayr,,,AYR,,,,1,,233925,622339,,,BCT,MKD,OTH,,,,138,2003-08-27T00:00:00,2023-12-12T15:02:54,0,,active
6190237,29724325,,,Police Station,,,,Police Station,,King Street,,,,At,,E,ES000201,Ayr,,,AYR,,,,1,,233900,622363,,,BCT,MKD,OTH,,,,138,2003-08-27T00:00:00,2023-12-12T15:02:54,0,,active
6190239,29724284,,,Crown Street,,,,Crown Street,,Main Street,,,,At,,N,ES000201,Ayr,,,AYR,,,,1,,233831,622449,,,BCT,MKD,OTH,,,,138,2003-08-27T00:00:00,2023-12-12T15:02:54,0,,active
619024,29723785,,,Fairfield Road,,,,Fairfield Road,,Racecourse Road,,,,before,,N,ES000201,Ayr,,,AYR,,,,1,,233439,621344,,,BCT,MKD,OTH,,,,138,2003-08-27T00:00:00,2023-12-12T15:02:54,0,,active
6190240,29724742,,,Crown Street,,,,Crown street,,Main Street,,,,Opp,,S,ES000201,Ayr,,,AYR,,,,1,,233858,622489,,,BCT,MKD,OTH,,,,138,2003-08-27T00:00:00,2023-12-12T15:02:54,0,,active
6190241,29723457,,,Waggon Road,,,,Waggon Road,,New Road,,,,before,,NE,ES000201,Ayr,,,AYR,,,,1,,233987,622756,,,BCT,MKD,OTH,,,,138,2003-08-27T00:00:00,2023-12-12T15:02:54,0,,active
6190242,29724393,,,Waggon Road,,,,Waggon Road,,New Road,,,,opp,,SW,ES000201,Ayr,,,AYR,,,,1,,233995,622757,,,BCT,MKD,OTH,,,,138,2003-08-27T00:00:00,2023-12-12T15:02:54,0,,active
6190243,29724368,,,Lilybank Road,,,,Lilybank Road,,Ayr Road,,,,At,,N,ES001742,Heathfield,Ayr,,PRESTWICK,,,,1,,234705,624434,,,BCT,MKD,OTH,,,,138,2003-08-27T00:00:00,2023-12-12T15:02:54,0,,active
6190244,29723728,,,Bruce Avenue,,,,Bruce Avenue,,Ayr Road,,,,At,,N,ES003088,Prestwick,,,PRESTWICK,,,,1,,234716,624713,,,BCT,MKD,OTH,,,,138,2003-08-27T00:00:00,2023-12-12T15:02:54,0,,active
6190245,29724624,,,Crandleyhill road,,,,Crandleyhill Road,,Ayr Road,,,,Near,,SW,ES003088,Prestwick,,,PRESTWICK,,,,1,,234766,624791,,,BCT,MKD,OTH,,,,138,2003-08-27T00:00:00,2023-12-12T15:02:54,0,,active
6190246,29724869,,,Kingscroft Road,,,,Kingscroft Road,,Ayr Road,,,,At,,N,ES003088,Prestwick,,,PRESTWICK,,,,1,,234831,624985,,,BCT,MKD,OTH,,,,138,2003-08-27T00:00:00,2023-12-12T15:02:54,0,,active
6190247,29723423,,,Mansfield Road,,,,Mansfield Road,,Ayr Road,,,,Near,,S,ES003088,Prestwick,,,PRESTWICK,,,,1,,234857,625037,,,BCT,MKD,OTH,,,,138,2003-08-27T00:00:00,2023-12-12T15:02:54,0,,active
6190248,29724645,,,Brandon Gardens,,,,Brandon Gardens,,Ayr Road,,,,after,,N,ES003088,Prestwick,,,PRESTWICK,,,,1,,234902,625207,,,BCT,MKD,OTH,,,,138,2003-08-27T00:00:00,2023-12-12T15:02:54,0,,active
6190249,29723842,,,Meadowbank Lane,,,,Meadowbank Lane,,Ayr Road,,,,Opp,,S,ES003088,Prestwick,,,PRESTWICK,,,,1,,234918,625237,,,BCT,MKD,OTH,,,,138,2003-08-27T00:00:00,2023-12-12T15:02:54,0,,active
619025,29724679,,,Wellington Square,,,,Wellington Square,,Alloway Place,,,,At,,N,ES000201,Ayr,,,AYR,,,,1,,233490,621770,,,BCT,MKD,OTH,,,,138,2003-08-27T00:00:00,2023-12-12T15:02:54,0,,inactive
6190250,29723937,,,Southpark Avenue,,,,Southpark Avenue,,Ayr Road,,,,Opp,,SW,ES003088,Prestwick,,,PRESTWICK,,,,1,,234974,625411,,,BCT,MKD,OTH,,,,138,2003-08-27T00:00:00,2023-12-12T15:02:54,0,,active
6190251,29723526,,,Grangemuir Road,,,,Grangemuir Road,,Ayr Road,,,,At,,NE,ES003088,Prestwick,,,PRESTWICK,,,,0,,234980,625458,,,BCT,MKD,OTH,,,,138,2003-08-27T00:00:00,2023-12-12T15:02:54,0,,active
6190252,29724686,,,St. Quivox Road,,,,St. Quivox Road,,Main Street,,,,Opp,,NE,ES003088,Prestwick,,,PRESTWICK,,,,1,,235061,625676,,,BCT,MKD,OTH,,,,138,2003-08-27T00:00:00,2023-12-12T15:02:54,0,,active
6190253,29723643,,,St. Quivox Road,,,,St. Quivox Road,,Main Street,,,,before,,SW,ES003088,Prestwick,,,PRESTWICK,,,,1,,235076,625687,,,BCT,MKD,OTH,,,,138,2003-08-27T00:00:00,2023-12-12T15:02:54,0,,active
6190254,29723726,,,Gardiner Street,,,,Gardiner Street,,Main Street,,,,after,,SW,ES003088,Prestwick,,,PRESTWICK,,,,1,,235153,625824,,,BCT,MKD,OTH,,,,138,2003-08-27T00:00:00,2023-12-12T15:02:54,0,,active
6190255,29724354,,,Kyle Street,,,,The Cross,,Main Street,,,,before,,NE,ES003088,Prestwick,,,PRESTWICK,,,,1,,235153,625851,,,BCT,MKD,OTH,,,,138,2003-08-27T00:00:00,2023-12-12T15:02:54,0,,active
6190256,29723743,,,Saunterne Road,,,,Saunterne Road,,Main Street,,,,After,,S,ES003088,Prestwick,,,PRESTWICK,,,,1,,235186,626043,,,BCT,MKD,OTH,,,,138,2003-08-27T00:00:00,2023-12-12T15:02:54,0,,active
6190257,29724243,,,Station Road,,,,Station Road,,Main Street,,,,before,,N,ES003088,Prestwick,,,PRESTWICK,,,,1,,235175,626124,,,BCT,MKD,OTH,,,,138,2003-08-27T00:00:00,2023-12-12T15:02:54,0,,active
6190258,,,,Kirk Street,,,,Kirk Street,,Monkton Road,,,,At,,NE,ES003088,Prestwick,,,PRESTWICK,,,,1,,235221,626223,,,BCT,MKD,OTH,,,,138,2003-08-27T00:00:00,2023-12-12T15:02:54,0,,inactive
6190259,29724324,,,St Ninians Pr School,,,,St Ninians Pr School,,Marchburn Avenue,,,,At,,SE,ES003088,Prestwick,,,PRESTWICK,,,,0,,235922,625782,,,BCT,MKD,OTH,,,,138,2003-08-27T00:00:00,2023-12-12T15:02:54,0,,active
6190260,29723686,,,Sanquhar Avenue,,,,Sanquhar Avenue,,Marchburn Avenue,,,,Opp,,SE,ES003088,Prestwick,,,PRESTWICK,,,,0,,236068,625618,,,BCT,MKD,OTH,,,,138,2003-08-27T00:00:00,2023-12-12T15:02:54,0,,active
6190261,29724689,,,Raith Avenue,,,,Raith Avenue,,Indale Avenue,,,,Opp,,SW,ES003088,Prestwick,,,PRESTWICK,,,,0,,236183,625362,,,BCT,MKD,OTH,,,,138,2003-08-27T00:00:00,2023-12-12T15:02:54,0,,active
6190262,29723485,,,Carnell Crescent,,,,Carnell Crescent,,Indale Avenue,,,,At,,NW,ES003088,Prestwick,,,PRESTWICK,,,,0,,235924,625281,,,BCT,MKD,OTH,,,,138,2003-08-27T00:00:00,2023-12-12T15:02:54,0,,active
6190263,,,,Moorefield Road,,,,Moorefield Road,,Biggart Road,,,,At,,NE,ES003088,Prestwick,,,PRESTWICK,,,,1,,235524,625120,,,BCT,MKD,OTH,,,,138,2003-08-27T00:00:00,2023-12-12T15:02:54,0,,inactive
6190265,29724745,,,Calvinston Road,,,,Calvinston Road,,East Road,,,,after,,S,ES003088,Prestwick,,,PRESTWICK,,,,0,,235485,624473,,,BCT,MKD,OTH,,,,138,2003-08-27T00:00:00,2023-12-12T15:02:54,0,,active
6190266,29723985,,,Calvinston Road,,,,Calvinston Road,,East Road,,,,opp,,N,ES003088,Prestwick,,,PRESTWICK,,,,0,,235474,624452,,,BCT,MKD,OTH,,,,138,2003-08-27T00:00:00,2023-12-12T15:02:54,0,,active
6190267,29723285,,,Ardfin Road,,,,Ardfin Road,,East Road,,,,Near,,SW,ES001742,Heathfield,Ayr,,PRESTWICK,,,,0,,235422,624250,,,BCT,MKD,OTH,,,,138,2003-08-27T00:00:00,2023-12-12T15:02:54,0,,active
6190268,29723789,,,Mosside Road,,,,Mosside Road,,Heathfield Road,,,,after,,NW,ES001742,Heathfield,Ayr,,AYR,,,,0,,235204,623868,,,BCT,MKD,OTH,,,,138,2003-08-27T00:00:00,2023-12-12T15:02:54,0,,active
6190269,29723682,,,Heathpark,,,,Heathpark,,Heathfield Road,,,,At,,SE,ES001742,Heathfield,Ayr,,AYR,,,,0,,235015,623995,,,BCT,MKD,OTH,,,,138,2003-08-27T00:00:00,2023-12-12T15:02:54,0,,active
619027,29723472,,,Cathcart Street,,,,Cathcart Street,,Sandgate,,,,Opp,,SW,ES000201,Ayr,,,AYR,,,,1,,233653,622038,,,BCT,MKD,OTH,,,,138,2003-08-27T00:00:00,2023-12-12T15:02:54,0,,active
6190270,29723473,,,Killoch Place,,,,Miller Road,,Burns Statue Square,,,,at,,N,ES000201,Ayr,,,AYR,,,,1,,233855,621422,,,BCT,MKD,OTH,,,,138,2003-08-27T00:00:00,2023-12-12T15:02:54,0,,active
6190271,29724738,,,Burns Statue Square,,,,Rabbies Bar,,Alloway Street,,,,Opp,,SE,ES000201,Ayr,,,AYR,,,,1,,233881,621440,,,BCT,MKD,OTH,,,,138,2003-08-27T00:00:00,2023-12-12T15:02:54,0,,active
6190272,29723569,,,Smith Street,,,,Smith Street,,Burns Statue Square,,,,Near,,SE,ES000201,Ayr,,,AYR,,,,1,,233936,621393,,,BCT,MKD,OTH,,,,138,2003-08-27T00:00:00,2023-12-12T15:02:54,0,,active
6190273,29724627,,,Kyle Street,,,,Kyle Street,,Alloway Street,,,,Opp,,NE,ES000201,Ayr,,,AYR,,,,1,,233864,621512,,,BCT,MKD,OTH,,,,138,2003-08-27T00:00:00,2023-12-12T15:02:54,0,,active
6190275,29723835,,,Carrick Street,,,,Carrick Street,,High Street,,,,before,,N,ES000201,Ayr,,,AYR,,,,1,,233853,621770,,,BCT,MKD,OTH,,,,138,2003-08-27T00:00:00,2023-12-12T15:02:54,0,,active
6190276,29723549,,,Newmarket Street,,,,Newmarket Street,,High Street,,,,Before,,NW,ES000201,Ayr,,,AYR,,,,1,,233804,621944,,,BCT,MKD,OTH,,,,138,2003-08-27T00:00:00,2023-12-12T15:02:54,0,,active
6190278,29723572,,,Prestwick Holiday Park,,,,Prestwick Golf Course,,A79,,,,near,,N,ES003088,Prestwick,,,PRESTWICK,,,,1,,234977,627437,,,BCT,MKD,OTH,,,,138,2003-08-27T00:00:00,2023-12-12T15:02:54,0,,active
6190279,29724843,,,Whiteside Drive,,,,Whiteside Drive,,Kilmarnock Road,,,,opp,,NE,N0068161,Monkton,,,MONKTON,,,,0,,235948,627999,,,BCT,MKD,OTH,,,,138,2003-08-27T00:00:00,2023-12-12T15:02:54,0,,active
619028,29723896,,,Town Hall,,,,New Bridge Street,,High Street,,,,at,,NW,ES000201,Ayr,,,AYR,,,,1,,233730,622088,,,BCT,MKD,OTH,,,,138,2003-08-27T00:00:00,2023-12-12T15:02:54,0,,active
6190280,29723576,,,Greenknowne Park,,,,Greenknowne Park,,Kilmarnock Road,,,,At,,NE,N0068161,Monkton,,,MONKTON,,,,0,,235807,627865,,,BCT,MKD,OTH,,,,138,2003-08-27T00:00:00,2023-12-12T15:02:54,0,,active
6190281,29724743,,,Burnside Road,,,,Burnside Road,,Kilmarnock Road,,,,Near,,SW,N0068161,Monkton,,,MONKTON,,,,0,,235804,627850,,,BCT,MKD,OTH,,,,138,2003-08-27T00:00:00,2023-12-12T15:02:54,0,,active
6190282,29723927,,,Kilmarnock Road,,,,Kilmarnock Road,,Main Street,,,,Opp,,NW,N0068161,Monkton,,,MONKTON,,,,1,,235746,627852,,,BCT,MKD,OTH,,,,138,2003-08-27T00:00:00,2023-12-12T15:02:54,0,,active
6190283,29724237,,,Kilmarnock Road,,,,Kilmarnock Road,,Main Street,,,,At,,S,N0068161,Monkton,,,MONKTON,,,,1,,235753,627859,,,BCT,MKD,OTH,,,,138,2003-08-27T00:00:00,2023-12-12T15:02:54,0,,active
6190284,29723535,,,Coronation Street,,,,Coronation Street,,Main Street,,,,At,,S,N0068161,Monkton,,,MONKTON,,,,0,,235737,628093,,,BCT,MKD,OTH,,,,138,2003-08-27T00:00:00,2023-12-12T15:02:54,0,,active
6190285,29723746,,,Coronation Street,,,,Coronation street,,Main Street,,,,Opp,,N,N0068161,Monkton,,,MONKTON,,,,0,,235731,628136,,,BCT,MKD,OTH,,,,138,2003-08-27T00:00:00,2023-12-12T15:02:54,0,,active
6190286,29724826,,,Fullerton Drive,,,,Fullerton Drive,,Craigend Road,,,,At,,NE,ES003704,Troon,,,TROON,,,,0,,233313,629900,,,BCT,MKD,OTH,,,,138,2003-08-27T00:00:00,2023-12-12T15:02:54,0,,active
6190287,29723947,,,Fullerton Drive,,,,Fullerton Drive,,Craigend Road,,,,Opp,,SW,ES003704,Troon,,,TROON,,,,0,,233421,629923,,,BCT,MKD,OTH,,,,138,2003-08-27T00:00:00,2023-12-12T15:02:54,0,,active
6190288,29724353,,,Bentinck Drive,,,,Bentinck Drive,,Craigend Road,,,,Opp,,W,ES003704,Troon,,,TROON,,,,0,,232924,629779,,,BCT,MKD,OTH,,,,138,2003-08-27T00:00:00,2023-12-12T15:02:54,0,,active
6190289,29724746,,,Lochend Road,,,,Lochend Road,,South Beach,,,,Near,,NW,ES003704,Troon,,,TROON,,,,1,,232709,629929,,,BCT,MKD,OTH,,,,138,2003-08-27T00:00:00,2023-12-12T15:02:54,0,,active
6190290,29724845,,,Lochend Road,,,,Lochend Road,,South Beach,,,,opp,,NW,ES003704,Troon,,,TROON,,,,1,,232657,630123,,,BCT,MKD,OTH,,,,138,2003-08-27T00:00:00,2023-12-12T15:02:54,0,,active
6190291,29724383,,,Victoria Drive,,,,Victoria Drive,,South Beach,,,,Near,,NW,ES003704,Troon,,,TROON,,,,1,,232522,630416,,,BCT,MKD,OTH,,,,138,2003-08-27T00:00:00,2023-12-12T15:02:54,0,,active
6190292,29724735,,,Dallas Road,,,,Dallas Road,,South Beach,,,,before,,NW,ES003704,Troon,,,TROON,,,,1,,232361,630647,,,BCT,MKD,OTH,,,,138,2003-08-27T00:00:00,2023-12-12T15:02:54,0,,active
6190293,29723278,,,Council Offices,,,,Academy Street,,South Beach,,,,At,,NW,ES003704,Troon,,,TROON,,,,1,,232146,630846,,,BCT,MKD,OTH,,,,138,2003-08-27T00:00:00,2023-12-12T15:02:54,0,,active
6190294,29724823,,,West Portland Street,,,,West Portland Street,,Ayr Street,,,,Near,,NW,ES003704,Troon,,,TROON,,,,1,,232052,630959,,,BCT,MKD,OTH,,,,138,2003-08-27T00:00:00,2023-12-12T15:02:54,0,,active
6190295,29723963,,,Bradan Road,,,,Bradan Road,,West Portland Street,,,,Opp,,SW,ES003704,Troon,,,TROON,,,,1,,231988,630982,,,BCT,MKD,OTH,,,,138,2003-08-27T00:00:00,2023-12-12T15:02:54,0,,active
6190296,29723253,,,Bank Street,,,,Bank Street,,Portland Terrace,,,,Opp,,SW,ES003704,Troon,,,TROON,,,,1,,231699,630831,,,BCT,MKD,OTH,,,,138,2003-08-27T00:00:00,2023-12-12T15:02:54,0,,active
6190297,29724562,,,Wellbeck Crescent,,,,Wellbeck Crescent,,Titchfield Road,,,,Opp,,NW,ES003704,Troon,,,TROON,,,,0,,231391,630709,,,BCT,MKD,OTH,,,,138,2003-08-27T00:00:00,2023-12-12T15:02:54,0,,active
6190298,29724863,,,Kennedy Road,,,,Kennedy Road,,Titchfield Road,,,,Opp,,NW,ES003704,Troon,,,TROON,,,,0,,231259,630853,,,BCT,MKD,OTH,,,,138,2003-08-27T00:00:00,2023-12-12T15:02:54,0,,active
6190299,29724568,,,Garden Place,,,,Garden Place,,Harbour Road,,,,Opp,,NE,ES003704,Troon,,,TROON,,,,0,,231457,631055,,,BCT,MKD,OTH,,,,138,2003-08-27T00:00:00,2023-12-12T15:02:54,0,,active
61903,29724756,,,Cambusdoon Sports Club,,,,Cambusdoon Drive,,Alloway,,,,at,,SW,ES000073,Alloway,Ayr,,AYR,,,,1,,233267,618265,,,BCT,MKD,OTH,,,,138,2003-08-27T00:00:00,2023-12-12T15:02:54,0,,inactive
6190300,29723696,,,Darley Place,,,,Darley Place,,Bentinck Drive,,,,At,,SE,ES003704,Troon,,,TROON,,,,0,,232694,630422,,,BCT,MKD,OTH,,,,138,2003-08-27T00:00:00,2023-12-12T15:02:54,0,,active
6190301,29723273,,,Portland Street,,,,Portland Street,,Templehill,,,,Near,,SE,ES003704,Troon,,,TROON,,,,0,,231977,631038,,,BCT,MKD,OTH,,,,138,2003-08-27T00:00:00,2023-12-12T15:02:54,0,,active
6190302,29724265,,,Craigend Road,,,,Craigend Road,,Bentinck Drive,,,,Near,,S,ES003704,Troon,,,TROON,,,,0,,232949,629824,,,BCT,MKD,OTH,,,,138,2003-08-27T00:00:00,2023-12-12T15:02:54,0,,active
6190303,29724837,,,Lochend Road,,,,Lochend Road,,Bentinck Drive,,,,At,,SE,ES003704,Troon,,,TROON,,,,0,,232815,630224,,,BCT,MKD,OTH,,,,138,2003-08-27T00:00:00,2023-12-12T15:02:54,0,,active
6190304,29723792,,,Victoria Drive,,,,Victoria Drive,,Church Street,,,,At,,SE,ES003704,Troon,,,TROON,,,,0,,232546,630604,,,BCT,MKD,OTH,,,,138,2003-08-27T00:00:00,2023-12-12T15:02:54,0,,active
6190305,29724673,,,St Meddans Street,,,,St Meddans Street,,Church Street,,,,before,,SE,ES003704,Troon,,,TROON,,,,0,,232287,630918,,,BCT,MKD,OTH,,,,138,2003-08-27T00:00:00,2023-12-12T15:02:54,0,,active
6190306,29724352,,,Academy Street,,,,Academy Street,,Church Street,,,,Near,,SE,ES003704,Troon,,,TROON,,,,1,,232192,631037,,,BCT,MKD,OTH,,,,138,2003-08-27T00:00:00,2023-12-12T15:02:54,0,,active
6190307,29725245,,,Dukes Road,,,,Dukes Road,,Portland Street,,,,Opp,,SW,ES003704,Troon,,,TROON,,,,1,,232217,631166,,,BCT,MKD,OTH,,,,138,2003-08-27T00:00:00,2023-12-12T15:02:54,0,,active
6190308,29723735,,,Barassie street,,,,Barassie Street,,Portland Street,,,,before,,NE,ES003704,Troon,,,TROON,,,,1,,232202,631170,,,BCT,MKD,OTH,,,,138,2003-08-27T00:00:00,2023-12-12T15:02:54,0,,active
6190309,29723839,,,St Meddans Crescent,,,,,,Dundonald Road,,,,after,,NW,ES003704,Troon,,,TROON,,,,1,,232510,631298,,,BCT,MKD,OTH,,,,138,2003-08-27T00:00:00,2023-12-12T15:02:54,0,,active
619031,29723797,,,Ashgrove Street,,,,Ashgrove Street,,Castlehill Road,,,,Opp,,NW,ES000201,Ayr,,,AYR,,,,1,,234115,621201,,,BCT,MKD,OTH,,,,138,2003-08-27T00:00:00,2023-12-12T15:02:54,0,,active
6190311,29724239,,,St Meddans Crescent,,,,St Meddans Crescent,,Dundonald Road,,,,Near,,NW,ES003704,Troon,,,TROON,,,,1,,232701,631247,,,BCT,MKD,OTH,,,,138,2003-08-27T00:00:00,2023-12-12T15:02:54,0,,active
6190312,29723595,,,Logan Drive,,,,Logan Drive,,Dundonald Road,,,,At,,SE,ES003704,Troon,,,TROON,,,,1,,232785,631234,,,BCT,MKD,OTH,,,,138,2003-08-27T00:00:00,2023-12-12T15:02:54,0,,active
6190313,29723464,,,Harling Drive,,,,Harling Drive,,Dundonald Road,,,,At,,NW,ES003704,Troon,,,TROON,,,,1,,232937,631186,,,BCT,MKD,OTH,,,,138,2003-08-27T00:00:00,2023-12-12T15:02:54,0,,active
6190315,29724653,,,Gillies Street,,,,Gillies Street,,Logan Drive,,,,Near,,N,ES003704,Troon,,,TROON,,,,0,,232762,631325,,,BCT,MKD,OTH,,,,138,2003-08-27T00:00:00,2023-12-12T15:02:54,0,,active
619032,29724249,,,Inverkar Road,,,,Inverkar Road,,Castlehill Road,,,,Opp,,S,ES000201,Ayr,,,AYR,,,,0,,234191,620942,,,BCT,MKD,OTH,,,,138,2003-08-27T00:00:00,2023-12-12T15:02:54,0,,active
6190326,29723483,,,Ottoline Drive,,,,Ottoline Drive,,Dundonald Road,,,,after,,SW,ES003704,Troon,,,TROON,,,,1,,233457,631094,,,BCT,MKD,OTH,,,,138,2003-08-27T00:00:00,2023-12-12T15:02:54,0,,active
6190327,29724594,,,Ottoline Drive,,,,Ottoline Drive,,Dundonald Road,,,,opp,,NE,ES003704,Troon,,,TROON,,,,1,,233468,631104,,,BCT,MKD,OTH,,,,138,2003-08-27T00:00:00,2023-12-12T15:02:54,0,,active
6190328,29723895,,,Wilson Avenue,,,,Wilson Avenue,,Dundonald Road,,,,Near,,W,ES003704,Troon,,,TROON,,,,1,,233828,631150,,,BCT,MKD,OTH,,,,138,2003-08-27T00:00:00,2023-12-12T15:02:54,0,,active
6190329,29724687,,,Sandhill Gardens,,,,Sandhill Gardens,,Central Avenue,,,,Opp,,S,ES003704,Troon,,,TROON,,,,0,,233905,631266,,,BCT,MKD,OTH,,,,138,2003-08-27T00:00:00,2023-12-12T15:02:54,0,,inactive
619033,29723536,,,Inverkar Road,,,,Inverkar Road,,Castlehill Road,,,,At,,N,ES000201,Ayr,,,AYR,,,,0,,234186,620930,,,BCT,MKD,OTH,,,,138,2003-08-27T00:00:00,2023-12-12T15:02:54,0,,active
6190330,29724683,,,South Drive,,,,South Drive,,Central Avenue,,,,Opp,,NW,ES003704,Troon,,,TROON,,,,0,,233881,631351,,,BCT,MKD,OTH,,,,138,2003-08-27T00:00:00,2023-12-12T15:02:54,0,,active
6190331,29723248,,,West Crescent,,,,West Crescent,,Central Avenue,,,,opp,,SE,ES003704,Troon,,,TROON,,,,0,,233880,631385,,,BCT,MKD,OTH,,,,138,2003-08-27T00:00:00,2023-12-12T15:02:54,0,,active
6190332,29724859,,,Merrick Avenue,,,,Merrick Avenue,,Central Avenue,,,,before,,SE,ES003704,Troon,,,TROON,,,,0,,233791,631670,,,BCT,MKD,OTH,,,,138,2003-08-27T00:00:00,2023-12-12T15:02:54,0,,active
6190333,29724523,,,Mossgiel Avenue,,,,Mossgiel Avenue,,Lochlea Avenue,,,,Opp,,W,ES003704,Troon,,,TROON,,,,0,,233821,631780,,,BCT,MKD,OTH,,,,138,2003-08-27T00:00:00,2023-12-12T15:02:54,0,,active
6190334,29723684,,,North Drive,,,,North Drive,,Aldersyde Avenue,,,,At,,SW,ES003704,Troon,,,TROON,,,,0,,233929,631861,,,BCT,MKD,OTH,,,,138,2003-08-27T00:00:00,2023-12-12T15:02:54,0,,inactive
6190335,29724592,,,Spey Road,,,,Spey Road,,Earn Road,,,,Near,,N,ES003704,Troon,,,TROON,,,,0,,233828,631913,,,BCT,MKD,OTH,,,,138,2003-08-27T00:00:00,2023-12-12T15:02:54,0,,active
6190336,29723232,,,Ness Place,,,,Ness Place,,Lugar Place,,,,before,,NW,ES003704,Troon,,,TROON,,,,0,,233626,632083,,,BCT,MKD,OTH,,,,138,2003-08-27T00:00:00,2023-12-12T15:02:54,0,,active
6190337,29723989,,,Esk Road,,,,Esk Road,,Deveron Road,,,,Opp,,SW,ES003704,Troon,,,TROON,,,,0,,233493,632169,,,BCT,MKD,OTH,,,,138,2003-08-27T00:00:00,2023-12-12T15:02:54,0,,active
6190338,29723646,,,Spey Road,,,,Spey Road,,Deveron Road,,,,At,,S,ES003704,Troon,,,TROON,,,,0,,233543,631939,,,BCT,MKD,OTH,,,,138,2003-08-27T00:00:00,2023-12-12T15:02:54,0,,active
6190339,29724564,,,Annick Place,,,,Annick Place,,North Drive,,,,Near,,NE,ES003704,Troon,,,TROON,,,,0,,233666,631820,,,BCT,MKD,OTH,,,,138,2003-08-27T00:00:00,2023-12-12T15:02:54,0,,active
619034,29724586,,,Belmont Avenue,,,,Belmont Avenue,,Castlehill Road,,,,At,,NW,ES000201,Ayr,,,AYR,,,,0,,234281,620745,,,BCT,MKD,OTH,,,,138,2003-08-27T00:00:00,2023-12-12T15:02:54,0,,active
6190340,29723673,,,Central Avenue,,,,Central Avenue,,Dundonald Road,,,,At,,NE,ES003704,Troon,,,TROON,,,,1,,233966,631182,,,BCT,MKD,OTH,,,,138,2003-08-27T00:00:00,2023-12-12T15:02:54,0,,active
6190341,29724825,,,Collins Drive,,,,Collins Drive,,Troon Road,,,,Opp,,SW,N0068143,Loans,,,LOANS,,,,1,,234498,631454,,,BCT,MKD,OTH,,,,138,2003-08-27T00:00:00,2023-12-12T15:02:54,0,,active
6190342,29723765,,,Fullerton Place,,,,Fullerton Place,,Main Street,,,,at,,NW,N0068143,Loans,,,LOANS,,,,1,,234568,631639,,,BCT,MKD,OTH,,,,138,2003-08-27T00:00:00,2023-12-12T15:02:54,0,,active
6190343,29723237,,,Hall Lane,,,,Hall Lane,,Main Street,,,,Near,,SE,N0068143,Loans,,,LOANS,,,,0,,234497,631775,,,BCT,MKD,OTH,,,,138,2003-08-27T00:00:00,2023-12-12T15:02:54,0,,active
6190344,29723932,,,Seaview Terrace,,,,Seaview Terrace,,Main Street,,,,At,,NW,N0068143,Loans,,,LOANS,,,,0,,234441,631888,,,BCT,MKD,OTH,,,,138,2003-08-27T00:00:00,2023-12-12T15:02:54,0,,active
6190345,29723687,,,Collenan Cottages,,,,Collenan Cottages,,A759,,,,At,,SE,N0068003,Barassie,,,TROON,,,,0,,234244,632634,,,BCT,MKD,OTH,,,,138,2003-08-27T00:00:00,2023-12-12T15:02:54,0,,active
6190346,29724545,,,The Knowe,,,,The Knowe,,A759,,,,At,,NW,N0068003,Barassie,,,TROON,,,,0,,233768,633308,,,BCT,MKD,OTH,,,,138,2003-08-27T00:00:00,2023-12-12T15:02:54,0,,active
6190347,29724784,,,Lang Road,,,,Lang Road,,Kilmarnock Road,,,,Opp,,SW,N0068003,Barassie,,,TROON,,,,0,,233436,633080,,,BCT,MKD,OTH,,,,138,2003-08-27T00:00:00,2023-12-12T15:02:54,0,,active
6190348,29723627,,,Barassie Bank Lane,,,,Barassie Bank Lane,,Kilmarnock Road,,,,Opp,,E,N0068003,Barassie,,,TROON,,,,1,,232659,632800,,,BCT,MKD,OTH,,,,138,2003-08-27T00:00:00,2023-12-12T15:02:54,0,,active
619035,29723463,,,Castlehill Crescent,,,,Castlehill Crescent,,Castlehill Road,,,,Opp,,SE,ES000201,Ayr,,,AYR,,,,0,,234399,620626,,,BCT,MKD,OTH,,,,138,2003-08-27T00:00:00,2023-12-12T15:02:54,0,,active
6190355,29725365,,,Walker Avenue,,,,Walker Avenue,,North Shore Road,,,,opp,,N,ES003704,Troon,,,TROON,,,,1,,232499,631906,,,BCT,MKD,OTH,,,,138,2003-08-27T00:00:00,2023-12-12T15:02:54,0,,active
6190356,29723868,,,Walker Avenue,,,,Walker Avenue,,North Shore Road,,,,Past,,S,ES003704,Troon,,,TROON,,,,1,,232505,631873,,,BCT,MKD,OTH,,,,138,2003-08-27T00:00:00,2023-12-12T15:02:54,0,,active
6190357,29723427,,,Panrock Court,,,,Panrock Court,,North Shore Road,,,,At,,SW,ES003704,Troon,,,TROON,,,,1,,232374,631483,,,BCT,MKD,OTH,,,,138,2003-08-27T00:00:00,2023-12-12T15:02:54,0,,active
6190358,29724728,,,Kilnford Drive,,,,Kilnford Road,,Troon Road,,,,Near,,SW,ES001123,Dundonald,,,DUNDONALD,,,,0,,235922,634980,,,BCT,MKD,OTH,,,,138,2003-08-27T00:00:00,2023-12-12T15:02:54,0,,active
6190359,29723658,,,Industrial Estate,,,,Industrial Estate,,B730,,,,At,,N,N0068076,Drybridge,,,DUNDONALD,,,,0,,236165,635753,,,BCT,MKD,OTH,,,,138,2003-08-27T00:00:00,2023-12-12T15:02:54,0,,active
619036,29724675,,,Ellisland Square,,,,Ellisland Square,,Castlehill Road,,,,Near,,SE,ES000201,Ayr,,,AYR,,,,0,,234525,620490,,,BCT,MKD,OTH,,,,138,2003-08-27T00:00:00,2023-12-12T15:02:54,0,,active
6190360,29724762,,,Auchans Drive,,,,Auchans Drive,,Drybridge Road,,,,At,,SE,ES001123,Dundonald,,,DUNDONALD,,,,0,,236353,634909,,,BCT,MKD,OTH,,,,138,2003-08-27T00:00:00,2023-12-12T15:02:54,0,,active
6190361,29723234,,,Cochrane Drive,,,,Cochrane Drive,,Drybridge Road,,,,Opp,,SE,ES001123,Dundonald,,,DUNDONALD,,,,0,,236359,634887,,,BCT,MKD,OTH,,,,138,2003-08-27T00:00:00,2023-12-12T15:02:54,0,,active
6190362,29724874,,,Kilmarnock Road,,,,Winehouse Yett,,Drybridge Road,,,,opp,,NW,ES001123,Dundonald,,,DUNDONALD,,,,0,,236496,634669,,,BCT,MKD,OTH,,,,138,2003-08-27T00:00:00,2023-12-12T15:02:54,0,,active
6190363,29724323,,,Kilmarnock Road,,,,Kilmarnock Road,,Drybridge Road,,,,before,,SE,ES001123,Dundonald,,,DUNDONALD,,,,1,,236517,634654,,,BCT,MKD,OTH,,,,138,2003-08-27T00:00:00,2023-12-12T15:02:54,0,,active
6190364,29724532,,,Bruce Avenue,,,,Bruce Avenue,,Kilmarnock Road,,,,At,,SW,ES001123,Dundonald,,,DUNDONALD,,,,0,,236706,634678,,,BCT,MKD,OTH,,,,138,2003-08-27T00:00:00,2023-12-12T15:02:54,0,,active
6190365,29723783,,,Earl Drive,,,,Earl drive,,Kilmarnock Road,,,,Opp,,NE,ES001123,Dundonald,,,DUNDONALD,,,,0,,236811,634701,,,BCT,MKD,OTH,,,,138,2003-08-27T00:00:00,2023-12-12T15:02:54,0,,active
6190366,29724356,,,St Quivox,,,,St Quivox,,A77,,,,At,,SW,ES000201,Ayr,,,AYR,,,,0,,237168,624323,,,BCT,MKD,OTH,,,,138,2003-08-27T00:00:00,2023-12-12T15:02:54,0,,inactive
6190367,29724676,,,Ford Lodge Bridge,,,,Ford Lodge Bridge,,A77,,,,At,,SW,N0068158,Minishant,,,AYR,,,,0,,234181,616530,,,BCT,MKD,OTH,,,,138,2003-08-27T00:00:00,2023-12-12T15:02:54,0,,inactive
6190369,29724725,,,Minishant Post Office,,,,Minishant Post Office,,Main Road,,,,Opp,,SW,N0068158,Minishant,,,MINISHANT,,,,0,,232859,614218,,,BCT,MKD,OTH,,,,138,2003-08-27T00:00:00,2023-12-12T15:02:54,0,,active
6190370,29723858,,,Mure Place,,,,Mure Place,,Main Road,,,,At,,N,N0068158,Minishant,,,MINISHANT,,,,1,,232737,614124,,,BCT,MKD,OTH,,,,138,2003-08-27T00:00:00,2023-12-12T15:02:54,0,,active
6190371,29724283,,,McDowall Terrace,,,,MacDowall Terrace,,Cassillis Terrace,,,,Opp,,SW,ES002566,Maybole,,,MAYBOLE,,,,0,,230516,610340,,,BCT,MKD,OTH,,,,138,2003-08-27T00:00:00,2023-12-12T15:02:54,0,,active
6190372,29723578,,,Kirland Street,,,,Kirland Street,,Cassillis Terrace,,,,Opp,,NE,ES002566,Maybole,,,MAYBOLE,,,,0,,230351,610211,,,BCT,MKD,OTH,,,,138,2003-08-27T00:00:00,2023-12-12T15:02:54,0,,active
6190373,29724297,,,Merrick View,,,,Merrick View,,Cassillis Terrace,,,,Opp,,SW,ES002566,Maybole,,,MAYBOLE,,,,0,,230280,610142,,,BCT,MKD,OTH,,,,138,2003-08-27T00:00:00,2023-12-12T15:02:54,0,,active
6190374,29724262,,,St Cuthberts Road,,,,St Cuthberts Road,,High Street,,,,Opp,,NE,ES002566,Maybole,,,MAYBOLE,,,,1,,230161,610032,,,BCT,MKD,OTH,,,,138,2003-08-27T00:00:00,2023-12-12T15:02:54,0,,active
6190375,29724724,,,Kirkwynd,,,,Kirkwynd,,High Street,,,,At,,SW,ES002566,Maybole,,,MAYBOLE,,,,1,,230137,610001,,,BCT,MKD,OTH,,,,138,2003-08-27T00:00:00,2023-12-12T15:02:54,0,,active
6190376,29723465,,,Welltrees Street,,,,Welltrees Street,,Whitehall,,,,Opp,,NE,ES002566,Maybole,,,MAYBOLE,,,,1,,229958,609855,,,BCT,MKD,OTH,,,,138,2003-08-27T00:00:00,2023-12-12T15:02:54,0,,inactive
6190377,29723798,,,Carrick Street,,,,Carrick Street,,Whitehall,,,,Opp,,SW,ES002566,Maybole,,,MAYBOLE,,,,0,,229919,609813,,,BCT,MKD,OTH,,,,138,2003-08-27T00:00:00,2023-12-12T15:02:54,0,,inactive
6190378,29723753,,,Ladyland Road,,,,Ladyland Road,,Whitehall,,,,At,,NE,ES002566,Maybole,,,MAYBOLE,,,,0,,229758,609725,,,BCT,MKD,OTH,,,,138,2003-08-27T00:00:00,2023-12-12T15:02:54,0,,inactive
6190379,29723758,,,Coral Glen,,,,Coral Glen,,Kirkoswald Road,,,,after,,SW,ES002566,Maybole,,,MAYBOLE,,,,0,,229681,609685,,,BCT,MKD,OTH,,,,138,2003-08-27T00:00:00,2023-12-12T15:02:54,0,,inactive
619038,29724364,,,Belmont Road,,,,Castlehill Church,,Castlehill Road,,,,after,,NW,N0068039,Castlehill,Ayr,,AYR,,,,0,,234648,620335,,,BCT,MKD,OTH,,,,138,2003-08-27T00:00:00,2023-12-12T15:02:54,0,,active
6190380,29724872,,,Carrick Academy,,,,Carrick Academy,,Kirkoswald Road,,,,At,,NE,ES002566,Maybole,,,MAYBOLE,,,,0,,229351,609603,,,BCT,CUS,OTH,,,,138,2003-08-27T00:00:00,2023-12-12T15:02:54,0,,active
6190381,29724537,,,Kirkmichael Road,,,,Kirkmichael Road,,Cassillis Terrace,,,,Opp,,NE,ES002566,Maybole,,,MAYBOLE,,,,0,,230564,610386,,,BCT,MKD,OTH,,,,138,2003-08-27T00:00:00,2023-12-12T15:02:54,0,,active
6190382,29724524,,,Glen Cloch,,,,Glen Cloch,,Main Street,,,,Opp,,SW,ES002211,Kirkoswald,,,KIRKOSWALD,,,,1,,224323,607568,,,BCT,MKD,OTH,,,,138,2003-08-27T00:00:00,2023-12-12T15:02:54,0,,active
6190383,29724648,,,Cairnhill Place,,,,Oswald Cottage,,Main Street,,,,Opp,,NE,ES002211,Kirkoswald,,,KIRKOSWALD,,,,1,,224295,607576,,,BCT,MKD,OTH,,,,138,2003-08-27T00:00:00,2023-12-12T15:02:54,0,,active
6190384,29724287,,,Post Office,,,,Cemetery,,Main Street,,,,before,,NE,ES002211,Kirkoswald,,,KIRKOSWALD,,,,1,,223922,607501,,,BCT,MKD,OTH,,,,138,2003-08-27T00:00:00,2023-12-12T15:02:54,0,,active
6190386,29723452,,,Lodge Road,,,,Lodge road,,A719,,,,Opp,,N,N0068234,Turnberry,,,TURNBERRY,,,,0,,220234,605437,,,BCT,MKD,OTH,,,,138,2003-08-27T00:00:00,2023-12-12T15:02:54,0,,active
6190387,29723425,,,Dowhill,,,,Dowhill Bungahow,,A77,,,,At,,S,N0072944,Dipple,,,DIPPLE,,,,1,,220239,603333,,,BCT,MKD,OTH,,,,138,2003-08-27T00:00:00,2023-12-12T15:02:54,0,,active
6190388,29724747,,,Kelco,,,,Kelco,,A77,,,,At,,N,N0072944,Dipple,,,DIPPLE,,,,1,,220157,602720,,,BCT,MKD,OTH,,,,138,2003-08-27T00:00:00,2023-12-12T15:02:54,0,,active
6190389,29724749,,,Kelco,,,,Kelco,,A77,,,,opp,,S,N0072944,Dipple,,,DIPPLE,,,,1,,220168,602588,,,BCT,MKD,OTH,,,,138,2003-08-27T00:00:00,2023-12-12T15:02:54,0,,active
6190390,29723454,,,Montgomerie Street,,,,Montgomerie Street,,Vicarton Street,,,,before,,SW,ES001522,Girvan,,,GIRVAN,,,,0,,218850,598410,,,BCT,MKD,OTH,,,,138,2003-08-27T00:00:00,2023-12-12T15:02:54,0,,active
6190391,29724327,,,Asda,,,,Montgomerie Street,,Vicarton Street,,,,near,,NE,ES001522,Girvan,,,GIRVAN,,,,0,,218865,598430,,,BCT,MKD,OTH,,,,138,2003-08-27T00:00:00,2023-12-12T15:02:54,0,,active
6190392,29723428,,,George street,,,,George Street,,Glendoune Street,,,,At,,N,ES001522,Girvan,,,GIRVAN,,,,0,,218477,597151,,,BCT,MKD,OTH,,,,138,2003-08-27T00:00:00,2023-12-12T15:02:54,0,,active
6190393,29724575,,,Kirkpatrick Street,,,,Kirkpatrick Street,,Glendoune Street,,,,after,,N,ES001522,Girvan,,,GIRVAN,,,,0,,218451,596962,,,BCT,MKD,OTH,,,,138,2003-08-27T00:00:00,2023-12-12T15:02:54,0,,active
6190394,29723847,,,Elder Avenue,,,,Opp 86 Elder Avenue,,Elder Avenue,,,,opp 86,,S,ES001522,Girvan,,,GIRVAN,,,,0,,218618,596868,,,BCT,MKD,OTH,,,,138,2003-08-27T00:00:00,2023-12-12T15:02:54,0,,active
6190395,29723942,,,McMillan Court,,,,McMillan Court,,Montgomerie Street,,,,At,,N,ES001522,Girvan,,,GIRVAN,,,,0,,218742,598166,,,BCT,MKD,OTH,,,,138,2003-08-27T00:00:00,2023-12-12T15:02:54,0,,active
6190396,29724576,,,McConnell Square,,,,MacDowall Terrace,,Montgomerie Street,,,,At,,N,ES001522,Girvan,,,GIRVAN,,,,0,,218761,598287,,,BCT,MKD,OTH,,,,138,2003-08-27T00:00:00,2023-12-12T15:02:54,0,,active
6190397,29723648,,,Henrietta Street,,,,Henrietta Street,,Knockcushon Street,,,,Opp,,E,ES001522,Girvan,,,GIRVAN,,,,0,,218350,598085,,,BCT,MKD,OTH,,,,138,2003-08-27T00:00:00,2023-12-12T15:02:54,0,,active
61904,29723257,,,Murdochs Lone,,,,Alloway Parish Church,,Alloway,,,,opp,,N,ES000073,Alloway,Ayr,,AYR,,,,1,,233220,618064,,,BCT,MKD,OTH,,,,138,2003-08-27T00:00:00,2023-12-12T15:02:54,0,,active
619040,29723689,,,Chapelpark Road,,,,Chapelpark Road,,Monument Road,,,,before,,N,ES000201,Ayr,,,AYR,,,,1,,233785,619884,,,BCT,MKD,OTH,,,,138,2003-08-27T00:00:00,2023-12-12T15:02:54,0,,active
6190402,29723654,,,Piedmont Road,,,,Piedmont Road,,Glendoune Street,,,,before,,S,ES001522,Girvan,,,GIRVAN,,,,1,,218507,597306,,,BCT,MKD,OTH,,,,138,2003-08-27T00:00:00,2023-12-12T15:02:54,0,,active
6190403,29724328,,,Firth Terrace,,,,Firth Terrace,,Glendoune Street,,,,after,,N,ES001522,Girvan,,,GIRVAN,,,,1,,218501,597355,,,BCT,MKD,OTH,,,,138,2003-08-27T00:00:00,2023-12-12T15:02:54,0,,active
6190405,29723973,,,Dalrymple Street,,,,Dalrymple Street,,Wreck Road,,,,after,,E,ES001522,Girvan,,,GIRVAN,,,,0,,218553,597461,,,BCT,MKD,OTH,,,,138,2003-08-27T00:00:00,2023-12-12T15:02:54,0,,active
6190406,29723597,,,Hervey Road,,,,Hervey Road,,Wreck Road,,,,after,,W,ES001522,Girvan,,,GIRVAN,,,,0,,218568,597455,,,BCT,MKD,OTH,,,,138,2003-08-27T00:00:00,2023-12-12T15:02:54,0,,active
6190407,29723486,,,Inglis Way,,,,Inglis Way,,McCulloch Road,,,,Opp,,SW,ES001522,Girvan,,,GIRVAN,,,,0,,219083,597320,,,BCT,MKD,OTH,,,,138,2003-08-27T00:00:00,2023-12-12T15:02:54,0,,active
6190408,29723653,,,Todd Street,,,,Todd Street,,Mote Hill Road,,,,after,,S,ES001522,Girvan,,,GIRVAN,,,,0,,218899,597147,,,BCT,MKD,OTH,,,,138,2003-08-27T00:00:00,2023-12-12T15:02:54,0,,active
6190409,29723984,,,Piedmont Road,,,,Piedmont Road,,Mote Hill Road,,,,before,,S,ES001522,Girvan,,,GIRVAN,,,,0,,218886,597043,,,BCT,MKD,OTH,,,,138,2003-08-27T00:00:00,2023-12-12T15:02:54,0,,active
619041,29724375,,,Chapelpark Road,,,,Chapelpark Road,,Monument Road,,,,opp,,S,ES000201,Ayr,,,AYR,,,,1,,233802,619925,,,BCT,MKD,OTH,,,,138,2003-08-27T00:00:00,2023-12-12T15:02:54,0,,active
6190410,29724682,,,Birch Terrace,,,,Birch Terrace,,Piedmont Road,,,,Opp,,SE,ES001522,Girvan,,,GIRVAN,,,,0,,218769,597076,,,BCT,MKD,OTH,,,,138,2003-08-27T00:00:00,2023-12-12T15:02:54,0,,inactive
6190411,29724569,,,Piedmount Road,,,,Piedmont Road,,Roxburgh Road,,,,before,,S,ES001522,Girvan,,,GIRVAN,,,,0,,218705,597225,,,BCT,MKD,OTH,,,,138,2003-08-27T00:00:00,2023-12-12T15:02:54,0,,inactive
6190412,29724263,,,Fauldribbon Road,,,,Fauldribbon Road,,Roxburgh Road,,,,Opp,,N,ES001522,Girvan,,,GIRVAN,,,,0,,218713,597354,,,BCT,MKD,OTH,,,,138,2003-08-27T00:00:00,2023-12-12T15:02:54,0,,active
6190413,29724753,,,Arrol Avenue,,,,Arrol Avenue,,Main Street,,,,At,,S,N0067996,Ballantrae,,,BALLANTRAE,,,,1,,208412,582516,,,BCT,MKD,OTH,,,,138,2003-08-27T00:00:00,2023-12-12T15:02:54,0,,active
6190415,29724729,,,Old Smyrton,,,,Old Smyrton,,A77,,,,At,,S,N0072976,Smyrton,,,SMYRTON,,,,1,,210086,580268,,,BCT,MKD,OTH,,,,138,2003-08-27T00:00:00,2023-12-12T15:02:54,0,,active
6190416,29723498,,,Smyrton Hill,,,,Smyrton House,,A77,,,,At,,N,N0072976,Smyrton,,,SMYRTON,,,,1,,210047,580404,,,BCT,MKD,OTH,,,,138,2003-08-27T00:00:00,2023-12-12T15:02:54,0,,active
6190417,29723983,,,Haddow Place,,,,Haddow Place,,Main Street,,,,before,,SW,ES000787,Colmonell,,,COLMONELL,,,,1,,214806,585964,,,BCT,MKD,OTH,,,,138,2003-08-27T00:00:00,2023-12-12T15:02:54,0,,active
6190418,29724652,,,Cross Water,,,,Cross Water,,A714,,,,At,,NW,N0068007,Barrhill,,,BARRHILL,,,,1,,223346,582275,,,BCT,MKD,OTH,,,,138,2003-08-27T00:00:00,2023-12-12T15:02:54,0,,active
6190419,29724258,,,Wallace Terrace,,,,Wallace Terrace,,A714,,,,At,,SE,N0068007,Barrhill,,,BARRHILL,,,,1,,223595,582022,,,BCT,MKD,OTH,,,,138,2003-08-27T00:00:00,2023-12-12T15:02:54,0,,active
619042,29724737,,,Bellvale Avenue,,,,Bellvale Avenue,,Monument Road,,,,Opp,,N,ES000201,Ayr,,,AYR,,,,1,,233827,620120,,,BCT,MKD,OTH,,,,138,2003-08-27T00:00:00,2023-12-12T15:02:54,0,,active
6190420,29724797,,,Willodene,,,,Opp Willodene,,Main Street,,,,opp,,NW,N0068186,Pinwherry,,,PINWHERRY,,,,1,,219655,587017,,,BCT,MKD,OTH,,,,138,2003-08-27T00:00:00,2023-12-12T15:02:54,0,,active
6190421,29723952,,,Hallowchapel,,,,B734,,A714,,,,near,,NW,N0068186,Pinwherry,,,PINWHERRY,,,,1,,219436,587313,,,BCT,MKD,OTH,,,,138,2003-08-27T00:00:00,2023-12-12T15:02:54,0,,active
6190422,29724674,,,Road to Tormitchell,,,,Road To Tormitchell,,A714,,,,opp,,N,N0068185,Pinmore,,,PINMORE,,,,1,,220255,591990,,,BCT,MKD,OTH,,,,138,2003-08-27T00:00:00,2023-12-12T15:02:54,0,,active
6190423,29724692,,,Bynehill Cemetery,,,,Bynehill Cemetery,,A714,,,,Near,,SE,ES001522,Girvan,,,GIRVAN,,,,0,,218753,595638,,,BCT,MKD,OTH,,,,138,2003-08-27T00:00:00,2023-12-12T15:02:54,0,,active
6190424,29723639,,,Glebe Road,,,,Glebe Road,,Stinchar Road,,,,Opp,,NE,ES000292,Barr,,,BARR,,,,1,,227471,594041,,,BCT,MKD,OTH,,,,138,2003-08-27T00:00:00,2023-12-12T15:02:54,0,,active
6190425,29724384,,,Old Dailly,,,,Church Hall,,Dailly Road,,,,opp,,W,N0068179,Old Dailly,,,OLD DAILLY,,,,1,,222704,599325,,,BCT,MKD,OTH,,,,138,2003-08-27T00:00:00,2023-12-12T15:02:54,0,,active
6190426,29723943,,,Victoria Crescent,,,,Victoria Crescent,,The Loaning,,,,Near,,SE,ES000953,Dailly,,,DAILLY,,,,0,,227211,601388,,,BCT,MKD,OTH,,,,138,2003-08-27T00:00:00,2023-12-12T15:02:54,0,,active
6190427,29724397,,,Main Street,,,,Main Street,,Greenhead Street,,,,At,,NW,ES000953,Dailly,,,DAILLY,,,,1,,227000,601584,,,BCT,MKD,OTH,,,,138,2003-08-27T00:00:00,2023-12-12T15:02:54,0,,active
6190428,29724246,,,Daily Parish Church,,,,The Loaning,,Main Street,,,,At,,SW,ES000953,Dailly,,,DAILLY,,,,1,,227020,601607,,,BCT,MKD,OTH,,,,138,2003-08-27T00:00:00,2023-12-12T15:02:54,0,,active
6190429,29724827,,,West End,,,,West End,,Bridge Street,,,,Near,,NW,ES000953,Dailly,,,DAILLY,,,,0,,226744,601397,,,BCT,MKD,OTH,,,,138,2003-08-27T00:00:00,2023-12-12T15:02:54,0,,active
619043,29723959,,,Bellvale Quadrant,,,,Bellvale Quadrant,,Monument Road,,,,At,,S,ES000201,Ayr,,,AYR,,,,1,,233841,620191,,,BCT,MKD,OTH,,,,138,2003-08-27T00:00:00,2023-12-12T15:02:54,0,,active
6190430,29723838,,,Hadyard Terrace,,,,Hadyard Terrace,,Woodside,,,,after,,SE,ES000953,Dailly,,,DAILLY,,,,0,,226897,601214,,,BCT,MKD,OTH,,,,138,2003-08-27T00:00:00,2023-12-12T15:02:54,0,,active
6190431,29723878,,,Roan Bridge,,,,Roan Bridge,,Linfern Road,,,,Near,,SE,ES000953,Dailly,,,DAILLY,,,,0,,227315,601630,,,BCT,MKD,OTH,,,,138,2003-08-27T00:00:00,2023-12-12T15:02:54,0,,active
6190432,29724595,,,Newton Street,,,,Newton Street,,King Street,,,,before,,SE,ES000895,Crosshill,,,CROSSHILL,,,,0,,232525,606618,,,BCT,MKD,OTH,,,,138,2003-08-27T00:00:00,2023-12-12T15:02:54,0,,active
6190433,29723938,,,Milton street,,,,Milton street,,King Street,,,,Opp,,NE,ES000895,Crosshill,,,CROSSHILL,,,,1,,232477,606701,,,BCT,MKD,OTH,,,,138,2003-08-27T00:00:00,2023-12-12T15:02:54,0,,active
6190434,29724798,,,Milton Street,,,,Milton Street,,King Street,,,,At,,SE,ES000895,Crosshill,,,CROSSHILL,,,,1,,232470,606732,,,BCT,MKD,OTH,,,,138,2003-08-27T00:00:00,2023-12-12T15:02:54,0,,active
6190435,29723872,,,Drumellan Street,,,,Drumellan Street,,Crosshill Road,,,,before,,NW,ES002566,Maybole,,,MAYBOLE,,,,0,,230325,609834,,,BCT,MKD,OTH,,,,138,2003-08-27T00:00:00,2023-12-12T15:02:54,0,,active
6190437,29723456,,,Kirkmichael playing Fields,,,,Kirkmichael Playing Fields,,Straiton Road,,,,At,,SE,ES002203,Kirkmichael,,,KIRKMICHAEL,,,,0,,234288,608613,,,BCT,MKD,OTH,,,,138,2003-08-27T00:00:00,2023-12-12T15:02:54,0,,active
6190438,29723279,,,Kirkbride Crescent,,,,Kirkbride Crescent,,Kirkmichael Road,,,,At,,NE,ES000895,Crosshill,,,CROSSHILL,,,,0,,232677,606555,,,BCT,MKD,OTH,,,,138,2003-08-27T00:00:00,2023-12-12T15:02:54,0,,active
6190439,29723742,,,Kirkbride Crescent,,,,Kirkbride Crescent,,Kirkmichael Road,,,,Opp,,SW,ES000895,Crosshill,,,CROSSHILL,,,,0,,232790,606579,,,BCT,MKD,OTH,,,,138,2003-08-27T00:00:00,2023-12-12T15:02:54,0,,active
619044,29723642,,,Robsland Avenue,,,,Robsland Avenue,,Monument Road,,,,Near,,S,ES000201,Ayr,,,AYR,,,,1,,233830,620352,,,BCT,MKD,OTH,,,,138,2003-08-27T00:00:00,2023-12-12T15:02:54,0,,active
6190440,29723542,,,Barnes Terrace,,,,Barnes Terrace,,Alloway Road,,,,Opp,,NE,ES002566,Maybole,,,MAYBOLE,,,,0,,230416,610404,,,BCT,MKD,OTH,,,,138,2003-08-27T00:00:00,2023-12-12T15:02:54,0,,inactive
6190441,29724847,,,Barnes Terrace,,,,Barnes Terrace,,Alloway Road,,,,Near,,SW,ES002566,Maybole,,,MAYBOLE,,,,0,,230448,610431,,,BCT,MKD,OTH,,,,138,2003-08-27T00:00:00,2023-12-12T15:02:54,0,,inactive
6190442,29723865,,,Main street,,,,Main Street,,Symington Road,,,,At,,NE,ES003596,Symington,,,SYMINGTON,,,,1,,238478,631286,,,BCT,MKD,OTH,,,,138,2003-08-27T00:00:00,2023-12-12T15:02:54,0,,active
6190443,29723969,,,Main Street,,,,Main Street,,Symington Road,,,,Opp,,SW,ES003596,Symington,,,SYMINGTON,,,,1,,238471,631273,,,BCT,MKD,OTH,,,,138,2003-08-27T00:00:00,2023-12-12T15:02:54,0,,active
6190444,29724685,,,Princess Gate,,,,Carnoustie Walk,,A759,,,,at,,NW,N0068003,Barassie,,,TROON,,,,0,,234256,632591,,,BCT,MKD,OTH,,,,138,2003-08-27T00:00:00,2023-12-12T15:02:54,0,,active
6190445,29724867,,,Wallace Avenue,,,,Barassie Bank Lane,,Johnston Drive,,,,opp,,E,N0068003,Barassie,,,TROON,,,,1,,232647,632697,,,BCT,MKD,OTH,,,,138,2003-08-27T00:00:00,2023-12-12T15:02:54,0,,active
6190446,29723762,,,Greenside,,,,Greenside,,Walker Avenue,,,,At,,S,N0068003,Barassie,,,TROON,,,,0,,232806,632632,,,BCT,MKD,OTH,,,,138,2003-08-27T00:00:00,2023-12-12T15:02:54,0,,active
6190447,29723424,,,Muir Drive,,,,Barassie pr School,,Walker Avenue,,,,after,,S,N0068003,Barassie,,,TROON,,,,0,,232765,632417,,,BCT,MKD,OTH,,,,138,2003-08-27T00:00:00,2023-12-12T15:02:54,0,,active
6190448,29723836,,,Burnfoot Way,,,,Burnfoot Way,,Walker Avenue,,,,At,,NE,N0068003,Barassie,,,TROON,,,,0,,232677,632186,,,BCT,MKD,OTH,,,,138,2003-08-27T00:00:00,2023-12-12T15:02:54,0,,active
6190449,29723256,,,Henderson Road,,,,Henderson Road,,St Meddans Street,,,,Opp,,NE,ES003704,Troon,,,TROON,,,,1,,232472,631016,,,BCT,MKD,OTH,,,,138,2003-08-27T00:00:00,2023-12-12T15:02:54,0,,active
619045,29723545,,,Rosebank Crescent,,,,Rosebank Crescent,,Monument Road,,,,Opp,,S,ES000201,Ayr,,,AYR,,,,1,,233828,620514,,,BCT,MKD,OTH,,,,138,2003-08-27T00:00:00,2023-12-12T15:02:54,0,,active
6190450,29724795,,,Frognal House,,,,Frognal House,,Southwood Road,,,,At,,NE,ES003704,Troon,,,TROON,,,,0,,234513,629107,,,BCT,CUS,OTH,,,,138,2003-08-27T00:00:00,2023-12-12T15:02:54,0,,active
6190451,29723843,,,Ayr Road,,,,No 5,,Ayr Road,,,,opp 5,,SW,N0072948,Fisherton,Dunure,,FISHERTON,,,,1,,226468,616651,,,BCT,MKD,OTH,,,,138,2003-08-27T00:00:00,2023-12-12T15:02:54,0,,active
6190452,29723484,,,Arran View,,,,Opp Arran View,,Kennedy Drive,,,,Opp,,NW,N0068081,Dunure,,,DUNURE,,,,1,,225373,615784,,,BCT,MKD,OTH,,,,138,2003-08-27T00:00:00,2023-12-12T15:02:54,0,,active
6190453,29723489,,,Caravan Park,,,,Caravan Park,,A719,,,,At,,SE,N0072959,Knoweside,,,KNOWESIDE,,,,0,,225621,612729,,,BCT,MKD,OTH,,,,138,2003-08-27T00:00:00,2023-12-12T15:02:54,0,,inactive
6190454,29724639,,,Glenside,,,,Glenside Lodge,,A719,,,,Opp,,SW,N0068067,Culzean,,,CULZEAN,,,,1,,224481,609896,,,BCT,MKD,OTH,,,,138,2003-08-27T00:00:00,2023-12-12T15:02:54,0,,active
6190455,29724696,,,Redgates Caravan park,,,,Redgates Caravan park,,Kirkoswald Road,,,,At,,E,ES002528,Maidens,,,MAIDENS,,,,1,,221740,607852,,,BCT,MKD,OTH,,,,138,2003-08-27T00:00:00,2023-12-12T15:02:54,0,,active
6190456,29724573,,,Harbour Road,,,,Harbour Road,,Turnberry Road,,,,after,,NE,ES002528,Maidens,,,MAIDENS,,,,1,,221243,607920,,,BCT,MKD,OTH,,,,138,2003-08-27T00:00:00,2023-12-12T15:02:54,0,,active
6190457,29724878,,,Turnberry Road,,,,Maidens Pr School,,Turnberry Road,,,,opp 15,,NE,ES002528,Maidens,,,MAIDENS,,,,0,,221136,607819,,,BCT,MKD,OTH,,,,138,2003-08-27T00:00:00,2023-12-12T15:02:54,0,,active
6190458,29723935,,,Baineshill Drive,,,,Baineshill Drive,,Turnberry Road,,,,At,,SW,ES002528,Maidens,,,MAIDENS,,,,1,,221113,607770,,,BCT,MKD,OTH,,,,138,2003-08-27T00:00:00,2023-12-12T15:02:54,0,,active
6190459,29723757,,,Turnberry Airfield,,,,Airfield,,A719,,,,near,,SW,N0068234,Turnberry,,,TURNBERRY,,,,1,,220631,606886,,,BCT,MKD,OTH,,,,138,2003-08-27T00:00:00,2023-12-12T15:02:54,0,,inactive
619046,29724636,,,Carrick Gardens,,,,Carrick Gardens,,Carrick Road,,,,At,,SE,ES000201,Ayr,,,AYR,,,,1,,233806,620616,,,BCT,MKD,OTH,,,,138,2003-08-27T00:00:00,2023-12-12T15:02:54,0,,active
6190460,29723964,,,Turnberry Golf Course,,,,Turnberry Cottages,,A719,,,,At,,N,N0068234,Turnberry,,,TURNBERRY,,,,1,,220435,606170,,,BCT,MKD,OTH,,,,138,2003-08-27T00:00:00,2023-12-12T15:02:54,0,,active
6190461,29724392,,,Queens Terrace,,,,Queens Terrace,,Culzean Road,,,,before,,E,ES002566,Maybole,,,MAYBOLE,,,,0,,229266,610021,,,BCT,MKD,OTH,,,,138,2003-08-27T00:00:00,2023-12-12T15:02:54,0,,active
6190462,29723979,,,McAdam Way,,,,McAdam Way,,Culzean Road,,,,before,,W,ES002566,Maybole,,,MAYBOLE,,,,0,,229437,609977,,,BCT,MKD,OTH,,,,138,2003-08-27T00:00:00,2023-12-12T15:02:54,0,,active
6190463,29723587,,,Whitefaulds Avenue,,,,Whitefaulds Avenue,,Culzean Road,,,,opp,,E,ES002566,Maybole,,,MAYBOLE,,,,0,,229589,609967,,,BCT,MKD,OTH,,,,138,2003-08-27T00:00:00,2023-12-12T15:02:54,0,,active
6190464,29724286,,,Whitefaulds Avenue,,,,Whitefaulds Avenue,,Culzean Road,,,,at,,W,ES002566,Maybole,,,MAYBOLE,,,,0,,229635,609964,,,BCT,MKD,OTH,,,,138,2003-08-27T00:00:00,2023-12-12T15:02:54,0,,active
6190465,29723739,,,Maybole Station,,,,Maybole Station,,Culzean Road,,,,After,,NE,ES002566,Maybole,,,MAYBOLE,,,,1,,229904,610024,,,BCT,MKD,OTH,,,,138,2003-08-27T00:00:00,2023-12-12T15:02:54,0,,active
6190466,29724236,,,Culzean Road,,,,Town Green,,Greenside,,,,after,,SW,ES002566,Maybole,,,MAYBOLE,,,,1,,229852,609983,,,BCT,MKD,OTH,,,,138,2003-08-27T00:00:00,2023-12-12T15:02:54,0,,active
6190467,29723593,,,Barns Road,,,,Barns Road,,Barns Terrace,,,,Opp,,NE,ES002566,Maybole,,,MAYBOLE,,,,0,,230129,610124,,,BCT,MKD,OTH,,,,138,2003-08-27T00:00:00,2023-12-12T15:02:54,0,,inactive
6190468,29724734,,,Kirkland Street,,,,Kirkland Street,,St Cuthberts Road,,,,before,,SE,ES002566,Maybole,,,MAYBOLE,,,,0,,230213,610012,,,BCT,MKD,OTH,,,,138,2003-08-27T00:00:00,2023-12-12T15:02:54,0,,active
6190469,29723297,,,Ailsa Hospital,,,,Ailsa Hospital,,A713,,,,opp,,SE,ES000201,Ayr,,,AYR,,,,1,,236025,618789,,,BCT,MKD,OTH,,,,138,2003-08-27T00:00:00,2023-12-12T15:02:54,0,,active
619047,29723274,,,Carrick Avenue,,,,Carrick Avenue,,Carrick Road,,,,Opp,,SW,ES000201,Ayr,,,AYR,,,,1,,233830,620711,,,BCT,MKD,OTH,,,,138,2003-08-27T00:00:00,2023-12-12T15:02:54,0,,active
6190470,29723546,,,Ailsa Hospital,,,,Ailsa Hospital,,A713,,,,at,,NW,ES000201,Ayr,,,AYR,,,,1,,236054,618773,,,BCT,MKD,OTH,,,,138,2003-08-27T00:00:00,2023-12-12T15:02:54,0,,active
6190471,29724864,,,Mosshill Ind Estate,,,,Mosshill Ind Estate,,A713,,,,at,,SE,ES000201,Ayr,,,AYR,,,,0,,237122,617592,,,BCT,MKD,OTH,,,,138,2003-08-27T00:00:00,2023-12-12T15:02:54,0,,active
6190472,29723575,,,Carbieston Avenue,,,,Carbieston Avenue,,A70,,,,before,,SW,ES000824,Coylton,,,COYLTON,,,,0,,242154,619792,,,BCT,MKD,OTH,,,,138,2003-08-27T00:00:00,2023-12-12T15:02:54,0,,active
6190473,29723293,,,Coylton Parish Church,,,,Coylton Parish Church,,A70,,,,At,,NE,ES000824,Coylton,,,COYLTON,,,,0,,242188,619814,,,BCT,MKD,OTH,,,,138,2003-08-27T00:00:00,2023-12-12T15:02:54,0,,active
6190474,29724739,,,B742,,,,Hillhead,,A70,,,,after,,SW,ES000824,Coylton,,,COYLTON,,,,0,,241781,619668,,,BCT,MKD,OTH,,,,138,2003-08-27T00:00:00,2023-12-12T15:02:54,0,,active
6190475,29723829,,,Coylton Primary School,,,,Coylton Primary School,,A70,,,,opp,,NE,ES000824,Coylton,,,COYLTON,,,,1,,241417,619560,,,BCT,MKD,OTH,,,,138,2003-08-27T00:00:00,2023-12-12T15:02:54,0,,active
6190476,29723929,,,The Orchard,,,,The Orchard,,A70,,,,At,,W,ES000824,Coylton,,,COYLTON,,,,1,,241327,619529,,,BCT,MKD,OTH,,,,138,2003-08-27T00:00:00,2023-12-12T15:02:54,0,,active
6190477,29724295,,,Hole Road,,,,Hole Road,,A70,,,,before,,NW,ES000824,Coylton,,,COYLTON,,,,0,,241099,619535,,,BCT,MKD,OTH,,,,138,2003-08-27T00:00:00,2023-12-12T15:02:54,0,,active
6190478,29724387,,,Hole Road,,,,Hole Road,,A70,,,,after,,E,ES000824,Coylton,,,COYLTON,,,,0,,241137,619546,,,BCT,MKD,OTH,,,,138,2003-08-27T00:00:00,2023-12-12T15:02:54,0,,active
6190479,29724348,,,The Beeches,,,,The Beeches,,A70,,,,before,,SE,ES000824,Coylton,,,COYLTON,,,,0,,240715,619790,,,BCT,MKD,OTH,,,,138,2003-08-27T00:00:00,2023-12-12T15:02:54,0,,active
619048,29724542,,,Carrick Avenue,,,,Carrick Avenue,,Carrick Road,,,,At,,N,ES000201,Ayr,,,AYR,,,,1,,233826,620754,,,BCT,MKD,OTH,,,,138,2003-08-27T00:00:00,2023-12-12T15:02:54,0,,inactive
6190480,29723645,,,Laighpark Road,,,,Laighpark Road,,A70,,,,before,,NW,ES000824,Coylton,,,COYLTON,,,,0,,240657,619811,,,BCT,MKD,OTH,,,,138,2003-08-27T00:00:00,2023-12-12T15:02:54,0,,active
6190481,29723767,,,Arthurston Terrace,,,,Arthurston Terrace,,A70,,,,after,,SE,ES000824,Coylton,,,COYLTON,,,,0,,240518,619894,,,BCT,MKD,OTH,,,,138,2003-08-27T00:00:00,2023-12-12T15:02:54,0,,active
6190482,29724873,,,Arthurston Terrace,,,,Arthurston Terrace,,A70,,,,Opp,,NW,ES000824,Coylton,,,COYLTON,,,,0,,240487,619899,,,BCT,MKD,OTH,,,,138,2003-08-27T00:00:00,2023-12-12T15:02:54,0,,active
6190483,29723676,,,Sandyhill Road,,,,Sandyhill Road,,A70,,,,At,,SW,ES000201,Ayr,,,AYR,,,,0,,236604,620791,,,BCT,MKD,OTH,,,,138,2003-08-27T00:00:00,2023-12-12T15:02:54,0,,active
6190484,29723867,,,Holmston Roundabout,,,,Garden Centre,,A70,,,,after,,SE,ES000201,Ayr,,,AYR,,,,0,,236235,620972,,,BCT,MKD,OTH,,,,138,2003-08-27T00:00:00,2023-12-12T15:02:54,0,,active
6190485,29723826,,,Holmston Roundabout,,,,Garden Centre,,A70,,,,before,,NW,ES000201,Ayr,,,AYR,,,,0,,236211,620963,,,BCT,MKD,OTH,,,,138,2003-08-27T00:00:00,2023-12-12T15:02:54,0,,active
6190486,29724794,,,Hannah Research Park,,,,Hannah Research Park,,B743,,,,Opp,,SW,ES000201,Ayr,,,AYR,,,,0,,237427,623578,,,BCT,MKD,OTH,,,,138,2003-08-27T00:00:00,2023-12-12T15:02:54,0,,active
6190487,29724578,,,College,,,,Auchincruive College,,B743,,,,At,,SW,N0076080,Achencruive,Ayr,,AUCHINCRUIVE,,,,0,,237902,623705,,,BCT,MKD,OTH,,,,138,2003-08-27T00:00:00,2023-12-12T15:02:54,0,,active
6190488,29723727,,,College,,,,Auchincruive College,,B743,,,,Opp,,NE,N0076080,Achencruive,Ayr,,AUCHINCRUIVE,,,,0,,237940,623734,,,BCT,MKD,OTH,,,,138,2003-08-27T00:00:00,2023-12-12T15:02:54,0,,active
6190489,29723768,,,East Lodge,,,,East Lodge,,B743,,,,At,,SW,N0076080,Achencruive,Ayr,,AUCHINCRUIVE,,,,0,,239050,623911,,,BCT,MKD,OTH,,,,138,2003-08-27T00:00:00,2023-12-12T15:02:54,0,,active
619049,29723573,,,Carrick House Nursing Home,,,,Bowman Road,,Carrick Road,,,,At,,SW,ES000201,Ayr,,,AYR,,,,1,,233848,620846,,,BCT,MKD,OTH,,,,138,2003-08-27T00:00:00,2023-12-12T15:02:54,0,,active
6190490,29724656,,,Gatehouse Wood,,,,Gatehouse Wood,,B743,,,,At,,NE,N0076080,Achencruive,Ayr,,AUCHINCRUIVE,,,,0,,239074,623930,,,BCT,MKD,OTH,,,,138,2003-08-27T00:00:00,2023-12-12T15:02:54,0,,inactive
6190491,29723965,,,Sandyford Road,,,,Sandyford Road,,B743,,,,Opp,,SW,ES002688,Mossblown,,,MOSSBLOWN,,,,0,,240051,624618,,,BCT,MKD,OTH,,,,138,2003-08-27T00:00:00,2023-12-12T15:02:54,0,,active
6190492,29724697,,,Annbank Road,,,,Annbank Road,,Mauchline Road,,,,Opp,,NE,ES002688,Mossblown,,,MOSSBLOWN,,,,0,,240145,624732,,,BCT,MKD,OTH,,,,138,2003-08-27T00:00:00,2023-12-12T15:02:54,0,,active
6190493,29723982,,,Mauchline Road,,,,Station Road,,Mauchline Road,,,,at 27,,SW,ES002688,Mossblown,,,MOSSBLOWN,,,,1,,240265,624808,,,BCT,MKD,OTH,,,,138,2003-08-27T00:00:00,2023-12-12T15:02:54,0,,active
6190494,29724649,,,Drumley Drive,,,,Drumley Drive,,Mauchline Road,,,,At,,NE,ES002688,Mossblown,,,MOSSBLOWN,,,,0,,240347,624895,,,BCT,MKD,OTH,,,,138,2003-08-27T00:00:00,2023-12-12T15:02:54,0,,active
6190495,29724853,,,Whiskeyhall,,,,Whiskeyhall,,Mauchline Road,,,,At,,SW,ES002688,Mossblown,,,MOSSBLOWN,,,,0,,240512,624992,,,BCT,MKD,OTH,,,,138,2003-08-27T00:00:00,2023-12-12T15:02:54,0,,active
6190496,29723579,,,Sloan Avenue,,,,Sloan Avenue,,Mauchline Road,,,,Opp,,NE,ES002688,Mossblown,,,MOSSBLOWN,,,,0,,240736,625076,,,BCT,MKD,OTH,,,,138,2003-08-27T00:00:00,2023-12-12T15:02:54,0,,active
6190497,29724824,,,Inn,,,,Failford Inn,,B743,,,,opp,,NE,N0076081,Failford,,,FAILFORD,,,,0,,245953,626136,,,BCT,MKD,OTH,,,,138,2003-08-27T00:00:00,2023-12-12T15:02:54,0,,active
6190498,29724394,,,Inn,,,,Failford Inn,,B743,,,,before,,SW,N0076081,Failford,,,FAILFORD,,,,0,,246000,626155,,,BCT,MKD,OTH,,,,138,2003-08-27T00:00:00,2023-12-12T15:02:54,0,,active
6190499,29724646,,,Browns Crescent,,,,Browns Crescent,,Weston Avenue,,,,At,,SW,ES000101,Annbank,,,ANNBANK,,,,0,,240869,623420,,,BCT,MKD,OTH,,,,138,2003-08-27T00:00:00,2023-12-12T15:02:54,0,,active
61905,29723945,,,Abbots Way,,,,Dunure Road,,Earls Way,,,,after,,S,N0072945,Doonfoot,Ayr,,AYR,,,,1,,232109,618869,,,BCT,MKD,OTH,,,,138,2003-08-27T00:00:00,2023-12-12T15:02:54,0,,active
619050,29723856,,,Ballantine Drive,,,,Ballantine Drive,,Carrick Road,,,,opp,,N,ES000201,Ayr,,,AYR,,,,1,,233839,620957,,,BCT,MKD,OTH,,,,138,2003-08-27T00:00:00,2023-12-12T15:02:54,0,,active
6190500,29724785,,,Browns Crescent,,,,Browns Crescent,,Weston Avenue,,,,Opp,,NE,ES000101,Annbank,,,ANNBANK,,,,0,,240849,623392,,,BCT,MKD,OTH,,,,138,2003-08-27T00:00:00,2023-12-12T15:02:54,0,,active
6190501,29724694,,,Brocklehill Avenue,,,,Brocklehill Avenue,,Weston Avenue,,,,Opp,,SW,ES000101,Annbank,,,ANNBANK,,,,1,,240812,623274,,,BCT,MKD,OTH,,,,138,2003-08-27T00:00:00,2023-12-12T15:02:54,0,,active
6190502,29724759,,,Goodwin Drive,,,,Goodwin Drive,,Weston Avenue,,,,Opp,,NE,ES000101,Annbank,,,ANNBANK,,,,0,,240798,623261,,,BCT,MKD,OTH,,,,138,2003-08-27T00:00:00,2023-12-12T15:02:54,0,,active
6190503,29724567,,,Mining Memorial,,,,Mining Memorial,,Weston Avenue,,,,opp,,SW,ES000101,Annbank,,,ANNBANK,,,,0,,240691,623093,,,BCT,MKD,OTH,,,,138,2003-08-27T00:00:00,2023-12-12T15:02:54,0,,active
6190504,29723825,,,Mining Memorial,,,,Mining Memorial,,Weston Avenue,,,,at,,NE,ES000101,Annbank,,,ANNBANK,,,,0,,240678,623086,,,BCT,MKD,OTH,,,,138,2003-08-27T00:00:00,2023-12-12T15:02:54,0,,active
6190505,29723659,,,Goodwin Drive,,,,Mining Memorial,,Weston Avenue,,,,At,,SW,ES000101,Annbank,,,ANNBANK,,,,0,,240581,622937,,,BCT,MKD,OTH,,,,138,2003-08-27T00:00:00,2023-12-12T15:02:54,0,,active
6190506,29724593,,,Braefoot,,,,Braefoot,,Weston Avenue,,,,At,,NE,ES000101,Annbank,,,ANNBANK,,,,0,,240541,622889,,,BCT,MKD,OTH,,,,138,2003-08-27T00:00:00,2023-12-12T15:02:54,0,,active
6190507,29723875,,,Whitehill Crescent,,,,Whitehill Crescent,,Braeside,,,,At,,NE,ES000101,Annbank,,,ANNBANK,,,,0,,240379,622675,,,BCT,MKD,OTH,,,,138,2003-08-27T00:00:00,2023-12-12T15:02:54,0,,active
6190508,29723264,,,Weston Brae,,,,Weston Brae,,B742,,,,At,,W,ES000101,Annbank,,,ANNBANK,,,,0,,240972,623656,,,BCT,MKD,OTH,,,,138,2003-08-27T00:00:00,2023-12-12T15:02:54,0,,active
6190509,29723282,,,Annbank Old Church,,,,Annbank Old Church,,Annbank Road,,,,at,,SE,ES002688,Mossblown,,,MOSSBLOWN,,,,0,,240691,624273,,,BCT,MKD,OTH,,,,138,2003-08-27T00:00:00,2023-12-12T15:02:54,0,,active
619051,29724548,,,Ballantine Drive,,,,Ballantine Drive,,Carrick Road,,,,before,,S,ES000201,Ayr,,,AYR,,,,1,,233851,620978,,,BCT,MKD,OTH,,,,138,2003-08-27T00:00:00,2023-12-12T15:02:54,0,,active
6190510,29723734,,,Primary school,,,,Community Centre,,Annbank Road,,,,opp,,NW,ES002688,Mossblown,,,MOSSBLOWN,,,,0,,240514,624415,,,BCT,MKD,OTH,,,,138,2003-08-27T00:00:00,2023-12-12T15:02:54,0,,active
6190511,29724657,,,Primary school,,,,Community Centre,,Annbank Road,,,,at,,SE,ES002688,Mossblown,,,MOSSBLOWN,,,,0,,240504,624434,,,BCT,MKD,OTH,,,,138,2003-08-27T00:00:00,2023-12-12T15:02:54,0,,active
6190512,29724528,,,Station Road,,,,Station Road,,Annbank Road,,,,after,,SE,ES002688,Mossblown,,,MOSSBLOWN,,,,0,,240292,624629,,,BCT,MKD,OTH,,,,138,2003-08-27T00:00:00,2023-12-12T15:02:54,0,,active
6190513,29724684,,,Station Road,,,,Station Road,,Annbank Road,,,,Opp,,NW,ES002688,Mossblown,,,MOSSBLOWN,,,,0,,240307,624608,,,BCT,MKD,OTH,,,,138,2003-08-27T00:00:00,2023-12-12T15:02:54,0,,active
6190514,29723476,,,Mauchline Road,,,,Mauchline Road,,Station Road,,,,Near,,W,ES002688,Mossblown,,,MOSSBLOWN,,,,1,,240318,624803,,,BCT,MKD,OTH,,,,138,2003-08-27T00:00:00,2023-12-12T15:02:54,0,,active
6190515,29723268,,,Annbank Road,,,,Annbank Road,,Station Road,,,,Near,,SW,ES002688,Mossblown,,,MOSSBLOWN,,,,0,,240348,624718,,,BCT,MKD,OTH,,,,138,2003-08-27T00:00:00,2023-12-12T15:02:54,0,,inactive
6190516,29723736,,,James Street,,,,James Street,,Montgomerie Street,,,,At,,SE,N0068227,Tarbolton,,,TARBOLTON,,,,0,,243240,626873,,,BCT,MKD,OTH,,,,138,2003-08-27T00:00:00,2023-12-12T15:02:54,0,,active
6190517,29724698,,,James Street,,,,James Street,,Montgomerie Street,,,,Opp,,N,N0068227,Tarbolton,,,TARBOLTON,,,,0,,243204,626903,,,BCT,MKD,OTH,,,,138,2003-08-27T00:00:00,2023-12-12T15:02:54,0,,active
6190518,29723784,,,Princes Street,,,,Princes Street,,Montgomerie Street,,,,At,,S,N0068227,Tarbolton,,,TARBOLTON,,,,0,,243149,627063,,,BCT,MKD,OTH,,,,138,2003-08-27T00:00:00,2023-12-12T15:02:54,0,,active
6190519,29724253,,,Cunningham Street,,,,Cunningham Street,,Montgomerie Street,,,,Near,,NW,N0068227,Tarbolton,,,TARBOLTON,,,,0,,243101,627154,,,BCT,MKD,OTH,,,,138,2003-08-27T00:00:00,2023-12-12T15:02:54,0,,active
619052,29724752,,,Road Lane,,,,Road Lane,,Carrick Road,,,,At,,N,ES000201,Ayr,,,AYR,,,,1,,233841,620999,,,BCT,MKD,OTH,,,,138,2003-08-27T00:00:00,2023-12-12T15:02:54,0,,inactive
6190520,29723494,,,Cunningham Street,,,,Cunningham Street,,Garden Street,,,,At,,SW,N0068227,Tarbolton,,,TARBOLTON,,,,0,,242962,627260,,,BCT,MKD,OTH,,,,138,2003-08-27T00:00:00,2023-12-12T15:02:54,0,,active
6190522,29723794,,,Symington Road North,,,,Symington Road North,,Kilmarnock Road,,,,Near,,NE,ES003596,Symington,,,SYMINGTON,,,,0,,238847,631269,,,BCT,MKD,OTH,,,,138,2003-08-27T00:00:00,2023-12-12T15:02:54,0,,inactive
6190525,29724892,,,Weston Brae,,,,Weston Brae,,B742,,,,Opp,,W,ES000101,Annbank,,,ANNBANK,,,,0,,240993,623659,,,BCT,MKD,OTH,,,,138,2003-08-27T00:00:00,2023-12-12T15:02:54,0,,active
6190527,29724298,,,Dalmellington Road,,,,Outside 144 Burnbank Road,,Burnbank Road,,,,after,,SW,ES000201,Ayr,,,AYR,,,,0,,235094,619665,,,BCT,MKD,OTH,,,,138,2003-08-27T00:00:00,2023-12-12T15:02:54,0,,active
6190528,29724363,,,Burnbank Place,,,,Burnbank Place,,Burnbank Road,,,,Opp,,W,ES000201,Ayr,,,AYR,,,,0,,234922,619645,,,BCT,MKD,OTH,,,,138,2003-08-27T00:00:00,2023-12-12T15:02:54,0,,active
6190529,29724565,,,Arran Court,,,,Arran Court,,McCulloch Road,,,,Opp,,SW,ES001522,Girvan,,,GIRVAN,,,,0,,219012,597206,,,BCT,MKD,OTH,,,,138,2003-08-27T00:00:00,2023-12-12T15:02:54,0,,active
619053,29723924,,,Bellevue Road,,,,Bellevue Road,,Midton Road,,,,before,,N,ES000201,Ayr,,,AYR,,,,0,,233749,620956,,,BCT,MKD,OTH,,,,138,2003-08-27T00:00:00,2023-12-12T15:02:54,0,,inactive
6190530,29723683,,,Gregg Place,,,,Gregg Place,,Coalpots Road,,,,Opp,,NE,ES001522,Girvan,,,GIRVAN,,,,0,,219173,597315,,,BCT,MKD,OTH,,,,138,2003-08-27T00:00:00,2023-12-12T15:02:54,0,,active
6190531,29723598,,,Urnfield,,,,Urnfield,,Coalpots Road,,,,before,,NE,ES001522,Girvan,,,GIRVAN,,,,0,,219117,597203,,,BCT,MKD,OTH,,,,138,2003-08-27T00:00:00,2023-12-12T15:02:54,0,,active
6190532,29723482,,,Chalmers Avenue,,,,Chalmers Avenue,,Belmont Avenue,,,,Opp,,NE,ES000201,Ayr,,,AYR,,,,0,,234174,620483,,,BCT,MKD,OTH,,,,138,2003-08-27T00:00:00,2023-12-12T15:02:54,0,,active
6190533,29723656,,,Morton Road,,,,Morton Road,,Belmont Avenue,,,,after,,SE,ES000201,Ayr,,,AYR,,,,0,,234213,620272,,,BCT,MKD,OTH,,,,138,2003-08-27T00:00:00,2023-12-12T15:02:54,0,,active
6190534,29724736,,,Belmont Drive,,,,Belmont Drive,,Belmont Avenue,,,,opp & after,,NW,ES000201,Ayr,,,AYR,,,,0,,234239,620184,,,BCT,MKD,OTH,,,,138,2003-08-27T00:00:00,2023-12-12T15:02:54,0,,active
6190535,29723435,,,Belmont Road,,,,Belmont Road,,Belmont Avenue,,,,Near,,SE,ES000201,Ayr,,,AYR,,,,0,,234315,620055,,,BCT,MKD,OTH,,,,138,2003-08-27T00:00:00,2023-12-12T15:02:54,0,,active
6190536,29723928,,,Campbell Court,,,,Campbell Court,,James Campbell Road,,,,Opp,,W,ES000201,Ayr,,,AYR,,,,0,,235326,621750,,,BCT,MKD,OTH,,,,138,2003-08-27T00:00:00,2023-12-12T15:02:54,0,,active
6190537,29723283,,,Donald Crescent,,,,Donald Crescent,,Dundonald Road,,,,near,,SE,ES003704,Troon,,,TROON,,,,1,,232930,631195,,,BCT,MKD,OTH,,,,138,2003-08-27T00:00:00,2023-12-12T15:02:54,0,,active
6190539,29723848,,,Kings Arms Hotel,,,,Kings Arms Hotel,,Main Street,,,,At,,N,N0067996,Ballantrae,,,BALLANTRAE,,,,1,,208398,582604,,,BCT,MKD,OTH,,,,138,2003-08-27T00:00:00,2023-12-12T15:02:54,0,,active
619054,29724764,,,Springvale Road,,,,Springvale Road,,Midton Road,,,,At,,NE,ES000201,Ayr,,,AYR,,,,0,,233689,620866,,,BCT,MKD,OTH,,,,138,2003-08-27T00:00:00,2023-12-12T15:02:54,0,,inactive
6190540,29723547,,,Harthall,,,,Harthall,,Westwood Avenue,,,,Opp,,SW,N0079269,Dalmilling,Ayr,,AYR,,,,0,,236203,622543,,,BCT,MKD,OTH,,,,138,2003-08-27T00:00:00,2023-12-12T15:02:54,0,,active
6190541,29724362,,,Dornoch Park,,,,Dornoch Park,,Racecourse Road,,,,At,,S,ES000201,Ayr,,,AYR,,,,1,,233337,620980,,,BCT,MKD,OTH,,,,138,2003-08-27T00:00:00,2023-12-12T15:02:54,0,,active
6190542,29724547,,,Sloan Avenue,,,,Drumley Inn,,Mauchline Road,,,,after,,SW,ES002688,Mossblown,,,MOSSBLOWN,,,,0,,240684,625051,,,BCT,MKD,OTH,,,,138,2003-08-27T00:00:00,2023-12-12T15:02:54,0,,active
6190543,29724386,,,Ailsa Street East,,,,Ailsa Street East,,Dalrymple Street,,,,near,,S,ES001522,Girvan,,,GIRVAN,,,,0,,218570,597970,,,BCT,MKD,OTH,,,,138,2003-08-27T00:00:00,2023-12-12T15:02:54,0,,active
6190545,29723453,,,Wesley Road,,,,Wesley Road,,Dalrymple Street,,,,after,,S,ES001522,Girvan,,,GIRVAN,,,,1,,218556,597680,,,BCT,MKD,OTH,,,,138,2003-08-27T00:00:00,2023-12-12T15:02:54,0,,active
6190546,29723272,,,Citadel Place,,,,Citadel Place,,Fort Street,,,,after,,NE,ES000201,Ayr,,,AYR,,,,0,,233540,622078,,,BCT,MKD,OTH,,,,138,2003-08-27T00:00:00,2023-12-12T15:02:54,0,,active
6190547,29723592,,,Birch Road,,,,Birch Road,,Dalmellington Road,,,,Opp,,NW,ES000201,Ayr,,,AYR,,,,0,,235235,619671,,,BCT,MKD,OTH,,,,138,2003-08-27T00:00:00,2023-12-12T15:02:54,0,,active
6190548,29723978,,,Dalmilling Crescent,,,,Dalmilling Crescent,,Dalmilling Road,,,,Opp,,NE,N0079269,Dalmilling,Ayr,,AYR,,,,0,,235806,622665,,,BCT,MKD,OTH,,,,138,2003-08-27T00:00:00,2023-12-12T15:02:54,0,,inactive
6190549,29723897,,,Post Office,,,,Kirkton Arms Hotel,,Main Street,,,,opp,,SW,ES002211,Kirkoswald,,,KIRKOSWALD,,,,1,,223964,607520,,,BCT,MKD,OTH,,,,138,2003-08-27T00:00:00,2023-12-12T15:02:54,0,,active
619055,29723254,,,Midton Road,,,,Midton Road,,Ronaldshaw Park,,,,Near,,NW,ES000201,Ayr,,,AYR,,,,0,,233509,620834,,,BCT,MKD,OTH,,,,138,2003-08-27T00:00:00,2023-12-12T15:02:54,0,,inactive
6190550,29723869,,,Glenside Farm,,,,Glenside Farm,,A719,,,,Opp,,NE,N0068067,Culzean,,,CULZEAN,,,,1,,224479,609918,,,BCT,MKD,OTH,,,,138,2003-08-27T00:00:00,2023-12-12T15:02:54,0,,active
6190552,29723923,,,Carrick Street,,,,Gaitey Theatre,,Boswell Park,,,,At,,SE,ES000201,Ayr,,,AYR,,,,0,,233709,621807,,,BCT,MKD,OTH,,,,138,2003-08-27T00:00:00,2023-12-12T15:02:54,0,,active
6190553,29724256,,,Heathfield Road,,,,Heathfield Road,,Hunters Avenue,,,,before,,NE,ES001742,Heathfield,Ayr,,AYR,,,,0,,234943,623928,,,BCT,MKD,OTH,,,,138,2003-08-27T00:00:00,2023-12-12T15:02:54,0,,active
6190554,29723539,,,Prestwick Holiday Park,,,,Caravan Park,,A79,,,,Opp,,S,ES003088,Prestwick,,,PRESTWICK,,,,1,,234990,627507,,,BCT,MKD,OTH,,,,138,2003-08-27T00:00:00,2023-12-12T15:02:54,0,,active
6190555,29723523,,,Burns Birthplace Museum,,,,Burns Birthplace Museum,,Murdochs Loan,,,,At,,NE,ES000073,Alloway,Ayr,,AYR,,,,1,,233450,618031,,,BCT,MKD,OTH,,,,138,2003-08-27T00:00:00,2023-12-12T15:02:54,0,,active
6190556,29724862,,,Elder Avenue,,,,Elder Avenue,,Bennane Road,,,,Opp,,N,ES001522,Girvan,,,GIRVAN,,,,0,,218433,596772,,,BCT,MKD,OTH,,,,138,2003-08-27T00:00:00,2023-12-12T15:02:54,0,,active
6190557,29723574,,,Duncan Street,,,,Duncan Street,,Dalrymple Street,,,,before,,N,ES001522,Girvan,,,GIRVAN,,,,0,,218547,597668,,,BCT,MKD,OTH,,,,138,2003-08-27T00:00:00,2023-12-12T15:02:54,0,,active
6190558,29724373,,,Sacred Heart Primary,,,,Sacred Heart Primary,,Henrietta Street,,,,Opp,,N,ES001522,Girvan,,,GIRVAN,,,,0,,218357,597871,,,BCT,MKD,OTH,,,,138,2003-08-27T00:00:00,2023-12-12T15:02:54,0,,active
6190559,29724868,,,High Street,,,,High Street,,Hamilton Street,,,,Near,,E,ES001522,Girvan,,,GIRVAN,,,,0,,218602,598081,,,BCT,MKD,OTH,,,,138,2003-08-27T00:00:00,2023-12-12T15:02:54,0,,active
619056,29724379,,,Racecourse Road,,,,Racecourse Road,,Ronaldshaw Park,,,,after,,W,ES000201,Ayr,,,AYR,,,,0,,233345,620887,,,BCT,MKD,OTH,,,,138,2003-08-27T00:00:00,2023-12-12T15:02:54,0,,inactive
6190560,29724635,,,Edlinton Terrace,,,,Edlinton Terrace,,Old Dailly Road,,,,At,,NE,ES000953,Dailly,,,DAILLY,,,,0,,227039,601198,,,BCT,MKD,OTH,,,,138,2003-08-27T00:00:00,2023-12-12T15:02:54,0,,active
6190561,29724529,,,Calder Avenue,,,,Calder Avenue,,Deveron Road,,,,before,,SE,N0068003,Barassie,,,TROON,,,,0,,233303,632813,,,BCT,MKD,OTH,,,,138,2003-08-27T00:00:00,2023-12-12T15:02:54,0,,active
6190562,29723694,,,Dornal Drive,,,,Dornal Drive,,Deveron Road,,,,Opp,,NW,N0068003,Barassie,,,TROON,,,,0,,233478,632655,,,BCT,MKD,OTH,,,,138,2003-08-27T00:00:00,2023-12-12T15:02:54,0,,active
6190563,29723524,,,Spallander Road,,,,Spallander Road,,Deveron Road,,,,At,,SE,N0068003,Barassie,,,TROON,,,,0,,233516,632633,,,BCT,MKD,OTH,,,,138,2003-08-27T00:00:00,2023-12-12T15:02:54,0,,active
6190564,29723628,,,Findhorn Place,,,,Findhorn Place,,Deveron Road,,,,Opp,,SW,ES003704,Troon,,,TROON,,,,0,,233607,632289,,,BCT,MKD,OTH,,,,138,2003-08-27T00:00:00,2023-12-12T15:02:54,0,,active
6190565,29724654,,,Bank Street,,,,Bank Street,,Wellbeck Crescent,,,,At,,W,ES003704,Troon,,,TROON,,,,0,,231709,630961,,,BCT,MKD,OTH,,,,138,2003-08-27T00:00:00,2023-12-12T15:02:54,0,,inactive
6190566,29723497,,,Bank Street,,,,Bank Street,,Wellbeck Crescent,,,,Past,,SW,ES003704,Troon,,,TROON,,,,0,,231531,630883,,,BCT,MKD,OTH,,,,138,2003-08-27T00:00:00,2023-12-12T15:02:54,0,,inactive
6190567,29723747,,,Titchfield Road,,,,Titchfield Road,,Wellbeck Crescent,,,,Near,,SW,ES003704,Troon,,,TROON,,,,0,,231433,630780,,,BCT,MKD,OTH,,,,138,2003-08-27T00:00:00,2023-12-12T15:02:54,0,,inactive
6190568,29723972,,,Craig Road,,,,Craig Road,,Titchfield Road,,,,Near,,NW,ES003704,Troon,,,TROON,,,,0,,231124,630996,,,BCT,MKD,OTH,,,,138,2003-08-27T00:00:00,2023-12-12T15:02:54,0,,active
619057,29723782,,,Racecourse Road,,,,Racecourse Road,,Miller Road,,,,Near,,W,ES000201,Ayr,,,AYR,,,,1,,233513,621420,,,BCT,MKD,OTH,,,,138,2003-08-27T00:00:00,2023-12-12T15:02:54,0,,active
6190570,29724273,,,Whiteside Drive,,,,Whiteside Drive,,Kilmarnock Road,,,,before,,SW,N0068161,Monkton,,,MONKTON,,,,0,,236000,628037,,,BCT,MKD,OTH,,,,138,2003-08-27T00:00:00,2023-12-12T15:02:54,0,,active
6190571,29723436,,,Low Road,,,,Low Road,,James Brown Avenue,,,,At,,SE,ES003863,Whitletts,Ayr,,AYR,,,,0,,236280,623163,,,BCT,MKD,OTH,,,,138,2003-08-27T00:00:00,2023-12-12T15:02:54,0,,active
6190572,29723749,,,Gailes Burn,,,,Gailes Burn,,A759,,,,at,,SW,N0068003,Barassie,,,TROON,,,,0,,233837,633783,,,BCT,MKD,OTH,,,,138,2003-08-27T00:00:00,2023-12-12T15:02:54,0,,active
6190573,29723537,,,Gailes Burn,,,,Gailes Burn,,A759,,,,Opp,,NE,N0068003,Barassie,,,TROON,,,,0,,233887,633828,,,BCT,MKD,OTH,,,,138,2003-08-27T00:00:00,2023-12-12T15:02:54,0,,active
6190575,29724372,,,James Brown Avenue,,,,No 43,,James Brown Avenue,,,,at 43,,NE,ES003863,Whitletts,Ayr,,AYR,,,,0,,236021,623052,,,BCT,MKD,OTH,,,,138,2003-08-27T00:00:00,2023-12-12T15:02:54,0,,active
6190576,29724343,,,West Sanquhar Road,,,,West Sanquhar Road,,McCalls Avenue,,,,before,,SE,N0072969,Newton-On-Ayr,Ayr,,AYR,,,,0,,234601,622911,,,BCT,MKD,OTH,,,,138,2003-08-27T00:00:00,2023-12-12T15:02:54,0,,active
6190577,29723286,,,Outdale Avenue,,,,Outdale Avenue,,Sherwood Road,,,,Opp,,SE,ES003088,Prestwick,,,PRESTWICK,,,,0,,236123,625872,,,BCT,MKD,OTH,,,,138,2003-08-27T00:00:00,2023-12-12T15:02:54,0,,inactive
6190578,29723275,,,Marchburn Avenue,,,,St Ninians Pr School,,Outdale Avenue,,,,after,,NE,ES003088,Prestwick,,,PRESTWICK,,,,0,,236081,625711,,,BCT,MKD,OTH,,,,138,2003-08-27T00:00:00,2023-12-12T15:02:54,0,,inactive
6190579,29723626,,,Masonhill Road,,,,Masonhill Road,,Hillfoot Road,,,,Near,,SW,ES000201,Ayr,,,AYR,,,,0,,235395,620566,,,BCT,MKD,OTH,,,,138,2003-08-27T00:00:00,2023-12-12T15:02:54,0,,active
619058,29724264,,,Barnes Crescent,,,,Barnes Crescent,,Miller Road,,,,Opp,,E,ES000201,Ayr,,,AYR,,,,1,,233529,621409,,,BCT,MKD,OTH,,,,138,2003-08-27T00:00:00,2023-12-12T15:02:54,0,,active
6190580,29723298,,,Belmont Academy,,,,Belmont Academy,,Nursery Road,,,,At,,NW,ES000201,Ayr,,,AYR,,,,0,,234656,620060,,,BCT,MKD,OTH,,,,138,2003-08-27T00:00:00,2023-12-12T15:02:54,0,,active
6190581,29723634,,,North Shore Road,,,,No 60,,North Shore Road,,,,at 60,,SW,ES003704,Troon,,,TROON,,,,1,,232507,631740,,,BCT,CUS,OTH,,,,138,2003-08-27T00:00:00,2023-12-12T15:02:54,0,,inactive
6190582,29724765,,,North Shore Road,,,,No 92,,North Shore Road,,,,at 92,,S,ES003704,Troon,,,TROON,,,,1,,232567,631892,,,BCT,MKD,OTH,,,,138,2003-08-27T00:00:00,2023-12-12T15:02:54,0,,inactive
6190583,29724329,,,Edlinton Place,,,,Edlinton Place,,Old Dailly Road,,,,Opp,,SW,ES000953,Dailly,,,DAILLY,,,,0,,227057,601194,,,BCT,MKD,OTH,,,,138,2003-08-27T00:00:00,2023-12-12T15:02:54,0,,active
6190584,29723245,,,North Shore Road,,,,North Shore Road,,Walker Avenue,,,,Near,,NE,N0068003,Barassie,,,TROON,,,,1,,232593,632076,,,BCT,MKD,OTH,,,,138,2003-08-27T00:00:00,2023-12-12T15:02:54,0,,active
6190585,29724854,,,Carrick Street,,,,Carrick Street,,Penkill Road,,,,Opp,,SE,ES001522,Girvan,,,GIRVAN,,,,0,,219093,598237,,,BCT,MKD,OTH,,,,138,2003-08-27T00:00:00,2023-12-12T15:02:54,0,,inactive
6190586,29724723,,,Troweir Road,,,,Ardmillan Road,,Penkill Road,,,,after,,N,ES001522,Girvan,,,GIRVAN,,,,0,,219100,598084,,,BCT,MKD,OTH,,,,138,2003-08-27T00:00:00,2023-12-12T15:02:54,0,,inactive
6190587,29723863,,,Belmont Road,,,,Belmont Road,,Belmont Avenue,,,,Opp,,NW,ES000201,Ayr,,,AYR,,,,0,,234325,620033,,,BCT,MKD,OTH,,,,138,2003-08-27T00:00:00,2023-12-12T15:02:54,0,,active
6190588,29723638,,,Lang Road,,,,Lang Road,,Kilmarnock Road,,,,At,,NE,N0068003,Barassie,,,TROON,,,,0,,233456,633104,,,BCT,MKD,OTH,,,,138,2003-08-27T00:00:00,2023-12-12T15:02:54,0,,active
6190589,29724358,,,Kildonan Bridge,,,,Kildonan Lodge,,A714,,,,Opp,,NW,N0068007,Barrhill,,,BARRHILL,,,,0,,222310,583069,,,BCT,MKD,OTH,,,,138,2003-08-27T00:00:00,2023-12-12T15:02:54,0,,active
619059,29724572,,,Beresford Terrace,,,,Beresford Terrace,,Miller Road,,,,after,,W,ES000201,Ayr,,,AYR,,,,1,,233801,621383,,,BCT,MKD,OTH,,,,138,2003-08-27T00:00:00,2023-12-12T15:02:54,0,,active
6190590,29723258,,,Churchill Crescent,,,,Churchill Crescent,,Hayhill,,,,At,,NE,ES000201,Ayr,,,AYR,,,,0,,235690,621845,,,BCT,MKD,OTH,,,,138,2003-08-27T00:00:00,2023-12-12T15:02:54,0,,active
6190591,29723529,,,Harbour View,,,,Harbour View,,Castle Road,,,,Opp,,SW,N0068081,Dunure,,,DUNURE,,,,1,,225487,615966,,,BCT,MKD,OTH,,,,138,2003-08-27T00:00:00,2023-12-12T15:02:54,0,,active
6190592,29724793,,,Cunningham Crescent,,,,Cunningham Crescent,,Caledonia Road,,,,At,,SE,ES000201,Ayr,,,AYR,,,,0,,234903,620477,,,BCT,MKD,OTH,,,,138,2003-08-27T00:00:00,2023-12-12T15:02:54,0,,inactive
6190593,29723632,,,Biggart Hospital,,,,Biggart Hospital,,Biggart Road,,,,At,,SE,ES003088,Prestwick,,,PRESTWICK,,,,0,,235539,625113,,,BCT,MKD,OTH,,,,138,2003-08-27T00:00:00,2023-12-12T15:02:54,0,,active
6190594,29723259,,,Overmills Road,,,,Overmills Road,,Holmston Road,,,,Opp,,W,ES001777,Holmston,Ayr,,AYR,,,,0,,235654,621033,,,BCT,MKD,OTH,,,,138,2003-08-27T00:00:00,2023-12-12T15:02:54,0,,active
6190595,29724796,,,Snowdrop Square,,,,Snowdrop Square,,Kincaidston Drive,,,,At,,NE,ES000201,Ayr,,,AYR,,,,0,,234905,619389,,,BCT,MKD,OTH,,,,138,2003-08-27T00:00:00,2023-12-12T15:02:54,0,,active
6190596,29724398,,,Chalmers Avenue,,,,Chalmers Avenue,,Belmont Avenue,,,,At,,S,ES000201,Ayr,,,AYR,,,,0,,234178,620455,,,BCT,MKD,OTH,,,,138,2003-08-27T00:00:00,2023-12-12T15:02:54,0,,active
6190597,29724632,,,Burnfoot Avenue,,,,Burnfoot Avenue,,Walker Avenue,,,,Opp,,SW,N0068003,Barassie,,,TROON,,,,0,,232683,632184,,,BCT,MKD,OTH,,,,138,2003-08-27T00:00:00,2023-12-12T15:02:54,0,,active
6190598,29724385,,,Moor Park Place,,,,Forbes Drive,,East Road,,,,opp,,SW,ES001742,Heathfield,Ayr,,PRESTWICK,,,,0,,235344,623981,,,BCT,MKD,OTH,,,,138,2003-08-27T00:00:00,2023-12-12T15:02:54,0,,active
6190599,29724245,,,Harbour Road,,,,Harbour Road,,Craig Road,,,,before,,NE,ES003704,Troon,,,TROON,,,,0,,231083,631094,,,BCT,MKD,OTH,,,,138,2003-08-27T00:00:00,2023-12-12T15:02:54,0,,active
61906,29795987,,,Earls Way,,,,No 44,,Earls Way,,,,at 44,,S,N0072945,Doonfoot,Ayr,,AYR,,,,0,,232058,619119,,,BCT,CUS,OTH,,,,138,2003-08-27T00:00:00,2023-12-12T15:02:54,0,,inactive
6190600,29724634,,,Ailsa Road,,,,Ailsa Road,,Harbour Road,,,,At,,SE,ES003704,Troon,,,TROON,,,,0,,231219,631060,,,BCT,MKD,OTH,,,,138,2003-08-27T00:00:00,2023-12-12T15:02:54,0,,active
6190601,29723474,,,Arran View,,,,Arran View,,North Shore Road,,,,opp,,NE,ES003704,Troon,,,TROON,,,,0,,232267,631395,,,BCT,MKD,OTH,,,,138,2003-08-27T00:00:00,2023-12-12T15:02:54,0,,active
6190602,29724879,,,Post Office,,,,Post Office,,Station Road,,,,opp,,E,ES002688,Mossblown,,,MOSSBLOWN,,,,0,,240319,624810,,,BCT,MKD,OTH,,,,138,2003-08-27T00:00:00,2023-12-12T15:02:54,0,,inactive
6190603,29723652,,,Annbank Road,,,,Annbank Road,,Station Road,,,,At,,NE,ES002688,Mossblown,,,MOSSBLOWN,,,,0,,240305,624680,,,BCT,MKD,OTH,,,,138,2003-08-27T00:00:00,2023-12-12T15:02:54,0,,active
6190604,29723495,,,Castlehill Road,,,,Castlehill Road,,Belmont Avenue,,,,before,,N,ES000201,Ayr,,,AYR,,,,0,,234239,620717,,,BCT,MKD,OTH,,,,138,2003-08-27T00:00:00,2023-12-12T15:02:54,0,,active
6190605,29724628,,,Belmont Place West,,,,Belmont Place West,,Belmont Avenue,,,,Near,,S,ES000201,Ayr,,,AYR,,,,0,,234251,620725,,,BCT,MKD,OTH,,,,138,2003-08-27T00:00:00,2023-12-12T15:02:54,0,,active
6190606,29723269,,,Church Hall,,,,Church Hall,,Dailly Road,,,,at,,E,N0068179,Old Dailly,,,OLD DAILLY,,,,0,,222686,599332,,,BCT,CUS,OTH,,,,138,2003-08-27T00:00:00,2023-12-12T15:02:54,0,,active
6190607,29723725,,,George Street,,,,George Street,,Glendoune Street,,,,Opp,,S,ES001522,Girvan,,,GIRVAN,,,,1,,218486,597138,,,BCT,MKD,OTH,,,,138,2003-08-27T00:00:00,2023-12-12T15:02:54,0,,active
6190608,29723649,,,Young Street,,,,Young Street,,Glendoune Street,,,,At,,SW,ES001522,Girvan,,,GIRVAN,,,,1,,218476,596987,,,BCT,MKD,OTH,,,,138,2003-08-27T00:00:00,2023-12-12T15:02:54,0,,active
6190609,29723563,,,Lochlea Drive,,,,Lochlea Drive,,Castlehill Road,,,,Near,,NW,ES000201,Ayr,,,AYR,,,,0,,234521,620475,,,BCT,MKD,OTH,,,,138,2003-08-27T00:00:00,2023-12-12T15:02:54,0,,active
619061,29723874,,,Bellevue Street,,,,Bellevue Street,,Beresford Terrace,,,,Opp,,S,ES000201,Ayr,,,AYR,,,,1,,233841,621182,,,BCT,MKD,OTH,,,,138,2003-08-27T00:00:00,2023-12-12T15:02:54,0,,active
6190610,29724276,,,Collins Drive,,,,Collins Drive,,Troon Road,,,,At,,NE,N0068143,Loans,,,LOANS,,,,0,,234486,631455,,,BCT,MKD,OTH,,,,138,2003-08-27T00:00:00,2023-12-12T15:02:54,0,,active
6190611,29723564,,,Findhorn Place,,,,Findhorn Place,,Deveron Road,,,,Near,,NE,ES003704,Troon,,,TROON,,,,0,,233606,632302,,,BCT,MKD,OTH,,,,138,2003-08-27T00:00:00,2023-12-12T15:02:54,0,,active
6190612,29724767,,,Morrisons Supermarket,,,,Morrisons Supermarket,,North Shore Road,,,,opp,,SE,ES003704,Troon,,,TROON,,,,0,,232136,631187,,,BCT,MKD,OTH,,,,138,2003-08-27T00:00:00,2023-12-12T15:02:54,0,,active
6190613,29724832,,,Morrisons Supermarket,,,,Morrisons Supermarket,,North Shore Road,,,,at,,N,ES003704,Troon,,,TROON,,,,0,,232082,631238,,,BCT,MKD,OTH,,,,138,2003-08-27T00:00:00,2023-12-12T15:02:54,0,,active
6190614,29723953,,,Cambusdoon Cricket Ground,,,,Cambusdoon Cricket Ground,,Alloway,,,,opp,,NE,ES000201,Ayr,,,AYR,,,,1,,233258,618261,,,BCT,MKD,OTH,,,,138,2003-08-27T00:00:00,2023-12-12T15:02:54,0,,inactive
6190615,29724389,,,Carwinshoch View,,,,Carwinshoch View,,Doonfoot Road,,,,Opp,,S,ES003278,Seafield,Ayr,,AYR,,,,1,,233086,620061,,,BCT,MKD,OTH,,,,138,2003-08-27T00:00:00,2023-12-12T15:02:54,0,,active
6190616,29723732,,,Health Board head Office,,,,Health Board Head Office,,Doonfoot Road,,,,at,,SW,ES003278,Seafield,Ayr,,AYR,,,,1,,233138,620296,,,BCT,MKD,OTH,,,,138,2003-08-27T00:00:00,2023-12-12T15:02:54,0,,active
6190617,29724395,,,Seafield Crescent,,,,Seafield Crescent,,Doonfoot Road,,,,opp,,N,ES003278,Seafield,Ayr,,AYR,,,,1,,233169,620431,,,BCT,MKD,OTH,,,,138,2003-08-27T00:00:00,2023-12-12T15:02:54,0,,active
6190618,29724786,,,Ashgrove Street,,,,Ashgrove Street,,Castlehill Road,,,,after,,SE,ES000201,Ayr,,,AYR,,,,0,,234131,621205,,,BCT,MKD,OTH,,,,138,2003-08-27T00:00:00,2023-12-12T15:02:54,0,,active
6190619,29723738,,,Belmont Avenue,,,,Belmont Avenue,,Castlehill Road,,,,Opp,,SW,ES000201,Ayr,,,AYR,,,,0,,234267,620772,,,BCT,MKD,OTH,,,,138,2003-08-27T00:00:00,2023-12-12T15:02:54,0,,active
619062,29723672,,,Bellevue Street,,,,Bellevue Street,,Beresford Terrace,,,,At,,N,ES000201,Ayr,,,AYR,,,,1,,233827,621169,,,BCT,MKD,OTH,,,,138,2003-08-27T00:00:00,2023-12-12T15:02:54,0,,active
6190620,29723793,,,Castlehill Crescent,,,,Castlehill Crescent,,Castlehill Road,,,,At,,NW,ES000201,Ayr,,,AYR,,,,0,,234391,620620,,,BCT,MKD,OTH,,,,138,2003-08-27T00:00:00,2023-12-12T15:02:54,0,,active
6190622,29724367,,,Belmont Road,,,,Castlehill Church,,Castlehill Road,,,,before,,SE,ES000201,Ayr,,,AYR,,,,0,,234659,620342,,,BCT,MKD,OTH,,,,138,2003-08-27T00:00:00,2023-12-12T15:02:54,0,,active
6190623,29724846,,,St Leonards Court,,,,St Leonards Court,,St Leonards Road,,,,Opp,,NW,ES000201,Ayr,,,AYR,,,,0,,233993,620334,,,BCT,MKD,OTH,,,,138,2003-08-27T00:00:00,2023-12-12T15:02:54,0,,active
6190624,29724272,,,Robsland Avenue,,,,Robsland Avenue,,St Leonards Road,,,,at,,NW,ES000201,Ayr,,,AYR,,,,0,,234120,620159,,,BCT,MKD,OTH,,,,138,2003-08-27T00:00:00,2023-12-12T15:02:54,0,,active
6190625,29724658,,,Bellevale Avenue,,,,Bellevale Avenue,,St Leonards Road,,,,Opp,,SE,ES000201,Ayr,,,AYR,,,,0,,234207,619946,,,BCT,MKD,OTH,,,,138,2003-08-27T00:00:00,2023-12-12T15:02:54,0,,active
6190626,29723769,,,Auchenbeg Crescent,,,,Auchenbeg Crescent,,Maybole Road,,,,Opp,,SE,ES000201,Ayr,,,AYR,,,,0,,234527,619254,,,BCT,MKD,OTH,,,,138,2003-08-27T00:00:00,2023-12-12T15:02:54,0,,active
6190627,29724758,,,Cherryhill Road,,,,Cherryhill Road,,Maybole Road,,,,opp,,SE,ES000201,Ayr,,,AYR,,,,0,,234649,618951,,,BCT,MKD,OTH,,,,138,2003-08-27T00:00:00,2023-12-12T15:02:54,0,,active
6190628,29724637,,,Woodlea Place,,,,Woodlea Place,,Maybole Road,,,,At,,SE,ES000201,Ayr,,,AYR,,,,0,,234724,618609,,,BCT,MKD,OTH,,,,138,2003-08-27T00:00:00,2023-12-12T15:02:54,0,,active
619063,29724732,,,Hazelwood Road,,,,Hazelwood Road,,St Leonards Road,,,,Near,,NW,ES000201,Ayr,,,AYR,,,,0,,233874,620517,,,BCT,MKD,OTH,,,,138,2003-08-27T00:00:00,2023-12-12T15:02:54,0,,active
6190630,29723857,,,Peggieshill Road,,,,Peggieshill Road,,Dalmellington Road,,,,At,,SE,ES000201,Ayr,,,AYR,,,,0,,235082,619898,,,BCT,MKD,OTH,,,,138,2003-08-27T00:00:00,2023-12-12T15:02:54,0,,active
6190631,29723756,,,Dongola Road,,,,Dongola Road,,Ashgrove Street,,,,Opp,,W,ES000201,Ayr,,,AYR,,,,0,,234287,621220,,,BCT,CUS,OTH,,,,138,2003-08-27T00:00:00,2023-12-12T15:02:54,0,,inactive
6190632,29724792,,,Lothian Road,,,,Lothian Road,,Ashgrove Street,,,,Opp,,W,ES000201,Ayr,,,AYR,,,,0,,234487,621173,,,BCT,MKD,OTH,,,,138,2003-08-27T00:00:00,2023-12-12T15:02:54,0,,active
6190633,29724274,,,Fullerton PLace,,,,Fullerton Place,,Main Street,,,,opp,,SE,N0068143,Loans,,,Loans,,,,1,,234615,631571,,,BCT,MKD,OTH,,,,138,2003-08-27T00:00:00,2023-12-12T15:02:54,0,,active
6190634,29723585,,,Abbots Way,,,,Dunure Road,,Earls Way,,,,before,,N,N0072945,Doonfoot,Ayr,,AYR,,,,1,,232099,618865,,,BCT,CUS,OTH,,,,138,2003-08-27T00:00:00,2023-12-12T15:02:54,0,,active
6190635,29724378,,,Midton Road,,,,Midton Road,,Ronaldshaw Park,,,,Opp,,NW,ES000201,Ayr,,,AYR,,,,0,,233498,620827,,,BCT,MKD,OTH,,,,138,2003-08-27T00:00:00,2023-12-12T15:02:54,0,,inactive
6190636,29723737,,,Taybank Drive,,,,Taybank Drive,,Laughlanglen Road,,,,opp,,SW,ES000201,Ayr,,,AYR,,,,0,,234552,619059,,,BCT,MKD,OTH,,,,138,2003-08-27T00:00:00,2023-12-12T15:02:54,0,,active
6190637,29724543,,,Forehill Road,,,,Shavin Brae,,Hillfoot Road,,,,before,,NE,ES001777,Holmston,Ayr,,AYR,,,,0,,235644,620848,,,BCT,MKD,OTH,,,,138,2003-08-27T00:00:00,2023-12-12T15:02:54,0,,inactive
6190638,29724282,,,Hollybank,,,,Hollybank,,Masonhill Road,,,,Opp,,SE,N0068039,Castlehill,Ayr,,AYR,,,,0,,235754,620306,,,BCT,CUS,OTH,,,,138,2003-08-27T00:00:00,2023-12-12T15:02:54,0,,inactive
6190639,29723695,,,Alderbank,,,,Alderbank,,Masonhill Road,,,,Opp,,W,N0068039,Castlehill,Ayr,,AYR,,,,0,,235478,620495,,,BCT,MKD,OTH,,,,138,2003-08-27T00:00:00,2023-12-12T15:02:54,0,,active
619064,29723236,,,Hazelwood Road,,,,Hazelwood Road,,St Leonards Road,,,,Opp,,SE,ES000201,Ayr,,,AYR,,,,0,,233884,620487,,,BCT,MKD,OTH,,,,138,2003-08-27T00:00:00,2023-12-12T15:02:54,0,,active
6190640,29723967,,,Lochlea Drive,,,,Lochlea Drive,,Caledonia Road,,,,opp,,SE,ES000201,Ayr,,,AYR,,,,0,,234669,620735,,,BCT,CUS,OTH,,,,138,2003-08-27T00:00:00,2023-12-12T15:02:54,0,,active
6190641,29723697,,,Mount Oliphant Place,,,,Mount Oliphant Place,,Mount Oliphant Crescent,,,,At,,NW,ES000201,Ayr,,,AYR,,,,0,,234564,620829,,,BCT,MKD,OTH,,,,138,2003-08-27T00:00:00,2023-12-12T15:02:54,0,,active
6190642,29724234,,,Beech Grove,,,,Beech Grove,,James Campbell Road,,,,Opp,,E,ES000201,Ayr,,,AYR,,,,0,,235193,621773,,,BCT,CUS,OTH,,,,138,2003-08-27T00:00:00,2023-12-12T15:02:54,0,,active
6190643,29723635,,,Craigie Lea,,,,Craigie Lea,,James Campbell Road,,,,Opp,,SE,ES000201,Ayr,,,AYR,,,,0,,234930,621827,,,BCT,CUS,OTH,,,,138,2003-08-27T00:00:00,2023-12-12T15:02:54,0,,active
6190644,29724839,,,Robertson Crescent,,,,Robertson Crescent,,Hayhill,,,,near,,NE,ES000201,Ayr,,,AYR,,,,0,,235884,621942,,,BCT,CUS,OTH,,,,138,2003-08-27T00:00:00,2023-12-12T15:02:54,0,,active
6190645,29724247,,,St Georges Road,,,,No 53,,St Georges Road,,,,opp 53,,NE,N0072969,Newton-On-Ayr,Ayr,,AYR,,,,0,,234595,623078,,,BCT,MKD,OTH,,,,138,2003-08-27T00:00:00,2023-12-12T15:02:54,0,,active
6190646,29723292,,,Cambuslea Road,,,,Cambuslea Road,,Hunters Avenue,,,,Opp,,NE,N0072969,Newton-On-Ayr,Ayr,,AYR,,,,0,,234654,623275,,,BCT,MKD,OTH,,,,138,2003-08-27T00:00:00,2023-12-12T15:02:54,0,,active
6190647,29723894,,,Tweed Street,,,,Tweed Street,,Hunters Avenue,,,,At,,SW,ES001742,Heathfield,Ayr,,AYR,,,,0,,234751,623559,,,BCT,MKD,OTH,,,,138,2003-08-27T00:00:00,2023-12-12T15:02:54,0,,active
6190648,29723759,,,Briarhill Road,,,,Briarhill Road,,Adamton Road North,,,,Opp,,SW,ES003088,Prestwick,,,PRESTWICK,,,,0,,235885,625773,,,BCT,MKD,OTH,,,,138,2003-08-27T00:00:00,2023-12-12T15:02:54,0,,inactive
6190649,29723525,,,Rowallan Crescent,,,,Rowallan Crescent,,Adamton Road,,,,after,,NE,ES003088,Prestwick,,,PRESTWICK,,,,0,,235519,625323,,,BCT,MKD,OTH,,,,138,2003-08-27T00:00:00,2023-12-12T15:02:54,0,,active
619065,29724259,,,St Leonards Court,,,,St Leonards Court,,St Leonards Road,,,,At,,NW,ES000201,Ayr,,,AYR,,,,0,,234001,620339,,,BCT,MKD,OTH,,,,138,2003-08-27T00:00:00,2023-12-12T15:02:54,0,,active
6190650,29724782,,,Auchincruive Avenue,,,,Auchincruive Avenue,,Adamton Road,,,,Opp,,NE,ES003088,Prestwick,,,PRESTWICK,,,,0,,235228,625118,,,BCT,MKD,OTH,,,,138,2003-08-27T00:00:00,2023-12-12T15:02:54,0,,inactive
6190651,29723527,,,Crawford Avenue,,,,Crawford Avenue,,Adamton Road,,,,At,,S,ES003088,Prestwick,,,PRESTWICK,,,,0,,235106,624904,,,BCT,MKD,OTH,,,,138,2003-08-27T00:00:00,2023-12-12T15:02:54,0,,inactive
6190652,29723568,,,Blanefield Avenue,,,,Blanefield Avenue,,Adamton Road,,,,At,,N,ES003088,Prestwick,,,PRESTWICK,,,,0,,235076,624728,,,BCT,MKD,OTH,,,,138,2003-08-27T00:00:00,2023-12-12T15:02:54,0,,inactive
6190653,29723693,,,Marchfield Road,,,,Marchfield Road,,Heathfield Road,,,,Opp,,SE,ES001742,Heathfield,Ayr,,AYR,,,,0,,234670,624168,,,BCT,MKD,OTH,,,,138,2003-08-27T00:00:00,2023-12-12T15:02:54,0,,inactive
6190654,29723262,,,Ardfin Road,,,,Ardfin Road,,East Road,,,,Opp,,NE,ES001742,Heathfield,Ayr,,PRESTWICK,,,,0,,235420,624273,,,BCT,MKD,OTH,,,,138,2003-08-27T00:00:00,2023-12-12T15:02:54,0,,active
6190655,29723764,,,Mosside Road,,,,Mosside Road,,Heathfield Road,,,,opp,,SE,ES001742,Heathfield,Ayr,,AYR,,,,0,,235220,623874,,,BCT,MKD,OTH,,,,138,2003-08-27T00:00:00,2023-12-12T15:02:54,0,,active
6190656,29724232,,,Heathpark,,,,Heathpark,,Heathfield Road,,,,Opp,,NW,ES001742,Heathfield,Ayr,,AYR,,,,0,,235028,623976,,,BCT,MKD,OTH,,,,138,2003-08-27T00:00:00,2023-12-12T15:02:54,0,,active
6190657,29723238,,,Gillies street,,,,Gillies street,,Logan Drive,,,,Opp,,S,ES003704,Troon,,,TROON,,,,0,,232779,631358,,,BCT,MKD,OTH,,,,138,2003-08-27T00:00:00,2023-12-12T15:02:54,0,,active
6190658,29723957,,,Sandhill Gardens,,,,Sandhill Gardens,,Central Avenue,,,,after,,N,ES003704,Troon,,,TROON,,,,0,,233891,631285,,,BCT,MKD,OTH,,,,138,2003-08-27T00:00:00,2023-12-12T15:02:54,0,,inactive
6190659,29724346,,,Merrick Avenue,,,,Merrick Avenue,,Central Avenue,,,,after,,NW,ES003704,Troon,,,TROON,,,,0,,233778,631682,,,BCT,MKD,OTH,,,,138,2003-08-27T00:00:00,2023-12-12T15:02:54,0,,active
619066,29723583,,,Robsland Avenue,,,,Robsland Avenue,,St Leonards Road,,,,opp,,SE,ES000201,Ayr,,,AYR,,,,0,,234122,620174,,,BCT,MKD,OTH,,,,138,2003-08-27T00:00:00,2023-12-12T15:02:54,0,,active
6190660,29724536,,,Industrial Estate,,,,Industrial Estate,,B730,,,,Opp,,S,N0068076,Drybridge,,,DUNDONALD,,,,0,,236182,635741,,,BCT,MKD,OTH,,,,138,2003-08-27T00:00:00,2023-12-12T15:02:54,0,,active
6190661,29724563,,,McMillan Court,,,,McMillan Court,,Montgomerie Street,,,,opp,,S,ES001522,Girvan,,,GIRVAN,,,,0,,218752,598164,,,BCT,CUS,OTH,,,,138,2003-08-27T00:00:00,2023-12-12T15:02:54,0,,active
6190662,29723582,,,McConnell Square,,,,McConnell Square,,Montgomerie Street,,,,Opp,,SE,ES001522,Girvan,,,GIRVAN,,,,0,,218771,598287,,,BCT,CUS,OTH,,,,138,2003-08-27T00:00:00,2023-12-12T15:02:54,0,,active
6190663,29724574,,,Piedmount Road,,,,Piedmount Road,,Roxburgh Road,,,,Opp,,NE,ES001522,Girvan,,,GIRVAN,,,,0,,218696,597228,,,BCT,MKD,OTH,,,,138,2003-08-27T00:00:00,2023-12-12T15:02:54,0,,active
6190664,29724783,,,Fauldribbon Road,,,,Fauldribbon Road,,Roxburgh Road,,,,at,,S,ES001522,Girvan,,,GIRVAN,,,,0,,218722,597355,,,BCT,MKD,OTH,,,,138,2003-08-27T00:00:00,2023-12-12T15:02:54,0,,inactive
6190665,29724587,,,Redgates Caravan park,,,,Redgates Caravan park,,Kirkoswald Road,,,,Opp,,NW,ES002528,Maidens,,,MAIDENS,,,,0,,221735,607847,,,BCT,CUS,OTH,,,,138,2003-08-27T00:00:00,2023-12-12T15:02:54,0,,inactive
6190666,29723438,,,Harbour Road,,,,Harbour Road,,Turnberry Road,,,,opp,,SW,ES002528,Maidens,,,MAIDENS,,,,0,,221259,607914,,,BCT,CUS,OTH,,,,138,2003-08-27T00:00:00,2023-12-12T15:02:54,0,,inactive
6190667,29723852,,,Barns Road,,,,Barns Road,,Barns Terrace,,,,At,,SW,ES002566,Maybole,,,MAYBOLE,,,,0,,230133,610116,,,BCT,CUS,OTH,,,,138,2003-08-27T00:00:00,2023-12-12T15:02:54,0,,inactive
6190668,29723975,,,Hillhead,,,,B742,,A70,,,,at 11A,,NE,ES000824,Coylton,,,COYLTON,,,,0,,241812,619688,,,BCT,MKD,OTH,,,,138,2003-08-27T00:00:00,2023-12-12T15:02:54,0,,active
6190669,29724623,,,Dallmellingon Road,,,,Opp 146 Burnbank Road,,Burnbank Road,,,,before,,NE,ES000201,Ayr,,,AYR,,,,0,,235096,619678,,,BCT,MKD,OTH,,,,138,2003-08-27T00:00:00,2023-12-12T15:02:54,0,,active
619067,29724534,,,Bellevale Avenue,,,,Bellevale Avenue,,St Leonards Road,,,,Near,,N,ES000201,Ayr,,,AYR,,,,0,,234198,619944,,,BCT,MKD,OTH,,,,138,2003-08-27T00:00:00,2023-12-12T15:02:54,0,,active
6190670,29723834,,,Morton Road,,,,Morton Road,,Belmont Avenue,,,,Opp,,NW,ES000201,Ayr,,,AYR,,,,0,,234197,620292,,,BCT,MKD,OTH,,,,138,2003-08-27T00:00:00,2023-12-12T15:02:54,0,,active
6190671,29724647,,,Belmont Drive,,,,Belmont Drive,,Belmont Avenue,,,,before,,SE,ES000201,Ayr,,,AYR,,,,0,,234252,620172,,,BCT,MKD,OTH,,,,138,2003-08-27T00:00:00,2023-12-12T15:02:54,0,,active
6190672,29723787,,,Campbell Court,,,,Campbell Court,,James Campbell Road,,,,At,,E,ES000201,Ayr,,,AYR,,,,0,,235366,621753,,,BCT,MKD,OTH,,,,138,2003-08-27T00:00:00,2023-12-12T15:02:54,0,,active
6190673,29724248,,,Heathfield Road,,,,No 144,,Hunters Avenue,,,,after,,SW,ES001742,Heathfield,Ayr,,AYR,,,,0,,234930,623887,,,BCT,MKD,OTH,,,,138,2003-08-27T00:00:00,2023-12-12T15:02:54,0,,active
6190674,29724526,,,Elder Avenue,,,,Elder Avenue,,Bennane Road,,,,at,,S,ES001522,Girvan,,,GIRVAN,,,,0,,218442,596772,,,BCT,MKD,OTH,,,,138,2003-08-27T00:00:00,2023-12-12T15:02:54,0,,active
6190675,29723548,,,St Ninians Pr School,,,,St Ninians Pr School,,Outdale Avenue,,,,Opp,,SW,ES003088,Prestwick,,,PRESTWICK,,,,0,,236106,625736,,,BCT,CUS,OTH,,,,138,2003-08-27T00:00:00,2023-12-12T15:02:54,0,,inactive
6190676,29724865,,,Masonhill Road,,,,Masonhill Road,,Hillfoot Road,,,,Opp,,NE,ES000201,Ayr,,,AYR,,,,0,,235397,620584,,,BCT,MKD,OTH,,,,138,2003-08-27T00:00:00,2023-12-12T15:02:54,0,,active
6190677,29724583,,,Doon Avenue,,,,Doon Avenue,,Afton Avenue,,,,At,,NE,ES001742,Heathfield,Ayr,,PRESTWICK,,,,0,,235064,624145,,,BCT,MKD,OTH,,,,138,2003-08-27T00:00:00,2023-12-12T15:02:54,0,,inactive
6190678,29723853,,,Outdale Avenue,,,,Outdale Avenue,,Sherwood Road,,,,At,,NW,ES003088,Prestwick,,,PRESTWICK,,,,0,,236149,625848,,,BCT,MKD,OTH,,,,138,2003-08-27T00:00:00,2023-12-12T15:02:54,0,,inactive
6190679,29723845,,,Thomson Street,,,,Thomson Street,,Sloan Street,,,,At,,N,ES003863,Whitletts,Ayr,,AYR,,,,0,,235582,622860,,,BCT,CUS,OTH,,,,138,2003-08-27T00:00:00,2023-12-12T15:02:54,0,,active
619068,29723954,,,Shawfield Avenue,,,,Shawfield Avenue,,Maybole Road,,,,At,,NW,ES000201,Ayr,,,AYR,,,,0,,234374,619609,,,BCT,MKD,OTH,,,,138,2003-08-27T00:00:00,2023-12-12T15:02:54,0,,active
6190681,29723795,,,Ayr Bus Station,,,,,,Ayr Bus Station,,,,Stance 2,,E,ES000201,Ayr,,,AYR,,,,0,,233559,621855,,,BCS,MKD,OTH,,,,138,2003-08-27T00:00:00,2023-12-12T15:02:54,0,,active
6190682,29723242,,,Ayr Bus Station,,,,,,Ayr Bus Station,,,,Stance 3,,W,ES000201,Ayr,,,AYR,,,,1,,233556,621851,,,BCS,MKD,OTH,,,,138,2003-08-27T00:00:00,2023-12-12T15:02:54,0,,active
6190683,29723458,,,Ayr Bus Station,,,,,,Ayr Bus Station,,,,Stance 4,,E,ES000201,Ayr,,,AYR,,,,1,,233553,621847,,,BCS,MKD,OTH,,,,138,2003-08-27T00:00:00,2023-12-12T15:02:54,0,,active
6190684,29724268,,,Ayr Bus Station,,,,,,Ayr Bus Station,,,,Stance 5,,E,ES000201,Ayr,,,AYR,,,,1,,233550,621842,,,BCS,MKD,OTH,,,,138,2003-08-27T00:00:00,2023-12-12T15:02:54,0,,active
6190685,29723636,,,Ayr Bus Station,,,,,,Ayr Bus Station,,,,Stance 6,,E,ES000201,Ayr,,,AYR,,,,1,,233548,621838,,,BCS,MKD,OTH,,,,138,2003-08-27T00:00:00,2023-12-12T15:02:54,0,,active
6190686,29723962,,,Ayr Bus Station,,,,,,Ayr Bus Station,,,,Stance 7,,E,ES000201,Ayr,,,AYR,,,,1,,233545,621833,,,BCS,MKD,OTH,,,,138,2003-08-27T00:00:00,2023-12-12T15:02:54,0,,active
6190687,29724763,,,Ayr Bus Station,,,,,,Ayr Bus Station,,,,Stance 8,,E,ES000201,Ayr,,,AYR,,,,1,,233542,621829,,,BCS,MKD,OTH,,,,138,2003-08-27T00:00:00,2023-12-12T15:02:54,0,,active
6190688,29724836,,,Ayr Bus Station,,,,,,Ayr Bus Station,,,,Stance 9,,E,ES000201,Ayr,,,AYR,,,,1,,233539,621825,,,BCS,MKD,OTH,,,,138,2003-08-27T00:00:00,2023-12-12T15:02:54,0,,active
6190689,29724278,,,Ayr Bus Station,,,,,,Ayr Bus Station,,,,Stance 10,,E,ES000201,Ayr,,,AYR,,,,1,,233559,621813,,,BCS,MKD,OTH,,,,138,2003-08-27T00:00:00,2023-12-12T15:02:54,0,,active
619069,29723763,,,Langbank Drive,,,,Langbank Drive,,Maybole Road,,,,Opp,,S,ES000201,Ayr,,,AYR,,,,0,,234396,619581,,,BCT,MKD,OTH,,,,138,2003-08-27T00:00:00,2023-12-12T15:02:54,0,,active
6190690,29724858,,,Ayr Bus Station,,,,,,Ayr Bus Station,,,,Stance 11,,S,ES000201,Ayr,,,AYR,,,,1,,233562,621811,,,BCS,MKD,OTH,,,,138,2003-08-27T00:00:00,2023-12-12T15:02:54,0,,active
6190691,29724396,,,Ayr Bus Station,,,,,,Ayr Bus Station,,,,Stance 12,,E,ES000201,Ayr,,,AYR,,,,1,,233566,621808,,,BCS,MKD,OTH,,,,138,2003-08-27T00:00:00,2023-12-12T15:02:54,0,,active
6190692,29724349,,,Ayr Bus Station,,,,,,Ayr Bus Station,,,,Stance 13,,E,ES000201,Ayr,,,AYR,,,,1,,233570,621806,,,BCS,MKD,OTH,,,,138,2003-08-27T00:00:00,2023-12-12T15:02:54,0,,active
6190693,29723584,,,Ayr Bus Station,,,,,,Ayr Bus Station,,,,Stance 14,,E,ES000201,Ayr,,,AYR,,,,1,,233574,621804,,,BCS,MKD,OTH,,,,138,2003-08-27T00:00:00,2023-12-12T15:02:54,0,,active
6190694,29723235,,,Ayr Cemetery,,,,Cemetery,,Holmston Road,,,,at,,W,ES000201,Ayr,,,AYR,,,,1,,234860,621153,,,BCT,MKD,OTH,,,,138,2003-08-27T00:00:00,2023-12-12T15:02:54,0,,active
6190695,29723246,,,Moorefield Road,,,,Moorefield Road,,Biggart Road,,,,at,,NW,ES003088,Prestwick,,,PRESTWICK,,,,0,,235530,625112,,,BCT,MKD,OTH,,,,138,2003-08-27T00:00:00,2023-12-12T15:02:54,0,,active
6190696,29723876,,,Girvan Station,,,,Girvan Station,,Vicarton Street,,,,at,,SE,ES001522,Girvan,,,GIRVAN,,,,1,,219000,598448,,,BCT,MKD,OTH,,,,138,2003-08-27T00:00:00,2023-12-12T15:02:54,0,,active
6190697,29725459,,,Orangefield Drive,,,,Orangefield Drive,,Shaw Road,,,,at,,NE,ES003088,Prestwick,,,PRESTWICK,,,,0,,236034,626152,,,BCT,MKD,OTH,,,,138,2003-08-27T00:00:00,2023-12-12T15:02:54,0,,inactive
6190698,29725648,,,Langcroft Avenue,,,,Langcroft Avenue,,Shaw Road,,,,at,,SW,ES003088,Prestwick,,,PRESTWICK,,,,0,,236033,626140,,,BCT,MKD,OTH,,,,138,2003-08-27T00:00:00,2023-12-12T15:02:54,0,,inactive
6190699,29724959,,,Shawfarm Court,,,,Shawfarm Court,,Shawfarm Road,,,,near,,NW,ES003088,Prestwick,,,PRESTWICK,,,,0,,235960,626317,,,BCT,MKD,OTH,,,,138,2003-08-27T00:00:00,2023-12-12T15:02:54,0,,inactive
61907,29725494,,,Earls Way,,,,Earls Way,,Abbots Way,,,,after,,E,N0072945,Doonfoot,Ayr,,AYR,,,,1,,232125,619045,,,BCT,MKD,OTH,,,,138,2003-08-27T00:00:00,2023-12-12T15:02:54,0,,inactive
619070,29723939,,,Auchenbeg Crescent,,,,Auchenbeg Crescent,,Maybole Road,,,,Near,,NW,ES000201,Ayr,,,AYR,,,,0,,234518,619251,,,BCT,MKD,OTH,,,,138,2003-08-27T00:00:00,2023-12-12T15:02:54,0,,active
6190700,29725354,,,Shawfarm Court,,,,Shaw Road,,Shawfarm Road,,,,opp,,SE,ES003088,Prestwick,,,PRESTWICK,,,,0,,235990,626308,,,BCT,MKD,OTH,,,,138,2003-08-27T00:00:00,2023-12-12T15:02:54,0,,inactive
6190703,29725846,,,Newdykes Sports Ground,,,,Opp Newdykes Sports Ground,,Shawfarm Road,,,,Opp,,NW,ES003088,Prestwick,,,PRESTWICK,,,,0,,235704,626474,,,BCT,MKD,OTH,,,,138,2003-08-27T00:00:00,2023-12-12T15:02:54,0,,inactive
6190704,29725754,,,Newdykes Sports Ground,,,,At Newdykes Sports Ground,,Shawfarm Road,,,,At,,SE,ES003088,Prestwick,,,PRESTWICK,,,,0,,235686,626497,,,BCT,MKD,OTH,,,,138,2003-08-27T00:00:00,2023-12-12T15:02:54,0,,inactive
6190705,29725848,,,East Park Road,,,,East Park Road,,Hunters Ave,,,,at,,S,ES001742,Heathfield,Ayr,,AYR,,,,0,,234716,623445,,,BCT,MKD,OTH,,,,138,2003-08-27T00:00:00,2023-12-12T15:02:54,0,,active
6190707,29725843,,,East Park Road,,,,East Park Road,,Hunters Drive,,,,opp,,NE,ES001742,Heathfield,Ayr,,AYR,,,,0,,234707,623447,,,BCT,MKD,OTH,,,,138,2003-08-27T00:00:00,2023-12-12T15:02:54,0,,active
6190708,29725769,,,Kilmarnock Road,,,,Kilmarnock Road,,Symington Road North,,,,after,,NW,ES003596,Symington,,,SYMINGTON,,,,1,,238727,631274,,,BCT,MKD,OTH,,,,138,2003-08-27T00:00:00,2023-12-12T15:02:54,0,,inactive
6190709,29725845,,,Merkland Place,,,,Merkland Place,,Balvaird Road,,,,at,,N,ES002211,Kirkoswald,,,KIRKOSWALD,,,,1,,224386,607722,,,BCT,MKD,OTH,,,,138,2003-08-27T00:00:00,2023-12-12T15:02:54,0,,active
619071,29724596,,,Cherryhill Road,,,,Cherryhill Road,,Maybole Road,,,,At,,NW,ES000201,Ayr,,,AYR,,,,0,,234640,618948,,,BCT,MKD,OTH,,,,138,2003-08-27T00:00:00,2023-12-12T15:02:54,0,,active
6190710,29725948,,,Merkland Place,,,,Merkland Place,,Balvaird Road,,,,opp,,S,ES002211,Kirkoswald,,,KIRKOSWALD,,,,1,,224397,607740,,,BCT,MKD,OTH,,,,138,2003-08-27T00:00:00,2023-12-12T15:02:54,0,,active
6190711,29725978,,,Heads of Ayr Farm Park,,,,Heads of Ayr Farm Park,,A719,,,,opposite,,W,N0072945,Doonfoot,Ayr,,Ayr,,,,0,,229823,617944,,,BCT,MKD,OTH,,,,138,2003-08-27T00:00:00,2023-12-12T15:02:54,0,,active
6190712,29725972,,,Wellington Square,,,,Wellington Square,,Alloway Place,,,,opp,,S,ES000201,Ayr,,,AYR,,,,1,,233502,621759,,,BCT,MKD,OTH,,,,138,2003-08-27T00:00:00,2023-12-12T15:02:54,0,,active
6190713,29725968,,,Mosshill Ind Estate,,,,Mosshill Ind Estate,,A713,,,,opp,,NW,ES000201,Ayr,,,AYR,,,,0,,237107,617590,,,BCT,MKD,OTH,,,,138,2003-08-27T00:00:00,2023-12-12T15:02:54,0,,active
6190714,29726242,,,Drumley House,,,,Drumley Road,,Mauchline Road,,,,at,,NE,ES002688,Mossblown,,,MOSSBLOWN,,,,0,,240557,625028,,,BCT,MKD,OTH,,,,138,2003-08-27T00:00:00,2023-12-12T15:02:54,0,,active
6190715,29726373,,,Longbank Road,,,,Longbank Road,,Monument Road,,,,at,,S,ES000201,Ayr,,,AYR,,,,1,,233790,619691,,,BCT,MKD,OTH,,,,138,2003-08-27T00:00:00,2023-12-12T15:02:54,0,,active
6190716,29742763,,,Portland Football Park,,,,Portland Street,,Dundonald Road,,,,at,,E,ES003704,Troon,,,TROON,,,,1,,232461,631318,,,BCT,MKD,OTH,,,,138,2003-08-27T00:00:00,2023-12-12T15:02:54,0,,active
6190719,29743486,,,Armour Drive,,,,Glenconner Road,,Glencairn Road,,,,opp,,E,ES000201,Ayr,,,AYR,,,,0,,235188,620838,,,BCT,MKD,OTH,,,,138,2003-08-27T00:00:00,2023-12-12T15:02:54,0,,active
619072,29723467,,,Woodlea Place,,,,Woodlea place,,Maybole Road,,,,Opp,,N,ES000201,Ayr,,,AYR,,,,0,,234715,618610,,,BCT,MKD,OTH,,,,138,2003-08-27T00:00:00,2023-12-12T15:02:54,0,,active
6190720,29743754,,,Armour Drive,,,,Armour Drive,,Glencairn Road,,,,before,,W,ES000201,Ayr,,,AYR,,,,0,,235200,620826,,,BCT,MKD,OTH,,,,138,2003-08-27T00:00:00,2023-12-12T15:02:54,0,,active
6190721,29743759,,,Glenconner Place,,,,Glenconner Place,,Glencairn Road,,,,opp,,SW,ES000201,Ayr,,,AYR,,,,0,,234931,620691,,,BCT,MKD,OTH,,,,138,2003-08-27T00:00:00,2023-12-12T15:02:54,0,,active
6190722,29743849,,,Glenconner Place,,,,Glenconner Place,,Glencairn Road,,,,after,,NE,ES000201,Ayr,,,AYR,,,,0,,234947,620725,,,BCT,MKD,OTH,,,,138,2003-08-27T00:00:00,2023-12-12T15:02:54,0,,active
6190723,29743876,,,Prestwick Airport,,,,Prestwick Airport,,Younger Drive,,,,at,,SE,ES003088,Prestwick,,,PRESTWICK,,,,1,,235179,626966,,,BCT,CUS,OTH,,,,138,2003-08-27T00:00:00,2023-12-12T15:02:54,0,,inactive
6190724,29743958,,,Prestwick Airport,,,,Prestwick Airport,,Younger Drive,,,,at,,SE,ES003088,Prestwick,,,PRESTWICK,,,,1,,235148,626982,,,BCT,MKD,OTH,,,,138,2003-08-27T00:00:00,2023-12-12T15:02:54,0,,inactive
6190725,29745243,,,North Shore Road,,,,North Shore Road,,Walker Avenue,,,,opp,,SW,N0068003,Barassie,,,TROON,,,,1,,232546,632036,,,BCT,MKD,OTH,,,,138,2003-08-27T00:00:00,2023-12-12T15:02:54,0,,active
6190726,29736395,,,Station Road,,,,Station Road,,Dow Avenue,,,,Before,,NW,N0068161,Monkton,,,MONKTON,,,,0,,235121,628149,,,BCT,MKD,OTH,,,,138,2003-08-27T00:00:00,2023-12-12T15:02:54,0,,inactive
6190727,29753254,,,Station Road,,,,Station Road,,Dow Avenue,,,,Before,,SE,N0068161,Monkton,,,MONKTON,,,,0,,235118,628173,,,BCT,MKD,OTH,,,,138,2003-08-27T00:00:00,2023-12-12T15:02:54,0,,inactive
6190728,29725369,,,Shalloch Square,,,,Shalloch Square,,Mote Hill Road,,,,At,,N,ES001522,Girvan,,,GIRVAN,,,,0,,218887,597117,,,BCT,MKD,OTH,,,,138,2003-08-27T00:00:00,2023-12-12T15:02:54,0,,inactive
6190729,29753263,,,Malin Court,,,,Malin Court,,Turnberry Road,,,,after,,NE,ES002528,Maidens,,,MAIDENS,,,,0,,220991,607587,,,BCT,MKD,OTH,,,,138,2003-08-27T00:00:00,2023-12-12T15:02:54,0,,active
619073,29724538,,,Taybank Drive,,,,Taybank Drive,,Laughlanglen Road,,,,Opp,,NE,ES000201,Ayr,,,AYR,,,,0,,234549,619070,,,BCT,MKD,OTH,,,,138,2003-08-27T00:00:00,2023-12-12T15:02:54,0,,active
6190730,29725378,,,Fisherton Primary School,,,,Fisherton Primary School,,Ayr Road,,,,Opposite,,NE,N0072948,Fisherton,Dunure,,FISHERTON,,,,0,,226493,616690,,,BCT,MKD,OTH,,,,138,2003-08-27T00:00:00,2023-12-12T15:02:54,0,,active
6190731,29753268,,,Malin Court,,,,Malin Court,,Turnberry Road,,,,Opposite,,SW,ES002528,Maidens,,,MAIDENS,,,,0,,220993,607572,,,BCT,MKD,OTH,,,,138,2003-08-27T00:00:00,2023-12-12T15:02:54,0,,active
6190734,29725382,,,Telephone Exchange,,,,A714,,B734,,,,At,,E,N0068186,Pinwherry,,,PINWHERRY,,,,0,,219408,587350,,,BCT,MKD,OTH,,,,138,2003-08-27T00:00:00,2023-12-12T15:02:54,0,,active
6190735,29725349,,,Lochlea Avenue,,,,Lochlea Avenue,,Afton Gardens,,,,Before,,SE,ES003704,Troon,,,TROON,,,,0,,233760,631768,,,BCT,MKD,OTH,,,,138,2003-08-27T00:00:00,2023-12-12T15:02:54,0,,active
6190736,29725464,,,Garden Place,,,,Garden Place,,Templehill,,,,After,,NE,ES003704,Troon,,,TROON,,,,0,,231556,631053,,,BCT,MKD,OTH,,,,138,2003-08-27T00:00:00,2023-12-12T15:02:54,0,,active
6190737,29725429,,,Stonefield Park,,,,Stonefield Park,,Dunure Road,,,,After,,SW,N0072945,Doonfoot,Ayr,,AYR,,,,0,,232225,618643,,,BCT,MKD,OTH,,,,138,2003-08-27T00:00:00,2023-12-12T15:02:54,0,,active
6190738,29725687,,,Corsehill Road,,,,Corsehill Road,,Monument Road,,,,After,,N,ES000201,Ayr,,,AYR,,,,0,,233816,620364,,,BCT,MKD,OTH,,,,138,2003-08-27T00:00:00,2023-12-12T15:02:54,0,,active
6190739,29725748,,,Forest Way,,,,Forest Way,,Dalmellington Road,,,,Before,,SE,ES000201,Ayr,,,AYR,,,,0,,234931,620085,,,BCT,MKD,OTH,,,,138,2003-08-27T00:00:00,2023-12-12T15:02:54,0,,active
619074,29723859,,,Barnford Crescent,,,,Barnford Crescent,,The Loaning,,,,before,,NE,ES000073,Alloway,Ayr,,AYR,,,,0,,234318,618918,,,BCT,MKD,OTH,,,,138,2003-08-27T00:00:00,2023-12-12T15:02:54,0,,active
6190740,29725727,,,Kirkmichael Playing Fields,,,,Opp Kirkmichael Playing Fields,,Straiton Road,,,,Opp,,N,ES002203,Kirkmichael,,,KIRKMICHAEL,,,,0,,234204,608723,,,BCT,MKD,OTH,,,,138,2003-08-27T00:00:00,2023-12-12T15:02:54,0,,active
6190741,29725742,,,Chestnut Drive,,,,Chestnut Drive,,Piedmount Road,,,,Before,,NW,ES001522,Girvan,,,GIRVAN,,,,0,,218764,597068,,,BCT,MKD,OTH,,,,138,2003-08-27T00:00:00,2023-12-12T15:02:54,0,,active
6190742,29725869,,,Shanter Way,,,,Shanter Way,,Alloway,,,,After,,N,ES000073,Alloway,Ayr,,ALLOWAY,,,,0,,233244,618195,,,BCT,MKD,OTH,,,,138,2003-08-27T00:00:00,2023-12-12T15:02:54,0,,active
6190743,29726246,,,Murdoch's Lane,,,,Murdoch's Lane,,Alloway,,,,Before,,S,ES000073,Alloway,Ayr,,ALLOWAY,,,,0,,233246,618145,,,BCT,MKD,OTH,,,,138,2003-08-27T00:00:00,2023-12-12T15:02:54,0,,active
6190744,29726375,,,Wallace Terrace,,,,Wallace Terrace,,A714,,,,Opposite,,NW,N0068007,Barrhill,,,BARRHILL,,,,0,,223618,581997,,,BCT,MKD,OTH,,,,138,2003-08-27T00:00:00,2023-12-12T15:02:54,0,,active
6190745,29724963,,,Calder Avenue,,,,Calder Avenue,,Deveron Road,,,,after,,NW,N0068003,Barassie,,,TROON,,,,0,,233338,632772,,,BCT,MKD,OTH,,,,138,2003-08-27T00:00:00,2023-12-12T15:02:54,0,,active
6190746,29724935,,,Hadyard Terrace,,,,Hadyard Terrace,,Woodside,,,,opp,,N,ES000953,Dailly,,,DAILLY,,,,1,,226888,601209,,,BCT,MKD,OTH,,,,138,2003-08-27T00:00:00,2023-12-12T15:02:54,0,,active
6190747,29725235,,,Kirkmichael Arms,,,,Kirkmichael Arms,,Straiton Road,,,,opp,,NW,ES002203,Kirkmichael,,,KIRKMICHAEL,,,,1,,234063,608857,,,BCT,MKD,OTH,,,,138,2003-08-27T00:00:00,2023-12-12T15:02:54,0,,active
6190748,29723247,,,Bus Station,,,,Fullarton Street,,Sandgate,,,,in,,S,ES000201,Ayr,,,Ayr,,,,1,,233554,621850,,,BCS,CUS,OTH,,,,138,2003-08-27T00:00:00,2023-12-12T15:02:54,0,,active
6190749,29724896,,,Dalmilling Drive,,,,Dalmilling Drive,,Dalmilling Road,,,,Opp,,NE,N0079269,Dalmilling,Ayr,,AYR,,,,0,,235979,622694,,,BCT,MKD,OTH,,,,138,2003-08-27T00:00:00,2023-12-12T15:02:54,0,,inactive
619075,29724235,,,St Vincent Crescent,,,,St Vincent Crescent,,The Loaning,,,,At,,NE,ES000073,Alloway,Ayr,,AYR,,,,0,,234090,618670,,,BCT,MKD,OTH,,,,138,2003-08-27T00:00:00,2023-12-12T15:02:54,0,,active
6190750,29724897,,,Thornyflat Drive,,,,Thornyflat Drive,,Dalmilling Road,,,,Opp,,NE,N0079269,Dalmilling,Ayr,,AYR,,,,0,,236221,622843,,,BCT,MKD,OTH,,,,138,2003-08-27T00:00:00,2023-12-12T15:02:54,0,,inactive
6190751,29724898,,,Thornyflat Road,,,,Thronyflat Road,,Dalmilling Road,,,,Near,,N,N0079269,Dalmilling,Ayr,,AYR,,,,0,,236287,623012,,,BCT,MKD,OTH,,,,138,2003-08-27T00:00:00,2023-12-12T15:02:54,0,,inactive
6190752,29724923,,,Bellevue Road,,,,Bellevue Road,,Midton Road,,,,opp & after,,S,ES000201,Ayr,,,AYR,,,,0,,233763,620963,,,BCT,MKD,OTH,,,,138,2003-08-27T00:00:00,2023-12-12T15:02:54,0,,inactive
6190753,29724924,,,Dalmilling Crescent,,,,Dalmilling Crescent,,Dalmilling Road,,,,At,,SW,ES003863,Whitletts,Ayr,,AYR,,,,0,,235812,622658,,,BCT,CUS,OTH,,,,138,2003-08-27T00:00:00,2023-12-12T15:02:54,0,,inactive
6190754,29724925,,,Britannia Place,,,,Britannia Place,,McCall's Avenue,,,,Near,,NW,N0072969,Newton-On-Ayr,Ayr,,AYR,,,,0,,234567,622913,,,BCT,MKD,OTH,,,,138,2003-08-27T00:00:00,2023-12-12T15:02:54,0,,active
6190755,29724926,,,North Drive,,,,North Drive,,Afton Gardens,,,,before,,N,ES003704,Troon,,,TROON,,,,0,,233749,631770,,,BCT,MKD,OTH,,,,138,2003-08-27T00:00:00,2023-12-12T15:02:54,0,,active
6190756,29724942,,,Fullarton Street,,,,Fullarton Street,,Carrick Street,,,,opp,,SW,ES000201,Ayr,,,AYR,,,,0,,233724,621739,,,BCT,MKD,OTH,,,,138,2003-08-27T00:00:00,2023-12-12T15:02:54,0,,active
6190757,29725386,,,Turnberry Golf Course,,,,Turnberry Golf Course,,A719,,,,opp,,S,N0068234,Turnberry,,,TURNBERRY,,,,1,,220440,606158,,,BCT,MKD,OTH,,,,138,2003-08-27T00:00:00,2023-12-12T15:02:54,0,,active
6190758,29725387,,,Craigneil Road,,,,Craigneil Road,,Main Street,,,,after,,NE,ES000787,Colmonell,,,COLMONELL,,,,1,,214797,585972,,,BCT,MKD,OTH,,,,138,2003-08-27T00:00:00,2023-12-12T15:02:54,0,,active
6190759,29725389,,,Logan Drive,,,,Logan Drive,,Campbell Drive,,,,after,,NW,ES003704,Troon,,,TROON,,,,0,,232774,631974,,,BCT,MKD,OTH,,,,138,2003-08-27T00:00:00,2023-12-12T15:02:54,0,,active
619076,29724359,,,Burness Avenue,,,,Burness Avenue,,The Loaning,,,,Opp,,SW,ES000073,Alloway,Ayr,,AYR,,,,0,,233937,618480,,,BCT,MKD,OTH,,,,138,2003-08-27T00:00:00,2023-12-12T15:02:54,0,,active
6190760,29725392,,,Fraser Avenue,,,,Fraser Avenue,,Logan Drive,,,,after,,S,ES003704,Troon,,,TROON,,,,0,,232917,632028,,,BCT,MKD,OTH,,,,138,2003-08-27T00:00:00,2023-12-12T15:02:54,0,,active
6190761,29725393,,,Richard Place,,,,Richard Place,,Logan Drive,,,,after,,S,ES003704,Troon,,,TROON,,,,0,,232856,631849,,,BCT,MKD,OTH,,,,138,2003-08-27T00:00:00,2023-12-12T15:02:54,0,,active
6190762,29725394,,,Kenmore,,,,Kenmore,,Logan Drive,,,,opp,,N,ES003704,Troon,,,TROON,,,,0,,232835,631773,,,BCT,MKD,OTH,,,,138,2003-08-27T00:00:00,2023-12-12T15:02:54,0,,active
6190763,29725395,,,Marr Drive,,,,Marr Drive,,Logan Drive,,,,before,,S,ES003704,Troon,,,TROON,,,,0,,232826,631678,,,BCT,MKD,OTH,,,,138,2003-08-27T00:00:00,2023-12-12T15:02:54,0,,active
6190764,29725396,,,Marr Drive,,,,Marr Drive,,Logan Drive,,,,opp,,N,ES003704,Troon,,,TROON,,,,0,,232814,631652,,,BCT,MKD,OTH,,,,138,2003-08-27T00:00:00,2023-12-12T15:02:54,0,,active
6190765,29725397,,,Ailsa Hospital,,,,Ailsa Hospital,,Hospital Grounds,,,,at,,SW,ES000201,Ayr,,,AYR,,,,0,,235873,618626,,,BCT,MKD,OTH,,,,138,2003-08-27T00:00:00,2023-12-12T15:02:54,0,,active
6190766,29725398,,,Ayr Hospital,,,,Ayr Hospital,,Ayr Hospital Grounds,,,,at,,SW,ES000201,Ayr,,,AYR,,,,0,,235912,618314,,,BCT,MKD,OTH,,,,138,2003-08-27T00:00:00,2023-12-12T15:02:54,0,,active
6190767,29725423,,,Ayr Hospital Day Centre,,,,Ayr Hospital,,Ayr Hospital Grounds,,,,near,,SE,ES000201,Ayr,,,AYR,,,,0,,235960,618102,,,BCT,MKD,OTH,,,,138,2003-08-27T00:00:00,2023-12-12T15:02:54,0,,active
6190768,29724932,,,Heads of Ayr Farm Park,,,,Heads of Ayr Farm Park,,A719,,,,at,,E,N0072945,Doonfoot,Ayr,,AYR,,,,1,,229837,617957,,,BCT,MKD,OTH,,,,138,2003-08-27T00:00:00,2023-12-12T15:02:54,0,,active
6190769,29725424,,,Youth Centre,,,,Youth Centre,,A77,,,,at,,N,N0068142,Lendalfoot,,,LENDALFOOT,,,,1,,213115,589975,,,BCT,CUS,OTH,,,,138,2003-08-27T00:00:00,2023-12-12T15:02:54,0,,active
619077,29723263,,,Clochranhill Road,,,,Clochranhill Road,,Alloway,,,,Opp,,NE,ES000073,Alloway,Ayr,,AYR,,,,0,,233499,618617,,,BCT,MKD,OTH,,,,138,2003-08-27T00:00:00,2023-12-12T15:02:54,0,,active
6190770,29725425,,,Telephone Exchange,,,,Telephone Exchange,,A77,,,,at,,S,N0068142,Lendalfoot,,,LENDALFOOT,,,,1,,213135,589989,,,BCT,CUS,OTH,,,,138,2003-08-27T00:00:00,2023-12-12T15:02:54,0,,active
6190771,29725426,,,Barrhill Railway Station,,,,Railway Station,,Unnamed road,,,,at,,SE,N0068007,Barrhill,,,BARRHILL,,,,1,,222605,581613,,,BCT,MKD,OTH,,,,138,2003-08-27T00:00:00,2023-12-12T15:02:54,0,,inactive
6190773,29725427,,,Kilmarnock Road,,,,Kilmarnock Road,,A759,,,,before,,SE,N0068003,Barassie,,,BARASSIE,,,,1,,233774,633323,,,BCT,MKD,OTH,,,,138,2003-08-27T00:00:00,2023-12-12T15:02:54,0,,active
6190774,29725428,,,Stewart Road,,,,Stewart Road,,Hunters Avenue,,,,opp,,N,ES001742,Heathfield,Ayr,,AYR,,,,1,,234887,623833,,,BCT,MKD,OTH,,,,138,2003-08-27T00:00:00,2023-12-12T15:02:54,0,,active
6190775,29725432,,,Glebe Crescent,,,,Glebe Crescent,,Crosshill Road,,,,after,,SE,ES002566,Maybole,,,MAYBOLE,,,,0,,230327,609843,,,BCT,MKD,OTH,,,,138,2003-08-27T00:00:00,2023-12-12T15:02:54,0,,active
6190777,29724952,,,Redgates Caravan Park,,,,Redgates Caravan Park,,Kirkoswald Road,,,,opp,,W,ES002528,Maidens,,,MAIDENS,,,,0,,221739,607846,,,BCT,MKD,OTH,,,,138,2003-08-27T00:00:00,2023-12-12T15:02:54,0,,active
6190778,29724953,,,Craigie Road,,,,Craigie Road,,Craigie Way,,,,before,,W,ES000201,Ayr,,,AYR,,,,0,,234617,621872,,,BCT,MKD,OTH,,,,138,2003-08-27T00:00:00,2023-12-12T15:02:54,0,,active
619078,29723854,,,Doonholm Road,,,,Doonholm Road,,Alloway,,,,near,,SW,ES000073,Alloway,Ayr,,AYR,,,,1,,233466,618566,,,BCT,MKD,OTH,,,,138,2003-08-27T00:00:00,2023-12-12T15:02:54,0,,active
6190780,29725434,,,Harbour Road,,,,Harbour Road,,Turnberry Road,,,,opp & after,,SW,ES002528,Maidens,,,MAIDENS,,,,1,,221262,607916,,,BCT,MKD,OTH,,,,138,2003-08-27T00:00:00,2023-12-12T15:02:54,0,,active
6190782,29725487,,,Harbour view,,,,Harbour View,,Castle Road,,,,at,,N,N0068081,Dunure,,,DUNURE,,,,0,,225478,615972,,,BCT,CUS,OTH,,,,138,2003-08-27T00:00:00,2023-12-12T15:02:54,0,,active
6190783,29725463,,,Caravan Park,,,,Knowside,,A719,,,,opp,,N,N0072959,Knoweside,,,KNOWESIDE,,,,0,,225608,612729,,,BCT,CUS,OTH,,,,138,2003-08-27T00:00:00,2023-12-12T15:02:54,0,,inactive
6190784,29725454,,,Moor Park Place,,,,Forbes Drive,,East Road,,,,at,,N,ES001742,Heathfield,Ayr,,PRESTWICK,,,,0,,235337,623984,,,BCT,MKD,OTH,,,,138,2003-08-27T00:00:00,2023-12-12T15:02:54,0,,active
6190785,29725453,,,Stewart Road,,,,Stewart Road,,Hunters Avenue,,,,before,,S,ES001742,Heathfield,Ayr,,AYR,,,,0,,234903,623840,,,BCT,MKD,OTH,,,,138,2003-08-27T00:00:00,2023-12-12T15:02:54,0,,inactive
6190786,29785937,,,Barnford Crescent,,,,Barnford Crescent,,The Loaning,,,,opp,,SW,ES000073,Alloway,Ayr,,AYR,,,,1,,234295,618874,,,BCT,MKD,OTH,,,,138,2003-08-27T00:00:00,2023-12-12T15:02:54,0,,active
6190787,29796832,,,Burness Avenue,,,,Burness Avenue,,The Loaning,,,,after,,NE,ES000073,Alloway,Ayr,,AYR,,,,0,,233937,618506,,,BCT,MKD,OTH,,,,138,2003-08-27T00:00:00,2023-12-12T15:02:54,0,,active
6190788,29725475,,,Parks Garage,,,,Parks Garage,,Heathfield Road,,,,before,,NW,ES001742,Heathfield,Ayr,,AYR,,,,1,,235654,623637,,,BCT,MKD,OTH,,,,138,2003-08-27T00:00:00,2023-12-12T15:02:54,0,,active
6190789,29785927,,,Parks Garage,,,,Parks Garage,,Heathfield Road,,,,opp,,SE,ES001742,Heathfield,Ayr,,AYR,,,,1,,235685,623636,,,BCT,MKD,OTH,,,,138,2003-08-27T00:00:00,2023-12-12T15:02:54,0,,active
619079,29724342,,,Belleisle Golf Course,,,,Belleisle Golf course,,Monument Road,,,,At,,NE,ES000073,Alloway,Ayr,,AYR,,,,1,,233591,618955,,,BCT,MKD,OTH,,,,138,2003-08-27T00:00:00,2023-12-12T15:02:54,0,,active
6190790,29725486,,,Cornhill,,,,Cornhill,,Kincaidston Drive,,,,Opp,,NW,ES000201,Ayr,,,AYR,,,,0,,234887,619087,,,BCT,MKD,OTH,,,,138,2003-08-27T00:00:00,2023-12-12T15:02:54,0,,active
6190791,29725468,,,Hyslop Crescent,,,,Hyslop Crescent,,Main Street,,,,Opp,,NE,ES000787,Colmonell,,,COLMONELL,,,,0,,214962,586070,,,BCT,MKD,OTH,,,,138,2003-08-27T00:00:00,2023-12-12T15:02:54,0,,active
6190792,29725498,,,Ailsa Hospital East Entrance,,,,Ailsa Hospital,,Ailsa Hospital,,,,near,,NE,ES000201,Ayr,,,AYR,,,,1,,236231,618621,,,BCT,MKD,OTH,,,,138,2003-08-27T00:00:00,2023-12-12T15:02:54,0,,active
6190793,29785946,,,Brown Avenue,,,,Brown Avenue,,Logan Drive,,,,after,,N,ES003704,Troon,,,TROON,,,,0,,232791,631516,,,BCT,MKD,OTH,,,,138,2003-08-27T00:00:00,2023-12-12T15:02:54,0,,active
6190794,29725439,,,Brown Avenue,,,,Brown Avenue,,Logan Drive,,,,before,,S,ES003704,Troon,,,TROON,,,,1,,232802,631508,,,BCT,MKD,OTH,,,,138,2003-08-27T00:00:00,2023-12-12T15:02:54,0,,active
6190795,29725465,,,Cunningham Crescent,,,,Cunningham Crescent,,Caledonia Road,,,,opp,,NW,ES000201,Ayr,,,AYR,,,,0,,234897,620469,,,BCT,MKD,OTH,,,,138,2003-08-27T00:00:00,2023-12-12T15:02:54,0,,inactive
6190796,29725467,,,Ferguson Avenue,,,,Ferguson Avenue,,Outdale Avenue,,,,before,,N,ES003088,Prestwick,,,PRESTWICK,,,,0,,235952,625491,,,BCT,MKD,OTH,,,,138,2003-08-27T00:00:00,2023-12-12T15:02:54,0,,inactive
6190797,29725469,,,Dallas Place,,,,Dallda Place,,Bentinck Drive,,,,at,,SE,ES003704,Troon,,,TROON,,,,1,,232439,630737,,,BCT,MKD,OTH,,,,138,2003-08-27T00:00:00,2023-12-12T15:02:54,0,,active
6190798,29725484,,,Glenmuir Place,,,,Glenmuir Place,,James Brown Avenue,,,,before,,W,ES003863,Whitletts,Ayr,,AYR,,,,0,,235931,622962,,,BCT,CUS,OTH,,,,138,2003-08-27T00:00:00,2023-12-12T15:02:54,0,,active
6190799,29725458,,,Broun Drive,,,,Broun Drive,,Murdochs Lone,,,,before,,E,ES000201,Ayr,,,AYR,,,,0,,233321,618095,,,BCT,MKD,OTH,,,,138,2003-08-27T00:00:00,2023-12-12T15:02:54,0,,inactive
61908,29723487,,,Beagle Crescent,,,,Beagle Crescent,,Greenan Road,,,,before,,NW,N0072945,Doonfoot,Ayr,,AYR,,,,0,,232399,619184,,,BCT,MKD,OTH,,,,138,2003-08-27T00:00:00,2023-12-12T15:02:54,0,,active
619080,29723647,,,Belleisle Golf Course,,,,Belleisle Golf Course,,Monument Road,,,,Opp,,SW,ES003278,Seafield,Ayr,,AYR,,,,1,,233648,619145,,,BCT,MKD,OTH,,,,138,2003-08-27T00:00:00,2023-12-12T15:02:54,0,,active
6190800,29725462,,,Broun Drive,,,,Broun Drive,,Murdochs Lone,,,,opp,,W,ES000201,Ayr,,,AYR,,,,1,,233321,618086,,,BCT,MKD,OTH,,,,138,2003-08-27T00:00:00,2023-12-12T15:02:54,0,,inactive
6190801,29785947,,,Wood Park,,,,Wood Park,,Annfield Glen Road,,,,before,,S,ES000201,Ayr,,,AYR,,,,1,,234710,619814,,,BCT,MKD,OTH,,,,138,2003-08-27T00:00:00,2023-12-12T15:02:54,0,,active
6190802,29785893,,,Barns Road,,,,Barns Road,,Barns Terrace,,,,after,,SW,ES002566,Maybole,,,MAYBOLE,,,,1,,230134,610113,,,BCT,CUS,OTH,,,,138,2003-08-27T00:00:00,2023-12-12T15:02:54,0,,inactive
6190803,29786248,,,Churchill Crescent,,,,Churchill Crescent,,Hayhill Road,,,,After,,E,ES000201,Ayr,,,AYR,,,,0,,235520,621766,,,BCT,MKD,OTH,,,,138,2003-08-27T00:00:00,2023-12-12T15:02:54,0,,active
6190804,29786257,,,Craigie Way,,,,Craigie Way,,Hayhill road,,,,Before,,W,ES000201,Ayr,,,AYR,,,,0,,235521,621756,,,BCT,MKD,OTH,,,,138,2003-08-27T00:00:00,2023-12-12T15:02:54,0,,active
6190805,29786246,,,Mainholm Road,,,,Mainholm Road,,Dalmilling Road,,,,After,,E,N0079269,Dalmilling,Ayr,,AYR,,,,0,,235666,622637,,,BCT,MKD,OTH,,,,138,2003-08-27T00:00:00,2023-12-12T15:02:54,0,,inactive
6190806,29786284,,,Prestwick Airport Stop 1,,,,Prestwick Airport,,A79,,,,at,,S,ES003088,Prestwick,,,PRESTWICK,,,,0,,235055,627070,,,BCT,MKD,OTH,,,,138,2003-08-27T00:00:00,2023-12-12T15:02:54,0,,active
6190807,29786236,,,Prestwick Airport Stop 2,,,,Prestwick Airport,,A79,,,,at,,S,ES003088,Prestwick,,,PRESTWICK,,,,0,,235056,627063,,,BCT,MKD,OTH,,,,138,2003-08-27T00:00:00,2023-12-12T15:02:54,0,,active
6190808,29789829,,,Dutch House Caravan Park,,,,Dutch House Caravan Park,,Kilmarnock Rd,,,,opp,,NE,N0068161,Monkton,,,MONKTON,,,,0,,236381,628463,,,BCT,MKD,OTH,,,,138,2003-08-27T00:00:00,2023-12-12T15:02:54,0,,active
6190809,29785985,,,Muir Drive,,,,Muir Drive,,Walker Avenue,,,,Before,,N,N0068003,Barassie,,,TROON,,,,0,,232756,632418,,,BCT,MKD,OTH,,,,138,2003-08-27T00:00:00,2023-12-12T15:02:54,0,,active
619081,29723934,,,Rozelle House,,,,Rozelle House,,Monument Road,,,,Opp,,NE,ES003278,Seafield,Ayr,,AYR,,,,1,,233654,619206,,,BCT,MKD,OTH,,,,138,2003-08-27T00:00:00,2023-12-12T15:02:54,0,,active
6190810,29786296,,,Johnston Drive,,,,Johnston Drive,,Walker Avenue,,,,Before,,N,N0068003,Barassie,,,TROON,,,,0,,232799,632639,,,BCT,MKD,OTH,,,,138,2003-08-27T00:00:00,2023-12-12T15:02:54,0,,active
6190811,29785839,,,Barassiebank Lane,,,,Barassiebank Lane,,Johnston Drive,,,,Before,,W,N0068003,Barassie,,,TROON,,,,0,,232709,632679,,,BCT,MKD,OTH,,,,138,2003-08-27T00:00:00,2023-12-12T15:02:54,0,,active
6190812,29786376,,,Barassie Street,,,,Barassie Street,,St Meddans Street,,,,Before,,SW,N0068003,Barassie,,,TROON,,,,0,,232480,631007,,,BCT,CUS,OTH,,,,138,2003-08-27T00:00:00,2023-12-12T15:02:54,0,,active
6190813,29785975,,,Westward Way,,,,Westward Way,,Lang Road,,,,Before,,NW,N0068003,Barassie,,,TROON,,,,0,,233471,633167,,,BCT,HAR,OTH,,,,138,2003-08-27T00:00:00,2023-12-12T15:02:54,0,,active
6190814,29785929,,,Kilmarnock Road,,,,Kilmarnock Road,,Lang Road,,,,Before,,SE,N0068003,Barassie,,,TROON,,,,0,,233481,633171,,,BCT,HAR,OTH,,,,138,2003-08-27T00:00:00,2023-12-12T15:02:54,0,,active
6190815,29785952,,,Westward Way,,,,Westward Way,,Lang Road,,,,After,,NW,N0068003,Barassie,,,TROON,,,,0,,233442,633233,,,BCT,HAR,OTH,,,,138,2003-08-27T00:00:00,2023-12-12T15:02:54,0,,inactive
6190816,29785965,,,Lochgreen Avenue,,,,Lochgreen Avenue,,Lang Road,,,,After,,SE,N0068003,Barassie,,,TROON,,,,0,,233449,633238,,,BCT,HAR,OTH,,,,138,2003-08-27T00:00:00,2023-12-12T15:02:54,0,,active
6190817,29786345,,,Hillocks Place,,,,Hillocks Place,,Lang Road,,,,Before,,W,N0068003,Barassie,,,TROON,,,,0,,233331,633282,,,BCT,HAR,OTH,,,,138,2003-08-27T00:00:00,2023-12-12T15:02:54,0,,inactive
6190818,29786328,,,Lochgreen Avenue,,,,Lochgreen Avenue,,Lang Road,,,,Before,,NE,N0068003,Barassie,,,TROON,,,,0,,233394,633291,,,BCT,MKD,OTH,,,,138,2003-08-27T00:00:00,2023-12-12T15:02:54,0,,active
6190819,29786292,,,Corrie Place,,,,Corrie Place,,Westward Way,,,,After,,W,N0068003,Barassie,,,TROON,,,,0,,233371,633160,,,BCT,MKD,OTH,,,,138,2003-08-27T00:00:00,2023-12-12T15:02:54,0,,active
619082,29723754,,,Longbank Road,,,,Longbank Road,,Monument Road,,,,opp,,N,ES000201,Ayr,,,AYR,,,,1,,233780,619703,,,BCT,MKD,OTH,,,,138,2003-08-27T00:00:00,2023-12-12T15:02:54,0,,active
6190820,29785958,,,Corrie Place,,,,Corrie Place,,Westward Way,,,,Opp,,E,N0068003,Barassie,,,TROON,,,,0,,233368,633167,,,BCT,HAR,OTH,,,,138,2003-08-27T00:00:00,2023-12-12T15:02:54,0,,inactive
6190821,29786297,,,Greenan Way,,,,Greenan Way,,Greenan Road,,,,Before,,W,N0072945,Doonfoot,Ayr,,AYR,,,,0,,231880,619201,,,BCT,HAR,OTH,,,,138,2003-08-27T00:00:00,2023-12-12T15:02:54,0,,active
6190822,29786356,,,Earls Way,,,,Earls Way,,Greenan Road,,,,Before,,E,N0072945,Doonfoot,Ayr,,AYR,,,,0,,231876,619210,,,BCT,HAR,OTH,,,,138,2003-08-27T00:00:00,2023-12-12T15:02:54,0,,active
6190823,29786274,,,Castle Square,,,,Castle Square,,Greenan Way,,,,After,,N,N0072945,Doonfoot,Ayr,,AYR,,,,0,,231740,619019,,,BCT,HAR,OTH,,,,138,2003-08-27T00:00:00,2023-12-12T15:02:54,0,,active
6190824,29785758,,,Greenan Grove,,,,Greenan Grove,,Greenan Way,,,,After,,S,N0072945,Doonfoot,Ayr,,AYR,,,,0,,231747,619020,,,BCT,HAR,OTH,,,,138,2003-08-27T00:00:00,2023-12-12T15:02:54,0,,active
6190825,29787274,,,Ailsa View,,,,Earls Way,,Dunure Road,,,,Before,,W,N0072945,Doonfoot,Ayr,,AYR,,,,0,,231827,618573,,,BCT,MKD,OTH,,,,138,2003-08-27T00:00:00,2023-12-12T15:02:54,0,,active
6190826,29789349,,,Longhill Avenue,,,,Longhill Avenue,,Dunure Road,,,,After,,W,N0072945,Doonfoot,Ayr,,AYR,,,,0,,231816,618564,,,BCT,MKD,OTH,,,,138,2003-08-27T00:00:00,2023-12-12T15:02:54,0,,active
6190827,29785679,,,Crossburn,,,,Crossburn,,Browncarrick Drive,,,,After,,E,N0072945,Doonfoot,Ayr,,AYR,,,,0,,231747,618510,,,BCT,HAR,OTH,,,,138,2003-08-27T00:00:00,2023-12-12T15:02:54,0,,active
6190828,29785895,,,Crossburn,,,,Crossburn,,Browncarrick Drive,,,,Before,,W,N0072945,Doonfoot,Ayr,,AYR,,,,0,,231753,618502,,,BCT,MKD,OTH,,,,138,2003-08-27T00:00:00,2023-12-12T15:02:54,0,,active
6190829,29786363,,,Browncarrick,,,,Browncarrick Drive,,Crossburn,,,,Before,,NW,N0072945,Doonfoot,Ayr,,AYR,,,,0,,231723,618417,,,BCT,MKD,OTH,,,,138,2003-08-27T00:00:00,2023-12-12T15:02:54,0,,active
619083,29723567,,,Forest Way,,,,House no 28,,Dalmellington Road,,,,opp and after,,SE,ES000201,Ayr,,,AYR,,,,0,,234912,620089,,,BCT,MKD,OTH,,,,138,2003-08-27T00:00:00,2023-12-12T15:02:54,0,,active
6190830,29786572,,,Browncarrick Drive,,,,Browncarrick Drive,,Crossburn,,,,after,,SE,N0072945,Doonfoot,Ayr,,AYR,,,,0,,231730,618422,,,BCT,MKD,OTH,,,,138,2003-08-27T00:00:00,2023-12-12T15:02:54,0,,active
6190831,29786527,,,Cairnsmore Drive,,,,Cairnsmore Drive,,Newark Crescent,,,,Before,,SE,N0072945,Doonfoot,Ayr,,AYR,,,,0,,231941,618432,,,BCT,MKD,OTH,,,,138,2003-08-27T00:00:00,2023-12-12T15:02:54,0,,active
6190832,29786347,,,Cairnsmore Drive,,,,Cairnsmore Drive,,Newark Crescent,,,,opp & after,,NW,N0072945,Doonfoot,Ayr,,AYR,,,,0,,231936,618425,,,BCT,MKD,OTH,,,,138,2003-08-27T00:00:00,2023-12-12T15:02:54,0,,active
6190833,29787273,,,Longhill Avenue,,,,Longhill Avenue,,Cairnsmore Drive,,,,Before,,NE,N0072945,Doonfoot,Ayr,,AYR,,,,0,,232095,618415,,,BCT,MKD,OTH,,,,138,2003-08-27T00:00:00,2023-12-12T15:02:54,0,,active
6190834,29785654,,,Newark Crescent,,,,Newark Crescent,,Cairnsmore Drive,,,,Before,,SW,N0072945,Doonfoot,Ayr,,AYR,,,,0,,232103,618410,,,BCT,MKD,OTH,,,,138,2003-08-27T00:00:00,2023-12-12T15:02:54,0,,active
6190835,29785638,,,Kilbrandon Crescent,,,,Kilbrandon Crescent,,Abbots Way,,,,At,,W,N0072945,Doonfoot,Ayr,,AYR,,,,0,,231903,618990,,,BCT,HAR,OTH,,,,138,2003-08-27T00:00:00,2023-12-12T15:02:54,0,,active
6190836,29785824,,,Kilbrandon Crescent,,,,Kilbrandon Crescent,,Abbots Way,,,,Opp,,E,N0072945,Doonfoot,Ayr,,AYR,,,,0,,231901,619000,,,BCT,HAR,OTH,,,,138,2003-08-27T00:00:00,2023-12-12T15:02:54,0,,active
6190837,29789365,,,Sloan Street,,,,Sloan Street,,Ferguson Street,,,,After,,W,ES003863,Whitletts,Ayr,,AYR,,,,0,,235512,623033,,,BCT,CUS,OTH,,,,138,2003-08-27T00:00:00,2023-12-12T15:02:54,0,,active
6190838,29789325,,,Lindsay Street,,,,Lindsay Street,,Ferguson Street,,,,After,,W,ES003863,Whitletts,Ayr,,AYR,,,,0,,235333,623003,,,BCT,CUS,OTH,,,,138,2003-08-27T00:00:00,2023-12-12T15:02:54,0,,inactive
6190839,29789346,,,Gould Street,,,,Gould Street,,Galloway Avenue,,,,Before,,SE,ES003863,Whitletts,Ayr,,AYR,,,,0,,235240,622947,,,BCT,CUS,OTH,,,,138,2003-08-27T00:00:00,2023-12-12T15:02:54,0,,active
619084,29723532,,,Peggieshill Road,,,,Peggieshill Road,,Dalmellington Road,,,,Opp,,SE,ES000201,Ayr,,,AYR,,,,0,,235068,619904,,,BCT,MKD,OTH,,,,138,2003-08-27T00:00:00,2023-12-12T15:02:54,0,,active
6190840,29789849,,,Ayr Railway Station,,,,Ayr Railway Station,,Station Road,,,,At,,N,ES000201,Ayr,,,AYR,,,,0,,234086,621388,,,BCT,CUS,OTH,,,,138,2003-08-27T00:00:00,2023-12-12T15:02:54,0,,active
6190841,29789824,,,Craig Tara Holiday Park,,,,Craig Tara Holiday Park,,A719 Dunure Road,,,,In,,N,N0072945,Doonfoot,Ayr,,AYR,,,,0,,230022,618312,,,BCT,CUS,OTH,,,,138,2003-08-27T00:00:00,2023-12-12T15:02:54,0,,active
6190842,29792359,,,Broadwood Park,,,,Broadwood Park,,Merkland Road,,,,Before,,SE,ES000073,Alloway,Ayr,,AYR,,,,0,,234376,618592,,,BCT,HAR,OTH,,,,138,2003-08-27T00:00:00,2023-12-12T15:02:54,0,,inactive
6190843,29792385,,,Bathurst Drive,,,,Bathurst Drive,,Kersepark,,,,Before,,SW,ES000073,Alloway,Ayr,,AYR,,,,0,,234503,618338,,,BCT,HAR,OTH,,,,138,2003-08-27T00:00:00,2023-12-12T15:02:54,0,,inactive
6190844,29792529,,,Broadwood Park,,,,Broadwood Park,,Bathurst Drive,,,,Opp,,NW,ES000073,Alloway,Ayr,,AYR,,,,0,,234183,618369,,,BCT,HAR,OTH,,,,138,2003-08-27T00:00:00,2023-12-12T15:02:54,0,,inactive
6190845,29792658,,,Old Bridge Road,,,,Old Bridge Road,,Low Road,,,,Before,,N,ES003863,Whitletts,Ayr,,AYR,,,,0,,236336,623276,,,BCT,HAR,OTH,,,,138,2003-08-27T00:00:00,2023-12-12T15:02:54,0,,active
6190846,29792462,,,Heathfield Road,,,,Heathfield Road,,Low Road,,,,After,,S,ES003863,Whitletts,Ayr,,AYR,,,,0,,236351,623273,,,BCT,HAR,OTH,,,,138,2003-08-27T00:00:00,2023-12-12T15:02:54,0,,active
6190847,29792395,,,Belmont Avenue,,,,Belmont Avenue,,Belmont Road,,,,After,,SW,ES000201,Ayr,,,AYR,,,,0,,234326,619976,,,BCT,CUS,OTH,,,,138,2003-08-27T00:00:00,2023-12-12T15:02:54,0,,active
6190848,29792438,,,Belmont Avenue,,,,Belmont Avenue,,Belmont Road,,,,Before,,SW,ES000201,Ayr,,,AYR,,,,0,,234393,620035,,,BCT,CUS,OTH,,,,138,2003-08-27T00:00:00,2023-12-12T15:02:54,0,,active
6190849,29789598,,,Asda Superstore,,,,Asda Superstore,,Liberator Drive,,,,At,,NE,ES001742,Heathfield,Ayr,,AYR,,,,0,,236083,623772,,,BCT,MKD,OTH,,,,138,2003-08-27T00:00:00,2023-12-12T15:02:54,0,,active
619085,29723674,,,Burnbank Place,,,,Burnbank Place,,Burnbank Road,,,,Near,,SE,ES000201,Ayr,,,AYR,,,,0,,234828,619667,,,BCT,MKD,OTH,,,,138,2003-08-27T00:00:00,2023-12-12T15:02:54,0,,active
6190850,29789826,,,Glenalla Road,,,,Glenalla Road,,Enoch Road,,,,at,,E,ES002566,Maybole,,,MAYBOLE,,,,0,,229555,610386,,,BCT,MKD,OTH,,,,138,2003-08-27T00:00:00,2023-12-12T15:02:54,0,,active
6190851,29789863,,,Cargill Road,,,,Cargill Road,,Gardenrose Path,,,,after,,NW,ES002566,Maybole,,,MAYBOLE,,,,0,,229815,610200,,,BCT,MKD,OTH,,,,138,2003-08-27T00:00:00,2023-12-12T15:02:54,0,,active
6190852,29789878,,,Cargill Road,,,,Cargill Road,,Gardenrose Path,,,,before,,SE,ES002566,Maybole,,,MAYBOLE,,,,0,,229835,610201,,,BCT,MKD,OTH,,,,138,2003-08-27T00:00:00,2023-12-12T15:02:54,0,,active
6190853,29792343,,,Mount Charles Crescent,,,,Mount Charles Crescent,,Greenfield Avenue,,,,opp,,SE,ES000201,Ayr,,,AYR,,,,0,,232837,618996,,,BCT,MKD,OTH,,,,138,2003-08-27T00:00:00,2023-12-12T15:02:54,0,,active
6190854,29792372,,,Wrightfield Place,,,,Wrightfield Place,,Greenfield Avenue,,,,before,,SE,ES000201,Ayr,,,AYR,,,,0,,233284,618613,,,BCT,MKD,OTH,,,,138,2003-08-27T00:00:00,2023-12-12T15:02:54,0,,active
6190855,29789583,,,Kyle Academy,,,,Kyle Academy,,Overmills Road,,,,At,,E,ES001777,Holmston,Ayr,,AYR,,,,0,,235753,621150,,,BCT,CUS,OTH,,,,138,2003-08-27T00:00:00,2023-12-12T15:02:54,0,,active
6190857,29724934,,,Grangeston Industrial Estate,,,,Grangeston Industrial Estate,,Ladywell Avenue,,,,at,,E,ES001522,Girvan,,,GIRVAN,,,,0,,220246,600194,,,BCT,MKD,OTH,,,,138,2003-08-27T00:00:00,2023-12-12T15:02:54,0,,inactive
6190858,29725232,,,Craigie Way,,,,Morrison Gardens,,James Campbell Road,,,,after,,N,ES000201,Ayr,,,AYR,,,,0,,234787,621762,,,BCT,MKD,OTH,,,,138,2003-08-27T00:00:00,2023-12-12T15:02:54,0,,active
6190859,29724929,,,Ladywell Avenue,,,,Grangeston Industrial Estate,,B741,,,,after,,NE,ES001522,Girvan,,,GIRVAN,,,,0,,220705,599986,,,BCT,MKD,OTH,,,,138,2003-08-27T00:00:00,2023-12-12T15:02:54,0,,active
619086,29723243,,,Anderson Crescent,,,,Anderson Crescent,,Annfield Glen Road,,,,after,,N,ES000201,Ayr,,,AYR,,,,0,,234702,619755,,,BCT,MKD,OTH,,,,138,2003-08-27T00:00:00,2023-12-12T15:02:54,0,,active
6190860,2972496,,,Belmont Road,,,,Belmont Road,,Fenwickland Avenue,,,,Before,,NW,ES000201,Ayr,,,AYR,,,,0,,234341,619823,,,BCT,MKD,OTH,,,,138,2003-08-27T00:00:00,2023-12-12T15:02:54,0,,active
6190861,29725368,,,Belmont Road,,,,Belmont Road,,Fenwickland Avenue,,,,After,,SE,ES000201,Ayr,,,AYR,,,,0,,234349,619826,,,BCT,MKD,OTH,,,,138,2003-08-27T00:00:00,2023-12-12T15:02:54,0,,active
6190862,29725479,,,Burnbank Road,,,,Burnbank Road,,Fenwickland Avenue,,,,After,,NW,ES000201,Ayr,,,AYR,,,,0,,234466,619648,,,BCT,HAR,OTH,,,,138,2003-08-27T00:00:00,2023-12-12T15:02:54,0,,active
6190863,29725495,,,Burnbank Road,,,,Burnbank Road,,Fenwickland Avenue,,,,Before,,SE,ES000201,Ayr,,,AYR,,,,0,,234472,619654,,,BCT,HAR,OTH,,,,138,2003-08-27T00:00:00,2023-12-12T15:02:54,0,,active
6190864,29725372,,,Annfield Glen Road,,,,Annfield Glen Road,,Burnbank Road,,,,After,,SW,ES000201,Ayr,,,AYR,,,,0,,234622,619630,,,BCT,HAR,OTH,,,,138,2003-08-27T00:00:00,2023-12-12T15:02:54,0,,active
6190865,29725379,,,Annfield Glen Road,,,,Annfield Glen Road,,Burnbank Road,,,,Before,,NE,ES000201,Ayr,,,AYR,,,,0,,234614,619639,,,BCT,HAR,OTH,,,,138,2003-08-27T00:00:00,2023-12-12T15:02:54,0,,active
6190866,29726263,,,Douglas Brown Place,,,,Bowling Green,,Hole Road,,,,opp,,N,ES000824,Coylton,,,COYLTON,,,,0,,240850,619464,,,BCT,HAR,OTH,,,,138,2003-08-27T00:00:00,2023-12-12T15:02:54,0,,inactive
6190867,29725826,,,Douglas Brown Place,,,,Bowling Green,,Hole Road,,,,after,,N,ES000824,Coylton,,,COYLTON,,,,0,,240857,619464,,,BCT,HAR,OTH,,,,138,2003-08-27T00:00:00,2023-12-12T15:02:54,0,,inactive
6190868,29726283,,,Whitletts Road,,,,Ayr Racecourse,,Ayr Racecourse,,,,before,,W,ES000201,Ayr,,,AYR,,,,0,,234922,622443,,,BCT,CUS,OTH,,,,138,2003-08-27T00:00:00,2023-12-12T15:02:54,0,,active
6190869,29726253,,,Whitletts Road,,,,Ayr Racecourse,,Ayr Racecourse,,,,after,,SW,ES000201,Ayr,,,AYR,,,,0,,235159,622492,,,BCT,CUS,OTH,,,,138,2003-08-27T00:00:00,2023-12-12T15:02:54,0,,inactive
619087,29723437,,,Annfield Glen Road,,,,Annfield Glen Road,,Peggieshill Road,,,,near,,SW,ES000201,Ayr,,,AYR,,,,0,,234630,619977,,,BCT,MKD,OTH,,,,138,2003-08-27T00:00:00,2023-12-12T15:02:54,0,,active
6190870,29725874,,,Abbots Way,,,,Abbots Way,,Scaur O Doon Road,,,,Before,,NW,N0072945,Doonfoot,Ayr,,AYR,,,,0,,232472,618993,,,BCT,CUS,OTH,,,,138,2003-08-27T00:00:00,2023-12-12T15:02:54,0,,active
6190871,29726254,,,Belleisle Cottages,,,,Dunure Road,,Greenfield Avenue,,,,at,,NW,N0072945,Doonfoot,Ayr,,AYR,,,,0,,232708,619069,,,BCT,CUS,OTH,,,,138,2003-08-27T00:00:00,2023-12-12T15:02:54,0,,active
6190872,29726262,,,Girvan Academy,,,,Girvan Academy,,The Avenue,,,,At,,SE,ES001522,Girvan,,,GIRVAN,,,,0,,219182,597697,,,BCT,CUS,OTH,,,,138,2003-08-27T00:00:00,2023-12-12T15:02:54,0,,active
6190873,29726247,,,Kirkoswald Road,,,,Kirkoswald Road,,Maidens Road,,,,Before,,S,N0068234,Turnberry,,,TURNBERRY,,,,0,,220242,605438,,,BCT,MKD,OTH,,,,138,2003-08-27T00:00:00,2023-12-12T15:02:54,0,,active
6190874,29726743,,,A77,,,,Doonholm Farm,,Doonholm Road,,,,Before,,E,ES000073,Alloway,Ayr,,ALLOWAY,,,,0,,234331,617783,,,BCT,MKD,OTH,,,,138,2003-08-27T00:00:00,2023-12-12T15:02:54,0,,active
6190875,29726594,,,Lamford Drive,,,,Lamford Drive,,Craigstewart Crescent,,,,After,,SE,N0072945,Doonfoot,Ayr,,AYR,,,,0,,232394,618151,,,BCT,CUS,OTH,,,,138,2003-08-27T00:00:00,2023-12-12T15:02:54,0,,active
6190876,29726764,,,Cairnsmore Drive,,,,Cairnsmore Drive,,Longhill Avenue,,,,After,,N,N0072945,Doonfoot,Ayr,,AYR,,,,0,,232188,618487,,,BCT,CUS,OTH,,,,138,2003-08-27T00:00:00,2023-12-12T15:02:54,0,,active
6190877,29726829,,,Dunure Road,,,,Dunure Road,,Earls Way,,,,Before,,S,N0072945,Doonfoot,Ayr,,AYR,,,,0,,232154,618648,,,BCT,CUS,OTH,,,,138,2003-08-27T00:00:00,2023-12-12T15:02:54,0,,active
6190878,29726936,,,Road to Tormitchell,,,,Road to Tormitchell,,A714 Southbound,,,,At,,S,N0068185,Pinmore,,,PINMORE,,,,0,,220267,591974,,,BCT,CUS,OTH,,,,138,2003-08-27T00:00:00,2023-12-12T15:02:54,0,,active
6190879,29726896,,,Doonholm Farm,,,,A77,,Doonholm Road,,,,At,,W,ES000073,Alloway,Ayr,,ALLOWAY,,,,0,,234330,617771,,,BCT,MKD,OTH,,,,138,2003-08-27T00:00:00,2023-12-12T15:02:54,0,,active
619088,29723862,,,Nursery Grove,,,,Nursery Grove,,Nursery Road,,,,near,,SE,ES000201,Ayr,,,AYR,,,,0,,234624,620127,,,BCT,MKD,OTH,,,,138,2003-08-27T00:00:00,2023-12-12T15:02:54,0,,active
6190880,29726963,,,Culroy Bridge,,,,Burnhouse,,B7024,,,,After,,NE,N0068066,Culroy,,,CULROY,,,,0,,231657,614466,,,BCT,CUS,OTH,,,,138,2003-08-27T00:00:00,2023-12-12T15:02:54,0,,inactive
6190881,29726954,,,A719,,,,Pennyglen,,B7023,,,,After,,E,ES002566,Maybole,,,PENNYGLEN,,,,0,,226996,610826,,,BCT,CUS,OTH,,,,138,2003-08-27T00:00:00,2023-12-12T15:02:54,0,,active
6190882,29726965,,,A719,,,,Pennyglen,,B7023,,,,Opp,,W,ES002566,Maybole,,,PENNYGLEN,,,,0,,226997,610818,,,BCT,CUS,OTH,,,,138,2003-08-27T00:00:00,2023-12-12T15:02:54,0,,active
6190883,29726962,,,Clarendon Place,,,,Clarendon Place,,Caledonia Road,,,,before,,W,ES000201,Ayr,,,AYR,,,,0,,235155,620494,,,BCT,MKD,OTH,,,,138,2003-08-27T00:00:00,2023-12-12T15:02:54,0,,inactive
6190884,29726924,,,Ellisland Square,,,,Ellisland Square,,Caledonia Road,,,,at,,NW,ES000201,Ayr,,,AYR,,,,0,,234793,620558,,,BCT,MKD,OTH,,,,138,2003-08-27T00:00:00,2023-12-12T15:02:54,0,,active
6190885,29726925,,,Meadow Park,,,,Meadow Park,,Belmont Road,,,,before,,NE,ES000201,Ayr,,,AYR,,,,0,,234479,620108,,,BCT,MKD,OTH,,,,138,2003-08-27T00:00:00,2023-12-12T15:02:54,0,,active
6190886,29726926,,,Nursery road,,,,Nursery Road,,Peggieshill Road,,,,after,,E,ES000201,Ayr,,,AYR,,,,0,,234738,620054,,,BCT,MKD,OTH,,,,138,2003-08-27T00:00:00,2023-12-12T15:02:54,0,,inactive
6190887,29726927,,,Dalmellington Road,,,,Dalmellington road,,Peggieshill Road,,,,before,,E,ES000201,Ayr,,,AYR,,,,0,,235005,619945,,,BCT,MKD,OTH,,,,138,2003-08-27T00:00:00,2023-12-12T15:02:54,0,,inactive
6190888,29726928,,,Anderson Crescent,,,,Anderson Crescent,,Peggieshill Road,,,,before,,S,ES000201,Ayr,,,AYR,,,,0,,234539,619862,,,BCT,MKD,OTH,,,,138,2003-08-27T00:00:00,2023-12-12T15:02:54,0,,active
6190889,29726929,,,Sanquhar Avenue,,,,Sanquhar Avenue,,Indale Road,,,,before,,E,ES003088,Prestwick,,,PRESTWICK,,,,0,,235963,625300,,,BCT,MKD,OTH,,,,138,2003-08-27T00:00:00,2023-12-12T15:02:54,0,,active
619089,29723679,,,Birch Road,,,,Birch Road,,Dalmellington Road,,,,before,,SE,ES000201,Ayr,,,AYR,,,,0,,235226,619697,,,BCT,MKD,OTH,,,,138,2003-08-27T00:00:00,2023-12-12T15:02:54,0,,active
6190890,29726932,,,Raith Avenue,,,,Raith Avenue,,Indale Road,,,,before,,E,ES003088,Prestwick,,,PRESTWICK,,,,0,,236160,625365,,,BCT,MKD,OTH,,,,138,2003-08-27T00:00:00,2023-12-12T15:02:54,0,,active
6190891,29726934,,,Sanquhar Avenue,,,,Sanquhar Avenue,,Marchburn Avenue,,,,after,,NW,ES003088,Prestwick,,,PRESTWICK,,,,0,,236055,625618,,,BCT,MKD,OTH,,,,138,2003-08-27T00:00:00,2023-12-12T15:02:54,0,,active
6190892,29726935,,,Adamton Road,,,,Adamton Road,,Marchburn Road,,,,before,,NW,ES003088,Prestwick,,,PRESTWICK,,,,0,,235920,625770,,,BCT,MKD,OTH,,,,138,2003-08-27T00:00:00,2023-12-12T15:02:54,0,,active
6190893,29726937,,,Outdale Avenue,,,,Outdale Avenue,,St Quivox Road,,,,before,,SE,ES003088,Prestwick,,,PRESTWICK,,,,0,,235808,625439,,,BCT,MKD,OTH,,,,138,2003-08-27T00:00:00,2023-12-12T15:02:54,0,,active
6190894,29726938,,,Outdale Avenue,,,,Outdale Avenue,,St Quinox Road,,,,after,,NW,ES003088,Prestwick,,,PRESTWICK,,,,0,,235800,625422,,,BCT,MKD,OTH,,,,138,2003-08-27T00:00:00,2023-12-12T15:02:54,0,,active
6190895,29727298,,,Rail Station,,,,Rail Station,,Vicarton Street,,,,opp,,NE,ES001522,Girvan,,,GIRVAN,,,,0,,218960,598467,,,BCT,MKD,OTH,,,,138,2003-08-27T00:00:00,2023-12-12T15:02:54,0,,active
6190896,29725786,,,Rail Station,,,,Rail Station,,Vicarton Street,,,,at,,SW,ES001522,Girvan,,,GIRVAN,,,,0,,218975,598457,,,BCT,MKD,OTH,,,,138,2003-08-27T00:00:00,2023-12-12T15:02:54,0,,active
6190897,29726976,,,Maidens Road,,,,Maidens Road,,Kirkoswald Road,,,,after,,NE,N0068234,Turnberry,,,TURNBERRY,,,,0,,220382,605447,,,BCT,HAR,OTH,,,,138,2003-08-27T00:00:00,2023-12-12T15:02:54,0,,active
6190898,29726898,,,Girvan Road,,,,Girvan Road,,Kirkoswald Road,,,,before,,SW,N0068234,Turnberry,,,TURNBERRY,,,,0,,220385,605438,,,BCT,HAR,OTH,,,,138,2003-08-27T00:00:00,2023-12-12T15:02:54,0,,active
6190899,29726952,,,Woodend Road,,,,Woodend Road,,The Loaning,,,,opp,,NE,ES000201,Ayr,,,AYR,,,,0,,233786,618354,,,BCT,MKD,OTH,,,,138,2003-08-27T00:00:00,2023-12-12T15:02:54,0,,active
61909,29724525,,,Earls Way,,,,Earls Way,,Greenan Road,,,,before,,W,N0072945,Doonfoot,Ayr,,AYR,,,,0,,232081,619235,,,BCT,MKD,OTH,,,,138,2003-08-27T00:00:00,2023-12-12T15:02:54,0,,active
619090,29723987,,,Cornhill,,,,Cornhill,,Kincaidston Drive,,,,At,,SE,ES000201,Ayr,,,AYR,,,,0,,234890,619103,,,BCT,MKD,OTH,,,,138,2003-08-27T00:00:00,2023-12-12T15:02:54,0,,active
6190900,29726953,,,Woodend Road,,,,Woodend Road,,The Loaning,,,,before,,SW,ES000201,Ayr,,,AYR,,,,0,,233781,618331,,,BCT,MKD,OTH,,,,138,2003-08-27T00:00:00,2023-12-12T15:02:54,0,,active
6190901,29726956,,,The Loaning,,,,The Loaning,,Doonholm Road,,,,after,,SE,ES000201,Ayr,,,AYR,,,,0,,233791,618189,,,BCT,MKD,OTH,,,,138,2003-08-27T00:00:00,2023-12-12T15:02:54,0,,active
6190902,29726957,,,The Loaning,,,,No 20,,Doonholm Road,,,,opp and before,,NW,ES000201,Ayr,,,AYR,,,,0,,233778,618183,,,BCT,CUS,OTH,,,,138,2003-08-27T00:00:00,2023-12-12T15:02:54,0,,active
6190903,29727234,,,Hospital,,,,Main Building,,Girvan Hospital Grounds,,,,at,,NE,ES001522,Girvan,,,GIRVAN,,,,0,,219174,598644,,,BCT,MKD,OTH,,,,138,2003-08-27T00:00:00,2023-12-12T15:02:54,0,,active
6190904,29725862,,,Esk Place,,,,Esk Place,,Deveron Road,,,,before,,NE,ES003704,Troon,,,TROON,,,,0,,233487,632178,,,BCT,CUS,OTH,,,,138,2003-08-27T00:00:00,2023-12-12T15:02:54,0,,active
6190905,29725983,,,Teviot Place,,,,Teviot Place,,Deveron Road,,,,after,,N,ES003704,Troon,,,TROON,,,,0,,233545,631911,,,BCT,MKD,OTH,,,,138,2003-08-27T00:00:00,2023-12-12T15:02:54,0,,active
6190906,29795964,,,Waterloo Road,,,,Waterloo Road,,Ayr Road,,,,before,,S,ES003088,Prestwick,,,PRESTWICK,,,,0,,234720,624583,,,BCT,MKD,OTH,,,,138,2003-08-27T00:00:00,2023-12-12T15:02:54,0,,active
6190907,29796239,,,Holmston Crescent,,,,Holmston Crescent,,Holmston Street,,,,before,,E,ES000201,Ayr,,,AYR,,,,0,,235316,621104,,,BCT,MKD,OTH,,,,138,2003-08-27T00:00:00,2023-12-12T15:02:54,0,,active
6190908,29796238,,,Douglas Street,,,,Fullarton Street,,Douglas Street,,,,Stop A,,SW,ES000201,Ayr,,,AYR,,,,0,,233597,621797,,,BCT,MKD,OTH,,,,138,2003-08-27T00:00:00,2023-12-12T15:02:54,0,,active
6190909,29795963,,,Dow Avenue,,,,Dow Avenue,,Station Rd,,,,before,,SE,N0068161,Monkton,,,MONKTON,,,,0,,234916,628115,,,BCT,MKD,OTH,,,,138,2003-08-27T00:00:00,2023-12-12T15:02:54,0,,active
619091,29723479,,,Sorrel Drive,,,,House no 58,,Kincaidston Drive,,,,opp and after,,SW,ES000201,Ayr,,,AYR,,,,0,,235206,619059,,,BCT,MKD,OTH,,,,138,2003-08-27T00:00:00,2023-12-12T15:02:54,0,,active
6190910,29795965,,,Dow Avenue,,,,Dow Avenue,,Station Road,,,,opp,,NW,N0068161,Monkton,,,MONKTON,,,,0,,234997,628056,,,BCT,MKD,OTH,,,,138,2003-08-27T00:00:00,2023-12-12T15:02:54,0,,active
6190911,29795984,,,Dutch House Caravan Park,,,,Dutch House Caravan Park,,Kilmarnock Road,,,,at,,SW,N0068161,Monkton,,,MONKTON,,,,0,,236383,628440,,,BCT,MKD,OTH,,,,138,2003-08-27T00:00:00,2023-12-12T15:02:54,0,,active
6190912,29795985,,,Dutch House Roundabout,,,,Dutch House Roundabout,,Kilmarnock Road,,,,before,,NE,N0068161,Monkton,,,MONKTON,,,,0,,236535,628642,,,BCT,MKD,OTH,,,,138,2003-08-27T00:00:00,2023-12-12T15:02:54,0,,active
6190913,29795986,,,Dutch House Roundabout,,,,Kilmarnock Road,,Kilmarnock Road,,,,after,,SW,N0068161,Monkton,,,MONKTON,,,,0,,236552,628630,,,BCT,MKD,OTH,,,,138,2003-08-27T00:00:00,2023-12-12T15:02:54,0,,active
6190914,29796237,,,Douglas Street,,,,Bus Station,,Douglas Street,,,,Stop B,,SW,ES000201,Ayr,,,AYR,,,,0,,233600,621802,,,BCT,MKD,OTH,,,,138,2003-08-27T00:00:00,2023-12-12T15:02:54,0,,active
6190915,29796325,,,Dalmilling Crescent,,,,Dalmilling Crescent,,Mainholm Road,,,,before,,S,N0079269,Dalmilling,Ayr,,AYR,,,,0,,235656,622545,,,BCT,MKD,OTH,,,,138,2003-08-27T00:00:00,2023-12-12T15:02:54,0,,active
6190916,29795975,,,Westwood Avenue,,,,Westwood Avenue,,Mainholm Road,,,,before,,SE,N0079269,Dalmilling,Ayr,,AYR,,,,0,,235720,622371,,,BCT,MKD,OTH,,,,138,2003-08-27T00:00:00,2023-12-12T15:02:54,0,,active
6190917,29796458,,,Dunlop Terrace,,,,Dunlop Terrace,,Mainholm Road,,,,after,,NE,ES000201,Ayr,,,AYR,,,,0,,236141,622096,,,BCT,MKD,OTH,,,,138,2003-08-27T00:00:00,2023-12-12T15:02:54,0,,active
6190918,29796286,,,North Drive,,,,North Drive,,Aldersyde Avenue,,,,before,,N,ES003704,Troon,,,TROON,,,,0,,233916,631873,,,BCT,MKD,OTH,,,,138,2003-08-27T00:00:00,2023-12-12T15:02:54,0,,active
6190919,29796596,,,Fairview,,,,Fairview,,East Road,,,,opp,,N,ES003088,Prestwick,,,PRESTWICK,,,,0,,235558,624745,,,BCT,MKD,OTH,,,,138,2003-08-27T00:00:00,2023-12-12T15:02:54,0,,active
619092,29723475,,,Sorrel Drive,,,,Sorrell Drive,,Kincaidston Drive,,,,before,,NE,ES000201,Ayr,,,AYR,,,,0,,235268,619132,,,BCT,MKD,OTH,,,,138,2003-08-27T00:00:00,2023-12-12T15:02:54,0,,active
6190920,29796598,,,Fairview,,,,Fairview,,East Road,,,,before,,S,ES003088,Prestwick,,,PRESTWICK,,,,0,,235575,624776,,,BCT,MKD,OTH,,,,138,2003-08-27T00:00:00,2023-12-12T15:02:54,0,,active
6190921,29796597,,,Hole Farm,,,,Hole Farm,,Hole Road,,,,at,,N,ES000824,Coylton,,,COYLTON,,,,0,,240894,618890,,,BCT,HAR,OTH,,,,138,2003-08-27T00:00:00,2023-12-12T15:02:54,0,,active
6190922,29796425,,,Hole Farm,,,,Hole Farm,,Hole Road,,,,opp,,S,ES000824,Coylton,,,COYLTON,,,,0,,240904,618890,,,BCT,HAR,OTH,,,,138,2003-08-27T00:00:00,2023-12-12T15:02:54,0,,active
6190925,29796756,,,The Black Bull,,,,The Black Bull,,Main Street,,,,at,,NW,ES003512,Straiton,,,STRAITON,,,,0,,238120,604913,,,BCT,CUS,OTH,,,,138,2003-08-27T00:00:00,2023-12-12T15:02:54,0,,active
6190926,29796754,,,Mauchline Road,,,,Mauchline Road,,Annbank Road,,,,after,,SE,ES002688,Mossblown,,,MOSSBLOWN,,,,0,,240169,624680,,,BCT,MKD,OTH,,,,138,2003-08-27T00:00:00,2023-12-12T15:02:54,0,,active
6190927,29796748,,,Dam Park Sports Stadium,,,,Dam Park Sports Stadium,,Ayr College,,,,opp,,W,ES000201,Ayr,,,AYR,,,,0,,234677,621461,,,BCT,MKD,OTH,,,,138,2003-08-27T00:00:00,2023-12-12T15:02:54,0,,inactive
6190928,29796743,,,Caravan Park,,,,Caravan Park,,A719,,,,opp,,W,ES000201,Ayr,,,AYR,,,,0,,228518,617767,,,BCT,MKD,OTH,,,,138,2003-08-27T00:00:00,2023-12-12T15:02:54,0,,active
6190929,29796745,,,Caravan Park,,,,Caravan Park,,A719,,,,at,,E,ES000201,Ayr,,,AYR,,,,0,,228523,617775,,,BCT,CUS,OTH,,,,138,2003-08-27T00:00:00,2023-12-12T15:02:54,0,,active
619093,29724748,,,Damellington Road,,,,Dalmellington Road,,Kincaidston Drive,,,,Near,,SW,ES000201,Ayr,,,AYR,,,,0,,235264,619465,,,BCT,MKD,OTH,,,,138,2003-08-27T00:00:00,2023-12-12T15:02:54,0,,active
6190930,29795386,,,Cranesbill Court,,,,Cranesbill Court,,Kincaidston Drive,,,,before,,NE,N0079270,Kincaidston,Ayr,,AYR,,,,0,,234780,619298,,,BCT,MKD,OTH,,,,138,2003-08-27T00:00:00,2023-12-12T15:02:54,0,,active
6190931,29795694,,,Cornhill,,,,Cornhill,,Kincaidston Drive,,,,before,,SW,N0079270,Kincaidston,Ayr,,AYR,,,,0,,234806,619235,,,BCT,MKD,OTH,,,,138,2003-08-27T00:00:00,2023-12-12T15:02:54,0,,active
6190932,29795497,,,Kincaidston Drive,,,,no 68,,Kincaidston Drive,,,,at 68,,NE,N0079270,Kincaidston,Ayr,,AYR,,,,0,,235188,619059,,,BCT,MKD,OTH,,,,138,2003-08-27T00:00:00,2023-12-12T15:02:54,0,,active
6190933,29796965,,,Sorrel Drive,,,,Sorrel Drive,,Kincaidston Drive,,,,opp,,SW,N0079270,Kincaidston,Ayr,,AYR,,,,0,,235302,619154,,,BCT,MKD,OTH,,,,138,2003-08-27T00:00:00,2023-12-12T15:02:54,0,,active
6190934,29763972,,,Armour Drive,,,,Armour Drive,,Caledonia Road,,,,after,,NE,ES000201,Ayr,,,AYR,,,,0,,235294,620592,,,BCT,MKD,OTH,,,,138,2003-08-27T00:00:00,2023-12-12T15:02:54,0,,active
6190935,29764232,,,Armour Drive,,,,Holmston Road,,Caledonia Road,,,,before and opp,,SW,ES000201,Ayr,,,AYR,,,,0,,235317,620596,,,BCT,MKD,OTH,,,,138,2003-08-27T00:00:00,2023-12-12T15:02:54,0,,inactive
6190936,29764263,,,Kincaidston Drive,,,,,,Kincaidston Drive,,,,opp 26,,SE,ES000201,Ayr,,,AYR,,,,1,,235303,619364,,,BCT,MKD,OTH,,,,138,2003-08-27T00:00:00,2023-12-12T15:02:54,0,,active
6190937,29764395,,,Kincaidston Drive,,,,,,26 Kincaidston Drive,,,,at 26,,NW,ES000201,Ayr,,,AYR,,,,0,,235292,619363,,,BCT,CUS,OTH,,,,138,2003-08-27T00:00:00,2023-12-12T15:02:54,0,,active
6190938,29764363,,,A719 Dunure Road,,,,Doonfoot Turning Circle,,Doonfoot Turning Circle,,,,after,,NE,ES000201,Ayr,,,AYR,,,,0,,231737,618598,,,BCT,CUS,OTH,,,,138,2003-08-27T00:00:00,2023-12-12T15:02:54,0,,inactive
6190939,29764379,,,Kilnford Drive,,,,Kilnford Drive,,Troon Road,,,,opp,,NE,ES001123,Dundonald,,,DUNDONALD,,,,0,,236027,635034,,,BCT,MKD,OTH,,,,138,2003-08-27T00:00:00,2023-12-12T15:02:54,0,,active
619094,29723748,,,Queen Margaret Academy,,,,Queen Margaret Academy,,Dalmellington Road,,,,Opp,,NW,ES000201,Ayr,,,AYR,,,,0,,235297,619550,,,BCT,MKD,OTH,,,,138,2003-08-27T00:00:00,2023-12-12T15:02:54,0,,active
6190940,29764593,,,Carrick Glen Hospital,,,,Carrick Glen Hospital,,A713,,,,at,,NW,ES000201,Ayr,,,AYR,,,,0,,236648,618296,,,BCT,MKD,OTH,,,,138,2003-08-27T00:00:00,2023-12-12T15:02:54,0,,active
6190941,29764747,,,Carrick Glen Hospital,,,,Carrick Glen Hospital,,A713,,,,opp,,SE,ES000201,Ayr,,,AYR,,,,0,,236651,618316,,,BCT,MKD,OTH,,,,138,2003-08-27T00:00:00,2023-12-12T15:02:54,0,,active
6190942,29764842,,,Waggon Road,,,,Waggon Road,,New Road,,,,near,,SW,ES000201,Ayr,,,AYR,,,,0,,234036,622824,,,BCT,MKD,OTH,,,,138,2003-08-27T00:00:00,2023-12-12T15:02:54,0,,active
6190943,29764782,,,Carrick Street,,,,Carrick Street,,Troweir Road,,,,before,,SE,ES001522,Girvan,,,GIRVAN,,,,0,,218909,598191,,,BCT,MKD,OTH,,,,138,2003-08-27T00:00:00,2023-12-12T15:02:54,0,,active
6190944,29764796,,,Carrick Street,,,,Carrick Street,,Troweir Road,,,,opp,,NW,ES001522,Girvan,,,GIRVAN,,,,0,,218924,598169,,,BCT,MKD,OTH,,,,138,2003-08-27T00:00:00,2023-12-12T15:02:54,0,,active
6190945,29764798,,,Penkill Road,,,,Penkill Road,,Troweir Road,,,,before,,SE,ES001522,Girvan,,,GIRVAN,,,,0,,219088,598065,,,BCT,MKD,OTH,,,,138,2003-08-27T00:00:00,2023-12-12T15:02:54,0,,active
6190946,29764825,,,Boyle Court,,,,Boyle Court,,Troweir Road,,,,before,,NW,ES001522,Girvan,,,GIRVAN,,,,0,,219068,598067,,,BCT,MKD,OTH,,,,138,2003-08-27T00:00:00,2023-12-12T15:02:54,0,,active
6190947,29764828,,,Troweir Road,,,,Troweir Road,,North Drive,,,,before,,NE,ES001522,Girvan,,,GIRVAN,,,,1,,219113,597945,,,BCT,MKD,OTH,,,,138,2003-08-27T00:00:00,2023-12-12T15:02:54,0,,active
6190948,29764832,,,Troweir Road,,,,Troweir Road,,North Drive,,,,after,,SW,ES001522,Girvan,,,GIRVAN,,,,0,,219145,597981,,,BCT,MKD,OTH,,,,138,2003-08-27T00:00:00,2023-12-12T15:02:54,0,,active
6190949,29764835,,,Orchard Avenue,,,,Orchard Avenue,,The Avenue,,,,opp,,NW,ES001522,Girvan,,,GIRVAN,,,,0,,218931,597908,,,BCT,MKD,OTH,,,,138,2003-08-27T00:00:00,2023-12-12T15:02:54,0,,active
619095,29724357,,,Shavin Brae,,,,Shavin Brae,,Hillfoot Road,,,,After,,SW,ES001777,Holmston,Ayr,,AYR,,,,0,,235644,620830,,,BCT,MKD,OTH,,,,138,2003-08-27T00:00:00,2023-12-12T15:02:54,0,,active
6190950,29764786,,,Orchard Avenue,,,,Orchard Avenue,,The Avenue,,,,before,,SE,ES001522,Girvan,,,GIRVAN,,,,0,,218924,597924,,,BCT,MKD,OTH,,,,138,2003-08-27T00:00:00,2023-12-12T15:02:54,0,,active
6190951,29764824,,,Orchard Avenue,,,,Orchard Avenue,,The Avenue,,,,opp,,NW,ES001522,Girvan,,,GIRVAN,,,,0,,218867,597952,,,BCT,CUS,OTH,,,,138,2003-08-27T00:00:00,2023-12-12T15:02:54,0,,inactive
6190952,29764848,,,Orchard Avenue,,,,Orchard Avenue,,The Avenue,,,,before,,SE,ES001522,Girvan,,,GIRVAN,,,,0,,218875,597958,,,BCT,CUS,OTH,,,,138,2003-08-27T00:00:00,2023-12-12T15:02:54,0,,inactive
6190953,29764857,,,Elder Avenue,,,,Elder Avenue,,Glendoune Street,,,,after,,S,ES001522,Girvan,,,GIRVAN,,,,0,,218456,596647,,,BCT,CUS,OTH,,,,138,2003-08-27T00:00:00,2023-12-12T15:02:54,0,,inactive
6190954,29764865,,,Hawthorn Drive,,,,Hawthorn Drive,,Coalpots Road,,,,after,,NE,ES001522,Girvan,,,GIRVAN,,,,0,,218691,596543,,,BCT,MKD,OTH,,,,138,2003-08-27T00:00:00,2023-12-12T15:02:54,0,,active
6190955,29764875,,,Willow Drive,,,,Willow Drive,,Coalpots Road,,,,after,,NE,ES001522,Girvan,,,GIRVAN,,,,0,,218794,596729,,,BCT,MKD,OTH,,,,138,2003-08-27T00:00:00,2023-12-12T15:02:54,0,,active
6190956,29764929,,,Rowan Road,,,,Rowan Road,,Coalpots Road,,,,after,,NE,ES001522,Girvan,,,GIRVAN,,,,0,,218886,596862,,,BCT,MKD,OTH,,,,138,2003-08-27T00:00:00,2023-12-12T15:02:54,0,,active
6190957,29764938,,,Coalpots Road,,,,Coalpots Road,,Piedmont Road,,,,after,,NW,ES001522,Girvan,,,GIRVAN,,,,0,,218844,597011,,,BCT,CUS,OTH,,,,138,2003-08-27T00:00:00,2023-12-12T15:02:54,0,,active
6190958,29764683,,,Coalpots Road,,,,Coalpots Road,,South Park Avenue,,,,before,,E,ES001522,Girvan,,,GIRVAN,,,,0,,219024,597466,,,BCT,MKD,OTH,,,,138,2003-08-27T00:00:00,2023-12-12T15:02:54,0,,active
6190959,29764754,,,Coalpots Road,,,,Coalpots Road,,South Park Avenue,,,,before,,E,ES001522,Girvan,,,GIRVAN,,,,0,,219025,597465,,,BCT,CUS,OTH,,,,138,2003-08-27T00:00:00,2023-12-12T15:02:54,0,,inactive
619096,29723434,,,Masonhill Road,,,,Masonhill Road,,Cedar Road,,,,After,,S,N0068039,Castlehill,Ayr,,AYR,,,,0,,235748,620297,,,BCT,MKD,OTH,,,,138,2003-08-27T00:00:00,2023-12-12T15:02:54,0,,active
6190960,29764942,,,Hannah Research Park,,,,Hannah Research Park,,B743,,,,at,,E,N0072977,St Quivox,Ayr,,AYR,,,,0,,237437,623593,,,BCT,MKD,OTH,,,,138,2003-08-27T00:00:00,2023-12-12T15:02:54,0,,active
6190961,29765265,,,Limekiln Wynd,,,,Limekiln Wynd,,Mauchline Road,,,,after,,W,ES002688,Mossblown,,,MOSSBLOWN,,,,0,,241067,625112,,,BCT,MKD,OTH,,,,138,2003-08-27T00:00:00,2023-12-12T15:02:54,0,,active
6190962,29765425,,,Temple House,,,,Temple House,,Mauchline Road,,,,at,,E,ES002688,Mossblown,,,MOSSBLOWN,,,,0,,241107,625126,,,BCT,MKD,OTH,,,,138,2003-08-27T00:00:00,2023-12-12T15:02:54,0,,active
6190963,29765874,,,Ferry Terminal,,,,Ferry Terminal,,Harbour Road,,,,at,,SW,ES003704,Troon,,,TROON,,,,0,,230785,631625,,,BCT,CUS,OTH,,,,138,2003-08-27T00:00:00,2023-12-12T15:02:54,0,,active
6190964,29792642,,,Turning Circle,,,,Turning Circle,,Symington Road North,,,,at,,E,ES003596,Symington,,,SYMINGTON,,,,0,,238655,631375,,,BCT,MKD,OTH,,,,138,2003-08-27T00:00:00,2023-12-12T15:02:54,0,,active
6190966,29757973,,,Dunure Road,,,,Dunure Road,,Cumbrae Drive,,,,before,,S,N0072945,Doonfoot,Ayr,,DOONFOOT,,,,0,,231681,618780,,,BCT,HAR,OTH,,,,138,2003-08-27T00:00:00,2023-12-12T15:02:54,0,,active
6190967,29795843,,,Tarbolton Road,,,,Tarbolton Road,,A77,,,,before,,SW,N0072938,Bogend,,,BOGEND,,,,0,,239925,632693,,,BCT,MKD,OTH,,,,138,2003-08-27T00:00:00,2023-12-12T15:02:54,0,,active
6190968,29758946,,,Dundonald Road,,,,Dundonald Road,,A77,,,,after,,NE,N0072938,Bogend,,,SYMINGTON,,,,0,,239900,632695,,,BCT,MKD,OTH,,,,138,2003-08-27T00:00:00,2023-12-12T15:02:54,0,,active
6190969,29757979,,,Quarry Road,,,,Quarry Road,,A77 Kilmarnock Road,,,,before,,SW,ES003596,Symington,,,SYMINGTON,,,,0,,239162,631631,,,BCT,MKD,OTH,,,,138,2003-08-27T00:00:00,2023-12-12T15:02:54,0,,active
6190970,29758252,,,Symington Road North,,,,Symington Road North,,A77 Kilmarnock Road,,,,after,,NE,ES003596,Symington,,,SYMINGTON,,,,0,,239210,631732,,,BCT,MKD,OTH,,,,138,2003-08-27T00:00:00,2023-12-12T15:02:54,0,,active
6190971,29758245,,,Dutch House Roundabout,,,,Dutch House Roundabout,,A77 Kilmarnock Road,,,,before,,SW,N0068161,Monkton,,,HANSEL VILLAGE,,,,0,,237190,629359,,,BCT,MKD,OTH,,,,138,2003-08-27T00:00:00,2023-12-12T15:02:54,0,,active
6190972,29757986,,,Dutch House Roundabout,,,,Dutch House Roundabout,,A77 Kilmarnock Road,,,,after,,NE,N0068161,Monkton,,,HANSEL VILLAGE,,,,0,,237108,629301,,,BCT,MKD,OTH,,,,138,2003-08-27T00:00:00,2023-12-12T15:02:54,0,,active
6190973,29794753,,,Patna Road,,,,Patna Road,,Straiton Road,,,,after,,SE,ES002203,Kirkmichael,,,KIRKMICHAEL,,,,0,,234080,608868,,,BCT,MKD,OTH,,,,138,2003-08-27T00:00:00,2023-12-12T15:02:54,0,,active
6190974,29794769,,,B734,,,,B734,,Main Street,,,,opp,,SE,N0068186,Pinwherry,,,PINWHERRY,,,,0,,219689,586970,,,BCT,MKD,OTH,,,,138,2003-08-27T00:00:00,2023-12-12T15:02:54,0,,active
6190975,29764283,,,Hillview Caravan Park,,,,Hillview Caravan Park,,B741,,,,at,,NE,ES000953,Dailly,,,DAILLY,,,,0,,226299,602259,,,BCT,MKD,OTH,,,,138,2003-08-27T00:00:00,2023-12-12T15:02:54,0,,active
6190976,29734927,,,Hillview Caravan Park,,,,Hillview Caravan Park,,B741,,,,opp,,W,ES000953,Dailly,,,DAILLY,,,,0,,226347,602265,,,BCT,MKD,OTH,,,,138,2003-08-27T00:00:00,2023-12-12T15:02:54,0,,active
6190977,29797628,,,Lighthouse Path,,,,Lighthouse,,Maidens Road,,,,at,,N,N0068234,Turnberry,,,TURNBERRY,,,,0,,220610,606855,,,BCT,CUS,OTH,,,,138,2003-08-27T00:00:00,2023-12-12T15:02:54,0,,active
6190978,29784394,,,Lighthouse Path,,,,Lighthouse Path,,Maidens Road,,,,opp,,S,N0068234,Turnberry,,,TURNBERRY,,,,0,,220619,606851,,,BCT,CUS,OTH,,,,138,2003-08-27T00:00:00,2023-12-12T15:02:54,0,,active
6190979,29789837,,,Caravan Park,,,,The Ranch Holiday Park,,Culzean Road,,,,at,,W,ES002566,Maybole,,,MAYBOLE,,,,0,,228563,610274,,,BCT,CUS,OTH,,,,138,2003-08-27T00:00:00,2023-12-12T15:02:54,0,,active
6190980,29726384,,,Caravan Park,,,,The Ranch Holiday Park,,Culzean Road,,,,opp,,E,ES002566,Maybole,,,MAYBOLE,,,,0,,228569,610281,,,BCT,CUS,OTH,,,,138,2003-08-27T00:00:00,2023-12-12T15:02:54,0,,active
6190981,29796454,,,Sundrum Castle Holiday Park,,,,Castle Drive,,Ayr Road,,,,opp,,W,ES000824,Coylton,,,COYLTON,,,,0,,239589,620169,,,BCT,CUS,OTH,,,,138,2003-08-27T00:00:00,2023-12-12T15:02:54,0,,active
6190982,29767343,,,Sundrum Castle Holiday Park,,,,Castle Drive,,Ayr Road,,,,at,,E,ES000824,Coylton,,,COYLTON,,,,0,,239595,620180,,,BCT,CUS,OTH,,,,138,2003-08-27T00:00:00,2023-12-12T15:02:54,0,,active
6190983,29798989,,,Kildonan Country House,,,,Kildonan Country House,,A714,,,,at,,SE,N0068007,Barrhill,,,BARRHILL,,,,0,,222334,583065,,,BCT,CUS,OTH,,,,138,2003-08-27T00:00:00,2023-12-12T15:02:54,0,,active
6190984,29734638,,,Mainholm Crescent,,,,Mainholm Crescent,,Mainholm Road,,,,at,,E,N0079269,Dalmilling,Ayr,,AYR,,,,0,,235913,622244,,,BCT,MKD,OTH,,,,138,2003-08-27T00:00:00,2023-12-12T15:02:54,0,,active
6190985,29767347,,,Mainholm Crescent,,,,Mainholm Cresent,,Mainholm Road,,,,opp,,W,N0079269,Dalmilling,Ayr,,AYR,,,,0,,235894,622237,,,BCT,MKD,OTH,,,,138,2003-08-27T00:00:00,2023-12-12T15:02:54,0,,active
6190986,29798987,,,Chapeldonan,,,,Chapeldonan,,A77,,,,at,,S,ES001522,Girvan,,,GIRVAN,,,,0,,219416,600500,,,BCT,CUS,OTH,,,,138,2003-08-27T00:00:00,2023-12-12T15:02:54,0,,active
6190987,29743283,,,Chapeldonan,,,,Chapeldonan,,A77,,,,opp,,N,ES001522,Girvan,,,GIRVAN,,,,0,,219402,600505,,,BCT,CUS,OTH,,,,138,2003-08-27T00:00:00,2023-12-12T15:02:54,0,,active
6190988,29724957,,,Bennane Head Access Path,,,,Bennane Head,,A77,,,,at,,N,N0067996,Ballantrae,,,BALLANTRAE,,,,0,,209979,587377,,,BCT,CUS,OTH,,,,138,2003-08-27T00:00:00,2023-12-12T15:02:54,0,,active
6190989,29748545,,,Bennane Head Access Path,,,,Bennane Head,,A77,,,,opp,,S,N0067996,Ballantrae,,,BALLANTRAE,,,,0,,210001,587372,,,BCT,CUS,OTH,,,,138,2003-08-27T00:00:00,2023-12-12T15:02:54,0,,active
619099,29723252,,,Alderbank,,,,Alderbank,,Masonhill Road,,,,before,,NE,N0068039,Castlehill,Ayr,,AYR,,,,0,,235500,620513,,,BCT,MKD,OTH,,,,138,2003-08-27T00:00:00,2023-12-12T15:02:54,0,,active
6190990,29797379,,,Glenapp Church,,,,Glenapp Church,,A77,,,,opp,,NE,N0067996,Ballantrae,,,BALLANTRAE,,,,0,,207420,574623,,,BCT,CUS,OTH,,,,138,2003-08-27T00:00:00,2023-12-12T15:02:54,0,,active
6190991,29748567,,,Glenapp Church,,,,Glenapp Church,,A77,,,,at,,SW,N0067996,Ballantrae,,,BALLANTRAE,,,,0,,207433,574617,,,BCT,CUS,OTH,,,,138,2003-08-27T00:00:00,2023-12-12T15:02:54,0,,active
6190992,29768264,,,Finnarts Bay,,,,Finnarts Bay,,A77,,,,at,,N,N0067996,Ballantrae,,,CAIRNRYAN,,,,0,,205215,572418,,,BCT,CUS,OTH,,,,138,2003-08-27T00:00:00,2023-12-12T15:02:54,0,,active
6190993,29739525,,,Finnarts Bay,,,,Finnarts Bay,,A77,,,,opp,,S,N0067996,Ballantrae,,,CAIRNRYAN,,,,0,,205234,572413,,,BCT,CUS,OTH,,,,138,2003-08-27T00:00:00,2023-12-12T15:02:54,0,,active
6190994,29756563,,,B734,,,,B734,,A77,,,,opp,,N,N0067996,Ballantrae,,,BALLANTRAE,,,,0,,209079,584791,,,BCT,CUS,OTH,,,,138,2003-08-27T00:00:00,2023-12-12T15:02:54,0,,active
6190995,29794538,,,B734,,,,B734,,A77,,,,after,,S,N0067996,Ballantrae,,,BALLANTRAE,,,,0,,209091,584787,,,BCT,CUS,OTH,,,,138,2003-08-27T00:00:00,2023-12-12T15:02:54,0,,active
6190996,29787862,,,Pinmacher,,,,Pinmacher,,A714,,,,at,,E,N0072971,Pinminnoch,Girvan,,GIRVAN,,,,0,,219517,593331,,,BCT,CUS,OTH,,,,138,2003-08-27T00:00:00,2023-12-12T15:02:54,0,,active
6190997,29742652,,,Pinmacher,,,,Pinmacher,,A714,,,,opp,,W,N0072971,Pinminnoch,Girvan,,GIRVAN,,,,0,,219515,593321,,,BCT,CUS,OTH,,,,138,2003-08-27T00:00:00,2023-12-12T15:02:54,0,,active
6190998,29728587,,,Mossgavel Cottage,,,,Mossgavel Cottage,,A714,,,,at,,NE,N0067996,Ballantrae,,,BALLANTRAE,,,,0,,210516,585395,,,BCT,CUS,OTH,,,,138,2003-08-27T00:00:00,2023-12-12T15:02:54,0,,active
6190999,29792352,,,Mossgavel Cottage,,,,Mossgavel Cottage,,A714,,,,opp,,SW,N0067996,Ballantrae,,,BALLANTRAE,,,,0,,210519,585388,,,BCT,CUS,OTH,,,,138,2003-08-27T00:00:00,2023-12-12T15:02:54,0,,active
