ATCOCode,NaptanCode,PlateCode,CleardownCode,CommonName,CommonNameLang,ShortCommonName,ShortCommonNameLang,Landmark,LandmarkLang,Street,StreetLang,Crossing,CrossingLang,Indicator,IndicatorLang,Bearing,NptgLocalityCode,LocalityName,ParentLocalityName,GrandParentLocalityName,Town,TownLang,Suburb,SuburbLang,LocalityCentre,GridType,Easting,Northing,Longitude,Latitude,StopType,BusStopType,TimingStatus,DefaultWaitTime,Notes,NotesLang,AdministrativeAreaCode,CreationDateTime,ModificationDateTime,RevisionNumber,Modification,Status
6280000001,64323746,,,Eskbank,,,,-,,College car park,,,,at Jewel and Esk Valley College,,NE,N0067286,Eskbank,,,,,,,0,UKOS,332721,666225,-3.0771035,55.8844426,BCT,CUS,OTH,,,,130,2008-01-27T00:00:00.000,2011-03-24T14:56:15.000,9,revise,inactive
6280000002,64323839,,,Sun Inn,,,,Caravan Park,,A7 Dalhousie Road,,,,opp,,NW,ES000415,Lothianbridge,,,,,,,0,UKOS,332751,664819,-3.0762745,55.8718163,BCT,CUS,OTH,,,,130,2008-01-27T00:00:00.000,2011-11-04T11:00:54.000,3,revise,inactive
6280000003,64323842,,,Sun Inn,,,,Caravan Park,,A7 Dalhousie Road,,,,at,,SE,ES000415,Lothianbridge,,,,,,,0,UKOS,332668,664921,-3.0776260,55.8727210,BCT,CUS,OTH,,,,130,2008-01-27T00:00:00.000,2011-11-04T11:01:33.000,3,revise,inactive
6280000004,64323473,,,Cranston House,,,,Primary School,,Edgehead Road,,,,near,,SE,N0071915,Edgehead,,,,,,,0,UKOS,338011,664731,-2.9922094,55.8717321,BCT,CUS,OTH,,,,130,2008-01-27T00:00:00.000,2018-03-22T10:46:13.000,1,revise,active
6280000005,64323672,,,Viaduct,,,,-,,Edgehead Road,,,,NW-bound,,NW,N0071923,Ford,,,,,,,0,UKOS,338887,664387,-2.9781348,55.8687538,BCT,CUS,OTH,,,,130,2008-01-27T00:00:00.000,2009-02-12T00:00:00.000,2,revise,active
6280000006,64323673,,,Viaduct,,,,-,,Edgehead Road,,,,SE-bound,,SE,N0071923,Ford,,,,,,,0,UKOS,338904,664406,-2.9778675,55.8689267,BCT,CUS,OTH,,,,130,2008-01-27T00:00:00.000,2009-02-12T00:00:00.000,2,revise,active
6280000007,64325848,,,Raes Gardens,,Raes Gardens,,-,,Raes Gardens,,,,W-bound,,NW,ES000413,Bonnyrigg,,,,,,,0,UKOS,331111,665444,-3.1026369,55.8771989,BCT,HAR,OTH,,,,130,2008-03-29T00:00:00.000,2018-03-22T10:46:13.000,0,new,active
6280000008,64324569,,,Main Street,,Temple,,-,,Temple Main Street,,,,SE-bound,,SE,ES003628,Temple,,,,,,,0,UKOS,331692,658633,-3.0916360,55.8160967,BCT,HAR,OTH,,,,130,2008-01-27T00:00:00.000,2009-02-12T00:00:00.000,13,revise,active
6280000009,64323465,,,Primrose Gardens,,-,,-,,Main Street,,,,NE-bound,,NE,ES000648,Carrington,,,,,,,0,UKOS,331920,660579,-3.0884864,55.8336104,BCT,HAR,OTH,,,,130,2008-01-27T00:00:00.000,2009-02-12T00:00:00.000,12,revise,active
6280000010,64323468,,,Carrington Barns,,,,-,,Unclassified,,,,at cottages,,SE,ES000648,Carrington,,,,,,,0,UKOS,332544,661166,-3.0786721,55.8389714,BCT,CUS,OTH,,,,130,2008-01-27T00:00:00.000,2011-11-04T11:02:21.000,2,revise,inactive
6280000011,64324574,,,Upper Dalhousie,,,,-,,Unnamed Road,,,,at,,N,ES000648,Carrington,,,,,,,0,UKOS,331302,663120,-3.0989950,55.8563492,BCT,HAR,OTH,,,,130,2008-01-27T00:00:00.000,2015-02-05T12:20:07.000,10,revise,active
6280000012,64323435,,,Braidwood bridge,,-,,-,,B6372,,,,N-bound,,N,ES003628,Temple,,,,,,,0,UKOS,331812,658928,-3.089796,55.818764,BCT,HAR,OTH,,,,130,2008-01-27T00:00:00.000,2009-02-12T00:00:00.000,7,revise,active
6280000013,64325782,,,Ramsay Cottages,,Ramsay Cottages,,-,,B704,,,,opp,,NW,N0076343,Newtonloan Toll,,,,,,,0,UKOS,332862,663336,-3.0741331,55.8585096,BCT,HAR,OTH,,,,130,2008-01-27T00:00:00.000,2009-11-27T00:00:00.000,8,revise,active
6280000014,64326839,,,Ramsay Cottages,,Ramsay Cottages,,-,,B704,,,,at,,SE,N0076343,Newtonloan Toll,,,,,,,0,UKOS,332925,663342,-3.0731283,55.8585723,BCT,HAR,OTH,,,,130,2008-01-27T00:00:00.000,2009-11-27T00:00:00.000,8,revise,active
6280000015,64325754,,,The Crescent,,The Crescent,,-,,The Crescent,,,,clockwise direction,,W,N0071927,Gowkshill,,,,,,,0,UKOS,333985,663345,-3.0561983,55.8587457,BCT,HAR,OTH,,,,130,2008-01-27T00:00:00.000,2018-03-22T10:46:13.000,16,revise,active
6280000016,64326879,,,The Crescent,,The Crescent,,-,,The Crescent,,,,anti clockwise direction,,E,N0071927,Gowkshill,,,,,,,0,UKOS,333995,663254,-3.0560164,55.8579296,BCT,HAR,OTH,,,,130,2008-01-27T00:00:00.000,2018-03-22T10:46:13.000,8,revise,active
6280000017,64325786,,,Barleyknowe Terrace,,Barleyknowe Terrace,,-,,Barleyknowe Terrace,,,,N-bound,,N,ES001632,Gorebridge,,,,,,,0,UKOS,334136,662456,-3.0535703,55.8507802,BCT,HAR,OTH,,,,130,2008-01-27T00:00:00.000,2018-03-22T10:46:13.000,9,revise,active
6280000018,64325785,,,Barleyknowe Terrace,,Barleyknowe Terrace,,-,,Barleyknowe Terrace,,,,S-bound,,S,ES001632,Gorebridge,,,,,,,0,UKOS,334191,662553,-3.0527155,55.8516591,BCT,HAR,OTH,,,,130,2008-01-27T00:00:00.000,2018-03-22T10:46:13.000,7,revise,active
6280000019,64325787,,,Wilson Road,,Wilson Road,,-,,Wilson Road,,,,SE-bound,,SE,ES001632,Gorebridge,,,,,,,0,UKOS,334578,662223,-3.0464556,55.8487473,BCT,HAR,OTH,,,,130,2008-01-27T00:00:00.000,2018-03-22T10:46:13.000,8,revise,active
6280000020,64323726,,,Wilson Road,,Wilson Road,,-,,Wilson Road,,,,NW-bound,,NW,ES001632,Gorebridge,,,,,,,0,UKOS,334675,662108,-3.0448790,55.8477274,BCT,HAR,OTH,,,,130,2008-01-27T00:00:00.000,2018-03-22T10:46:13.000,6,revise,active
6280000021,64325789,,,Arnprior Road,,Arnprior Road,,-,,Arnprior Road,,,,SW-bound,,SW,ES001632,Gorebridge,,,,,,,0,UKOS,334838,661653,-3.042167,55.843662,BCT,HAR,OTH,,,,130,2008-01-27T00:00:00.000,2018-03-22T10:46:13.000,6,revise,active
6280000022,64325792,,,Arnprior Road,,Arnprior Road,,-,,Arnprior Road,,,,NE-bound,,NE,ES001632,Gorebridge,,,,,,,0,UKOS,334773,661622,-3.043197,55.843375,BCT,HAR,OTH,,,,130,2008-01-27T00:00:00.000,2018-03-22T10:46:13.000,6,revise,active
6280000023,64325793,,,Hunter Square,,Hunter Square,,-,,Hunter Square,,,,SW-bound,,SW,ES001632,Gorebridge,,,,,,,0,UKOS,334561,661524,-3.0465583,55.8424656,BCT,HAR,OTH,,,,130,2008-01-27T00:00:00.000,2010-10-07T00:00:00.000,9,revise,active
6280000024,64325794,,,Hunter Square,,Hunter square,,-,,Hunter Square,,,,E-bound,,NE,ES001632,Gorebridge,,,,,,,0,UKOS,334538,661546,-3.0469308,55.8426601,BCT,HAR,OTH,,,,130,2008-01-27T00:00:00.000,2018-03-22T10:46:13.000,6,revise,active
6280000025,64327963,,,Rosslynlee Hospital,,,,hospital,,unclassified hospital road,,,,arriving,,SW,ES003169,Rosewell,,,,,,,0,UKOS,326818,660922,-3.1700153,55.8359440,BCT,CUS,TIP,,,,130,2008-01-27T00:00:00.000,2011-11-04T11:03:00.000,3,revise,inactive
6280000026,64327964,,,Polton Village,,,,none,,Polton Brae,,,,at Stevenson Place,,W,ES003048,Poltonhall,,,,,,,0,UKOS,328958,664811,-3.1368750,55.8711995,BCT,CUS,PPT,,,,130,2008-01-27T00:00:00.000,2011-11-04T11:03:49.000,2,revise,inactive
6280000027,64323745,,,Tipperwell Way,,,,-,,A6094,,,,opp,,S,N0067304,Howgate,,,,,,,0,UKOS,324820,658075,-3.2011197,55.8100620,BCT,CUS,PPT,,,,130,2008-01-27T00:00:00.000,2018-03-22T10:46:13.000,1,revise,active
6280000028,64323464,,,Primrose Gardens,,-,,-,,Main Street,,,,SW-bound,,SW,ES000648,Carrington,,,,,,,1,UKOS,331974,660601,-3.0876300,55.8338157,BCT,HAR,OTH,,,,130,2008-01-27T00:00:00.000,2009-02-12T00:00:00.000,5,revise,active
6280000029,64324568,,,Main Street,,Temple,,-,,Temple Main Street,,,,NW-bound,,NW,ES003628,Temple,,,,,,,1,UKOS,331916,658224,-3.0879595,55.8124542,BCT,HAR,OTH,,,,130,2008-01-27T00:00:00.000,2009-02-12T00:00:00.000,8,revise,active
6280000030,64324573,,,Upper Dalhousie,,,,-,,Unnamed Road,,,,opp,,S,ES000648,Carrington,,,,,,,0,UKOS,331344,663156,-3.098333,55.856679,BCT,HAR,OTH,,,,130,2008-01-27T00:00:00.000,2015-02-05T12:20:41.000,11,revise,active
6280000031,64323467,,,Carrington Barns,,,,-,,Unclassified,,,,opposite Cottages,,NE,ES000648,Carrington,,,,,,,0,UKOS,332518,661093,-3.0790690,55.8383120,BCT,CUS,PPT,,,,130,2008-01-27T00:00:00.000,2018-03-22T10:46:13.000,1,revise,inactive
6280000032,64323753,,,Leadburn Junction,,,,Leadburn Junction,,A6094,,,,SW-bound,,SW,N0071647,Leadburn,,,,,,,1,UKOS,323530,655509,-3.220976,55.786809,BCT,HAR,OTH,,,,130,2008-01-27T00:00:00.000,2015-02-25T11:05:45.000,3,revise,active
6280000033,64323754,,,Leadburn Inn,,,,Leadburn Inn,,A6094,,,,NE-bound,,NE,N0071647,Leadburn,,,,,,,1,UKOS,323526,655538,-3.2210476,55.7870689,BCT,CUS,OTH,,,,130,2008-01-27T00:00:00.000,2018-03-22T10:46:13.000,1,revise,inactive
6280000034,64323434,,,Braidwood bridge,,,,-,,B6372,,,,S-bound,,S,ES003628,Temple,,,,,,,1,UKOS,331838,658994,-3.0893972,55.8193603,BCT,HAR,OTH,,,,130,2008-01-27T00:00:00.000,2018-03-22T10:46:14.000,7,revise,active
6280000036,64323598,,,Easter Howgate Farm,,Easter Howgate Farm,,-,,A702,,,,at,,N,N0067282,Easter Howgate,,,,,,,1,UKOS,324152,664010,-3.2134351,55.8632710,BCT,CUS,OTH,,,,130,2008-01-27T00:00:00.000,2018-03-22T10:46:13.000,1,revise,active
6280000037,64323624,,,Fulford House,,Fulford House,,-,,A702,,,,opp,,S,N0067282,Easter Howgate,,,,,,,0,UKOS,324250,664529,-3.2120149,55.8679485,BCT,CUS,OTH,,,,130,2008-01-27T00:00:00.000,2018-03-22T10:46:13.000,1,revise,active
6280000038,64323639,,,Eastside Farm,,,,-,,A702,,,,opp,,SW,N0072038,Eight Mile Burn,,,,,,,1,UKOS,319305,659187,-3.2894216,55.8191599,BCT,CUS,OTH,,,,130,2008-01-27T00:00:00.000,2018-03-22T10:46:13.000,1,revise,active
6280000039,64323658,,,Flotterstone Inn,,Flotterstone Inn,,-,,A702,,,,opp,,SW,N0071922,Flotterstone,,,,,,,1,UKOS,323553,663181,-3.222769,55.85573,BCT,HAR,OTH,,,,130,2008-01-27T00:00:00.000,2018-03-22T10:46:13.000,4,revise,active
6280000040,64324242,,,Ninemileburn,,,,at Mobility Warehouse,,A702,,,,SW-bound,,SW,N0072040,Nine Mile Burn,,,,,,,1,UKOS,317995,657704,-3.3098748,55.8056177,BCT,CUS,PPT,,,,130,2008-01-27T00:00:00.000,2010-06-18T00:00:00.000,2,revise,active
6280000041,64324273,,,Boyd-Orr Drive,,,,-,,Mauricewood Road,,,,at,,SE,N0071919,Mauricewood,Penicuik,,,,,,0,UKOS,323712,661573,-3.2197773,55.8413102,BCT,CUS,OTH,,,,130,2008-01-27T00:00:00.000,2013-01-23T15:42:21.000,3,revise,active
6280000042,64324549,,,Hopelands Road,,Hopelands Road,,-,,Hopelands Road,,,,at,,NW,N0067224,Silverburn,,,,,,,1,UKOS,320420,660161,-3.2719172,55.8280943,BCT,CUS,PPT,,,,130,2008-01-27T00:00:00.000,2018-03-22T10:46:14.000,1,revise,active
6280000043,64324529,,,Langhill Farm,,,,-,,Roslin Road,,,,opp,,NW,ES003171,Roslin,,,,,,,0,UKOS,326733,664168,-3.1722498,55.8650899,BCT,CUS,OTH,,,,130,2008-01-27T00:00:00.000,2013-01-31T13:52:04.000,3,revise,active
6280000044,64323563,,,Taxi Rank,,,,Black Bull PH,,un-named,,,,at,,,ES000968,Dalkeith,,,,,,,1,UKOS,333221,667137,-3.0693374,55.8927050,TXR,,,,,,130,2008-01-27T00:00:00.000,2018-03-22T10:46:13.000,1,revise,active
6280000045,64324659,,,Taxi Rank,,,,Library,,Polton Street,,,,at,,,ES000413,Bonnyrigg,,,,,,,0,UKOS,330856,665138,-3.1066336,55.8744134,TXR,,,,,,130,2008-01-27T00:00:00.000,2018-03-22T10:46:13.000,1,revise,active
6280000046,64325783,,,Cuiken Terrace,,,,-,,Cuiken Terrace,,,,at,,W,ES002994,Penicuik,,,,,,,0,UKOS,322611,660782,-3.2371284,55.8340293,BCT,HAR,PPT,,,,130,2008-01-27T00:00:00.000,2011-11-04T11:06:05.000,6,revise,inactive
6280000047,64327965,,,Belwood Crescent,,,,-,,Belwood Crescent,,,,at Belwood Crescent,,SE,N0071919,Mauricewood,Penicuik,,,,,,0,UKOS,324631,662202,-3.2052808,55.8471051,BCT,CUS,PPT,,,,130,2008-01-27T00:00:00.000,2011-11-04T11:07:58.000,2,revise,inactive
6280000048,64325753,,,Woodside Drive,,,,Tait Drive,,Woodside Drive,,,,at,,SE,N0071918,Ladywood,Penicuik,,,,,,0,UKOS,323587,660405,-3.221444,55.830798,BCT,CUS,OTH,,,,130,2008-01-27T00:00:00.000,2011-11-04T11:08:52.000,7,revise,inactive
6280000049,64325796,,,Kaimes View,,Kaimes view,,-,,Kaimes View,,,,NE-bound,,NE,ES000997,Danderhall,,,,,,,0,UKOS,330993,669086,-3.105453,55.909899,BCT,HAR,OTH,,,,130,2008-01-27T00:00:00.000,2018-03-22T10:46:13.000,8,revise,active
6280000050,64325797,,,Kaimes View,,Kaimes View,,-,,Kaimes View,,,,S-bound,,S,ES000997,Danderhall,,,,,,,0,UKOS,331047,669220,-3.1046232,55.9111101,BCT,HAR,OTH,,,,130,2008-01-27T00:00:00.000,2018-03-22T10:46:13.000,7,revise,active
6280000051,64325798,,,Forth View Crescent,,Forth View Crescent,,-,,Forth View Crescent,,,,S-Bound,,S,ES000997,Danderhall,,,,,,,0,UKOS,330781,669525,-3.108956,55.913812,BCT,HAR,OTH,,,,130,2008-01-27T00:00:00.000,2018-03-22T10:46:13.000,5,revise,active
6280000052,64325823,,,Forth View Crescent,,Forth View Crescent,,-,,Forth View Crescent,,,,N-bound,,NW,ES000997,Danderhall,,,,,,,0,UKOS,330843,669372,-3.107925,55.912446,BCT,HAR,OTH,,,,130,2008-01-27T00:00:00.000,2018-03-22T10:46:13.000,7,revise,active
6280000053,64325824,,,Woolmet Crescent,,Woolmet Crescent,,-,,Woolmet Crescent,,,,E-bound,,E,ES000997,Danderhall,,,,,,,0,UKOS,330668,669683,-3.110804,55.915215,BCT,HAR,OTH,,,,130,2008-01-27T00:00:00.000,2018-03-22T10:46:13.000,6,revise,active
6280000054,64325825,,,Woolmet Crescent,,Woolmet Crescent,,-,,Woolmet Crescent,,,,W-bound,,W,ES000997,Danderhall,,,,,,,0,UKOS,330798,669646,-3.108715,55.914901,BCT,HAR,OTH,,,,130,2008-01-27T00:00:00.000,2018-03-22T10:46:13.000,7,revise,active
6280000055,64325768,,,Access Road,,-,,-,,Unnamed Road,,,,anti clockwise direction,,E,ES002825,Newton Village,,,,,,,0,UKOS,331760,669477,-3.0932846,55.9135206,BCT,HAR,OTH,,,,130,2008-01-27T00:00:00.000,2013-01-23T15:44:53.000,10,revise,active
6280000056,64325769,,,Access Road,,-,,-,,Unnamed Road,,,,clockwise direction,,SE,ES002825,Newton Village,,,,,,,0,UKOS,331630,669669,-3.0954126,55.9152269,BCT,HAR,OTH,,,,130,2008-01-27T00:00:00.000,2013-01-23T15:45:42.000,13,revise,active
6280000057,64324585,,,Main Street,,,,-,,Main Street,,,,at 59,,SE,N0067360,Whitehill,,,,,,,1,UKOS,335556,666466,-3.0318488,55.8869958,BCT,CUS,OTH,,,,130,2008-01-27T00:00:00.000,2009-08-21T00:00:00.000,3,revise,active
6280000058,64327967,,,"Leadburn Inn ",,,,,,A6094,,,,near,,SW,N0071647,Leadburn,,,,,,,0,UKOS,323609,655623,-3.219748,55.787846,BCT,HAR,OTH,,,,130,2008-01-27T00:00:00.000,2011-11-04T11:09:26.000,2,revise,inactive
6280000059,64325739,,,Coop Car Park,,,,Somerfield Supermarket,,unamed,,,,at,,N,ES000413,Bonnyrigg,,,,,,,0,UKOS,330758,665446,-3.1082783,55.8771662,BCT,CUS,PPT,,,,130,2008-01-27T00:00:00.000,2014-02-28T11:45:28.000,5,revise,active
6280000060,64327959,,,Tynehead Road End,,Tynehead RE,,Tynehead Road End,,A68,,,,at,,NW,ES001345,Fala,,,,,,,0,UKOS,342062,661697,-2.9268316,55.8449804,BCT,CUS,OTH,,,,130,2008-03-29T00:00:00.000,2015-02-05T13:58:38.000,1,revise,active
6280000061,64327968,,,Old Cockpen Road Terminus,,,,The Retreat Hotel,,Old Cockpen Road,,,,The Retreat Hotel,,N,ES000413,Bonnyrigg,,,,,,,0,UKOS,331650,664538,-3.093795,55.869137,BCT,CUS,OTH,,,,130,2008-01-27T00:00:00.000,2011-11-04T11:10:02.000,3,revise,inactive
6280000062,64327962,,,Crichton House Road End,,Crichton House Road End,,Crichton House Road End,,A68,,,,at,,NW,ES002981,Pathhead,,,,,,,0,UKOS,341218,662326,-2.940444,55.850529,BCT,CUS,OTH,,,,130,2008-03-29T00:00:00.000,2015-02-05T13:24:14.000,1,revise,active
6280000063,64326842,,,Crichton House Road End,,Crichton House Road End,,Crichton House Road End,,A68,,,,opp,,SE,ES002981,Pathhead,,,,,,,0,UKOS,341162,662419,-2.941359,55.851357,BCT,CUS,OTH,,,,130,2008-03-29T00:00:00.000,2015-02-05T13:24:43.000,2,revise,active
6280000064,64326843,,,Village Access,,,,Blackshiels Farm,,A68,,,,at,,SE,ES001345,Fala,,,,,,,0,UKOS,343609,660935,-2.9019712,55.8383184,BCT,CUS,OTH,,,,130,2008-03-29T00:00:00.000,2009-11-27T00:00:00.000,3,revise,active
6280000065,64326845,,,Raes Gardens,,Raes Gardens,,-,,Raes Gardens,,,,E-bound,,E,ES000413,Bonnyrigg,,,,,,,0,UKOS,330904,665478,-3.1059534,55.8774746,BCT,HAR,OTH,,,,130,2008-03-29T00:00:00.000,2018-03-22T10:46:13.000,0,new,active
6280000066,64326846,,,Leyden Place,,Leyden Place,,-,,Leyden Place,,,,W-bound,,W,ES000413,Bonnyrigg,,,,,,,0,UKOS,330858,665466,-3.106686,55.87736,BCT,HAR,OTH,,,,130,2008-03-29T00:00:00.000,2018-03-22T10:46:13.000,0,new,active
6280000067,64326847,,,Dalhousie Grange,,-,,at Cockpen Church,,Cockpen Road,,,,S-bound,,S,ES000766,Cockpen,Bonnyrigg,,,,,,0,UKOS,331872,664332,-3.0901963,55.8673179,BCT,HAR,OTH,,,,130,2008-03-29T00:00:00.000,2009-02-12T00:00:00.000,1,revise,active
6280000068,64326848,,,Aikendean Bridge,,-,,-,,Unnamed Road,,,,S-bound,,S,ES000648,Carrington,,,,,,,0,UKOS,331800,661771,-3.0907017,55.8443015,BCT,HAR,OTH,,,,130,2008-03-29T00:00:00.000,2013-01-23T15:46:32.000,1,revise,active
6280000069,64326849,,,Carrington Mill,,,,-,,Unnamed Road,,,,S-bound,,S,ES000648,Carrington,,,,,,,0,UKOS,332088,659491,-3.0855325,55.8238603,BCT,HAR,OTH,,,,130,2008-03-29T00:00:00.000,2013-01-23T15:47:21.000,1,revise,active
6280000070,64326852,,,Carrington Mill,,,,-,,Unnamed Road,,,,N-bound,,N,ES000648,Carrington,,,,,,,0,UKOS,332028,659463,-3.0864830,55.8236003,BCT,HAR,OTH,,,,130,2008-03-29T00:00:00.000,2013-01-23T15:48:04.000,1,revise,active
6280000071,64326853,,,Aikendean Bridge,,,,-,,Unnamed Road,,,,N-bound,,N,ES000648,Carrington,,,,,,,0,UKOS,331774,661681,-3.0910942,55.8434894,BCT,HAR,OTH,,,,130,2008-03-29T00:00:00.000,2015-02-05T12:22:10.000,2,revise,active
6280000072,64326854,,,Dalhousie Grange,,-,,opp Cockpen Church,,Cockpen Road,,,,N-bound,,N,ES000766,Cockpen,Bonnyrigg,,,,,,0,UKOS,331836,664280,-3.0907583,55.8668456,BCT,HAR,OTH,,,,130,2008-03-29T00:00:00.000,2009-02-12T00:00:00.000,1,revise,active
6280000073,64326856,,,Leyden Place,,Leyden Place,,-,,Leyden Place,,,,E-bound,,E,ES000413,Bonnyrigg,,,,,,,0,UKOS,330826,665488,-3.1072024,55.8775532,BCT,HAR,OTH,,,,130,2008-03-29T00:00:00.000,2018-03-22T10:46:13.000,0,new,active
6280000074,64326857,,,Dalhousie Road,,Dalhousie Road,,-,,Dalhousie Road,,,,S-bound,,SE,N0067286,Eskbank,,,,,,,0,UKOS,332535,666240,-3.08008,55.884551,BCT,HAR,OTH,,,,130,2008-03-29T00:00:00.000,2015-02-25T11:14:36.000,4,revise,active
6280000075,64326858,,,Barleyknowe Road,,Barleyknowe Road,,-,,Barleyknowe Road,,,,SE-bound,,SE,ES001632,Gorebridge,,,,,,,0,UKOS,334219,662669,-3.0522966,55.8527050,BCT,HAR,OTH,,,,130,2008-03-29T00:00:00.000,2018-03-22T10:46:13.000,0,new,active
6280000076,64326859,,,Barleyknowe Crescent,,Barleyknowe Crescent,,-,,Barleyknowe Crescent,,,,E-bound,,E,ES001632,Gorebridge,,,,,,,0,UKOS,334196,662417,-3.0526027,55.8504380,BCT,HAR,OTH,,,,130,2008-03-29T00:00:00.000,2018-03-22T10:46:13.000,0,new,active
6280000077,64326862,,,Burnside Road,,Burnside Road,,-,,Burnside Road,,,,SE-bound,,SE,ES001632,Gorebridge,,,,,,,0,UKOS,334455,662363,-3.0484536,55.8499883,BCT,HAR,OTH,,,,130,2008-03-29T00:00:00.000,2018-03-22T10:46:13.000,0,new,active
6280000078,64326863,,,McLean Place,,McLean Place,,-,,McLean Place,,,,SE-bound,,SE,ES001632,Gorebridge,,,,,,,0,UKOS,334735,662086,-3.043916,55.847538,BCT,HAR,OTH,,,,130,2008-03-29T00:00:00.000,2018-03-22T10:46:13.000,0,new,active
6280000079,64326864,,,Bonnybank Road,,Bonnybank Road,,-,,Bonnybank Road,,,,SW-bound,,SW,ES001632,Gorebridge,,,,,,,0,UKOS,334856,661846,-3.0419258,55.8453982,BCT,HAR,OTH,,,,130,2008-03-29T00:00:00.000,2018-03-22T10:46:13.000,0,new,active
6280000080,64326865,,,Vogrie Crescent south,,Vogrie Crescent south,,-,,Vogrie Crescent south,,,,SW-bound,,S,ES001632,Gorebridge,,,,,,,0,UKOS,334780,661562,-3.0430709,55.8428367,BCT,HAR,OTH,,,,130,2008-03-29T00:00:00.000,2018-03-22T10:46:13.000,0,new,active
6280000081,64326872,,,Vogrie Crescent south,,Vogrie Crescent south,,-,,Vogrie Crescent south,,,,NE-bound,,NE,ES001632,Gorebridge,,,,,,,0,UKOS,334734,661501,-3.043791,55.842283,BCT,HAR,OTH,,,,130,2008-03-29T00:00:00.000,2018-03-22T10:46:13.000,0,new,active
6280000082,64326873,,,Bonnybank Road,,Bonnybank Road,,-,,Bonnybank Road,,,,NE-bound,,N,ES001632,Gorebridge,,,,,,,0,UKOS,334798,661792,-3.0428389,55.8449053,BCT,HAR,OTH,,,,130,2008-03-29T00:00:00.000,2018-03-22T10:46:13.000,0,new,active
6280000083,64326874,,,McLean Place,,McLean Place,,-,,McLean Place,,,,NW-bound,,NW,ES001632,Gorebridge,,,,,,,0,UKOS,334803,661911,-3.0427876,55.8459750,BCT,HAR,OTH,,,,130,2008-03-29T00:00:00.000,2018-03-22T10:46:13.000,0,new,active
6280000084,64326875,,,Burnside Road,,Burnside Road,,-,,Burnside Road,,,,NW-bound,,NW,ES001632,Gorebridge,,,,,,,0,UKOS,334489,662243,-3.0478816,55.8489149,BCT,HAR,OTH,,,,130,2008-03-29T00:00:00.000,2018-03-22T10:46:13.000,0,new,active
6280000085,64326876,,,Barleyknowe Crescent,,Barleyknowe Crescent,,-,,Barleyknowe Crescent,,,,W-bound,,W,ES001632,Gorebridge,,,,,,,0,UKOS,334387,662367,-3.049541,55.850015,BCT,HAR,OTH,,,,130,2008-03-29T00:00:00.000,2018-03-22T10:46:13.000,0,new,active
6280000086,64326878,,,Barleyknowe Road,,Barleyknowe Road,,-,,Barleyknowe Road,,,,NW-bound,,N,ES001632,Gorebridge,,,,,,,0,UKOS,334247,662604,-3.0518336,55.8521249,BCT,HAR,OTH,,,,130,2008-03-29T00:00:00.000,2018-03-22T10:46:13.000,0,new,active
6280000087,64326892,,,Lothianbridge hail and ride,,Lothianbridge,,,,A7,,,,-,,N,ES000415,Lothianbridge,,,,,,,0,UKOS,332751,664820,-3.0762747,55.8718253,BCT,HAR,OTH,,,,130,2008-03-29T00:00:00.000,2011-11-04T11:10:52.000,1,revise,inactive
6280000088,64326893,,,Dalhousie Road,,-,,-,,Dalhousie Road,,,,NE-bound,,NW,N0067286,Eskbank,,,,,,,0,UKOS,332536,666202,-3.0800546,55.8842101,BCT,HAR,OTH,,,,130,2008-03-29T00:00:00.000,2015-02-25T11:14:09.000,3,revise,active
6280000089,64326894,,,Campview Terrace,,Campview Terrace,,-,,Campview Terrace,,,,SE-bound,,SE,ES000997,Danderhall,,,,,,,0,UKOS,330752,669221,-3.1093416,55.9110767,BCT,HAR,OTH,,,,130,2008-03-29T00:00:00.000,2018-03-22T10:46:13.000,0,new,active
6280000090,64326895,,,Campview Avenue,,Campview Avenue,,-,,Campview Avenue,,,,S-bound,,S,ES000997,Danderhall,,,,,,,0,UKOS,330902,669178,-3.1069316,55.9107120,BCT,HAR,OTH,,,,130,2008-03-29T00:00:00.000,2018-03-22T10:46:13.000,0,new,active
6280000091,64326896,,,Campview Crescent,,Campview Crescent,,-,,Campview Crescent,,,,N-bound,,N,ES000997,Danderhall,,,,,,,0,UKOS,331033,669269,-3.10486,55.911548,BCT,HAR,OTH,,,,130,2008-03-29T00:00:00.000,2018-03-22T10:46:13.000,0,new,active
6280000092,64326897,,,Arthur View Terrace,,Arthur View Terrace,,-,,Arthur View Terrace,,,,W-bound,,W,ES000997,Danderhall,,,,,,,0,UKOS,330726,669504,-3.10983,55.913615,BCT,HAR,OTH,,,,130,2008-03-29T00:00:00.000,2018-03-22T10:46:13.000,0,new,active
6280000093,64326898,,,The Circle,,The Circle,,-,,The circle,,,,N-bound,,N,ES000997,Danderhall,,,,,,,0,UKOS,330624,669601,-3.111486,55.914472,BCT,HAR,OTH,,,,130,2008-03-29T00:00:00.000,2013-01-23T15:50:12.000,1,revise,active
6280000094,64326923,,,The Circle,,The Circle,,-,,The Circle,,,,S-bound,,S,ES000997,Danderhall,,,,,,,0,UKOS,330650,669649,-3.1110830,55.9149068,BCT,HAR,OTH,,,,130,2008-03-29T00:00:00.000,2018-03-22T10:46:13.000,0,new,active
6280000095,64326924,,,Arthur View Terrace,,Arthur View Terrace,,-,,Arthur View Terrace,,,,E-bound,,E,ES000997,Danderhall,,,,,,,0,UKOS,330623,669525,-3.1114830,55.9137890,BCT,HAR,OTH,,,,130,2008-03-29T00:00:00.000,2018-03-22T10:46:13.000,0,new,active
6280000096,64326925,,,Campview Crescent,,Campview Crescent,,-,,Campview Crescent,,,,S-bound,,S,ES000997,Danderhall,,,,,,,0,UKOS,330988,669350,-3.1056,55.91227,BCT,HAR,OTH,,,,130,2008-03-29T00:00:00.000,2018-03-22T10:46:13.000,0,new,active
6280000097,64326926,,,Campview Avenue,,Campview Avenue,,-,,Campview Avenue,,,,N-bound,,NW,ES000997,Danderhall,,,,,,,0,UKOS,330937,669055,-3.1063403,55.9096121,BCT,HAR,OTH,,,,130,2008-03-29T00:00:00.000,2018-03-22T10:46:13.000,0,new,active
6280000098,64326927,,,Campview Terrace,,Campview Terrace,,-,,Campview Terrace,,,,W-bound,,W,ES000997,Danderhall,,,,,,,0,UKOS,330855,669174,-3.1076822,55.9106693,BCT,HAR,OTH,,,,130,2008-03-29T00:00:00.000,2018-03-22T10:46:13.000,0,new,active
6280000099,64326928,,,South Melville Farm,,-,,at Golf Range,,Melville Dykes Road,,,,at,,W,N0071588,Lasswade,,,,,,,0,UKOS,331505,666624,-3.0966398,55.8878553,BCT,CUS,OTH,,,,130,2008-03-29T00:00:00.000,2013-01-23T15:50:50.000,2,revise,active
6280000100,64326929,,,High Street,,High Street,,-,,High Street,,,,SW-bound,,SW,N0071589,Loanhead,,,,,,,0,UKOS,328332,665513,-3.1470626,55.8774128,BCT,HAR,OTH,,,,130,2008-03-29T00:00:00.000,2009-08-21T00:00:00.000,1,revise,active
6280000101,64326932,,,Polton Road,,Polton Road,,-,,Polton Road,,,,SE-bound,,SE,N0071589,Loanhead,,,,,,,0,UKOS,328270,665454,-3.1480377,55.8768736,BCT,HAR,OTH,,,,130,2008-03-29T00:00:00.000,2018-03-22T10:46:14.000,0,new,active
6280000103,64326935,,,Polton Road,,Polton Road,,-,,Polton Road,,,,NW-bound,,NW,N0071589,Loanhead,,,,,,,0,UKOS,328272,665407,-3.1479933,55.8764517,BCT,HAR,OTH,,,,130,2008-03-29T00:00:00.000,2018-03-22T10:46:14.000,0,new,active
6280000104,64326936,,,Burghlee Terrace,,Burghlee Terrace,,-,,Burghlee Terrace,,,,SW-bound,,SW,N0071589,Loanhead,,,,,,,0,UKOS,328150,665390,-3.1499382,55.8762808,BCT,HAR,OTH,,,,130,2008-03-29T00:00:00.000,2018-03-22T10:46:13.000,0,new,active
6280000105,64326937,,,Burghlee Crescent,,Burghlee Crescent,,-,,Burghlee Crescent,,,,Clockwise direction,,S,N0071589,Loanhead,,,,,,,0,UKOS,328084,665319,-3.1509740,55.8756331,BCT,HAR,OTH,,,,130,2008-03-29T00:00:00.000,2018-03-22T10:46:13.000,0,new,active
6280000106,64326938,,,Burghlee Terrace,,Burghlee Terrace,,-,,Burghlee Terrace,,,,NE-bound,,NE,N0071589,Loanhead,,,,,,,0,UKOS,328018,665333,-3.152032,55.875749,BCT,HAR,OTH,,,,130,2008-03-29T00:00:00.000,2018-03-22T10:46:13.000,0,new,active
6280000107,64326939,,,Church Street,,Church Street,,-,,Church Street,,,,NE-bound,,NE,N0071589,Loanhead,,,,,,,0,UKOS,328196,665458,-3.149221,55.876899,BCT,HAR,OTH,,,,130,2008-03-29T00:00:00.000,2018-03-22T10:46:13.000,0,new,active
6280000108,64326942,,,Clerk Street,,Clerk Street,,-,,Clerk Street,,,,N-bound,,N,N0071589,Loanhead,,,,,,,0,UKOS,328268,665513,-3.1480853,55.8774033,BCT,HAR,OTH,,,,130,2008-03-29T00:00:00.000,2018-03-22T10:46:13.000,0,new,active
6280000109,64326943,,,Park Crescent,,Park Crescent,,-,,Park Crescent,,,,Clockwise direction,,S,N0071589,Loanhead,,,,,,,0,UKOS,327741,665378,-3.1564705,55.8761117,BCT,HAR,OTH,,,,130,2008-03-29T00:00:00.000,2018-03-22T10:46:14.000,0,new,active
6280000110,64326945,,,Park Avenue,,Park Avenue,,-,,Park Avenue,,,,W-bound,,W,N0071589,Loanhead,,,,,,,0,UKOS,327686,665303,-3.1573293,55.8754298,BCT,HAR,OTH,,,,130,2008-03-29T00:00:00.000,2018-03-22T10:46:13.000,0,new,active
6280000111,64326946,,,Dryden Terrace,,Dryden Terrace,,-,,Dryden Terrace,,,,N-bound,,NW,N0071589,Loanhead,,,,,,,0,UKOS,327336,665370,-3.1629399,55.8759789,BCT,MKD,TIP,,,,130,2008-03-29T00:00:00.000,2012-08-30T15:54:13.000,1,revise,active
6280000112,64326947,,,Dalum Loan,,Dalum Loan,,-,,Dalum Loan,,,,NE-bound,,NE,N0071589,Loanhead,,,,,,,0,UKOS,327270,665537,-3.1640394,55.8774691,BCT,HAR,OTH,,,,130,2008-03-29T00:00:00.000,2018-03-22T10:46:13.000,0,new,active
6280000113,64326948,,,Gaynor Avenue,,Gaynor Avenue,,-,,Gaynor Avenue,,,,E-bound,,E,N0071589,Loanhead,,,,,,,0,UKOS,327392,665643,-3.1621183,55.8784397,BCT,HAR,OTH,,,,130,2008-03-29T00:00:00.000,2010-10-07T00:00:00.000,1,revise,active
6280000114,64327939,,,Mayburn Avenue,,Mayburn Avenue,,-,,Mayburn Avenue,,,,NE-bound,,NE,N0071589,Loanhead,,,,,,,0,UKOS,327838,665822,-3.1550390,55.8801148,BCT,HAR,OTH,,,,130,2008-03-29T00:00:00.000,2018-03-22T10:46:13.000,0,new,active
6280000115,64327942,,,Mayburn Avenue,,Mayburn Avenue,,-,,Mayburn Avenue,,,,SW-bound,,SW,N0071589,Loanhead,,,,,,,0,UKOS,327966,665888,-3.1530110,55.8807268,BCT,HAR,OTH,,,,130,2008-03-29T00:00:00.000,2010-10-07T00:00:00.000,1,revise,active
6280000116,64327943,,,Gaynor Avenue,,Gaynor Avenue,,-,,Gaynor Avenue,,,,W-bound,,W,N0071589,Loanhead,,,,,,,0,UKOS,327817,665702,-3.155343,55.879034,BCT,HAR,OTH,,,,130,2008-03-29T00:00:00.000,2018-03-22T10:46:13.000,0,new,active
6280000117,64327945,,,Dalum Loan,,Dalum Loan,,-,,Dalum Loan,,,,SW-bound,,SW,N0071589,Loanhead,,,,,,,0,UKOS,327357,665615,-3.1626701,55.8781829,BCT,HAR,OTH,,,,130,2008-03-29T00:00:00.000,2018-03-22T10:46:13.000,0,new,active
6280000118,64327946,,,Dryden Terrace,,Dryden Terrace,,-,,Dryden Terrace,,,,S-bound,,SE,N0071589,Loanhead,,,,,,,0,UKOS,327301,665490,-3.1635314,55.8770516,BCT,MKD,TIP,,,,130,2008-03-29T00:00:00.000,2012-09-06T14:39:01.000,2,revise,active
6280000119,64327947,,,Park Avenue,,Park Avenue,,-,,Park Avenue,,,,E-bound,,E,N0071589,Loanhead,,,,,,,0,UKOS,327407,665299,-3.1617863,55.8753518,BCT,HAR,OTH,,,,130,2008-03-29T00:00:00.000,2010-10-07T00:00:00.000,2,revise,active
6280000120,64327948,,,Park Crescent,,Park Crescent,,-,,Park Crescent,,,,anti clockwise direction,,S,N0071589,Loanhead,,,,,,,0,UKOS,327732,665317,-3.1565980,55.8755624,BCT,HAR,OTH,,,,130,2008-03-29T00:00:00.000,2018-03-22T10:46:14.000,0,new,active
6280000121,64327949,,,Muirfield Gardens,,Muirfield Gardens,,-,,Muirfield Gardens,,,,S-bound,,S,N0071589,Loanhead,,,,,,,0,UKOS,328163,665494,-3.1497581,55.8772170,BCT,HAR,OTH,,,,130,2008-03-29T00:00:00.000,2018-03-22T10:46:13.000,0,new,active
6280000122,64327952,,,Burghlee Crescent,,Burghlee Crescent,,-,,Burghlee Crescent,,,,anti clockwise direction,,S,N0071589,Loanhead,,,,,,,0,UKOS,327982,665274,-3.1525919,55.8752136,BCT,HAR,OTH,,,,130,2008-03-29T00:00:00.000,2010-04-23T00:00:00.000,2,revise,inactive
6280000123,64327953,,,Mavisbank,,Mavisbank,,,,Mavisbank,,,,anti clockwise direction,,S,N0071589,Loanhead,,,,,,,0,UKOS,328263,665320,-3.1481140,55.8756688,BCT,HAR,OTH,,,,130,2008-03-29T00:00:00.000,2018-03-22T10:46:13.000,0,new,active
6280000124,64327954,,,Vogrie Road,,Vogrie Road,,-,,Vogrie Road,,,,SE-bound,,E,ES001632,Gorebridge,,,,,,,0,UKOS,334709,661467,-3.0441816,55.8419736,BCT,CUS,OTH,,,,130,2008-04-28T00:00:00.000,2008-04-28T00:00:00.000,0,new,active
6280000125,64327956,,,South Melville Farm,,-,,opp Golf Range,,Melville Dykes Road,,,,opp,,E,N0071588,Lasswade,,,,,,,0,UKOS,331447,666645,-3.0975722,55.8880357,BCT,CUS,OTH,,,,130,2008-04-28T00:00:00.000,2013-01-23T15:51:37.000,2,revise,active
6280000126,64328246,,,Mossend Cottages,,,,Mossend Cottages,,Lady Brae,,,,at,,SW,ES001632,Gorebridge,,,,,,,0,UKOS,335385,661672,-3.0334377,55.8439064,BCT,HAR,PPT,,,,130,2008-07-03T00:00:00.000,2008-07-03T00:00:00.000,0,new,active
6280000127,64328247,,,Mossend Cottages,,,,Mossend Cottages,,Lady Brae,,,,opp,,NE,ES001632,Gorebridge,,,,,,,0,UKOS,335328,661636,-3.0343392,55.8435753,BCT,HAR,PPT,,,,130,2008-07-03T00:00:00.000,2008-07-03T00:00:00.000,0,new,active
6280000128,64328257,,,Tynehead Road End,,Tynehead RE,,Tynehead Road End,,A68,,,,opp,,SE,ES001345,Fala,,,,,,,0,UKOS,342125,661695,-2.9258252,55.8449700,BCT,CUS,OTH,,,,130,2008-10-27T00:00:00.000,2015-02-05T13:59:05.000,1,revise,active
6280000129,64328258,,,Beeslack High School,,-,,Within School grounds,,Unnamed Road,,,,at,,SW,N0071919,Mauricewood,Penicuik,,,,,,0,UKOS,324251,661395,-3.2111228,55.8397963,BCT,MKD,PTP,,,,130,2008-12-03T00:00:00.000,2013-01-23T15:52:30.000,3,revise,active
6280000130,64329249,,,Campend,,,,opp Fruit Farm,,Old Dalkeith Road,,,,opp,,NW,ES000997,Danderhall,,,,,,,0,UKOS,331515,668288,-3.0969017,55.9028047,BCT,CUS,OTH,,,,130,2008-12-03T00:00:00.000,2010-10-07T00:00:00.000,1,revise,active
6280000131,64329252,,,Campend,,,,at Fruit Farm,,OLD DALKEITH ROAD,,,,at,,SE,ES000997,Danderhall,,,,,,,0,UKOS,331553,668270,-3.09629,55.902649,BCT,CUS,OTH,,,,130,2008-12-03T00:00:00.000,2020-10-26T15:20:49.957,2,revise,active
6280000132,64329253,,,Carsewell,,,,-,,Carlops Road,,,,at,,SW,ES002994,Penicuik,,,,,,,0,UKOS,321095,659733,-3.2610206,55.8243606,BCT,CUS,OTH,,,,130,2008-12-03T00:00:00.000,2013-01-23T15:53:09.000,1,revise,active
6280000133,64329254,,,Carsewell,,,,-,,Carlops Road,,,,opp,,NE,ES002994,Penicuik,,,,,,,0,UKOS,321097,659772,-3.2610001,55.8247113,BCT,CUS,OTH,,,,130,2008-12-03T00:00:00.000,2013-01-23T15:53:57.000,1,revise,active
6280000134,64329256,,,Falahill Cottages,,,,-,,A7,,,,opp,,N,N0067207,North Middleton,,,,,,,0,UKOS,339630,655841,-2.9643617,55.7920733,BCT,CUS,OTH,,,,130,2008-12-03T00:00:00.000,2009-01-29T00:00:00.000,1,revise,inactive
6280000135,64329257,,,Falahill Cottages,,,,-,,A7,,,,at,,S,N0067207,North Middleton,,,,,,,0,UKOS,339653,655892,-2.9640063,55.7925344,BCT,CUS,OTH,,,,130,2008-12-03T00:00:00.000,2009-01-29T00:00:00.000,2,revise,inactive
6280000136,64329258,,,Shank Bridge,,,,-,,A7,,,,N-bound,,N,N0071916,Birkenside,Gorebridge,,,,,,0,UKOS,333689,661362,-3.0604409,55.8408911,BCT,CUS,OTH,,,,130,2008-12-03T00:00:00.000,2008-12-03T00:00:00.000,0,new,active
6280000137,64329259,,,Shank Bridge,,,,-,,A7,,,,S-bound,,S,N0071916,Birkenside,Gorebridge,,,,,,0,UKOS,333719,661398,-3.0599707,55.8412186,BCT,CUS,OTH,,,,130,2008-12-03T00:00:00.000,2008-12-03T00:00:00.000,0,new,active
6280000138,64329263,,,Wester Melville,,-,,-,,Lasswade Road,,,,at,,N,N0071588,Lasswade,,,,,,,0,UKOS,329526,666818,-3.1283229,55.8893121,BCT,CUS,OTH,,,,130,2008-12-17T00:00:00.000,2010-04-23T00:00:00.000,1,revise,inactive
6280000139,64329274,,,Southfield Cottages,,-,,-,,Southfield Road,,,,opp,,NE,N0067259,Cousland,,,,,,,0,UKOS,337613,667704,-2.9992548,55.8983886,BCT,CUS,OTH,,,,130,2009-04-08T00:00:00.000,2009-04-08T00:00:00.000,0,new,active
6280000140,64329279,,,Gilston Road End,,,,-,,A68,,,,opp,,SE,N0071641,Soutra Mains,,,,,,,0,UKOS,345345,659410,-2.8739486,55.8248181,BCT,CUS,OTH,,,,130,2009-10-09T00:00:00.000,2009-10-14T00:00:00.000,1,revise,active
6280000141,64329282,,,Gilston Road End,,,,-,,A68,,,,at,,NW,N0071641,Soutra Mains,,,,,,,0,UKOS,345381,659352,-2.8733624,55.8243011,BCT,CUS,OTH,,,,130,2009-10-09T00:00:00.000,2009-10-14T00:00:00.000,1,revise,active
6280000142,64329287,,,Terminus,,,,-,,Powdermill Brae,,,,opp,,SW,N0071916,Birkenside,Gorebridge,,,,,,0,UKOS,334607,660749,-3.0456369,55.8355097,BCT,CUS,PPT,,,,130,2010-07-06T00:00:00.000,2017-10-19T00:00:00.000,3,revise,inactive
6280000200,64328252,,,Hopelands Road,,Hopelands Road,,Hopelands Road junction,,A702,,,,opp,,NE,N0067224,Silverburn,,,,,,,0,UKOS,320357,660295,-3.2729619,55.8292876,BCT,CUS,OTH,,,,130,2008-08-21T00:00:00.000,2008-08-21T00:00:00.000,0,new,active
6280000201,64328253,,,Hopelands Road,,Hopelands Road,,Hopelands Road Junction,,A702,,,,near,,SW,N0067224,Silverburn,,,,,,,0,UKOS,320390,660285,-3.2724324,55.8292032,BCT,CUS,OTH,,,,130,2008-08-21T00:00:00.000,2008-08-21T00:00:00.000,0,new,active
6280031772,64342457,,,Forth View,,,,Outside Post Office,,Newton Church Road,,,,at,,NE,ES000997,Danderhall,,,,,,,0,UKOS,330889,669371,-3.1071889,55.9124439,BCT,MKD,TIP,,,,130,2014-02-10T11:33:43.000,2014-02-10T11:33:43.000,0,new,active
6280031812,64342458,,,Lasswade Centre,,,,Lasswade H.S,,Eskdale Drive,,,,at,,N,ES000413,Bonnyrigg,,,,,,,0,UKOS,330412,664816,-3.1136453,55.8714569,BCT,MKD,TIP,,,,130,2014-02-28T14:33:57.000,2014-02-28T14:33:57.000,0,new,active
6280031891,64342467,,,Sainsbury's,,,,Sainsbury's,,B6414,,,,nr,,NE,ES000968,Dalkeith,,,,,,,0,UKOS,334521,667574,-3.0486609,55.8968095,BCT,MKD,TIP,,,,130,2014-09-24T09:38:56.000,2015-02-05T12:54:36.000,1,revise,active
6280031893,64342468,,,Sainsbury's,,,,Sainsbury's,,B6414,,,,opp,,SW,ES000968,Dalkeith,,,,,,,0,UKOS,334535,667556,-3.0484327,55.8966497,BCT,MKD,TIP,,,,130,2014-09-24T09:44:20.000,2015-02-05T12:54:06.000,1,revise,active
62801292,64327957,,,McKinlay Terrace,,McKinlay Terrace,,,,McKinlay Terrace,,,,E-bound,,E,N0071589,Loanhead,,,,,,,0,UKOS,327464,665451,-3.1609163,55.8767258,BCT,CUS,OTH,,,,130,2008-03-29T00:00:00.000,2011-11-09T13:01:57.000,2,revise,inactive
62801294,64327958,,,Kennington Avenue,,-,,-,,Kennington Avenue,,,,W-bound,,W,N0071589,Loanhead,,,,,,,0,UKOS,327711,665487,-3.1569790,55.8770864,BCT,CUS,OTH,,,,130,2008-03-29T00:00:00.000,2010-04-23T00:00:00.000,4,revise,inactive
62801302,64324748,,,Sainsburys,,-,,Sainsburys Supermarket,,Unnamed Road,,,,At,,SE,N0067344,Straiton,,,,,,,0,UKOS,327229,666122,-3.1648519,55.8827179,BCT,CUS,OTH,,,,130,2008-01-27T00:00:00.000,2013-01-23T15:36:01.000,6,revise,active
62801310,64325756,,,Nivensknowe Park,,,,Caravan Park,,A701,,,,At,,NW,N0071589,Loanhead,,,,,,,0,UKOS,326720,665475,-3.1728113,55.8768287,BCT,CUS,OTH,,,,130,2008-01-27T00:00:00.000,2011-11-04T10:58:11.000,11,revise,inactive
62801312,64325757,,,New Pentland,,,,,,A701,,,,,,NW,N0067344,Straiton,,,,,,,0,UKOS,326719,665473,-3.1728268,55.8768106,BCT,CUS,OTH,,,,130,2008-01-27T00:00:00.000,2011-11-04T10:59:53.000,6,revise,inactive
62801321,64324679,,,Gowkley Moss,,,,Gowkley Moss Roundabout,,Penicuik Road,,,,E-bound,,E,ES003171,Roslin,,,,,,,1,UKOS,326087,663368,-3.182351,55.857805,BCT,MKD,TIP,,,,130,2008-01-27T00:00:00.000,2013-01-23T15:35:05.000,3,revise,active
62801323,64324682,,,Fairfield House,,,,-,,Lothian Road,,,,at,,N,ES000968,Dalkeith,,,,,,,1,UKOS,333235,667036,-3.069089,55.8918,BCT,MKD,TIP,,,,130,2008-01-27T00:00:00.000,2018-03-22T10:46:13.000,2,revise,active
62801325,64324683,,,Fairfield House,,,,-,,Lothian Road,,,,opp,,S,ES000968,Dalkeith,,,,,,,1,UKOS,333276,666969,-3.068417,55.891204,BCT,MKD,TIP,,,,130,2008-01-27T00:00:00.000,2018-03-22T10:46:13.000,2,revise,active
62801327,64324684,,,Redcroft Street,,,,-,,The Wisp,,,,at,,S,ES000997,Danderhall,,,,,,,1,UKOS,330326,669739,-3.116289,55.915668,BCT,MKD,TIP,,,,130,2008-01-27T00:00:00.000,2018-03-22T10:46:13.000,2,revise,active
6280209180,64325763,,,UNUSED STOP,,,,,,,,,,,,N,N0067344,Straiton,,,,,,,0,UKOS,327022,666658,-3.1683048,55.8875015,BCT,CUS,OTH,,,,130,2008-01-27T00:00:00.000,2011-11-04T11:11:44.000,4,revise,inactive
6280209190,64325767,,,UNUSED STOP,,,,,,,,,,,,N,N0071589,Loanhead,,,,,,,0,UKOS,328603,666536,-3.1430022,55.8866428,BCT,CUS,OTH,,,,130,2008-01-27T00:00:00.000,2018-03-22T10:46:14.000,3,revise,inactive
6280209195,64325765,,,UNUSED STOP,,,,,,,,,,,,N,N0067344,Straiton,,,,,,,0,UKOS,327025,666662,-3.1682580,55.8875379,BCT,CUS,OTH,,,,130,2008-01-27T00:00:00.000,2011-11-04T11:12:41.000,5,revise,inactive
6280209200,64325762,,,UNUSED STOP,,,,,,,,,,,,N,N0067344,Straiton,,,,,,,0,UKOS,327022,666663,-3.1683062,55.8875464,BCT,CUS,OTH,,,,130,2008-01-27T00:00:00.000,2011-11-04T11:13:13.000,4,revise,inactive
6280209205,64325764,,,UNUSED STOP,,,,,,,,,,,,N,N0067344,Straiton,,,,,,,0,UKOS,327021,666661,-3.1683216,55.8875283,BCT,CUS,OTH,,,,130,2008-01-27T00:00:00.000,2011-11-04T11:13:50.000,4,revise,inactive
6280209210,64327969,,,UNUSED STOP,,,,,,,,,,,,N,N0067360,Whitehill,,,,,,,0,UKOS,336606,666593,-3.0150951,55.8882762,BCT,CUS,OTH,,,,130,2008-01-27T00:00:00.000,2011-11-04T11:14:26.000,5,revise,inactive
6280239430,64325758,,,UNUSED STOP,,,,,,,,,,,,N,N0067344,Straiton,,,,,,,0,UKOS,327025,666656,-3.1682563,55.8874840,BCT,CUS,OTH,,,,130,2008-01-27T00:00:00.000,2011-11-04T11:15:04.000,4,revise,inactive
6280239440,64325759,,,UNUSED STOP,,,,,,,,,,,,N,N0067344,Straiton,,,,,,,0,UKOS,327023,666660,-3.1682894,55.8875196,BCT,CUS,OTH,,,,130,2008-01-27T00:00:00.000,2011-11-04T11:16:20.000,4,revise,inactive
628028307,64329262,,,Tynehead Road,,,,-,,A7,,,,at,,SE,N0067207,North Middleton,,,,,,,0,UKOS,338865,657389,-2.9769083,55.8058838,BCT,CUS,OTH,,,,130,2008-12-08T00:00:00.000,2008-12-08T00:00:00.000,0,new,active
6280300000,64324589,,,Cloverfoot Cottages,,,,Newton Garage,,The Wisp,,,,near,,S,N0076266,The Wisp,,,,,,,0,UKOS,330620,671134,-3.1119448,55.9282423,BCT,MKD,PPT,,,,130,2008-01-27T00:00:00.000,2018-03-22T10:46:14.000,1,revise,active
6280300005,64324586,,,Cauldcoats,,,,Industrial Hire Yard,,Millerhill Road,,,,at,,SE,N0076266,The Wisp,,,,,,,0,UKOS,330663,670908,-3.1111986,55.9262184,BCT,MKD,OTH,,,,130,2008-01-27T00:00:00.000,2018-03-22T10:46:14.000,1,revise,active
6280300010,64323738,,,Hilltown Terrace,,,,-,,Millerhill Road,,,,at,,SE,N0071960,Hilltown,,,,,,,1,UKOS,331106,670165,-3.1039209,55.9196076,BCT,MKD,PPT,,,,130,2008-01-27T00:00:00.000,2018-03-22T10:46:13.000,1,revise,active
6280300020,64323742,,,Moorfield Cottages,,,,-,,Millerhill Road,,,,opp,,SE,N0071960,Hilltown,,,,,,,0,UKOS,331471,669860,-3.0980044,55.9169200,BCT,MKD,OTH,,,,130,2008-01-27T00:00:00.000,2018-03-22T10:46:13.000,1,revise,active
6280300030,64323957,,,Millerhill Road,,,,-,,Millerhill Road,,,,near 107,,SE,ES002825,Newton Village,,,,,,,0,UKOS,331604,669636,-3.0958201,55.9149267,BCT,MKD,OTH,,,,130,2008-01-27T00:00:00.000,2013-01-31T12:03:12.000,3,revise,active
6280300040,64323958,,,Newton Church Road,,Newton Church Road,,Newton Church Road,,Millerhill Road,,,,at,,NW,ES002825,Newton Village,,,,,,,0,UKOS,331664,669499,-3.0948257,55.9137046,BCT,MKD,PPT,,,,130,2008-01-27T00:00:00.000,2009-11-27T00:00:00.000,2,revise,active
6280300044,64325845,,,St Andrew Street,,,,opp Eskdaill Court,,South Street,,,,near,,SE,ES000968,Dalkeith,,,,,,,1,UKOS,333215,667243,-3.0694595,55.8936564,BCT,MKD,OTH,,,,130,2008-03-29T00:00:00.000,2015-02-25T11:01:39.000,4,revise,active
6280300045,64323498,,,James Lean Avenue,,,,-,,Newmills Road,,,,near,,SE,ES000968,Dalkeith,,,,,,,0,UKOS,333788,667010,-3.0602420,55.8916426,BCT,MKD,OTH,,,,130,2008-01-27T00:00:00.000,2018-03-22T10:46:13.000,1,revise,active
6280300050,64323596,,,The Wisp,,,,opp Drumbank House,,Old Dalkeith Road,,,,at,,E,ES000997,Danderhall,,,,,,,0,UKOS,330279,669485,-3.1169748,55.9133798,BCT,MKD,PPT,,,,130,2008-01-27T00:00:00.000,2009-01-13T00:00:00.000,2,revise,active
6280300055,64323587,,,Old Dalkeith Road,,,,at 9 Maulsford Avenue,,OLD DALKEITH ROAD,,,,SE-bound,,SE,ES000997,Danderhall,,,,,,,1,UKOS,330709,669163,-3.110014,55.910547,BCT,MKD,PPT,,,,130,2008-01-27T00:00:00.000,2020-10-26T15:19:06.714,2,revise,active
6280300058,64325834,,,Sheriffhall Park and Ride,,Sheriffhall P and R,,Park and ride site,,Unnamed Road,,,,Stop C,,NW,ES000997,Danderhall,,,,,,,0,UKOS,331359,668551,-3.099463,55.905145,BCT,MKD,OTH,,,,130,2007-10-29T00:00:00.000,2013-01-23T15:58:03.000,3,revise,active
6280300060,64323594,,,Smithy Green Avenue,,Smithy Green Avenue,,-,,Newton Church Road,,,,at,,NE,ES000997,Danderhall,,,,,,,0,UKOS,330695,669259,-3.1102630,55.9114098,BCT,MKD,PPT,,,,130,2008-01-27T00:00:00.000,2018-03-22T10:46:13.000,1,revise,active
6280300067,64323578,,,Edmonstone Avenue,,Edmonstone Avenue,,-,,Edmonstone Road,,,,at,,NW,ES000997,Danderhall,,,,,,,0,UKOS,330606,669857,-3.1118402,55.9167689,BCT,MKD,OTH,,,,130,2008-01-27T00:00:00.000,2018-03-22T10:46:13.000,1,revise,active
6280300068,64323592,,,Edmonstone Avenue,,Edmonstone Avenue,,opp Danderhall Miners Club,,Edmonstone Road,,,,near,,NW,ES000997,Danderhall,,,,,,,0,UKOS,330709,669816,-3.1101821,55.9164154,BCT,MKD,OTH,,,,130,2008-01-27T00:00:00.000,2018-03-22T10:46:13.000,1,revise,active
6280300069,64323584,,,Edmonstone Road,,Edmonstone Road,,-,,Edmonstone Road,,,,at 32,,NW,ES000997,Danderhall,,,,,,,0,UKOS,330866,669591,-3.1076131,55.9144169,BCT,MKD,OTH,,,,130,2008-01-27T00:00:00.000,2018-03-22T10:46:13.000,1,revise,active
6280300070,64323585,,,Newton Church Road,,Newton Church Road,,At Robertson Medical Centre,,Newton Church Road,,,,on,,SE,ES000997,Danderhall,,,,,,,0,UKOS,331056,669390,-3.1045227,55.9126385,BCT,MKD,OTH,,,,130,2008-01-27T00:00:00.000,2009-12-24T00:00:00.000,2,revise,active
6280300080,64323959,,,Millerhill Road,,,,opp Newton Church Road,,Millerhill Road,,,,SE-bound,,SE,ES002825,Newton Village,,,,,,,0,UKOS,331749,669416,-3.0934451,55.9129710,BCT,MKD,OTH,,,,130,2008-01-27T00:00:00.000,2009-01-13T00:00:00.000,2,revise,active
6280300090,64323934,,,Millerhill Road,,,,-,,Millerhill Road,,,,Eastbound,,E,N0067332,Millerhill,,,,,,,0,UKOS,332000,669227,-3.0893829,55.9113088,BCT,MKD,PPT,,,,130,2008-01-27T00:00:00.000,2010-01-05T00:00:00.000,5,revise,inactive
6280300100,64323935,,,Wester Millerhill,,,,opp Cockatoo PH,,Old Craighall Road,,,,opp,,NE,N0067332,Millerhill,,,,,,,0,UKOS,332098,669224,-3.0878147,55.9112957,BCT,MKD,PPT,,,,130,2008-01-27T00:00:00.000,2009-11-27T00:00:00.000,3,revise,active
6280300110,64323927,,,Easter Millerhill,,,,-,,Old Craighall Road,,,,opp 22,,NE,N0067332,Millerhill,,,,,,,0,UKOS,332435,669512,-3.0824968,55.9139304,BCT,MKD,PPT,,,,130,2008-01-27T00:00:00.000,2018-03-22T10:46:14.000,1,revise,active
6280300115,64323929,,,Newton Cottages,,,,-,,Old Craighall Road,,,,opp,,NE,N0067332,Millerhill,,,,,,,0,UKOS,333025,670035,-3.0731896,55.9187112,BCT,MKD,OTH,,,,130,2008-01-27T00:00:00.000,2018-03-22T10:46:14.000,1,revise,active
6280300130,64323529,,,Lugton Brae,,,,-,,Old Dalkeith Road,,,,at,,SE,ES000968,Dalkeith,,,,,,,0,UKOS,332539,667603,-3.0803564,55.8967960,BCT,MKD,OTH,,,,130,2008-01-27T00:00:00.000,2015-02-05T12:02:24.000,5,revise,active
6280300140,64323535,,,Melville Gate Road,,,,at Kings Gate,,Old Dalkeith Road,,,,opp,,SE,ES000968,Dalkeith,,,,,,,0,UKOS,332139,667686,-3.0867724,55.8974853,BCT,MKD,OTH,,,,130,2008-01-27T00:00:00.000,2018-03-22T10:46:13.000,1,revise,active
6280300150,64342454,,,Lugton Brae,,,,,,Lugton Brae,,,,Eastbound,,E,ES000968,Dalkeith,,,,,,,0,UKOS,332568,667672,-3.0799100,55.8974199,BCT,MKD,TIP,,,,130,2013-06-24T16:26:56.000,2013-08-07T16:17:22.000,2,revise,active
6280300185,64323532,,,Melville Gate,,,,opp Campus,,Melville Gate Road,,,,NE-bound,,NE,ES000968,Dalkeith,,,,,,,0,UKOS,331983,667506,-3.0892213,55.8958463,BCT,MKD,OTH,,,,130,2008-01-27T00:00:00.000,2009-09-08T00:00:00.000,3,revise,active
6280300195,64323487,,,Glebe Street,,,,At Garage,,Old Edinburgh Road,,,,near,,S,ES000968,Dalkeith,,,,,,,0,UKOS,332964,667463,-3.0735267,55.8955978,BCT,MKD,OTH,,,,130,2008-01-27T00:00:00.000,2018-03-22T10:46:13.000,1,revise,active
6280300309,64329326,,,Elginhaugh Bridge,,,,Elginhaugh Cottages,,Gilmerton Road,,,,at,,SE,ES000970,Melville Nursery,,,,,,,0,UKOS,332095,667189,-3.087351,55.893015,BCT,MKD,TIP,,,,130,2011-05-05T14:33:48.000,2011-05-05T14:30:37.000,0,new,active
6280300310,64329269,,,Eskbank Court,,-,,Eskbank Toll,,Melville Road,,,,opp,,SE,N0067286,Eskbank,,,,,,,0,UKOS,332437,666785,-3.081783,55.889433,BCT,MKD,OTH,,,,130,2009-04-07T00:00:00.000,2009-04-07T00:00:00.000,0,new,active
6280300340,64323474,,,Bridgend Court,,,,Grannies Park Ind Est,,Edinburgh Road,,,,opp,,SE,ES000968,Dalkeith,,,,,,,0,UKOS,333046,667484,-3.0722210,55.8957979,BCT,MKD,OTH,,,,130,2008-01-27T00:00:00.000,2018-03-22T10:46:13.000,1,revise,active
6280300345,64323523,,,Jarnac Court,,,,at North Wynd,,High Street,,,,opp,,NE,ES000968,Dalkeith,,,,,,,1,UKOS,333131,667309,-3.0708187,55.8942376,BCT,MKD,PPT,,,,130,2008-01-27T00:00:00.000,2011-02-11T11:45:20.000,2,revise,inactive
6280300347,64323479,,,Buccleuch Street,,,,Library,,Buccleuch Street,,,,at,,SE,ES000968,Dalkeith,,,,,,,1,UKOS,333144,667143,-3.0705698,55.8927482,BCT,MKD,PPT,,,,130,2008-01-27T00:00:00.000,2018-03-22T10:46:13.000,1,revise,active
6280300360,64323538,,,Dalkeith Parish Church,,,,opp County Hotel,,High Street,,,,at,,NE,ES000968,Dalkeith,,,,,,,0,UKOS,333280,667423,-3.0684648,55.8952824,BCT,MKD,OTH,,,,130,2008-01-27T00:00:00.000,2010-01-15T00:00:00.000,3,revise,active
6280300365,64323495,,,Corn Exchange,,,,at Hunt Close,,High Street,,,,opp,,NE,ES000968,Dalkeith,,,,,,,0,UKOS,333346,667563,-3.0674442,55.8965492,BCT,MKD,OTH,,,,130,2008-01-27T00:00:00.000,2018-03-22T10:46:13.000,1,revise,active
6280300370,64323548,,,Shadepark,,,,-,,Musselburgh Road,,,,opp,,E,ES000968,Dalkeith,,,,,,,0,UKOS,333666,667659,-3.0623516,55.8974559,BCT,MKD,OTH,,,,130,2008-01-27T00:00:00.000,2018-03-22T10:46:13.000,1,revise,active
6280300375,64323567,,,Thornybank,,,,Thornyhall Roundabout,,Musselburgh Road,,,,E-bound,,NE,ES000968,Dalkeith,,,,,,,0,UKOS,334055,667607,-3.0561194,55.8970423,BCT,MKD,OTH,,,,130,2008-01-27T00:00:00.000,2018-03-22T10:46:13.000,1,revise,active
6280300380,64323545,,,Salters Road,,,,Thornybank Industrial Estate,,Cousland Road,,,,opp,,SE,ES000968,Dalkeith,,,,,,,0,UKOS,334243,667579,-3.053107,55.896817,BCT,MKD,OTH,,,,130,2008-01-27T00:00:00.000,2013-01-23T15:58:57.000,4,revise,active
6280300381,64323546,,,Community Campus,,,,-,,Cousland Road,,,,at,,NE,ES000968,Dalkeith,,,,,,,1,UKOS,334771,667904,-3.0447435,55.8998080,BCT,MKD,OTH,,,,130,2008-01-27T00:00:00.000,2013-01-23T16:10:41.000,3,revise,active
6280300400,64323539,,,Dalkeith Parish Church,,,,County Hotel,,High Street,,,,opp,,SW,ES000968,Dalkeith,,,,,,,0,UKOS,333281,667399,-3.0684429,55.8950670,BCT,MKD,OTH,,,,130,2008-01-27T00:00:00.000,2009-08-21T00:00:00.000,2,revise,active
6280300450,64323564,,,Thornybank,,,,Thornybank Roundabout,,Musselburgh Road,,,,W-bound,,W,ES000968,Dalkeith,,,,,,,0,UKOS,334054,667582,-3.0561293,55.8968176,BCT,MKD,OTH,,,,130,2008-01-27T00:00:00.000,2018-03-22T10:46:13.000,1,revise,active
6280300455,64324593,,,James Lean Avenue,,,,-,,James Lean Avenue,,,,at 15,,NE,N0071886,Woodburn,Dalkeith,,,,,,0,UKOS,333720,667113,-3.061354,55.892559,BCT,MKD,OTH,,,,130,2008-01-27T00:00:00.000,2018-03-22T10:46:14.000,1,revise,active
6280300460,64324596,,,Newmills Terrace,,,,-,,James Lean Avenue,,,,at 43,,NE,N0071886,Woodburn,Dalkeith,,,,,,0,UKOS,333778,667210,-3.0604508,55.8934378,BCT,MKD,OTH,,,,130,2008-01-27T00:00:00.000,2018-03-22T10:46:14.000,1,revise,active
6280300465,64324594,,,James Lean Avenue,,,,-,,James Lean Avenue,,,,at 53,,NE,N0071886,Woodburn,Dalkeith,,,,,,0,UKOS,333884,667296,-3.0587773,55.8942250,BCT,MKD,OTH,,,,130,2008-01-27T00:00:00.000,2018-03-22T10:46:14.000,1,revise,active
6280300470,64324592,,,Bevan Lee Court,,,,-,,James Lean Avenue,,,,near,,NE,N0071886,Woodburn,Dalkeith,,,,,,0,UKOS,333982,667354,-3.0572247,55.8947595,BCT,MKD,OTH,,,,130,2008-01-27T00:00:00.000,2009-11-27T00:00:00.000,2,revise,active
6280300475,64324634,,,Woodburn Gardens,,,,-,,Woodburn Road,,,,at,,SE,N0071886,Woodburn,Dalkeith,,,,,,0,UKOS,334072,667356,-3.0557863,55.8947898,BCT,MKD,OTH,,,,130,2008-01-27T00:00:00.000,2009-11-27T00:00:00.000,2,revise,active
6280300480,64324632,,,Woodburn Drive,,,,-,,Woodburn Road,,,,opp,,SW,N0071886,Woodburn,Dalkeith,,,,,,0,UKOS,334070,667232,-3.0557881,55.8936756,BCT,MKD,OTH,,,,130,2008-01-27T00:00:00.000,2009-11-27T00:00:00.000,2,revise,active
6280300485,64324635,,,Place Charente,,,,-,,Woodburn Avenue,,,,opp,,SE,N0071886,Woodburn,Dalkeith,,,,,,0,UKOS,334014,667123,-3.0566567,55.8926887,BCT,MKD,OTH,,,,130,2008-01-27T00:00:00.000,2009-11-27T00:00:00.000,3,revise,active
6280300490,64324628,,,Woodburn Grove,,,,-,,Woodburn Avenue,,,,opp,,SE,N0071886,Woodburn,Dalkeith,,,,,,0,UKOS,334169,667045,-3.0541598,55.8920093,BCT,MKD,OTH,,,,130,2008-01-27T00:00:00.000,2009-11-27T00:00:00.000,2,revise,active
6280300495,64324636,,,Woodburn Loan,,,,-,,Woodburn Avenue,,,,at,,SE,N0071886,Woodburn,Dalkeith,,,,,,0,UKOS,334324,666968,-3.0516632,55.8913388,BCT,MKD,OTH,,,,130,2008-01-27T00:00:00.000,2009-11-27T00:00:00.000,2,revise,active
6280300500,64324638,,,Woodburn View,,,,-,,Woodburn Avenue,,,,near,,E,N0071886,Woodburn,Dalkeith,,,,,,0,UKOS,334417,666959,-3.0501744,55.8912706,BCT,MKD,OTH,,,,130,2008-01-27T00:00:00.000,2009-11-27T00:00:00.000,3,revise,active
6280300505,64324625,,,Whitehill Drive,,,,-,,Whitehill Drive,,,,at 41,,SW,N0071886,Woodburn,Dalkeith,,,,,,0,UKOS,334573,666820,-3.0476469,55.8900432,BCT,MKD,OTH,,,,130,2008-01-27T00:00:00.000,2018-03-22T10:46:14.000,1,revise,active
6280300510,64324627,,,Whitehill Lodge,,,,Whitehill Lodge,,Whitehill Drive,,,,at,,S,N0071886,Woodburn,Dalkeith,,,,,,0,UKOS,334535,666755,-3.0482386,55.8894541,BCT,MKD,OTH,,,,130,2008-01-27T00:00:00.000,2009-11-27T00:00:00.000,2,revise,active
6280300515,64324626,,,Whitehill Grove,,,,-,,Jean Armour Drive,,,,at,,NE,N0071886,Woodburn,Dalkeith,,,,,,0,UKOS,334637,666735,-3.0466033,55.8892883,BCT,MKD,PPT,,,,130,2008-01-27T00:00:00.000,2009-11-27T00:00:00.000,2,revise,active
6280300520,64324595,,,Clarinda Gardens,,,,-,,Jean Armour Drive,,,,near,,NE,N0071886,Woodburn,Dalkeith,,,,,,0,UKOS,334736,666898,-3.0450601,55.8907660,BCT,MKD,OTH,,,,130,2008-01-27T00:00:00.000,2009-11-27T00:00:00.000,2,revise,active
6280300525,64324597,,,Pankhurst Lane,,,,-,,Jean Armour Drive,,,,at,,N,N0071886,Woodburn,Dalkeith,,,,,,0,UKOS,334814,667078,-3.0438567,55.8923936,BCT,MKD,OTH,,,,130,2008-01-27T00:00:00.000,2009-11-27T00:00:00.000,2,revise,active
6280300530,64324637,,,Woodburn Terrace,,,,-,,Woodburn Terrace,,,,at 52,,SW,N0071886,Woodburn,Dalkeith,,,,,,0,UKOS,334709,667163,-3.0455558,55.8931429,BCT,MKD,OTH,,,,130,2008-01-27T00:00:00.000,2018-03-22T10:46:14.000,1,revise,active
6280300535,64324598,,,Woodburn Place,,,,-,,Woodburn Bank,,,,at,,NW,N0071886,Woodburn,Dalkeith,,,,,,0,UKOS,334488,667117,-3.0490777,55.8926996,BCT,MKD,OTH,,,,130,2008-01-27T00:00:00.000,2009-11-27T00:00:00.000,2,revise,active
6280300540,64324629,,,Woodburn Street,,,,-,,Woodburn Bank,,,,near,,NW,N0071886,Woodburn,Dalkeith,,,,,,0,UKOS,334332,667193,-3.0515900,55.8933611,BCT,MKD,OTH,,,,130,2008-01-27T00:00:00.000,2009-11-27T00:00:00.000,2,revise,active
6280300545,64324624,,,Wilson Avenue,,,,-,,Salters Road,,,,near,,N,N0071886,Woodburn,Dalkeith,,,,,,0,UKOS,334223,667312,-3.0533616,55.8944152,BCT,MKD,OTH,,,,130,2008-01-27T00:00:00.000,2013-01-23T16:11:31.000,4,revise,active
6280300550,64324623,,,Salters Road,,,,Salters Inn PH,,Salters Road,,,,at,,NE,N0071886,Woodburn,Dalkeith,,,,,,0,UKOS,334275,667505,-3.0525772,55.8961561,BCT,MKD,OTH,,,,130,2008-01-27T00:00:00.000,2009-11-27T00:00:00.000,2,revise,active
6280300555,64323476,,,Bruce Gardens,,,,-,,Lauder Road,,,,opp,,SE,ES000968,Dalkeith,,,,,,,0,UKOS,333983,666913,-3.0571010,55.8907980,BCT,MKD,OTH,,,,130,2008-01-27T00:00:00.000,2018-03-22T10:46:13.000,1,revise,active
6280300560,64323542,,,Primrose Terrace,,,,opp School,,Lauder Road,,,,at,,SE,ES000968,Dalkeith,,,,,,,0,UKOS,334189,666815,-3.0537841,55.8899459,BCT,MKD,PPT,,,,130,2008-01-27T00:00:00.000,2018-03-22T10:46:13.000,1,revise,active
6280300570,64323493,,,Hepburn Drive,,,,At steps to Hepburn Drive,,Lauder Road,,,,at,,SE,ES000968,Dalkeith,,,,,,,0,UKOS,334406,666716,-3.0502912,55.8890862,BCT,MKD,PPT,,,,130,2008-01-27T00:00:00.000,2018-03-22T10:46:13.000,1,revise,active
6280300674,64328254,,,Schools Campus,,Schools Campus,,-,,Within Campus,,,,Stance 1,,N,ES000968,Dalkeith,,,,,,,0,UKOS,334876,667960,-3.0430781,55.9003253,BCT,MKD,PTP,,,,130,2008-08-21T00:00:00.000,2010-10-07T00:00:00.000,2,revise,active
6280300675,64323547,,,Community Campus,,,,-,,Cousland Road,,,,opp,,SW,ES000968,Dalkeith,,,,,,,1,UKOS,334777,667881,-3.0446420,55.8996022,BCT,MKD,OTH,,,,130,2008-01-27T00:00:00.000,2013-01-23T16:12:14.000,3,revise,active
6280300676,64324685,,,Cowden Crescent,,,,-,,Cowden Road,,,,opp,,SE,ES000968,Dalkeith,,,,,,,1,UKOS,334589,667405,-3.0475328,55.8953006,BCT,MKD,TIP,,,,130,2008-01-27T00:00:00.000,2009-08-21T00:00:00.000,2,revise,active
6280300677,64326867,,,Dalkeith Heights,,Dalkeith Heights,,opp footpath to Jean Armour Drive,,Cowden Road,,,,SW-bound,,SW,ES000968,Dalkeith,,,,,,,0,UKOS,334849,666945,-3.0432651,55.8912036,BCT,MKD,OTH,,,,130,2008-03-29T00:00:00.000,2010-03-10T00:00:00.000,1,revise,active
6280300680,64323635,,,Chesterhill,,,,Rose Cottage,,Edgehead Road,,,,opp 28,,SE,N0071915,Edgehead,,,,,,,1,UKOS,337396,665135,-3.0021294,55.8752818,BCT,MKD,PPT,,,,130,2008-01-27T00:00:00.000,2018-03-22T10:46:13.000,1,revise,active
6280300690,64323637,,,Main Street,,,,-,,Edgehead Road,,,,opp 60,,SE,N0071915,Edgehead,,,,,,,0,UKOS,337716,664910,-2.9969641,55.8733021,BCT,MKD,OTH,,,,130,2008-01-27T00:00:00.000,2009-02-13T00:00:00.000,2,revise,active
6280300710,64324257,,,Crichton Avenue,,,,Pathhead Community Hall,,Main Street,,,,opp,,SE,ES002981,Pathhead,,,,,,,0,UKOS,339364,664372,-2.9705104,55.8686794,BCT,MKD,PPT,,,,130,2008-01-27T00:00:00.000,2013-01-23T16:13:05.000,2,revise,active
6280300720,64324259,,,Oxenfoord Avenue,,,,Royal Bank of Scotland,,Main Street,,,,opp,,SE,ES002981,Pathhead,,,,,,,0,UKOS,339600,664183,-2.9666976,55.8670112,BCT,MKD,OTH,,,,130,2008-01-27T00:00:00.000,2013-01-23T16:13:55.000,2,revise,active
6280300730,64324263,,,Roman Camp,,,,-,,Main Street,,,,opp,,SE,ES002981,Pathhead,,,,,,,0,UKOS,339751,663961,-2.9642358,55.8650358,BCT,MKD,OTH,,,,130,2008-01-27T00:00:00.000,2018-03-22T10:46:14.000,1,revise,active
6280300740,64324254,,,Bowling Green,,,,-,,Main Street,,,,opp,,SE,ES002981,Pathhead,,,,,,,0,UKOS,339792,663830,-2.9635516,55.8638640,BCT,MKD,OTH,,,,130,2008-01-27T00:00:00.000,2013-01-23T16:14:28.000,2,revise,active
6280300750,64323656,,,Fala,,,,-,,unclassified through village,,,,in village,,NW,ES001345,Fala,,,,,,,1,UKOS,343706,660978,-2.900431,55.838716,BCT,MKD,PPT,,,,130,2008-01-27T00:00:00.000,2011-11-04T11:16:56.000,2,revise,inactive
6280300755,64323657,,,Fala Dam,,,,-,,unclassified road through village,,,,opposite Falaburn Cottage,,W,ES001345,Fala,,,,,,,1,UKOS,342945,661581,-2.9127078,55.8440437,BCT,MKD,PPT,,,,130,2008-01-27T00:00:00.000,2011-11-04T11:17:50.000,2,revise,inactive
6280300840,64323526,,,Easthouses Road,,,,Kippielaw House,,Easthouses Road,,,,S-bound,,S,ES000969,Kippielaw,,,,,,,0,UKOS,334416,666352,-3.0500431,55.8858176,BCT,MKD,OTH,,,,130,2008-01-27T00:00:00.000,2013-01-23T16:15:05.000,5,revise,active
6280300850,64323627,,,Easthouses Way,,,,-,,Easthouses Road,,,,near,,SE,ES001244,Easthouses,,,,,,,0,UKOS,334480,665915,-3.0489142,55.8819006,BCT,MKD,PPT,,,,130,2008-01-27T00:00:00.000,2018-03-22T10:46:13.000,1,revise,active
6280300860,64323628,,,Little Acre,,,,opp Easthouses Court,,Easthouses Road,,,,at,,SE,ES001244,Easthouses,,,,,,,0,UKOS,334536,665762,-3.0479822,55.8805338,BCT,MKD,PPT,,,,130,2008-01-27T00:00:00.000,2018-03-22T10:46:13.000,1,revise,active
6280300870,64323863,,,Hawthorn Crescent,,,,-,,Easthouses Road,,,,at,,SE,ES002569,Mayfield,,,,,,,0,UKOS,334641,665512,-3.0462437,55.8783022,BCT,MKD,OTH,,,,130,2008-01-27T00:00:00.000,2018-03-22T10:46:14.000,1,revise,active
6280300880,64323859,,,Hawthorn Centre,,,,-,,Bogwood Road,,,,opp,,SE,ES002569,Mayfield,,,,,,,0,UKOS,334773,665355,-3.0440964,55.8769097,BCT,MKD,OTH,,,,130,2008-01-27T00:00:00.000,2018-03-22T10:46:14.000,1,revise,active
6280300890,64323873,,,Mayfield Place,,,,Church of Scotland,,Bogwood Road,,,,opp,,SE,ES002569,Mayfield,,,,,,,1,UKOS,334951,665120,-3.0411954,55.8748227,BCT,MKD,OTH,,,,130,2008-01-27T00:00:00.000,2018-03-22T10:46:14.000,1,revise,active
6280300900,64323853,,,Elm Place,,,,-,,Bogwood Road,,,,opp,,S,ES002569,Mayfield,,,,,,,1,UKOS,335050,664912,-3.0395636,55.8729676,BCT,MKD,PPT,,,,130,2008-01-27T00:00:00.000,2018-03-22T10:46:14.000,1,revise,active
6280300905,64323896,,,Sycamore Road,,,,Pinewood Place,,Bogwood Road,,,,opp,,SE,ES002569,Mayfield,,,,,,,0,UKOS,335126,664657,-3.0382881,55.8706870,BCT,MKD,OTH,,,,130,2008-01-27T00:00:00.000,2018-03-22T10:46:14.000,1,revise,active
6280300909,64323926,,,Buckie Road,,,,Mayfield roundabout,,D'Arcy Road,,,,at,,E,ES002569,Mayfield,,,,,,,0,UKOS,335130,664805,-3.0382596,55.8720171,BCT,MKD,OTH,,,,130,2008-01-27T00:00:00.000,2018-03-22T10:46:14.000,1,revise,active
6280300910,64323878,,,Oak Crescent,,,,-,,D'Arcy Road,,,,opp,,NE,ES002569,Mayfield,,,,,,,0,UKOS,335330,664927,-3.0350932,55.8731400,BCT,MKD,OTH,,,,130,2008-01-27T00:00:00.000,2018-03-22T10:46:14.000,1,revise,active
6280300920,64323856,,,Finlay Place,,,,-,,Oak Place,,,,opp,,E,ES002569,Mayfield,,,,,,,0,UKOS,335643,664966,-3.0301012,55.8735323,BCT,MKD,OTH,,,,130,2008-01-27T00:00:00.000,2018-03-22T10:46:14.000,1,revise,active
6280300925,64323872,,,Larch Crescent,,,,-,,Oak Place,,,,near,,SW,ES002569,Mayfield,,,,,,,0,UKOS,335753,664853,-3.0283167,55.8725319,BCT,MKD,OTH,,,,130,2008-01-27T00:00:00.000,2018-03-22T10:46:14.000,1,revise,active
6280300930,64323867,,,Hughes Crescent,,,,-,,Oak Place,,,,opp,,S,ES002569,Mayfield,,,,,,,0,UKOS,335696,664647,-3.029179,55.870674,BCT,MKD,OTH,,,,130,2008-01-27T00:00:00.000,2018-03-22T10:46:14.000,1,revise,active
6280300935,64323925,,,The Kilns,,,,-,,Unnamed Road,,,,NE-bound,,NE,ES002569,Mayfield,,,,,,,0,UKOS,335379,664474,-3.0342020,55.8690771,BCT,MKD,OTH,,,,130,2008-01-27T00:00:00.000,2013-01-23T16:15:52.000,3,revise,active
6280300939,64324639,,,Westhouses Road,,,,-,,Westhouses Road,,,,at 56,,NE,ES002569,Mayfield,,,,,,,0,UKOS,335283,664286,-3.0356909,55.8673753,BCT,MKD,OTH,,,,130,2008-01-27T00:00:00.000,2018-03-22T10:46:14.000,1,revise,active
6280300940,64323924,,,Westhouses Drive,,,,opp John Humble Street,,Westhouses Road,,,,at,,NE,ES002569,Mayfield,,,,,,,0,UKOS,335151,664122,-3.0377604,55.8658843,BCT,MKD,OTH,,,,130,2008-01-27T00:00:00.000,2018-03-22T10:46:14.000,1,revise,active
6280300945,64325742,,,Cook Crescent,,,,,,Bogwood Road,,,,opp,,SW,ES002569,Mayfield,,,,,,,0,UKOS,335028,664183,-3.0397400,55.8664157,BCT,MKD,TIP,,,,130,2008-01-27T00:00:00.000,2015-02-25T11:07:18.000,1,revise,active
6280300950,64323864,,,Hill Place,,,,-,,Bogwood Road,,,,opp,,SW,ES002569,Mayfield,,,,,,,0,UKOS,335136,664273,-3.0380362,55.8672388,BCT,MKD,OTH,,,,130,2008-01-27T00:00:00.000,2018-03-22T10:46:14.000,1,revise,active
6280300960,64323869,,,Cook Crescent,,,,Cook Crescent,,Bogwood Road,,,,at,,NE,ES002569,Mayfield,,,,,,,1,UKOS,334985,664170,-3.0404239,55.8662931,BCT,MKD,PPT,,,,130,2008-01-27T00:00:00.000,2015-02-25T11:08:19.000,3,revise,active
6280300970,64323874,,,Stone Place,,,,Mayfield Labour Club,,Eskview Road,,,,at,,W,ES002569,Mayfield,,,,,,,0,UKOS,334875,664775,-3.0423268,55.8717132,BCT,MKD,OTH,,,,130,2008-01-27T00:00:00.000,2018-03-22T10:46:14.000,1,revise,active
6280300980,64323847,,,Blackcot Road,,,,opp Garage,,Suttieslea Road,,,,at,,S,ES002569,Mayfield,,,,,,,0,UKOS,334562,664679,-3.0473047,55.8708083,BCT,MKD,OTH,,,,130,2008-01-27T00:00:00.000,2013-01-23T16:16:30.000,3,revise,active
6280300990,64323849,,,Blackcot Avenue,,,,Newbattle Medical Practice,,Suttieslea Road,,,,at,,SW,ES002569,Mayfield,,,,,,,0,UKOS,334477,664450,-3.0486073,55.8687396,BCT,MKD,PPT,,,,130,2008-01-27T00:00:00.000,2013-01-23T16:17:30.000,4,revise,active
6280301000,64323894,,,Suttieslea Place,,,,-,,Suttieslea Road,,,,opp,,NW,N0067245,Bryans,,,,,,,0,UKOS,334166,664609,-3.053615,55.870126,BCT,MKD,OTH,,,,130,2008-01-27T00:00:00.000,2010-07-08T00:00:00.000,3,revise,active
6280301029,64324747,,,Mayfield Road,,,,opp Miners Club,,Easthouses Road,,,,at,,SW,ES001244,Easthouses,,,,,,,0,UKOS,334491,665716,-3.0486902,55.8801144,BCT,MKD,OTH,,,,130,2008-01-27T00:00:00.000,2015-02-05T12:03:29.000,3,revise,active
6280301030,64323632,,,Parkhead Place,,,,at park entrance,,Easthouses Road,,,,opp,,SW,ES001244,Easthouses,,,,,,,0,UKOS,334320,665578,-3.05139,55.878851,BCT,MKD,PPT,,,,130,2008-01-27T00:00:00.000,2018-03-22T10:46:13.000,1,revise,active
6280301050,64323964,,,Hamilton Crescent,,,,-,,Bryans Road,,,,at,,NW,N0067245,Bryans,,,,,,,0,UKOS,334020,664756,-3.0559832,55.8714260,BCT,MKD,OTH,,,,130,2008-01-27T00:00:00.000,2018-03-22T10:46:13.000,1,revise,active
6280301055,64323978,,,Mansfield Road,,,,opp Mansfield Ave,,Mansfield Road,,,,opp 2,,SE,ES002829,Newtongrange,,,,,,,0,UKOS,333811,664927,-3.059364,55.872934,BCT,MKD,PPT,,,,130,2008-01-27T00:00:00.000,2009-12-24T00:00:00.000,2,revise,active
6280301060,64323967,,,Bryans Avenue,,,,-,,Bryans Road,,,,opp,,SW,ES002829,Newtongrange,,,,,,,0,UKOS,333754,664714,-3.0602230,55.8710122,BCT,MKD,OTH,,,,130,2008-01-27T00:00:00.000,2018-03-22T10:46:14.000,1,revise,active
6280301070,64323989,,,Park Road,,,,opp Beechwood Park,,Bryans Road,,,,at,,SW,ES002829,Newtongrange,,,,,,,0,UKOS,333512,664591,-3.0640593,55.8698739,BCT,MKD,OTH,,,,130,2008-01-27T00:00:00.000,2018-03-22T10:46:14.000,1,revise,active
6280301080,64323525,,,Kings Park,,,,opp Rugby Club,,Eskbank Road,,,,at,,SW,ES000968,Dalkeith,,,,,,,1,UKOS,332916,667018,-3.0741837,55.8915936,BCT,MKD,PPT,,,,130,2008-01-27T00:00:00.000,2018-03-22T10:46:13.000,1,revise,active
6280301090,64323489,,,Glenesk Crescent,,,,opp 38,,Eskbank Road,,,,opp,,SW,ES000968,Dalkeith,,,,,,,0,UKOS,332720,666886,-3.0772840,55.8903804,BCT,MKD,OTH,,,,130,2008-01-27T00:00:00.000,2018-03-22T10:46:13.000,1,revise,active
6280301100,64323486,,,Eskbank Toll,,,,Eskbank Toll Roundabout,,Eskbank Road,,,,at,,SW,ES000968,Dalkeith,,,,,,,1,UKOS,332547,666704,-3.0800041,55.8887212,BCT,MKD,PPT,,,,130,2008-01-27T00:00:00.000,2018-03-22T10:46:13.000,1,revise,active
6280301101,64325837,,,Station Road,,Station Road,,-,,Lasswade Road,,,,at,,W,N0067286,Eskbank,,,,,,,0,UKOS,332380,666698,-3.0826720,55.8886439,BCT,MKD,OTH,,,,130,2008-03-29T00:00:00.000,2018-03-22T10:46:13.000,0,new,active
6280301102,64325842,,,South Melville,,South Melville,,Eskfield Grove,,Lasswade Road,,,,at,,W,N0067286,Eskbank,,,,,,,0,UKOS,331969,666722,-3.0892477,55.8888015,BCT,MKD,OTH,,,,130,2008-03-29T00:00:00.000,2018-03-22T10:46:13.000,0,new,active
6280301105,64323646,,,Eskbank Toll,,,,opp Justinlee PH,,Newbattle Road,,,,SE-bound,,SE,N0067286,Eskbank,,,,,,,1,UKOS,332581,666654,-3.0794481,55.8882768,BCT,MKD,PPT,,,,130,2008-01-27T00:00:00.000,2018-03-22T10:46:13.000,1,revise,active
6280301110,64323945,,,Ancrum Bank,,,,Police HQ,,Newbattle Road,,,,opp,,SE,N0067286,Eskbank,,,,,,,0,UKOS,332815,666503,-3.0756702,55.8869531,BCT,MKD,OTH,,,,130,2008-01-27T00:00:00.000,2018-03-22T10:46:13.000,1,revise,active
6280301111,64323976,,,Galadale,,,,opp Galadale Drive,,Newbattle Road,,,,opp,,N,ES002829,Newtongrange,,,,,,,0,UKOS,333240,664690,-3.06843,55.870726,BCT,MKD,OTH,,,,130,2008-01-27T00:00:00.000,2009-06-18T00:00:00.000,2,revise,active
6280301113,64324675,,,Newbattle Cemetery,,,,-,,Newbattle Road,,,,opp,,SE,ES002793,Newbattle,,,,,,,0,UKOS,332963,666408,-3.0732810,55.8861203,BCT,MKD,OTH,,,,130,2008-01-27T00:00:00.000,2009-08-21T00:00:00.000,2,revise,active
6280301114,64323949,,,Newbattle Abbey Crescent,,,,Newbattle Bridge,,Newbattle Road,,,,opp,,SE,ES002793,Newbattle,,,,,,,0,UKOS,333128,665714,-3.0704721,55.8799089,BCT,MKD,PPT,,,,130,2008-01-27T00:00:00.000,2018-03-22T10:46:14.000,1,revise,active
6280301115,64323954,,,The Beeches,,,,Gas plant,,The Beeches,,,,SE-bound,,SE,ES002829,Newtongrange,,,,,,,0,UKOS,333352,665250,-3.0667780,55.8757717,BCT,MKD,OTH,,,,130,2008-01-27T00:00:00.000,2018-03-22T10:46:14.000,1,revise,active
6280301118,64324672,,,Melville Castle,,,,-,,Gilmerton Road,,,,opp,,E,ES000968,Dalkeith,,,,,,,0,UKOS,331732,667439,-3.0932172,55.8952089,BCT,MKD,OTH,,,,130,2008-01-27T00:00:00.000,2013-01-23T16:18:41.000,2,revise,active
6280301119,64323485,,,Dobbies Garden World,,,,-,,Gilmerton Road,,,,opp,,SE,ES000970,Melville Nursery,,,,,,,1,UKOS,331356,667607,-3.099261,55.896665,BCT,MKD,PPT,,,,130,2008-01-27T00:00:00.000,2024-04-16T16:07:12.613,4,revise,active
6280301120,64323947,,,Kings Gate,,Kings Gate,,-,,Dalhousie Road,,,,at,,SE,ES002793,Newbattle,,,,,,,0,UKOS,332435,665252,-3.0814316,55.8756618,BCT,MKD,PPT,,,,130,2008-01-27T00:00:00.000,2013-01-23T16:19:57.000,2,revise,active
6280301178,64325743,,,Dalhousie Road,,,,Viaduct Bridge,,Dalhousie Road,,,,on,,SE,ES000415,Lothianbridge,,,,,,,0,UKOS,332931,664746,-3.0733804,55.8711857,BCT,MKD,TIP,,,,130,2008-01-27T00:00:00.000,2009-12-24T00:00:00.000,2,revise,active
6280301179,64323969,,,Dalhousie Road,,,,opp Air Training Corps Hut,,Dalhousie Road,,,,on,,E,ES002829,Newtongrange,,,,,,,0,UKOS,333164,664608,-3.0696235,55.8699784,BCT,MKD,OTH,,,,130,2008-01-27T00:00:00.000,2013-01-31T13:46:38.000,4,revise,active
6280301180,64324235,,,Station Road,,,,-,,Main Street,,,,opp,,S,ES002829,Newtongrange,,,,,,,1,UKOS,333239,664544,-3.06841,55.869414,BCT,MKD,PPT,,,,130,2008-01-27T00:00:00.000,2018-03-22T10:46:14.000,1,revise,active
6280301185,64324234,,,St Anne's Court,,,,-,,Main Street,,,,at,,S,ES002829,Newtongrange,,,,,,,0,UKOS,333318,664325,-3.067093,55.867458,BCT,MKD,OTH,,,,130,2008-01-27T00:00:00.000,2013-01-31T12:04:51.000,3,revise,active
6280301190,64323972,,,Dean Park Place,,,,at Parish Church,,Main Street,,,,opp,,S,ES002829,Newtongrange,,,,,,,0,UKOS,333359,664188,-3.0664046,55.8662324,BCT,MKD,OTH,,,,130,2008-01-27T00:00:00.000,2018-03-22T10:46:14.000,1,revise,active
6280301200,64323974,,,Fourth Street,,,,opp PO,,Main Street,,,,at,,S,ES002829,Newtongrange,,,,,,,1,UKOS,333377,664064,-3.0660865,55.8651210,BCT,MKD,PPT,,,,130,2008-01-27T00:00:00.000,2010-07-08T00:00:00.000,2,revise,active
6280301210,64323984,,,Mining Museum,,,,bridge over A7,,A7,,,,opp,,S,ES002829,Newtongrange,,,,,,,0,UKOS,333445,663627,-3.0648928,55.8612047,BCT,MKD,OTH,,,,130,2008-01-27T00:00:00.000,2010-07-08T00:00:00.000,4,revise,active
6280301220,64323982,,,McGahey Court,,,,opp Council Depot,,Stobhill Road,,,,at,,SE,ES002829,Newtongrange,,,,,,,0,UKOS,333607,663506,-3.0622754,55.8601401,BCT,MKD,OTH,,,,130,2008-01-27T00:00:00.000,2018-03-22T10:46:14.000,1,revise,active
6280301230,64323734,,,The Crescent,,,,Village Store,,Stobhill Road,,,,at,,S,N0071927,Gowkshill,,,,,,,1,UKOS,333983,663212,-3.0561978,55.8575507,BCT,MKD,PPT,,,,130,2008-01-27T00:00:00.000,2018-03-22T10:46:13.000,1,revise,active
6280301240,64323729,,,Gowkshill Farm,,,,-,,Stobhill Road,,,,opp,,S,N0071927,Gowkshill,,,,,,,0,UKOS,334045,663007,-3.0551577,55.8557176,BCT,MKD,OTH,,,,130,2008-01-27T00:00:00.000,2018-03-22T10:46:13.000,1,revise,active
6280301245,64323737,,,St Andrews Primary School,,St Andrews Pri Sch,,St Andrews Primary School,,Stobhill Road,,,,at,,S,N0071927,Gowkshill,,,,,,,0,UKOS,334108,662872,-3.054119,55.854514,BCT,MKD,OTH,,,,130,2008-01-27T00:00:00.000,2015-02-05T14:41:36.000,4,revise,active
6280301250,64323689,,,Greenhall Road,,,,-,,Greenhall Road,,,,at 38,,S,N0072090,Greenhall,Gorebridge,,,,,,0,UKOS,334142,662641,-3.05352,55.852443,BCT,MKD,OTH,,,,130,2008-01-27T00:00:00.000,2012-12-10T15:32:16.000,4,revise,active
6280301260,64323674,,,Barleyknowe Crescent,,,,-,,Greenhall Road,,,,at,,S,N0072090,Greenhall,Gorebridge,,,,,,0,UKOS,334071,662432,-3.054603,55.850556,BCT,MKD,OTH,,,,130,2008-01-27T00:00:00.000,2018-03-22T10:46:13.000,1,revise,active
6280301270,64323685,,,Greenhall Crescent,,,,-,,Greenhall Crescent,,,,at 6,,SW,N0071926,Hunterfield,Gorebridge,,,,,,0,UKOS,334032,662301,-3.055193,55.849373,BCT,MKD,OTH,,,,130,2008-01-27T00:00:00.000,2018-03-22T10:46:13.000,1,revise,active
6280301280,64323678,,,Arniston Engine,,,,-,,Hunterfield Road,,,,opp,,SE,N0067191,Arniston,Gorebridge,,,,,,0,UKOS,334089,662173,-3.0542520,55.8482315,BCT,MKD,OTH,,,,130,2008-01-27T00:00:00.000,2018-03-22T10:46:13.000,1,revise,active
6280301290,64323794,,,Mayshade Road,,,,-,,Mayburn Terrace,,,,at,,SE,N0071589,Loanhead,,,,,,,0,UKOS,327726,666201,-3.15693,55.883502,BCT,MKD,OTH,,,,130,2008-01-27T00:00:00.000,2018-03-22T10:46:13.000,1,revise,active
6280301300,64323785,,,Hawthorn Gardens,,,,Inveravon Road,,Hawthorn Gardens,,,,SE-bound,,SE,N0071589,Loanhead,,,,,,,0,UKOS,327911,666026,-3.1539268,55.8819582,BCT,MKD,OTH,,,,130,2008-01-27T00:00:00.000,2018-03-22T10:46:13.000,1,revise,active
6280301310,64323767,,,Edgefield Road,,,,The Mayflower PH,,Fountain Place,,,,at,,SE,N0071589,Loanhead,,,,,,,0,UKOS,328046,665852,-3.1517230,55.8804154,BCT,MKD,OTH,,,,130,2008-01-27T00:00:00.000,2018-03-22T10:46:13.000,1,revise,active
6280301320,64323783,,,George Drive,,,,Library H.Q.,,Clerk Street,,,,opp,,SE,N0071589,Loanhead,,,,,,,0,UKOS,328127,665750,-3.1504014,55.8795112,BCT,MKD,OTH,,,,130,2008-01-27T00:00:00.000,2018-03-22T10:46:13.000,1,revise,active
6280301330,64323829,,,Station Road,,,,-,,High Street,,,,at,,E,N0071589,Loanhead,,,,,,,1,UKOS,328324,665566,-3.147205,55.877888,BCT,MKD,PPT,,,,130,2008-01-27T00:00:00.000,2018-03-22T10:46:14.000,1,revise,active
6280301340,64323762,,,Academy Lane,,,,opp Arbuthnot Road,,High Street,,,,at,,E,N0071589,Loanhead,,,,,,,0,UKOS,328454,665554,-3.1451239,55.8777993,BCT,MKD,OTH,,,,130,2008-01-27T00:00:00.000,2018-03-22T10:46:13.000,1,revise,active
6280301350,64323792,,,Hunter Avenue,,,,-,,Linden Place,,,,at,,E,N0071589,Loanhead,,,,,,,0,UKOS,328625,665571,-3.1423959,55.8779774,BCT,MKD,OTH,,,,130,2008-01-27T00:00:00.000,2018-03-22T10:46:13.000,1,revise,active
6280301360,64324578,,,Kevock Road,,,,at 16a,,Wadingburn Road,,,,opp,,E,ES002299,Wadingburn,,,,,,,0,UKOS,329510,665924,-3.1283456,55.8812789,BCT,MKD,OTH,,,,130,2008-01-27T00:00:00.000,2018-03-22T10:46:14.000,1,revise,active
6280301369,64324583,,,Wester Melville,,,,-,,Lasswade Road,,,,opp,,S,N0071588,Lasswade,,,,,,,0,UKOS,329564,666703,-3.127686,55.888285,BCT,MKD,OTH,,,,130,2008-01-27T00:00:00.000,2018-03-22T10:46:13.000,1,revise,active
6280301370,64324582,,,Lasswade Road,,,,opp Wadingburn junction,,Lasswade Road,,,,E-bound,,E,ES002299,Wadingburn,,,,,,,0,UKOS,329836,666158,-3.1231963,55.8834286,BCT,MKD,OTH,,,,130,2008-01-27T00:00:00.000,2013-01-23T16:25:02.000,2,revise,active
6280301380,64323749,,,Laird and Dog,,,,Postbox,,High Street,,,,opp,,SE,N0071588,Lasswade,,,,,,,1,UKOS,330347,666171,-3.1150327,55.8836196,BCT,MKD,PPT,,,,130,2008-01-27T00:00:00.000,2018-03-22T10:46:13.000,1,revise,active
6280301390,64323747,,,Elm Row,,,,-,,Elm Row,,,,NE-bound,,NE,N0071588,Lasswade,,,,,,,0,UKOS,330523,666206,-3.112229,55.88396,BCT,MKD,OTH,,,,130,2008-01-27T00:00:00.000,2018-03-22T10:46:13.000,1,revise,active
6280301400,64323265,,,Broomieknowe Gardens,,,,-,,Hillhead,,,,at,,S,N0071959,Broomieknowe,Bonnyrigg,,,,,,0,UKOS,330622,665843,-3.1105534,55.8807129,BCT,MKD,OTH,,,,130,2008-01-27T00:00:00.000,2018-03-22T10:46:13.000,1,revise,active
6280301410,64323296,,,Rockville Terrace,,,,-,,High Street,,,,opp,,S,ES000413,Bonnyrigg,,,,,,,0,UKOS,330784,665619,-3.1079071,55.8787240,BCT,MKD,OTH,,,,130,2008-01-27T00:00:00.000,2018-03-22T10:46:13.000,1,revise,active
6280301420,64323292,,,Park Road,,,,Pitcairn Centre,,High Street,,,,opp,,SE,ES000413,Bonnyrigg,,,,,,,1,UKOS,330847,665357,-3.1068334,55.8763795,BCT,MKD,PPT,,,,130,2008-01-27T00:00:00.000,2018-03-22T10:46:13.000,1,revise,active
6280301430,64323649,,,Station Road,,,,Springfield Home,,Bonnyrigg Road,,,,near,,SW,N0067286,Eskbank,,,,,,,0,UKOS,332437,666575,-3.0817302,55.8875469,BCT,MKD,OTH,,,,130,2008-01-27T00:00:00.000,2009-11-27T00:00:00.000,2,revise,active
6280301440,64323652,,,Westfield Park,,,,Shorts Garage,,Bonnyrigg Road,,,,at,,SW,N0067286,Eskbank,,,,,,,0,UKOS,332219,666315,-3.0851495,55.8851806,BCT,MKD,OTH,,,,130,2008-01-27T00:00:00.000,2018-03-22T10:46:13.000,1,revise,active
6280301450,64323647,,,Muirpark,,,,Tesco,,Bonnyrigg Road,,,,at,,SW,N0067286,Eskbank,,,,,,,0,UKOS,332018,666074,-3.0883015,55.8829873,BCT,MKD,OTH,,,,130,2008-01-27T00:00:00.000,2018-03-22T10:46:13.000,1,revise,active
6280301452,64324572,,,Tesco,,Tesco,,-,,Unnamed Road,,,,at,,NE,N0067286,Eskbank,,,,,,,0,UKOS,332215,666027,-3.0851412,55.8825929,BCT,MKD,PPT,,,,130,2008-01-27T00:00:00.000,2013-01-23T16:25:42.000,2,revise,active
6280301454,64329286,,,Midlothian Community Hospital,,,,Within Hospital Grounds,,Unnamed Road,,,,At,,NW,ES000413,Bonnyrigg,,,,,,,0,UKOS,331916,665851,-3.0898756,55.8809696,BCT,MKD,TIP,,,,130,2010-06-07T00:00:00.000,2013-01-23T16:26:19.000,2,revise,active
6280301455,64323285,,,Mayshade Garden Centre,,,,-,,Eskbank Road,,,,opp,,SW,ES000413,Bonnyrigg,,,,,,,0,UKOS,331839,665903,-3.0911193,55.8814258,BCT,MKD,OTH,,,,130,2008-01-27T00:00:00.000,2010-10-07T00:00:00.000,2,revise,active
6280301460,64323294,,,Pendreich Avenue,,,,Waugh Path,,Eskbank Road,,,,opp,,SW,ES000413,Bonnyrigg,,,,,,,0,UKOS,331581,665725,-3.0951975,55.8797902,BCT,MKD,OTH,,,,130,2008-01-27T00:00:00.000,2010-10-07T00:00:00.000,3,revise,active
6280301470,64323425,,,Waverley Crescent,,,,Reyesville PH,,Lothian Street,,,,at,,SW,ES000413,Bonnyrigg,,,,,,,0,UKOS,331219,665488,-3.1009223,55.8776096,BCT,MKD,OTH,,,,130,2008-01-27T00:00:00.000,2009-08-21T00:00:00.000,2,revise,active
6280301480,64323283,,,Maryfield Place,,,,Auld Orchard,,Lothian Street,,,,near,,SW,ES000413,Bonnyrigg,,,,,,,0,UKOS,331043,665281,-3.1036820,55.8757249,BCT,MKD,OTH,,,,130,2008-01-27T00:00:00.000,2009-08-21T00:00:00.000,2,revise,active
6280301490,64323264,,,Bonnyrigg Toll,,,,Calderwood PH,,Dundas Street,,,,at,,SE,ES000413,Bonnyrigg,,,,,,,1,UKOS,330953,665164,-3.1050903,55.8746609,BCT,MKD,PPT,,,,130,2008-01-27T00:00:00.000,2018-03-22T10:46:13.000,1,revise,active
6280301495,64323427,,,Waverley Terrace,,,,Waverley Hotel,,Dundas Street,,,,at,,SE,ES000413,Bonnyrigg,,,,,,,0,UKOS,331168,664998,-3.1016126,55.8732005,BCT,MKD,OTH,,,,130,2008-01-27T00:00:00.000,2018-03-22T10:46:13.000,1,revise,active
6280301500,64323432,,,Wolsey Avenue,,,,Sherwood Industrial Estate,,Cockpen Road,,,,near,,SE,ES000413,Bonnyrigg,,,,,,,0,UKOS,331346,664885,-3.0987398,55.8722108,BCT,MKD,OTH,,,,130,2008-01-27T00:00:00.000,2009-08-21T00:00:00.000,2,revise,active
6280301501,64325836,,,Bairds Way,,Bairds Way,,-,,Cockpen Road,,,,at,,SE,ES000413,Bonnyrigg,,,,,,,0,UKOS,331580,664696,-3.0949532,55.8705463,BCT,MKD,OTH,,,,130,2008-03-29T00:00:00.000,2009-08-21T00:00:00.000,1,revise,active
6280301505,64323269,,,Brixwold Bank,,,,-,,Cockpen Road,,,,at,,S,ES000766,Cockpen,Bonnyrigg,,,,,,0,UKOS,331727,664570,-3.0925728,55.8694353,BCT,MKD,OTH,,,,130,2008-01-27T00:00:00.000,2018-03-22T10:46:13.000,1,revise,active
6280301506,64324693,,,BONNYRIGG Rose Park,,,,90m west of & opp Harmony Court,,Bairds Way,,,,Rose Park,,E,ES000413,Bonnyrigg,,,,,,,0,UKOS,331661,664977,-3.0937300,55.8730821,BCT,MKD,OTH,,,,130,2008-01-27T00:00:00.000,2011-11-04T11:18:49.000,4,revise,inactive
6280301507,64324695,,,Harmony Crescent,,Harmony Crescent,,80m west of Harmony Crescent,,Bairds Way,,,,,,E,ES000413,Bonnyrigg,,,,,,,0,UKOS,331700,665166,-3.0931546,55.8747855,BCT,MKD,OTH,,,,130,2008-01-27T00:00:00.000,2011-11-04T11:19:22.000,4,revise,inactive
6280301508,64324697,,,Wesley Crescent,,Wesley Crescent,,130m south and opp Wesley Crescent,,Bairds Way,,,,,,S,ES000413,Bonnyrigg,,,,,,,0,UKOS,331895,665030,-3.090005,55.873591,BCT,MKD,OTH,,,,130,2008-01-27T00:00:00.000,2011-11-04T11:19:58.000,4,revise,inactive
6280301509,64324723,,,Bairds Way South,,,,Dalhousie Dairy entrance,,B6392,,,,at,,NE,ES000766,Cockpen,Bonnyrigg,,,,,,0,UKOS,332174,665014,-3.0855425,55.8734871,BCT,MKD,TIP,,,,130,2008-01-27T00:00:00.000,2009-08-21T00:00:00.000,3,revise,active
6280301510,64323273,,,Brixwold Drive,,,,-,,B6392,,,,at,,NE,ES000766,Cockpen,Bonnyrigg,,,,,,0,UKOS,332012,664690,-3.0880496,55.8705537,BCT,MKD,OTH,,,,130,2008-01-27T00:00:00.000,2018-03-22T10:46:13.000,1,revise,active
6280301545,64324238,,,Cockpen Road,,,,Opp garage,,A7,,,,opp,,S,N0076343,Newtonloan Toll,,,,,,,0,UKOS,333421,663152,-3.0651593,55.8569343,BCT,MKD,PPT,,,,130,2008-01-27T00:00:00.000,2009-11-27T00:00:00.000,3,revise,active
6280301550,64324239,,,Station Road,,Station Road,,-,,New Hunterfield,,,,opp,,SE,N0076343,Newtonloan Toll,,,,,,,0,UKOS,333504,663064,-3.0638121,55.8561552,BCT,MKD,PPT,,,,130,2008-01-27T00:00:00.000,2009-05-15T00:00:00.000,2,revise,active
6280301560,64323723,,,Newtonloan Lodge,,,,-,,New Hunterfield,,,,at,,SE,N0071926,Hunterfield,Gorebridge,,,,,,0,UKOS,333654,662831,-3.0613593,55.8540828,BCT,MKD,OTH,,,,130,2008-01-27T00:00:00.000,2018-03-22T10:46:13.000,1,revise,active
6280301570,64323694,,,New Hunterfield,,,,-,,Hunterfield Road,,,,at 69,,SE,N0071926,Hunterfield,Gorebridge,,,,,,0,UKOS,333796,662611,-3.0590377,55.8521260,BCT,MKD,OTH,,,,130,2008-01-27T00:00:00.000,2018-03-22T10:46:13.000,1,revise,active
6280301580,64323675,,,Dundas Gardens,,,,-,,New Hunterfield,,,,opp,,SE,N0071926,Hunterfield,Gorebridge,,,,,,0,UKOS,333887,662480,-3.0575525,55.8509617,BCT,MKD,OTH,,,,130,2008-01-27T00:00:00.000,2018-03-22T10:46:13.000,1,revise,active
6280301590,64323686,,,Greenhall Crescent,,,,-,,Greenhall Crescent,,,,at 5,,NE,N0071926,Hunterfield,Gorebridge,,,,,,0,UKOS,334020,662330,-3.0553920,55.8496324,BCT,MKD,OTH,,,,130,2008-01-27T00:00:00.000,2009-08-21T00:00:00.000,2,revise,active
6280301610,64323693,,,Leisure Centre,,,,-,,Hunterfield Road,,,,at,,SE,ES001632,Gorebridge,,,,,,,0,UKOS,334333,661809,-3.0502676,55.8449948,BCT,MKD,OTH,,,,130,2008-01-27T00:00:00.000,2018-03-22T10:46:13.000,1,revise,active
6280301620,64323697,,,Newbyres Crescent,,Newbyres Crescent,,at Care Home,,Gore Avenue,,,,at 52,,NE,ES001632,Gorebridge,,,,,,,0,UKOS,334499,661806,-3.047616,55.844991,BCT,MKD,OTH,,,,130,2008-01-27T00:00:00.000,2018-03-22T10:46:13.000,2,revise,active
6280301630,64323682,,,Gore Avenue,,,,on roundabout,,Gore Avenue,,,,at,,E,ES001632,Gorebridge,,,,,,,1,UKOS,334609,661916,-3.045886,55.845994,BCT,MKD,PPT,,,,130,2008-01-27T00:00:00.000,2018-03-22T10:46:13.000,1,revise,active
6280301640,64323698,,,Newbyres Crescent,,Newbyres Crescent,,opp Care Home,,Gore Avenue,,,,W-bound,,SW,ES001632,Gorebridge,,,,,,,0,UKOS,334511,661780,-3.0474184,55.8447586,BCT,MKD,OTH,,,,130,2008-01-27T00:00:00.000,2018-03-22T10:46:13.000,1,revise,active
6280301650,64323725,,,Police Station,,,,-,,Hunterfield Road,,,,opp,,SE,ES001632,Gorebridge,,,,,,,0,UKOS,334466,661610,-3.0480958,55.8432253,BCT,MKD,OTH,,,,130,2008-01-27T00:00:00.000,2018-03-22T10:46:13.000,1,revise,active
6280301655,64323683,,,Gorebridge Inn,,,,-,,Main Street,,,,opp,,S,ES001632,Gorebridge,,,,,,,1,UKOS,334516,661482,-3.0472666,55.8420822,BCT,MKD,PPT,,,,130,2008-01-27T00:00:00.000,2018-03-22T10:46:13.000,1,revise,active
6280301660,64323254,,,Powdermill Brae,,,,Lady Brae,,Powdermill Brae,,,,near 3,,S,N0071916,Birkenside,Gorebridge,,,,,,0,UKOS,334572,661117,-3.0462844,55.8388108,BCT,MKD,OTH,,,,130,2008-01-27T00:00:00.000,2018-03-22T10:46:13.000,1,revise,active
6280301670,64323256,,,Powdermill Brae,,,,At Gore Cottage,,Powdermill Brae,,,,at 43,,S,N0071916,Birkenside,Gorebridge,,,,,,1,UKOS,334652,660971,-3.0449721,55.8375101,BCT,MKD,OTH,,,,130,2008-01-27T00:00:00.000,2018-03-22T10:46:13.000,1,revise,active
6280301690,64323249,,,Roseberry Crescent,,,,opp Roseberry Cres,,Birkenside,,,,opp,,SW,N0071916,Birkenside,Gorebridge,,,,,,1,UKOS,334499,660845,-3.0473841,55.8363574,BCT,MKD,OTH,,,,130,2008-01-27T00:00:00.000,2017-10-19T00:00:00.000,6,revise,inactive
6280301700,64323252,,,Harvieston Toll,,,,204 Roseberry Crescent,,A7,,,,S-bound,,S,N0071916,Birkenside,Gorebridge,,,,,,0,UKOS,334418,660695,-3.0486409,55.8349989,BCT,MKD,OTH,,,,130,2008-01-27T00:00:00.000,2018-03-22T10:46:13.000,1,revise,active
6280301703,64329292,,,Harvieston Cemetery,,,,Cemetery,,A7,,,,opp,,SE,N0071916,Birkenside,Gorebridge,,,,,,0,UKOS,334643,660363,-3.0449693,55.8320470,BCT,MKD,TIP,,,,130,2010-08-25T00:00:00.000,2010-08-25T00:00:00.000,1,new,active
6280301705,64324245,,,Borthwick Castle Road,,,,-,,A7,,,,at,,SE,N0067207,North Middleton,,,,,,,1,UKOS,335725,658853,-3.0273410,55.8186274,BCT,MKD,PPT,,,,130,2008-01-27T00:00:00.000,2018-03-22T10:46:14.000,1,revise,active
6280301707,64324247,,,Middleton,,,,snow gates,,A7,,,,SE-bound,,E,N0067207,North Middleton,,,,,,,0,UKOS,336854,658519,-3.0092487,55.8157761,BCT,MKD,OTH,,,,130,2008-01-27T00:00:00.000,2018-03-22T10:46:14.000,1,revise,active
6280301709,64324249,,,Middleton Mains,,,,-,,A7,,,,at,,SE,N0067207,North Middleton,,,,,,,0,UKOS,338372,657980,-2.9849063,55.8111303,BCT,MKD,OTH,,,,130,2008-01-27T00:00:00.000,2018-03-22T10:46:14.000,1,revise,active
6280301710,64327972,,,Polton Road,,,,Lasswade Road,,Polton Road,,,,at,,S,ES003048,Poltonhall,,,,,,,0,UKOS,330453,666059,-3.1133098,55.8826289,BCT,MKD,PPT,,,,130,2008-01-27T00:00:00.000,2011-11-04T11:21:14.000,4,revise,inactive
6280301720,64327973,,,Polton Road,,,,-,,Polton Road,,,,S-bound,,N,ES003048,Poltonhall,,,,,,,0,UKOS,330322,665740,-3.1153212,55.8797443,BCT,MKD,PPT,,,,130,2008-01-27T00:00:00.000,2011-11-04T11:21:56.000,3,revise,inactive
6280301730,64327974,,,Polton Terrace,,,,-,,Polton Road,,,,at,,S,ES003048,Poltonhall,,,,,,,0,UKOS,330076,665291,-3.1191364,55.8756752,BCT,MKD,PPT,,,,130,2008-01-27T00:00:00.000,2011-11-04T11:22:37.000,3,revise,inactive
6280301740,64327975,,,Polton Drive,,,,-,,Polton Drive,,,,S-bound,,SW,ES003048,Poltonhall,,,,,,,0,UKOS,329975,665114,-3.120705,55.874071,BCT,MKD,PPT,,,,130,2008-01-27T00:00:00.000,2011-11-04T11:23:12.000,3,revise,inactive
6280301750,64324395,,,Rosewell Road,,,,Rugby Club,,Polton Avenue Road,,,,near,,NW,ES003048,Poltonhall,,,,,,,0,UKOS,330223,664526,-3.1165902,55.8688244,BCT,MKD,OTH,,,,130,2008-01-27T00:00:00.000,2018-03-22T10:46:14.000,1,revise,active
6280301760,64324387,,,Dalhousie Drive,,,,Hawthornden Primary School,,Polton Avenue Road,,,,opp,,NW,ES003048,Poltonhall,,,,,,,0,UKOS,330120,664627,-3.1182619,55.8697167,BCT,MKD,OTH,,,,130,2008-01-27T00:00:00.000,2018-03-22T10:46:14.000,1,revise,active
6280301770,64323274,,,Dobbies Road,,,,-,,Polton Street,,,,opp,,SW,ES000413,Bonnyrigg,,,,,,,0,UKOS,330856,665108,-3.1066259,55.8741439,BCT,MKD,PPT,,,,130,2008-01-27T00:00:00.000,2009-08-21T00:00:00.000,2,revise,active
6280301790,64323287,,,Hazel Drive,,,,-,,Polton Road,,,,at,,SW,ES000413,Bonnyrigg,,,,,,,0,UKOS,330648,664881,-3.1098913,55.8720748,BCT,MKD,OTH,,,,130,2008-01-27T00:00:00.000,2009-08-21T00:00:00.000,2,revise,active
6280301800,64323279,,,Hopefield Place,,,,Primary School,,Rosewell Road,,,,opp,,SW,ES000413,Bonnyrigg,,,,,,,0,UKOS,330391,664592,-3.1139232,55.8694416,BCT,MKD,OTH,,,,130,2008-01-27T00:00:00.000,2018-03-22T10:46:13.000,1,revise,active
6280301810,64324392,,,Farm Avenue,,,,-,,Polton Road West,,,,opp,,SW,ES003048,Poltonhall,,,,,,,0,UKOS,329792,664892,-3.1235710,55.8720495,BCT,MKD,OTH,,,,130,2008-01-27T00:00:00.000,2018-03-22T10:46:14.000,1,revise,active
6280301815,64324396,,,St Annes Avenue,,,,Cameron Crescent,,Polton Road West,,,,opp,,SW,ES003048,Poltonhall,,,,,,,0,UKOS,329491,664593,-3.1283023,55.8693196,BCT,MKD,PPT,,,,130,2008-01-27T00:00:00.000,2013-01-23T16:27:16.000,2,revise,active
6280301817,64329275,,,Midfield House,,-,,opp Midfield Cottages,,Polton Road West,,,,At,,SW,ES003048,Poltonhall,,,,,,,0,UKOS,329197,664137,-3.1328801,55.8651801,BCT,MKD,OTH,,,,130,2009-05-05T00:00:00.000,2010-06-08T00:00:00.000,1,revise,active
6280301820,64323835,,,Retail Park,,Retail Pk,,Retail Park,,Loanhead Road,,,,opp,,SE,N0067344,Straiton,,,,,,,0,UKOS,327578,666431,-3.1593571,55.8855464,BCT,MKD,PPT,,,,130,2008-01-27T00:00:00.000,2015-02-05T15:04:05.000,3,revise,active
6280301870,64324526,,,St Joseph's,,,,-,,Carnethie Street,,,,at,,SW,ES003169,Rosewell,,,,,,,0,UKOS,329203,663066,-3.1325043,55.8555601,BCT,MKD,OTH,,,,130,2008-01-27T00:00:00.000,2018-03-22T10:46:14.000,1,revise,active
6280301880,64324524,,,Prestonhall Road,,,,-,,Carnethie Street,,,,opp,,SW,ES003169,Rosewell,,,,,,,1,UKOS,329049,662817,-3.134898,55.853301,BCT,MKD,OTH,,,,130,2008-01-27T00:00:00.000,2018-03-22T10:46:14.000,1,revise,active
6280301890,64324398,,,Gorton Road,,,,-,,Carnethie Street,,,,opp,,SW,ES003169,Rosewell,,,,,,,0,UKOS,328947,662542,-3.1364554,55.8508152,BCT,MKD,OTH,,,,130,2008-01-27T00:00:00.000,2018-03-22T10:46:14.000,1,revise,active
6280301910,64323832,,,Muirfield Gardens,,,,Bowling Club,,The Loan,,,,at,,W,N0071589,Loanhead,,,,,,,1,UKOS,328128,665508,-3.150321,55.877338,BCT,MKD,PPT,,,,130,2008-01-27T00:00:00.000,2018-03-22T10:46:13.000,1,revise,active
6280301920,64323769,,,George Avenue,,,,at Memorial Park,,The Loan,,,,opp,,W,N0071589,Loanhead,,,,,,,0,UKOS,327869,665445,-3.1544430,55.8767328,BCT,MKD,OTH,,,,130,2008-01-27T00:00:00.000,2018-03-22T10:46:13.000,1,revise,active
6280301930,64323796,,,McNeil Avenue,,,,-,,The Loan,,,,opp,,W,N0071589,Loanhead,,,,,,,0,UKOS,327581,665373,-3.1590258,55.8760428,BCT,MKD,OTH,,,,130,2008-01-27T00:00:00.000,2018-03-22T10:46:13.000,1,revise,active
6280301940,64323828,,,Park Avenue,,,,opp 175,,The Loan,,,,at,,W,N0071589,Loanhead,,,,,,,0,UKOS,327417,665338,-3.1616370,55.8757037,BCT,MKD,OTH,,,,130,2008-01-27T00:00:00.000,2018-03-22T10:46:14.000,1,revise,active
6280301945,64327976,,,Dryden Terrace,,,,Dalum Loan,,Dryden Terrace,,,,at,,N,N0071589,Loanhead,,,,,,,0,UKOS,327250,665492,-3.1643469,55.8770618,BCT,MKD,PPT,,,,130,2008-01-27T00:00:00.000,2011-11-04T11:23:52.000,3,revise,inactive
6280301950,64323787,,,Herd Terrace,,,,opp Dryden View,,The Loan,,,,at,,W,N0071589,Loanhead,,,,,,,1,UKOS,327191,665273,-3.1652307,55.8750856,BCT,MKD,PPT,,,,130,2008-01-27T00:00:00.000,2009-11-27T00:00:00.000,2,revise,active
6280301960,64323764,,,Dryden Road,,,,-,,Nivensknowe Road,,,,at,,W,N0071589,Loanhead,,,,,,,0,UKOS,326991,665239,-3.1684173,55.8747499,BCT,MKD,OTH,,,,130,2008-01-27T00:00:00.000,2018-03-22T10:46:13.000,1,revise,active
6280301965,64323826,,,Nivensknowe Road,,,,Car Showroom,,Nivens Knowe Road,,,,W-bound,,W,N0071589,Loanhead,,,,,,,0,UKOS,326641,665200,-3.1739991,55.8743464,BCT,MKD,OTH,,,,130,2008-01-27T00:00:00.000,2018-03-22T10:46:13.000,1,revise,active
6280301970,64323825,,,Nivensknowe Park,,,,Car Showroom,,A701,,,,opp,,SW,N0071589,Loanhead,,,,,,,0,UKOS,326655,665292,-3.1738004,55.8751749,BCT,MKD,OTH,,,,130,2008-01-27T00:00:00.000,2018-03-22T10:46:13.000,1,revise,active
6280301975,64323798,,,New Pentland Road,,,,at IKEA,,A701,,,,opp,,SW,N0071589,Loanhead,,,,,,,0,UKOS,326896,665794,-3.1700852,55.8797210,BCT,MKD,OTH,,,,130,2008-01-27T00:00:00.000,2009-11-27T00:00:00.000,2,revise,active
6280301976,64329348,,,Asda Straiton,,,,,,A701,,,,at,,SW,N0071589,Loanhead,,,,,,,0,UKOS,326855,665704,-3.1707161,55.8789063,BCT,MKD,TIP,,,,130,2011-11-14T11:18:05.000,2012-07-11T11:11:55.000,4,revise,active
6280301980,64323248,,,Seafield Road,,,,Seafield Road,,A701,,,,opp,,SW,ES000354,Bilston,,,,,,,1,UKOS,326449,664850,-3.1769718,55.8711730,BCT,MKD,PPT,,,,130,2008-01-27T00:00:00.000,2015-02-05T11:58:06.000,3,revise,active
6280301990,64323246,,,Roslin Road,,,,B7006 roundabout,,A701,,,,at,,SW,ES000354,Bilston,,,,,,,1,UKOS,326382,664703,-3.1780023,55.8698423,BCT,MKD,PPT,,,,130,2008-01-27T00:00:00.000,2010-10-07T00:00:00.000,3,revise,active
6280302000,64323239,,,Moorfoot View,,,,-,,A701,,,,opp,,SW,ES000354,Bilston,,,,,,,1,UKOS,326242,664396,-3.1801553,55.8670631,BCT,MKD,OTH,,,,130,2008-01-27T00:00:00.000,2010-10-07T00:00:00.000,2,revise,active
6280302010,64323243,,,Ploverhall Cottages,,,,A703 junction,,A701,,,,opp,,SW,ES000354,Bilston,,,,,,,0,UKOS,326048,663943,-3.1831308,55.8629640,BCT,MKD,OTH,,,,130,2008-01-27T00:00:00.000,2010-10-07T00:00:00.000,2,revise,active
6280302020,64323237,,,Bilston Cottages,,,,A701 roundabout,,Roslin Road,,,,at,,SE,ES000354,Bilston,,,,,,,0,UKOS,326391,664613,-3.1778340,55.8690352,BCT,MKD,PPT,,,,130,2008-01-27T00:00:00.000,2013-01-31T13:46:01.000,4,revise,active
6280302025,64324532,,,Langhill Farm,,,,-,,Roslin Road,,,,at,,SE,ES003171,Roslin,,,,,,,0,UKOS,326748,664176,-3.1720123,55.8651641,BCT,MKD,PPT,,,,130,2008-01-27T00:00:00.000,2013-01-23T16:28:59.000,2,revise,active
6280302027,64324538,,,Roslin Institute,,,,-,,Roslin Road,,,,at,,S,ES003171,Roslin,,,,,,,0,UKOS,326917,663743,-3.1691958,55.8613001,BCT,MKD,PPT,,,,130,2008-01-27T00:00:00.000,2013-01-31T13:52:42.000,3,revise,active
6280302030,64324542,,,Springfield Place,,,,-,,Main Street,,,,at,,SE,ES003171,Roslin,,,,,,,0,UKOS,326979,663559,-3.1681558,55.8596566,BCT,MKD,PPT,,,,130,2008-01-27T00:00:00.000,2018-03-22T10:46:14.000,1,revise,active
6280302040,64324545,,,Station Road,,,,-,,Main Street,,,,at,,SE,ES003171,Roslin,,,,,,,0,UKOS,327146,663372,-3.1654382,55.8580021,BCT,MKD,PPT,,,,130,2008-01-27T00:00:00.000,2018-03-22T10:46:14.000,1,revise,active
6280302050,64324534,,,Original Rosslyn Hotel,,,,-,,Main Street,,,,at,,SE,ES003171,Roslin,,,,,,,1,UKOS,327238,663265,-3.1639400,55.8570548,BCT,MKD,PPT,,,,130,2008-01-27T00:00:00.000,2018-03-22T10:46:14.000,1,revise,active
6280302060,64324536,,,Penicuik Road,,,,opp Church,,Penicuik Road,,,,opp 40,,W,ES003171,Roslin,,,,,,,0,UKOS,327006,663106,-3.167603,55.855591,BCT,MKD,OTH,,,,130,2008-01-27T00:00:00.000,2009-11-27T00:00:00.000,2,revise,active
6280302070,64324547,,,Woodend Park,,,,-,,Penicuik Road,,,,opp,,NW,ES003171,Roslin,,,,,,,0,UKOS,326504,663198,-3.175645,55.856341,BCT,MKD,OTH,,,,130,2008-01-27T00:00:00.000,2013-01-31T13:53:50.000,3,revise,active
6280302075,64324745,,,Roslin Surgery,,,,New Roslin Surgery,,Penicuik Road,,,,Opp,,W,ES003171,Roslin,,,,,,,0,UKOS,326261,663297,-3.179552,55.857194,BCT,MKD,TIP,,,,130,2008-01-27T00:00:00.000,2013-01-23T16:31:07.000,2,revise,active
6280302080,64324678,,,Gowkley Moss,,,,Gowkley Moss Roundabout,,Penicuik Road,,,,W-bound,,W,ES003171,Roslin,,,,,,,1,UKOS,326059,663356,-3.1827948,55.8576927,BCT,MKD,TIP,,,,130,2008-01-27T00:00:00.000,2013-01-23T16:32:17.000,2,revise,active
6280302089,64329294,,,Seafield Moor Road,,,,-,,Bush Farm Road,,,,near,,SW,N0065268,Seafield,,,,,,,0,UKOS,325603,664615,-3.1904237,55.8689320,BCT,MKD,TIP,,,,130,2010-09-23T16:02:50.000,2010-10-06T00:00:00.000,1,revise,active
6280302090,64323438,,,Bush Road end,,,,-,,A703,,,,opp,,SE,N0065268,Seafield,,,,,,,0,UKOS,325673,664600,-3.1893012,55.8688081,BCT,MKD,OTH,,,,130,2008-01-27T00:00:00.000,2009-08-27T00:00:00.000,2,revise,active
6280302091,64323456,,,Midlothian Innovation Centre,,,,-,,Bush Farm Road,,,,at,,W,N0071914,Bush Estate,,,,,,,0,UKOS,325369,664535,-3.1941400,55.8681772,BCT,MKD,OTH,,,,130,2008-01-27T00:00:00.000,2009-07-15T00:00:00.000,2,revise,active
6280302092,64323459,,,Veterinary Centre,,,,-,,Bush Farm Road,,,,at,,SW,N0071914,Bush Estate,,,,,,,0,UKOS,325047,664333,-3.1992282,55.8663126,BCT,MKD,PPT,,,,130,2008-01-27T00:00:00.000,2009-07-15T00:00:00.000,2,revise,active
6280302093,64323463,,,Technopole,,,,Bush House Corner,,Bush Farm Road,,,,opp,,SW,N0071914,Bush Estate,,,,,,,1,UKOS,324786,663901,-3.2032776,55.8623913,BCT,MKD,PPT,,,,130,2008-01-27T00:00:00.000,2009-07-15T00:00:00.000,2,revise,active
6280302094,64323573,,,Old Pentland Road,,,,Old Pentland Road,,A703,,,,at,,S,N0067266,Damhead Holdings,,,,,,,0,UKOS,325496,665783,-3.192455,55.879407,BCT,MKD,PPT,,,,130,2008-01-27T00:00:00.000,2009-02-12T00:00:00.000,2,revise,active
6280302095,64323846,,,Snowsports Centre,,,,-,,BIGGAR ROAD,,,,opp,,S,N0072092,Lothianburn,,,,,,,0,UKOS,324994,667095,-3.200839,55.891111,BCT,MKD,OTH,,,,130,2008-01-27T00:00:00.000,2023-02-24T07:55:48.707,4,revise,active
6280302096,64323575,,,Hillend,,,,A702 junction,,A703,,,,S-bound,,SE,N0067266,Damhead Holdings,,,,,,,0,UKOS,325193,666669,-3.1975418,55.8873193,BCT,MKD,PPT,,,,130,2008-01-27T00:00:00.000,2018-03-22T10:46:13.000,1,revise,active
6280302098,64323843,,,Golf Club,,,,-,,Biggar Road,,,,at,,NW,N0072092,Lothianburn,,,,,,,0,UKOS,324955,667262,-3.2015105,55.8926091,BCT,MKD,OTH,,,,130,2008-01-27T00:00:00.000,2013-01-23T16:33:30.000,2,revise,active
6280302100,64323728,,,Bush Access,,-,,opp Cottages,,A701,,,,opp,,SW,ES000355,Gowkley Moss,,,,,,,0,UKOS,325857,663456,-3.1860484,55.8585600,BCT,MKD,OTH,,,,130,2008-01-27T00:00:00.000,2009-11-27T00:00:00.000,3,revise,active
6280302114,64323437,,,Bush Research Park,,,,-,,Bush Loan Road,,,,opp,,SE,N0071914,Bush Estate,,,,,,,0,UKOS,325165,663560,-3.1971295,55.8593871,BCT,MKD,OTH,,,,130,2008-01-27T00:00:00.000,2009-07-15T00:00:00.000,2,revise,active
6280302115,64323453,,,Pentland Science Park,,,,-,,Bush Loan Road,,,,opp,,E,N0071914,Bush Estate,,,,,,,0,UKOS,325453,663416,-3.1924900,55.8581383,BCT,MKD,OTH,,,,130,2008-01-27T00:00:00.000,2009-07-15T00:00:00.000,2,revise,active
6280302116,64325843,,,Gowkley Moss,,Gowkley Moss,,Gowkley Moss roundabout,,Bush Loan Road,,,,E-bound,,E,N0071914,Bush Estate,,,,,,,0,UKOS,325714,663376,-3.1883104,55.8578193,BCT,MKD,TIP,,,,130,2008-03-29T00:00:00.000,2009-07-15T00:00:00.000,1,revise,active
6280302120,64323235,,,The Brae top,,,,-,,The Brae,,,,at 56,,S,N0067195,Auchendinny,,,,,,,1,UKOS,325480,662226,-3.1917315,55.8474527,BCT,MKD,PPT,,,,130,2008-01-27T00:00:00.000,2009-03-11T00:00:00.000,2,revise,active
6280302130,64323232,,,The Brae foot,,,,Graham's Road,,The Brae,,,,S-bound,,S,N0067195,Auchendinny,,,,,,,1,UKOS,325390,661860,-3.1930678,55.8441511,BCT,MKD,PPT,,,,130,2008-01-27T00:00:00.000,2009-03-11T00:00:00.000,2,revise,active
6280302140,64323942,,,Milton Cottages,,Milton Cottages,,opp graveyard,,A701,,,,opp,,SW,N0067334,Milton Bridge,,,,,,,0,UKOS,325563,662800,-3.1905638,55.8526218,BCT,MKD,OTH,,,,130,2008-01-27T00:00:00.000,2018-03-22T10:46:14.000,3,revise,active
6280302150,64323938,,,Golf Club,,,,-,,A701,,,,at,,SW,N0067334,Milton Bridge,,,,,,,0,UKOS,325014,662483,-3.1992432,55.8496891,BCT,MKD,PPT,,,,130,2008-01-27T00:00:00.000,2018-03-22T10:46:14.000,1,revise,active
6280302160,64324298,,,Glencorse Barracks,,,,-,,Edinburgh Road,,,,at,,SW,ES001593,Glencorse,Penicuik,,,,,,0,UKOS,324732,662093,-3.2036379,55.8461417,BCT,MKD,PPT,,,,130,2008-01-27T00:00:00.000,2013-01-23T16:34:21.000,2,revise,active
6280302165,64324369,,,Samoa Terrace,,,,-,,Edinburgh Road,,,,opp,,SW,N0071919,Mauricewood,Penicuik,,,,,,0,UKOS,324518,661786,-3.2069692,55.8433505,BCT,MKD,OTH,,,,130,2008-01-27T00:00:00.000,2013-01-23T16:34:52.000,2,revise,active
6280302170,64324272,,,Beeslack High School,,,,Beeslack High School,,Edinburgh Road,,,,near,,SW,N0071919,Mauricewood,Penicuik,,,,,,0,UKOS,324107,661464,-3.2134409,55.8403935,BCT,MKD,OTH,,,,130,2008-01-27T00:00:00.000,2015-02-05T13:17:57.000,3,revise,active
6280302210,64323623,,,Easter Howgate Farm,,Easter Howgate Farm,,-,,A702,,,,opp,,S,N0067282,Easter Howgate,,,,,,,1,UKOS,324170,664025,-3.213142,55.863407,BCT,MKD,OTH,,,,130,2008-01-27T00:00:00.000,2023-02-24T07:58:40.924,2,revise,active
6280302220,64323262,,,Boghall Farm,,Boghall Farm,,-,,A702,,,,opp,,SW,N0067234,Boghall,,,,,,,0,UKOS,324546,665184,-3.2074688,55.8738788,BCT,MKD,OTH,,,,130,2008-01-27T00:00:00.000,2018-03-22T10:46:13.000,1,revise,active
6280302221,64323987,,,Morris Road,,,,opp Police Station,,Morris Road,,,,S-bound,,SW,N0067245,Bryans,,,,,,,0,UKOS,334088,664835,-3.0549160,55.8721450,BCT,MKD,OTH,,,,130,2008-01-27T00:00:00.000,2018-03-22T10:46:13.000,1,revise,active
6280302245,64324647,,,Mauricewood Avenue,,,,-,,Mauricewood Road,,,,at,,NW,N0071919,Mauricewood,Penicuik,,,,,,0,UKOS,323828,661334,-3.2178583,55.8391817,BCT,MKD,OTH,,,,130,2008-01-27T00:00:00.000,2018-03-22T10:46:14.000,1,revise,active
6280302250,64324274,,,Boyd-Orr Drive,,,,-,,Mauricewood Road,,,,opp,,NW,N0071919,Mauricewood,Penicuik,,,,,,0,UKOS,323700,661550,-3.2199624,55.8411017,BCT,MKD,PPT,,,,130,2008-01-27T00:00:00.000,2018-03-22T10:46:14.000,1,revise,active
6280302260,64324562,,,Hopelands Road,,Hopelands Road,,-,,Hopelands Road,,,,Opp 10,,SE,N0067224,Silverburn,,,,,,,1,UKOS,320433,660180,-3.2717153,55.8282671,BCT,MKD,PPT,,,,130,2008-01-27T00:00:00.000,2018-03-22T10:46:14.000,1,revise,active
6280302275,64324648,,,Mauricewood Avenue,,,,-,,Mauricewood Road,,,,opp,,SE,N0071919,Mauricewood,Penicuik,,,,,,0,UKOS,323807,661374,-3.2182048,55.8395377,BCT,MKD,OTH,,,,130,2008-01-27T00:00:00.000,2018-03-22T10:46:14.000,1,revise,active
6280302280,64324346,,,Mauricewood Road,,,,-,,Edinburgh Road,,,,opp,,SW,N0071919,Mauricewood,Penicuik,,,,,,0,UKOS,323898,661295,-3.2167299,55.8388424,BCT,MKD,OTH,,,,130,2008-01-27T00:00:00.000,2013-01-23T16:35:27.000,2,revise,active
6280302285,64324383,,,Windsor Drive,,,,Windsor Terrace,,Windsor Drive,,,,at,,SE,N0071918,Ladywood,Penicuik,,,,,,0,UKOS,324209,660934,-3.2116644,55.8356486,BCT,MKD,PPT,,,,130,2008-01-27T00:00:00.000,2018-03-22T10:46:13.000,1,revise,active
6280302287,64324375,,,Strathesk Road,,,,-,,Windsor Drive,,,,opp,,S,N0071918,Ladywood,Penicuik,,,,,,0,UKOS,324272,660725,-3.2106004,55.8337810,BCT,MKD,PPT,,,,130,2008-01-27T00:00:00.000,2018-03-22T10:46:13.000,1,revise,active
6280302289,64324379,,,Windsor Road,,,,-,,Windsor Drive,,,,S-bound,,S,N0071918,Ladywood,Penicuik,,,,,,0,UKOS,324248,660513,-3.2109243,55.8318729,BCT,MKD,OTH,,,,130,2008-01-27T00:00:00.000,2018-03-22T10:46:13.000,1,revise,active
6280302300,64325784,,,Lyne Terrace,,,,-,,Eskvale Drive,,,,at,,E,N0071918,Ladywood,Penicuik,,,,,,0,UKOS,324156,661200,-3.2125848,55.8380297,BCT,MKD,PPT,,,,130,2008-01-27T00:00:00.000,2018-03-22T10:46:14.000,4,revise,inactive
6280302310,64327978,,,Vorlich Crescent,,,,-,,Eskvale Drive,,,,at,,E,N0071918,Ladywood,Penicuik,,,,,,0,UKOS,324286,661123,-3.2104881,55.8373584,BCT,MKD,PPT,,,,130,2008-01-27T00:00:00.000,2011-11-04T11:24:23.000,3,revise,inactive
6280302370,64324293,,,East Queensway,,,,-,,Queensway,,,,at,,NW,N0071917,Deanburn,Penicuik,,,,,,0,UKOS,323605,661004,-3.2213252,55.8361820,BCT,MKD,OTH,,,,130,2008-01-27T00:00:00.000,2018-03-22T10:46:13.000,1,revise,active
6280302380,64324365,,,Royal Court,,,,-,,Rullion Road,,,,at,,W,N0071917,Deanburn,Penicuik,,,,,,0,UKOS,323026,661200,-3.2306230,55.8378505,BCT,MKD,OTH,,,,130,2008-01-27T00:00:00.000,2018-03-22T10:46:13.000,1,revise,active
6280302390,64324343,,,Laverlock Drive,,,,-,,Rullion Road,,,,at,,SW,N0071917,Deanburn,Penicuik,,,,,,0,UKOS,322762,661056,-3.2347962,55.8365148,BCT,MKD,OTH,,,,130,2008-01-27T00:00:00.000,2012-01-04T11:52:02.000,2,revise,active
6280302395,64324285,,,Silverburn Drive,,,,opp Silverburn Drive,,Rullion Road,,,,opp,,SW,N0071917,Deanburn,Penicuik,,,,,,0,UKOS,322552,660745,-3.2380596,55.8336874,BCT,MKD,OTH,,,,130,2008-01-27T00:00:00.000,2012-01-04T11:52:53.000,3,revise,active
6280302400,64324296,,,Gardeners Walk,,,,-,,Rullion Road,,,,at,,SW,N0071917,Deanburn,Penicuik,,,,,,0,UKOS,322397,660657,-3.2405084,55.8328720,BCT,MKD,OTH,,,,130,2008-01-27T00:00:00.000,2012-01-04T11:55:32.000,2,revise,active
6280302410,64324348,,,Monksrig Road,,,,-,,Rullion Road,,,,opp,,NE,N0071917,Deanburn,Penicuik,,,,,,0,UKOS,322163,660498,-3.2441976,55.8314060,BCT,MKD,OTH,,,,130,2008-01-27T00:00:00.000,2012-01-04T11:56:37.000,2,revise,active
6280302415,64324297,,,Gardeners Walk,,,,-,,Rullion Road,,,,opp,,NE,N0071917,Deanburn,Penicuik,,,,,,0,UKOS,322357,660663,-3.241149,55.83292,BCT,MKD,OTH,,,,130,2008-01-27T00:00:00.000,2012-01-04T11:57:17.000,2,revise,active
6280302420,64324359,,,Ravelsykes Road,,,,-,,Rullion Road,,,,near,,SW,N0071917,Deanburn,Penicuik,,,,,,0,UKOS,322063,660358,-3.2457534,55.8301323,BCT,MKD,OTH,,,,130,2008-01-27T00:00:00.000,2012-01-04T11:58:52.000,2,revise,active
6280302425,64324689,,,Lowrie Avenue,,Lowrie Avenue,,-,,Rullion Road,,,,at,,S,ES002994,Penicuik,,,,,,,0,UKOS,322137,660197,-3.2445262,55.8286980,BCT,MKD,TIP,,,,130,2008-01-27T00:00:00.000,2011-11-04T11:25:07.000,4,revise,inactive
6280302430,64324363,,,Ravendean Gardens,,,,-,,Rullion Road,,,,at,,NE,N0071917,Deanburn,Penicuik,,,,,,0,UKOS,322373,660246,-3.2407738,55.8291762,BCT,MKD,OTH,,,,130,2008-01-27T00:00:00.000,2012-01-04T12:00:09.000,2,revise,active
6280302435,64324276,,,Clerk Road,,,,-,,Rullion Road,,,,at,,E,N0071917,Deanburn,Penicuik,,,,,,0,UKOS,322581,660210,-3.2374440,55.8288863,BCT,MKD,OTH,,,,130,2008-01-27T00:00:00.000,2012-01-04T12:01:23.000,2,revise,active
6280302436,64324643,,,Harlaw Grove,,,,-,,Carlops Road,,,,at,,NE,ES002994,Penicuik,,,,,,,0,UKOS,322942,660214,-3.2316839,55.8289800,BCT,MKD,OTH,,,,130,2008-01-27T00:00:00.000,2009-11-27T00:00:00.000,2,revise,active
6280302440,64324357,,,Queensway,,,,Tesco,,Edinburgh Road,,,,opp,,SW,ES002994,Penicuik,,,,,,,0,UKOS,323672,660958,-3.2202428,55.8357794,BCT,MKD,PPT,,,,130,2008-01-27T00:00:00.000,2018-03-22T10:46:14.000,1,revise,active
6280302450,64324283,,,Cuiken Avenue,,,,The Quadrant,,John Street,,,,opp,,SW,ES002994,Penicuik,,,,,,,0,UKOS,323530,660698,-3.2224362,55.8334214,BCT,MKD,OTH,,,,130,2008-01-27T00:00:00.000,2013-01-23T16:36:11.000,2,revise,active
6280302460,64324265,,,Angle Park,,,,-,,John Street,,,,opp,,S,ES002994,Penicuik,,,,,,,0,UKOS,323437,660456,-3.2238523,55.8312328,BCT,MKD,OTH,,,,130,2008-01-27T00:00:00.000,2013-01-23T16:36:54.000,2,revise,active
6280302465,64327979,,,Hays Garage,,,,none,,Eastfield Drive,,,,Hays Garage,,NE,N0071918,Ladywood,Penicuik,,,,,,0,UKOS,323665,660793,-3.2203081,55.8342961,BCT,MKD,PPT,,,,130,2008-01-27T00:00:00.000,2011-11-04T11:25:42.000,3,revise,inactive
6280302470,64324376,,,Wilson Street,,,,-,,John Street,,,,opp,,SE,ES002994,Penicuik,,,,,,,0,UKOS,323486,660222,-3.223004,55.829138,BCT,MKD,PPT,,,,130,2008-01-27T00:00:00.000,2013-01-23T16:37:39.000,2,revise,active
6280302490,64324373,,,Town Centre,,Town Centre,,At Health Centre,,St Kentigern Way,,,,Stop A,,SE,ES002994,Penicuik,,,,,,,1,UKOS,323571,660093,-3.2216113,55.8279932,BCT,MKD,PPT,,,,130,2008-01-27T00:00:00.000,2015-02-05T16:00:32.000,4,revise,active
6280302495,64329264,,,Town Centre,,,,near Health Centre,,St Kentigern Way,,,,Stop B,,SE,ES002994,Penicuik,,,,,,,1,UKOS,323599,660087,-3.2211628,55.8279438,BCT,MKD,TIP,,,,130,2009-03-02T00:00:00.000,2013-01-23T16:39:18.000,2,revise,active
6280302500,64324289,,,Dunlop Terrace,,,,-,,Eastfield Drive,,,,opp,,SE,N0071918,Ladywood,Penicuik,,,,,,0,UKOS,324190,660340,-3.2118017,55.8303097,BCT,MKD,PPT,,,,130,2008-01-27T00:00:00.000,2018-03-22T10:46:13.000,1,revise,active
6280302510,64324326,,,Imrie Place,,,,-,,Kirkhill Road,,,,opp,,SW,ES002994,Penicuik,,,,,,,0,UKOS,323738,660037,-3.2189305,55.8275166,BCT,MKD,OTH,,,,130,2008-01-27T00:00:00.000,2018-03-22T10:46:14.000,1,revise,active
6280302560,64324324,,,Lambs Pend,,,,Old Crown PH,,HIGH STREET,,,,opp,,SW,ES002994,Penicuik,,,,,,,0,UKOS,323561,659890,-3.221709,55.82617,BCT,MKD,PPT,,,,130,2006-05-05T00:00:00.000,2023-02-24T07:48:09.905,3,revise,active
6280302570,64324354,,,Pomathorn Road,,,,Penicuik South Kirk,,Peebles Road,,,,at,,S,ES002994,Penicuik,,,,,,,0,UKOS,323623,659524,-3.2206214,55.8228902,BCT,MKD,OTH,,,,130,2008-01-27T00:00:00.000,2018-03-22T10:46:14.000,1,revise,active
6280302580,64323758,,,Wellington School,,,,at Springfield Road,,A701,,,,S-bound,,S,N0071647,Leadburn,,,,,,,0,UKOS,323477,656683,-3.2221509,55.7973466,BCT,MKD,PPT,,,,130,2008-01-27T00:00:00.000,2018-03-22T10:46:13.000,1,revise,active
6280302590,64323756,,,Leadburn Inn,,,,-,,A701,,,,at,,S,N0071647,Leadburn,,,,,,,0,UKOS,323496,655598,-3.2215428,55.7876031,BCT,MKD,PPT,,,,130,2008-01-27T00:00:00.000,2009-11-27T00:00:00.000,2,revise,active
6280302600,64324349,,,Navaar House Hotel,,,,Police Station,,Bog Road,,,,at,,NW,ES002994,Penicuik,,,,,,,0,UKOS,323339,659916,-3.2252638,55.8263664,BCT,MKD,OTH,,,,130,2008-01-27T00:00:00.000,2018-03-22T10:46:14.000,1,revise,active
6280302605,64324352,,,Navaar House Hotel,,,,Police Station,,Bog Road,,,,opp,,SE,ES002994,Penicuik,,,,,,,0,UKOS,323345,659944,-3.2251760,55.8266189,BCT,MKD,OTH,,,,130,2008-01-27T00:00:00.000,2018-03-22T10:46:14.000,1,revise,active
6280302610,64324278,,,Craigiebield Crescent,,,,-,,Bog Road,,,,at,,NW,ES002994,Penicuik,,,,,,,0,UKOS,323266,660027,-3.2264602,55.8273519,BCT,MKD,OTH,,,,130,2008-01-27T00:00:00.000,2009-11-27T00:00:00.000,2,revise,active
6280303001,64325747,,,Wilson Road,,Wilson Road,,opp 96,,Barleyknowe Road,,,,opp,,SE,ES001632,Gorebridge,,,,,,,0,UKOS,334695,662211,-3.0445844,55.8486554,BCT,MKD,TIP,,,,130,2008-01-27T00:00:00.000,2009-08-21T00:00:00.000,4,revise,active
6280303002,64325752,,,Lady Brae Place,,Lady Brae Place,,,,Lady Brae,,,,opp,,SW,ES001632,Gorebridge,,,,,,,0,UKOS,335061,661454,-3.0385586,55.8419044,BCT,MKD,TIP,,,,130,2008-01-27T00:00:00.000,2018-03-22T10:46:13.000,0,new,active
6280303003,64324737,,,Braeside Road South,,Braeside Rd Sth,,at 34,,Lady Brae,,,,at,,NE,ES001632,Gorebridge,,,,,,,0,UKOS,334884,661375,-3.041365,55.841171,BCT,MKD,TIP,,,,130,2008-01-27T00:00:00.000,2018-03-22T10:46:13.000,2,revise,active
6280303004,64324739,,,Vogrie Road,,Vogrie Road,,-,,Vogrie Road,,,,opp 21,,NW,ES001632,Gorebridge,,,,,,,0,UKOS,334663,661459,-3.0449141,55.8418955,BCT,MKD,TIP,,,,130,2008-01-27T00:00:00.000,2009-08-21T00:00:00.000,3,revise,active
6280303005,64324742,,,Stobs Mills,,,,opp Robertsons Bank,,Lady Brae,,,,opp,,E,ES001632,Gorebridge,,,,,,,0,UKOS,334566,661189,-3.0463976,55.8394568,BCT,MKD,TIP,,,,130,2008-01-27T00:00:00.000,2011-11-21T10:10:47.000,4,revise,active
6280303100,64324738,,,Braeside Road South,,Braeside Rd Sth,,-,,Lady Brae,,,,opp 36,,SW,ES001632,Gorebridge,,,,,,,0,UKOS,334882,661353,-3.0413922,55.8409729,BCT,MKD,TIP,,,,130,2008-01-27T00:00:00.000,2009-08-21T00:00:00.000,3,revise,active
6280303101,64325748,,,Lady Brae Place,,Lady Brae Place,,-,,Lady Brae,,,,at,,NE,ES001632,Gorebridge,,,,,,,0,UKOS,335066,661478,-3.038485,55.842121,BCT,MKD,OTH,,,,130,2008-01-27T00:00:00.000,2018-03-22T10:46:13.000,2,revise,active
6280303102,64325749,,,Wilson Road,,Wilson Road,,at 102,,Barleyknowe Road,,,,at,,NW,ES001632,Gorebridge,,,,,,,0,UKOS,334701,662186,-3.0444826,55.8484316,BCT,MKD,TIP,,,,130,2008-01-27T00:00:00.000,2018-03-22T10:46:13.000,5,revise,active
6280303103,64324729,,,Barleyknowe Terrace,,Barleyknowe Terr,,,,,,,,,,N,ES001632,Gorebridge,,,,,,,0,UKOS,334192,662665,-3.0527268,55.8526654,BCT,MKD,TIP,,,,130,2008-01-27T00:00:00.000,2011-11-04T11:26:23.000,4,revise,inactive
6280304010,64325826,,,Burnbrae Road,,,,-,,Hopefield Access Road,,,,opp,,SW,ES000413,Bonnyrigg,,,,,,,0,UKOS,331625,664214,-3.094113,55.866223,BCT,MKD,OTH,,,,130,2008-03-29T00:00:00.000,2009-08-21T00:00:00.000,3,revise,active
6280304011,64329295,,,Sawmill Terrace,,,,-,,Burnbrae Road,,,,opp,,SW,ES000413,Bonnyrigg,,,,,,,0,UKOS,331394,664193,-3.097798,55.866001,BCT,MKD,TIP,,,,130,2010-10-29T08:10:00.000,2010-10-29T08:10:30.000,1,new,active
6280304012,64329296,,,Burnbrae Walk,,,,-,,Burnbrae Road,,,,at,,SW,ES000413,Bonnyrigg,,,,,,,0,UKOS,331130,664131,-3.1019992,55.8654066,BCT,MKD,TIP,,,,130,2010-10-29T08:18:24.000,2015-02-05T12:04:45.000,2,revise,active
6280304013,64329297,,,Burnbrae Avenue,,,,-,,Burnbrae Terrace,,,,near,,SE,ES000413,Bonnyrigg,,,,,,,0,UKOS,331219,663892,-3.1005167,55.8632724,BCT,MKD,TIP,,,,130,2010-10-29T08:22:00.000,2010-10-29T08:22:22.000,1,new,active
6280304050,64325828,,,Burnbrae Terrace,,,,,,Hopefield Access Road,,,,opp,,SW,ES000413,Bonnyrigg,,,,,,,0,UKOS,331307,663834,-3.0990962,55.8627639,BCT,MKD,OTH,,,,130,2008-03-29T00:00:00.000,2009-08-25T00:00:00.000,3,revise,active
628030887,64329327,,,Stobs Mills,,,,-,,Lady Brae,,,,at,,W,ES001632,Gorebridge,,,,,,,0,UKOS,334574,661173,-3.0462660,55.8393142,BCT,MKD,TIP,,,,130,2011-11-01T12:17:13.000,2011-11-04T11:59:37.000,3,revise,active
628030891,64329328,,,Smithy Cottage,,,,,,Barleyknowe Road,,,,opp,,NW,ES001632,Gorebridge,,,,,,,0,UKOS,335265,661780,-3.035379,55.844861,BCT,MKD,TIP,,,,130,2011-11-02T11:26:20.000,2011-11-04T11:42:48.000,2,revise,active
628030892,64329329,,,Smithy Cottage,,,,,,Barleyknowe Road,,,,at,,SE,ES001632,Gorebridge,,,,,,,0,UKOS,335293,661782,-3.0349328,55.8448822,BCT,MKD,TIP,,,,130,2011-11-02T11:33:27.000,2011-11-14T10:45:16.000,3,revise,active
628030895,64329342,,,Greenhall Crescent,,,,,,New Hunterfield Road,,,,at,,S,ES001632,Gorebridge,,,,,,,0,UKOS,333999,662306,-3.0557215,55.8494139,BCT,MKD,TIP,,,,130,2011-11-02T11:48:03.000,2011-11-28T10:57:43.000,4,revise,inactive
628030897,64329343,,,Arniston Vale,,,,,,Barleyknowe road,,,,at 160,,NW,ES001632,Gorebridge,,,,,,,0,UKOS,334921,662031,-3.0409323,55.8470690,BCT,MKD,TIP,,,,130,2011-11-02T11:54:07.000,2011-11-09T13:37:00.000,4,revise,active
628030898,64329347,,,Mossend,,,,-,,Barleyknowe Road,,,,at,,SE,ES001632,Gorebridge,,,,,,,0,UKOS,335084,661950,-3.0383102,55.8463633,BCT,MKD,TIP,,,,130,2011-11-03T09:04:12.000,2015-02-25T11:09:32.000,4,revise,active
628030899,64329345,,,Dewar Park,,,,,,A7,,,,at,,S,N0076343,Newtonloan Toll,,,,,,,0,UKOS,333433,662501,-3.0648077,55.8510878,BCT,MKD,TIP,,,,130,2011-11-02T12:03:47.000,2013-01-31T13:48:38.000,4,revise,active
628030901,64329346,,,Dewar Park,,,,-,,A7,,,,opp,,N,N0076343,Newtonloan Toll,,,,,,,0,UKOS,333414,662553,-3.0651239,55.8515523,BCT,MKD,TIP,,,,130,2011-11-02T12:09:03.000,2013-01-31T13:47:56.000,5,revise,active
6280309180,64324564,,,Loanhead Road,,,,Subway,,A701,,,,at,,SW,N0067344,Straiton,,,,,,,0,UKOS,327319,666663,-3.1635590,55.8875913,BCT,MKD,PPT,,,,130,2008-01-27T00:00:00.000,2009-11-27T00:00:00.000,2,revise,active
6280309185,64328248,,,Park and Ride,,P and R,,Park and Ride,,Unnamed Road,,,,S-bound,,SE,N0067344,Straiton,,,,,,,0,UKOS,327100,666549,-3.167029,55.886534,BCT,MKD,TIP,,,,130,2008-07-21T00:00:00.000,2017-11-22T13:16:41.000,4,revise,active
6280309190,64323837,,,Lang Loan,,,,Straiton Park,,Loanhead Road,,,,at,,SE,N0067344,Straiton,,,,,,,0,UKOS,327452,666657,-3.1614315,55.8875575,BCT,MKD,OTH,,,,130,2008-01-27T00:00:00.000,2009-11-27T00:00:00.000,2,revise,active
6280309195,64324565,,,Straiton Cottages,,,,Retail Park,,A701,,,,opp,,SW,N0067344,Straiton,,,,,,,0,UKOS,327143,666289,-3.1662714,55.8842051,BCT,MKD,PPT,,,,130,2008-01-27T00:00:00.000,2018-03-22T10:46:14.000,1,revise,active
6280309200,64327982,,,Sainsburys,,,,none,,car park,,,,at store,,SW,N0067344,Straiton,,,,,,,0,UKOS,327235,666025,-3.16473,55.881847,BCT,MKD,PPT,,,,130,2008-01-27T00:00:00.000,2011-11-04T11:27:06.000,3,revise,inactive
6280309205,64327983,,,Ikea,,,,none,,Costkea Way,,,,at store,,N,N0071589,Loanhead,,,,,,,0,UKOS,327156,665951,-3.1659725,55.8811708,BCT,MKD,PPT,,,,130,2008-01-27T00:00:00.000,2011-11-04T11:28:04.000,2,revise,inactive
6280309210,64327984,,,Ikea,,,,none,,Costkea Way,,,,opposite store,,N,N0071589,Loanhead,,,,,,,0,UKOS,327116,665833,-3.1665800,55.8801048,BCT,MKD,PPT,,,,130,2008-01-27T00:00:00.000,2011-11-04T11:28:38.000,3,revise,inactive
6280309220,64329352,,,Straiton Parkway,,,,-,,Straiton Parkway,,,,S-bound,,S,N0067344,Straiton,,,,,,,0,UKOS,327286,666469,-3.1640343,55.8858437,BCT,MKD,TIP,,,,130,2012-06-08T11:54:18.000,2012-06-13T10:11:51.000,1,revise,active
6280309222,64329353,,,Straiton Mains,,,,Pets at Home,,Straiton Mains,,,,E-bound,,NE,N0067344,Straiton,,,,,,,1,UKOS,327387,666437,-3.1624114,55.8855715,BCT,MKD,TIP,,,,130,2012-06-08T12:17:12.000,2012-06-13T10:14:19.000,2,revise,active
628031105,64329349,,,Summerside,,,,-,,A7,,,,at,,NW,ES000968,Dalkeith,,,,,,,0,UKOS,331660,668101,-3.094536,55.901145,BCT,MKD,TIP,,,,130,2012-04-18T10:26:26.000,2012-06-13T10:42:18.000,1,revise,active
628031140,64329357,,,Hole in the Wa',,,,-,,A7,,,,S-bound,,S,N0071916,Birkenside,Gorebridge,,,,,,1,UKOS,334281,660832,-3.0508610,55.8362110,BCT,MKD,TIP,,,,130,2012-06-13T12:06:28.000,2012-06-13T12:06:28.000,0,new,active
628031142,64329358,,,Hole in the Wa',,,,-,,A7,,,,N-bound,,N,N0071916,Birkenside,Gorebridge,,,,,,0,UKOS,334292,660794,-3.0506762,55.8358711,BCT,MKD,TIP,,,,130,2012-06-13T12:30:33.000,2012-06-13T12:30:33.000,0,new,active
628031165,64342439,,,Asda,,,,Asda Supermarket,,Car Park,,,,at,,NE,N0071589,Loanhead,,,,,,,0,UKOS,326918,665638,-3.1696915,55.8783230,BCT,CUS,TIP,,,,130,2012-07-11T11:15:59.000,2013-01-23T15:39:09.000,1,revise,active
628031256,64342453,,,Pentland Road,,,,Ikea warehouse,,Pentland Road,,,,NW bound,,NW,N0071589,Loanhead,,,,,,,0,UKOS,327107,665626,-3.1666680,55.8782439,BCT,MKD,TIP,,,,130,2012-08-30T15:46:25.000,2012-09-06T14:41:14.000,1,revise,active
6280318220,64342459,,,Little Wood Grove,,,,,,Burnbrae Road,,,,opp,,E,ES000413,Bonnyrigg,,,,,,,0,UKOS,331006,664119,-3.1039770,55.8652811,BCT,MKD,TIP,,,,130,2014-03-26T11:45:35.000,2015-02-05T12:08:22.000,2,revise,active
6280318240,64342462,,,Burnbrae Primary,,,,at Primary School,,Burnbrae Road,,,,at,,SE,ES000413,Bonnyrigg,,,,,,,0,UKOS,330746,664193,-3.1081494,55.8659085,BCT,MKD,TIP,,,,130,2014-03-26T11:50:47.000,2014-03-26T11:50:47.000,0,new,active
6280318260,64342463,,,Burnbrae Terminus,,,,,,Burnbrae Road,,,,at,,N,ES000413,Bonnyrigg,,,,,,,0,UKOS,330955,664568,-3.1049063,55.8693072,BCT,MKD,PTP,,,,130,2014-03-26T11:56:51.000,2015-02-05T12:02:04.000,2,revise,active
6280318280,64342464,,,Burnbrae Primary,,,,opposite school,,Burnbrae Road,,,,opp,,NW,ES000413,Bonnyrigg,,,,,,,0,UKOS,330768,664138,-3.1077839,55.8654176,BCT,MKD,TIP,,,,130,2014-03-26T12:01:29.000,2014-03-26T12:01:29.000,0,new,active
6280318300,64342465,,,Auld Coal Bank,,,,,,Burnbrae Road,,,,opp,,NW,ES000413,Bonnyrigg,,,,,,,0,UKOS,330681,664264,-3.1092060,55.8665370,BCT,MKD,TIP,,,,130,2014-03-26T12:04:19.000,2014-03-26T12:04:19.000,0,new,active
6280325020,64324243,,,Ninemileburn,,,,opp Mobility Warehouse,,A702,,,,NE-bound,,NE,N0072040,Nine Mile Burn,,,,,,,1,UKOS,317979,657721,-3.3101351,55.8057677,BCT,MKD,OTH,,,,130,2008-01-27T00:00:00.000,2010-06-18T00:00:00.000,2,revise,active
6280325030,64323642,,,Eastside Farm,,,,-,,A702,,,,at,,NE,N0072038,Eight Mile Burn,,,,,,,0,UKOS,319339,659255,-3.2888993,55.8197764,BCT,MKD,OTH,,,,130,2008-01-27T00:00:00.000,2010-06-08T00:00:00.000,2,revise,active
6280325060,64324279,,,Craigiebield Crescent,,,,-,,Bog Road,,,,opp,,SE,ES002994,Penicuik,,,,,,,0,UKOS,323251,660091,-3.2267176,55.8279244,BCT,MKD,OTH,,,,130,2008-01-27T00:00:00.000,2009-11-27T00:00:00.000,2,revise,active
6280325080,64323757,,,Leadburn Inn,,,,-,,A701,,,,opp,,N,N0071647,Leadburn,,,,,,,0,UKOS,323471,655509,-3.221916,55.7868,BCT,MKD,PPT,,,,130,2008-01-27T00:00:00.000,2009-11-27T00:00:00.000,2,revise,active
6280325090,64323759,,,Wellington School,,,,opp Springfield Road,,A701,,,,N-bound,,N,N0071647,Leadburn,,,,,,,0,UKOS,323436,656788,-3.2228343,55.7982833,BCT,MKD,PPT,,,,130,2008-01-27T00:00:00.000,2018-03-22T10:46:13.000,1,revise,active
6280325100,64324356,,,Pomathorn Road,,,,Valleyfield Road,,Bridge Street,,,,opp,,N,ES002994,Penicuik,,,,,,,0,UKOS,323549,659640,-3.221835,55.823921,BCT,MKD,OTH,,,,130,2008-01-27T00:00:00.000,2018-03-22T10:46:14.000,1,revise,active
6280325110,64324325,,,Lambs Pend,,,,Old Crown PH,,HIGH STREET,,,,at,,NE,ES002994,Penicuik,,,,,,,0,UKOS,323559,659899,-3.221749,55.826246,BCT,MKD,PPT,,,,130,2006-05-05T00:00:00.000,2023-02-24T07:46:37.833,3,revise,active
6280325130,64324327,,,Imrie Place,,,,-,,Kirkhill Road,,,,at,,NE,ES002994,Penicuik,,,,,,,0,UKOS,323753,660076,-3.2187020,55.8278693,BCT,MKD,OTH,,,,130,2008-01-27T00:00:00.000,2018-03-22T10:46:14.000,1,revise,active
6280325140,64324329,,,Kirkhill Gardens,,,,YMCA,,Kirkhill Road,,,,opp,,E,ES002994,Penicuik,,,,,,,0,UKOS,323977,660218,-3.2151670,55.8291803,BCT,MKD,OTH,,,,130,2008-01-27T00:00:00.000,2018-03-22T10:46:14.000,1,revise,active
6280325141,64324342,,,Kirkhill Gardens,,,,YMCA,,Kirkhill Road,,,,at,,W,ES002994,Penicuik,,,,,,,0,UKOS,323995,660199,-3.2148744,55.8290124,BCT,MKD,PPT,,,,130,2008-01-27T00:00:00.000,2018-03-22T10:46:14.000,1,revise,active
6280325160,64324292,,,Dunlop Terrace,,,,-,,Eastfield Drive,,,,at,,NW,N0071918,Ladywood,Penicuik,,,,,,0,UKOS,324147,660372,-3.2124969,55.8305904,BCT,MKD,OTH,,,,130,2008-01-27T00:00:00.000,2018-03-22T10:46:13.000,1,revise,active
6280325170,64324374,,,Town Centre,,,,opp Health Centre,,St Kentigern Way,,,,Stop C,,NW,ES002994,Penicuik,,,,,,,1,UKOS,323579,660064,-3.221475,55.827734,BCT,MKD,PPT,,,,130,2008-01-27T00:00:00.000,2013-01-24T08:43:03.000,3,revise,active
6280325180,64324378,,,Wilson Street,,,,-,,John Street,,,,at,,NW,ES002994,Penicuik,,,,,,,0,UKOS,323486,660155,-3.2229853,55.8285367,BCT,MKD,OTH,,,,130,2008-01-27T00:00:00.000,2018-03-22T10:46:14.000,1,revise,active
6280325190,64324328,,,John Street Lane,,,,-,,John Street,,,,at,,N,ES002994,Penicuik,,,,,,,0,UKOS,323428,660346,-3.2239649,55.8302432,BCT,MKD,OTH,,,,130,2008-01-27T00:00:00.000,2013-01-24T08:43:47.000,2,revise,active
6280325200,64324267,,,Angle Park,,,,-,,John Street,,,,at,,N,ES002994,Penicuik,,,,,,,0,UKOS,323414,660459,-3.2242202,55.8312561,BCT,MKD,OTH,,,,130,2008-01-27T00:00:00.000,2013-01-24T08:44:28.000,2,revise,active
6280325210,64324284,,,Cuiken Avenue,,,,The Quadrant,,John Street,,,,at,,NE,ES002994,Penicuik,,,,,,,0,UKOS,323524,660734,-3.2225421,55.8337438,BCT,MKD,OTH,,,,130,2008-01-27T00:00:00.000,2013-01-24T08:45:13.000,2,revise,active
6280325220,64324368,,,Harlaw Grove,,,,Rullion Road,,Carlops Road,,,,opp,,SW,ES002994,Penicuik,,,,,,,0,UKOS,322926,660187,-3.2319315,55.8287349,BCT,MKD,OTH,,,,130,2008-01-27T00:00:00.000,2009-11-27T00:00:00.000,2,revise,active
6280325230,64324275,,,Clerk Road,,,,-,,Rullion Road,,,,opp,,W,N0071917,Deanburn,Penicuik,,,,,,0,UKOS,322578,660189,-3.2374859,55.8286972,BCT,MKD,OTH,,,,130,2008-01-27T00:00:00.000,2012-01-04T12:02:04.000,2,revise,active
6280325235,64324364,,,Ravendean Gardens,,,,-,,Rullion Road,,,,opp,,NW,N0071917,Deanburn,Penicuik,,,,,,0,UKOS,322428,660244,-3.239895,55.829167,BCT,MKD,OTH,,,,130,2008-01-27T00:00:00.000,2012-01-04T12:02:58.000,2,revise,active
6280325237,64324692,,,Lowrie Avenue,,Lowrie Avenue,,-,,Rullion Road,,,,opp,,NW,N0071917,Deanburn,Penicuik,,,,,,0,UKOS,322174,660156,-3.2439239,55.8283357,BCT,MKD,TIP,,,,130,2008-01-27T00:00:00.000,2012-01-04T12:38:57.000,4,revise,active
6280325240,64324362,,,Ravelsykes Road,,,,-,,Rullion Road,,,,opp,,NE,N0071917,Deanburn,Penicuik,,,,,,0,UKOS,322042,660371,-3.2460923,55.8302457,BCT,MKD,OTH,,,,130,2008-01-27T00:00:00.000,2012-01-04T12:39:43.000,2,revise,active
6280325250,64324286,,,Silverburn Drive,,,,At Silverburn Drive,,Rullion Road,,,,at,,NE,N0071917,Deanburn,Penicuik,,,,,,0,UKOS,322536,660759,-3.2383189,55.8338106,BCT,MKD,OTH,,,,130,2008-01-27T00:00:00.000,2012-01-04T12:40:29.000,3,revise,active
6280325270,64324345,,,Laverlock Drive,,,,-,,Rullion Road,,,,opp,,NE,N0071917,Deanburn,Penicuik,,,,,,0,UKOS,322720,661043,-3.2354630,55.8363913,BCT,MKD,OTH,,,,130,2008-01-27T00:00:00.000,2012-01-04T12:41:22.000,2,revise,active
6280325280,64324367,,,Royal Court,,,,-,,Rullion Road,,,,opp,,E,N0071917,Deanburn,Penicuik,,,,,,0,UKOS,322988,661214,-3.2312336,55.8379702,BCT,MKD,OTH,,,,130,2008-01-27T00:00:00.000,2018-03-22T10:46:13.000,1,revise,active
6280325290,64324287,,,Terminus,,,,Queensway Leisure Centre,,Queensway,,,,at,,SE,N0071917,Deanburn,Penicuik,,,,,,1,UKOS,323292,661216,-3.2263814,55.8380367,BCT,MKD,PPT,,,,130,2008-01-27T00:00:00.000,2009-08-21T00:00:00.000,4,revise,active
6280325300,64324358,,,Queensway,,,,Opp Tesco,,Edinburgh Road,,,,near,,NE,ES002994,Penicuik,,,,,,,0,UKOS,323680,661021,-3.2201329,55.8363466,BCT,MKD,PPT,,,,130,2008-01-27T00:00:00.000,2018-03-22T10:46:14.000,1,revise,active
6280325310,64324382,,,Windsor Road,,,,-,,Windsor Drive,,,,N-bound,,N,N0071918,Ladywood,Penicuik,,,,,,0,UKOS,324228,660522,-3.2112461,55.8319506,BCT,MKD,OTH,,,,130,2008-01-27T00:00:00.000,2018-03-22T10:46:13.000,1,revise,active
6280325315,64327985,,,Eastfield Drive,,,,-,,Eastfield Drive,,,,at,,SE,N0071918,Ladywood,Penicuik,,,,,,0,UKOS,324099,660478,-3.2132927,55.8315351,BCT,MKD,PPT,,,,130,2008-01-27T00:00:00.000,2011-11-04T11:29:18.000,3,revise,inactive
6280325317,64327986,,,Eastfield Drive,,,,none,,Eastfield Drive,,,,Eastfield Drive,,SE,N0071918,Ladywood,Penicuik,,,,,,0,UKOS,323795,660717,-3.2182118,55.8336340,BCT,MKD,PPT,,,,130,2008-01-27T00:00:00.000,2011-11-04T11:29:53.000,3,revise,inactive
6280325320,64327987,,,Hays Garage,,,,none,,Eastfield Drive,,,,Hays Garage,,SW,N0071918,Ladywood,Penicuik,,,,,,0,UKOS,323681,660811,-3.2200578,55.8344604,BCT,MKD,PPT,,,,130,2008-01-27T00:00:00.000,2011-11-04T11:30:27.000,3,revise,inactive
6280325325,64324268,,,Avon Grove,,,,-,,Eskvale Drive,,,,at,,N,N0071918,Ladywood,Penicuik,,,,,,0,UKOS,324316,660681,-3.2098859,55.8333927,BCT,MKD,OTH,,,,130,2008-01-27T00:00:00.000,2018-03-22T10:46:13.000,1,revise,active
6280325330,64327989,,,Eastfield Drive,,,,none,,Eastfield Drive,,,,Eastfield Drive,,NW,N0071918,Ladywood,Penicuik,,,,,,0,UKOS,323792,660693,-3.2182529,55.8334180,BCT,MKD,PPT,,,,130,2008-01-27T00:00:00.000,2011-11-04T11:30:59.000,3,revise,inactive
6280325340,64324282,,,Cruachan Court,,,,-,,Eskvale Drive,,,,at,,N,N0071918,Ladywood,Penicuik,,,,,,0,UKOS,324419,660882,-3.2082979,55.8352144,BCT,MKD,OTH,,,,130,2008-01-27T00:00:00.000,2018-03-22T10:46:13.000,1,revise,active
6280325350,64324353,,,Nevis Gardens,,,,-,,Eskvale Drive,,,,at,,NW,N0071918,Ladywood,Penicuik,,,,,,0,UKOS,324439,661044,-3.2080238,55.8366728,BCT,MKD,OTH,,,,130,2008-01-27T00:00:00.000,2018-03-22T10:46:13.000,1,revise,active
6280325360,64324384,,,Wyvis Park,,,,-,,Eskvale Drive,,,,at,,NW,N0071918,Ladywood,Penicuik,,,,,,1,UKOS,324288,661097,-3.2104489,55.8371252,BCT,MKD,PPT,,,,130,2008-01-27T00:00:00.000,2018-03-22T10:46:13.000,1,revise,active
6280325370,64324385,,,Yarrow Court,,,,-,,Eskvale Drive,,,,at,,NW,N0071918,Ladywood,Penicuik,,,,,,0,UKOS,324137,661178,-3.2128819,55.8378291,BCT,MKD,OTH,,,,130,2008-01-27T00:00:00.000,2009-08-21T00:00:00.000,2,revise,active
6280325380,64324294,,,Teviot Grove,,,,-,,Eskvale Drive,,,,opp,,S,N0071918,Ladywood,Penicuik,,,,,,0,UKOS,323982,661055,-3.2153217,55.8366998,BCT,MKD,OTH,,,,130,2008-01-27T00:00:00.000,2018-03-22T10:46:13.000,1,revise,active
6280325385,64324295,,,Eastfield Farm Road,,,,opp new Doctor Surgery,,Eastfield Farm Road,,,,at,,E,N0071918,Ladywood,Penicuik,,,,,,0,UKOS,323993,660999,-3.21513,55.836199,BCT,MKD,PPT,,,,130,2008-01-27T00:00:00.000,2018-03-22T10:46:13.000,1,revise,active
6280325390,64328232,,,Eastfield Drive,,,,none,,Eastfield Drive,,,,Eastfield Drive,,NW,N0071918,Ladywood,Penicuik,,,,,,0,UKOS,324062,660482,-3.2138843,55.8315652,BCT,MKD,PPT,,,,130,2008-01-27T00:00:00.000,2011-11-04T11:31:38.000,3,revise,inactive
6280325440,64323659,,,Flotterstone Inn,,Flotterstone Inn,,-,,A702,,,,at,,NE,N0071922,Flotterstone,,,,,,,0,UKOS,323542,663200,-3.2229503,55.8558984,BCT,MKD,PPT,,,,130,2008-01-27T00:00:00.000,2018-03-22T10:46:13.000,1,revise,active
6280325460,64323625,,,Fulford House,,Fulford House,,-,,A702,,,,at,,N,N0067282,Easter Howgate,,,,,,,0,UKOS,324226,664525,-3.212397,55.867909,BCT,MKD,PPT,,,,130,2008-01-27T00:00:00.000,2018-03-22T10:46:13.000,1,revise,active
6280325461,64323263,,,Boghall Farm,,Boghall Farm,,-,,A702,,,,at,,NE,N0067234,Boghall,,,,,,,0,UKOS,324511,665165,-3.208023,55.873703,BCT,MKD,OTH,,,,130,2008-01-27T00:00:00.000,2018-03-22T10:46:13.000,1,revise,active
6280325490,64324347,,,Mauricewood Road,,,,-,,Edinburgh Road,,,,at,,NE,N0071919,Mauricewood,Penicuik,,,,,,0,UKOS,323919,661335,-3.2164059,55.8392050,BCT,MKD,OTH,,,,130,2008-01-27T00:00:00.000,2013-01-24T08:45:59.000,2,revise,active
6280325500,64324269,,,Beeslack High School,,,,-,,Edinburgh Road,,,,opp,,NE,N0071919,Mauricewood,Penicuik,,,,,,0,UKOS,324165,661551,-3.2125393,55.8411841,BCT,MKD,PPT,,,,130,2008-01-27T00:00:00.000,2013-01-24T08:46:48.000,3,revise,active
6280325505,64324372,,,Samoa Terrace,,,,-,,A701,,,,near,,NE,N0071919,Mauricewood,Penicuik,,,,,,0,UKOS,324382,661733,-3.2091257,55.8428531,BCT,MKD,OTH,,,,130,2008-01-27T00:00:00.000,2018-03-22T10:46:14.000,1,revise,active
6280325510,64324323,,,Glencorse Barracks,,,,-,,Edinburgh Road,,,,opp,,NE,ES001593,Glencorse,Penicuik,,,,,,0,UKOS,324698,662078,-3.2041766,55.8460017,BCT,MKD,PPT,,,,130,2008-01-27T00:00:00.000,2013-01-24T08:47:33.000,2,revise,active
6280325520,64323939,,,Golf Club,,,,-,,A701,,,,opp,,NE,N0067334,Milton Bridge,,,,,,,0,UKOS,324979,662492,-3.1998046,55.8497645,BCT,MKD,PPT,,,,130,2008-01-27T00:00:00.000,2018-03-22T10:46:14.000,1,revise,active
6280325530,64323943,,,Milton Cottages,,,,near Graveyard,,A701,,,,at,,NE,N0067334,Milton Bridge,,,,,,,0,UKOS,325413,662705,-3.1929331,55.8517452,BCT,MKD,OTH,,,,130,2008-01-27T00:00:00.000,2018-03-22T10:46:14.000,1,revise,active
6280325534,64324673,,,Leadburn Junction,,,,-,,A6094,,,,near,,NE,N0071647,Leadburn,,,,,,,1,UKOS,323567,655590,-3.2204086,55.7875425,BCT,MKD,PTP,,,,130,2008-01-27T00:00:00.000,2015-02-25T11:05:02.000,2,revise,active
6280325535,64324646,,,Tipperwell Way,,,,-,,A6094,,,,at,,N,N0067304,Howgate,,,,,,,1,UKOS,324800,658082,-3.2014407,55.8101217,BCT,MKD,PPT,,,,130,2008-01-27T00:00:00.000,2018-03-22T10:46:13.000,1,revise,active
6280325540,64323234,,,The Brae foot,,,,-,,The Brae,,,,opp 2,,N,N0067195,Auchendinny,,,,,,,1,UKOS,325404,661961,-3.1928720,55.8450605,BCT,MKD,PPT,,,,130,2008-01-27T00:00:00.000,2009-03-11T00:00:00.000,2,revise,active
6280325550,64323236,,,The Brae top,,,,Firth Road,,The Brae,,,,opp 64,,N,N0067195,Auchendinny,,,,,,,1,UKOS,325467,662268,-3.1919506,55.8478280,BCT,MKD,PPT,,,,130,2008-01-27T00:00:00.000,2009-03-11T00:00:00.000,2,revise,active
6280325560,64323727,,,Bush Access,,-,,At Cottages,,A701,,,,at,,NE,ES000355,Gowkley Moss,,,,,,,0,UKOS,325832,663434,-3.186442,55.858359,BCT,MKD,OTH,,,,130,2008-01-27T00:00:00.000,2009-11-27T00:00:00.000,3,revise,active
6280325564,64323452,,,Gowkley Moss,,,,Gowkley Moss Roundabout,,Bush Loan Road,,,,W-bound,,W,N0071914,Bush Estate,,,,,,,0,UKOS,325700,663351,-3.1885272,55.8575926,BCT,MKD,OTH,,,,130,2008-01-27T00:00:00.000,2009-07-15T00:00:00.000,2,revise,active
6280325565,64323454,,,Pentland Science Park,,,,-,,Bush Loan Road,,,,at,,W,N0071914,Bush Estate,,,,,,,0,UKOS,325388,663421,-3.1935295,55.8581731,BCT,MKD,OTH,,,,130,2008-01-27T00:00:00.000,2009-07-15T00:00:00.000,2,revise,active
6280325566,64323462,,,Technopole,,,,Bush House Corner,,Bush Farm Road,,,,NE-bound,,NE,N0071914,Bush Estate,,,,,,,0,UKOS,324770,663917,-3.203538,55.862533,BCT,MKD,OTH,,,,130,2008-01-27T00:00:00.000,2009-08-21T00:00:00.000,4,revise,active
6280325567,64323436,,,Bush Research Park,,,,-,,Bush Loan Road,,,,at,,NW,N0071914,Bush Estate,,,,,,,0,UKOS,325141,663558,-3.197512,55.859366,BCT,MKD,OTH,,,,130,2008-01-27T00:00:00.000,2009-07-15T00:00:00.000,2,revise,active
6280325570,64323458,,,Veterinary Centre,,,,-,,Bush Farm Road,,,,opp,,NE,N0071914,Bush Estate,,,,,,,0,UKOS,325062,664406,-3.1990088,55.8669707,BCT,MKD,OTH,,,,130,2008-01-27T00:00:00.000,2009-08-21T00:00:00.000,3,revise,active
6280325580,64323439,,,Bush Road End,,,,-,,A703,,,,at,,NW,N0065268,Seafield,,,,,,,0,UKOS,325602,664668,-3.1904542,55.8694080,BCT,MKD,OTH,,,,130,2008-01-27T00:00:00.000,2018-03-22T10:46:14.000,1,revise,active
6280325581,64323457,,,Midlothian Innovation Centre,,Innovation Centre,,-,,Bush Farm Road,,,,opp,,E,N0071914,Bush Estate,,,,,,,0,UKOS,325380,664567,-3.1939731,55.8684663,BCT,MKD,PPT,,,,130,2008-01-27T00:00:00.000,2010-09-24T00:00:00.000,3,revise,active
6280325585,64323572,,,Old Pentland Road,,,,Old Pentland Road,,A703,,,,opp,,N,N0067266,Damhead Holdings,,,,,,,0,UKOS,325473,665636,-3.192782,55.878084,BCT,MKD,OTH,,,,130,2008-01-27T00:00:00.000,2009-08-21T00:00:00.000,3,revise,active
6280325587,64323574,,,Hillend,,,,A702 junction,,A703,,,,N-bound,,NW,N0067266,Damhead Holdings,,,,,,,0,UKOS,325188,666637,-3.1976129,55.8870311,BCT,MKD,PPT,,,,130,2008-01-27T00:00:00.000,2018-03-22T10:46:13.000,1,revise,active
6280325590,64323845,,,Snowsports Centre,,,,The Steading PH,,Biggar Road,,,,at,,NW,N0072092,Lothianburn,,,,,,,1,UKOS,324980,666986,-3.2010342,55.8901337,BCT,MKD,PPT,,,,130,2008-01-27T00:00:00.000,2013-01-24T08:48:22.000,2,revise,active
628032560,64342469,,,Midlothian Community Hospital,,,,inside community hospital,,Un-named,,,,at,,N,ES000413,Bonnyrigg,,,,,,,0,UKOS,331921,665847,-3.0897947,55.8809344,BCT,CUS,TIP,,,,130,2016-03-09T10:38:02.000,2016-03-09T10:38:02.000,0,new,active
6280325605,64324743,,,Roslin Surgery,,,,New Surgery,,Penicuik Road,,,,At,,E,ES003171,Roslin,,,,,,,0,UKOS,326304,663300,-3.1788666,55.8572272,BCT,MKD,TIP,,,,130,2008-01-27T00:00:00.000,2013-01-24T08:49:12.000,2,revise,active
6280325610,64324537,,,Penicuik Road,,,,at Church,,Penicuik Road,,,,at 32,,E,ES003171,Roslin,,,,,,,0,UKOS,327035,663147,-3.1671504,55.8559641,BCT,MKD,OTH,,,,130,2008-01-27T00:00:00.000,2018-03-22T10:46:14.000,1,revise,active
6280325620,64324548,,,Woodend Park,,,,-,,Penicuik Road,,,,at,,SE,ES003171,Roslin,,,,,,,0,UKOS,326577,663187,-3.1744758,55.8562538,BCT,MKD,PPT,,,,130,2008-01-27T00:00:00.000,2013-01-24T08:50:03.000,2,revise,active
6280325630,64324535,,,Original Rosslyn Hotel,,,,-,,Main Street,,,,opp,,NW,ES003171,Roslin,,,,,,,0,UKOS,327208,663263,-3.1644186,55.8570323,BCT,MKD,PPT,,,,130,2008-01-27T00:00:00.000,2018-03-22T10:46:14.000,1,revise,active
6280325640,64324546,,,Station Road,,,,-,,Main Street,,,,opp,,NW,ES003171,Roslin,,,,,,,0,UKOS,327068,663422,-3.166697,55.85844,BCT,MKD,PPT,,,,130,2008-01-27T00:00:00.000,2018-03-22T10:46:14.000,1,revise,active
6280325650,64324543,,,Springfield Place,,,,-,,Main Street,,,,opp,,NW,ES003171,Roslin,,,,,,,0,UKOS,326990,663515,-3.1679683,55.8592631,BCT,MKD,PPT,,,,130,2008-01-27T00:00:00.000,2018-03-22T10:46:14.000,1,revise,active
628032566,64342472,,,National Mining Museum,,,,in car park,,Un-named,,,,at,,E,ES002829,Newtongrange,,,,,,,0,UKOS,333329,663642,-3.0667494,55.8613234,BCT,MKD,OTH,,,,130,2016-03-09T17:12:47.000,2016-03-17T10:15:31.000,6,revise,active
6280325660,64324539,,,Roslin Institute,,,,-,,Roslin Road,,,,opp,,N,ES003171,Roslin,,,,,,,0,UKOS,326884,663792,-3.1697361,55.8617353,BCT,MKD,PPT,,,,130,2008-01-27T00:00:00.000,2013-01-31T13:53:14.000,3,revise,active
6280325665,64324642,,,Bilston Cottages,,,,A701 Roundabout,,B7006,,,,opp,,NW,ES000354,Bilston,,,,,,,0,UKOS,326411,664558,-3.1774996,55.8685442,BCT,MKD,OTH,,,,130,2008-01-27T00:00:00.000,2018-03-22T10:46:13.000,1,revise,active
6280325670,64328234,,,Countryside,,,,none,,A701,,,,opp Penicuik Road end,,NE,ES000355,Gowkley Moss,,,,,,,0,UKOS,325793,663496,-3.1870816,55.8589094,BCT,MKD,PPT,,,,130,2008-01-27T00:00:00.000,2011-11-04T11:32:11.000,3,revise,inactive
6280325680,64323242,,,Ploverhall Cottages,,,,A703 junction,,A701,,,,near,,NE,ES000354,Bilston,,,,,,,1,UKOS,326061,664049,-3.1829521,55.8639182,BCT,MKD,OTH,,,,130,2008-01-27T00:00:00.000,2010-10-07T00:00:00.000,2,revise,active
6280325685,64329289,,,Castlelaw Crescent,,,,-,,A701,,,,At,,NE,ES000354,Bilston,,,,,,,0,UKOS,326166,664290,-3.1813406,55.8660992,BCT,MKD,TIP,,,,130,2010-07-28T14:24:07.000,2010-10-07T00:00:00.000,1,revise,active
6280325690,64323238,,,Moorfoot View,,Moorfoot View,,B7006 roundabout,,A701,,,,at,,NE,ES000354,Bilston,,,,,,,1,UKOS,326318,664604,-3.1789978,55.8689432,BCT,MKD,OTH,,,,130,2008-01-27T00:00:00.000,2010-10-07T00:00:00.000,3,revise,active
6280325700,64323245,,,Roslin Road,,,,B7006 roundabout,,A701,,,,opp,,NE,ES000354,Bilston,,,,,,,1,UKOS,326366,664724,-3.1782636,55.8700285,BCT,MKD,PPT,,,,130,2008-01-27T00:00:00.000,2010-10-07T00:00:00.000,4,revise,active
6280325710,64323247,,,Seafield Road,,,,Seafield Road,,A701,,,,at,,NE,ES000354,Bilston,,,,,,,1,UKOS,326454,664914,-3.176909,55.871749,BCT,MKD,PPT,,,,130,2008-01-27T00:00:00.000,2010-10-07T00:00:00.000,2,revise,active
6280325715,64323824,,,Nivensknowe Park,,,,Car Showroom,,A701,,,,at,,NE,N0071589,Loanhead,,,,,,,0,UKOS,326684,665408,-3.1733684,55.8762214,BCT,MKD,OTH,,,,130,2008-01-27T00:00:00.000,2018-03-22T10:46:13.000,1,revise,active
6280325720,64323823,,,New Pentland Road,,,,opp IKEA,,A701,,,,at,,NE,N0071589,Loanhead,,,,,,,0,UKOS,326835,665728,-3.1710422,55.8791189,BCT,MKD,OTH,,,,130,2008-01-27T00:00:00.000,2009-11-27T00:00:00.000,3,revise,active
6280325730,64323827,,,Nivensknowe Road,,,,Car Showroom,,Nivensknowe Road,,,,E-bound,,E,N0071589,Loanhead,,,,,,,0,UKOS,326654,665223,-3.1737977,55.8745549,BCT,MKD,OTH,,,,130,2008-01-27T00:00:00.000,2018-03-22T10:46:13.000,1,revise,active
6280325740,64328235,,,Pentland Industrial Estate,,,,-,,unclassified,,,,at,,N,N0071589,Loanhead,,,,,,,0,UKOS,326999,665485,-3.1683558,55.8769609,BCT,MKD,PPT,,,,130,2008-01-27T00:00:00.000,2011-11-04T11:32:45.000,3,revise,inactive
6280325745,64323765,,,Dryden Road,,,,-,,Nivensknowe Road,,,,opp,,E,N0071589,Loanhead,,,,,,,0,UKOS,326968,665263,-3.1687912,55.8749620,BCT,MKD,OTH,,,,130,2008-01-27T00:00:00.000,2018-03-22T10:46:13.000,1,revise,active
6280325750,64323789,,,Herd Terrace,,,,at Dryden View,,The Loan,,,,opp,,E,N0071589,Loanhead,,,,,,,1,UKOS,327273,665319,-3.1639328,55.8755112,BCT,MKD,PPT,,,,130,2008-01-27T00:00:00.000,2009-11-27T00:00:00.000,3,revise,active
6280325760,64323797,,,McNeil Avenue,,,,-,,The Loan,,,,at,,E,N0071589,Loanhead,,,,,,,0,UKOS,327617,665405,-3.1584591,55.8763357,BCT,MKD,OTH,,,,130,2008-01-27T00:00:00.000,2018-03-22T10:46:13.000,1,revise,active
6280325770,64323782,,,George Avenue,,,,opp Memorial Park,,The Loan,,,,at,,E,N0071589,Loanhead,,,,,,,0,UKOS,327839,665458,-3.1549259,55.8768451,BCT,MKD,OTH,,,,130,2008-01-27T00:00:00.000,2018-03-22T10:46:13.000,1,revise,active
6280325780,64323834,,,Muirfield Gardens,,,,at Bank,,The Loan,,,,opp,,E,N0071589,Loanhead,,,,,,,0,UKOS,328188,665546,-3.1493724,55.8776878,BCT,MKD,PPT,,,,130,2008-01-27T00:00:00.000,2018-03-22T10:46:13.000,1,revise,active
6280325795,64324528,,,Terminus,,,,opp Thornton Road,,Carnethie Street,,,,at,,N,ES003169,Rosewell,,,,,,,0,UKOS,328762,662198,-3.1393192,55.8476977,BCT,MKD,PPT,,,,130,2008-01-27T00:00:00.000,2018-03-22T10:46:14.000,1,revise,active
6280325800,64324527,,,St Joseph's,,,,-,,Carnethie Street,,,,opp,,NE,ES003169,Rosewell,,,,,,,0,UKOS,329193,663092,-3.1326708,55.8557922,BCT,MKD,OTH,,,,130,2008-01-27T00:00:00.000,2018-03-22T10:46:14.000,1,revise,active
6280325810,64324525,,,Prestonhall Road,,,,-,,Carnethie Street,,,,at,,NE,ES003169,Rosewell,,,,,,,1,UKOS,329029,662802,-3.1352140,55.8531629,BCT,MKD,OTH,,,,130,2008-01-27T00:00:00.000,2018-03-22T10:46:14.000,1,revise,active
6280325820,64324523,,,Gorton Road,,,,-,,Carnethie Street,,,,at,,NE,ES003169,Rosewell,,,,,,,0,UKOS,328940,662577,-3.136576,55.851129,BCT,MKD,OTH,,,,130,2008-01-27T00:00:00.000,2018-03-22T10:46:14.000,1,revise,active
6280325865,64329276,,,Midfield House,,-,,at Midfield Cottages,,Polton Road West,,,,Opp,,NE,ES003048,Poltonhall,,,,,,,0,UKOS,329189,664164,-3.1330150,55.8654215,BCT,MKD,OTH,,,,130,2009-05-05T00:00:00.000,2010-06-08T00:00:00.000,1,revise,active
6280325870,64324386,,,Cameron Crescent,,,,Springfield Farm,,Cameron Crescent,,,,at,,NW,ES003048,Poltonhall,,,,,,,1,UKOS,329496,664483,-3.1281938,55.8683322,BCT,MKD,PPT,,,,130,2008-01-27T00:00:00.000,2018-03-22T10:46:14.000,1,revise,active
6280325880,64324397,,,St Annes Avenue,,,,DeQuincy Path,,Polton Road West,,,,at,,NE,ES003048,Poltonhall,,,,,,,1,UKOS,329492,664634,-3.1282970,55.8696880,BCT,MKD,PPT,,,,130,2008-01-27T00:00:00.000,2013-01-24T08:51:55.000,2,revise,active
6280325910,64324394,,,Pentland Road,,,,-,,Polton Avenue Road,,,,at,,SE,ES003048,Poltonhall,,,,,,,0,UKOS,329867,664907,-3.1223765,55.8721952,BCT,MKD,OTH,,,,130,2008-01-27T00:00:00.000,2018-03-22T10:46:14.000,1,revise,active
6280325920,64324389,,,Dalhousie Drive,,,,Hawthornden Primary School,,Polton Avenue Road,,,,at,,SE,ES003048,Poltonhall,,,,,,,0,UKOS,330158,664619,-3.1176527,55.8696504,BCT,MKD,OTH,,,,130,2008-01-27T00:00:00.000,2018-03-22T10:46:14.000,1,revise,active
6280325930,64323298,,,Skeltiemuir Avenue,,,,-,,Rosewell Road,,,,opp,,NE,ES003048,Poltonhall,,,,,,,0,UKOS,330313,664539,-3.1151557,55.8689542,BCT,MKD,OTH,,,,130,2008-01-27T00:00:00.000,2015-02-05T12:16:18.000,3,revise,active
6280325940,64323282,,,Hopefield Place,,,,Staiside PH,,Rosewell Road,,,,at,,NE,ES000413,Bonnyrigg,,,,,,,0,UKOS,330455,664699,-3.1129282,55.8704121,BCT,MKD,OTH,,,,130,2008-01-27T00:00:00.000,2009-08-21T00:00:00.000,2,revise,active
6280325942,64329283,,,Dalhousie Chesters,,,,-,,Rosewell Road,,,,opp,,NE,ES003048,Poltonhall,,,,,,,0,UKOS,329851,664069,-3.1224150,55.8646650,BCT,MKD,TIP,,,,130,2010-01-05T00:00:00.000,2010-01-05T00:00:00.000,0,new,active
6280325943,64329284,,,Cockpen Place,,,,At Rugby Club,,Rosewell Road,,,,opp,,NE,ES003048,Poltonhall,,,,,,,0,UKOS,330146,664357,-3.1177768,55.8672951,BCT,MKD,TIP,,,,130,2010-01-05T00:00:00.000,2010-01-05T00:00:00.000,0,new,active
6280325945,64323289,,,Hazel Drive,,,,-,,Polton Road,,,,opp,,NE,ES000413,Bonnyrigg,,,,,,,0,UKOS,330660,664924,-3.1097106,55.8724628,BCT,MKD,OTH,,,,130,2008-01-27T00:00:00.000,2009-08-21T00:00:00.000,2,revise,active
6280325950,64328236,,,Polton Road,,,,Lasswade Road,,Polton Road,,,,at,,N,ES003048,Poltonhall,,,,,,,0,UKOS,330440,666079,-3.1135227,55.8828066,BCT,MKD,PPT,,,,130,2008-01-27T00:00:00.000,2011-11-04T11:33:22.000,2,revise,inactive
6280325955,64323275,,,Dobbies Road,,,,-,,Polton Street,,,,at,,NE,ES000413,Bonnyrigg,,,,,,,0,UKOS,330795,665075,-3.1075922,55.8738387,BCT,MKD,PPT,,,,130,2008-01-27T00:00:00.000,2009-08-21T00:00:00.000,2,revise,active
6280325960,64328237,,,Polton Road,,,,-,,Polton Road,,,,N-bound,,S,ES003048,Poltonhall,,,,,,,0,UKOS,330310,665763,-3.1155189,55.8799492,BCT,MKD,PPT,,,,130,2008-01-27T00:00:00.000,2011-11-04T11:34:01.000,3,revise,inactive
6280325970,64328238,,,Polton Terrace,,,,-,,Polton Road,,,,opp,,N,ES003048,Poltonhall,,,,,,,0,UKOS,330117,665391,-3.1185071,55.8765794,BCT,MKD,PPT,,,,130,2008-01-27T00:00:00.000,2011-11-04T11:34:32.000,3,revise,inactive
6280325980,64328239,,,Polton Drive,,,,-,,Polton Drive,,,,N-bound,,NE,ES003048,Poltonhall,,,,,,,0,UKOS,329955,665128,-3.1210277,55.8741933,BCT,MKD,PPT,,,,130,2008-01-27T00:00:00.000,2011-11-04T11:35:10.000,3,revise,inactive
6280325990,64328242,,,Polton Farm,,,,-,,Polton Road,,,,at,,NE,ES003048,Poltonhall,,,,,,,0,UKOS,329851,664974,-3.1226495,55.8727948,BCT,MKD,PPT,,,,130,2008-01-27T00:00:00.000,2011-11-04T11:35:42.000,3,revise,inactive
6280326000,64324393,,,Farm Avenue,,,,Polton Bank,,Polton Road West,,,,at,,NE,ES003048,Poltonhall,,,,,,,0,UKOS,329714,664854,-3.1248073,55.8716968,BCT,MKD,OTH,,,,130,2008-01-27T00:00:00.000,2018-03-22T10:46:14.000,1,revise,active
6280326010,64323278,,,High Street,,,,at 32,,High Street,,,,at,,N,ES000413,Bonnyrigg,,,,,,,1,UKOS,330855,665259,-3.106681,55.8755,BCT,MKD,PPT,,,,130,2008-01-27T00:00:00.000,2018-03-22T10:46:13.000,1,revise,active
6280326020,64323293,,,Park Road,,,,opp Scotmid,,High Street,,,,at,,NW,ES000413,Bonnyrigg,,,,,,,0,UKOS,330808,665430,-3.1074752,55.8770296,BCT,MKD,OTH,,,,130,2008-01-27T00:00:00.000,2018-03-22T10:46:13.000,1,revise,active
6280326030,64323297,,,Rockville Terrace,,,,-,,High Street,,,,at,,N,ES000413,Bonnyrigg,,,,,,,0,UKOS,330772,665574,-3.1080874,55.8783180,BCT,MKD,OTH,,,,130,2008-01-27T00:00:00.000,2018-03-22T10:46:13.000,1,revise,active
6280326035,64323267,,,Broomieknowe Gardens,,,,-,,Hillhead,,,,opp,,NW,N0071959,Broomieknowe,Bonnyrigg,,,,,,0,UKOS,330659,665774,-3.1099444,55.8800984,BCT,MKD,TIP,,,,130,2008-01-27T00:00:00.000,2009-08-21T00:00:00.000,2,revise,active
6280326050,64323748,,,Elm Row,,,,-,,Elm Row,,,,SW-bound,,SW,N0071588,Lasswade,,,,,,,0,UKOS,330488,666136,-3.1127702,55.8833256,BCT,MKD,OTH,,,,130,2008-01-27T00:00:00.000,2018-03-22T10:46:13.000,1,revise,active
6280326060,64323752,,,Laird and Dog,,,,-,,High Street,,,,at,,NW,N0071588,Lasswade,,,,,,,1,UKOS,330335,666151,-3.1152194,55.8834382,BCT,MKD,PPT,,,,130,2008-01-27T00:00:00.000,2018-03-22T10:46:13.000,1,revise,active
6280326070,64324575,,,Lasswade Road,,,,at Wadingburn junction,,Lasswade Road,,,,W-bound,,W,ES002299,Wadingburn,,,,,,,0,UKOS,329792,666127,-3.1238915,55.8831437,BCT,MKD,OTH,,,,130,2008-01-27T00:00:00.000,2013-01-24T08:52:39.000,2,revise,active
6280326075,64329325,,,Haveral Wood,,,,-,,Lasswade Road,,,,at,,N,N0071588,Lasswade,,,,,,,0,UKOS,329531,666512,-3.1281632,55.8865640,BCT,MKD,TIP,,,,130,2011-05-04T15:26:32.000,2015-02-05T13:12:42.000,1,revise,active
6280326080,64324658,,,Glebe Place,,,,-,,Wadingburn Road,,,,at,,N,ES002299,Wadingburn,,,,,,,0,UKOS,329734,666060,-3.1248011,55.8825334,BCT,MKD,OTH,,,,130,2008-01-27T00:00:00.000,2018-03-22T10:46:14.000,1,revise,inactive
6280326090,64324579,,,Kevock Road,,,,opp 20,,Wadingburn Road,,,,at,,W,ES002299,Wadingburn,,,,,,,0,UKOS,329495,665902,-3.128579,55.881079,BCT,MKD,PPT,,,,130,2008-01-27T00:00:00.000,2018-03-22T10:46:14.000,1,revise,active
6280326100,64323793,,,Hunter Avenue,,,,-,,Linden Place,,,,opp,,W,N0071589,Loanhead,,,,,,,0,UKOS,328633,665546,-3.1422614,55.8777540,BCT,MKD,OTH,,,,130,2008-01-27T00:00:00.000,2018-03-22T10:46:13.000,1,revise,active
6280326110,64323763,,,Academy Lane,,,,-,,High Street,,,,opp,,W,N0071589,Loanhead,,,,,,,1,UKOS,328406,665526,-3.1458835,55.8775406,BCT,MKD,PPT,,,,130,2008-01-27T00:00:00.000,2018-03-22T10:46:13.000,1,revise,active
6280326120,64323784,,,George Drive,,,,opp Church,,Clerk Street,,,,at,,NW,N0071589,Loanhead,,,,,,,0,UKOS,328128,665709,-3.150374,55.879143,BCT,MKD,OTH,,,,130,2008-01-27T00:00:00.000,2018-03-22T10:46:13.000,1,revise,active
6280326130,64323768,,,Edgefield Road,,,,Mayburn House,,Hawthorn Gardens,,,,opp,,NW,N0071589,Loanhead,,,,,,,0,UKOS,327930,665970,-3.1536082,55.8814580,BCT,MKD,OTH,,,,130,2008-01-27T00:00:00.000,2018-03-22T10:46:13.000,1,revise,active
6280326140,64323786,,,Hawthorn Gardens,,,,footpath to Mayburn Avenue,,Hawthorn Gardens,,,,NW-bound,,NW,N0071589,Loanhead,,,,,,,0,UKOS,327812,666091,-3.1555263,55.8825273,BCT,MKD,OTH,,,,130,2008-01-27T00:00:00.000,2018-03-22T10:46:13.000,1,revise,active
6280326145,64323795,,,Mayshade Road,,,,-,,Mayburn Terrace,,,,opp,,NW,N0071589,Loanhead,,,,,,,0,UKOS,327708,666188,-3.1572143,55.8833830,BCT,MKD,OTH,,,,130,2008-01-27T00:00:00.000,2018-03-22T10:46:13.000,1,revise,active
6280326150,64323836,,,Retail Park,,Retail Pk,,Retail Park,,Loanhead Road,,,,at,,NW,N0067344,Straiton,,,,,,,0,UKOS,327527,666464,-3.1601810,55.8858351,BCT,MKD,OTH,,,,130,2008-01-27T00:00:00.000,2015-02-05T15:03:48.000,3,revise,active
6280326155,64329354,,,Straiton Mains,,,,Halfords,,Straiton Mains,,,,W-bound,,SW,N0067344,Straiton,,,,,,,1,UKOS,327396,666428,-3.1622651,55.8854920,BCT,MKD,TIP,,,,130,2012-06-08T12:29:02.000,2012-06-13T10:15:37.000,2,revise,active
6280326157,64329356,,,Straiton Parkway,,,,-,,Straiton Parkway,,,,N-bound,,N,N0067344,Straiton,,,,,,,1,UKOS,327272,666471,-3.1642586,55.8858595,BCT,MKD,TIP,,,,130,2012-06-08T12:37:12.000,2012-06-13T10:12:52.000,1,revise,active
6280326160,64323268,,,Brixwold Bank,,,,-,,Cockpen Road,,,,opp,,N,ES000766,Cockpen,Bonnyrigg,,,,,,0,UKOS,331752,664513,-3.0921590,55.8689268,BCT,MKD,OTH,,,,130,2008-01-27T00:00:00.000,2018-03-22T10:46:13.000,1,revise,active
6280326165,64325835,,,Bairds Way,,Bairds Way,,-,,Cockpen Road,,,,opp,,NW,ES000413,Bonnyrigg,,,,,,,0,UKOS,331568,664683,-3.0951417,55.8704279,BCT,MKD,OTH,,,,130,2008-03-29T00:00:00.000,2009-08-21T00:00:00.000,1,revise,active
6280326166,64324694,,,Rose Park,,Rose Park,,100m west of Harmony Court,,Bairds Way,,,,,,W,ES000413,Bonnyrigg,,,,,,,0,UKOS,331670,664972,-3.093585,55.873039,BCT,MKD,OTH,,,,130,2008-01-27T00:00:00.000,2011-11-04T11:36:17.000,4,revise,inactive
6280326167,64324696,,,Harmony Crescent,,Harmony Crescent,,100m west of & opp Harmony Crescent,,Bairds Way,,,,,,W,ES000413,Bonnyrigg,,,,,,,0,UKOS,331688,665148,-3.0933418,55.8746221,BCT,MKD,OTH,,,,130,2008-01-27T00:00:00.000,2011-11-04T11:36:51.000,4,revise,inactive
6280326168,64324698,,,Wesley Crescent,,Wesley Crescent,,130m south of Wesley Crescent,,Bairds Way,,,,,,N,ES000413,Bonnyrigg,,,,,,,0,UKOS,331882,665015,-3.0902084,55.8734548,BCT,MKD,OTH,,,,130,2008-01-27T00:00:00.000,2011-11-04T11:37:23.000,4,revise,inactive
6280326169,64324724,,,Bairds Way South,,,,opp Dalhousie Dairy,,B6392,,,,opp,,SW,ES000766,Cockpen,Bonnyrigg,,,,,,0,UKOS,332197,665002,-3.085172,55.873382,BCT,MKD,PTP,,,,130,2008-01-27T00:00:00.000,2009-08-21T00:00:00.000,4,revise,active
6280326170,64323429,,,Wolsey Avenue,,,,Primary School,,Cockpen Road,,,,opp,,NW,ES000413,Bonnyrigg,,,,,,,0,UKOS,331380,664828,-3.0981821,55.8717037,BCT,MKD,OTH,,,,130,2008-01-27T00:00:00.000,2009-08-21T00:00:00.000,2,revise,active
6280326175,64323428,,,Waverley Terrace,,,,-,,Dundas Street,,,,opp,,NW,ES000413,Bonnyrigg,,,,,,,0,UKOS,331202,664952,-3.1010577,55.8727922,BCT,MKD,OTH,,,,130,2008-01-27T00:00:00.000,2018-03-22T10:46:13.000,1,revise,active
6280326177,64329285,,,Dundas Park,,,,at Church Hall,,Dundas Street,,,,opp,,NW,ES000413,Bonnyrigg,,,,,,,0,UKOS,330979,665100,-3.1046585,55.8740897,BCT,MKD,TIP,,,,130,2010-01-26T00:00:00.000,2010-01-26T00:00:00.000,0,new,active
6280326190,64323276,,,Douglas Crescent,,,,Bonnyrigg Toll,,Lothian Street,,,,at,,NE,ES000413,Bonnyrigg,,,,,,,0,UKOS,330944,665220,-3.1052484,55.8751627,BCT,MKD,PPT,,,,130,2008-01-27T00:00:00.000,2018-03-22T10:46:13.000,1,revise,active
6280326200,64323284,,,Maryfield Place,,,,at 50,,Lothian Street,,,,opp,,NE,ES000413,Bonnyrigg,,,,,,,0,UKOS,331090,665369,-3.1029534,55.8765221,BCT,MKD,OTH,,,,130,2008-01-27T00:00:00.000,2009-08-21T00:00:00.000,2,revise,active
6280326210,64323426,,,Waverley Crescent,,,,Reyesville PH,,Lothian Street,,,,opp,,NE,ES000413,Bonnyrigg,,,,,,,1,UKOS,331206,665504,-3.101134,55.877752,BCT,MKD,OTH,,,,130,2008-01-27T00:00:00.000,2009-08-21T00:00:00.000,2,revise,active
6280326220,64323295,,,Pendreich Avenue,,,,-,,Eskbank Road,,,,at,,NE,ES000413,Bonnyrigg,,,,,,,1,UKOS,331476,665698,-3.0968686,55.8795327,BCT,MKD,OTH,,,,130,2008-01-27T00:00:00.000,2009-11-27T00:00:00.000,2,revise,active
6280326230,64323424,,,Viewbank Avenue,,,,-,,Eskbank Road,,,,at,,NE,ES000413,Bonnyrigg,,,,,,,0,UKOS,331674,665803,-3.0937310,55.8805041,BCT,MKD,OTH,,,,130,2008-01-27T00:00:00.000,2018-03-22T10:46:13.000,1,revise,active
6280326235,64323286,,,Mayshade Garden Centre,,,,-,,Eskbank Road,,,,at,,NE,ES000413,Bonnyrigg,,,,,,,0,UKOS,331839,665934,-3.0911271,55.8817043,BCT,MKD,OTH,,,,130,2008-01-27T00:00:00.000,2010-10-07T00:00:00.000,2,revise,active
6280326240,64323648,,,Muirpark,,,,Tesco,,Bonnyrigg Road,,,,opp,,NE,N0067286,Eskbank,,,,,,,0,UKOS,332026,666121,-3.0881855,55.8834106,BCT,MKD,OTH,,,,130,2008-01-27T00:00:00.000,2018-03-22T10:46:13.000,1,revise,active
6280326245,64323653,,,Westfield Park,,,,Shorts Garage,,Bonnyrigg Road,,,,opp,,NE,N0067286,Eskbank,,,,,,,0,UKOS,332203,666333,-3.0854098,55.8853401,BCT,MKD,OTH,,,,130,2008-01-27T00:00:00.000,2018-03-22T10:46:13.000,1,revise,active
6280326250,64323643,,,Bonnyrigg Road,,,,Railway Bridge,,Bonnyrigg Road,,,,at 20,,NE,N0067286,Eskbank,,,,,,,0,UKOS,332326,666478,-3.0834801,55.8866600,BCT,MKD,PPT,,,,130,2008-01-27T00:00:00.000,2018-03-22T10:46:13.000,1,revise,active
6280326260,64324253,,,Tynehead Road,,,,-,,A7,,,,opp,,NW,N0067207,North Middleton,,,,,,,0,UKOS,338873,657338,-2.9767692,55.8054266,BCT,MKD,PPT,,,,130,2008-01-27T00:00:00.000,2018-03-22T10:46:14.000,1,revise,active
6280326261,64324252,,,Middleton Mains,,,,-,,A7,,,,opp,,NW,N0067207,North Middleton,,,,,,,0,UKOS,338390,657922,-2.9846060,55.8106116,BCT,MKD,OTH,,,,130,2008-01-27T00:00:00.000,2018-03-22T10:46:14.000,1,revise,active
6280326263,64324248,,,Middleton,,,,Snow gates,,A7,,,,W-bound,,W,N0067207,North Middleton,,,,,,,0,UKOS,336892,658490,-3.0086357,55.8155206,BCT,MKD,OTH,,,,130,2008-01-27T00:00:00.000,2009-08-21T00:00:00.000,2,revise,active
6280326265,64324246,,,Borthwick Castle Road,,,,-,,A7,,,,opp,,NW,N0067207,North Middleton,,,,,,,1,UKOS,335747,658798,-3.0269770,55.8181363,BCT,MKD,PPT,,,,130,2008-01-27T00:00:00.000,2018-03-22T10:46:14.000,1,revise,active
6280326267,64329293,,,Harvieston Cemetery,,,,Cemetery,,A7,,,,at,,NW,N0071916,Birkenside,Gorebridge,,,,,,0,UKOS,334631,660325,-3.0451516,55.8317040,BCT,MKD,TIP,,,,130,2010-08-25T00:00:00.000,2010-08-25T00:00:00.000,1,new,active
6280326270,64323253,,,Harvieston Toll,,,,-,,A7,,,,N-bound,,N,N0071916,Birkenside,Gorebridge,,,,,,1,UKOS,334446,660623,-3.048176,55.834356,BCT,MKD,PPT,,,,130,2008-01-27T00:00:00.000,2018-03-22T10:46:13.000,1,revise,active
6280326280,64323259,,,Terminus,,,,,,Powdermill Brae,,,,at,,W,N0071916,Birkenside,Gorebridge,,,,,,1,UKOS,334536,660698,-3.046758,55.835042,BCT,MKD,PTP,,,,130,2008-01-27T00:00:00.000,2017-10-18T17:15:50.000,6,revise,active
6280326290,64323257,,,Powdermill Brae,,,,-,,Powdermill Brae,,,,at 89,,N,N0071916,Birkenside,Gorebridge,,,,,,1,UKOS,334650,660927,-3.0449934,55.8371146,BCT,MKD,OTH,,,,130,2008-01-27T00:00:00.000,2018-03-22T10:46:13.000,1,revise,active
6280326300,64323258,,,Powdermill Brae,,,,-,,Powdermill Brae,,,,at 8,,N,N0071916,Birkenside,Gorebridge,,,,,,0,UKOS,334564,661083,-3.0464040,55.8385043,BCT,MKD,OTH,,,,130,2008-01-27T00:00:00.000,2010-01-15T00:00:00.000,2,revise,active
6280326310,64323684,,,Gorebridge Inn,,,,-,,Main Street,,,,at,,N,ES001632,Gorebridge,,,,,,,1,UKOS,334502,661484,-3.0474906,55.8420983,BCT,MKD,PPT,,,,130,2008-01-27T00:00:00.000,2018-03-22T10:46:13.000,1,revise,active
6280326315,64325846,,,Police Station,,Police Station,,Rivendell Cottage,,Hunterfield Road,,,,at,,NW,ES001632,Gorebridge,,,,,,,0,UKOS,334459,661590,-3.0482028,55.8430446,BCT,MKD,TIP,,,,130,2008-03-29T00:00:00.000,2010-10-07T00:00:00.000,1,revise,active
6280326330,64323679,,,Arniston Engine,,,,Hunterfield Tavern,,Hunterfield Road,,,,at,,NW,N0067191,Arniston,Gorebridge,,,,,,1,UKOS,334103,662116,-3.0540146,55.8477213,BCT,MKD,PPT,,,,130,2008-01-27T00:00:00.000,2018-03-22T10:46:13.000,1,revise,active
6280326340,64323692,,,Leisure Centre,,,,opp Coronation Inn,,Hunterfield Road,,,,opp,,NW,ES001632,Gorebridge,,,,,,,0,UKOS,334332,661778,-3.0502760,55.8447162,BCT,MKD,OTH,,,,130,2008-01-27T00:00:00.000,2018-03-22T10:46:13.000,1,revise,active
6280326350,64323676,,,Dundas Gardens,,,,-,,New Hunterfield,,,,at,,NW,N0071926,Hunterfield,Gorebridge,,,,,,0,UKOS,333918,662390,-3.057036,55.850157,BCT,MKD,OTH,,,,130,2008-01-27T00:00:00.000,2018-03-22T10:46:13.000,1,revise,active
6280326360,64323695,,,New Hunterfield,,,,opp Greenhall Road,,Hunterfield Road,,,,at,,NW,N0071926,Hunterfield,Gorebridge,,,,,,0,UKOS,334007,662261,-3.0555828,55.8490108,BCT,MKD,OTH,,,,130,2008-01-27T00:00:00.000,2010-01-15T00:00:00.000,2,revise,active
6280326370,64323696,,,New Hunterfield,,,,-,,Hunterfield Road,,,,opp 63,,NW,N0071926,Hunterfield,Gorebridge,,,,,,0,UKOS,333780,662591,-3.0592883,55.8519441,BCT,MKD,OTH,,,,130,2008-01-27T00:00:00.000,2018-03-22T10:46:13.000,1,revise,active
6280326380,64323724,,,Newtonloan Lodge,,,,-,,New Hunterfield,,,,opp,,NW,N0071926,Hunterfield,Gorebridge,,,,,,0,UKOS,333651,662790,-3.0613972,55.8537141,BCT,MKD,OTH,,,,130,2008-01-27T00:00:00.000,2018-03-22T10:46:13.000,1,revise,active
6280326385,64329278,,,Station Road,,,,-,,New Hunterfield,,,,at,,NW,N0076343,Newtonloan Toll,,,,,,,0,UKOS,333469,663056,-3.0643691,55.8560785,BCT,MKD,PPT,,,,130,2009-05-15T00:00:00.000,2009-05-15T00:00:00.000,1,revise,active
6280326390,64324237,,,Cockpen Road,,,,at garage,,A7,,,,at,,N,N0076343,Newtonloan Toll,,,,,,,0,UKOS,333399,663154,-3.0655112,55.8569492,BCT,MKD,PPT,,,,130,2008-01-27T00:00:00.000,2009-11-27T00:00:00.000,3,revise,active
6280326400,64323687,,,Hogarth Avenue,,,,-,,Greenhall Road,,,,at,,N,N0072090,Greenhall,Gorebridge,,,,,,0,UKOS,334075,662543,-3.0545656,55.8515534,BCT,MKD,OTH,,,,130,2008-01-27T00:00:00.000,2012-12-10T15:56:12.000,5,revise,active
6280326405,64325847,,,Barleyknowe Crescent,,Barleyknowe Crescent,,-,,Greenhall Road,,,,opp,,N,N0072090,Greenhall,Gorebridge,,,,,,0,UKOS,334050,662429,-3.0549371,55.8505259,BCT,MKD,PTP,,,,130,2008-03-29T00:00:00.000,2010-07-08T00:00:00.000,1,revise,active
6280326410,64323736,,,St Andrews Primary School,,St Andrews Pri Sch,,St Andrews Primary School,,Stobhill Road,,,,opp,,N,N0071927,Gowkshill,,,,,,,0,UKOS,334129,662750,-3.0537536,55.8534204,BCT,MKD,OTH,,,,130,2008-01-27T00:00:00.000,2015-02-05T14:42:22.000,4,revise,active
6280326415,64323732,,,Gowkshill Farm,,,,-,,Stobhill Road,,,,at,,N,N0071927,Gowkshill,,,,,,,0,UKOS,334009,663026,-3.0557372,55.8558833,BCT,MKD,OTH,,,,130,2008-01-27T00:00:00.000,2010-07-08T00:00:00.000,2,revise,active
6280326420,64323735,,,The Crescent,,,,at 21,,Stobhill Road,,,,opp,,N,N0071927,Gowkshill,,,,,,,1,UKOS,333954,663266,-3.0566742,55.8580318,BCT,MKD,PPT,,,,130,2008-01-27T00:00:00.000,2018-03-22T10:46:13.000,1,revise,active
6280326430,64323983,,,McGahey Court,,,,at Council Depot,,Stobhill Road,,,,opp,,NW,ES002829,Newtongrange,,,,,,,0,UKOS,333509,663530,-3.0638466,55.8603422,BCT,MKD,OTH,,,,130,2008-01-27T00:00:00.000,2018-03-22T10:46:14.000,1,revise,active
6280326440,64323985,,,Mining Museum,,,,bridge over A7,,A7,,,,at,,N,ES002829,Newtongrange,,,,,,,0,UKOS,333410,663675,-3.0654636,55.8616311,BCT,MKD,OTH,,,,130,2008-01-27T00:00:00.000,2010-07-08T00:00:00.000,6,revise,active
6280326450,64323975,,,Fourth Street,,,,at PO,,Main Street,,,,opp,,N,ES002829,Newtongrange,,,,,,,1,UKOS,333355,664074,-3.0664404,55.8652078,BCT,MKD,PPT,,,,130,2008-01-27T00:00:00.000,2018-03-22T10:46:14.000,1,revise,active
6280326460,64323973,,,Dean Park Place,,,,opp Parish Church,,Main Street,,,,at,,N,ES002829,Newtongrange,,,,,,,0,UKOS,333317,664243,-3.0670891,55.8667207,BCT,MKD,OTH,,,,130,2008-01-27T00:00:00.000,2018-03-22T10:46:14.000,1,revise,active
6280326470,64324236,,,Station Road,,,,Bookmakers,,Main Street,,,,at,,N,ES002829,Newtongrange,,,,,,,0,UKOS,333220,664502,-3.0687026,55.8690339,BCT,MKD,OTH,,,,130,2008-01-27T00:00:00.000,2018-03-22T10:46:14.000,1,revise,active
6280326475,64324676,,,Dalhousie Road,,,,At Air Training Corps Hut,,Dalhousie Road,,,,at,,W,ES002829,Newtongrange,,,,,,,1,UKOS,333164,664589,-3.0696188,55.8698077,BCT,MKD,TIP,,,,130,2008-01-27T00:00:00.000,2013-01-31T13:47:12.000,5,revise,active
6280326476,64325745,,,Dalhousie Road,,,,Viaduct bridge,,Dalhousie Road,,,,at,,NW,ES000415,Lothianbridge,,,,,,,0,UKOS,332941,664716,-3.0732132,55.8709176,BCT,MKD,TIP,,,,130,2008-01-27T00:00:00.000,2009-12-24T00:00:00.000,2,revise,active
6280326490,64323272,,,Brixwold Drive,,,,-,,B6392,,,,opp,,SW,ES000766,Cockpen,Bonnyrigg,,,,,,0,UKOS,332039,664695,-3.08762,55.870602,BCT,MKD,OTH,,,,130,2008-01-27T00:00:00.000,2018-03-22T10:46:13.000,1,revise,active
6280326495,64324725,,,Jenks Loan,,Jenks Loan,,-,,Orchard Grange Road,,,,at,,S,ES002829,Newtongrange,,,,,,,0,UKOS,332974,664048,-3.072521,55.864921,BCT,MKD,TIP,,,,130,2008-01-27T00:00:00.000,2009-08-21T00:00:00.000,4,revise,inactive
6280326496,64324727,,,Jeanette Stewart Drive,,Jeanette Stewart Drive,,-,,Orchard Grange Road,,,,near,,E,ES002829,Newtongrange,,,,,,,0,UKOS,332943,663784,-3.0729503,55.8625454,BCT,MKD,PTP,,,,130,2008-01-27T00:00:00.000,2011-01-07T10:11:23.000,3,revise,inactive
6280326497,64324726,,,Jenks Loan,,Jenks Loan,,-,,Orchard Grange Road,,,,opp,,N,ES002829,Newtongrange,,,,,,,0,UKOS,332962,664059,-3.0727149,55.8650185,BCT,MKD,TIP,,,,130,2008-01-27T00:00:00.000,2011-01-07T10:12:36.000,4,revise,inactive
6280326500,64323948,,,Kings Gate,,,,-,,Dalhousie Road,,,,opp,,NW,ES002793,Newbattle,,,,,,,0,UKOS,332433,665215,-3.0814543,55.8753292,BCT,MKD,PPT,,,,130,2008-01-27T00:00:00.000,2013-01-24T08:53:51.000,2,revise,active
6280326513,64328256,,,Jewel and Esk College,,JEC,,adjacent to main building,,unamed,,,,at,,,N0067286,Eskbank,,,,,,,0,UKOS,332552,665985,-3.0797448,55.8822630,BCS,,PTP,,,,130,2008-08-22T00:00:00.000,2010-04-23T00:00:00.000,1,revise,inactive
6280326525,64323645,,,Eskbank Toll,,,,Justinlee PH,,Newbattle Road,,,,near,,NW,N0067286,Eskbank,,,,,,,1,UKOS,332560,666643,-3.0797811,55.8881751,BCT,MKD,PPT,,,,130,2008-01-27T00:00:00.000,2010-01-15T00:00:00.000,2,revise,active
6280326530,64323946,,,Ancrum Bank,,,,Police HQ,,Newbattle Road,,,,at,,NW,N0067286,Eskbank,,,,,,,0,UKOS,332807,666488,-3.0757944,55.8868172,BCT,MKD,OTH,,,,130,2008-01-27T00:00:00.000,2018-03-22T10:46:13.000,1,revise,active
6280326535,64324674,,,Newbattle Cemetery,,,,-,,Newbattle Road,,,,at,,NW,ES002793,Newbattle,,,,,,,0,UKOS,332941,666403,-3.0736314,55.8860724,BCT,MKD,OTH,,,,130,2008-01-27T00:00:00.000,2009-08-21T00:00:00.000,2,revise,active
6280326540,64323952,,,Newbattle Abbey Crescent,,,,opp Newbattle Abbey College,,Newbattle Road,,,,at,,NW,ES002793,Newbattle,,,,,,,0,UKOS,333080,665845,-3.0712716,55.8810790,BCT,MKD,PPT,,,,130,2008-01-27T00:00:00.000,2018-03-22T10:46:14.000,1,revise,active
6280326545,64323953,,,The Beeches,,,,opp gas plant,,The Beeches,,,,NW-bound,,NW,ES002829,Newtongrange,,,,,,,0,UKOS,333334,665232,-3.0670612,55.8756075,BCT,MKD,OTH,,,,130,2008-01-27T00:00:00.000,2018-03-22T10:46:14.000,1,revise,active
6280326555,64323482,,,Croft Street,,,,First Depot,,Eskbank Road,,,,opp,,NE,ES000968,Dalkeith,,,,,,,1,UKOS,332992,667146,-3.073001,55.892754,BCT,MKD,PPT,,,,130,2008-01-27T00:00:00.000,2018-03-22T10:46:13.000,1,revise,active
6280326558,64325838,,,South Melville,,South Melville,,Eskfield Grove,,Lasswade Road,,,,opp,,E,N0067286,Eskbank,,,,,,,0,UKOS,331981,666745,-3.0890617,55.8890098,BCT,MKD,OTH,,,,130,2008-03-29T00:00:00.000,2018-03-22T10:46:13.000,0,new,active
6280326559,64325839,,,Station Road,,Station Road,,-,,Lasswade Road,,,,opp,,E,N0067286,Eskbank,,,,,,,0,UKOS,332370,666714,-3.0828359,55.8887862,BCT,MKD,OTH,,,,130,2008-03-29T00:00:00.000,2018-03-22T10:46:13.000,0,new,active
6280326560,64323492,,,Glenesk Crescent,,,,Eskbank Toll Roundabout,,Eskbank Road,,,,at,,NE,ES000968,Dalkeith,,,,,,,0,UKOS,332606,666807,-3.0790867,55.8896548,BCT,MKD,PPT,,,,130,2008-01-27T00:00:00.000,2018-03-22T10:46:13.000,1,revise,active
6280326570,64324232,,,Park Road,,,,-,,Bryans Road,,,,opp,,NE,ES002829,Newtongrange,,,,,,,0,UKOS,333550,664639,-3.0634640,55.8703103,BCT,MKD,OTH,,,,130,2008-01-27T00:00:00.000,2018-03-22T10:46:14.000,1,revise,active
6280326580,64323968,,,Bryans Avenue,,,,-,,Bryans Road,,,,at,,NE,ES002829,Newtongrange,,,,,,,0,UKOS,333764,664745,-3.0600708,55.8712921,BCT,MKD,OTH,,,,130,2008-01-27T00:00:00.000,2018-03-22T10:46:14.000,1,revise,active
6280326590,64323965,,,Hamilton Crescent,,,,-,,Bryans Road,,,,opp,,SE,N0067245,Bryans,,,,,,,0,UKOS,333994,664807,-3.0564111,55.8718806,BCT,MKD,OTH,,,,130,2008-01-27T00:00:00.000,2009-06-18T00:00:00.000,2,revise,active
6280326595,64323979,,,Mansfield Road,,,,at Mansfield Avenue,,Mansfield Road,,,,at 3,,NW,ES002829,Newtongrange,,,,,,,0,UKOS,333825,664893,-3.0591324,55.8726300,BCT,MKD,OTH,,,,130,2008-01-27T00:00:00.000,2009-12-24T00:00:00.000,2,revise,active
6280326600,64323986,,,Morris Road,,,,Morris Club,,Morris Road,,,,N-bound,,NE,N0067245,Bryans,,,,,,,0,UKOS,334125,664928,-3.0543474,55.8729856,BCT,MKD,OTH,,,,130,2008-01-27T00:00:00.000,2010-07-08T00:00:00.000,2,revise,active
6280326620,64323634,,,Parkhead Place,,,,opp park entrance,,Easthouses Road,,,,at,,NE,ES001244,Easthouses,,,,,,,0,UKOS,334289,665582,-3.0518859,55.8788831,BCT,MKD,OTH,,,,130,2008-01-27T00:00:00.000,2018-03-22T10:46:13.000,1,revise,active
6280326625,64325746,,,Mayfield Road,,,,At Miners Club,,Easthouses Road,,,,opp,,NE,ES001244,Easthouses,,,,,,,0,UKOS,334458,665706,-3.0492151,55.8800201,BCT,MKD,TIP,,,,130,2008-01-27T00:00:00.000,2015-02-05T12:03:45.000,1,revise,active
6280326630,64323895,,,Suttieslea Place,,,,-,,Suttieslea Road,,,,at,,SE,N0067245,Bryans,,,,,,,0,UKOS,334203,664597,-3.0530206,55.8700227,BCT,MKD,OTH,,,,130,2008-01-27T00:00:00.000,2010-07-08T00:00:00.000,3,revise,active
6280326640,64323852,,,Blackcot Avenue,,,,Newbattle Medical Centre,,Suttieslea Road,,,,opp,,NE,ES002569,Mayfield,,,,,,,0,UKOS,334451,664447,-3.0490220,55.8687091,BCT,MKD,PPT,,,,130,2008-01-27T00:00:00.000,2013-01-24T08:54:21.000,3,revise,active
6280326650,64323848,,,Blackcot Road,,,,at Garage,,Suttieslea Road,,,,opp,,N,ES002569,Mayfield,,,,,,,0,UKOS,334535,664651,-3.0477293,55.8705531,BCT,MKD,OTH,,,,130,2008-01-27T00:00:00.000,2013-01-24T08:54:51.000,3,revise,active
6280326660,64323875,,,Stone Place,,,,Mayfield Labour Club,,Eskview Road,,,,opp,,E,ES002569,Mayfield,,,,,,,0,UKOS,334864,664797,-3.0425079,55.8719093,BCT,MKD,OTH,,,,130,2008-01-27T00:00:00.000,2018-03-22T10:46:14.000,1,revise,active
6280326670,64323857,,,Finlay Place,,,,-,,Oak Place,,,,at,,W,ES002569,Mayfield,,,,,,,0,UKOS,335601,664954,-3.0307694,55.8734189,BCT,MKD,OTH,,,,130,2008-01-27T00:00:00.000,2018-03-22T10:46:14.000,1,revise,active
6280326675,64323879,,,Oak Crescent,,,,-,,D'Arcy Road,,,,at,,SW,ES002569,Mayfield,,,,,,,0,UKOS,335320,664884,-3.0352427,55.8727524,BCT,MKD,OTH,,,,130,2008-01-27T00:00:00.000,2018-03-22T10:46:14.000,1,revise,active
6280326680,64323868,,,Hughes Crescent,,,,-,,Oak Place,,,,near,,N,ES002569,Mayfield,,,,,,,0,UKOS,335677,664658,-3.0294847,55.8707700,BCT,MKD,OTH,,,,130,2008-01-27T00:00:00.000,2018-03-22T10:46:14.000,1,revise,active
6280326700,64323865,,,Hill Place,,,,-,,Bogwood Road,,,,at 2,,NE,ES002569,Mayfield,,,,,,,0,UKOS,335134,664303,-3.0380754,55.8675080,BCT,MKD,OTH,,,,130,2008-01-27T00:00:00.000,2018-03-22T10:46:14.000,1,revise,active
6280326710,64323897,,,Sycamore Road,,,,-,,Bogwood Road,,,,at,,NW,ES002569,Mayfield,,,,,,,0,UKOS,335101,664654,-3.0386868,55.8706567,BCT,MKD,OTH,,,,130,2008-01-27T00:00:00.000,2018-03-22T10:46:14.000,1,revise,active
6280326720,64323893,,,Roundabout,,,,-,,Bogwood Road,,,,at,,N,ES002569,Mayfield,,,,,,,1,UKOS,335042,664801,-3.0396647,55.8719693,BCT,MKD,PPT,,,,130,2008-01-27T00:00:00.000,2009-11-27T00:00:00.000,2,revise,active
6280326730,64323854,,,Elm Place,,,,opp David Scott Avenue,,Bogwood Road,,,,at,,N,ES002569,Mayfield,,,,,,,0,UKOS,335010,664986,-3.040221,55.873627,BCT,MKD,OTH,,,,130,2008-01-27T00:00:00.000,2018-03-22T10:46:14.000,1,revise,active
6280326740,64323876,,,Mayfield Place,,,,at Mayfield Inn,,Bogwood Road,,,,near,,NW,ES002569,Mayfield,,,,,,,1,UKOS,334897,665149,-3.0420653,55.8750759,BCT,MKD,OTH,,,,130,2008-01-27T00:00:00.000,2018-03-22T10:46:14.000,1,revise,active
6280326750,64323862,,,Hawthorn Centre,,,,-,,Bogwood Road,,,,at,,NW,ES002569,Mayfield,,,,,,,0,UKOS,334737,665372,-3.0446758,55.8770576,BCT,MKD,OTH,,,,130,2008-01-27T00:00:00.000,2018-03-22T10:46:14.000,1,revise,active
6280326760,64323858,,,Hawthorn Crescent,,,,,,Easthouses Road,,,,opp,,NW,ES002569,Mayfield,,,,,,,0,UKOS,334614,665521,-3.0466773,55.8783794,BCT,MKD,OTH,,,,130,2008-01-27T00:00:00.000,2018-03-22T10:46:14.000,1,revise,active
6280326770,64323629,,,Little Acre,,,,at Easthouses Court,,Easthouses Road,,,,opp,,NW,ES001244,Easthouses,,,,,,,0,UKOS,334508,665778,-3.048433,55.880674,BCT,MKD,PPT,,,,130,2008-01-27T00:00:00.000,2018-03-22T10:46:13.000,1,revise,active
6280326780,64323626,,,Easthouses Way,,,,footpath to Carrick Cres,,Easthouses Road,,,,opp,,N,ES001244,Easthouses,,,,,,,0,UKOS,334442,665987,-3.0495390,55.8825422,BCT,MKD,PPT,,,,130,2008-01-27T00:00:00.000,2018-03-22T10:46:13.000,1,revise,active
6280326790,64323892,,,The Kilns,,,,-,,Unnamed Road,,,,SW-bound,,SW,ES002569,Mayfield,,,,,,,0,UKOS,335406,664472,-3.0337702,55.8690628,BCT,MKD,OTH,,,,130,2008-01-27T00:00:00.000,2013-01-24T08:55:48.000,3,revise,active
6280326800,64323898,,,Westhouses Avenue,,,,park entrance,,Westhouses Road,,,,opp,,SW,ES002569,Mayfield,,,,,,,0,UKOS,335381,664354,-3.0341414,55.8679994,BCT,MKD,OTH,,,,130,2008-01-27T00:00:00.000,2018-03-22T10:46:14.000,1,revise,active
6280326810,64323923,,,Westhouses Drive,,,,John Humble Street,,Westhouses Road,,,,opp,,SW,ES002569,Mayfield,,,,,,,0,UKOS,335184,664136,-3.037237,55.866014,BCT,MKD,OTH,,,,130,2008-01-27T00:00:00.000,2018-03-22T10:46:14.000,1,revise,active
6280326820,64323654,,,Village Access,,-,,Blackshiels Farm,,A68,,,,opp,,NW,ES001345,Fala,,,,,,,0,UKOS,343654,660887,-2.9012428,55.8378924,BCT,MKD,PPT,,,,130,2008-01-27T00:00:00.000,2009-11-27T00:00:00.000,3,revise,active
6280326870,64324256,,,Bowling Green,,,,-,,Main Street,,,,at,,NW,ES002981,Pathhead,,,,,,,0,UKOS,339778,663808,-2.9637704,55.8636646,BCT,MKD,PPT,,,,130,2008-01-27T00:00:00.000,2013-01-24T08:56:28.000,2,revise,active
6280326880,64324264,,,Roman Camp,,,,-,,Main Street,,,,at,,NW,ES002981,Pathhead,,,,,,,0,UKOS,339671,664039,-2.965531,55.865727,BCT,MKD,OTH,,,,130,2008-01-27T00:00:00.000,2018-03-22T10:46:14.000,1,revise,active
6280326890,64324262,,,Oxenfoord Avenue,,,,Royal Bank of Scotland,,Main Street,,,,at,,NW,ES002981,Pathhead,,,,,,,0,UKOS,339561,664201,-2.9673247,55.8671680,BCT,MKD,OTH,,,,130,2008-01-27T00:00:00.000,2018-03-22T10:46:14.000,1,revise,active
6280326900,64324258,,,Crichton Avenue,,,,opp Pathhead Community Hall,,Main Street,,,,at,,NW,ES002981,Pathhead,,,,,,,0,UKOS,339318,664359,-2.9712424,55.8685568,BCT,MKD,OTH,,,,130,2008-01-27T00:00:00.000,2013-01-24T08:57:13.000,3,revise,active
6280326920,64323472,,,Cranston House,,,,-,,Edgehead Road,,,,opp,,NW,N0071915,Edgehead,,,,,,,0,UKOS,338082,664663,-2.9910594,55.8711304,BCT,MKD,OTH,,,,130,2008-01-27T00:00:00.000,2018-03-22T10:46:13.000,1,revise,active
6280326930,64323638,,,Main Street,,,,-,,Edgehead Road,,,,at 52,,NW,N0071915,Edgehead,,,,,,,0,UKOS,337627,664955,-2.9983966,55.8736948,BCT,MKD,OTH,,,,130,2008-01-27T00:00:00.000,2009-02-13T00:00:00.000,2,revise,active
6280326940,64323636,,,Chesterhill,,,,-,,Edgehead Road,,,,opp 21,,NW,N0071915,Edgehead,,,,,,,1,UKOS,337332,665163,-3.0031586,55.8755250,BCT,MKD,PPT,,,,130,2008-01-27T00:00:00.000,2018-03-22T10:46:13.000,1,revise,active
6280326970,64323527,,,Easthouses Road,,,,Kippielaw House,,Easthouses Road,,,,N-bound,,N,ES000969,Kippielaw,,,,,,,0,UKOS,334397,666316,-3.0503380,55.8854916,BCT,MKD,OTH,,,,130,2008-01-27T00:00:00.000,2013-01-24T08:57:51.000,5,revise,active
6280326980,64324584,,,Main Street,,,,-,,Main Street,,,,opp 57,,NW,N0067360,Whitehill,,,,,,,1,UKOS,335509,666468,-3.032601,55.887008,BCT,MKD,OTH,,,,130,2008-01-27T00:00:00.000,2009-08-21T00:00:00.000,3,revise,active
6280326982,64326868,,,Dalkeith Heights,,Dalkeith Heights,,opp footpath to Jean Armour Drive,,Cowden Road,,,,NE-bound,,NE,ES000968,Dalkeith,,,,,,,0,UKOS,334805,666932,-3.0439653,55.8910808,BCT,MKD,OTH,,,,130,2008-03-29T00:00:00.000,2010-03-10T00:00:00.000,1,revise,active
6280326983,64324686,,,Cowden Crescent,,,,-,,Cowden Road,,,,at,,NW,ES000968,Dalkeith,,,,,,,1,UKOS,334563,667398,-3.0479467,55.8952342,BCT,MKD,TIP,,,,130,2008-01-27T00:00:00.000,2009-08-21T00:00:00.000,2,revise,active
6280327050,64323494,,,Hepburn Drive,,,,St David's RC Primary School,,Lauder Road,,,,opp,,NW,ES000968,Dalkeith,,,,,,,0,UKOS,334285,666750,-3.0522337,55.8893751,BCT,MKD,PPT,,,,130,2008-01-27T00:00:00.000,2018-03-22T10:46:13.000,1,revise,active
6280327060,64323543,,,Primrose Terrace,,,,at footpath to School,,Lauder Road,,,,opp,,NW,ES000968,Dalkeith,,,,,,,0,UKOS,334124,666825,-3.0548256,55.8900268,BCT,MKD,PPT,,,,130,2008-01-27T00:00:00.000,2018-03-22T10:46:13.000,1,revise,active
6280327065,64323478,,,Bruce Gardens,,,,-,,Lauder Road,,,,at,,NW,ES000968,Dalkeith,,,,,,,0,UKOS,334005,666888,-3.0567432,55.8905764,BCT,MKD,PPT,,,,130,2008-01-27T00:00:00.000,2018-03-22T10:46:13.000,1,revise,active
6280327070,64323497,,,James Lean Avenue,,,,-,,Newmills Road,,,,opp,,NW,ES000968,Dalkeith,,,,,,,0,UKOS,333755,667002,-3.060767,55.891566,BCT,MKD,OTH,,,,130,2008-01-27T00:00:00.000,2018-03-22T10:46:13.000,1,revise,active
6280327075,64323562,,,South Street,,,,at Eskdaill Court,,South Street,,,,at,,NW,ES000968,Dalkeith,,,,,,,1,UKOS,333203,667223,-3.0696464,55.8934751,BCT,MKD,PPT,,,,130,2008-01-27T00:00:00.000,2015-02-25T11:01:59.000,3,revise,active
6280327120,64323469,,,Hadfast Road,,,,-,,Hadfast Road,,,,opp 37,,W,N0067259,Cousland,,,,,,,1,UKOS,337895,668426,-2.9949120,55.9049111,BCT,MKD,PPT,,,,130,2008-01-27T00:00:00.000,2018-03-22T10:46:13.000,1,revise,active
6280327170,64323565,,,Thornyhall,,,,Thornyhall Roundabout,,Salters Road,,,,opp,,N,ES003887,Thornybank,Dalkeith,,,,,,0,UKOS,334199,667745,-3.0538507,55.8983017,BCT,MKD,PPT,,,,130,2008-01-27T00:00:00.000,2013-01-24T08:58:26.000,2,revise,active
6280327175,64323568,,,Thornyhall,,,,Thornyhall roundabout,,Salters Road,,,,at,,S,ES003887,Thornybank,Dalkeith,,,,,,0,UKOS,334196,667660,-3.0538780,55.8975377,BCT,MKD,PPT,,,,130,2008-01-27T00:00:00.000,2013-01-24T08:59:02.000,2,revise,active
6280327180,64323549,,,Shadepark,,,,-,,Musselburgh Road,,,,at 36,,W,ES000968,Dalkeith,,,,,,,0,UKOS,333618,667658,-3.0631188,55.8974403,BCT,MKD,OTH,,,,130,2008-01-27T00:00:00.000,2018-03-22T10:46:13.000,1,revise,active
6280327185,64323569,,,Weatsheaf Lane,,,,-,,St Andrew Street,,,,at Wheatsheaf Lane,,SW,ES000968,Dalkeith,,,,,,,0,UKOS,333462,667550,-3.065586,55.896448,BCT,MKD,OTH,,,,130,2008-01-27T00:00:00.000,2018-03-22T10:46:13.000,1,revise,inactive
6280327186,64324649,,,Dalkeith Medical Centre,,,,-,,St Andrew Street,,,,at Dalkeith Medical Centre,,SW,ES000968,Dalkeith,,,,,,,0,UKOS,333320,667301,-3.0677952,55.8941920,BCT,MKD,OTH,,,,130,2008-01-27T00:00:00.000,2018-03-22T10:46:13.000,1,revise,inactive
6280327187,64323483,,,Dalkeith Medical Centre,,,,Pedestrian Crossing,,St Andrew Street,,,,at medical centre,,SW,ES000968,Dalkeith,,,,,,,0,UKOS,333311,667293,-3.0679371,55.8941189,BCT,MKD,OTH,,,,130,2008-01-27T00:00:00.000,2018-03-22T10:46:13.000,1,revise,inactive
6280327190,64323524,,,Jarnac Court,,,,opp North Wynd,,High Street,,,,at,,SW,ES000968,Dalkeith,,,,,,,1,UKOS,333130,667284,-3.0708285,55.8940129,BCT,MKD,PPT,,,,130,2008-01-27T00:00:00.000,2018-03-22T10:46:13.000,1,revise,active
6280327195,64323537,,,Old Edinburgh Road,,,,opp Car Park,,Old Edinburgh Road,,,,at,,SE,ES000968,Dalkeith,,,,,,,0,UKOS,333026,667223,-3.072476,55.893451,BCT,MKD,PPT,,,,130,2008-01-27T00:00:00.000,2018-03-22T10:46:13.000,1,revise,active
6280327200,64323475,,,Bridgend Court,,,,Bridgend Court,,Edinburgh Road,,,,at,,NW,ES000968,Dalkeith,,,,,,,0,UKOS,333060,667449,-3.0719885,55.8954854,BCT,MKD,OTH,,,,130,2008-01-27T00:00:00.000,2018-03-22T10:46:13.000,1,revise,active
6280327204,64323534,,,Melville Gate,,,,at Campus,,Melville Gate Road,,,,SW-bound,,SW,ES000968,Dalkeith,,,,,,,0,UKOS,332027,667516,-3.0885203,55.8959424,BCT,MKD,OTH,,,,130,2008-01-27T00:00:00.000,2009-09-08T00:00:00.000,3,revise,active
6280327205,64323496,,,Corn Exchange,,,,opp Hunt Close,,High Street,,,,at,,SW,ES000968,Dalkeith,,,,,,,0,UKOS,333356,667535,-3.0672774,55.8962991,BCT,MKD,OTH,,,,130,2008-01-27T00:00:00.000,2018-03-22T10:46:13.000,1,revise,active
6280327210,64329268,,,Eskbank Court,,-,,Eskbank Toll,,Melville Road,,,,at,,NW,N0067286,Eskbank,,,,,,,0,UKOS,332446,666734,-3.081626,55.888976,BCT,MKD,OTH,,,,130,2009-04-07T00:00:00.000,2009-04-07T00:00:00.000,0,new,active
6280327211,64323423,,,Melville Castle,,,,-,,Gilmerton Road,,,,at,,W,ES000968,Dalkeith,,,,,,,1,UKOS,331681,667427,-3.0940295,55.8950938,BCT,MKD,OTH,,,,130,2008-01-27T00:00:00.000,2013-01-24T08:59:38.000,2,revise,active
6280327212,64323484,,,Dobbies Garden World,,,,-,,Gilmerton Road,,,,at,,NW,ES000970,Melville Nursery,,,,,,,1,UKOS,331332,667593,-3.0996513,55.8965353,BCT,MKD,PPT,,,,130,2008-01-27T00:00:00.000,2013-01-31T13:50:06.000,3,revise,active
6280327220,64323528,,,Lugton Brae,,,,-,,Old Dalkeith Road,,,,opp,,NW,ES000968,Dalkeith,,,,,,,0,UKOS,332483,667610,-3.0812535,55.8968510,BCT,MKD,OTH,,,,130,2008-01-27T00:00:00.000,2018-03-22T10:46:13.000,1,revise,active
6280327225,64342456,,,Lugton Brae,,,,,,Lugton Brae,,,,Westbound,,W,ES000968,Dalkeith,,,,,,,0,UKOS,332660,667678,-3.0784405,55.8974867,BCT,MKD,TIP,,,,130,2013-06-24T16:36:31.000,2013-08-07T16:18:31.000,2,revise,active
6280327230,64323536,,,Melville Gate Road,,,,opp Kings Gate,,Old Dalkeith Road,,,,at,,W,ES000968,Dalkeith,,,,,,,0,UKOS,332185,667649,-3.086028,55.89716,BCT,MKD,OTH,,,,130,2008-01-27T00:00:00.000,2018-03-22T10:46:13.000,1,revise,active
6280327235,64325832,,,Sheriffhall Park and Ride,,Sheriffhall P and R,,Park and ride site,,Unnamed Road,,,,Stop A,,SE,ES000997,Danderhall,,,,,,,0,UKOS,331364,668591,-3.099393,55.905505,BCT,MKD,PPT,,,,130,2007-10-29T00:00:00.000,2013-01-24T09:00:58.000,3,revise,active
6280327236,64325829,,,Sheriffhall Park and Ride,,Sherifhall P and R,,Park and Ride,,Unnamed Road,,,,Stop B,,SE,ES000997,Danderhall,,,,,,,0,UKOS,331401,668587,-3.098801,55.905474,BCT,MKD,OTH,,,,130,2008-03-29T00:00:00.000,2013-01-24T09:01:43.000,3,revise,active
6280327245,64323932,,,Newton Cottages,,,,-,,Old Craighall Road,,,,at,,SW,N0067332,Millerhill,,,,,,,0,UKOS,333034,670015,-3.0730406,55.9185328,BCT,MKD,OTH,,,,130,2008-01-27T00:00:00.000,2018-03-22T10:46:14.000,1,revise,active
6280327247,64323928,,,Easter Millerhill,,,,-,,Old Craighall Road,,,,At 18,,SW,N0067332,Millerhill,,,,,,,0,UKOS,332449,669469,-3.0822621,55.9135461,BCT,MKD,PPT,,,,130,2008-01-27T00:00:00.000,2018-03-22T10:46:14.000,1,revise,active
6280327250,64323589,,,Old Dalkeith Road,,,,opp 9 Maulsford Avenue,,Old Dalkeith Road,,,,NW-bound,,NW,ES000997,Danderhall,,,,,,,1,UKOS,330705,669149,-3.1100749,55.9104231,BCT,MKD,PPT,,,,130,2008-01-27T00:00:00.000,2018-03-22T10:46:13.000,1,revise,active
6280327260,64323936,,,Wester Millerhill,,,,at Cockatoo PH,,Old Craighall Road,,,,at,,W,N0067332,Millerhill,,,,,,,0,UKOS,332107,669203,-3.087666,55.911108,BCT,MKD,PPT,,,,130,2008-01-27T00:00:00.000,2009-11-27T00:00:00.000,3,revise,active
6280327270,64323937,,,Millerhill Road,,,,-,,Millerhill Road,,,,Westbound,,W,N0067332,Millerhill,,,,,,,0,UKOS,331973,669217,-3.0898122,55.9112151,BCT,MKD,OTH,,,,130,2008-01-27T00:00:00.000,2010-01-05T00:00:00.000,7,revise,inactive
6280327285,64323962,,,Newton Church Road,,Newton Church Road,,Millerhill Road Crossroads,,Newton Church Road,,,,on,,SW,ES002825,Newton Village,,,,,,,0,UKOS,331664,669444,-3.0948118,55.9132105,BCT,MKD,PPT,,,,130,2008-01-27T00:00:00.000,2009-12-24T00:00:00.000,2,revise,active
6280327289,64323586,,,Newton Church Road,,Newton Church Road,,Opp Roberston Medical Centre,,Newton Church Road,,,,at,,NW,ES000997,Danderhall,,,,,,,0,UKOS,331018,669380,-3.1051279,55.9125433,BCT,MKD,OTH,,,,130,2008-01-27T00:00:00.000,2009-12-24T00:00:00.000,2,revise,active
6280327300,64323595,,,Smithy Green Avenue,,Smithy Green Avenue,,-,,Newton Church Road,,,,opp,,SW,ES000997,Danderhall,,,,,,,0,UKOS,330695,669231,-3.1102558,55.9111583,BCT,MKD,PPT,,,,130,2008-01-27T00:00:00.000,2018-03-22T10:46:13.000,1,revise,active
6280327310,64323597,,,The Wisp,,,,Drumbank House,,Old Dalkeith Road,,,,opp,,W,ES000997,Danderhall,,,,,,,0,UKOS,330248,669468,-3.1174663,55.9132226,BCT,MKD,PPT,,,,130,2008-01-27T00:00:00.000,2018-03-22T10:46:13.000,1,revise,active
6280327314,64323593,,,Redcroft Street,,,,-,,The Wisp,,,,opp,,N,ES000997,Danderhall,,,,,,,0,UKOS,330307,669729,-3.1165900,55.9155758,BCT,MKD,OTH,,,,130,2008-01-27T00:00:00.000,2018-03-22T10:46:13.000,1,revise,active
6280327315,64323582,,,Edmonstone Road,,Edmonstone Road,,opp Edmonstone Inn PH,,Edmonstone Road,,,,at 104,,SE,ES000997,Danderhall,,,,,,,0,UKOS,330483,669926,-3.113825,55.917371,BCT,MKD,OTH,,,,130,2008-01-27T00:00:00.000,2018-03-22T10:46:13.000,1,revise,active
6280327316,64323576,,,Edmonstone Avenue,,Edmonstone Avenue,,-,,Edmonstone Road,,,,opp,,SE,ES000997,Danderhall,,,,,,,0,UKOS,330644,669871,-3.1112360,55.9169001,BCT,MKD,PPT,,,,130,2008-01-27T00:00:00.000,2018-03-22T10:46:13.000,1,revise,active
6280327318,64323583,,,Edmonstone Road,,Edmonstone Road,,-,,Edmonstone Road,,,,at 43,,SE,ES000997,Danderhall,,,,,,,0,UKOS,330883,669607,-3.1073453,55.9145630,BCT,MKD,OTH,,,,130,2008-01-27T00:00:00.000,2018-03-22T10:46:13.000,1,revise,active
6280327319,64323579,,,Edmonstone Drive,,Edmonstone Drive,,-,,Edmonstone Road,,,,opp,,SE,ES000997,Danderhall,,,,,,,0,UKOS,330929,669516,-3.1065862,55.9137522,BCT,MKD,OTH,,,,130,2008-01-27T00:00:00.000,2018-03-22T10:46:13.000,1,revise,active
6280327320,64323963,,,Newton Church Road,,-,,at 13 Newton Village,,Millerhill Road,,,,near,,SE,ES002825,Newton Village,,,,,,,0,UKOS,331663,669544,-3.0948531,55.9141087,BCT,MKD,PPT,,,,130,2008-01-27T00:00:00.000,2009-02-12T00:00:00.000,2,revise,active
6280327330,64323956,,,Millerhill Road,,-,,-,,Millerhill Road,,,,Opp 107,,NW,ES002825,Newton Village,,,,,,,0,UKOS,331560,669664,-3.0965310,55.9151720,BCT,MKD,OTH,,,,130,2008-01-27T00:00:00.000,2013-01-24T09:02:16.000,3,revise,active
6280327340,64323743,,,Moorfield Cottages,,Moorfield Cottages,,-,,Millerhill Road,,,,at,,NW,N0071960,Hilltown,,,,,,,0,UKOS,331450,669854,-3.0983388,55.9168631,BCT,MKD,OTH,,,,130,2008-01-27T00:00:00.000,2018-03-22T10:46:13.000,1,revise,active
6280327350,64323739,,,Hilltown Terrace,,,,-,,Millerhill Road,,,,opp,,NW,N0071960,Hilltown,,,,,,,1,UKOS,331108,670129,-3.1038797,55.9192845,BCT,MKD,PPT,,,,130,2008-01-27T00:00:00.000,2018-03-22T10:46:13.000,1,revise,active
6280327360,64324587,,,Cloverfoot Cottages,,,,Builders Yard,,The Wisp,,,,at,,N,N0076266,The Wisp,,,,,,,0,UKOS,330575,671046,-3.1126422,55.9274453,BCT,MKD,PPT,,,,130,2008-01-27T00:00:00.000,2018-03-22T10:46:14.000,1,revise,active
6280328015,64342452,,,Pentland Road,,,,-,,Pentland Road,,,,SE bound,,SE,N0071589,Loanhead,,,,,,,0,UKOS,327148,665613,-3.1660094,55.8781333,BCT,MKD,TIP,,,,130,2012-07-27T15:15:10.000,2012-09-06T14:40:24.000,2,revise,active
6280330290,64329273,,,Burnbrae Terrace,,-,,-,,Hopefield Access Road,,,,at,,NE,ES000413,Bonnyrigg,,,,,,,0,UKOS,331217,663790,-3.1005227,55.8623558,BCT,MKD,OTH,,,,130,2009-04-07T00:00:00.000,2009-08-25T00:00:00.000,1,revise,active
6280330291,64329298,,,Burnbrae Avenue,,,,-,,Burnbrae Terrace,,,,opp,,NW,ES000413,Bonnyrigg,,,,,,,0,UKOS,331106,663976,-3.1023431,55.8640108,BCT,MKD,TIP,,,,130,2010-10-29T08:26:00.000,2010-10-29T08:26:34.000,1,new,active
6280330292,64329323,,,Burnbrae Walk,,,,-,,Burnbrae Road,,,,opp,,NE,ES000413,Bonnyrigg,,,,,,,0,UKOS,331218,664195,-3.1006096,55.8659942,BCT,MKD,TIP,,,,130,2010-10-29T08:30:00.000,2015-02-05T12:05:51.000,2,revise,active
6280330293,64329324,,,Sawmill Terrace,,,,-,,Burnbrae Road,,,,near,,SE,ES000413,Bonnyrigg,,,,,,,0,UKOS,331536,664233,-3.0955391,55.8663809,BCT,MKD,TIP,,,,130,2010-10-29T08:35:00.000,2010-10-29T08:35:05.000,1,new,active
6280330300,64325827,,,Burnbrae Road,,,,-,,Hopefield Access Road,,,,at,,NE,ES000413,Bonnyrigg,,,,,,,0,UKOS,331524,664140,-3.0957073,55.8655437,BCT,MKD,PPT,,,,130,2008-03-29T00:00:00.000,2009-08-25T00:00:00.000,2,revise,active
6280339420,64323838,,,Lang Loan,,,,opp Straiton Park,,Loanhead Road,,,,opp,,NW,N0067344,Straiton,,,,,,,0,UKOS,327404,666692,-3.1622082,55.8878647,BCT,MKD,OTH,,,,130,2008-01-27T00:00:00.000,2009-11-27T00:00:00.000,2,revise,active
6280339430,64324567,,,Straiton Cottages,,,,Retail Park,,A701,,,,at,,NE,N0067344,Straiton,,,,,,,0,UKOS,327135,666350,-3.1664157,55.8847518,BCT,MKD,OTH,,,,130,2008-01-27T00:00:00.000,2018-03-22T10:46:14.000,1,revise,active
6280339435,64328249,,,Park and Ride,,P and R,,Park and Ride,,Unnamed Road,,,,Citybound,,SE,N0067344,Straiton,,,,,,,0,UKOS,327119,666522,-3.166718,55.886294,BCT,MKD,TIP,,,,130,2008-07-21T00:00:00.000,2017-11-22T13:16:11.000,6,revise,active
6280339440,64324563,,,Loanhead Road,,,,Subway,,A701,,,,opp,,NE,N0067344,Straiton,,,,,,,0,UKOS,327277,666649,-3.1642266,55.8874592,BCT,MKD,PPT,,,,130,2008-01-27T00:00:00.000,2009-11-27T00:00:00.000,2,revise,active
6280529000,64324687,,,Vogrie Country Park,,,,Walled Garden,,Access road,,,,at,,W,ES001632,Gorebridge,,,,,,,0,UKOS,337610,663119,-2.9982450,55.8571989,BCT,MKD,TIP,,,,130,2008-01-27T00:00:00.000,2009-08-21T00:00:00.000,2,revise,active
6280STDAV1,64328243,,,St Davids High,,,,removed October 2003,,school grounds,,,,arriving,,E,ES000968,Dalkeith,,,,,,,0,UKOS,333078,666557,-3.0714798,55.8874749,BCT,CUS,PPT,,,,130,2008-01-27T00:00:00.000,2011-11-04T11:38:02.000,3,revise,inactive
6280STDAV2,64328245,,,St Davids High,,,,removed October 2003,,school grounds,,,,departing,,W,ES000968,Dalkeith,,,,,,,0,UKOS,333049,666542,-3.0719396,55.8873361,BCT,CUS,PPT,,,,130,2008-01-27T00:00:00.000,2011-11-04T11:38:37.000,3,revise,inactive
6280300975,64342476,,,Newbattle Centre,,,,Newbattle Centre,,B6482,,,,Westbound,,N,ES002569,Mayfield,,,,,,,0,UKOS,334529,664873,-3.0478789,55.8725466,BCT,MKD,TIP,,,,130,2018-02-19T09:31:33.000,2018-03-22T00:00:00.000,4,revise,active
6280326655,64342475,,,Newbattle Centre,,,,Newbattle Centre,,B6482,,,,Eastbound,,N,ES002569,Mayfield,,,,,,,0,UKOS,334530,664889,-3.0478667,55.8726905,BCT,MKD,TIP,,,,130,2018-02-19T09:27:53.000,2018-03-22T00:00:00.000,4,revise,active
628033305,64342473,,,Newbattle Centre,,,,Newbattle High School,,B6482,,,,at,,N,ES002569,Mayfield,,,,,,,1,UKOS,334485,664931,-3.0485959,55.8730617,BCT,MKD,TIP,,,,130,2018-02-16T08:40:09.000,2018-03-21T15:29:46.000,1,revise,inactive
628033307,64342474,,,"Newbattle Centre ",,,,Newbattle Centre,,B6482,,,,at,,N,ES002569,Mayfield,,,,,,,1,UKOS,334496,664930,-3.0484199,55.8730542,BCT,MKD,TIP,,,,130,2018-02-16T08:47:02.000,2018-03-21T15:30:32.000,1,revise,inactive
628070000675,6430675,,,Jenks Loan,,Jenks Loan,,,,Victoria Road,,,,at,,S,ES002829,Newtongrange,,,,,,,,UKOS,332975,664045,-3.072501,55.864895,BCT,MKD,OTH,,,,130,2021-08-25T17:07:13.001,2021-08-25T17:07:13.001,0,new,active
628070000676,6430676,,,Jeanette Steward Drive,,Jeanette Steward Dr,,,,Victoria Road,,,,at,,NE,ES002829,Newtongrange,,,,,,,,UKOS,332943,663782,-3.072947,55.862528,BCT,MKD,OTH,,,,130,2021-08-25T17:09:47.001,2021-08-25T17:09:47.001,0,new,active
628070000677,6430677,,,Jenks Loan,,Jenks Loan,,,,Victoria Road,,,,opp,,N,ES002829,Newtongrange,,,,,,,,UKOS,332958,664047,-3.072773,55.864911,BCT,MKD,OTH,,,,130,2021-08-25T17:11:59.001,2021-08-25T17:11:59.001,0,new,active
628070000678,6430678,,,Shawfair Hospital,,Shawfair Hospital,,,,Shawfair,,,,,,NE,ES000997,Danderhall,,,,,,,,UKOS,331392,668937,-3.09903,55.908617,BCT,MKD,OTH,,,,130,2021-08-25T17:15:28.001,2021-08-25T17:15:28.001,0,new,active
628070000679,6430679,,,Shawfair Hospital,,Shawfair Hospital,,,,Shawfair,,,,at,,SW,ES000997,Danderhall,,,,,,,,UKOS,331407,668926,-3.098788,55.908521,BCT,MKD,OTH,,,,130,2021-08-25T17:18:10.001,2021-08-25T17:18:10.001,0,new,active
628070000680,6430680,,,Cocklerow,,Cocklerow,,,,Old Craighall Road,,,,at,,SW,ES000997,Danderhall,,,,,,,,UKOS,332262,669494,-3.085256,55.913745,BCT,MKD,OTH,,,,130,2021-08-25T17:22:43.001,2021-08-25T17:22:43.001,0,new,active
628070000681,6430681,,,Cocklerow Loan,,Cocklerow Loan,,,,Old Craighall Road,,,,at,,NE,ES000997,Danderhall,,,,,,,,UKOS,332299,669554,-3.08468,55.914289,BCT,MKD,OTH,,,,130,2021-08-25T17:25:42.000,2021-08-25T17:25:42.000,0,new,active
6280327242,64327242,,,Shawfair Avenue,,Shawfair Avenue,,,,Shawfair Avenue,,,,,,NE,ES002825,Newton Village,,,,,,,,UKOS,331835,669252,-3.092025,55.91151,BCT,MKD,OTH,,,,130,2023-07-18T13:42:06.001,2023-07-18T13:42:06.001,0,new,active
6280300116,64329116,,,Shawfair Avenue,,Shawfair Avenue,,,,Shawfair Avenue,,,,,,SW,ES002825,Newton Village,,,,,,,,UKOS,331811,669228,-3.092403,55.911291,BCT,MKD,OTH,,,,130,2023-07-18T13:51:14.000,2023-07-19T10:35:03.000,1,revise,active
6280000143,64329143,,,Willow Park Drive,,Willow Park Drive,,,,Mauricewood Road,,,,opp,,NW,N0071919,Mauricewood,Penicuik,,,,,,,UKOS,323184,662247,-3.228394,55.847281,BCT,MKD,OTH,,,,130,2023-07-18T14:53:32.001,2023-07-19T10:30:08.001,2,revise,active
6280000144,64329144,,,Willow Park Drive,,Willow Park Drive,,,,Mauricewood Road,,,,at,,SE,N0071919,Mauricewood,Penicuik,,,,,,,UKOS,323220,662206,-3.227808,55.846919,BCT,MKD,OTH,,,,130,2023-07-19T10:17:26.000,2023-07-19T10:31:21.000,1,revise,active
6280000145,64329145,,,Bluebell Drive,,Bluebell Drive,,,,Mauricewood Road,,,,at,,NW,N0071919,Mauricewood,Penicuik,,,,,,,UKOS,323547,661756,-3.22246,55.842928,BCT,MKD,OTH,,,,130,2023-07-19T10:19:33.001,2023-07-19T10:19:33.001,0,new,active
6280000146,64329146,,,Bluebell Drive,,Bluebell Drive,,,,Mauricewood Road,,,,opp and after,,SE,N0071919,Mauricewood,Penicuik,,,,,,,UKOS,323584,661736,-3.221863,55.842755,BCT,MKD,OTH,,,,130,2023-07-19T10:21:48.001,2023-07-19T10:34:01.000,1,revise,active
628070001007,64301585,,,Aspen Drive,,,,,,Aspen Drive,,,,Eastbound,,E,N0071926,Hunterfield,Gorebridge,,,,Hunterfield,,,UKOS,333675,662198,-3.060872,55.848402,BCT,MKD,OTH,,,,130,2024-02-19T11:46:35.000,2024-03-19T15:24:28.836,3,revise,active
628070001008,64326345,,,Aspen Drive,,,,,,Aspen Drive,,,,Westbound,,W,ES001632,Gorebridge,,,,,Hunterfeild,,,UKOS,333674,662189,-3.060883,55.848321,BCT,MKD,OTH,,,,130,2024-02-19T11:48:30.001,2024-03-19T15:24:56.164,2,revise,active
628070001020,64311020,,,Elizabeth Dickson Gardens,,Elizabeth Dickson Gardens,,Elizabeth Dickson Gardens,,Edgehead Road,,,,at,,SE,N0071915,Edgehead,,,,,,,,UKOS,337182,665282,-3.0055876,55.8765788,BCT,MKD,OTH,,,,130,2024-03-19T15:01:23.621,2024-03-19T15:01:23.621,0,new,active
628070001227,64323241,,,Charles Wilson Avenue,,Charles Wilson Ave,,A701 at Pedestrian Crossing,,A701,,,,opp,,SW,ES000354,Bilston,,,,,,,,UKOS,326119,664120,-3.1820464,55.8645627,BCT,MKD,OTH,,,,130,2025-02-25T11:08:13.689,2025-02-25T11:08:13.689,0,new,active
