ATCOCode,NaptanCode,PlateCode,CleardownCode,CommonName,CommonNameLang,ShortCommonName,ShortCommonNameLang,Landmark,LandmarkLang,Street,StreetLang,Crossing,CrossingLang,Indicator,IndicatorLang,Bearing,NptgLocalityCode,LocalityName,ParentLocalityName,GrandParentLocalityName,Town,TownLang,Suburb,SuburbLang,LocalityCentre,GridType,Easting,Northing,Longitude,Latitude,StopType,BusStopType,TimingStatus,DefaultWaitTime,Notes,NotesLang,AdministrativeAreaCode,CreationDateTime,ModificationDateTime,RevisionNumber,Modification,Status
6380ELGIN0,,,,Elgin Rail Station,,,,,,,,,,Entrance,,,ES001294,Elgin,,,,,,,false,UKOS,321813,862241,-3.31143,57.64328,RSE,,,,,,131,2021-03-31T00:00:00,2021-03-31T13:18:28,14,new,active
6380FORRES0,,,,Forres Rail Station,,,,,,,,,,Entrance,,,ES001428,Forres,,,,,,,false,UKOS,303005,859077,-3.62509,57.61122,RSE,,,,,,131,2021-03-31T00:00:00,2021-03-31T13:06:42,14,new,active
6380KEITH0,,,,Keith Rail Station,,,,,,,,,,Entrance,,,ES001929,Keith,,,,,,,false,UKOS,343010,851590,-2.9539,57.55081,RSE,,,,,,131,2021-03-31T00:00:00,2021-03-31T13:16:56,14,new,active
638053121,67924927,,,Ballantine Circle,,,,Ballantine Circle,,Unclassified Road,,,,adj,,NE,N0066872,Miltonduff,,,,,,,false,UKOS,317871,860313,-3.37679,57.62527,BCT,MKD,OTH,,,,131,2007-08-17T00:00:00,2012-12-05T14:24:00,1,new,active
638053131,67923753,,,Distillery Cottages,,,,Distillery Cottages,,A941,,,,opp,,NW,N0080101,Coleburn,,,Coleburn,EN,-,EN,false,UKOS,324078,854938,-3.2712,57.57809,BCT,MKD,OTH,,,,131,2003-09-08T00:00:00,2012-12-10T09:22:00,3,new,active
638053151,67923828,,,Edinvillie Road End,,,,Edinvillie Road End,,,,,,at,,NE,N0078406,Glenrinnes,,,Buscoth,EN,-,EN,false,UKOS,328965,835553,-3.18386,57.4048,BCT,MKD,OTH,,,,131,2003-09-08T00:00:00,2013-02-04T11:31:00,5,new,active
638053182,67923289,,,Woodlands Crescent,,,,Woodlands Crescent,,Spynie Street,,,,opp,,E,ES000364,Bishopmill,Elgin,,Elgin,EN,Bishopmill,EN,false,UKOS,321287,863970,-3.3208,57.65872,BCT,MKD,OTH,,,,131,2003-09-03T00:00:00,2013-02-07T15:27:00,1,new,active
638053192,67923292,,,Spynie Place,,,,Spynie Place,,Spynie Street,,,,opp,,E,ES000364,Bishopmill,Elgin,,Elgin,EN,Bishopmill,EN,false,UKOS,321433,864087,-3.31839,57.65979,BCT,MKD,OTH,,,,131,2003-09-02T00:00:00,2013-02-28T15:03:00,2,new,active
638053421,67923789,,,Belleheiglash Cottages,,,,Belleheiglash Cottages,,A95,,,,opp,,N,N0076712,Marypark,,,Marypark,EN,-,EN,false,UKOS,318673,837589,-3.35577,57.42135,BCT,MKD,OTH,,,,131,2003-09-02T00:00:00,2012-12-05T14:47:00,1,new,active
638053611,67923425,,,Fraser Avenue,,,,Fraser Avenue,,Lesmurdie Road,,,,adj,,S,ES000364,Bishopmill,Elgin,,Elgin,EN,Bishopmill,EN,false,UKOS,322050,864044,-3.30804,57.65952,BCT,MKD,OTH,,,,131,2003-09-02T00:00:00,2012-12-10T15:57:00,1,new,active
638053621,67923285,,,Grove Place,,,,Grove Place,,Blantyre Place,,,,at,,W,ES000364,Bishopmill,Elgin,,Elgin,EN,Bishopmill,EN,false,UKOS,321372,863569,-3.31924,57.65513,BCT,MKD,OTH,,,,131,2003-09-01T00:00:00,2013-02-04T13:18:00,2,new,active
638053631,67923286,,,Cooper Street,,,,Cooper Street,,Duff Place,,,,opp,,W,ES000364,Bishopmill,Elgin,,Elgin,EN,Bishopmill,EN,false,UKOS,321187,863526,-3.32233,57.65471,BCT,MKD,OTH,,,,131,2003-09-01T00:00:00,2012-12-10T13:11:00,2,new,active
638053641,67923287,,,Cooper Street,,,,Cooper Street,,Morriston Road,,,,opp,,E,ES000364,Bishopmill,Elgin,,Elgin,EN,Bishopmill,EN,false,UKOS,321110,863630,-3.32365,57.65563,BCT,MKD,OTH,,,,131,2003-09-01T00:00:00,2012-12-10T13:10:00,2,new,active
638053661,67924763,,,Wittet Drive,,,,Wittet Drive,,,,,,at,,N,ES001294,Elgin,,,Elgin,EN,-,EN,false,UKOS,320525,862474,-3.33307,57.64515,BCT,MKD,OTH,,,,131,2003-11-14T00:00:00,2013-02-07T16:08:00,3,new,active
638053662,67924767,,,Wittet Drive,,,,Wittet Drive,,Wittet Drive,,,,at,,S,ES001294,Elgin,,,Elgin,EN,-,EN,false,UKOS,320512,862474,-3.33329,57.64515,BCT,MKD,OTH,,,,131,2003-11-14T00:00:00,2013-02-07T16:08:00,4,new,active
638053551,67924758,,,Burn Place,,,,Burn Place,,Robertson Drive,,,,opp,,W,ES002774,New Elgin,Elgin,,Elgin,EN,-,EN,false,UKOS,322749,861660,-3.29557,57.63823,BCT,MKD,OTH,,,,131,2003-11-13T00:00:00,2013-08-07T09:36:00,4,new,active
638053561,67924597,,,Brodie Drive,,,,Brodie Drive,,Munro Place,,,,adj,,N,ES000364,Bishopmill,Elgin,,Elgin,EN,City centre,EN,false,UKOS,321720,863973,-3.31355,57.65882,BCT,MKD,OTH,,,,131,2004-10-27T00:00:00,2013-02-07T09:03:00,3,new,active
638050131,67923459,,,Seafield Crescent,,,,Seafield Crescent,,Maisondieu Road,,,,at,,N,ES001294,Elgin,,,Elgin,EN,Pansport,EN,false,UKOS,322350,862508,-3.30252,57.64577,BCT,MKD,OTH,,,,131,2003-09-02T00:00:00,2013-02-06T13:07:00,2,new,active
638053592,67923458,,,Seafield Crescent,,,,Seafield Crescent,,Maisondieu Road,,,,opp,,SW,ES001294,Elgin,,,Elgin,EN,Pansport,EN,false,UKOS,322367,862524,-3.30224,57.64592,BCT,MKD,OTH,,,,131,2003-09-02T00:00:00,2013-02-06T13:08:00,3,new,active
638053601,67923426,,,Lesmurdie Court,,,,Lesmurdie Court,,,,,,opp,,SW,ES000364,Bishopmill,Elgin,,Elgin,EN,Bishopmill,EN,false,UKOS,322023,864261,-3.30856,57.66146,BCT,MKD,OTH,,,,131,2003-09-02T00:00:00,2013-02-05T14:35:00,4,new,active
638053671,67924765,,,Asda Superstore,,,,Asda Superstore,,Edgar Road,,,,opp,,W,ES001294,Elgin,,,Elgin,EN,-,EN,false,UKOS,322049,862017,-3.3074,57.64131,BCT,MKD,OTH,,,,131,2003-11-12T00:00:00,2012-12-05T14:03:00,3,new,active
638053761,67924784,,,Kimberly Street,,,,Kimberly Street,,Stotfield Road,,,,at,,E,ES002496,Lossiemouth,,,Lossiemouth,EN,-,EN,false,UKOS,323174,871108,-3.29146,57.72314,BCT,MKD,OTH,,,,131,2003-11-13T00:00:00,2013-02-04T15:54:00,1,new,active
638053771,67923275,,,Council Headquarters,,,,Council Headquarters,,High Street,,,,at,,W,ES001294,Elgin,,,Elgin,EN,City Centre,EN,false,UKOS,321780,862867,-3.31218,57.6489,BCT,MKD,OTH,,,,131,2003-09-01T00:00:00,2012-12-10T09:37:00,3,new,active
638053442,67925475,,,Railway Station,,,,Railway Station,,Station Road,,,,opp,,E,ES001294,Elgin,,,Elgin,EN,,,false,UKOS,321814,862254,-3.31141,57.6434,BCT,MKD,OTH,,,,131,2016-04-21T00:00:00,2016-07-19T12:47:06,2,new,active
638062999,67925362,,,Railway Station,,,,Railway Station,,Station Road,,,,opp,,E,ES001294,Elgin,,,Elgin,EN,-,EN,false,UKOS,321810,862253,-3.31148,57.64339,BCT,MKD,OTH,,,,131,2015-04-30T00:00:00,2016-07-14T13:49:00,4,new,active
638053441,67923465,,,Railway Station,,,,Railway Station,,Station Road,,,,at,,W,ES001294,Elgin,,,Elgin,EN,Laich Moray,EN,false,UKOS,321834,862239,-3.31107,57.64327,BCT,MKD,OTH,,,,131,2003-09-02T00:00:00,2013-02-06T15:28:00,2,new,active
638053461,67923254,,,Templand Road,,,,Templand Road,,Templand Place,,,,adj,,N,ES002359,Lhanbryde,,,Lhanbryde,EN,-,EN,false,UKOS,327687,861050,-3.2127,57.63357,BCT,MKD,OTH,,,,131,2003-08-20T00:00:00,2013-02-06T16:11:00,2,new,active
638053521,67923486,,,Sandy Road,,,,Sandy Road,,Springfield Road,,,,opp,,E,ES002774,New Elgin,Elgin,,Elgin,EN,New Elgin,EN,false,UKOS,321722,861478,-3.3127,57.63642,BCT,MKD,OTH,,,,131,2003-09-03T00:00:00,2013-02-04T12:03:00,1,new,active
638053531,67923928,,,Freunchny Road,,,,Freunchny Road,,East Church Street,,,,at,,W,ES000495,Buckie,,,Buckie,EN,-,EN,false,UKOS,343280,865936,-2.95276,57.67969,BCT,MKD,OTH,,,,131,2003-09-10T00:00:00,2012-12-10T15:57:00,1,new,active
638065891,67924583,,,Lady Hill,,,,Lady Hill,,,,,,at,,W,ES001929,Keith,,,Keith,EN,-,EN,false,UKOS,347910,851489,-2.87202,57.55049,BCT,CUS,OTH,,,,131,2004-11-19T00:00:00,2012-12-10T10:44:00,2,new,active
638065901,67924636,,,Farm,,,,Farm,,Unclassified Road,,,,at,,W,N0080099,Auchenhalrig,,,Fochabers,EN,-,EN,false,UKOS,337155,861906,-3.05439,57.64268,BCT,CUS,OTH,,,,131,2003-11-12T00:00:00,2013-02-13T09:54:00,7,new,active
638065921,67924563,,,St Sylvester's School,,,,St Sylvester's School,,Abbey Street,,,,at,,SE,ES001294,Elgin,,,Elgin,EN,-,EN,false,UKOS,321905,862690,-3.31003,57.64733,BCT,CUS,OTH,,,,131,2004-11-19T00:00:00,2013-02-06T15:14:00,3,new,active
638067821,67925235,,,The Slack,,,,The Slack,,Unclassified Road,,,,at,,S,N0076712,Marypark,,,Slack,EN,-,EN,false,UKOS,318498,837123,-3.35852,57.41714,BCT,CUS,OTH,,,,131,2008-04-29T00:00:00,2013-02-06T13:32:00,2,new,active
638065841,67924576,,,Hillhead Junction,,,,Hillhead Junction,,Unclassified Road,,,,at,,W,ES000495,Buckie,,,Buckie,EN,-,EN,false,UKOS,343194,864111,-2.95377,57.66328,BCT,CUS,OTH,,,,131,2004-11-19T00:00:00,2013-02-04T15:18:00,1,new,active
638065851,67924298,,,High School,,,,High School,,West Cathcart Street,,,,at,,W,ES000495,Buckie,,,Buckie,EN,-,EN,false,UKOS,342245,865217,-2.96994,57.6731,BCT,CUS,OTH,,,,131,2003-12-01T00:00:00,2011-12-22T13:41:00,2,new,active
638065861,67924578,,,Lonach Crescent,,,,Lonach Crescent,,,,,,opp,,W,N0066875,Milltown of Rothiemay,,,Milltown of Rothiemay,EN,-,EN,false,UKOS,354724,848320,-2.75758,57.52277,BCT,CUS,OTH,,,,131,2004-11-19T00:00:00,2013-02-01T14:05:00,2,new,active
638065871,67924579,,,Crossroads,,,,Crossroads,,,,,,at,,NW,N0066875,Milltown of Rothiemay,,,Milltown of Rothiemay,EN,-,EN,false,UKOS,354088,849548,-2.76843,57.53373,BCT,CUS,OTH,,,,131,2004-11-19T00:00:00,2013-02-06T13:42:00,5,new,active
638065881,67924582,,,Farmtown,,,,Farmtown,,,,,,at,,W,ES001929,Keith,,,Keith,EN,-,EN,false,UKOS,350760,851267,-2.82436,57.54882,BCT,CUS,OTH,,,,131,2004-11-19T00:00:00,2012-12-10T13:53:00,2,new,active
638066321,67924593,,,Newton Of Struthers Cottages,,,,Newton Of Struthers Cottages,,Unclassified Road,,,,at,,W,ES002120,Kinloss,,,Kinloss,EN,-,EN,false,UKOS,308920,861445,-3.52702,57.63371,BCT,CUS,OTH,,,,131,2004-11-19T00:00:00,2013-02-06T09:20:00,3,new,active
638066331,67924572,,,Scotsburn,,,,Scotsburn,,A96,,,,at,,E,ES002120,Kinloss,,,Kinloss,EN,-,EN,false,UKOS,308022,860327,-3.54163,57.62349,BCT,CUS,OTH,,,,131,2004-11-19T00:00:00,2013-02-28T15:04:00,3,new,active
638067481,67924879,,,Cathay,,,,Cathay House,,B9010,,,,S-bound,,S,ES001428,Forres,,,,,,,false,UKOS,305878,857947,-3.57659,57.60168,BCT,CUS,OTH,,,,131,2006-07-27T00:00:00,2012-12-06T13:58:00,3,new,active
638066341,67924592,,,Cathay,,,,Cathay,,B9010,,,,W-bound,,W,ES001428,Forres,,,Forres,EN,-,EN,false,UKOS,305665,857941,-3.58015,57.60158,BCT,CUS,OTH,,,,131,2004-11-19T00:00:00,2012-12-06T13:57:00,1,new,active
638066351,67924568,,,Connage Road End,,,,Connage Road End,,A98,,,,opp,,W,ES003119,Rathven,Buckie,,Rathven,EN,-,EN,false,UKOS,344749,864692,-2.92784,57.6687,BCT,CUS,OTH,,,,131,2004-11-19T00:00:00,2013-02-28T14:33:00,1,new,active
638066361,67924595,,,Kirktown Of Deskford,,,,Kirktown Of Deskford,,Unclassified Road,,,,at,,S,N0066979,Berryhillock,,,Lintmill,EN,-,EN,false,UKOS,350462,861616,-2.83145,57.64174,BCT,CUS,OTH,,,,131,2004-11-19T00:00:00,2013-02-04T15:59:00,3,new,active
638066261,67924549,,,Tilliglens,,,,Tilliglens,,Unclassified Road,,,,at,,N,N0066850,Relugas,,,Relugas,EN,-,EN,false,UKOS,300247,847264,-3.66638,57.50455,BCT,CUS,OTH,,,,131,2004-11-19T00:00:00,2013-02-07T11:58:00,2,new,active
638066291,67924594,,,Lochs Croft,,,,Lochs Croft,,Unclassified Road,,,,at,,E,ES002359,Lhanbryde,,,Lhanbryde,EN,-,EN,false,UKOS,331260,862555,-3.1533,57.64765,BCT,CUS,OTH,,,,131,2004-11-19T00:00:00,2013-02-05T14:48:00,2,new,active
638066301,67924585,,,Glass Road End,,,,Glass Road End,,B9115,,,,at,,W,N0066935,Drummuir,,,Drummuir,EN,-,EN,false,UKOS,340607,844458,-2.9923,57.48645,BCT,CUS,OTH,,,,131,2004-11-19T00:00:00,2013-02-08T09:43:00,5,new,active
638066311,67924574,,,Hempriggs,,,,Hempriggs,,B9089,,,,opp,,E,ES002120,Kinloss,,,Kinloss,EN,-,EN,false,UKOS,310244,863858,-3.50576,57.65565,BCT,CUS,OTH,,,,131,2004-11-19T00:00:00,2013-02-04T13:44:00,2,new,active
638064337,67924976,,,Drumbain,,,,Drumbain,,A941,,,,W-bound,,W,ES003204,Rothes,,,Drumbain,EN,-,EN,false,UKOS,327118,850098,-3.21893,57.53513,BCT,CUS,OTH,,,,131,2008-09-23T00:00:00,2012-12-10T13:00:00,1,new,active
638064338,67925234,,,Bridge Of Birchfield,,,,Bridge Of Birchfield,,A941,,,,at,,S,ES003204,Rothes,,,Glen of Rothes,EN,-,EN,false,UKOS,325618,852164,-3.24461,57.55343,BCT,CUS,OTH,,,,131,2008-09-23T00:00:00,2012-12-05T16:03:00,2,new,active
638064342,67925365,,,Bridge of Birchfield,,,,Bridge of Birchfield,,A941,,,,at,,SE,ES003204,Rothes,,,Rothes,EN,-,EN,false,UKOS,325637,852157,-3.24429,57.55337,BCT,MKD,OTH,,,,131,2015-04-30T00:00:00,2015-04-30T11:20:24,0,new,active
638064339,67924978,,,Netherglen,,,,Netherglen,,A941,,,,opp,,NW,ES003204,Rothes,,,Netherglen,EN,-,EN,false,UKOS,324700,854162,-3.26056,57.57122,BCT,CUS,OTH,,,,131,2008-09-23T00:00:00,2013-02-06T09:03:00,3,new,active
638064341,67924292,,,Tauchers,,,,Tauchers,,A95,,,,at,,E,N0066868,Mulben,,,A95,EN,-,EN,false,UKOS,337160,849808,-3.05117,57.53403,BCT,CUS,OTH,,,,131,2003-12-01T00:00:00,2013-02-06T16:07:00,2,new,active
638064351,67924279,,,Rosarie Farm,,,,Rosarie Farm,,A95,,,,at,,E,ES001929,Keith,,,Keith,EN,-,EN,false,UKOS,338471,850004,-3.02933,57.53597,BCT,CUS,OTH,,,,131,2003-12-01T00:00:00,2013-02-06T12:14:00,1,new,active
638064321,67924362,,,Bridge of Belnellan,,,,Bridge of Belnellan,,A95,,,,at,,E,N0066884,Maggieknockater,,,Maggieknockater,EN,-,EN,false,UKOS,331759,845947,-3.14027,57.49857,BCT,CUS,OTH,,,,131,2003-12-01T00:00:00,2012-12-05T16:07:00,2,new,active
638064331,67924376,,,Crossroads,,,,Crossroads,,B9103,,,,at,,SE,N0066868,Mulben,,,Mulben,EN,-,EN,false,UKOS,335270,850677,-3.08296,57.54157,BCT,CUS,OTH,,,,131,2003-12-01T00:00:00,2013-02-08T09:37:00,6,new,active
638064333,67924972,,,Auchroisk Distillery,,,,Auchroisk Distillery,,B9103,,,,at,,W,N0066868,Mulben,,,Auchroisk,EN,-,EN,false,UKOS,333260,851290,-3.1167,57.54678,BCT,CUS,OTH,,,,131,2008-09-23T00:00:00,2012-12-05T14:06:00,1,new,active
638064335,67925232,,,Boat O' Bridge,,,,Boat O' Bridge,,B9103,,,,at,,NW,N0077205,Orton,,,Boat O' Bridge,EN,-,EN,false,UKOS,331728,851778,-3.14242,57.55093,BCT,CUS,OTH,,,,131,2008-09-23T00:00:00,2012-12-05T15:22:00,1,new,active
638064336,67924982,,,North Street,,,,North Street,,,,,,at,,S,ES003204,Rothes,,,Rothes,EN,-,EN,false,UKOS,327763,849706,-3.20804,57.53171,BCT,CUS,OTH,,,,131,2008-09-23T00:00:00,2013-02-04T15:50:00,3,new,active
638065791,67924567,,,War Memorial,,,,War Memorial,,,,,,at,,S,N0077206,Delnashaugh,,,Aberlour,EN,-,EN,false,UKOS,318513,835424,-3.35771,57.40188,BCT,CUS,OTH,,,,131,2004-11-19T00:00:00,2013-02-07T14:30:00,4,new,active
638065801,67924575,,,Chapeltown Distillery,,,,Chapeltown Distillery,,B9008,,,,at,,N,N0077383,Chapeltown,,,Chapeltown,EN,-,EN,false,UKOS,324239,820762,-3.25794,57.2712,BCT,CUS,OTH,,,,131,2004-11-19T00:00:00,2012-12-10T08:56:00,2,new,active
638065821,67924584,,,Old Post Office House,,,,Old Post Office House,,Unclassified Road,,,,opp,,NE,N0080100,Clochan,,,Fochabers,EN,-,EN,false,UKOS,340176,860914,-3.00355,57.63418,BCT,CUS,OTH,,,,131,2004-11-19T00:00:00,2013-02-22T09:56:00,5,new,active
638065831,67924569,,,Post Office,,,,Post Office,,Unclassified Road,,,,at,,S,N0080104,Drybridge,,,Drybridge,EN,-,EN,false,UKOS,343568,862534,-2.94713,57.64917,BCT,CUS,OTH,,,,131,2004-11-19T00:00:00,2013-02-22T09:46:00,5,new,active
638064571,67923784,,,Dailuaine Distillery Road End,,,,Dailuaine Distillery Road End,,,,,,at,,E,N0066959,Carron,,,Carron,EN,-,EN,false,UKOS,324476,840579,-3.26009,57.44921,BCT,CUS,OTH,,,,131,2003-09-09T00:00:00,2012-12-06T11:48:00,3,new,active
638064751,67924534,,,Coleburn Distillery,,,,Coleburn Distillery,,A941,,,,at,,SE,N0066923,Fogwatt,,,Elgin,EN,-,EN,false,UKOS,323984,855028,-3.2728,57.57888,BCT,CUS,OTH,,,,131,2004-11-19T00:00:00,2013-02-07T15:03:00,5,new,active
638064771,67924547,,,Bridge of Cartach,,,,Bridge of Cartach,,,,,,adj,,S,N0077208,Auchnarrow,,,Auchnarrow,EN,-,EN,false,UKOS,321336,823653,-3.30698,57.29667,BCT,CUS,OTH,,,,131,2004-11-19T00:00:00,2012-12-05T16:12:00,2,new,active
638065772,67925283,,,Enzie Crossroads,,,,Enzie Crossroads,,A98,,,,NE-bound,,NE,ES000495,Buckie,,,Buckie,EN,-,EN,false,UKOS,340668,862946,-2.99581,57.6525,BCT,CUS,OTH,,,,131,2010-10-13T00:00:00,2012-12-10T13:48:00,1,new,active
638065771,67924586,,,Enzie Crossroads,,,,Enzie Crossroads,,A98,,,,SW-bound,,SW,ES000495,Buckie,,,Buckie,EN,-,EN,false,UKOS,340661,862927,-2.99592,57.65232,BCT,CUS,OTH,,,,131,2004-11-19T00:00:00,2012-12-10T13:48:00,1,new,active
638065781,67924548,,,Cemetery,,,,Cemetery,,,,,,opp,,S,ES001607,Glenlivet,,,Aberlour,EN,-,EN,false,UKOS,319801,830051,-3.33453,57.35386,BCT,CUS,OTH,,,,131,2004-11-19T00:00:00,2013-04-19T09:46:00,3,new,active
638066371,67924564,,,Troves,,,,Troves,,Unclassified Road,,,,at,,W,ES002774,New Elgin,Elgin,,Elgin,EN,-,EN,false,UKOS,324736,859883,-3.26174,57.62261,BCT,CUS,OTH,,,,131,2004-11-19T00:00:00,2013-02-07T13:55:00,1,new,active
638052211,67923729,,,Parish Church,,,,Parish Church,,B9010,,,,opp,,N,ES003106,Rafford,,,Rafford,EN,-,EN,false,UKOS,305971,856330,-3.5744,57.58718,BCT,MKD,OTH,,,,131,2003-09-11T00:00:00,2013-02-06T11:30:00,2,new,active
638067711,67925329,,,Parish Church,,,,Parish Church,,B9010,,,,at,,S,ES003106,Rafford,,,,,,,false,UKOS,305984,856310,-3.57418,57.587,BCT,CUS,OTH,,,,131,2007-01-16T00:00:00,2013-02-06T10:50:00,3,new,active
638067721,67925464,,,Muirside Cottages,,,,Muirside Cottages,,Unclassified Road,,,,at,,N,N0077220,Brodie,,,,,,,false,UKOS,297096,858164,-3.72356,57.60171,BCT,CUS,OTH,,,,131,2007-01-18T00:00:00,2013-02-05T15:58:00,4,new,active
638067731,67925434,,,Chapel Street,,,,Chapel Street,,Land Street,,,,adj,,N,ES001929,Keith,,,,,,,false,UKOS,343077,850274,-2.95247,57.539,BCT,CUS,OTH,,,,131,2007-02-14T00:00:00,2012-12-06T13:59:00,3,new,active
638067862,67925258,,,Chapel Street,,,,Chapel Street,,Cameron Drive,,,,opp,,N,ES001929,Keith,,,Keith,EN,,,false,UKOS,342835,850329,-2.95653,57.53946,BCT,CUS,OTH,,,,131,2009-03-31T00:00:00,2012-12-06T11:41:00,2,new,active
638052541,67923659,,,Salmond Street,,,,Salmond Street,,B9089,,,,opp,,SW,ES002120,Kinloss,,,Kinloss,EN,-,EN,false,UKOS,306621,861697,-3.56561,57.6355,BCT,MKD,OTH,,,,131,2003-09-05T00:00:00,2013-02-06T13:00:00,2,new,active
638067741,67925632,,,Salmond Street,,,,Salmond Street,,B9089,,,,at,,E,ES002120,Kinloss,,,,,,,false,UKOS,306578,861673,-3.56632,57.63528,BCT,CUS,OTH,,,,131,2007-03-05T00:00:00,2013-02-06T13:00:00,4,new,active
638067751,67925648,,,Balnageith Rise,,,,Balnageith Rise,,Knockomie Rise,,,,at,,NW,ES001428,Forres,,,,,,,false,UKOS,302750,857527,-3.62874,57.59724,BCT,CUS,OTH,,,,131,2007-03-06T00:00:00,2013-02-04T16:00:00,3,new,active
638067491,67924896,,,Post Office,,,,Post Office,,,,,,at,,N,N0066833,Tomnavoulin,,,,,,,false,UKOS,321108,826066,-3.31154,57.3183,BCT,CUS,OTH,,,,131,2006-07-27T00:00:00,2013-02-06T11:20:00,3,new,active
638067501,67924983,,,Nevie Road End,,,,Nevie Road End,,,,,,opp,,N,N0066986,Auchbreck,,,,,,,false,UKOS,320887,827453,-3.31565,57.33072,BCT,CUS,OTH,,,,131,2006-07-18T00:00:00,2012-12-05T14:09:00,3,new,active
638067671,67924989,,,Anargate Farm Road End,,,,Anargate Farm Road End,,Unclassified Road,,,,at,,N,N0077223,Upper Knockando,,,,,,,false,UKOS,315440,847901,-3.41315,57.51336,BCT,CUS,OTH,,,,131,2006-10-18T00:00:00,2013-02-04T09:41:00,4,new,active
638067703,67925359,,,Dundurcas,,,,Dundurcas,,B9015,,,,at,,SW,ES003204,Rothes,,,Rothes,EN,-,EN,false,UKOS,329833,851101,-3.17388,57.54456,BCT,CUS,OTH,,,,131,2008-09-25T00:00:00,2013-02-28T15:13:00,2,new,active
638067861,67925257,,,Braeside,,,,Roundabout,,Braeside,,,,at,,W,ES001929,Keith,,,Keith,EN,,,false,UKOS,342784,850038,-2.95731,57.53684,BCT,CUS,OTH,,,,131,2009-03-31T00:00:00,2012-12-05T15:55:00,2,new,active
638080001,67924794,,,Elgin Railway Station,,,,Railway Station,,,,,,at,,E,ES001294,Elgin,,,Elgin,EN,,,false,UKOS,321821,862201,-3.31128,57.64293,BCT,CUS,OTH,,,,131,2006-05-22T00:00:00,2010-05-10T14:24:00,1,new,active
638051661,67924246,,,Railway Station,,,,Railway Station,,,,,,at,,E,ES001929,Keith,,,Keith,EN,-,EN,false,UKOS,342995,851641,-2.95416,57.55127,BCT,MKD,OTH,,,,131,2003-09-08T00:00:00,2013-02-06T15:30:00,2,new,active
638080002,67924835,,,Railway Station,,,,Railway Station,,Station Road,,,,at,,W,ES001929,Keith,,,Keith,EN,-,EN,false,UKOS,342996,851642,-2.95415,57.55127,BCT,CUS,OTH,,,,131,2005-12-21T00:00:00,2013-02-20T09:38:00,4,new,active
638067752,67925247,,,Greshop Industrial Estate,,,,Greshop Industrial Estate,,,,,,at,,W,ES001428,Forres,,,Forres,EN,-,EN,false,UKOS,302655,858712,-3.6308,57.60786,BCT,CUS,OTH,,,,131,2008-12-22T00:00:00,2013-02-04T13:17:00,1,new,active
638067753,67925269,,,Mannachie Rise,,,,Mannachie Rise,,Mannachie Rise,,,,at,,S,ES001428,Forres,,,Forres,EN,-,EN,false,UKOS,303739,857727,-3.61228,57.59925,BCT,CUS,OTH,,,,131,2008-12-29T00:00:00,2013-02-05T15:17:00,1,new,active
638067771,67925395,,,Cockmuir Place,,,,Cockmuir Place,,Glen Lossie Drive,,,,at,,N,ES002774,New Elgin,Elgin,,,,,,false,UKOS,321404,861617,-3.31807,57.63761,BCT,CUS,OTH,,,,131,2007-03-07T00:00:00,2012-12-10T09:20:00,3,new,active
638050431,67923496,,,Cockmuir Place,,,,Cockmuir Place,,Glen Lossie Drive,,,,opp,,S,ES002774,New Elgin,Elgin,,Elgin,EN,New Elgin,EN,false,UKOS,321430,861562,-3.31762,57.63712,BCT,MKD,OTH,,,,131,2003-09-03T00:00:00,2012-12-10T09:19:00,1,new,active
638067781,67925349,,,Clashnoir,,,,Clashnoir,,Unclassified Road,,,,at,,N,N0077208,Auchnarrow,,,,,,,false,UKOS,322545,821978,-3.2864,57.28184,BCT,CUS,OTH,,,,131,2007-04-05T00:00:00,2012-12-10T09:12:00,4,new,active
638066591,67924632,,,Hatton Farm,,,,Hatton Farm,,B9089,,,,at,,NE,ES002120,Kinloss,,,Kinloss,EN,-,EN,false,UKOS,309251,863376,-3.52221,57.65112,BCT,CUS,OTH,,,,131,2004-11-19T00:00:00,2015-05-14T17:47:00,3,new,active
638066592,67925425,,,Hatton Farm,,,,Hatton Farm,,B9089,,,,opp,,SW,ES002120,Kinloss,,,Kinloss,EN,,,false,UKOS,309238,863363,-3.52242,57.651,BCT,MKD,OTH,,,,131,2015-05-14T00:00:00,2015-05-14T17:55:54,0,new,active
638066601,67924596,,,Lodge,,,,Lodge,,B9103,,,,at,,S,N0080107,Orton St Marys,,,Fochabers,EN,-,EN,false,UKOS,332280,855364,-3.1342,57.58322,BCT,CUS,OTH,,,,131,2004-11-19T00:00:00,2013-02-22T09:48:00,3,new,active
638066851,67924793,,,Primary School,,,,Primary School,,Station Road,,,,at,,NE,ES002120,Kinloss,,,Kinloss,EN,,,false,UKOS,306871,861938,-3.56152,57.63772,BCT,CUS,OTH,,,,131,2006-05-22T00:00:00,2013-02-28T14:57:00,4,new,active
638066852,67925263,,,Primary School,,,,Primary School,,Station Road,,,,opp,,SW,ES002120,Kinloss,,,Kinloss,EN,,,false,UKOS,306872,861930,-3.5615,57.63765,BCT,CUS,OTH,,,,131,2010-09-16T00:00:00,2013-02-28T15:00:00,2,new,active
638050751,67923949,,,Admiralty Street,,,,Admiralty Street,,Bridge Street,,,,at,,S,ES003061,Portknockie,,,Portknockie,EN,-,EN,false,UKOS,349042,868321,-2.85666,57.7018,BCT,MKD,OTH,,,,131,2003-09-10T00:00:00,2012-12-05T16:05:00,1,new,active
638055411,67924938,,,Glebe Road,,,,Glebe Road,,B9011,,,,opp,,S,ES002120,Kinloss,,,Kinloss,EN,,,false,UKOS,306247,861742,-3.57189,57.63583,BCT,MKD,OTH,,,,131,2007-12-17T00:00:00,2012-12-10T14:47:00,2,new,active
638050541,67923528,,,Edgar Road,,,,Edgar Road,,New Elgin Road,,,,adj,,N,ES002774,New Elgin,Elgin,,Elgin,EN,New Elgin,EN,false,UKOS,322087,862099,-3.30679,57.64206,BCT,MKD,OTH,,,,131,2003-09-03T00:00:00,2012-12-10T13:28:00,1,new,active
638055251,67924863,,,Jockies Loan,,,,Jockies Loan,,Station Road,,,,opp,,S,ES001490,Garmouth,,,,,,,false,UKOS,333552,864162,-3.11535,57.66242,BCT,MKD,OTH,,,,131,2006-07-26T00:00:00,2013-02-04T11:45:00,2,new,active
638055282,67924962,,,Church Street,,,,Church Street,,Grant Street,,,,at,,W,ES000501,Burghead,,,Burghead,EN,,,false,UKOS,310994,869076,-3.49512,57.70265,BCT,MKD,OTH,,,,131,2007-12-18T00:00:00,2013-02-07T15:35:00,2,new,active
638050321,67923476,,,Linkwood Close,,,,Linkwood Close,,Thornhill Road,,,,at,,SW,ES002774,New Elgin,Elgin,,Elgin,EN,New Elgin,EN,false,UKOS,322871,861656,-3.29352,57.63821,BCT,MKD,OTH,,,,131,2003-09-10T00:00:00,2013-02-05T14:23:00,3,new,active
638053491,67923295,,,Fulmar Road,,,,Fulmar Road,,Munro Place,,,,at,,S,ES000364,Bishopmill,Elgin,,Elgin,EN,Bishopmill,EN,false,UKOS,321736,864021,-3.31329,57.65925,BCT,MKD,OTH,,,,131,2003-09-02T00:00:00,2013-02-05T16:00:00,1,new,active
638063251,67924526,,,Lodge,,,,Lodge,,A941,,,,at,,SW,N0066948,Craigellachie,,,Craigellachie,EN,-,EN,false,UKOS,328763,844929,-3.18995,57.48897,BCT,CUS,OTH,,,,131,2004-11-19T00:00:00,2013-02-01T14:25:00,5,new,active
638050992,67923868,,,Garden Lane,,,,Garden Lane,,Lennox Place,,,,at,,E,ES003060,Portgordon,,,Portgordon,EN,-,EN,false,UKOS,339224,864185,-3.02031,57.66343,BCT,MKD,OTH,,,,131,2003-09-10T00:00:00,2013-02-05T14:33:00,1,new,active
638052951,67923568,,,Church Road,,,,Church Road,,B9012,,,,at,,E,ES001083,Duffus,,,Duffus,EN,-,EN,false,UKOS,316826,868557,-3.39712,57.6991,BCT,MKD,OTH,,,,131,2003-09-04T00:00:00,2013-02-04T15:23:00,2,new,active
638052942,67923583,,,Church Road,,,,Church Road,,B9012,,,,opp,,W,ES001083,Duffus,,,Duffus,EN,-,EN,false,UKOS,316944,868594,-3.39515,57.69946,BCT,MKD,OTH,,,,131,2003-09-11T00:00:00,2013-02-04T15:23:00,1,new,active
638052332,67923824,,,Main Street,,,,Main Street,,,,,,at,,S,N0066834,Tomintoul,,,Tomintoul,EN,-,EN,false,UKOS,316914,818664,-3.37866,57.25109,BCT,MKD,OTH,,,,131,2003-09-08T00:00:00,2013-02-07T11:23:00,2,new,active
638052261,67924389,,,South Lane,,,,South Lane,,Unclassified Road,,,,at,,N,N0066989,Archiestown,,,Archiestown,EN,-,EN,false,UKOS,322960,844040,-3.28644,57.48003,BCT,MKD,OTH,,,,131,2004-11-19T00:00:00,2013-02-07T11:18:00,2,new,active
638055471,67924949,,,Stonecross Hill,,,,Stonecross Hill,,Reiket Lane,,,,opp,,NE,ES001294,Elgin,,,Elgin,EN,New Elgin,EN,false,UKOS,323464,862324,-3.2838,57.64431,BCT,MKD,OTH,,,,131,2007-12-17T00:00:00,2013-02-06T11:59:00,3,new,active
638050171,67923526,,,Braelossie Place,,,,Braelossie Place,,West Road,,,,opp,,E,ES001294,Elgin,,,Elgin,EN,West End,EN,false,UKOS,320541,862704,-3.33288,57.64722,BCT,MKD,OTH,,,,131,2003-09-03T00:00:00,2013-02-07T15:01:00,1,new,active
638050172,67923527,,,Braelossie Place,,,,Braelossie Place,,West Road,,,,at,,W,ES001294,Elgin,,,Elgin,EN,West End,EN,false,UKOS,320670,862654,-3.3307,57.64679,BCT,MKD,OTH,,,,131,2003-09-03T00:00:00,2013-02-07T15:01:00,1,new,active
638051171,67923694,,,Speedie Burn,,,,Speedie Burn,,A96,,,,at,,W,ES001428,Forres,,,Forres,EN,-,EN,false,UKOS,299899,857560,-3.67643,57.59692,BCT,MKD,OTH,,,,131,2003-09-05T00:00:00,2013-02-13T10:48:00,2,new,active
638055192,67924846,,,Ardach Medical Centre,,,,Ardach Medical Centre,,Highfield Road,,,,at,,NE,ES000495,Buckie,,,,,,,false,UKOS,342514,865020,-2.96538,57.67136,BCT,MKD,OTH,,,,131,2006-07-18T00:00:00,2013-02-28T15:14:00,4,new,active
638063661,67924262,,,Ardach Medical Centre,,,,Ardach Medical Centre,,Highfield Road,,,,at,,NE,ES000495,Buckie,,,Buckie,EN,-,EN,false,UKOS,342512,865025,-2.96541,57.67141,BCT,CUS,OTH,,,,131,2003-09-09T00:00:00,2015-10-13T10:40:06,7,new,active
638063921,67924242,,,Bankers Lane,,,,Bankers Lane,,Land Street,,,,opp,,N,ES001929,Keith,,,Keith,EN,-,EN,false,UKOS,343118,850642,-2.95187,57.54231,BCT,CUS,OTH,,,,131,2003-09-08T00:00:00,2013-02-08T09:28:00,5,new,active
638050184,67925472,,,Cumming Circle,,,,Cumming Circle,,Bain Avenue,,,,opp,,E,ES001294,Elgin,,,Elgin,EN,,,false,UKOS,323468,861752,-3.28356,57.63918,BCT,MKD,OTH,,,,131,2016-04-21T00:00:00,2016-04-21T13:57:42,0,new,active
638050185,67925483,,,Hossack Drive,,,,Hossack Drive,,McMillan Avenue,,,,opp,,NW,ES001294,Elgin,,,Elgin,EN,,,false,UKOS,323542,861845,-3.28235,57.64002,BCT,MKD,OTH,,,,131,2016-04-21T00:00:00,2016-04-21T13:59:48,0,new,active
638050833,67925457,,,Strathlene,,,,Caravan Park,,A942,,,,opp,,NE,ES001385,Findochty,,,,,,,false,UKOS,344681,866844,-2.92948,57.68802,BCT,MKD,OTH,,,,131,2015-07-24T00:00:00,2015-07-24T13:20:42,0,new,active
638055191,67924926,,,Highfield Road,,,,Highfield Road,,Cameron Crescent,,,,adj,,NE,ES000495,Buckie,,,,,,,false,UKOS,342496,864857,-2.96564,57.6699,BCT,MKD,OTH,,,,131,2007-03-27T00:00:00,2013-02-13T09:50:00,2,new,active
638055212,67924853,,,Trinity Road,,,,Boroughbriggs Road,,Trinity Road,,,,adj,,E,ES001294,Elgin,,,,,,,false,UKOS,321483,863218,-3.31727,57.652,BCT,MKD,OTH,,,,131,2006-07-26T00:00:00,2011-12-22T13:46:00,3,new,active
638055211,67924924,,,Trinity Road,,,,Trinity Road,,Boroughbriggs Road,,,,at,,W,ES001294,Elgin,,,,,,,false,UKOS,321416,863186,-3.31838,57.6517,BCT,MKD,OTH,,,,131,2007-01-15T00:00:00,2013-02-07T13:55:00,4,new,active
638055141,67924837,,,Samson Avenue,,,,Samson Avenue,,Craigbo Terrace,,,,at,,SE,N0066851,Portessie,,,Portessie,EN,,,false,UKOS,343677,866216,-2.94616,57.68225,BCT,MKD,OTH,,,,131,2006-07-18T00:00:00,2013-02-28T15:02:00,6,new,active
638055201,67924847,,,Samson Avenue,,,,Samson Avenue,,Samson Avenue,,,,at,,S,N0066851,Portessie,,,Portessie,EN,,,false,UKOS,343902,866301,-2.94241,57.68304,BCT,MKD,OTH,,,,131,2006-07-18T00:00:00,2013-02-28T13:31:00,5,new,active
638055151,67924838,,,Victoria Street,,,,Victoria Street,,Chancellor Road,,,,at,,SW,N0066851,Portessie,,,,,,,false,UKOS,344297,866525,-2.93584,57.6851,BCT,MKD,OTH,,,,131,2006-07-18T00:00:00,2013-02-07T14:14:00,2,new,active
638064131,67924267,,,School Road,,,,School Road,,Chancellor Road,,,,at,,S,N0066851,Portessie,,,Buckie,EN,Portessie,EN,false,UKOS,343994,866391,-2.94089,57.68386,BCT,CUS,OTH,,,,131,2003-09-09T00:00:00,2012-12-10T09:47:00,2,new,active
638055161,67924839,,,School Road,,,,School Road,,Chancellor Road,,,,adj,,W,N0066851,Portessie,,,,,,,false,UKOS,344093,866439,-2.93924,57.68431,BCT,MKD,OTH,,,,131,2006-07-18T00:00:00,2013-02-06T13:07:00,1,new,active
638055171,67924843,,,Burnbank,,,,Burnbank,,Steinbeck Road,,,,opp,,W,ES000495,Buckie,,,,,,,false,UKOS,342839,864915,-2.95991,57.67046,BCT,MKD,OTH,,,,131,2006-07-18T00:00:00,2013-02-04T13:48:00,1,new,active
638055181,67924845,,,Spey Drive,,,,Spey Drive,,Steinbeck Road,,,,opp,,W,ES000495,Buckie,,,,,,,false,UKOS,342695,864851,-2.9623,57.66987,BCT,MKD,OTH,,,,131,2006-07-18T00:00:00,2013-02-06T13:59:00,2,new,active
638055241,67924862,,,Hedge Road,,,,Hedge Road,,Station Road,,,,opp,,NE,ES001490,Garmouth,,,,,,,false,UKOS,333656,864315,-3.11365,57.66381,BCT,MKD,OTH,,,,131,2006-07-26T00:00:00,2013-02-04T11:46:00,3,new,active
638055261,67924864,,,Commercial Road,,,,Commercial Road,,Fruechny Road,,,,adj,,NW,ES000495,Buckie,,,,,,,false,UKOS,343286,866012,-2.95267,57.68037,BCT,MKD,OTH,,,,131,2006-07-26T00:00:00,2012-12-10T09:28:00,5,new,active
638055271,67924865,,,Harbour Office,,,,Harbour Office,,Commercial Road,,,,opp,,E,ES000495,Buckie,,,,,,,false,UKOS,343012,865938,-2.95725,57.67967,BCT,MKD,OTH,,,,131,2006-07-26T00:00:00,2013-02-06T09:52:00,2,new,active
638055272,67924867,,,Old Station Yard,,,,Old Station Yard,,Marine Place,,,,opp,,E,ES000495,Buckie,,,,,,,false,UKOS,342773,865828,-2.96123,57.67865,BCT,MKD,OTH,,,,131,2006-07-26T00:00:00,2013-02-06T09:47:00,2,new,active
638055281,67924868,,,Young Street,,,,Young Street,,Grant Street,,,,at,,W,ES000501,Burghead,,,,,,,false,UKOS,311083,869022,-3.49361,57.70218,BCT,MKD,OTH,,,,131,2006-07-26T00:00:00,2013-02-07T15:36:00,2,new,active
638055222,6794856,,,Haugh Road,,,,Haugh Road,,Boroughbriggs Road,,,,E-bound,,E,ES001294,Elgin,,,Elgin,EN,-,EN,false,UKOS,321211,863126,-3.3218,57.65113,BCT,MKD,OTH,,,,131,2006-07-26T00:00:00,2013-02-04T13:42:00,3,new,active
638055221,6794854,,,Haugh Road,,,,Haugh Road,,Boroughbriggs Road,,,,W-bound,,W,ES001294,Elgin,,,Elgin,EN,-,EN,false,UKOS,321227,863121,-3.32153,57.65108,BCT,MKD,OTH,,,,131,2006-07-26T00:00:00,2013-02-04T13:41:00,2,new,active
638055231,67924857,,,Bibby Place,,,,Bibby Place,,Haugh Road,,,,at,,N,ES001294,Elgin,,,,,,,false,UKOS,321201,862984,-3.32192,57.64985,BCT,MKD,OTH,,,,131,2006-07-26T00:00:00,2013-02-28T13:29:00,5,new,active
638055232,67924859,,,Bibby Place,,,,Bibby Place,,Haugh Road,,,,opp,,S,ES001294,Elgin,,,,,,,false,UKOS,321219,862968,-3.32161,57.64971,BCT,MKD,OTH,,,,131,2006-07-26T00:00:00,2013-02-28T13:29:00,2,new,active
638050791,67923947,,,Morven Crescent,,,,Morven Crescent,,Seaview Road,,,,at,,E,ES001385,Findochty,,,Findochty,EN,-,EN,false,UKOS,346364,867853,-2.90148,57.69728,BCT,MKD,OTH,,,,131,2003-09-10T00:00:00,2013-02-05T15:51:00,1,new,active
638055011,67924769,,,Morven Crescent,,,,Morven Crescent,,Seaview Road,,,,opp,,E,ES001385,Findochty,,,Findochty,EN,-,EN,false,UKOS,346337,867858,-2.90193,57.69732,BCT,MKD,OTH,,,,131,2003-11-13T00:00:00,2013-02-05T15:51:00,1,new,active
638050461,67923498,,,Golf View Crescent,,,,Golf View Crescent,,Springfield Road,,,,opp,,E,ES002774,New Elgin,Elgin,,Elgin,EN,New Elgin,EN,false,UKOS,321577,861407,-3.31511,57.63575,BCT,MKD,OTH,,,,131,2003-09-03T00:00:00,2013-02-04T12:16:00,1,new,active
638055021,67924796,,,Golf View Crescent,,,,Golf View Crescent,,Springfield Road,,,,at,,W,ES002774,New Elgin,Elgin,,,,,,false,UKOS,321590,861397,-3.31489,57.63567,BCT,MKD,OTH,,,,131,2006-07-18T00:00:00,2013-02-28T14:37:00,2,new,active
638055031,67924824,,,Cemetery,,,,Cemetery,,Linkwood Road,,,,at,,S,ES002774,New Elgin,Elgin,,,,,,false,UKOS,322733,861866,-3.2959,57.64007,BCT,MKD,OTH,,,,131,2006-07-18T00:00:00,2013-02-06T09:39:00,4,new,active
638055051,67924797,,,Wellington Street,,,,Wellington Street,,Regent Street,,,,at,,E,ES001929,Keith,,,,,,,false,UKOS,342731,850843,-2.95838,57.54407,BCT,MKD,OTH,,,,131,2006-07-18T00:00:00,2013-02-07T14:40:00,2,new,active
638055052,67924823,,,Wellington Street,,,,Wellington Street,,Regent Street,,,,opp,,W,ES001929,Keith,,,,,,,false,UKOS,342709,850838,-2.95875,57.54402,BCT,MKD,OTH,,,,131,2006-07-18T00:00:00,2013-02-07T14:40:00,1,new,active
638053811,67923678,,,School House,,,,School House,,Waterford Road,,,,at,,NE,N0066902,Kintessack,,,Kintessack,EN,-,EN,false,UKOS,300139,860264,-3.67353,57.62125,BCT,MKD,OTH,,,,131,2003-09-05T00:00:00,2013-02-06T13:05:00,3,new,active
638053821,67924352,,,Enterprise Park,,,,Enterprise Park,,Unclassified Road,,,,at,,N,ES001428,Forres,,,Forres,EN,-,EN,false,UKOS,306426,859548,-3.56804,57.61617,BCT,MKD,OTH,,,,131,2003-12-01T00:00:00,2012-12-10T15:54:00,2,new,active
638053831,67924543,,,Parkmore Farm,,,,Parkmore Farm,,B9014,,,,at,,SW,ES001082,Dufftown,,,Dufftown,EN,-,EN,false,UKOS,333540,841545,-3.10936,57.4593,BCT,MKD,OTH,,,,131,2004-11-19T00:00:00,2013-02-06T10:53:00,3,new,active
638050731,67923953,,,Seatown,,,,Seatown,,Castle Terrace,,,,NW-bound,,NW,ES000911,Cullen,,,Cullen,EN,-,EN,false,UKOS,350805,867141,-2.82684,57.6914,BCT,MKD,OTH,,,,131,2003-09-10T00:00:00,2012-12-06T13:37:00,1,new,active
638055001,67923954,,,Seatown,,,,Seatown,,Castle Terrace,,,,SE-bound,,SE,ES000911,Cullen,,,Cullen,EN,-,EN,false,UKOS,350836,867139,-2.82632,57.69138,BCT,MKD,OTH,,,,131,2003-09-10T00:00:00,2012-12-06T13:37:00,1,new,active
638055111,67924829,,,The Old School,,,,The Old School,,Unclassified Road,,,,at,,W,N0066868,Mulben,,,,,,,false,UKOS,335381,850718,-3.08112,57.54195,BCT,MKD,OTH,,,,131,2006-07-18T00:00:00,2012-12-05T15:30:00,4,new,active
638055121,67924834,,,Millfield Drive,,,,Millfield Drive,,East Road,,,,at,,E,ES001785,Hopeman,,,,,,,false,UKOS,315115,869390,-3.42611,57.70626,BCT,MKD,OTH,,,,131,2006-07-18T00:00:00,2013-02-05T15:41:00,1,new,active
638055122,67924973,,,Millfield Drive,,,,Millfield Drive,,B9012,,,,opp,,W,ES001785,Hopeman,,,,,,,false,UKOS,315075,869370,-3.42677,57.70608,BCT,MKD,OTH,,,,131,2006-07-18T00:00:00,2013-02-05T15:41:00,3,new,active
638055131,67924842,,,Brickfield,,,,Brickfield,,Hill Street,,,,opp,,N,N0066948,Craigellachie,,,,,,,false,UKOS,329082,844624,-3.18454,57.48628,BCT,MKD,OTH,,,,131,2006-07-18T00:00:00,2012-12-05T16:01:00,1,new,active
638065911,67924573,,,Mill House,,,,Bridge of Tynet,,A98,,,,at,,S,N0078407,Bridge of Tynet,,,Fochabers,EN,-,EN,false,UKOS,338387,861344,-3.03361,57.6378,BCT,CUS,OTH,,,,131,2004-11-19T00:00:00,2013-02-13T09:46:00,4,new,active
638063801,67924252,,,Burnside Crescent,,,,Burnside Crescent,,B9018,,,,at,,N,N0066979,Berryhillock,,,Deskford,EN,-,EN,false,UKOS,350352,861069,-2.83318,57.63681,BCT,CUS,OTH,,,,131,2003-09-11T00:00:00,2012-12-06T11:26:00,2,new,active
638055091,67924832,,,Burnside Crescent,,,,Burnside Crescent,,B9018,,,,opp,,N,N0066979,Berryhillock,,,,,,,false,UKOS,350347,861072,-2.83327,57.63684,BCT,MKD,OTH,,,,131,2006-07-18T00:00:00,2012-12-06T11:26:00,2,new,active
638052181,67924274,,,Seafield Hospital,,,,Seafield Hospital,,Barhill Road,,,,at,,NW,ES000495,Buckie,,,Buckie,EN,Buckpool,EN,false,UKOS,341611,864704,-2.98044,57.66841,BCT,MKD,OTH,,,,131,2003-09-09T00:00:00,2013-02-28T15:02:00,2,new,active
638055101,67924935,,,Seafield Hospital,,,,Seafield Hospital,,Barhill Road,,,,opp,,SE,ES000495,Buckie,,,,,,,false,UKOS,341622,864705,-2.98025,57.66842,BCT,MKD,OTH,,,,131,2007-08-17T00:00:00,2013-02-28T15:03:00,6,new,active
638061731,67924356,,,Grange Hall,,,,Grange Hall,,Unclassified Road,,,,at,,S,ES002120,Kinloss,,,Kinloss,EN,-,EN,false,UKOS,306425,860537,-3.56844,57.62505,BCT,MKD,OTH,,,,131,2003-12-01T00:00:00,2013-02-04T13:05:00,1,new,active
638061871,67924782,,,Belcherrie,,,,Belcherrie,,Unclassified Road,,,,at,,S,N0077221,Mains of Lesmurdie,,,Mains of Lesmurdie,EN,-,EN,false,UKOS,340097,834126,-2.99828,57.39359,BCT,MKD,OTH,,,,131,2003-08-19T00:00:00,2012-12-05T14:45:00,2,new,active
638062951,67924397,,,Knockdhu Distillery,,,,Knockdhu Distillery,,Unclassified Road,,,,at,,SE,N0066896,Knock,,,Milltown of Rothiemay,EN,-,EN,false,UKOS,354668,852790,-2.75935,57.56291,BCT,CUS,OTH,,,,131,2004-11-19T00:00:00,2013-02-07T11:01:00,4,new,active
638055481,67924953,,,Thornhill Road,,,,Thornhill Road,,Thornhill Road,,,,opp,,NE,ES002774,New Elgin,Elgin,,Elgin,EN,New Elgin,EN,false,UKOS,322820,861607,-3.29436,57.63776,BCT,MKD,OTH,,,,131,2007-12-17T00:00:00,2010-05-10T16:11:00,3,new,active
638055491,67924954,,,Langstane Place,,,,Langstane Place,,Robertson Drive,,,,at,,E,ES002774,New Elgin,Elgin,,Elgin,EN,New Elgin,EN,false,UKOS,322829,861649,-3.29422,57.63814,BCT,MKD,OTH,,,,131,2007-12-17T00:00:00,2013-02-01T14:04:00,1,new,active
638053511,67923475,,,Langstane Place,,,,Langstane Place,,Linkwood Road,,,,adj,,N,ES002774,New Elgin,Elgin,,Elgin,EN,New Elgin,EN,false,UKOS,322831,861741,-3.29422,57.63897,BCT,MKD,OTH,,,,131,2003-09-02T00:00:00,2014-07-25T13:59:00,2,new,active
638055501,67924957,,,Moray Leisure Centre,,,,Moray Leisure Centre,,,,,,at,,SW,ES001294,Elgin,,,Elgin,EN,,,false,UKOS,321089,863158,-3.32385,57.65139,BCT,MKD,OTH,,,,131,2007-12-17T00:00:00,2013-02-05T15:43:00,1,new,active
638061161,67924785,,,Mayen,,,,Mayen,,B9117,,,,at,,NE,N0066875,Milltown of Rothiemay,,,Milton of Rothiemay,EN,-,EN,false,UKOS,357502,847879,-2.71113,57.51908,BCT,MKD,OTH,,,,131,2003-08-20T00:00:00,2013-02-05T15:26:00,2,new,active
638062981,67924378,,,Green Acres,,,,Mundole,,Unclassified Road,,,,at,,N,N0078610,Mundole,,,A96,EN,-,EN,false,UKOS,301225,856883,-3.65398,57.59113,BCT,CUS,OTH,,,,131,2003-12-01T00:00:00,2013-02-04T13:17:00,4,new,active
638063011,67924398,,,Village Hall,,,,Village Hall,,A940,,,,opp,,N,ES003920,Edinkillie Hall,,,A940,EN,-,EN,false,UKOS,301431,848235,-3.64702,57.51353,BCT,CUS,OTH,,,,131,2004-11-19T00:00:00,2024-10-07T11:39:53,34,new,active
638063021,67924529,,,Church,,,,Church,,A940,,,,at,,SW,N0066890,Logie,,,A940,EN,-,EN,false,UKOS,301948,846597,-3.63774,57.49893,BCT,CUS,OTH,,,,131,2004-11-19T00:00:00,2024-10-07T11:24:17,40,new,active
638062961,67923973,,,Village Hall,,,,Village Hall,,B9016,,,,at,,N,N0066982,Aultmore,,,Aultmore,EN,-,EN,false,UKOS,340274,853237,-3.00001,57.56525,BCT,CUS,OTH,,,,131,2003-09-08T00:00:00,2013-02-07T14:19:00,2,new,active
638062963,67924974,,,Buckie Road End,,,,Buckie Road End,,A96,,,,opp,,NW,N0066982,Aultmore,,,Aultmore,EN,-,EN,false,UKOS,340341,852259,-2.99865,57.55647,BCT,CUS,OTH,,,,131,2008-09-25T00:00:00,2015-04-29T18:20:36,3,new,active
638062966,67925356,,,Buckie Road End,,,,Buckie Road End,,A96,,,,at,,SE,N0066982,Aultmore,,,Aultmore,EN,-,EN,false,UKOS,340353,852268,-2.99845,57.55656,BCT,MKD,OTH,,,,131,2015-04-29T00:00:00,2015-04-29T18:19:36,0,new,active
638062964,67925242,,,Forgie,,,,Forgie,,A96,,,,at,,NW,N0066982,Aultmore,,,Aultmore,EN,-,EN,false,UKOS,339219,853650,-3.01775,57.56882,BCT,CUS,OTH,,,,131,2008-09-25T00:00:00,2013-02-28T14:36:00,2,new,active
638062962,67925354,,,Forgie,,,,Forgie,,A96,,,,opp,,SE,N0066982,Aultmore,,,Aultmore,EN,-,EN,false,UKOS,339232,853650,-3.01753,57.56882,BCT,MKD,OTH,,,,131,2015-04-29T00:00:00,2015-04-29T18:15:48,0,new,active
638062965,67925274,,,Aulthash,,,,Aulthash,,A96,,,,NW-bound,,NW,N0066982,Aultmore,,,Fochabers,EN,-,EN,false,UKOS,337492,855683,-3.04714,57.58684,BCT,CUS,OTH,,,,131,2008-09-25T00:00:00,2013-08-07T09:54:00,3,new,active
638062971,67923737,,,Academy,,,,Academy,,Sanquhar Road,,,,at,,W,ES001428,Forres,,,Forres,EN,-,EN,false,UKOS,303751,858282,-3.6123,57.60424,BCT,CUS,OTH,,,,131,2003-09-08T00:00:00,2012-12-10T15:52:00,2,new,active
638055351,67924928,,,Nelson Road,,,,Nelson Road,,St Leonard's Road,,,,opp,,E,ES001428,Forres,,,Forres,EN,,,false,UKOS,304120,858718,-3.6063,57.60823,BCT,MKD,OTH,,,,131,2007-11-28T00:00:00,2013-02-06T08:46:00,2,new,active
638055361,67924932,,,Adam Drive,,,,Adam Drive,,St Leonard's Road,,,,opp,,E,ES001428,Forres,,,Forres,EN,,,false,UKOS,304414,858566,-3.60132,57.60693,BCT,MKD,OTH,,,,131,2007-11-28T00:00:00,2012-12-05T13:48:00,3,new,active
638055371,67924936,,,South Street,,,,South Street,,St Leonard's Road,,,,adj,,E,ES001428,Forres,,,Forres,EN,,,false,UKOS,303909,858800,-3.60986,57.60892,BCT,MKD,OTH,,,,131,2007-11-28T00:00:00,2013-02-13T09:49:00,3,new,active
638055391,67924934,,,Castle Street,,,,Castle Street,,Orchard Road,,,,adj,,E,ES001428,Forres,,,Forres,EN,,,false,UKOS,303470,858602,-3.61712,57.60705,BCT,MKD,OTH,,,,131,2007-11-28T00:00:00,2013-02-28T15:18:00,5,new,active
638055392,67924942,,,Castle Street,,,,Castle Street,,Orchard Road,,,,at,,W,ES001428,Forres,,,Forres,EN,,,false,UKOS,303475,858594,-3.61704,57.60698,BCT,MKD,OTH,,,,131,2007-11-28T00:00:00,2012-12-06T11:51:00,2,new,active
638055311,67924873,,,Bogton Road,,,,Bogton Road,,Bogton Road,,,,at,,E,ES001428,Forres,,,,,,,false,UKOS,303822,859239,-3.61149,57.61285,BCT,MKD,OTH,,,,131,2006-07-26T00:00:00,2013-02-08T09:00:00,3,new,active
638055301,67924872,,,Bogton Road,,,,Bogton Road,,Russell Place,,,,adj,,N,ES001428,Forres,,,,,,,false,UKOS,304037,859263,-3.6079,57.61311,BCT,MKD,OTH,,,,131,2006-07-26T00:00:00,2013-02-08T09:01:00,5,new,active
638055321,67924874,,,Mossett Park,,,,Mossett Park,,Bogton Road,,,,opp,,W,ES001428,Forres,,,,,,,false,UKOS,303711,859218,-3.61334,57.61263,BCT,MKD,OTH,,,,131,2006-07-26T00:00:00,2013-02-05T15:57:00,2,new,active
638055331,67924875,,,Mossett Grove,,,,Mossett Grove,,Invererne Road,,,,opp,,S,ES001428,Forres,,,,,,,false,UKOS,303417,859054,-3.61819,57.6111,BCT,MKD,OTH,,,,131,2006-07-26T00:00:00,2013-02-05T15:54:00,2,new,active
638055341,67924876,,,Market Green,,,,Market Green,,Invererne Road,,,,opp,,S,ES001428,Forres,,,,,,,false,UKOS,303383,858868,-3.61869,57.60942,BCT,MKD,OTH,,,,131,2006-07-26T00:00:00,2013-02-28T14:59:00,2,new,active
638055431,67924943,,,Kimberley Inn,,,,Kimberley Inn,,B9011,,,,opp,,N,ES001382,Findhorn,,,Findhorn,EN,,,false,UKOS,303921,864397,-3.61188,57.65918,BCT,MKD,OTH,,,,131,2007-12-17T00:00:00,2013-02-04T15:53:00,1,new,active
638055441,67924946,,,Hill Street,,,,Hill Street,,Pitgaveney Street,,,,at,,N,ES002496,Lossiemouth,,,Lossiemouth,EN,,,false,UKOS,323820,870865,-3.28054,57.72107,BCT,MKD,OTH,,,,131,2007-12-17T00:00:00,2013-02-06T11:07:00,2,new,active
638055442,67924952,,,Hill Street,,,,Hill Street,,Pitgaveney Street,,,,opp,,S,ES002496,Lossiemouth,,,Lossiemouth,EN,,,false,UKOS,323821,870811,-3.28051,57.72059,BCT,MKD,OTH,,,,131,2007-12-17T00:00:00,2013-02-06T11:08:00,1,new,active
638055451,67924947,,,Taylor Court,,,,Taylor Court,,Sellar Place,,,,at,,NW,ES000029,Aberlour,,,Aberlour,EN,,,false,UKOS,325973,842326,-3.23569,57.46514,BCT,MKD,OTH,,,,131,2007-12-17T00:00:00,2013-02-06T13:14:00,2,new,active
638055461,67924948,,,Bells Brae,,,,Bells Brae,,Station Road,,,,opp,,S,ES003757,Urquhart,,,Urquhart,EN,,,false,UKOS,328840,862830,-3.19392,57.64974,BCT,MKD,OTH,,,,131,2007-12-17T00:00:00,2013-02-06T15:29:00,1,new,active
638055401,67924937,,,Railway Station,,,,Railway Station,,,,,,at,,S,ES001428,Forres,,,Forres,EN,,,false,UKOS,303018,859075,-3.62487,57.6112,BCT,MKD,OTH,,,,131,2007-12-17T00:00:00,2013-02-06T11:31:00,5,new,active
638055412,67924945,,,Manse Road,,,,Manse Road,,B9011,,,,at,,SE,ES002120,Kinloss,,,Kinloss,EN,,,false,UKOS,306175,861876,-3.57314,57.63702,BCT,MKD,OTH,,,,131,2007-12-17T00:00:00,2013-02-28T15:10:00,3,new,active
638055421,67924939,,,Gordon Street,,,,Gordon Street,,Birnie Road,,,,adj,,SE,ES002774,New Elgin,Elgin,,Elgin,EN,New Elgin,EN,false,UKOS,322104,861189,-3.30621,57.63389,BCT,MKD,OTH,,,,131,2007-12-17T00:00:00,2012-12-05T14:50:00,1,new,active
638053301,67924264,,,Yuill Avenue,,,,Yuill Avenue,,Well Road,,,,opp,,E,ES000495,Buckie,,,Buckie,EN,-,EN,false,UKOS,343014,865365,-2.95708,57.67452,BCT,MKD,OTH,,,,131,2003-09-09T00:00:00,2013-02-07T15:36:00,1,new,active
638053332,67924245,,,Alexandra Road,,,,Alexandra Road,,Station Road,,,,opp,,N,ES001929,Keith,,,Fife Keith,EN,-,EN,false,UKOS,342608,850943,-2.96046,57.54495,BCT,MKD,OTH,,,,131,2003-09-08T00:00:00,2013-02-06T15:20:00,1,new,active
638053331,67924243,,,Alexandra Road,,,,Alexandra Road,,,,,,at,,S,ES001929,Keith,,,Fife Keith,EN,-,EN,false,UKOS,342592,850944,-2.96073,57.54495,BCT,MKD,OTH,,,,131,2003-09-11T00:00:00,2013-02-06T15:19:00,1,new,active
638053251,67924247,,,The Square,,,,The Square,,,,,,at,,NW,N0066860,Newmill,Keith,,Newmill,EN,-,EN,false,UKOS,343495,852541,-2.94602,57.55941,BCT,MKD,OTH,,,,131,2003-09-08T00:00:00,2013-02-07T11:39:00,2,new,active
638053261,67924345,,,Ewing Howe,,,,Ewing Howe,,Manitoba Avenue,,,,opp,,S,ES001294,Elgin,,,Elgin,EN,-,EN,false,UKOS,323146,861944,-3.28901,57.64085,BCT,MKD,OTH,,,,131,2003-12-01T00:00:00,2012-12-10T13:51:00,1,new,active
638053272,67924324,,,Clarenden Court,,,,Clarenden Court,,Manitoba Avenue,,,,at,,NE,ES001294,Elgin,,,Elgin,EN,-,EN,false,UKOS,322982,862043,-3.29179,57.64171,BCT,MKD,OTH,,,,131,2003-12-01T00:00:00,2013-02-04T09:50:00,2,new,active
638053271,67924323,,,Clarenden Court,,,,Clarenden Court,,Manitoba Avenue,,,,opp,,SW,ES001294,Elgin,,,Elgin,EN,-,EN,false,UKOS,323004,862050,-3.29142,57.64177,BCT,MKD,OTH,,,,131,2003-12-01T00:00:00,2012-12-10T09:07:00,3,new,active
638053291,67924263,,,Mill Crescent,,,,Mill Crescent,,Harbour Street,,,,at,,S,ES000495,Buckie,,,Buckie,EN,-,EN,false,UKOS,343023,865594,-2.95698,57.67658,BCT,MKD,OTH,,,,131,2003-09-09T00:00:00,2013-02-04T13:20:00,1,new,active
638053381,67923964,,,Ontario Court,,,,Ontario Court,,Manitoba Avenue,,,,opp,,S,ES002774,New Elgin,Elgin,,,,,,false,UKOS,323022,861906,-3.29107,57.64048,BCT,MKD,OTH,,,,131,2003-09-08T00:00:00,2013-02-06T09:53:00,4,new,active
638053382,67924759,,,Ontario Court,,,,Ontario Court,,Manitoba Avenue,,,,at,,NW,ES001294,Elgin,,,Elgin,EN,-,EN,false,UKOS,323018,861879,-3.29113,57.64024,BCT,MKD,OTH,,,,131,2003-11-13T00:00:00,2013-02-06T09:54:00,4,new,active
638053391,67924325,,,Village Hall,,,,Village Hall,,B9013,,,,opp,,NE,N0080102,College of Roseisle,,,Roseisle,EN,-,EN,false,UKOS,313706,866457,-3.44869,57.67966,BCT,MKD,OTH,,,,131,2003-12-01T00:00:00,2013-02-22T09:57:00,5,new,active
638053392,67924326,,,Village Hall,,,,Village Hall,,B9013,,,,at,,SW,N0080102,College of Roseisle,,,Roseisle,EN,-,EN,false,UKOS,313702,866445,-3.44876,57.67955,BCT,MKD,OTH,,,,131,2003-12-01T00:00:00,2013-02-22T09:58:00,4,new,active
638053411,67923934,,,Richmond Street,,,,Richmond Street,,Rathburn Street,,,,at,,E,ES000495,Buckie,,,Buckie,EN,-,EN,false,UKOS,343470,866143,-2.94962,57.68157,BCT,MKD,OTH,,,,131,2003-09-10T00:00:00,2013-02-06T12:01:00,1,new,active
638053371,67923926,,,Cliff Street,,,,Cliff Street,,East Church Street,,,,opp,,E,ES000495,Buckie,,,Buckie,EN,-,EN,false,UKOS,342928,865794,-2.95862,57.67837,BCT,MKD,OTH,,,,131,2003-09-10T00:00:00,2012-12-10T09:13:00,1,new,active
638053372,67923927,,,Cliff Street,,,,Cliff Street,,East Church Street,,,,at,,W,ES000495,Buckie,,,Buckie,EN,-,EN,false,UKOS,343043,865805,-2.9567,57.67848,BCT,MKD,OTH,,,,131,2003-09-10T00:00:00,2012-12-10T09:14:00,1,new,active
638053091,67923637,,,Spynie Hospital,,,,Spynie Hospital,,Burghead Road,,,,opp,,W,ES000364,Bishopmill,Elgin,,Elgin,EN,Spynie,EN,false,UKOS,320634,863842,-3.3317,57.65745,BCT,MKD,OTH,,,,131,2003-09-05T00:00:00,2013-02-06T14:02:00,2,new,active
638053092,67923636,,,Spynie Hospital,,,,Spynie Hospital,,Burghead Road,,,,at,,E,ES000364,Bishopmill,Elgin,,Elgin,EN,Spynie,EN,false,UKOS,320682,863861,-3.3309,57.65763,BCT,MKD,OTH,,,,131,2003-09-05T00:00:00,2013-02-06T14:04:00,2,new,active
638053102,67923293,,,Covesea Road,,,,Covesea Road,,Lossiemouth Road,,,,opp,,N,ES000364,Bishopmill,Elgin,,Elgin,EN,Bishopmill,EN,false,UKOS,321737,864095,-3.3133,57.65992,BCT,MKD,OTH,,,,131,2003-09-02T00:00:00,2012-12-10T09:38:00,4,new,active
638053101,67923294,,,Covesea Road,,,,Covesea Road,,Lossiemouth Road,,,,at,,S,ES000364,Bishopmill,Elgin,,Elgin,EN,Bishopmill,EN,false,UKOS,321735,864134,-3.31335,57.66027,BCT,MKD,OTH,,,,131,2003-09-02T00:00:00,2012-12-10T09:38:00,4,new,active
638053111,67923429,,,Esmonde Gardens,,,,Esmonde Gardens,,Lossiemouth Road,,,,at,,N,ES000364,Bishopmill,Elgin,,Elgin,EN,Bishopmill,EN,false,UKOS,321778,864377,-3.31271,57.66246,BCT,MKD,OTH,,,,131,2003-09-02T00:00:00,2012-12-10T13:50:00,2,new,active
638053112,67923428,,,Esmonde Gardens,,,,Esmonde Gardens,,Lossiemouth Road,,,,opp,,S,ES000364,Bishopmill,Elgin,,Elgin,EN,Bishopmill,EN,false,UKOS,321797,864363,-3.31238,57.66234,BCT,MKD,OTH,,,,131,2003-09-02T00:00:00,2012-12-10T13:50:00,3,new,active
638053071,67923629,,,Caroline Street,,,,Caroline Street,,Morriston Road,,,,adj,,E,ES000364,Bishopmill,Elgin,,Elgin,EN,Bishopmill,EN,false,UKOS,321384,863736,-3.3191,57.65663,BCT,MKD,OTH,,,,131,2003-09-04T00:00:00,2012-12-06T11:46:00,2,new,active
638053072,67923632,,,Caroline Street,,,,Caroline Street,,Morriston Road,,,,opp,,W,ES000364,Bishopmill,Elgin,,Elgin,EN,Bishopmill,EN,false,UKOS,321314,863746,-3.32027,57.65671,BCT,MKD,OTH,,,,131,2003-09-04T00:00:00,2012-12-06T11:46:00,1,new,active
638053082,67923634,,,Beach Brae,,,,Beach Brae,,Burghead Road,,,,at,,E,ES000364,Bishopmill,Elgin,,Elgin,EN,Bishopmill,EN,false,UKOS,321064,863756,-3.32447,57.65676,BCT,MKD,OTH,,,,131,2003-09-04T00:00:00,2013-02-04T09:47:00,2,new,active
638053081,67923635,,,Beach Brae,,,,Beach Brae,,Burghead Road,,,,opp,,W,ES000364,Bishopmill,Elgin,,Elgin,EN,Bishopmill,EN,false,UKOS,321016,863746,-3.32527,57.65666,BCT,MKD,OTH,,,,131,2003-09-05T00:00:00,2013-02-04T09:47:00,2,new,active
638067271,67924858,,,Logie's Lane,,,,Logie's Lane,,Low Street,,,,opp,,E,ES000495,Buckie,,,Buckie,EN,,,false,UKOS,342618,865766,-2.96381,57.67808,BCT,CUS,OTH,,,,131,2006-05-04T00:00:00,2013-02-05T14:51:00,2,new,active
638066381,67924587,,,Broadley,,,,Broadley,,Unclassified Road,,,,at,,W,ES000495,Buckie,,,Buckie,EN,-,EN,false,UKOS,339516,861759,-3.01481,57.64168,BCT,CUS,OTH,,,,131,2004-11-19T00:00:00,2012-12-05T16:14:00,3,new,active
638066551,67924598,,,Tugnet House,,,,Tugnet House,,B9101,,,,at,,E,N0066842,Spey Bay,,,Spey Bay,EN,-,EN,false,UKOS,334994,865371,-3.09152,57.67349,BCT,CUS,OTH,,,,131,2004-11-19T00:00:00,2013-02-07T13:57:00,2,new,active
638066562,67925367,,,Station,,,,Station,,Station Road,,,,opp,,N,ES001082,Dufftown,,,Dufftown,EN,-,EN,false,UKOS,332192,841457,-3.1318,57.45831,BCT,MKD,OTH,,,,131,2015-04-30T00:00:00,2015-04-30T11:26:18,0,new,active
638066561,67924627,,,Station,,,,Station,,Station Road,,,,at,,S,ES001082,Dufftown,,,Dufftown,EN,-,EN,false,UKOS,332203,841429,-3.13161,57.45806,BCT,CUS,OTH,,,,131,2004-11-19T00:00:00,2012-12-10T13:12:00,1,new,active
638066571,67924656,,,War Memorial,,,,War Memorial,,,,,,opp,,S,N0066833,Tomnavoulin,,,Tomnavoulin,EN,-,EN,false,UKOS,321127,826065,-3.31122,57.3183,BCT,CUS,OTH,,,,131,2004-11-19T00:00:00,2013-02-07T14:33:00,3,new,active
638067431,67924897,,,The Muir,,,,The Muir,,Bogmoor Road,,,,at,,NW,N0066975,Bogmoor,,,,,,,false,UKOS,335688,863027,-3.07926,57.65254,BCT,CUS,OTH,,,,131,2006-07-27T00:00:00,2013-02-07T14:37:00,2,new,active
638067451,67924925,,,Lochpark Road End,,,,Lochpark Road End,,,,,,opp,,SW,N0066935,Drummuir,,,,,,,false,UKOS,336946,843548,-3.05312,57.47778,BCT,CUS,OTH,,,,131,2007-01-15T00:00:00,2013-02-05T14:45:00,6,new,active
638067471,67924965,,,Abbeylands Road,,,,Abbeylands Road,,Unclassified Road,,,,at,,E,N0077229,Pluscarden,,,Pluscarden,EN,,,false,UKOS,314349,857324,-3.43468,57.59777,BCT,CUS,OTH,,,,131,2006-07-27T00:00:00,2012-12-05T14:40:00,6,new,active
638067301,67924878,,,Castle Street,,,,Castle Street,,Burdsyard Road,,,,opp,,W,ES001428,Forres,,,Forres,EN,,,false,UKOS,303700,858249,-3.61314,57.60393,BCT,CUS,OTH,,,,131,2006-07-26T00:00:00,2012-12-06T11:22:00,2,new,active
638067351,67924892,,,Mannochmore,,,,Mannochmore,,Glenlossie Road,,,,at,,NE,N0080109,Thomshill,,,,,,,false,UKOS,321316,857517,-3.31821,57.60078,BCT,CUS,OTH,,,,131,2006-07-27T00:00:00,2013-02-28T15:12:00,5,new,active
638067361,67924893,,,County Houses,,,,Country Houses,,Unclassified Road,,,,opp,,S,N0066958,Clackmarras,,,,,Clackmarras,EN,false,UKOS,324710,858399,-3.26171,57.60928,BCT,CUS,OTH,,,,131,2006-07-27T00:00:00,2012-12-10T09:05:00,3,new,active
638067391,67924895,,,Main Road,,,,Main Road,,Bede Road,,,,adj,,S,ES003119,Rathven,Buckie,,,,,,false,UKOS,344316,865740,-2.93534,57.67806,BCT,CUS,OTH,,,,131,2006-07-27T00:00:00,2013-02-05T15:12:00,1,new,active
638064311,67924342,,,Duffushillock,,,,Duffushillock,,Unclassified Road,,,,at,,NE,ES001294,Elgin,,,Duffushillock,EN,-,EN,false,UKOS,320860,858986,-3.32632,57.61389,BCT,CUS,OTH,,,,131,2003-12-01T00:00:00,2013-02-08T09:40:00,4,new,active
638055142,67967924,,,Craigbo Terrace,,,,Craigbo Terrace,,Craigbo Terrace,,,,at,,S,N0066851,Portessie,,,,,,,false,UKOS,343751,866362,-2.94496,57.68357,BCT,MKD,OTH,,,,131,2006-07-26T00:00:00,2013-02-28T15:01:00,4,new,active
638063631,67924269,,,Craigbo Terrace,,,,Craigbo Terrace,,Craigbo Terrace,,,,opp,,E,N0066851,Portessie,,,Buckie,EN,Portessie,EN,false,UKOS,343818,866406,-2.94385,57.68397,BCT,CUS,OTH,,,,131,2003-09-09T00:00:00,2012-12-10T09:45:00,2,new,active
638063641,67924265,,,Bede Road,,,,Bede Road,,Main Road,,,,adj,,E,ES003119,Rathven,Buckie,,Rathven,EN,-,EN,false,UKOS,344200,865720,-2.93728,57.67786,BCT,CUS,OTH,,,,131,2003-09-09T00:00:00,2012-12-05T14:44:00,2,new,active
638063651,67924349,,,Bus Depot,,,,Bus Depot,,North Road,,,,at,,NE,ES001428,Forres,,,Forres,EN,-,EN,false,UKOS,303585,859013,-3.61536,57.61077,BCT,CUS,OTH,,,,131,2003-12-01T00:00:00,2012-12-06T11:29:00,3,new,active
638063671,67924374,,,Pinewood Road,,,,Pinewood Road,,Garmouth Road,,,,at,,N,ES002693,Mosstodloch,,,A96,EN,-,EN,false,UKOS,332860,860022,-3.1258,57.62514,BCT,CUS,OTH,,,,131,2003-12-01T00:00:00,2013-02-06T11:02:00,5,new,active
638063581,67923765,,,Ballintomb,,,,Ballintomb,,B9102,,,,at,,W,N0066989,Archiestown,,,Archiestown,EN,-,EN,false,UKOS,321977,843991,-3.30281,57.47943,BCT,CUS,OTH,,,,131,2003-09-09T00:00:00,2012-12-05T14:28:00,1,new,active
638063591,67923768,,,Old Post Office,,,,Old Post Office,,,,,,at,,S,N0077223,Upper Knockando,,,Upper Knockando,EN,-,EN,false,UKOS,318026,842996,-3.36835,57.46979,BCT,CUS,OTH,,,,131,2003-09-09T00:00:00,2013-02-06T09:46:00,3,new,active
638063601,67924539,,,Tamdhu Distillery,,,,Tamdhu Distillery,,,,,,at,,W,ES002240,Knockando,,,Knockando,EN,-,EN,false,UKOS,319150,841785,-3.34921,57.45912,BCT,CUS,OTH,,,,131,2004-11-19T00:00:00,2013-02-06T11:17:00,2,new,active
638063611,67923783,,,Post Office,,,,Post Office,,Unclassified Road,,,,at,,N,N0066959,Carron,,,Carron,EN,-,EN,false,UKOS,322093,841449,-3.30007,57.45662,BCT,CUS,OTH,,,,131,2003-09-09T00:00:00,2013-02-06T11:15:00,4,new,active
638067381,67924894,,,Post Office,,,,Post Office,,Unclassified Road,,,,opp,,S,N0066959,Carron,,,,,,,false,UKOS,322100,841447,-3.29995,57.4566,BCT,CUS,OTH,,,,131,2006-07-27T00:00:00,2013-02-28T14:32:00,2,new,active
638063621,67923746,,,Manachie Road,,,,Manachie Road,,,,,,adj,,NW,ES001428,Forres,,,Forres,EN,-,EN,false,UKOS,303506,857701,-3.61616,57.59897,BCT,CUS,OTH,,,,131,2003-09-08T00:00:00,2013-02-05T15:14:00,2,new,active
638063716,67925236,,,Downan Church Yard,,,,Downan Church Yard,,,,,,opp,,NW,ES001607,Glenlivet,,,Downan,EN,-,EN,false,UKOS,318877,830202,-3.34993,57.35505,BCT,CUS,OTH,,,,131,2008-09-25T00:00:00,2013-08-07T09:50:00,4,new,active
638063717,67925239,,,Craggan,,,,Craggan,,,,,,at,,N,N0077206,Delnashaugh,,,Craggan,EN,-,EN,false,UKOS,318693,832186,-3.35364,57.37284,BCT,CUS,OTH,,,,131,2008-09-25T00:00:00,2013-08-07T09:48:00,3,new,active
638063718,67925243,,,Dalchirach,,,,Dalchirach,,,,,,at,,N,N0077206,Delnashaugh,,,Dalchirach,EN,-,EN,false,UKOS,319164,834151,-3.34646,57.39057,BCT,CUS,OTH,,,,131,2008-09-25T00:00:00,2012-12-10T10:31:00,3,new,active
638063719,67925237,,,Ballindalloch Castle,,,,Ballindalloch Castle,,A95,,,,at,,N,N0077206,Delnashaugh,,,Ballindalloch,EN,-,EN,false,UKOS,318476,836521,-3.35869,57.41173,BCT,CUS,OTH,,,,131,2008-09-25T00:00:00,2013-02-04T09:44:00,2,new,active
638063721,67923827,,,Alt-a-Bhainne-Distillery,,,,Alt-a-Bhainne-Distillery,,,,,,at,,NE,N0078406,Glenrinnes,,,Glenrinnes,EN,-,EN,false,UKOS,327607,834344,-3.20609,57.39372,BCT,CUS,OTH,,,,131,2003-09-08T00:00:00,2012-12-05T13:54:00,4,new,active
638063673,67925323,,,Dipple,,,,Dipple,,B9015,,,,at,,S,ES002693,Mosstodloch,,,Mosstodloch,EN,-,EN,false,UKOS,332390,859002,-3.13338,57.61591,BCT,CUS,OTH,,,,131,2008-09-25T00:00:00,2013-02-28T14:34:00,1,new,active
638063701,67923986,,,Parkmore House,,,,Parkmore House,,,,,,at,,W,ES001082,Dufftown,,,Parkmore,EN,-,EN,false,UKOS,332971,841185,-3.11874,57.45599,BCT,CUS,OTH,,,,131,2003-09-08T00:00:00,2013-02-06T10:54:00,2,new,active
638063705,67924975,,,Lettoch Farm,,,,Lettoch Farm,,,,,,at,,S,ES001082,Dufftown,,,Lettoch,EN,-,EN,false,UKOS,330790,837962,-3.15417,57.42671,BCT,CUS,OTH,,,,131,2008-09-25T00:00:00,2013-02-05T14:35:00,1,new,active
638063711,67923826,,,The Bridge,,,,Bridge of Auchbreck,,,,,,at,,S,N0066986,Auchbreck,,,Auchbreck,EN,-,EN,false,UKOS,320983,828594,-3.31442,57.34098,BCT,CUS,OTH,,,,131,2003-09-11T00:00:00,2013-02-07T10:49:00,2,new,active
638063715,67924986,,,Hall,,,,Hall,,,,,,at,,NW,ES001607,Glenlivet,,,Glenlivet,EN,-,EN,false,UKOS,319931,829762,-3.33227,57.35129,BCT,CUS,OTH,,,,131,2008-09-25T00:00:00,2011-12-22T13:42:00,2,new,active
638063081,67923689,,,Moy House Court,,,,Moy House Court,,Waterford Road,,,,at,,N,N0066902,Kintessack,,,Moy,EN,-,EN,false,UKOS,301479,860109,-3.65104,57.62015,BCT,CUS,OTH,,,,131,2003-09-05T00:00:00,2013-02-05T15:58:00,2,new,active
638063091,67924527,,,Foresters Lodge,,,,Foresters Lodge,,Unclassified Road,,,,adj,,S,N0066902,Kintessack,,,-,EN,-,EN,false,UKOS,300058,860121,-3.67482,57.61995,BCT,CUS,OTH,,,,131,2004-11-19T00:00:00,2012-12-10T15:50:00,2,new,active
638063101,67923696,,,Primary School,,,,Primary School,,Fir Park,,,,at,,N,ES001202,Dyke,,,Dyke,EN,-,EN,false,UKOS,298956,858501,-3.69259,57.60516,BCT,CUS,OTH,,,,131,2003-09-05T00:00:00,2012-12-10T13:21:00,3,new,active
638063231,67923648,,,Tocher Terrace,,,,Tocher Terrace,,,,,,at,,E,ES001082,Dufftown,,,Dufftown,EN,-,EN,false,UKOS,338105,844223,-3.03397,57.484,BCT,CUS,OTH,,,,131,2003-09-05T00:00:00,2012-12-10T13:05:00,3,new,active
638063041,67923727,,,War Memorial,,,,War Memorial,,B9010,,,,opp,,NE,N0066905,Kellas,,,Kellas,EN,-,EN,false,UKOS,316961,854351,-3.38997,57.57156,BCT,CUS,OTH,,,,131,2003-09-08T00:00:00,2013-02-07T14:32:00,4,new,active
638063051,67923728,,,Houldsworth Institute,,,,Houldsworth Institute,,Unclassified Road,,,,at,,SW,ES000973,Dallas,,,dallas,EN,-,EN,false,UKOS,312210,852304,-3.46863,57.55228,BCT,CUS,OTH,,,,131,2003-09-08T00:00:00,2013-02-28T15:12:00,4,new,active
638063061,67924525,,,Blervie Crossroads,,,,Blervie Crossroads,,Unclassified Road,,,,at,,SW,ES001428,Forres,,,Forres,EN,-,EN,false,UKOS,307277,857568,-3.55304,57.59857,BCT,CUS,OTH,,,,131,2004-11-19T00:00:00,2013-02-28T13:30:00,4,new,active
638063071,67923734,,,Leanchoil Hospital,,,,Leanchoil Hospital,,St Leonard's Road,,,,at,,SE,ES001428,Forres,,,Forres,EN,-,EN,false,UKOS,304909,858139,-3.59287,57.6032,BCT,CUS,OTH,,,,131,2003-09-08T00:00:00,2013-02-28T14:58:00,4,new,active
638063521,67924367,,,Spey Road,,,,Spey Road,,West Street,,,,adj,,NE,ES001406,Fochabers,,,Fochabers,EN,-,EN,false,UKOS,334383,858377,-3.09986,57.61059,BCT,CUS,OTH,,,,131,2003-12-01T00:00:00,2013-02-07T15:33:00,5,new,active
638063531,67924542,,,Hotel,,,,Hotel,,B9104,,,,at,,S,N0066842,Spey Bay,,,Garmouth Kingston,EN,-,EN,false,UKOS,335419,865211,-3.08435,57.67211,BCT,CUS,OTH,,,,131,2004-11-19T00:00:00,2013-02-06T13:57:00,3,new,active
638063541,67924964,,,Academy,,,,Academy,,,,,,at,,SW,ES001294,Elgin,,,Elgin,EN,,,false,UKOS,320700,863366,-3.33044,57.65319,BCT,CUS,OTH,,,,131,2008-04-22T00:00:00,2013-02-01T14:01:00,3,new,active
638063561,67924532,,,Glenlossie Distillery,,,,Glenlossie Distillery,,Glenlossie Road,,,,opp,,S,N0066923,Fogwatt,,,Clackmarras,EN,-,EN,false,UKOS,321193,857295,-3.3202,57.59876,BCT,CUS,OTH,,,,131,2004-11-19T00:00:00,2013-02-07T11:57:00,2,new,active
638063571,67923754,,,Clay Cottage,,,,Clay Cottage,,Unclassified Road,,,,at,,N,N0066958,Clackmarras,,,Clackmarras,EN,-,EN,false,UKOS,324797,858751,-3.26037,57.61245,BCT,CUS,OTH,,,,131,2003-09-08T00:00:00,2013-02-04T09:51:00,3,new,active
638063341,67924295,,,Speyside High School,,,,Speyside High School,,Linn Brae,,,,at,,E,ES000029,Aberlour,,,Aberlour,EN,-,EN,false,UKOS,326939,842878,-3.21975,57.47026,BCT,CUS,OTH,,,,131,2003-12-01T00:00:00,2013-02-06T13:59:00,5,new,active
638063343,67924969,,,Bulwalk Cottage,,,,Bulwalk Cottage,,A941,,,,at,,S,ES003204,Rothes,,,Bulwalk Cottage,EN,-,EN,false,UKOS,328102,847151,-3.20163,57.50882,BCT,CUS,OTH,,,,131,2008-09-23T00:00:00,2012-12-05T16:17:00,1,new,active
638063344,67925245,,,Dandaleith,,,,Dandaleith,,A941,,,,at,,N,N0066948,Craigellachie,,,Dandaleith,EN,-,EN,false,UKOS,328688,846039,-3.19152,57.49892,BCT,CUS,OTH,,,,131,2008-09-23T00:00:00,2012-12-10T10:32:00,1,new,active
638063346,67925248,,,Archiestown Road End,,,,Archiestown Road End,,A941,,,,at,,S,N0066948,Craigellachie,,,Craigellachie,EN,-,EN,false,UKOS,328712,845982,-3.19111,57.49842,BCT,CUS,OTH,,,,131,2008-09-24T00:00:00,2013-02-28T13:27:00,1,new,active
638063513,67925246,,,Newmill House,,,,Newmill House,,Newmill Road,,,,opp,,NE,ES001294,Elgin,,,Elgin,EN,Bishopmill,EN,false,UKOS,322456,863169,-3.30096,57.65173,BCT,CUS,OTH,,,,131,2008-10-03T00:00:00,2013-02-06T09:16:00,3,new,active
638050031,67923453,,,Newmill House,,,,Newmill House,,Newmill Road,,,,at,,SW,ES001294,Elgin,,,Elgin,EN,Lesmurdie,EN,false,UKOS,322452,863151,-3.30102,57.65157,BCT,MKD,OTH,,,,131,2003-09-02T00:00:00,2013-02-06T09:16:00,2,new,active
638063723,67924985,,,Bridge,,,,Bridge,,,,,,at,,SW,N0080103,Craighead,,,Morinsh,EN,-,EN,false,UKOS,323397,830993,-3.27507,57.36294,BCT,CUS,OTH,,,,131,2008-09-25T00:00:00,2013-02-22T10:00:00,4,new,active
638064017,67925249,,,Road End,,,,Road End,,A95,,,,at,,NE,N0066876,Milltown of Edinvillie,,,Edinvillie,EN,-,EN,false,UKOS,325464,841702,-3.24398,57.45946,BCT,CUS,OTH,,,,131,2008-09-25T00:00:00,2013-02-28T15:11:00,4,new,active
638064031,67924537,,,Edinvillie School,,,,Marypark,,A95,,,,at,,S,N0066876,Milltown of Edinvillie,,,-,EN,-,EN,false,UKOS,325982,840045,-3.23485,57.44466,BCT,CUS,OTH,,,,131,2004-11-19T00:00:00,2010-05-10T14:23:00,2,new,active
638064041,67924536,,,Summer Lee Cottage,,,,Summer Lee Cottage,,A95,,,,at,,S,N0066876,Milltown of Edinvillie,,,-,EN,-,EN,false,UKOS,326702,840097,-3.22287,57.44524,BCT,CUS,OTH,,,,131,2004-11-19T00:00:00,2013-02-06T16:02:00,3,new,active
638064051,67923792,,,Distillery,,,,Distillery,,A95,,,,at,,NE,N0078483,Tormore Distillery,,,Toremore,EN,-,EN,false,UKOS,315395,835085,-3.40946,57.39827,BCT,CUS,OTH,,,,131,2003-09-08T00:00:00,2011-12-22T13:45:00,7,new,active
638063951,67923769,,,Corglass Junction,,,,Corglass Junction,,B9012,,,,at,,N,N0077225,Kirdellbeg,,,Knockando,EN,-,EN,false,UKOS,317341,841105,-3.37912,57.45269,BCT,CUS,OTH,,,,131,2003-09-09T00:00:00,2013-02-04T09:56:00,3,new,active
638063991,67924278,,,Crossroads,,,,Relugas Crossroads,,B9007,,,,at,,E,N0066850,Relugas,,,B9007,EN,-,EN,false,UKOS,299118,848692,-3.6858,57.51712,BCT,CUS,OTH,,,,131,2003-12-01T00:00:00,2011-12-22T13:45:00,1,new,active
638064001,67924383,,,Phorp,,,,Phorp,,Unclassified Road,,,,at,,SE,N0066890,Logie,,,Phorp,EN,-,EN,false,UKOS,305090,852078,-3.58747,57.54882,BCT,CUS,OTH,,,,131,2003-12-01T00:00:00,2013-02-06T10:57:00,2,new,active
638052291,67923794,,,Glenfarclas Road End,,,,Glenfarclas Road End,,A95,,,,opp,,E,N0073505,Glenfarclas Distillery,,,Glenfarclas,EN,-,EN,false,UKOS,320932,838817,-3.31856,57.43278,BCT,MKD,OTH,,,,131,2003-09-08T00:00:00,2010-05-10T14:29:00,5,new,active
638064014,67925254,,,Glenfarclas Road End,,,,Glenfarclas Road End,,A95,,,,at,,W,N0073505,Glenfarclas Distillery,,,Glenfarclas,EN,-,EN,false,UKOS,320950,838805,-3.31826,57.43268,BCT,CUS,OTH,,,,131,2008-09-25T00:00:00,2013-02-04T12:04:00,2,new,active
638064015,67924984,,,Bridge of Lyne,,,,Bidge of Lyne,,A95,,,,adj,,NE,N0066959,Carron,,,Lyne of Carron,EN,-,EN,false,UKOS,322492,839465,-3.29279,57.43887,BCT,CUS,OTH,,,,131,2008-09-25T00:00:00,2013-02-07T10:53:00,2,new,active
638064251,67924268,,,Bus Depot,,,,Bus Depot,,March Road,,,,at,,SE,ES000495,Buckie,,,Buckie,EN,-,EN,false,UKOS,343673,865818,-2.94614,57.67868,BCT,CUS,OTH,,,,131,2003-09-09T00:00:00,2012-12-06T11:31:00,3,new,active
638064271,67924379,,,Primary School,,,,Primary School,,School Brae,,,,at,,SW,ES002774,New Elgin,Elgin,,Elgin,EN,-,EN,false,UKOS,322367,861705,-3.30198,57.63857,BCT,CUS,OTH,,,,131,2003-12-01T00:00:00,2013-02-06T09:12:00,2,new,active
638064281,67923497,,,High School,,,,High School,,School Grounds,,,,at,,W,ES002774,New Elgin,Elgin,,Elgin,EN,New Elgin,EN,false,UKOS,321235,861378,-3.32082,57.63543,BCT,CUS,OTH,,,,131,2003-09-03T00:00:00,2013-02-28T14:56:00,3,new,active
638064291,67923725,,,The Hall,,,,The Hall,,Unclassified Road,,,,at,,E,N0066872,Miltonduff,,,Miltonduff,EN,-,EN,false,UKOS,317878,860307,-3.37667,57.62522,BCT,CUS,OTH,,,,131,2003-09-08T00:00:00,2013-02-07T11:04:00,2,new,active
638064301,67923726,,,Church,,,,Church,,Unclassified Road,,,,at,,E,N0077229,Pluscarden,,,Pluscarden,EN,-,EN,false,UKOS,314912,857349,-3.42527,57.5981,BCT,CUS,OTH,,,,131,2003-09-08T00:00:00,2013-02-06T11:11:00,1,new,active
638064191,67923832,,,Glenfiddich Distillery,,,,Glenfiddich Distillery,,A941,,,,opp,,N,ES001082,Dufftown,,,Dufftown,EN,-,EN,false,UKOS,332262,840937,-3.13049,57.45365,BCT,CUS,OTH,,,,131,2003-09-08T00:00:00,2013-02-04T12:08:00,2,new,active
638052371,67924737,,,Glenfiddich Distillery,,,,Glenfiddich Distillery,,A941,,,,adj,,N,ES001082,Dufftown,,,Dufftown,EN,-,EN,false,UKOS,332258,840867,-3.13053,57.45302,BCT,MKD,OTH,,,,131,2003-11-13T00:00:00,2013-02-04T12:10:00,5,new,active
638062372,67925264,,,Glenfiddich Distillery,,,,Glenfiddich Distillery,,B941,,,,S-bound,,S,ES001082,Dufftown,,,Dufftown,EN,,,false,UKOS,332267,840850,-3.13038,57.45287,BCT,CUS,OTH,,,,131,2010-09-16T00:00:00,2010-09-16T14:10:00,0,new,active
638064221,67924368,,,Milnes Primary School,,,,Milnes Primary School,,Lennox Crescent,,,,at,,NW,ES001406,Fochabers,,,Fochabers,EN,-,EN,false,UKOS,334919,858543,-3.09093,57.61216,BCT,CUS,OTH,,,,131,2003-12-01T00:00:00,2013-02-05T15:41:00,4,new,active
638064231,67923972,,,South Cottages,,,,South Cottages,,B9016,,,,at,,N,N0077228,Braes of Enzie,,,Braes of Enzie,EN,-,EN,false,UKOS,339788,859761,-3.00976,57.62377,BCT,CUS,OTH,,,,131,2003-09-08T00:00:00,2013-02-06T13:43:00,3,new,active
638064241,67924538,,,Mill of Tynet,,,,Tynet Mill,,A98,,,,at,,W,N0078407,Bridge of Tynet,,,-,EN,-,EN,false,UKOS,338273,861802,-3.03564,57.6419,BCT,CUS,OTH,,,,131,2004-11-19T00:00:00,2011-12-22T13:43:00,2,new,active
638063781,67924329,,,Road End,,,,Road End,,Unclassified Road,,,,at,,SE,N0077224,Dryburn,,,Dryburn,EN,-,EN,false,UKOS,337341,863010,-3.05156,57.65262,BCT,CUS,OTH,,,,131,2003-12-01T00:00:00,2013-02-06T12:09:00,3,new,active
638063791,67924253,,,Seafield Road,,,,Seafield Road,,Seafield Road,,,,at,,W,N0066892,Lintmill,,,Lintmill,EN,-,EN,false,UKOS,351566,865401,-2.81372,57.67585,BCT,CUS,OTH,,,,131,2003-09-08T00:00:00,2013-02-05T14:41:00,3,new,active
638063871,67923985,,,Primary School,,,,Primary School,,B9018,,,,opp,,N,ES001656,Grange,,,Grange,EN,-,EN,false,UKOS,347889,854544,-2.87302,57.57793,BCT,CUS,OTH,,,,131,2003-09-08T00:00:00,2013-02-04T13:04:00,3,new,active
638063811,67924249,,,Primary School,,,,Primary School,,B9018,,,,at,,S,ES001656,Grange,,,Grange,EN,-,EN,false,UKOS,347896,854538,-2.8729,57.57788,BCT,CUS,OTH,,,,131,2003-09-08T00:00:00,2013-02-04T13:04:00,2,new,active
638063821,67923257,,,Tarnash,,,,Tarnash,,A96,,,,at,,SE,ES001929,Keith,,,Keith,EN,-,EN,false,UKOS,344158,849002,-2.93413,57.52771,BCT,CUS,OTH,,,,131,2003-08-20T00:00:00,2013-02-28T15:04:00,4,new,active
638063724,67924979,,,Croft Inn,,,,Croft Inn,,,,,,adj,,W,N0080108,Shenval,,,Shenval,EN,-,EN,false,UKOS,321505,829540,-3.30605,57.34957,BCT,CUS,OTH,,,,131,2008-09-25T00:00:00,2013-02-22T10:30:00,2,new,active
638063741,67924348,,,Foresterseat,,,,Foresterseat,,B9103,,,,adj,,S,ES001294,Elgin,,,B9103,EN,-,EN,false,UKOS,325491,862538,-3.24992,57.64657,BCT,CUS,OTH,,,,131,2003-12-01T00:00:00,2012-12-10T15:51:00,2,new,active
638063751,67923867,,,Wood Lane,,,,Wood Lane,,Beaufighter Road,,,,at,,N,N0066867,Nether Dallachy,,,Nether Dallachy,EN,-,EN,false,UKOS,336060,863900,-3.07326,57.66043,BCT,CUS,OTH,,,,131,2003-09-10T00:00:00,2013-02-07T15:27:00,2,new,active
638063761,67923864,,,Bogmoor Road,,,,Bogmoor Road,,B9104,,,,adj,,N,N0066829,Upper Dallachy,,,Upper Dallachy,EN,-,EN,false,UKOS,336202,862588,-3.07053,57.64867,BCT,CUS,OTH,,,,131,2003-09-11T00:00:00,2012-12-05T15:27:00,2,new,active
638063771,67923865,,,South March,,,,South March,,Bogmoor Road,,,,at,,N,N0066975,Bogmoor,,,Bogmoor,EN,-,EN,false,UKOS,335848,862596,-3.07646,57.64869,BCT,CUS,OTH,,,,131,2003-09-10T00:00:00,2013-02-06T13:43:00,2,new,active
638063891,67923976,,,Douglasbrae,,,,Douglasbrae,,,,,,at,,SW,ES001929,Keith,,,Keith,EN,-,EN,false,UKOS,341158,849133,-2.98424,57.52851,BCT,CUS,OTH,,,,131,2003-09-08T00:00:00,2012-12-10T12:07:00,2,new,active
638063901,67924248,,,Grammar School,,,,Grammar School,,A95,,,,at,,SW,ES001929,Keith,,,Keith,EN,-,EN,false,UKOS,343496,851030,-2.94565,57.54584,BCT,CUS,OTH,,,,131,2003-09-08T00:00:00,2013-02-04T15:50:00,3,new,active
638063911,67924239,,,Land Street,,,,Land Street,,Cuthill Avenue,,,,at,,E,ES001929,Keith,,,Keith,EN,-,EN,false,UKOS,343081,850446,-2.95244,57.54054,BCT,CUS,OTH,,,,131,2003-09-08T00:00:00,2012-12-10T10:30:00,3,new,active
638063841,67923983,,,Edintore,,,,Edintore,,B9115,,,,at,,NE,N0066935,Drummuir,,,-,EN,-,EN,false,UKOS,342779,845957,-2.95643,57.50019,BCT,CUS,OTH,,,,131,2003-09-11T00:00:00,2013-02-04T11:24:00,3,new,active
638063851,67923982,,,Pauls Croft,,,,Pauls Croft,,,,,,at,,E,N0066935,Drummuir,,,-,EN,-,EN,false,UKOS,338798,844487,-3.02248,57.48647,BCT,CUS,OTH,,,,131,2003-09-08T00:00:00,2013-02-06T10:55:00,2,new,active
638063861,67923984,,,Schoolhouse,,,,Schoolhouse,,,,,,at,,E,N0066935,Drummuir,,,Drummuir,EN,-,EN,false,UKOS,338454,844388,-3.02819,57.48553,BCT,CUS,OTH,,,,131,2003-09-08T00:00:00,2012-12-10T13:06:00,2,new,active
638063881,67923978,,,Lower Towie Bridge,,,,Lower Towie Bridge,,,,,,at,,NE,N0066830,Towiemore,,,-,EN,-,EN,false,UKOS,339296,845657,-3.01446,57.49704,BCT,CUS,OTH,,,,131,2003-09-08T00:00:00,2013-02-07T10:51:00,4,new,active
638053062,67924283,,,St Andrew's Road,,,,St Andrew's Road,,Pinefield Crescent,,,,opp,,E,ES001294,Elgin,,,Elgin,EN,-,EN,false,UKOS,323333,862261,-3.28598,57.64372,BCT,MKD,OTH,,,,131,2003-12-01T00:00:00,2013-02-06T15:04:00,3,new,active
638053061,67924282,,,St Andrew's Road,,,,St Andrew's Road,,Pinefield Crescent,,,,at,,W,ES001294,Elgin,,,Elgin,EN,-,EN,false,UKOS,323323,862254,-3.28614,57.64366,BCT,MKD,OTH,,,,131,2003-12-01T00:00:00,2013-02-06T15:04:00,3,new,active
638050982,67923873,,,Cross Lane,,,,Cross Lane,,West High Street,,,,at,,E,ES003060,Portgordon,,,Portgordon,EN,-,EN,false,UKOS,339529,864238,-3.01522,57.66395,BCT,MKD,OTH,,,,131,2003-09-10T00:00:00,2012-12-10T09:54:00,1,new,active
638050981,67923872,,,Cross Lane,,,,Cross Lane,,West High Street,,,,opp,,W,ES003060,Portgordon,,,Portgordon,EN,-,EN,false,UKOS,339521,864256,-3.01535,57.66411,BCT,MKD,OTH,,,,131,2003-09-10T00:00:00,2012-12-10T09:53:00,1,new,active
638050991,67923869,,,Station Road,,,,Station Road,,Lennox Place,,,,at,,W,ES003060,Portgordon,,,Portgordon,EN,-,EN,false,UKOS,339275,864193,-3.01946,57.66351,BCT,MKD,OTH,,,,131,2003-09-10T00:00:00,2013-02-05T14:32:00,1,new,active
638051001,67923969,,,Reid Terrace,,,,Reid Terrace,,Station Road,,,,at,,S,ES003060,Portgordon,,,Portgordon,EN,-,EN,false,UKOS,339361,863939,-3.01796,57.66124,BCT,MKD,OTH,,,,131,2003-09-08T00:00:00,2013-02-06T11:56:00,1,new,active
638051002,67923968,,,Reid Terrace,,,,Reid Terrace,,Station Road,,,,opp,,SE,ES003060,Portgordon,,,Portgordon,EN,-,EN,false,UKOS,339393,863919,-3.01741,57.66106,BCT,MKD,OTH,,,,131,2003-09-08T00:00:00,2013-02-06T11:57:00,2,new,active
638050962,67924687,,,Great Western Road,,,,Great Western Road,,Great Western Road,,,,at,,W,ES000495,Buckie,,,Buckie,EN,-,EN,false,UKOS,341128,865185,-2.98865,57.67266,BCT,MKD,OTH,,,,131,2003-11-13T00:00:00,2013-02-04T13:16:00,4,new,active
638050961,67923878,,,Great Western Road,,,,Great Western Road,,Great Western Road,,,,at,,W,ES000495,Buckie,,,Buckie,EN,Buckpool,EN,false,UKOS,341155,865212,-2.9882,57.67291,BCT,MKD,OTH,,,,131,2003-09-10T00:00:00,2013-02-04T13:15:00,1,new,active
638050971,67923875,,,Church,,,,Church,,Gordon Street,,,,opp,,E,ES003060,Portgordon,,,Portgordon,EN,-,EN,false,UKOS,339937,864336,-3.0084,57.66488,BCT,MKD,OTH,,,,131,2003-09-10T00:00:00,2013-02-04T13:01:00,1,new,active
638050972,67923874,,,Church,,,,Church,,Gordon Street,,,,at,,W,ES003060,Portgordon,,,Portgordon,EN,-,EN,false,UKOS,339863,864320,-3.00964,57.66473,BCT,MKD,OTH,,,,131,2003-09-10T00:00:00,2013-02-04T13:01:00,1,new,active
638051012,67924923,,,Binview Terrace,,,,Binview Terrace,,A990,,,,opp,,S,N0080105,Enzie,,,,,,,false,UKOS,339487,862402,-3.01546,57.64745,BCT,MKD,OTH,,,,131,2006-11-23T00:00:00,2013-02-22T09:45:00,2,new,active
638051011,67923967,,,Binview Terrace,,,,Binview Terrace,,A990,,,,at,,N,N0080105,Enzie,,,Portgordon,EN,-,EN,false,UKOS,339487,862383,-3.01545,57.64728,BCT,MKD,OTH,,,,131,2003-09-08T00:00:00,2013-02-22T09:45:00,2,new,active
638050812,67924654,,,Castle Street,,,,Castle Street,,Strathlene Road,,,,opp,,E,ES001385,Findochty,,,Findochty,EN,-,EN,false,UKOS,345778,867706,-2.91127,57.69589,BCT,MKD,OTH,,,,131,2003-11-13T00:00:00,2012-12-06T11:49:00,2,new,active
638050811,67923945,,,Castle Street,,,,Castle Street,,Strathlene Road,,,,adj,,W,ES001385,Findochty,,,Findochty,EN,-,EN,false,UKOS,345834,867728,-2.91034,57.6961,BCT,MKD,OTH,,,,131,2003-09-10T00:00:00,2012-12-06T12:11:00,1,new,active
638050822,67924657,,,Strathlene Golf Course,,,,Strathlene Golf Course,,A942,,,,opp,,N,ES001385,Findochty,,,Strathlene,EN,-,EN,false,UKOS,344967,867306,-2.92479,57.6922,BCT,MKD,OTH,,,,131,2003-11-14T00:00:00,2013-02-06T15:59:00,1,new,active
638050821,67924652,,,Strathlene Golf Course,,,,Strathlene Golf Course,,A942,,,,at,,NE,ES001385,Findochty,,,Strathlene,EN,-,EN,false,UKOS,344990,867347,-2.92441,57.69257,BCT,MKD,OTH,,,,131,2003-11-14T00:00:00,2013-02-06T15:58:00,2,new,active
638050831,67924674,,,Strathlene Caravan Park,,,,Strathlene Caravan Park,,A942,,,,at,,SW,ES001385,Findochty,,,Strathlene,EN,-,EN,false,UKOS,344736,866898,-2.92857,57.68851,BCT,MKD,OTH,,,,131,2003-11-14T00:00:00,2010-05-10T15:57:00,3,new,active
638050771,67924653,,,Station Court,,,,Station Court,,A942,,,,opp,,NE,ES003061,Portknockie,,,Portknockie,EN,-,EN,false,UKOS,348531,868337,-2.86523,57.70188,BCT,MKD,OTH,,,,131,2003-11-14T00:00:00,2013-02-06T15:14:00,2,new,active
638050772,67924649,,,Station Court,,,,Station Court,,A942,,,,at,,SW,ES003061,Portknockie,,,Portknockie,EN,-,EN,false,UKOS,348537,868318,-2.86513,57.70171,BCT,MKD,OTH,,,,131,2003-11-14T00:00:00,2013-02-06T15:14:00,2,new,active
638050781,67924385,,,Dyce Crescent,,,,Dyce Crescent,,Station Road,,,,at,,N,ES001385,Findochty,,,Findochty,EN,-,EN,false,UKOS,346494,867771,-2.89928,57.69656,BCT,MKD,OTH,,,,131,2004-11-19T00:00:00,2012-12-10T13:19:00,1,new,active
638050782,67924648,,,Dyce Crescent,,,,Dyce Crescent,,Station Road,,,,opp,,S,ES001385,Findochty,,,Findochty,EN,-,EN,false,UKOS,346492,867791,-2.89932,57.69674,BCT,MKD,OTH,,,,131,2003-11-13T00:00:00,2012-12-10T13:19:00,1,new,active
638050801,67923946,,,Mid Street,,,,Mid Street,,Netherton Terrace,,,,opp,,W,ES001385,Findochty,,,Findochty,EN,-,EN,false,UKOS,346031,867786,-2.90705,57.69664,BCT,MKD,OTH,,,,131,2003-09-11T00:00:00,2013-02-06T09:05:00,1,new,active
638050871,67924679,,,Ianstown Terrace,,,,Ianstown Terrace,,Reidhaven Street,,,,at,,NE,N0066851,Portessie,,,Buckie,EN,-,EN,false,UKOS,343646,866359,-2.94672,57.68353,BCT,MKD,OTH,,,,131,2003-11-13T00:00:00,2013-02-04T15:44:00,5,new,active
638050872,67923935,,,Ianstown Terrace,,,,Ianstown Terrace,,Reidhaven Street,,,,opp,,SW,N0066851,Portessie,,,Buckie,EN,Portessie,EN,false,UKOS,343647,866331,-2.94669,57.68328,BCT,MKD,OTH,,,,131,2003-09-10T00:00:00,2013-02-04T15:44:00,4,new,active
638050881,67923929,,,March Street,,,,March Street,,Rathburn Road,,,,opp,,E,ES000495,Buckie,,,Buckie,EN,-,EN,false,UKOS,343416,866123,-2.95052,57.68138,BCT,MKD,OTH,,,,131,2003-09-10T00:00:00,2013-02-05T15:19:00,1,new,active
638050882,67923932,,,March Street,,,,March Street,,Rathburn Road,,,,adj,,W,ES000495,Buckie,,,Buckie,EN,-,EN,false,UKOS,343333,866064,-2.9519,57.68084,BCT,MKD,OTH,,,,131,2003-09-10T00:00:00,2013-02-05T15:20:00,1,new,active
638050952,67923876,,,Great Western Court,,,,Great Western Court,,Great Western Road,,,,at,,E,ES000495,Buckie,,,Buckie,EN,Buckpool,EN,false,UKOS,341305,865296,-2.98571,57.67368,BCT,MKD,OTH,,,,131,2003-09-10T00:00:00,2013-02-04T13:11:00,1,new,active
638050951,67924675,,,Great Western Court,,,,Great Western Court,,Great Western Road,,,,opp,,NE,ES000495,Buckie,,,Buckie,EN,-,EN,false,UKOS,341311,865313,-2.98561,57.67384,BCT,MKD,OTH,,,,131,2003-11-13T00:00:00,2013-02-04T13:10:00,2,new,active
638050841,67924686,,,Station Road,,,,Station Road,,Great Eastern Road,,,,opp,,E,N0066851,Portessie,,,Portessie,EN,-,EN,false,UKOS,344416,866663,-2.93388,57.68636,BCT,MKD,OTH,,,,131,2003-11-13T00:00:00,2012-12-06T14:00:00,2,new,active
638050842,67925458,,,Station Road,,,,,,Great Eastern Road,,,,SW-bound,,SW,N0066851,Portessie,,,Portessie,EN,,,false,UKOS,344488,866674,-2.93267,57.68646,BCT,MKD,OTH,,,,131,2015-07-24T00:00:00,2015-07-24T13:53:36,0,new,active
638050851,67923937,,,Rannas Place,,,,Rannas Place,,Great Eastern Road,,,,opp,,E,N0066851,Portessie,,,Buckie,EN,Portessie,EN,false,UKOS,344198,866586,-2.93752,57.68564,BCT,MKD,OTH,,,,131,2003-09-10T00:00:00,2013-02-06T11:43:00,1,new,active
638050852,67923938,,,Rannas Place,,,,Rannas Place,,Great Eastern Road,,,,at,,W,N0066851,Portessie,,,Buckie,EN,Portessie,EN,false,UKOS,344156,866582,-2.93822,57.6856,BCT,MKD,OTH,,,,131,2003-09-10T00:00:00,2013-02-06T11:43:00,2,new,active
638050861,67924683,,,Findlater Street,,,,Findlater Street,,Great Eastern Road,,,,opp,,NE,N0066851,Portessie,,,Portessie,EN,-,EN,false,UKOS,343961,866488,-2.94147,57.68473,BCT,MKD,OTH,,,,131,2003-11-13T00:00:00,2012-12-10T14:48:00,2,new,active
638050862,67923936,,,Findlater Street,,,,Findlater Street,,Great Eastern Road,,,,at,,W,N0066851,Portessie,,,Buckie,EN,Portessie,EN,false,UKOS,343943,866464,-2.94176,57.68451,BCT,MKD,OTH,,,,131,2003-09-10T00:00:00,2013-02-04T11:33:00,3,new,active
638051262,67924698,,,St Catherine's Court,,,,St Catherine's Court,,Fleurs Place,,,,opp,,NW,ES001428,Forres,,,Forres,EN,-,EN,false,UKOS,303413,858304,-3.61796,57.60436,BCT,MKD,OTH,,,,131,2003-11-14T00:00:00,2013-02-06T15:06:00,5,new,active
638051261,67923742,,,St Catherine's Court,,,,St Catherine's Court,,Fleurs Place,,,,at,,SE,ES001428,Forres,,,Forres,EN,Anderson Crescent,EN,false,UKOS,303402,858318,-3.61815,57.60449,BCT,MKD,OTH,,,,131,2003-09-11T00:00:00,2013-02-06T15:05:00,2,new,active
638051271,67924693,,,Plasmon Lane,,,,Plasmon Lane,,Anderson Crescent,,,,opp,,N,ES001428,Forres,,,Forres,EN,-,EN,false,UKOS,303505,858209,-3.61638,57.60353,BCT,MKD,OTH,,,,131,2003-11-13T00:00:00,2013-02-06T11:08:00,2,new,active
638051281,67924386,,,Fleurs Road,,,,Fleurs Road,,MacDonald Drive,,,,opp,,NW,ES001428,Forres,,,Forres,EN,-,EN,false,UKOS,303529,858161,-3.61596,57.6031,BCT,MKD,OTH,,,,131,2004-11-19T00:00:00,2012-12-10T14:58:00,3,new,active
638051291,67924727,,,Macdonald Drive,,,,Macdonald Drive,,Macdonald Drive,,,,at,,N,ES001428,Forres,,,Forres,EN,-,EN,false,UKOS,303539,858097,-3.61577,57.60253,BCT,MKD,OTH,,,,131,2003-11-13T00:00:00,2013-02-01T14:06:00,3,new,active
638051221,67924685,,,Forbes Hill,,,,Forbes Hill,,,,,,adj,,W,ES001428,Forres,,,Forres,EN,-,EN,false,UKOS,305203,859195,-3.58837,57.61274,BCT,MKD,OTH,,,,131,2003-11-12T00:00:00,2012-12-05T14:02:00,2,new,active
638051252,67924358,,,Kings Way,,,,Kings Way,,Orchard Road,,,,opp,,W,ES001428,Forres,,,Forres,EN,-,EN,false,UKOS,303526,858610,-3.61619,57.60713,BCT,MKD,OTH,,,,131,2003-12-01T00:00:00,2013-02-04T15:54:00,2,new,active
638051371,67924726,,,Little Crook,,,,Little Crook,,,,,,opp,,S,ES001428,Forres,,,Forres,EN,-,EN,false,UKOS,303323,858615,-3.61959,57.60714,BCT,MKD,OTH,,,,131,2003-11-14T00:00:00,2013-02-06T15:07:00,1,new,active
638051301,67924692,,,Anderson Crescent,,,,Anderon Crescent,,Macdonald Drive,,,,adj,,S,ES001428,Forres,,,Forres,EN,-,EN,false,UKOS,303554,857944,-3.61546,57.60116,BCT,MKD,OTH,,,,131,2003-11-13T00:00:00,2013-02-05T14:52:00,2,new,active
638051311,67924728,,,Anderson Crescent,,,,Anderson Crescent,,Anderson Crescent,,,,o/s,,N,ES001428,Forres,,,Forres,EN,-,EN,false,UKOS,303471,857977,-3.61686,57.60144,BCT,MKD,OTH,,,,131,2003-11-12T00:00:00,2012-12-05T13:57:00,2,new,active
638051321,67923745,,,Fleurs Crescent,,,,Fleurs Crescent,,Fleurs Drive,,,,opp,,N,ES001428,Forres,,,Forres,EN,-,EN,false,UKOS,303408,858134,-3.61797,57.60284,BCT,MKD,OTH,,,,131,2003-09-11T00:00:00,2012-12-10T14:54:00,1,new,active
638051322,67924696,,,Fleurs Crescent,,,,Fleurs Crescent,,Fleurs Drive,,,,at,,S,ES001428,Forres,,,Forres,EN,-,EN,false,UKOS,303391,858121,-3.61825,57.60272,BCT,MKD,OTH,,,,131,2003-11-13T00:00:00,2012-12-10T14:54:00,3,new,active
638051131,67924395,,,Anderson's Primary School,,,,Anderson's Primary School,,South Street,,,,at,,N,ES001428,Forres,,,Forres,EN,-,EN,false,UKOS,303950,859042,-3.60927,57.6111,BCT,MKD,OTH,,,,131,2004-11-19T00:00:00,2012-12-05T13:58:00,1,new,active
638051132,67923736,,,Anderson's Primary School,,,,Anderson's Primary School,,South Street,,,,opp,,S,ES001428,Forres,,,Forres,EN,-,EN,false,UKOS,303963,859045,-3.60905,57.61113,BCT,MKD,OTH,,,,131,2003-09-08T00:00:00,2012-12-05T13:59:00,1,new,active
638051091,67924238,,,Den Crescent,,,,Den Crescent,,Den Crescent,,,,at,,SE,ES001929,Keith,,,Keith,EN,-,EN,false,UKOS,343659,849831,-2.94265,57.53509,BCT,MKD,OTH,,,,131,2003-09-08T00:00:00,2012-12-10T11:21:00,2,new,active
638051201,67924689,,,Carisbrooke Drive,,,,Carisbrooke Drive,,,,,,at,,N,ES001428,Forres,,,Forres,EN,-,EN,false,UKOS,305033,859471,-3.59132,57.61519,BCT,MKD,OTH,,,,131,2003-11-13T00:00:00,2012-12-10T15:48:00,3,new,active
638051211,67924724,,,White Road,,,,White Road,,,,,,opp,,S,ES001428,Forres,,,Forres,EN,-,EN,false,UKOS,305133,859281,-3.58957,57.6135,BCT,MKD,OTH,,,,131,2003-11-13T00:00:00,2012-12-10T15:45:00,2,new,active
638051212,67924257,,,Hendry Terrace,,,,Hendry Terrace,,Milton Drive,,,,opp,,S,ES000495,Buckie,,,Buckie,EN,-,EN,false,UKOS,343241,865299,-2.95326,57.67396,BCT,MKD,OTH,,,,131,2003-09-09T00:00:00,2013-02-04T13:46:00,1,new,active
638051141,67923738,,,Applegrove Primary School,,,,Applegrove Primary School,,Orchard Road,,,,at,,SW,ES001428,Forres,,,Forres,EN,-,EN,false,UKOS,303827,858700,-3.61119,57.60801,BCT,MKD,OTH,,,,131,2003-09-08T00:00:00,2012-12-05T13:59:00,2,new,active
638050241,67923276,,,Drive Grays Hospital,,,,Drive Grays Hospital,,Pluscarden Road,,,,at,,E,ES001294,Elgin,,,Elgin,EN,West End,EN,false,UKOS,320851,862533,-3.32763,57.64574,BCT,MKD,OTH,,,,131,2003-09-01T00:00:00,2012-12-10T12:58:00,3,new,active
638050251,67923523,,,Drive Grays Hospital,,,,Drive Grays Hospital,,,,,,opp,,W,ES001294,Elgin,,,Elgin,EN,West End,EN,false,UKOS,320687,862414,-3.33034,57.64464,BCT,MKD,OTH,,,,131,2003-09-10T00:00:00,2012-12-10T12:58:00,1,new,active
638050262,67923464,,,Duff Avenue,,,,Duff Avenue,,Maisondieu Road,,,,opp,,E,ES001294,Elgin,,,Elgin,EN,Laich Moray,EN,false,UKOS,322097,862307,-3.30669,57.64393,BCT,MKD,OTH,,,,131,2003-09-10T00:00:00,2012-12-06T11:33:00,1,new,active
638050261,67923463,,,Duff Avenue,,,,Duff Avenue,,Maisondieu Road,,,,at,,W,ES001294,Elgin,,,Elgin,EN,Laich Moray,EN,false,UKOS,322025,862301,-3.3079,57.64386,BCT,MKD,OTH,,,,131,2003-09-02T00:00:00,2012-12-06T11:33:00,1,new,active
638050271,67923462,,,Seafield Street,,,,Seafield Street,,Maisondieu Road,,,,at,,E,ES001294,Elgin,,,Elgin,EN,Laichmoray,EN,false,UKOS,322214,862359,-3.30475,57.64441,BCT,MKD,OTH,,,,131,2003-09-02T00:00:00,2013-02-01T14:12:00,1,new,active
638050281,67923456,,,Priory Place,,,,Priory Place,,Maisondieu Road,,,,opp,,N,ES001294,Elgin,,,Elgin,EN,Pansport,EN,false,UKOS,322353,862670,-3.30252,57.64723,BCT,MKD,OTH,,,,131,2003-09-02T00:00:00,2013-02-06T11:22:00,1,new,active
638050282,67923457,,,Priory Place,,,,Priory Place,,Maisondieu Road,,,,at,,S,ES001294,Elgin,,,Elgin,EN,Pansport,EN,false,UKOS,322349,862614,-3.30257,57.64673,BCT,MKD,OTH,,,,131,2003-09-02T00:00:00,2013-02-06T11:22:00,1,new,active
638050342,67924626,,,Castlehill Street,,,,Castlehill Street,,Robertson Drive,,,,opp,,N,ES002774,New Elgin,Elgin,,Elgin,EN,-,EN,false,UKOS,322500,861475,-3.29968,57.63652,BCT,MKD,OTH,,,,131,2003-11-13T00:00:00,2012-12-06T13:41:00,2,new,active
638050341,67923482,,,Castlehill Street,,,,Castlehill Street,,Robertson Drive,,,,at,,S,ES002774,New Elgin,Elgin,,Elgin,EN,New Elgin,EN,false,UKOS,322514,861476,-3.29944,57.63653,BCT,MKD,OTH,,,,131,2003-09-10T00:00:00,2012-12-06T13:41:00,1,new,active
638050351,67923483,,,Meadow Crescent,,,,Meadow Crescent,,Thornhill Road,,,,adj,,W,ES002774,New Elgin,Elgin,,Elgin,EN,New Elgin,EN,false,UKOS,322447,861273,-3.3005,57.6347,BCT,MKD,OTH,,,,131,2003-09-03T00:00:00,2013-02-05T15:34:00,1,new,active
638050361,67923484,,,Murray Street,,,,Murray Street,,Thornhill Road,,,,opp,,W,ES002774,New Elgin,Elgin,,Elgin,EN,New Elgin,EN,false,UKOS,322236,861197,-3.30401,57.63398,BCT,MKD,OTH,,,,131,2003-09-03T00:00:00,2013-02-05T15:35:00,1,new,active
638050312,67923474,,,Moray College,,,,Moray College,,Linkwood Road,,,,opp,,NW,ES002774,New Elgin,Elgin,,Elgin,EN,New Elgin,EN,false,UKOS,322500,862083,-3.29987,57.64198,BCT,MKD,OTH,,,,131,2003-09-02T00:00:00,2013-02-05T15:43:00,2,new,active
638050311,67924523,,,Moray College,,,,Moray College,,Linkwood Road,,,,at,,SE,ES002774,New Elgin,Elgin,,New Elgin,EN,-,EN,false,UKOS,322557,862044,-3.2989,57.64164,BCT,MKD,OTH,,,,131,2004-11-19T00:00:00,2013-02-05T15:42:00,2,new,active
638050331,67923479,,,Springburn Place,,,,Springburn Place,,Robertson Drive,,,,at,,E,ES002774,New Elgin,Elgin,,Elgin,EN,New Elgin,EN,false,UKOS,322661,861589,-3.29702,57.63757,BCT,MKD,OTH,,,,131,2003-09-03T00:00:00,2013-02-06T14:02:00,1,new,active
638060052,67925272,,,Lossie Cottages,,,,Lossie Cottages,,Riverside Drive,,,,NE-bound,,NE,ES001294,Elgin,,,Elgin,EN,,,false,UKOS,322722,863336,-3.29655,57.65327,BCT,CUS,OTH,,,,131,2010-09-16T00:00:00,2010-09-16T14:27:00,0,new,active
638050051,67923452,,,Lossie Cottages,,,,Lossie Cottages,,Riverside Drive,,,,SW-bound,,SW,ES001294,Elgin,,,Elgin,EN,Lesmurdie,EN,false,UKOS,322749,863339,-3.2961,57.65331,BCT,MKD,OTH,,,,131,2003-09-02T00:00:00,2010-09-16T14:25:00,1,new,active
638050061,67923439,,,Pitgaveny Court,,,,Pitgaveny Court,,Woodside Terrace,,,,E-bound,,E,ES001294,Elgin,,,Elgin,EN,Lesmurdie,EN,false,UKOS,322679,863460,-3.29731,57.65438,BCT,MKD,OTH,,,,131,2003-09-02T00:00:00,2010-09-16T14:23:00,1,new,active
638060062,67925268,,,Pitgaveny Court,,,,Pitgaveny Court,,Woodside Terrace,,,,W-bound,,W,ES001294,Elgin,,,Elgin,EN,,,false,UKOS,322678,863448,-3.29733,57.65427,BCT,CUS,OTH,,,,131,2010-09-16T00:00:00,2010-09-16T14:24:00,0,new,active
638050071,67923438,,,Maple Walk,,,,Maple Walk,,Woodside Terrace,,,,E-bound,,E,ES001294,Elgin,,,Elgin,EN,Lesmurdie,EN,false,UKOS,322542,863451,-3.29961,57.65428,BCT,MKD,OTH,,,,131,2003-09-02T00:00:00,2010-09-16T14:20:00,1,new,active
638060072,67925267,,,Maple Walk,,,,Maple Walk,,Woodside Terrace,,,,W-bound,,W,ES001294,Elgin,,,Elgin,EN,,,false,UKOS,322547,863433,-3.29952,57.65411,BCT,CUS,OTH,,,,131,2010-09-16T00:00:00,2010-09-16T14:21:00,0,new,active
638050081,67923437,,,Deanshaugh Road,,,,Deanshaugh Road,,Lesmurdie Road,,,,adj,,S,ES000364,Bishopmill,Elgin,,Elgin,EN,Bishopmill,EN,false,UKOS,322238,863828,-3.30482,57.65761,BCT,MKD,OTH,,,,131,2003-09-02T00:00:00,2012-12-10T10:45:00,1,new,active
638050091,67923424,,,Mackenzie Place,,,,Mackenzie Place,,Fraser Avenue,,,,at,,NE,ES000364,Bishopmill,Elgin,,Elgin,EN,Bishopmill,EN,false,UKOS,322054,863907,-3.30793,57.65829,BCT,MKD,OTH,,,,131,2003-09-02T00:00:00,2013-02-05T14:55:00,4,new,active
638050092,67923423,,,Mackenzie Place,,,,Mackenzie Place,,Fraser Avenue,,,,opp,,SW,ES000364,Bishopmill,Elgin,,Elgin,EN,Bishopmill,EN,false,UKOS,322060,863902,-3.30783,57.65824,BCT,MKD,OTH,,,,131,2003-09-02T00:00:00,2013-02-05T14:55:00,6,new,active
638050011,67923427,,,Larch Court,,,,Larch Court,,,,,,at,,S,ES001294,Elgin,,,Elgin,EN,Bishopmill,EN,false,UKOS,322067,864356,-3.30786,57.66232,BCT,MKD,OTH,,,,131,2003-09-03T00:00:00,2013-02-05T14:27:00,1,new,active
638060053,67925276,,,Blackburn Court,,,,Blackburn Court,,Riverside Drive,,,,E-bound,,E,ES001294,Elgin,,,Elgin,EN,,,false,UKOS,322557,863287,-3.2993,57.65281,BCT,CUS,OTH,,,,131,2010-10-06T00:00:00,2010-10-06T17:04:00,1,new,active
638050041,67924625,,,Blackburn Court,,,,Blackburn Court,,Riverside Drive,,,,W-bound,,W,ES001294,Elgin,,,Elgin,EN,-,EN,false,UKOS,322568,863281,-3.29912,57.65275,BCT,MKD,OTH,,,,131,2003-11-13T00:00:00,2010-09-16T14:30:00,1,new,active
638050142,67923436,,,Brodie Drive,,,,Brodie Drive,,North Street,,,,opp,,N,ES000364,Bishopmill,Elgin,,Elgin,EN,Bishopmill,EN,false,UKOS,321476,863622,-3.31752,57.65563,BCT,MKD,OTH,,,,131,2003-09-02T00:00:00,2012-12-05T16:15:00,2,new,active
638050141,67923435,,,Brodie Drive,,,,Brodie Drive,,North Street,,,,at,,S,ES000364,Bishopmill,Elgin,,Elgin,EN,Bishopmill,EN,false,UKOS,321475,863667,-3.31755,57.65603,BCT,MKD,OTH,,,,131,2003-09-02T00:00:00,2012-12-05T16:15:00,2,new,active
638050151,67923284,,,Town Hall,,,,Town Hall,,,,,,at,,N,ES001294,Elgin,,,Elgin,EN,City Centre,EN,false,UKOS,321587,863055,-3.31548,57.65055,BCT,MKD,OTH,,,,131,2003-09-01T00:00:00,2013-02-07T13:53:00,1,new,active
638050101,67923297,,,Deanshaugh Terrace,,,,Deanshaugh Terrace,,Fraser Avenue,,,,at,,E,ES000364,Bishopmill,Elgin,,Elgin,EN,Bishopmill,EN,false,UKOS,321956,863824,-3.30954,57.65752,BCT,MKD,OTH,,,,131,2003-09-02T00:00:00,2012-12-10T09:02:00,1,new,active
638050111,67923296,,,Seafield Primary School,,,,Seafield Primary School,,Deanshaugh Terrace,,,,at,,E,ES000364,Bishopmill,Elgin,,Elgin,EN,Bishopmill,EN,false,UKOS,321797,863930,-3.31224,57.65845,BCT,MKD,OTH,,,,131,2003-09-02T00:00:00,2013-02-06T13:11:00,3,new,active
638050121,67923434,,,Harrison Terrace,,,,Harrison Terrace,,Lossiemouth Road,,,,opp,,NE,ES000364,Bishopmill,Elgin,,Elgin,EN,Bishopmill,EN,false,UKOS,321587,863948,-3.31577,57.65857,BCT,MKD,OTH,,,,131,2003-09-02T00:00:00,2013-02-04T13:34:00,2,new,active
638050122,67923432,,,Harrison Terrace,,,,Harrison Terrace,,Lossiemouth Road,,,,at,,SW,ES000364,Bishopmill,Elgin,,Elgin,EN,Bishopmill,EN,false,UKOS,321510,863860,-3.31703,57.65777,BCT,MKD,OTH,,,,131,2003-09-02T00:00:00,2013-02-04T13:34:00,3,new,active
638050421,67924528,,,Marchfield Place,,,,Marchfield Place,,Glen Lossie Drive,,,,opp,,S,ES002774,New Elgin,Elgin,,Elgin,EN,New Elgin,EN,false,UKOS,321394,861399,-3.31817,57.63565,BCT,MKD,OTH,,,,131,2004-11-19T00:00:00,2013-02-05T15:24:00,1,new,active
638050652,67925256,,,Moss Street,,,,Moss Street,,,,,,at,,S,ES001929,Keith,,,Keith,EN,-,EN,false,UKOS,343425,850566,-2.94673,57.54166,BCT,MKD,OTH,,,,131,2009-03-19T00:00:00,2014-08-27T08:48:00,5,new,active
638050681,67923975,,,Nelson Terrace,,,,Nelson Terrace,,,,,,at,,S,ES001929,Keith,,,Fife Keith,EN,-,EN,false,UKOS,342284,850401,-2.96575,57.54004,BCT,MKD,OTH,,,,131,2003-09-08T00:00:00,2013-02-06T08:48:00,1,new,active
638067461,67924898,,,Nelson Terrace,,,,Nelson Terrace,,Nelson Terrace,,,,at,,N,ES001929,Keith,,,,,,,false,UKOS,342401,850451,-2.9638,57.5405,BCT,MKD,OTH,,,,131,2006-07-27T00:00:00,2013-02-06T08:51:00,2,new,active
638050701,67923237,,,Milton of Rothiemay,,,,Churchyard,,,,,,at,,N,N0066875,Milltown of Rothiemay,,,Rothiemay,EN,-,EN,false,UKOS,354768,848376,-2.75686,57.52327,BCT,MKD,OTH,,,,131,2003-08-20T00:00:00,2011-12-22T13:43:00,2,new,active
638050741,67923952,,,Primary School,,,,Primary School,,A942,,,,at,,N,ES003061,Portknockie,,,Portknockie,EN,-,EN,false,UKOS,349060,868207,-2.85633,57.70078,BCT,MKD,OTH,,,,131,2003-09-10T00:00:00,2013-02-28T15:00:00,2,new,active
638050752,67923948,,,Bridge Street,,,,Bridge Street,,A942,,,,opp,,W,ES003061,Portknockie,,,Portknockie,EN,-,EN,false,UKOS,348942,868391,-2.85835,57.70241,BCT,MKD,OTH,,,,131,2003-09-10T00:00:00,2012-12-05T16:04:00,2,new,active
638050761,67924646,,,Pulteney Street,,,,Pulteney Street,,A942,,,,at,,E,ES003061,Portknockie,,,Portknockie,EN,-,EN,false,UKOS,348768,868426,-2.86127,57.70271,BCT,MKD,OTH,,,,131,2003-11-13T00:00:00,2013-02-06T11:23:00,1,new,active
638050762,67924647,,,Pulteney Street,,,,Pulteney Street,,A942,,,,opp,,W,ES003061,Portknockie,,,Portknockie,EN,-,EN,false,UKOS,348753,868421,-2.86153,57.70266,BCT,MKD,OTH,,,,131,2003-11-13T00:00:00,2013-02-06T11:23:00,1,new,active
638050712,67923958,,,Seafield Place,,,,Seafield Place,,Seafield Road,,,,opp,,S,ES000911,Cullen,,,Cullen,EN,-,EN,false,UKOS,351406,866960,-2.81672,57.68984,BCT,MKD,OTH,,,,131,2003-09-10T00:00:00,2013-02-06T13:09:00,1,new,active
638050711,67923959,,,Seafield Place,,,,Seafield Place,,Seafield Road,,,,at,,S,ES000911,Cullen,,,Cullen,EN,-,EN,false,UKOS,351408,866929,-2.81668,57.68956,BCT,MKD,OTH,,,,131,2003-09-08T00:00:00,2013-02-06T13:10:00,1,new,active
638050722,67923956,,,The Square,,,,The Square,,A98,,,,adj,,NW,ES000911,Cullen,,,Cullen,EN,-,EN,false,UKOS,351214,867129,-2.81998,57.69133,BCT,MKD,OTH,,,,131,2003-09-10T00:00:00,2013-02-07T11:06:00,2,new,active
638050721,67923957,,,The Square,,,,The Square,,A98,,,,at,,S,ES000911,Cullen,,,Cullen,EN,-,EN,false,UKOS,351253,867123,-2.81932,57.69128,BCT,MKD,OTH,,,,131,2003-09-10T00:00:00,2013-02-07T11:04:00,1,new,active
638050481,67923489,,,North Street,,,,North Street,,North Street,,,,at,,E,ES002774,New Elgin,Elgin,,Elgin,EN,New Elgin,EN,false,UKOS,322184,861741,-3.30505,57.63886,BCT,MKD,OTH,,,,131,2003-09-03T00:00:00,2013-02-28T14:33:00,2,new,active
638050491,67923473,,,New Elgin Road,,,,New Elgin Road,,Linkwood Road,,,,E-bound,,E,ES002774,New Elgin,Elgin,,Elgin,EN,New Elgin,EN,false,UKOS,322194,862070,-3.30499,57.64181,BCT,MKD,OTH,,,,131,2003-09-02T00:00:00,2012-12-10T13:26:00,1,new,active
638050492,67924959,,,New Elgin Road,,,,New Elgin Road,,Linkwood Road,,,,W-bound,,W,ES002774,New Elgin,Elgin,,Elgin,EN,New Elgin,EN,false,UKOS,322198,862061,-3.30492,57.64173,BCT,MKD,OTH,,,,131,2007-12-18T00:00:00,2012-12-10T13:27:00,1,new,active
638050501,67923493,,,Croft Road,,,,Croft Road,,Main Road,,,,at,,N,ES002774,New Elgin,Elgin,,Elgin,EN,New Elgin,EN,false,UKOS,322178,861392,-3.30504,57.63572,BCT,MKD,OTH,,,,131,2003-09-03T00:00:00,2012-12-10T09:47:00,1,new,active
638050502,67924635,,,Birnie Place,,,,Birnie Place,,Birnie Road,,,,adj,,N,ES002774,New Elgin,Elgin,,Elgin,EN,-,EN,false,UKOS,322121,861253,-3.30595,57.63446,BCT,MKD,OTH,,,,131,2003-11-13T00:00:00,2013-08-07T09:37:00,3,new,active
638050441,67923495,,,Glen Lossie Drive,,,,Glen Lossie Drive,,Springfield Road,,,,adj,,E,ES002774,New Elgin,Elgin,,Elgin,EN,New Elgin,EN,false,UKOS,321369,861778,-3.31871,57.63905,BCT,MKD,OTH,,,,131,2003-09-03T00:00:00,2012-12-05T14:32:00,1,new,active
638050471,67923487,,,Gordon Street,,,,Gordon Street,,Springfield Road,,,,opp,,W,ES002774,New Elgin,Elgin,,Elgin,EN,New Elgin,EN,false,UKOS,321971,861639,-3.30859,57.6379,BCT,MKD,OTH,,,,131,2003-09-03T00:00:00,2013-02-04T12:16:00,2,new,active
638050472,67923863,,,Gordon Street,,,,Gordon Street,,Springfield Road,,,,at,,W,ES002774,New Elgin,Elgin,,Elgin,EN,New Elgin,EN,false,UKOS,321945,861625,-3.30902,57.63777,BCT,MKD,OTH,,,,131,2003-09-10T00:00:00,2013-02-04T12:17:00,5,new,active
638050512,67923492,,,Convener Street,,,,Convener Street,,Main Street,,,,at,,N,ES002774,New Elgin,Elgin,,Elgin,EN,New Elgin,EN,false,UKOS,322215,861535,-3.30447,57.63701,BCT,MKD,OTH,,,,131,2003-09-03T00:00:00,2013-02-28T14:34:00,2,new,active
638050511,67923494,,,Convener Street,,,,Convener Street,,Main Street,,,,opp,,SW,ES002774,New Elgin,Elgin,,Elgin,EN,New Elgin,EN,false,UKOS,322244,861575,-3.30399,57.63738,BCT,MKD,OTH,,,,131,2003-09-03T00:00:00,2013-02-28T14:34:00,3,new,active
638052742,67923548,,,Tullochs Brae,,,,Tullochs Brae,,Stotfield Road,,,,adj,,E,ES002496,Lossiemouth,,,Lossiemouth,EN,-,EN,false,UKOS,322616,870583,-3.30066,57.71833,BCT,MKD,OTH,,,,131,2003-09-04T00:00:00,2013-02-07T13:58:00,1,new,active
638052741,67923547,,,Tullochs Brae,,,,Tullochs Brae,,Stotfield Road,,,,opp,,W,ES002496,Lossiemouth,,,Lossiemouth,EN,-,EN,false,UKOS,322711,870689,-3.2991,57.7193,BCT,MKD,OTH,,,,131,2003-09-04T00:00:00,2013-02-07T13:57:00,1,new,active
638052751,67923549,,,Fulmar Road,,,,Fulmar Road,,B9135,,,,opp,,N,ES002496,Lossiemouth,,,Lossiemouth,EN,-,EN,false,UKOS,322284,870202,-3.30611,57.71485,BCT,MKD,OTH,,,,131,2003-09-04T00:00:00,2012-12-10T15:58:00,1,new,active
638052752,67924762,,,Fulmar Road,,,,Fulmar Road,,B9135,,,,at,,S,ES002496,Lossiemouth,,,Lossiemouth,EN,-,EN,false,UKOS,322291,870178,-3.30598,57.71464,BCT,MKD,OTH,,,,131,2003-11-13T00:00:00,2012-12-10T15:58:00,3,new,active
638052762,67923562,,,Health Centre,,,,Health Centre,,B9135,,,,opp,,N,ES002496,Lossiemouth,,,Lossiemouth,EN,-,EN,false,UKOS,322299,869848,-3.30574,57.71168,BCT,MKD,OTH,,,,131,2003-09-04T00:00:00,2012-12-10T09:35:00,1,new,active
638052761,67923563,,,Health Centre,,,,Health Centre,,B9135,,,,at,,S,ES002496,Lossiemouth,,,Lossiemouth,EN,-,EN,false,UKOS,322282,869819,-3.30602,57.71141,BCT,MKD,OTH,,,,131,2003-09-04T00:00:00,2012-12-10T09:36:00,1,new,active
638052702,67923539,,,James Square,,,,James Square,,Queen Street,,,,opp,,E,ES002496,Lossiemouth,,,Lossiemouth,EN,-,EN,false,UKOS,323608,871031,-3.28416,57.72253,BCT,MKD,OTH,,,,131,2003-09-03T00:00:00,2013-02-04T15:48:00,1,new,active
638052701,67924732,,,James Square,,,,James Square,,Queen Street,,,,at,,W,ES002496,Lossiemouth,,,Lossiemouth,EN,-,EN,false,UKOS,323605,871020,-3.2842,57.72243,BCT,MKD,OTH,,,,131,2003-11-13T00:00:00,2013-02-04T15:48:00,2,new,active
638052711,67923542,,,Victoria Street,,,,Victoria Street,,Queen Street,,,,at,,NW,ES002496,Lossiemouth,,,Lossiemouth,EN,-,EN,false,UKOS,323424,871055,-3.28725,57.72271,BCT,MKD,OTH,,,,131,2003-09-03T00:00:00,2013-02-07T14:12:00,2,new,active
638052721,67923543,,,Brander Street,,,,Brander Street,,Queen Street,,,,adj,,W,ES002496,Lossiemouth,,,Lossiemouth,EN,-,EN,false,UKOS,323246,871090,-3.29025,57.72299,BCT,MKD,OTH,,,,131,2003-09-03T00:00:00,2012-12-05T15:59:00,3,new,active
638052732,67924745,,,Marine Court,,,,Marine Court,,Stotfield Road,,,,opp,,NE,ES002496,Lossiemouth,,,Lossiemouth,EN,-,EN,false,UKOS,323019,870994,-3.29403,57.72209,BCT,MKD,OTH,,,,131,2003-11-14T00:00:00,2013-02-06T15:09:00,5,new,active
638052731,67923546,,,Marine Court,,,,Marine Court,,Stotfield Road,,,,at,,SW,ES002496,Lossiemouth,,,Lossiemouth,EN,-,EN,false,UKOS,323006,870960,-3.29424,57.72179,BCT,MKD,OTH,,,,131,2003-09-03T00:00:00,2013-02-06T15:09:00,4,new,active
638052792,67923572,,,Rockall Place,,,,Rockall Place,,Boyd Anderson Drive,,,,at,,NW,ES002496,Lossiemouth,,,Lossiemouth,EN,-,EN,false,UKOS,322859,869899,-3.29636,57.71223,BCT,MKD,OTH,,,,131,2003-09-04T00:00:00,2013-02-06T12:11:00,2,new,active
638052791,67923569,,,Rockall Place,,,,Rockall Place,,Boyd Anderson Drive,,,,opp,,S,ES002496,Lossiemouth,,,Lossiemouth,EN,-,EN,false,UKOS,322900,869862,-3.29566,57.71191,BCT,MKD,OTH,,,,131,2003-09-11T00:00:00,2013-02-06T12:10:00,2,new,active
638052801,67923573,,,Fairisle Place,,,,Fairisle Place,,Boyd Anderson Drive,,,,opp,,E,ES002496,Lossiemouth,,,Lossiemouth,EN,-,EN,false,UKOS,322742,869939,-3.29834,57.71257,BCT,MKD,OTH,,,,131,2003-09-11T00:00:00,2012-12-10T13:51:00,3,new,active
638052802,67923574,,,Fairisle Place,,,,Fairisle Place,,Boyd Anderson Drive,,,,at,,N,ES002496,Lossiemouth,,,Lossiemouth,EN,-,EN,false,UKOS,322686,869957,-3.29928,57.71272,BCT,MKD,OTH,,,,131,2003-09-04T00:00:00,2012-12-10T13:51:00,1,new,active
638052812,67923576,,,High School,,,,High School,,Coulardbank Road,,,,opp,,E,ES002496,Lossiemouth,,,Lossiemouth,EN,-,EN,false,UKOS,322858,870153,-3.29646,57.71451,BCT,MKD,OTH,,,,131,2003-09-04T00:00:00,2013-02-05T14:49:00,1,new,active
638052811,67923575,,,High School,,,,High School,,Coulardbank Road,,,,at,,W,ES002496,Lossiemouth,,,Lossiemouth,EN,-,EN,false,UKOS,322827,870124,-3.29697,57.71425,BCT,MKD,OTH,,,,131,2003-09-04T00:00:00,2013-02-05T14:49:00,1,new,active
638052771,67923564,,,Castle Court,,,,Castle Court,,Boyd Anderson Drive,,,,opp,,NW,ES002496,Lossiemouth,,,Lossiemouth,EN,-,EN,false,UKOS,322492,869815,-3.30249,57.71141,BCT,MKD,OTH,,,,131,2003-09-04T00:00:00,2013-02-07T14:44:00,2,new,active
638052772,67923565,,,Castle Court,,,,Castle Court,,Boyd Anderson Drive,,,,at,,SE,ES002496,Lossiemouth,,,Lossiemouth,EN,-,EN,false,UKOS,322560,869779,-3.30134,57.7111,BCT,MKD,OTH,,,,131,2003-09-04T00:00:00,2013-02-07T14:45:00,2,new,active
638052782,67924757,,,Shackleton Place,,,,Shackleton Place,,Boyd Anderson Drive,,,,at,,NE,ES002496,Lossiemouth,,,Lossiemouth,EN,-,EN,false,UKOS,322844,869658,-3.29654,57.71007,BCT,MKD,OTH,,,,131,2003-11-13T00:00:00,2013-02-06T13:14:00,4,new,active
638052781,67923567,,,Shackleton Place,,,,Shackleton Place,,Boyd Anderson Drive,,,,opp,,SW,ES002496,Lossiemouth,,,Lossiemouth,EN,-,EN,false,UKOS,322798,869590,-3.29729,57.70945,BCT,MKD,OTH,,,,131,2003-09-04T00:00:00,2013-02-06T13:14:00,2,new,active
638052611,67923674,,,Bayview,,,,Bayview,,B9011,,,,at,,S,ES001382,Findhorn,,,Findhorn,EN,-,EN,false,UKOS,304408,863869,-3.60352,57.65454,BCT,MKD,OTH,,,,131,2003-09-05T00:00:00,2012-12-10T09:52:00,1,new,active
638052621,67923762,,,Teenies Lane,,,,Teenies Lane,,High Street,,,,opp,,N,ES003204,Rothes,,,Rothes,EN,-,EN,false,UKOS,327721,848890,-3.2085,57.52437,BCT,MKD,OTH,,,,131,2003-09-08T00:00:00,2013-02-05T14:54:00,1,new,active
638052631,67924735,,,Kirk Place,,,,Kirk Place,,High Street,,,,opp,,N,ES003204,Rothes,,,Rothes,EN,-,EN,false,UKOS,327752,849110,-3.20805,57.52635,BCT,MKD,OTH,,,,131,2003-11-13T00:00:00,2013-02-04T15:58:00,2,new,active
638052632,67923758,,,Kirk Place,,,,Kirk Place,,High Street,,,,at,,S,ES003204,Rothes,,,Rothes,EN,-,EN,false,UKOS,327764,849116,-3.20785,57.52641,BCT,MKD,OTH,,,,131,2003-09-11T00:00:00,2013-02-04T15:58:00,1,new,active
638052641,67923757,,,Glen Grant Distillery,,,,Glen Grant Distillery,,New Street,,,,at,,S,ES003204,Rothes,,,Rothes,EN,-,EN,false,UKOS,327756,849500,-3.2081,57.52986,BCT,MKD,OTH,,,,131,2003-09-08T00:00:00,2013-02-04T11:54:00,1,new,active
638052571,67923649,,,RAF Kinloss,,,,RAF Kinloss,,B9098,,,,opp,,E,ES002120,Kinloss,,,Kinloss,EN,-,EN,false,UKOS,307090,862068,-3.5579,57.63893,BCT,MKD,OTH,,,,131,2003-09-05T00:00:00,2013-02-06T11:25:00,2,new,active
638052581,67923675,,,Caravan Park,,,,Caravan Park,,B9011,,,,opp,,NW,ES001382,Findhorn,,,Findhorn,EN,Foundation,EN,false,UKOS,305047,863494,-3.59267,57.65131,BCT,MKD,OTH,,,,131,2003-09-05T00:00:00,2012-12-10T13:55:00,3,new,active
638052582,67923676,,,Caravan Park,,,,Caravan Park,,B9011,,,,at,,SE,ES001382,Findhorn,,,Findhorn,EN,Foundation,EN,false,UKOS,305104,863463,-3.5917,57.65104,BCT,MKD,OTH,,,,131,2003-09-05T00:00:00,2012-12-10T13:56:00,3,new,active
638052591,67923672,,,Post Office,,,,Post Office,,B9011,,,,at,,S,ES001382,Findhorn,,,Findhorn,EN,-,EN,false,UKOS,304012,864460,-3.61038,57.65976,BCT,MKD,OTH,,,,131,2003-09-05T00:00:00,2013-02-06T11:12:00,2,new,active
638052601,67923673,,,Parish Church,,,,Parish Church,,B9011,,,,at,,S,ES001382,Findhorn,,,Findhorn,EN,-,EN,false,UKOS,304130,864212,-3.60831,57.65756,BCT,MKD,OTH,,,,131,2003-09-05T00:00:00,2012-12-10T13:56:00,1,new,active
638052672,67923536,,,Chapel Lane,,,,Chapel Lane,,Clifton Road,,,,at,,E,ES002496,Lossiemouth,,,Lossiemouth,EN,-,EN,false,UKOS,323428,870467,-3.287,57.71743,BCT,MKD,OTH,,,,131,2003-09-11T00:00:00,2012-12-06T14:01:00,2,new,active
638052671,67923535,,,Chapel Lane,,,,Chapel Lane,,Clifton Road,,,,opp,,W,ES002496,Lossiemouth,,,Lossiemouth,EN,-,EN,false,UKOS,323387,870455,-3.28768,57.71732,BCT,MKD,OTH,,,,131,2003-09-03T00:00:00,2012-12-06T13:59:00,1,new,active
638052682,67923538,,,Park Place,,,,Park Place,,Clifton Road,,,,opp,,E,ES002496,Lossiemouth,,,Lossiemouth,EN,-,EN,false,UKOS,323591,870574,-3.2843,57.71842,BCT,MKD,OTH,,,,131,2003-09-03T00:00:00,2013-02-06T10:51:00,1,new,active
638052681,67923537,,,Park Place,,,,Park Place,,Clifton Road,,,,at,,W,ES002496,Lossiemouth,,,Lossiemouth,EN,-,EN,false,UKOS,323553,870545,-3.28492,57.71815,BCT,MKD,OTH,,,,131,2003-09-03T00:00:00,2013-02-06T10:51:00,1,new,active
638052642,67923756,,,Glennies Lane,,,,Glennies Lane,,New Street,,,,at,,N,N0073503,Glen Grant Distillery,Rothes,,Rothes,EN,-,EN,false,UKOS,327746,849535,-3.20828,57.53017,BCT,MKD,OTH,,,,131,2003-09-08T00:00:00,2012-12-05T16:00:00,4,new,active
638052652,67923532,,,Moray Street,,,,Moray Street,,Elgin Road,,,,at,,N,ES002496,Lossiemouth,,,Lossiemouth,EN,-,EN,false,UKOS,323238,870030,-3.29005,57.71347,BCT,MKD,OTH,,,,131,2003-09-03T00:00:00,2013-02-05T15:47:00,1,new,active
638052651,67923529,,,Moray Street,,,,Moray Street,,Elgin Road,,,,opp,,S,ES002496,Lossiemouth,,,Lossiemouth,EN,-,EN,false,UKOS,323244,869979,-3.28993,57.71302,BCT,MKD,OTH,,,,131,2003-09-03T00:00:00,2013-02-05T15:47:00,1,new,active
638052662,67924734,,,Church Street,,,,Church Street,,Elgin Road,,,,opp,,N,ES002496,Lossiemouth,,,Lossiemouth,EN,-,EN,false,UKOS,323185,870188,-3.29099,57.71488,BCT,MKD,OTH,,,,131,2003-11-13T00:00:00,2012-12-10T09:03:00,3,new,active
638052661,67923534,,,Church Street,,,,Church Street,,Elgin Road,,,,at,,S,ES002496,Lossiemouth,,,Lossiemouth,EN,-,EN,false,UKOS,323202,870160,-3.29069,57.71463,BCT,MKD,OTH,,,,131,2003-09-03T00:00:00,2012-12-10T09:03:00,2,new,active
638062967,67925357,,,Crossroads,,,,Crossroads,,B9012,,,,adj,,N,N0077210,Waterton,,,Waterton,EN,-,EN,false,UKOS,317869,866034,-3.37877,57.67664,BCT,MKD,OTH,,,,131,2015-04-29T00:00:00,2015-04-29T18:25:36,0,new,active
638052961,67923639,,,Crossroads,,,,Crossroads,,B9012,,,,at,,S,N0077210,Waterton,,,Waterton,EN,-,EN,false,UKOS,317852,866172,-3.3791,57.67788,BCT,MKD,OTH,,,,131,2003-09-11T00:00:00,2013-02-07T14:39:00,1,new,active
638052971,67923638,,,Duffus Road,,,,Duffus Road,,B9012,,,,adj,,W,ES001294,Elgin,,,Findrassie,EN,-,EN,false,UKOS,318994,864463,-3.35938,57.66274,BCT,MKD,OTH,,,,131,2003-09-05T00:00:00,2013-02-04T10:55:00,2,new,active
638052981,67924327,,,Victoria Street,,,,Victoria Street,,A95,,,,at,,NW,N0066948,Craigellachie,,,Craigellachie,EN,-,EN,false,UKOS,328777,845006,-3.18974,57.48966,BCT,MKD,OTH,,,,131,2003-12-01T00:00:00,2013-02-13T09:51:00,4,new,active
638052991,67923786,,,The Square,,,,The Square,,High Street,,,,at,,NE,ES000029,Aberlour,,,Aberlour,EN,-,EN,false,UKOS,326608,842936,-3.22529,57.47073,BCT,MKD,OTH,,,,131,2003-09-09T00:00:00,2014-07-25T12:27:00,3,new,active
638052992,67923785,,,The Square,,,,The Square,,High Street,,,,opp,,SW,ES000029,Aberlour,,,Aberlour,EN,-,EN,false,UKOS,326648,842955,-3.22463,57.4709,BCT,MKD,OTH,,,,131,2003-09-09T00:00:00,2023-08-09T10:09:15,6,new,active
638052931,67924749,,,Brander Street,,,,Brander Street,,Grant Street,,,,NW-bound,,NW,ES000501,Burghead,,,Burghead,EN,-,EN,false,UKOS,311238,868946,-3.49098,57.70153,BCT,MKD,OTH,,,,131,2003-11-13T00:00:00,2012-12-05T15:59:00,3,new,active
638052932,67923628,,,Brander Street,,,,Brander Street,,Grant Street,,,,SE-bound,,SE,ES000501,Burghead,,,Burghead,EN,-,EN,false,UKOS,311190,868973,-3.4918,57.70176,BCT,MKD,OTH,,,,131,2003-09-04T00:00:00,2012-12-05T15:59:00,2,new,active
638052941,67923582,,,War Memorial,,,,War Memorial,,B9012,,,,at,,E,ES001083,Duffus,,,Duffus,EN,-,EN,false,UKOS,316726,868509,-3.39878,57.69866,BCT,MKD,OTH,,,,131,2003-09-04T00:00:00,2013-02-04T15:22:00,2,new,active
638053002,67924286,,,St Margaret's Church,,,,St Margaret's Church,,High Street,,,,opp,,NE,ES000029,Aberlour,,,Aberlour,EN,-,EN,false,UKOS,326981,843263,-3.21917,57.47372,BCT,MKD,OTH,,,,131,2003-12-01T00:00:00,2013-02-06T15:12:00,3,new,active
638053001,67924285,,,St Margaret's Church,,,,St Margaret's Church,,High Street,,,,at,,SW,ES000029,Aberlour,,,Aberlour,EN,-,EN,false,UKOS,327038,843287,-3.21822,57.47395,BCT,MKD,OTH,,,,131,2003-12-01T00:00:00,2013-02-06T15:12:00,3,new,active
638053012,67924354,,,Gas Road,,,,Gas Road,,High Street,,,,opp,,NE,ES000029,Aberlour,,,Aberlour,EN,-,EN,false,UKOS,326810,843110,-3.22197,57.47232,BCT,MKD,OTH,,,,131,2003-12-01T00:00:00,2013-02-04T11:49:00,4,new,active
638053011,67924353,,,Gas Road,,,,Gas Road,,High Street,,,,at,,SW,ES000029,Aberlour,,,Aberlour,EN,-,EN,false,UKOS,326860,843134,-3.22115,57.47254,BCT,MKD,OTH,,,,131,2003-12-01T00:00:00,2013-02-04T11:49:00,4,new,active
638053031,67923974,,,Mar Place,,,,Mar Place,,,,,,adj,,N,ES001929,Keith,,,Fife Keith,EN,-,EN,false,UKOS,342470,850751,-2.96272,57.54321,BCT,MKD,OTH,,,,131,2003-09-08T00:00:00,2013-02-05T15:19:00,1,new,active
638052851,67923587,,,Manse Road,,,,Manse Road,,Forsyth Street,,,,at,,E,ES001785,Hopeman,,,Hopeman,EN,-,EN,false,UKOS,314389,869207,-3.43822,57.70448,BCT,MKD,OTH,,,,131,2003-09-04T00:00:00,2013-02-05T15:18:00,1,new,active
638052852,67923589,,,Manse Road,,,,Manse Road,,Forsyth Street,,,,opp,,W,ES001785,Hopeman,,,Hopeman,EN,-,EN,false,UKOS,314295,869177,-3.43979,57.7042,BCT,MKD,OTH,,,,131,2003-09-04T00:00:00,2013-02-05T15:19:00,1,new,active
638052862,67923593,,,Seaview Road,,,,Seaview Road,,B9012,,,,opp,,E,N0078405,Cummingston,,,Cummingston,EN,-,EN,false,UKOS,313403,868989,-3.45468,57.70234,BCT,MKD,OTH,,,,131,2003-09-11T00:00:00,2013-02-06T13:13:00,2,new,active
638052861,67923592,,,Seaview Road,,,,Seaview Road,,B9012,,,,adj,,W,N0078405,Cummingston,,,Cummimnston,EN,-,EN,false,UKOS,313439,869007,-3.45409,57.70251,BCT,MKD,OTH,,,,131,2003-09-04T00:00:00,2013-02-06T13:12:00,3,new,active
638052872,67923595,,,Back Street,,,,Back Street,,B9040,,,,opp,,E,N0078405,Cummingston,,,Cummingston,EN,-,EN,false,UKOS,313038,868892,-3.46077,57.7014,BCT,MKD,OTH,,,,131,2003-09-04T00:00:00,2012-12-05T14:10:00,2,new,active
638052871,67923594,,,Back Street,,,,Back Street,,B9040,,,,at,,W,N0078405,Cummingston,,,Cummingston,EN,-,EN,false,UKOS,313078,868912,-3.46011,57.70158,BCT,MKD,OTH,,,,131,2003-09-04T00:00:00,2012-12-05T14:10:00,2,new,active
638052821,67923578,,,Manson Terrace,,,,Manson Terrace,,Coulardbank Road,,,,at,,E,ES002496,Lossiemouth,,,Lossiemouth,EN,-,EN,false,UKOS,323084,870272,-3.29271,57.71562,BCT,MKD,OTH,,,,131,2003-09-04T00:00:00,2012-12-10T13:42:00,2,new,active
638052822,67923579,,,Manson Terrace,,,,Manson Terrace,,Coulardbank Road,,,,opp,,W,ES002496,Lossiemouth,,,Lossiemouth,EN,-,EN,false,UKOS,323100,870262,-3.29244,57.71553,BCT,MKD,OTH,,,,131,2003-09-04T00:00:00,2012-12-10T13:43:00,2,new,active
638052831,67923584,,,Bakers Lane,,,,Bakers Lane,,B9012,,,,opp,,W,ES001785,Hopeman,,,Hopeman,EN,-,EN,false,UKOS,314852,869311,-3.43049,57.70551,BCT,MKD,OTH,,,,131,2003-09-04T00:00:00,2012-12-05T14:22:00,1,new,active
638052842,67923585,,,Harbour Street,,,,Harbour Street,,Forsyth Street,,,,at,,E,ES001785,Hopeman,,,Hopeman,EN,-,EN,false,UKOS,314741,869296,-3.43235,57.70535,BCT,MKD,OTH,,,,131,2003-09-04T00:00:00,2013-02-04T13:19:00,1,new,active
638052841,67923586,,,Harbour Street,,,,Harbour Street,,Forsyth Street,,,,opp,,W,ES001785,Hopeman,,,Hopeman,EN,-,EN,false,UKOS,314646,869262,-3.43393,57.70503,BCT,MKD,OTH,,,,131,2003-09-04T00:00:00,2013-02-04T13:18:00,1,new,active
638052901,67923623,,,St Aethans Drive,,,,St Aethans Drive,,Fraser Road,,,,opp,,E,ES000501,Burghead,,,Burghead,EN,Whity City,EN,false,UKOS,311901,868904,-3.47985,57.70128,BCT,MKD,OTH,,,,131,2003-09-03T00:00:00,2013-02-06T15:01:00,2,new,active
638052902,67923624,,,St Aethans Drive,,,,St Aethans Drive,,Fraser Drive,,,,at,,W,ES000501,Burghead,,,Burghead,EN,White City,EN,false,UKOS,311900,868893,-3.47986,57.70118,BCT,MKD,OTH,,,,131,2003-09-03T00:00:00,2013-02-06T14:05:00,1,new,active
638052912,67923625,,,St Aethans Place,,,,St Aethans Place,,Fraser Road,,,,opp,,NE,ES000501,Burghead,,,Burghead,EN,-,EN,false,UKOS,311689,868781,-3.48336,57.70014,BCT,MKD,OTH,,,,131,2003-09-04T00:00:00,2013-02-06T15:01:00,1,new,active
638052911,67923626,,,St Aethans Place,,,,St Aethans Place,,Fraser Road,,,,at,,SW,ES000501,Burghead,,,Burghead,EN,-,EN,false,UKOS,311707,868791,-3.48306,57.70023,BCT,MKD,OTH,,,,131,2003-09-04T00:00:00,2013-02-06T15:00:00,2,new,active
638052921,67923627,,,Kinloss Street,,,,Kinloss Street,,Grant Street,,,,at,,NW,ES000501,Burghead,,,Burghead,EN,-,EN,false,UKOS,311495,868821,-3.48663,57.70046,BCT,MKD,OTH,,,,131,2003-09-04T00:00:00,2013-02-04T15:57:00,1,new,active
638052922,67924752,,,Primary School,,,,Primary School,,Grant Street,,,,at,,E,ES000501,Burghead,,,Burghead,EN,-,EN,false,UKOS,311432,868867,-3.4877,57.70086,BCT,MKD,OTH,,,,131,2003-11-13T00:00:00,2013-02-06T10:52:00,2,new,active
638052881,67923596,,,Fraser Road,,,,Fraser Road,,Fraser Road,,,,at,,E,ES000501,Burghead,,,Burghead,EN,White City,EN,false,UKOS,312211,868948,-3.47466,57.70174,BCT,MKD,OTH,,,,131,2003-09-04T00:00:00,2013-02-06T11:51:00,1,new,active
638052891,67923597,,,Keith Road,,,,Keith Road,,Fraser Road,,,,opp,,E,ES000501,Burghead,,,Burghead,EN,White City,EN,false,UKOS,312048,868944,-3.4774,57.70167,BCT,MKD,OTH,,,,131,2003-09-03T00:00:00,2013-02-04T15:52:00,2,new,active
638052892,67923598,,,Keith Road,,,,Keith Road,,Fraser Road,,,,adj,,W,ES000501,Burghead,,,Burghead,EN,White City,EN,false,UKOS,312021,868929,-3.47784,57.70153,BCT,MKD,OTH,,,,131,2003-09-03T00:00:00,2013-02-04T15:53:00,2,new,active
638052561,67923646,,,North Road,,,,North Road,,Easter Road,,,,at,,NW,ES002120,Kinloss,,,Kinloss,EN,South Side,EN,false,UKOS,307566,861764,-3.54981,57.6363,BCT,MKD,OTH,,,,131,2003-09-05T00:00:00,2013-02-06T09:35:00,3,new,active
638051902,67924289,,,Sutherland Street,,,,Sutherland Street,,Seaview Road,,,,opp,,E,ES000495,Buckie,,,Buckie,EN,-,EN,false,UKOS,341644,865445,-2.98006,57.67507,BCT,MKD,OTH,,,,131,2003-12-01T00:00:00,2013-02-06T16:06:00,3,new,active
638051901,67924287,,,Sutherland Street,,,,Sutherland Street,,Seaview Road,,,,at,,W,ES000495,Buckie,,,Buckie,EN,-,EN,false,UKOS,341658,865439,-2.97983,57.67501,BCT,MKD,OTH,,,,131,2003-12-01T00:00:00,2013-02-06T16:05:00,2,new,active
638051911,67923454,,,Pansport Place,,,,Pansport Place,,Pansport Road,,,,opp,,S,ES001294,Elgin,,,Elgin,EN,Pansport,EN,false,UKOS,322325,862870,-3.30305,57.64902,BCT,MKD,OTH,,,,131,2003-09-02T00:00:00,2013-02-06T09:59:00,3,new,active
638051921,67924729,,,Forbes Hill,,,,Forbes Hill,,,,,,at,,W,ES001428,Forres,,,Forres,EN,-,EN,false,UKOS,304993,859514,-3.59201,57.61556,BCT,MKD,OTH,,,,131,2003-11-13T00:00:00,2013-02-28T14:36:00,3,new,active
638052051,67924747,,,Distillery Cottages,,,,Distillery Cottages,,A941,,,,N-bound,,N,N0066923,Fogwatt,,,Fogwatt,EN,-,EN,false,UKOS,323549,856783,-3.28063,57.59457,BCT,MKD,OTH,,,,131,2003-11-13T00:00:00,2012-12-10T11:54:00,2,new,active
638052052,67924746,,,Distillery Cottages,,,,Distillery Cottages,,A941,,,,S-bound,,S,N0066923,Fogwatt,,,Fogwatt,EN,-,EN,false,UKOS,323530,856936,-3.28099,57.59594,BCT,MKD,OTH,,,,131,2003-11-13T00:00:00,2012-12-10T11:55:00,3,new,active
638051871,67923896,,,Pringle Court,,,,Pringle Court,,West Church Street,,,,opp,,E,ES000495,Buckie,,,Buckie,EN,-,EN,false,UKOS,342230,865423,-2.97024,57.67495,BCT,MKD,OTH,,,,131,2003-09-10T00:00:00,2013-02-06T11:20:00,1,new,active
638051872,67923897,,,Pringle Court,,,,Pringle Court,,West Church Street,,,,at,,W,ES000495,Buckie,,,Buckie,EN,-,EN,false,UKOS,342240,865414,-2.97007,57.67487,BCT,MKD,OTH,,,,131,2003-09-10T00:00:00,2013-02-06T11:21:00,1,new,active
638051881,67924276,,,St Andrew's Square,,,,St Andrew's Square,,St Peter's Road,,,,at,,E,ES000495,Buckie,,,Buckie,EN,Buckpool,EN,false,UKOS,341813,865221,-2.97718,57.67308,BCT,MKD,OTH,,,,131,2003-09-09T00:00:00,2013-02-06T15:03:00,1,new,active
638051892,67923892,,,St Peter's Terrace,,,,St Peter's Terrace,,Land Street,,,,at,,N,ES000495,Buckie,,,Buckie,EN,Buckpool,EN,false,UKOS,341841,865326,-2.97673,57.67402,BCT,MKD,OTH,,,,131,2003-09-10T00:00:00,2013-02-06T15:13:00,1,new,active
638051891,67923893,,,St Peter's Terrace,,,,St Peter's Terrace,,Land Street,,,,opp,,S,ES000495,Buckie,,,Buckie,EN,Buckpool,EN,false,UKOS,341838,865311,-2.97678,57.67389,BCT,MKD,OTH,,,,131,2003-09-10T00:00:00,2013-02-06T15:13:00,1,new,active
638052082,67923924,,,Shanks Lane,,,,Shanks Lane,,East Church Street,,,,opp,,E,ES000495,Buckie,,,Buckie,EN,Square,EN,false,UKOS,342626,865621,-2.96364,57.67677,BCT,MKD,OTH,,,,131,2003-09-10T00:00:00,2013-02-06T13:16:00,1,new,active
638052081,67923925,,,Shanks Lane,,,,Shanks Lane,,East Church Street,,,,at,,W,ES000495,Buckie,,,Buckie,EN,-,EN,false,UKOS,342702,865642,-2.96238,57.67697,BCT,MKD,OTH,,,,131,2003-09-04T00:00:00,2013-02-06T13:16:00,1,new,active
638052121,67924258,,,Shearer Avenue,,,,Shearer Avenue,,Milton Drive,,,,at,,W,ES000495,Buckie,,,Buckie,EN,-,EN,false,UKOS,343045,865119,-2.9565,57.67232,BCT,MKD,OTH,,,,131,2003-09-09T00:00:00,2013-02-06T13:18:00,1,new,active
638052123,67924259,,,Brodie Avenue,,,,Brodie Avenue,,Milton Drive,,,,opp,,NW,ES000495,Buckie,,,Buckie,EN,-,EN,false,UKOS,342949,865153,-2.95812,57.67261,BCT,MKD,OTH,,,,131,2003-09-09T00:00:00,2012-12-05T16:14:00,2,new,active
638052131,67924256,,,Raffan Road,,,,Raffan Road,,Raffan Road,,,,at,,W,ES000495,Buckie,,,Buckie,EN,-,EN,false,UKOS,343316,865330,-2.95201,57.67425,BCT,MKD,OTH,,,,131,2003-09-09T00:00:00,2013-02-06T11:28:00,2,new,active
638052141,67924254,,,Douglas Crescent,,,,Douglas Crescent,,Douglas Crescent,,,,opp,,SE,ES000495,Buckie,,,Buckie,EN,-,EN,false,UKOS,343372,865541,-2.95112,57.67615,BCT,MKD,OTH,,,,131,2003-09-08T00:00:00,2012-12-10T11:56:00,2,new,active
638067893,67925285,,,Douglas Crescent,,,,,,Douglas Crescent,,,,at,,NW,ES000495,Buckie,,,Buckie,EN,,,false,UKOS,343373,865521,-2.9511,57.67597,BCT,CUS,OTH,,,,131,2010-10-13T00:00:00,2010-10-13T15:48:00,0,new,active
638052061,67923752,,,Longmorn Distillery,,,,Longmorn Distillery,,A941,,,,opp,,N,N0078404,Longmorn,,,Longmorn,EN,-,EN,false,UKOS,322977,858192,-3.29064,57.60712,BCT,MKD,OTH,,,,131,2003-09-08T00:00:00,2013-02-05T14:49:00,3,new,active
638052062,67924743,,,Longmorn Distillery,,,,Longmorn Distillery,,A941,,,,at,,S,N0078404,Longmorn,,,A941,EN,-,EN,false,UKOS,323001,858192,-3.29024,57.60713,BCT,MKD,OTH,,,,131,2003-11-13T00:00:00,2013-02-05T14:49:00,3,new,active
638052071,67924742,,,Benriach Cottages,,,,Benriach Cottages,,A941,,,,opp,,E,N0078404,Longmorn,,,A941,EN,-,EN,false,UKOS,322801,858671,-3.29374,57.6114,BCT,MKD,OTH,,,,131,2003-11-13T00:00:00,2012-12-05T14:48:00,4,new,active
638063345,67925364,,,Benriach Cottages,,,,Benriach Cottages,,A941,,,,at,,SE,N0078404,Longmorn,,,Longmorn,EN,-,EN,false,UKOS,322788,858702,-3.29397,57.61167,BCT,MKD,OTH,,,,131,2015-04-30T00:00:00,2015-04-30T11:15:12,0,new,active
638051572,67923847,,,Woodlands Drive,,,,Woodlands Drive,,Garmouth Road,,,,at,,NE,ES002359,Lhanbryde,,,Lhanbryde,EN,-,EN,false,UKOS,327542,861376,-3.21522,57.63647,BCT,MKD,OTH,,,,131,2003-09-09T00:00:00,2013-02-07T15:28:00,3,new,active
638051571,67923848,,,Woodlands Drive,,,,Woodlands Drive,,Garmouth Road,,,,opp,,SW,ES002359,Lhanbryde,,,Lhanbryde,EN,-,EN,false,UKOS,327519,861345,-3.2156,57.63619,BCT,MKD,OTH,,,,131,2003-09-09T00:00:00,2013-02-07T15:28:00,2,new,active
638051581,67923849,,,Park View,,,,Park View,,Garmouth Road,,,,opp,,E,ES002359,Lhanbryde,,,Lhanbryde,EN,-,EN,false,UKOS,327677,861441,-3.21298,57.63708,BCT,MKD,OTH,,,,131,2003-09-09T00:00:00,2013-02-06T11:05:00,1,new,active
638051582,67923239,,,Park View,,,,Park View,,Garmouth Road,,,,at,,W,ES002359,Lhanbryde,,,Lhanbryde,EN,-,EN,false,UKOS,327690,861466,-3.21277,57.63731,BCT,MKD,OTH,,,,131,2003-08-20T00:00:00,2013-02-06T11:05:00,2,new,active
638051591,67923242,,,Elsher Road,,,,Elsher Road,,Robertson Road,,,,at,,E,ES002359,Lhanbryde,,,Lhanbryde,EN,-,EN,false,UKOS,327842,861421,-3.21021,57.63693,BCT,MKD,OTH,,,,131,2003-08-20T00:00:00,2012-12-10T13:44:00,1,new,active
638051592,67923243,,,Elsher Road,,,,Elsher Road,,Robertson Road,,,,opp,,W,ES002359,Lhanbryde,,,Lhanbryde,EN,-,EN,false,UKOS,327862,861388,-3.20987,57.63663,BCT,MKD,OTH,,,,131,2003-08-20T00:00:00,2012-12-10T13:44:00,1,new,active
638051541,67924363,,,Mannoch Croft,,,,Mannoch Croft,,,,,,at,,NW,N0066875,Milltown of Rothiemay,,,Milton of Rothiemay,EN,-,EN,false,UKOS,352215,850630,-2.79992,57.54326,BCT,MKD,OTH,,,,131,2003-12-01T00:00:00,2013-02-05T15:15:00,1,new,active
638051561,67924387,,,Meft Road,,,,Meft Road,,Main Street,,,,opp,,W,ES002359,Lhanbryde,,,Lhanbryde,EN,,,false,UKOS,328602,862675,-3.19786,57.64831,BCT,MKD,OTH,,,,131,2004-11-19T00:00:00,2013-02-08T09:44:00,2,new,active
638051811,67923274,,,Glover Street,,,,Glover Street,,High Street,,,,at,,W,ES001294,Elgin,,,Elgin,EN,City centre,EN,false,UKOS,321837,862858,-3.31122,57.64883,BCT,MKD,OTH,,,,131,2003-09-01T00:00:00,2013-02-04T12:15:00,2,new,active
638051861,67923923,,,Cluny Place,,,,Cluny Place,,West Church Street,,,,opp,,E,ES000495,Buckie,,,Buckie,EN,-,EN,false,UKOS,342500,865542,-2.96574,57.67605,BCT,MKD,OTH,,,,131,2003-09-10T00:00:00,2012-12-10T09:18:00,1,new,active
638051862,67923898,,,Cluny Place,,,,Cluny Place,,West Church Street,,,,at,,W,ES000495,Buckie,,,Buckie,EN,-,EN,false,UKOS,342405,865506,-2.96732,57.67571,BCT,MKD,OTH,,,,131,2003-09-10T00:00:00,2012-12-10T09:18:00,1,new,active
638051602,67923246,,,Innes Court,,,,Innes Court,,Robertson Road,,,,at,,NE,ES002359,Lhanbryde,,,Lhanbryde,EN,-,EN,false,UKOS,327895,861197,-3.20926,57.63492,BCT,MKD,OTH,,,,131,2003-08-20T00:00:00,2013-02-04T15:45:00,2,new,active
638051601,67923245,,,Innes Court,,,,Innes Court,,Robertson Road,,,,opp,,SW,ES002359,Lhanbryde,,,Lhanbryde,EN,-,EN,false,UKOS,327892,861185,-3.2093,57.63482,BCT,MKD,OTH,,,,131,2003-08-20T00:00:00,2013-02-04T15:46:00,2,new,active
638051611,67924697,,,Innes Road,,,,Innes Road,,High Street,,,,opp,,SW,ES001490,Garmouth,,,Garmouth,EN,-,EN,false,UKOS,333791,864446,-3.11143,57.66501,BCT,MKD,OTH,,,,131,2003-11-14T00:00:00,2013-02-04T11:47:00,4,new,active
638052392,67923829,,,The Clock Tower,,,,The Clock Tower,,A941,,,,at,,N,ES001082,Dufftown,,,Dufftown,EN,-,EN,false,UKOS,332347,839950,-3.1288,57.4448,BCT,MKD,OTH,,,,131,2003-09-08T00:00:00,2023-08-15T11:38:42,27,new,active
638052391,67924393,,,The Clock Tower,,,,The Clock Tower,,A941,,,,adj,,S,ES001082,Dufftown,,,Dufftown,EN,-,EN,false,UKOS,332368,840031,-3.12847,57.44553,BCT,MKD,OTH,,,,131,2004-11-19T00:00:00,2023-08-15T11:38:42,27,new,active
638052401,67923987,,,Turfhilloch,,,,Turfhilloch,,,,,,opp,,E,N0066935,Drummuir,,,-,EN,-,EN,false,UKOS,340562,844493,-2.99306,57.48675,BCT,MKD,OTH,,,,131,2003-09-08T00:00:00,2013-02-07T13:59:00,1,new,active
638052351,67923989,,,Tocher Terrace,,,,Tocher Terrace,,,,,,opp,,W,N0066935,Drummuir,,,Drummuir,EN,-,EN,false,UKOS,338208,844260,-3.03226,57.48435,BCT,MKD,OTH,,,,131,2003-09-08T00:00:00,2013-02-07T11:59:00,1,new,active
638052361,67923979,,,Mill of Towie,,,,Mill of Towie,,,,,,at,,S,N0066935,Drummuir,,,-,EN,-,EN,false,UKOS,340707,847214,-2.99131,57.51121,BCT,MKD,OTH,,,,131,2003-09-08T00:00:00,2013-10-10T12:43:00,3,new,active
638052382,67923835,,,Hill Street,,,,Hill Street,,Balvenie Street,,,,at,,N,ES001082,Dufftown,,,Dufftown,EN,-,EN,false,UKOS,332326,840226,-3.12922,57.44728,BCT,MKD,OTH,,,,131,2003-09-09T00:00:00,2013-02-04T15:17:00,1,new,active
638052381,67923834,,,Hill Street,,,,Hill Street,,Balvenie Street,,,,opp,,S,ES001082,Dufftown,,,Dufftown,EN,-,EN,false,UKOS,332335,840280,-3.12909,57.44776,BCT,MKD,OTH,,,,131,2003-09-09T00:00:00,2013-02-04T15:17:00,1,new,active
638052501,67924736,,,School,,,,School,,A940,,,,at,,S,N0066890,Logie,,,Logie,EN,-,EN,false,UKOS,301097,850485,-3.65351,57.53366,BCT,MKD,OTH,,,,131,2003-11-13T00:00:00,2024-10-07T11:46:15,33,new,active
638052531,67923658,,,Kinloss Bridge,,,,Kinloss Bridge,,B9011,,,,at,,E,ES002120,Kinloss,,,Kinloss,EN,-,EN,false,UKOS,306300,861599,-3.57094,57.63456,BCT,MKD,OTH,,,,131,2003-09-05T00:00:00,2013-02-04T15:56:00,1,new,active
638052552,67924546,,,Burnside,,,,Burnside,,B9089,,,,at,,S,ES002120,Kinloss,,,Kinloss,EN,-,EN,false,UKOS,306913,861376,-3.5606,57.63268,BCT,MKD,OTH,,,,131,2004-11-19T00:00:00,2013-02-06T15:18:00,1,new,active
638052431,67923683,,,Tearie Lodge,,,,Tearie Lodge,,A96,,,,opp,,NE,N0077220,Brodie,,,Brodie,EN,-,EN,false,UKOS,299111,856652,-3.68923,57.58859,BCT,MKD,OTH,,,,131,2003-09-05T00:00:00,2013-02-06T16:08:00,3,new,active
638052441,67924382,,,Newton Road End,,,,Newton Road End,,Unclassified Road,,,,at,,NE,N0066954,Conicavel,,,Conicavel,EN,-,EN,false,UKOS,299048,854027,-3.68919,57.56501,BCT,MKD,OTH,,,,131,2003-12-01T00:00:00,2013-02-28T14:59:00,3,new,active
638052451,67924293,,,Whitemire Farm,,,,Whitemire Farm,,Unclassified Road,,,,at,,NW,N0066954,Conicavel,,,Conicavel,EN,-,EN,false,UKOS,298774,854311,-3.69388,57.56749,BCT,MKD,OTH,,,,131,2003-12-01T00:00:00,2013-02-07T15:17:00,3,new,active
638052461,67924396,,,Cooperhill Burn,,,,Cooperhill Burn,,Unclassified Road,,,,at,,SW,N0066954,Conicavel,,,Conicavel,EN,-,EN,false,UKOS,299516,853420,-3.68112,57.55966,BCT,MKD,OTH,,,,131,2004-11-19T00:00:00,2013-02-07T11:38:00,1,new,active
638052471,67924359,,,Wester Oaks,,,,Wester Oaks,,Unclassified Road,,,,at,,E,N0077209,Logiebuchany,,,Conicavel,EN,-,EN,false,UKOS,298398,855014,-3.70046,57.57372,BCT,MKD,OTH,,,,131,2003-12-01T00:00:00,2013-02-07T15:08:00,2,new,active
638052221,67923732,,,Distillery Cottages,,,,Distillery Cottages,,B9010,,,,opp,,S,N0073502,Dallas Dhu Distillery,,,Rafford,EN,-,EN,false,UKOS,303425,856566,-3.61706,57.58876,BCT,MKD,OTH,,,,131,2003-09-11T00:00:00,2013-02-08T09:06:00,4,new,active
638052231,67924535,,,Lochnabo Cottage,,,,Lochnabo Cottage,,B9103,,,,at,,NW,ES002359,Lhanbryde,,,Lhanbryde,EN,-,EN,false,UKOS,327958,859287,-3.20763,57.61778,BCT,MKD,OTH,,,,131,2004-11-19T00:00:00,2013-02-05T14:43:00,3,new,active
638067701,67925372,,,Home Farm,,,,Home Farm,,B9015,,,,opp,,N,N0077205,Orton,,,,,,,false,UKOS,331136,854042,-3.15296,57.57118,BCT,CUS,OTH,,,,131,2007-01-12T00:00:00,2013-02-06T09:55:00,7,new,active
638052241,67923845,,,Home Farm,,,,Home Farm,,B9015,,,,at,,S,N0077205,Orton,,,Orton,EN,-,EN,false,UKOS,331175,854016,-3.1523,57.57095,BCT,MKD,OTH,,,,131,2003-09-09T00:00:00,2013-02-04T15:18:00,2,new,active
638051061,67923858,,,Baxters of Speyside,,,,Baxters of Speyside,,A96,,,,opp,,NW,ES001406,Fochabers,,,Fochabers,EN,-,EN,false,UKOS,333827,859664,-3.10951,57.62207,BCT,MKD,OTH,,,,131,2003-09-09T00:00:00,2012-12-05T14:40:00,2,new,active
638051062,67923859,,,Baxters of Speyside,,,,Baxters of Speyside,,A96,,,,at,,SE,ES001406,Fochabers,,,Fochabers,EN,-,EN,false,UKOS,333824,859683,-3.10957,57.62224,BCT,MKD,OTH,,,,131,2003-09-09T00:00:00,2012-12-05T14:40:00,3,new,active
638051052,67923962,,,The Square,,,,The Square,,High Street,,,,opp,,W,ES001406,Fochabers,,,Fochabers,EN,-,EN,false,UKOS,334506,858789,-3.09791,57.61431,BCT,MKD,OTH,,,,131,2003-09-08T00:00:00,2013-02-07T11:13:00,1,new,active
638051051,67923963,,,The Square,,,,The Square,,High Street,,,,opp,,E,ES001406,Fochabers,,,Fochabers,EN,-,EN,false,UKOS,334554,858773,-3.0971,57.61417,BCT,MKD,OTH,,,,131,2003-09-08T00:00:00,2013-02-07T11:13:00,1,new,active
638053541,67923262,,,Bus Station,,,,Bus Station,,Bus Station,,,,Stance,,,ES001294,Elgin,,,Elgin,EN,City Centre,EN,false,UKOS,321528,862941,-3.31643,57.64952,BCS,,,,,,131,2003-09-01T00:00:00,2008-04-29T09:25:00,1,new,active
638053542,67923263,,,Bus Station,,,,Bus Station,,Bus Station,,,,Stance,,,ES001294,Elgin,,,Elgin,EN,City Centre,EN,false,UKOS,321515,862939,-3.31664,57.6495,BCS,,,,,,131,2003-09-01T00:00:00,2008-04-29T09:25:00,2,new,active
638053543,67923743,,,Bus Station,,,,Bus Station,,Bus Station,,,,Stance,,,ES001294,Elgin,,,Elgin,EN,City Centre,EN,false,UKOS,321531,862946,-3.31638,57.64957,BCS,,,,,,131,2003-09-11T00:00:00,2008-04-29T09:25:00,2,new,active
638053544,67923269,,,Bus Station,,,,Bus Station,,Bus Station,,,,Stance,,,ES001294,Elgin,,,Elgin,EN,City Centre,EN,false,UKOS,321516,862940,-3.31663,57.64951,BCS,,,,,,131,2003-09-01T00:00:00,2008-04-29T09:26:00,2,new,active
638053545,67923268,,,Bus Station,,,,Bus Station,,Bus Station,,,,Stance,,,ES001294,Elgin,,,Elgin,EN,City centre,EN,false,UKOS,321523,862944,-3.31651,57.64955,BCS,,,,,,131,2003-09-01T00:00:00,2008-04-29T09:26:00,2,new,active
638053546,67923267,,,Bus Station,,,,Bus Station,,Bus Station,,,,Stance,,,ES001294,Elgin,,,Elgin,EN,City centre,EN,false,UKOS,321529,862946,-3.31641,57.64956,BCS,,,,,,131,2003-09-01T00:00:00,2008-04-29T09:26:00,2,new,active
638053547,67923265,,,Bus Station,,,,Bus Station,,Bus Station,,,,Stance,,,ES001294,Elgin,,,Elgin,EN,Cuty centre,EN,false,UKOS,321536,862949,-3.3163,57.64959,BCS,,,,,,131,2003-09-01T00:00:00,2008-04-29T09:26:00,2,new,active
638052202,67924738,,,Findhorn Road,,,,Findhorn Road,,Victoria Road,,,,at,,E,ES001428,Forres,,,Forres,EN,-,EN,false,UKOS,304495,859368,-3.60028,57.61415,BCT,MKD,OTH,,,,131,2003-11-13T00:00:00,2012-12-10T13:58:00,2,new,active
638052201,67924739,,,Findhorn Road,,,,Findhorn Road,,Victoria Road,,,,opp,,W,ES001428,Forres,,,Forres,EN,-,EN,false,UKOS,304517,859362,-3.59991,57.6141,BCT,MKD,OTH,,,,131,2003-11-13T00:00:00,2012-12-10T13:58:00,2,new,active
638052422,67924346,,,Duncarron,,,,Duncarron,,A96,,,,opp,,W,N0078609,Bridge of Findhorn,,,Forres,EN,-,EN,false,UKOS,301292,858070,-3.65334,57.6018,BCT,MKD,OTH,,,,131,2003-12-01T00:00:00,2013-02-08T09:25:00,4,new,active
638052421,67923692,,,Findhorn Bridge,,,,Findhorn Bridge,,A96,,,,at,,E,ES001428,Forres,,,Forres,EN,-,EN,false,UKOS,300957,858163,-3.65898,57.60256,BCT,MKD,OTH,,,,131,2003-09-05T00:00:00,2012-12-10T13:55:00,1,new,active
638053341,67924748,,,Drumine Road,,,,Drumine Road,,Drumine Road,,,,at,,N,ES001428,Forres,,,Forres,EN,-,EN,false,UKOS,302503,858388,-3.63321,57.60492,BCT,MKD,OTH,,,,131,2003-11-13T00:00:00,2012-12-10T13:03:00,1,new,active
638053351,67924764,,,Califer Road,,,,Califer Road,,Califer Road,,,,o/s,,W,ES001428,Forres,,,Forres,EN,-,EN,false,UKOS,302378,858386,-3.6353,57.60488,BCT,MKD,OTH,,,,131,2003-11-13T00:00:00,2012-12-06T11:40:00,1,new,active
638053311,67924753,,,Califer Road,,,,Califer Road,,Califer Road,,,,o/s,,E,ES001428,Forres,,,Forres,EN,-,EN,false,UKOS,302441,858509,-3.6343,57.60599,BCT,MKD,OTH,,,,131,2003-11-13T00:00:00,2012-12-06T11:34:00,1,new,active
638053451,67924372,,,Broad Lane,,,,Broad Lane,,Moss Street,,,,at,,N,ES001929,Keith,,,Keith,EN,-,EN,false,UKOS,343275,850032,-2.94911,57.53685,BCT,MKD,OTH,,,,131,2003-12-01T00:00:00,2013-02-05T15:52:00,2,new,active
638053452,67924373,,,Broad Lane,,,,Broad Lane,,Moss Street,,,,opp,,S,ES001929,Keith,,,Keith,EN,-,EN,false,UKOS,343286,850014,-2.94892,57.53669,BCT,MKD,OTH,,,,131,2003-12-01T00:00:00,2013-02-05T15:53:00,2,new,active
638053472,67923256,,,Fochabers Bridge,,,,Fochabers Bridge,,A96,,,,N-bound,,N,ES001406,Fochabers,,,Fochabers,EN,-,EN,false,UKOS,334136,859338,-3.10425,57.61918,BCT,MKD,OTH,,,,131,2003-08-20T00:00:00,2013-02-04T11:34:00,5,new,active
638053471,67923862,,,Fochabers Bridge,,,,Fochabers Bridge,,A96,,,,SE-bound,,SE,ES001406,Fochabers,,,Fochabers,EN,-,EN,false,UKOS,334073,859438,-3.10533,57.62007,BCT,MKD,OTH,,,,131,2003-09-09T00:00:00,2012-12-10T15:01:00,2,new,active
638050162,67923282,,,West Park Court,,,,West Park Court,,High Street,,,,at,,W,ES001294,Elgin,,,Elgin,EN,City Centre,EN,false,UKOS,321171,862692,-3.32233,57.64722,BCT,MKD,OTH,,,,131,2003-09-01T00:00:00,2013-02-07T14:59:00,1,new,active
638050161,67923283,,,West Park Court,,,,West Park Court,,High Street,,,,opp,,E,ES001294,Elgin,,,Elgin,EN,City Centre,EN,false,UKOS,321211,862725,-3.32167,57.64752,BCT,MKD,OTH,,,,131,2003-09-01T00:00:00,2013-02-07T14:59:00,1,new,active
638053651,67923525,,,West Road,,,,West Road,,,,,,adj,,S,ES001294,Elgin,,,Elgin,EN,West End,EN,false,UKOS,320473,862646,-3.334,57.64669,BCT,MKD,OTH,,,,131,2003-09-03T00:00:00,2013-02-07T15:25:00,1,new,active
638053501,67923278,,,Maryhill House,,,,Maryhill House,,High Street,,,,at,,E,ES001294,Elgin,,,Elgin,EN,West End,EN,false,UKOS,321010,862643,-3.32501,57.64675,BCT,MKD,OTH,,,,131,2003-09-01T00:00:00,2013-02-05T15:25:00,1,new,active
638053502,67923279,,,Maryhill House,,,,Maryhill House,,High Street,,,,opp,,W,ES001294,Elgin,,,Elgin,EN,West End,EN,false,UKOS,321043,862642,-3.32445,57.64675,BCT,MKD,OTH,,,,131,2003-09-01T00:00:00,2013-02-05T15:25:00,1,new,active
638053482,67923272,,,Library,,,,Library,,Alexandra Road,,,,at,,E,ES001294,Elgin,,,Elgin,EN,City Centre,EN,false,UKOS,321810,863016,-3.31173,57.65024,BCT,MKD,OTH,,,,131,2003-09-01T00:00:00,2013-02-06T09:24:00,1,new,active
638053481,67923273,,,Library,,,,Library,,Alexandra Road,,,,opp,,W,ES001294,Elgin,,,Elgin,EN,City Centre,EN,false,UKOS,321842,862989,-3.31118,57.65001,BCT,MKD,OTH,,,,131,2003-09-01T00:00:00,2013-02-06T09:24:00,1,new,active
638055081,67924963,,,Ramflat Road,,,,Varis Road,,Ramflat Road,,,,at,,S,ES001428,Forres,,,,,,,false,UKOS,302785,858585,-3.62858,57.60675,BCT,MKD,OTH,,,,131,2006-07-18T00:00:00,2011-12-22T13:45:00,2,new,active
638052521,67924347,,,Ramflat Road,,,,Ramflat Road,,Nairn Road,,,,adj,,W,ES001428,Forres,,,Forres,EN,-,EN,false,UKOS,302862,858665,-3.62732,57.60749,BCT,MKD,OTH,,,,131,2003-12-01T00:00:00,2012-12-10T15:41:00,2,new,active
638050021,67924623,,,Cathedral Road,,,,Cathedral Road,,South College Street,,,,at,,E,ES001294,Elgin,,,Elgin,EN,-,EN,false,UKOS,322272,862786,-3.30392,57.64826,BCT,MKD,OTH,,,,131,2003-11-13T00:00:00,2013-02-06T13:35:00,1,new,active
638050022,67924624,,,Cathedral Road,,,,Cathedral Road,,South College Street,,,,opp,,W,ES001294,Elgin,,,Elgin,EN,-,EN,false,UKOS,322254,862778,-3.30421,57.64818,BCT,MKD,OTH,,,,131,2003-11-13T00:00:00,2013-02-06T13:36:00,2,new,active
638062953,6792534,,,Sherriffston Cottages,,,,Sherriffston Cottages,,A96,,,,at,,SE,ES002359,Lhanbryde,,,Lhanbryde,EN,-,EN,false,UKOS,325623,861575,-3.24742,57.63795,BCT,MKD,OTH,,,,131,2015-04-29T00:00:00,2015-04-29T17:53:36,0,new,active
638050581,67923234,,,Sherriffston Cottages,,,,Sherriffston Cottages,,A96,,,,at,,W,ES002359,Lhanbryde,,,Lhanbryde,EN,-,EN,false,UKOS,325648,861551,-3.24699,57.63774,BCT,MKD,OTH,,,,131,2003-08-20T00:00:00,2013-02-06T13:30:00,3,new,active
638050571,67923232,,,Backmuir Cottages,,,,Backmuir Cottages,,A96,,,,at,,S,N0066976,Blackhillock,,,Keith,EN,-,EN,false,UKOS,344538,847810,-2.92751,57.51705,BCT,MKD,OTH,,,,131,2003-08-20T00:00:00,2012-12-05T14:22:00,2,new,active
638053321,67923682,,,Brodie Castle,,,,Brodie Castle,,A96,,,,at,,E,N0077220,Brodie,,,Brodie,EN,-,EN,false,UKOS,297779,857172,-3.71171,57.59296,BCT,MKD,OTH,,,,131,2003-09-05T00:00:00,2013-02-07T10:46:00,5,new,active
638053322,67923679,,,Brodie Castle,,,,Brodie Castle,,A96,,,,opp,,W,N0077220,Brodie,,,Brodie,EN,-,EN,false,UKOS,297887,857169,-3.70991,57.59296,BCT,MKD,OTH,,,,131,2003-09-05T00:00:00,2013-02-07T10:46:00,5,new,active
638050411,67923642,,,Sheriffmill Road,,,,Sheriffmill Road,,A96,,,,adj,,W,ES000364,Bishopmill,Elgin,,Elgin,EN,West End,EN,false,UKOS,319812,862832,-3.34513,57.64824,BCT,MKD,OTH,,,,131,2003-09-05T00:00:00,2015-04-29T18:11:30,2,new,active
638062952,67925353,,,Sheriffmill Road,,,,Sheriffmill Road,,A96,,,,adj,,SE,ES000364,Bishopmill,Elgin,,Elgin,EN,,,false,UKOS,319836,862846,-3.34474,57.64837,BCT,MKD,OTH,,,,131,2015-04-29T00:00:00,2015-04-29T18:09:30,0,new,active
638061622,67925265,,,Mid Street,,,,Mid Street,,Beach Road,,,,E-bound,,E,N0078690,Kingston on Spey,,,Kingston,EN,,,false,UKOS,333859,865516,-3.11058,57.67463,BCT,CUS,OTH,,,,131,2010-09-16T00:00:00,2010-09-16T14:17:00,1,new,active
638051621,67923852,,,Mid Street,,,,Mid Street,,Beach Road,,,,W-bound,,W,N0078690,Kingston on Spey,,,Kingston,EN,-,EN,false,UKOS,333852,865509,-3.1107,57.67456,BCT,MKD,OTH,,,,131,2003-09-09T00:00:00,2010-10-04T14:05:00,5,new,active
638066391,67924589,,,Village Hall,,,,Village Hall,,A98,,,,opp,,E,N0080098,Arradoul,,,Buckie,EN,-,EN,false,UKOS,341514,863567,-2.98179,57.65818,BCT,CUS,OTH,,,,131,2004-11-19T00:00:00,2013-02-22T09:52:00,5,new,active
638066392,67925284,,,Village Hall,,,,Village Hall,,A98,,,,at,,W,N0080098,Arradoul,,,Buckie,EN,-,EN,false,UKOS,341503,863536,-2.98196,57.6579,BCT,CUS,OTH,,,,131,2010-10-13T00:00:00,2013-02-22T09:53:00,2,new,active
638067891,67925279,,,Milton Drive,,,,Milton Drive,,Well Road,,,,o/s,,NE,ES000495,Buckie,,,Buckie,EN,-,EN,false,UKOS,342846,865241,-2.95987,57.67339,BCT,CUS,OTH,,,,131,2010-10-13T00:00:00,2013-02-05T15:42:00,1,new,active
638067902,67925286,,,Newlands Lane,,,,Newlands Lane,,Harbour Street,,,,at,,NW,ES000495,Buckie,,,Buckie,EN,-,EN,false,UKOS,342981,865680,-2.95771,57.67735,BCT,CUS,OTH,,,,131,2010-10-13T00:00:00,2013-02-06T09:14:00,1,new,active
638067901,67925282,,,Newlands Lane,,,,Newlands Lane,,Harbour Street,,,,opp,,SE,ES000495,Buckie,,,Buckie,EN,-,EN,false,UKOS,342988,865687,-2.95759,57.67741,BCT,CUS,OTH,,,,131,2010-10-13T00:00:00,2013-02-06T09:14:00,1,new,active
638067881,67925287,,,Tesco,,,,Tesco,,A942,,,,at,,N,ES000495,Buckie,,,Buckie,EN,,,false,UKOS,342964,864572,-2.95773,57.6674,BCT,CUS,OTH,,,,131,2010-10-26T00:00:00,2025-09-02T15:31:30,32,new,active
638067911,67925289,,,Doocot Way,,,,Doocot Way,,Netherha Road,,,,opp,,N,ES000495,Buckie,,,Buckie,EN,Buckpool,EN,false,UKOS,341909,865040,-2.97552,57.67146,BCT,CUS,OTH,,,,131,2010-11-05T00:00:00,2013-02-28T14:35:00,2,new,active
638052161,67924272,,,Doocot Way,,,,Burnside Court,,Netherha Road,,,,at,,S,ES000495,Buckie,,,Buckie,EN,Buckpool,EN,false,UKOS,341917,865030,-2.97539,57.67138,BCT,MKD,OTH,,,,131,2003-09-10T00:00:00,2013-02-28T14:35:00,2,new,active
638055333,67925325,,,Balnacoul Road,,,,Balnacoul Road,,A96,,,,adj,,W,ES002693,Mosstodloch,,,Mosstodloch,EN,-,EN,false,UKOS,332339,860034,-3.13452,57.62517,BCT,MKD,OTH,,,,131,2014-06-27T00:00:00,2014-07-10T08:43:00,2,new,active
638055332,67925297,,,Barhill Road South,,,,Barhill Road South,,Barhill Road,,,,on,,SE,ES000495,Buckie,,,Buckie,EN,-,EN,false,UKOS,341776,864490,-2.97762,57.66651,BCT,MKD,OTH,,,,131,2014-06-02T00:00:00,2014-06-02T14:19:00,0,new,active
638055338,67925345,,,Elgin Retail Park,,,,Elgin Retail Park,,Edgar Road,,,,at,,NE,ES001294,Elgin,,,Elgin,EN,,,false,UKOS,321631,861915,-3.31437,57.64032,BCT,MKD,OTH,,,,131,2014-08-27T00:00:00,2014-08-27T09:17:00,0,new,active
638055172,67925296,,,Parklands Nursing Home,,,,Parklands Nursing Home,,A942,,,,at,,NW,ES000495,Buckie,,,Buckie,EN,-,EN,false,UKOS,342965,864726,-2.95775,57.66878,BCT,MKD,OTH,,,,131,2014-06-02T00:00:00,2014-06-02T11:34:00,0,new,active
638055337,67925328,,,Cedarwood,,,,Cedarwood,,Edgar Road,,,,at,,NE,ES001294,Elgin,,,Elgin,EN,-,EN,false,UKOS,321403,861806,-3.31815,57.63931,BCT,MKD,OTH,,,,131,2014-06-30T00:00:00,2014-07-10T08:43:00,1,new,active
638053721,67923467,,,Springfield Retail Park,,,,Springfield Retail Park,,Edgar Road,,,,opp,,E,ES001294,Elgin,,,Elgin,EN,City Centre,EN,false,UKOS,321892,861999,-3.31003,57.64112,BCT,MKD,OTH,,,,131,2003-09-10T00:00:00,2012-12-05T14:04:00,2,new,active
638055336,67925327,,,Springfield Retail Park,,,,Springfield Retail Park,,Edgar Road,,,,at,,SW,ES001294,Elgin,,,Elgin,EN,-,EN,false,UKOS,321766,861943,-3.31212,57.6406,BCT,MKD,OTH,,,,131,2014-06-30T00:00:00,2014-07-09T08:53:00,1,new,active
638055335,67925298,,,Duffus Heights,,,,Duffus Heights,,B9012,,,,at,,SE,ES001294,Elgin,,,Elgin,EN,-,EN,false,UKOS,320405,863948,-3.33557,57.65837,BCT,MKD,OTH,,,,131,2014-06-02T00:00:00,2014-06-02T14:26:00,0,new,active
638055339,67925342,,,Ardivot Farm,,,,Ardivot Farm,,A941,,,,opp,,S,ES002496,Lossiemouth,,,Ardivot,EN,-,EN,false,UKOS,322867,867174,-3.29535,57.68776,BCT,MKD,OTH,,,,131,2014-06-30T00:00:00,2014-06-30T16:23:00,0,new,active
638062968,67925358,,,Ardivot Farm,,,,Ardivot Farm,,A941,,,,at,,N,ES002496,Lossiemouth,,,Lossiemouth,EN,-,EN,false,UKOS,322847,867167,-3.29569,57.6877,BCT,MKD,OTH,,,,131,2015-04-29T00:00:00,2015-04-29T18:30:06,0,new,active
638052993,67925324,,,Fleming Hospital & Aberlour Health Centr,,,,Fleming Hospital & Aberlour Health Centre,,Queens Road,,,,at,,NE,ES000029,Aberlour,,,Aberlour,EN,-,EN,false,UKOS,326737,842726,-3.22307,57.46886,BCT,MKD,OTH,,,,131,2014-06-03T00:00:00,2023-08-09T10:10:22,0,new,active
638052293,67925343,,,Denhead Terrace,,,,Denhead Terrace,,A95,,,,opp,,SW,N0076712,Marypark,,,Marypark,EN,,,false,UKOS,319524,838475,-3.34189,57.42946,BCT,MKD,OTH,,,,131,2014-08-26T00:00:00,2014-08-26T17:19:00,0,new,active
638064021,67923787,,,Denhead Terrace,,,,Denhead Terrace,,A95,,,,at,,SW,N0076712,Marypark,,,Marypark,EN,-,EN,false,UKOS,319528,838489,-3.34183,57.42959,BCT,CUS,OTH,,,,131,2003-09-02T00:00:00,2014-09-09T12:15:00,10,new,active
638055334,67925326,,,Linksfield Road,,,,Linksfield Road,,A96,,,,opp,,E,ES002693,Mosstodloch,,,Mosstodloch,EN,-,EN,false,UKOS,332295,860063,-3.13527,57.62542,BCT,MKD,OTH,,,,131,2014-06-27T00:00:00,2014-07-10T08:43:00,2,new,active
638053393,67925295,,,Gillene,,,,Gillene,,B9013,,,,at,,SW,N0080102,College of Roseisle,,,Roseisle,EN,-,EN,false,UKOS,313738,866468,-3.44816,57.67976,BCT,MKD,OTH,,,,131,2014-06-02T00:00:00,2014-06-02T11:19:00,0,new,active
638055503,67925642,,,Linkwood Steading,,,,Linkwood Steading,,Linkwood Road,,,,at,,NW,ES002774,New Elgin,Elgin,,Elgin,EN,,,false,UKOS,323260,861449,-3.28694,57.63642,BCT,MKD,OTH,,,,131,2020-02-19T00:00:00,2020-02-19T12:27:00,1,new,active
638055502,67925643,,,Moray Sports Centre,,,,Moray Sports Centre,,Linkwood Road,,,,at,,E,ES002774,New Elgin,Elgin,,Elgin,EN,,,false,UKOS,323299,861139,-3.28619,57.63364,BCT,MKD,OTH,,,,131,2020-02-19T00:00:00,2020-02-19T12:33:36,0,new,active
638052251,67923782,,,Tombreck Farm,,,,Tombreck Farm,,Unclassified Road,,,,at,,W,N0066959,Carron,,,Carrron,EN,-,EN,false,UKOS,322408,842328,-3.2951,57.46457,BCT,MKD,OTH,,,,131,2003-09-09T00:00:00,2013-02-07T13:51:00,4,new,active
638052171,67924273,,,Alnath Place,,,,Alnath Place,,Netherha Road,,,,opp,,SW,ES000495,Buckie,,,Buckie,EN,Buckpool,EN,false,UKOS,341738,864788,-2.97833,57.66918,BCT,MKD,OTH,,,,131,2003-09-09T00:00:00,2013-02-28T13:25:00,2,new,active
638052191,67924275,,,Merson Street,,,,Merson Street,,St Peter's Road,,,,at,,E,ES000495,Buckie,,,Buckie,EN,Buckpool,EN,false,UKOS,341610,865068,-2.98054,57.67168,BCT,MKD,OTH,,,,131,2003-09-09T00:00:00,2013-02-05T15:40:00,1,new,active
638052311,67923795,,,Glenlivet Distillery,,,,Glenlivet Distillery,,,,,,opp,,SE,ES001607,Glenlivet,,,Glenlivet,EN,Bridgend of Glenlivet,EN,false,UKOS,319437,830075,-3.34058,57.35401,BCT,MKD,OTH,,,,131,2003-09-08T00:00:00,2013-02-04T12:13:00,5,new,active
638052321,67923797,,,Lismore,,,,Lismore,,,,,,opp,,NE,N0077208,Auchnarrow,,,Auchnarrow,EN,-,EN,false,UKOS,321030,823266,-3.31193,57.29314,BCT,MKD,OTH,,,,131,2003-09-08T00:00:00,2013-02-06T09:43:00,3,new,active
638052331,67923798,,,The Square,,,,The Square,,Main Street,,,,NW-bound,,NW,N0066834,Tomintoul,,,Tomintoul,EN,-,EN,false,UKOS,316871,818731,-3.3794,57.25168,BCT,MKD,OTH,,,,131,2003-09-08T00:00:00,2013-02-07T11:21:00,1,new,active
638052333,67923823,,,The Square,,,,The Square,,Main Street,,,,SE-bound,,SE,N0066834,Tomintoul,,,Tomintoul,EN,-,EN,false,UKOS,316875,818751,-3.37934,57.25186,BCT,MKD,OTH,,,,131,2003-09-08T00:00:00,2013-02-07T11:22:00,2,new,active
638065811,67923764,,,The Square,,,,The Square,,B9012,,,,at,,N,N0066989,Archiestown,,,Archiestown,EN,-,EN,false,UKOS,322960,844155,-3.28648,57.48107,BCT,CUS,OTH,,,,131,2003-09-08T00:00:00,2012-12-05T14:00:00,2,new,active
638052271,67923763,,,Macallan Distillery,,,,Macallan Distillery,,B9012,,,,opp,,E,N0066948,Craigellachie,,,Macallan,EN,-,EN,false,UKOS,327942,845128,-3.2037,57.49062,BCT,MKD,OTH,,,,131,2003-09-08T00:00:00,2013-02-05T14:51:00,1,new,active
638052281,67923767,,,Cardhu,,,,Cardhu,,B9012,,,,at,,NE,N0073504,Cardhu Distillery,,,Knockando,EN,-,EN,false,UKOS,319436,842801,-3.34478,57.46829,BCT,MKD,OTH,,,,131,2003-09-09T00:00:00,2012-12-06T11:45:00,3,new,active
638052301,67923793,,,Delnashaugh Inn,,,,Delnashaugh Inn,,,,,,opp,,SE,N0077206,Delnashaugh,,,Ballandalloch,EN,-,EN,false,UKOS,318542,835419,-3.35723,57.40184,BCT,MKD,OTH,,,,131,2003-09-08T00:00:00,2012-12-10T11:20:00,3,new,active
638051341,67923748,,,Sheildaig Road,,,,Sheildaig Road,,Grant Drive,,,,at,,NE,ES001428,Forres,,,Forres,EN,Thornhill,EN,false,UKOS,302925,858185,-3.62607,57.60319,BCT,MKD,OTH,,,,131,2003-09-11T00:00:00,2013-02-06T13:18:00,2,new,active
638051351,67923747,,,Corrour Court,,,,Corrour Court,,Grant Drive,,,,opp,,NW,ES001428,Forres,,,Forres,EN,Thornhill,EN,false,UKOS,302968,857963,-3.62526,57.60121,BCT,MKD,OTH,,,,131,2003-09-11T00:00:00,2013-02-04T10:30:00,2,new,active
638051361,67923686,,,Grant Place,,,,Grant Place,,Grantown Road,,,,at,,N,ES001428,Forres,,,Forres,EN,-,EN,false,UKOS,303309,858246,-3.61967,57.60382,BCT,MKD,OTH,,,,131,2003-09-05T00:00:00,2013-02-28T14:37:00,2,new,active
638051362,67923687,,,Grant Place,,,,Grant Place,,Grantown Road,,,,opp,,SW,ES001428,Forres,,,Forres,EN,-,EN,false,UKOS,303336,858273,-3.61923,57.60407,BCT,MKD,OTH,,,,131,2003-09-05T00:00:00,2013-02-28T14:37:00,2,new,active
638051411,67924725,,,Wellside Court,,,,Wellside Court,,Councillors Walk,,,,at,,S,ES001428,Forres,,,Forres,EN,-,EN,false,UKOS,303114,858481,-3.62303,57.60589,BCT,MKD,OTH,,,,131,2003-11-14T00:00:00,2013-02-07T14:41:00,2,new,active
638051421,67924723,,,Forbes Road,,,,Forbes Road,,Pilmuir Road,,,,opp,,W,ES001428,Forres,,,Forres,EN,-,EN,false,UKOS,302905,858527,-3.62654,57.60626,BCT,MKD,OTH,,,,131,2003-11-13T00:00:00,2013-02-05T15:47:00,3,new,active
638051431,67923739,,,Varis Road,,,,Varis Road,,Ramflat Road,,,,opp,,N,ES001428,Forres,,,Forres,EN,Pilmuir,EN,false,UKOS,302783,858564,-3.6286,57.60656,BCT,MKD,OTH,,,,131,2003-09-08T00:00:00,2013-02-07T14:00:00,1,new,active
638053712,67924545,,,Old Bridge Court,,,,Old Bridge Court,,Nairn Road,,,,at,,E,ES001428,Forres,,,Forres,EN,West end,EN,false,UKOS,303051,858718,-3.62418,57.608,BCT,MKD,OTH,,,,131,2004-11-19T00:00:00,2013-02-08T09:46:00,2,new,active
638053711,67924392,,,Old Bridge Court,,,,Old Bridge Court,,Nairn Road,,,,opp,,W,ES001428,Forres,,,Forres,EN,West end,EN,false,UKOS,303021,858697,-3.62467,57.60781,BCT,MKD,OTH,,,,131,2004-11-19T00:00:00,2013-02-06T09:40:00,1,new,active
638053042,67923249,,,Lady Margaret Drive,,,,Lady Margaret Drive,,St Andrew's Road,,,,at,,NW,ES002359,Lhanbryde,,,Lhanbryde,EN,-,EN,false,UKOS,327423,861080,-3.21713,57.6338,BCT,MKD,OTH,,,,131,2003-08-20T00:00:00,2013-02-28T14:58:00,6,new,active
638053041,67923248,,,Lady Margaret Drive,,,,Lady Margaret Drive,,St Andrew's Road,,,,opp,,SE,ES002359,Lhanbryde,,,Lhanbryde,EN,-,EN,false,UKOS,327498,861044,-3.21586,57.63349,BCT,MKD,OTH,,,,131,2003-08-20T00:00:00,2013-02-28T14:58:00,5,new,active
638053052,67923253,,,The Terrace,,,,The Terrace,,St Andrew's Road,,,,at,,NW,ES002359,Lhanbryde,,,Lhanbryde,EN,-,EN,false,UKOS,327092,861238,-3.22272,57.63516,BCT,MKD,OTH,,,,131,2003-08-20T00:00:00,2013-02-07T11:55:00,3,new,active
638053051,67923252,,,The Terrace,,,,The Terrace,,St Andrew's Road,,,,opp,,SE,ES002359,Lhanbryde,,,Lhanbryde,EN,-,EN,false,UKOS,327068,861262,-3.22312,57.63537,BCT,MKD,OTH,,,,131,2003-08-20T00:00:00,2013-02-07T11:55:00,3,new,active
638051331,67923749,,,Mortlich Square,,,,Mortlich Square,,Grant Drive,,,,opp,,SE,ES001428,Forres,,,Forres,EN,Thornhill,EN,false,UKOS,303104,858086,-3.62304,57.60234,BCT,MKD,OTH,,,,131,2003-09-11T00:00:00,2013-02-05T15:50:00,2,new,active
638050631,67924234,,,Regent Square,,,,Regent Square,,Regent Street,,,,opp,,E,ES001929,Keith,,,Fife Keith,EN,-,EN,false,UKOS,342565,850932,-2.96118,57.54484,BCT,MKD,OTH,,,,131,2003-09-08T00:00:00,2013-02-06T11:55:00,1,new,active
638050632,67924232,,,Regent Square,,,,Regent Square,,Regent Street,,,,at,,W,ES001929,Keith,,,Fife Keith,EN,-,EN,false,UKOS,342562,850910,-2.96122,57.54465,BCT,MKD,OTH,,,,131,2003-09-08T00:00:00,2013-02-06T11:55:00,1,new,active
638050611,67923235,,,Regent Court,,,,Regent Court,,Regent Street,,,,at,,E,ES001929,Keith,,,Keith,EN,-,EN,false,UKOS,342301,851124,-2.96563,57.54653,BCT,MKD,OTH,,,,131,2003-08-20T00:00:00,2013-02-06T11:55:00,1,new,active
638050612,67924235,,,Regent Court,,,,Regent Court,,Regent Street,,,,opp,,SE,ES001929,Keith,,,Fife Keith,EN,-,EN,false,UKOS,342367,851095,-2.96452,57.54628,BCT,MKD,OTH,,,,131,2003-09-11T00:00:00,2013-02-06T11:55:00,2,new,active
638050601,67923839,,,Reiket Lane,,,,Reiket Lane,,A96,,,,at,,W,ES001294,Elgin,,,Elgin,EN,Pinefield,EN,false,UKOS,323508,862475,-3.28312,57.64568,BCT,MKD,OTH,,,,131,2003-09-08T00:00:00,2013-02-06T11:58:00,1,new,active
638050602,67923838,,,Reiket Lane,,,,Reiket Lane,,A96,,,,opp,,E,ES001294,Elgin,,,Elgin,EN,Pinefield,EN,false,UKOS,323631,862445,-3.28105,57.64543,BCT,MKD,OTH,,,,131,2003-09-11T00:00:00,2013-02-06T12:00:00,1,new,active
638050591,67923842,,,Barmuckity Farm Road End,,,,Barmuckity Farm Road End,,A96,,,,opp,,E,ES001294,Elgin,,,Elgin,EN,-,EN,false,UKOS,324389,862089,-3.26824,57.64236,BCT,MKD,OTH,,,,131,2003-09-09T00:00:00,2012-12-05T14:37:00,2,new,active
638050592,67923843,,,Barmuckity Farm Road End,,,,Barmuckity Farm Road End,,A96,,,,at,,W,ES001294,Elgin,,,Elgin,EN,-,EN,false,UKOS,324346,862093,-3.26896,57.64239,BCT,MKD,OTH,,,,131,2003-09-09T00:00:00,2012-12-05T14:38:00,1,new,active
638066281,67924565,,,Feddan,,,,Feddan,,A96,,,,opp,,E,N0077220,Brodie,,,Brodie,EN,-,EN,false,UKOS,296882,856596,-3.72647,57.58758,BCT,CUS,OTH,,,,131,2004-11-19T00:00:00,2013-02-04T11:32:00,4,new,active
638066282,67925352,,,Feddan,,,,Feddan,,A96,,,,adj,,SW,N0077220,Brodie,,,Brodie,EN,-,EN,false,UKOS,296880,856579,-3.72649,57.58743,BCT,MKD,OTH,,,,131,2015-04-29T00:00:00,2015-04-29T17:43:18,0,new,active
638051231,67924695,,,North Road,,,,North Road,,Victoria Road,,,,opp,,E,ES001428,Forres,,,Forres,EN,-,EN,false,UKOS,304193,859240,-3.60528,57.61293,BCT,MKD,OTH,,,,131,2003-11-13T00:00:00,2013-02-06T09:37:00,2,new,active
638051232,67924694,,,North Road,,,,North Road,,Victoria Road,,,,at,,W,ES001428,Forres,,,Forres,EN,-,EN,false,UKOS,304004,859143,-3.60841,57.61202,BCT,MKD,OTH,,,,131,2003-11-13T00:00:00,2013-02-06T09:37:00,2,new,active
638055381,67924929,,,South Street,,,,South Street,,High Street,,,,at,,W,ES001428,Forres,,,Forres,EN,,,false,UKOS,303954,859113,-3.60923,57.61174,BCT,MKD,OTH,,,,131,2007-11-28T00:00:00,2013-02-07T14:05:00,3,new,active
638050662,67923236,,,Reidhaven Square,,,,Reidhaven Square,,Moss Street,,,,at,,W,ES001929,Keith,,,Keith,EN,-,EN,false,UKOS,343248,850198,-2.9496,57.53834,BCT,MKD,OTH,,,,131,2003-08-19T00:00:00,2013-02-06T11:57:00,5,new,active
638053221,67923836,,,Pinefield Bus Depot,,,,Pinefield Bus Depot,,East Road,,,,at,,E,ES001294,Elgin,,,Elgin,EN,East End,EN,false,UKOS,322897,862659,-3.29341,57.64722,BCT,MKD,OTH,,,,131,2003-09-09T00:00:00,2013-02-06T10:58:00,1,new,active
638053222,67923837,,,Pinefield Bus Depot,,,,Pinefield Bus Depot,,East Road,,,,opp,,W,ES001294,Elgin,,,Elgin,EN,East End,EN,false,UKOS,322965,862621,-3.29226,57.64689,BCT,MKD,OTH,,,,131,2003-09-09T00:00:00,2013-02-06T10:59:00,2,new,active
638050641,67924236,,,Banff Road,,,,Banff Road,,Church Road,,,,opp,,W,ES001929,Keith,,,Keith,EN,-,EN,false,UKOS,343230,850732,-2.95002,57.54313,BCT,MKD,OTH,,,,131,2003-09-08T00:00:00,2013-02-04T09:45:00,2,new,active
638050651,67924237,,,Banff Road,,,,Banff Road,,Church Road,,,,at,,SE,ES001929,Keith,,,Keith,EN,-,EN,false,UKOS,343315,850718,-2.9486,57.54302,BCT,MKD,OTH,,,,131,2003-09-08T00:00:00,2012-12-05T14:31:00,2,new,active
638051122,67923698,,,Cumming Street,,,,Cumming Street,,High Street,,,,opp,,E,ES001428,Forres,,,Forres,EN,Town Centre,EN,false,UKOS,303659,858890,-3.61408,57.60968,BCT,MKD,OTH,,,,131,2003-09-08T00:00:00,2013-02-07T13:48:00,1,new,active
638051121,67923723,,,Cumming Street,,,,Cumming Street,,High Street,,,,at,,W,ES001428,Forres,,,Forres,EN,Town Centre,EN,false,UKOS,303674,858882,-3.61382,57.60961,BCT,MKD,OTH,,,,131,2003-09-08T00:00:00,2013-02-07T13:48:00,2,new,active
638051112,67923657,,,Burghead Road,,,,Burghead Road,,Main Road,,,,opp,,W,ES000086,Alves,,,Alves,EN,-,EN,false,UKOS,313402,862164,-3.45225,57.64105,BCT,MKD,OTH,,,,131,2003-09-05T00:00:00,2012-12-06T11:24:00,2,new,active
638051111,67923656,,,Burghead Road,,,,Burghead Road,,Main Road,,,,at,,E,ES000086,Alves,,,Alves,EN,-,EN,false,UKOS,313546,862260,-3.44987,57.64194,BCT,MKD,OTH,,,,131,2003-09-05T00:00:00,2012-12-06T11:24:00,2,new,active
638051102,67923643,,,Newton House,,,,Newton House,,A96,,,,adj,,W,N0077204,Newton,,,Newton Toll,EN,-,EN,false,UKOS,316901,863053,-3.39396,57.64969,BCT,MKD,OTH,,,,131,2003-09-05T00:00:00,2011-12-22T13:44:00,1,new,active
638051101,67923645,,,Newton House,,,,Newton House,,A96,,,,at,,E,N0077204,Newton,,,Newton Toll,EN,-,EN,false,UKOS,316628,863166,-3.39858,57.65066,BCT,MKD,OTH,,,,131,2003-09-05T00:00:00,2011-12-22T13:43:00,1,new,active
638051082,67923854,,,Garmouth Road,,,,Garmouth Road,,A96,,,,at,,E,ES002693,Mosstodloch,,,Mosstodloch,EN,-,EN,false,UKOS,332996,859923,-3.12349,57.62427,BCT,MKD,OTH,,,,131,2003-09-09T00:00:00,2013-02-04T11:48:00,1,new,active
638051081,67923853,,,Garmouth Road,,,,Garmouth Road,,A96,,,,opp,,W,ES002693,Mosstodloch,,,Mosstodloch,EN,-,EN,false,UKOS,332840,859937,-3.12611,57.62437,BCT,MKD,OTH,,,,131,2003-09-09T00:00:00,2013-02-04T11:48:00,1,new,active
638051241,67923724,,,Leys Road,,,,Leys Road,,High Street,,,,opp,,E,ES001428,Forres,,,Forres,EN,Town Centre,EN,false,UKOS,303817,859025,-3.61149,57.61092,BCT,MKD,OTH,,,,131,2003-09-08T00:00:00,2013-02-05T14:39:00,1,new,active
638053741,67924297,,,Barleymill Road End,,,,Barleymill Road End,,A96,,,,at,,NE,N0077220,Brodie,,,Brodie,EN,-,EN,false,UKOS,298848,857381,-3.69393,57.59508,BCT,MKD,OTH,,,,131,2003-12-01T00:00:00,2012-12-05T14:37:00,3,new,active
638051181,67924296,,,Barleymill Road End,,,,Barleymill Road End,,A96,,,,opp,,NE,N0077220,Brodie,,,Brodie,EN,-,EN,false,UKOS,298754,857293,-3.69546,57.59426,BCT,MKD,OTH,,,,131,2003-12-01T00:00:00,2013-02-04T09:46:00,3,new,active
638051161,67924659,,,Bogton Place,,,,Bogton Place,,Nairn Road,,,,at,,E,ES001428,Forres,,,Forres,EN,-,EN,false,UKOS,303218,858739,-3.62139,57.60823,BCT,MKD,OTH,,,,131,2003-11-13T00:00:00,2012-12-05T15:28:00,2,new,active
638051162,67924658,,,Bogton Place,,,,Bogton Place,,Nairn Road,,,,opp,,W,ES001428,Forres,,,Forres,EN,-,EN,false,UKOS,303214,858753,-3.62147,57.60835,BCT,MKD,OTH,,,,131,2003-11-13T00:00:00,2012-12-05T15:28:00,2,new,active
638051151,67924672,,,Castle Bridge,,,,Castle Bridge,,Bridge Street,,,,at,,E,ES001428,Forres,,,Forres,EN,-,EN,false,UKOS,303413,858791,-3.61815,57.60874,BCT,MKD,OTH,,,,131,2003-11-12T00:00:00,2012-12-05T14:06:00,4,new,active
638051042,67923238,,,East Street,,,,East Street,,High Street,,,,NW-bound,,NW,ES001406,Fochabers,,,Fochabers,EN,-,EN,false,UKOS,334788,858621,-3.09315,57.61284,BCT,MKD,OTH,,,,131,2003-08-20T00:00:00,2012-12-10T13:24:00,2,new,active
638051041,67923965,,,East Street,,,,East Street,,High Street,,,,SE-bound,,SE,ES001406,Fochabers,,,Fochabers,EN,Main Street,EN,false,UKOS,334800,858629,-3.09295,57.61291,BCT,MKD,OTH,,,,131,2003-09-08T00:00:00,2012-12-10T13:24:00,1,new,active
638055071,67924798,,,Castlehill Road,,,,Castlehill Road,,High Street,,,,at,,W,ES001428,Forres,,,,,,,false,UKOS,303501,858786,-3.61668,57.60871,BCT,MKD,OTH,,,,131,2006-07-18T00:00:00,2012-12-06T13:40:00,3,new,active
638053791,67923653,,,Carden Hill,,,,Carden Hill,,A96,,,,NE-bound,,NE,ES000086,Alves,,,Alves,EN,-,EN,false,UKOS,313861,862425,-3.44466,57.64348,BCT,MKD,OTH,,,,131,2003-09-11T00:00:00,2012-12-06T11:44:00,1,new,active
638053742,67923654,,,Carden Hill,,,,Carden Hill,,A96,,,,SW-bound,,SW,ES000086,Alves,,,Alves,EN,-,EN,false,UKOS,313898,862430,-3.44404,57.64354,BCT,MKD,OTH,,,,131,2003-09-05T00:00:00,2012-12-06T11:44:00,1,new,active
638053781,67923652,,,Ardgye Farm Road End,,,,Ardgye Farm Road End,,A96,,,,at,,E,ES000086,Alves,,,Kinloss,EN,Alves,EN,false,UKOS,315314,863043,-3.42054,57.64931,BCT,MKD,OTH,,,,131,2003-09-11T00:00:00,2012-12-05T14:01:00,1,new,active
638051072,67923857,,,Stynie Road,,,,Stynie Road,,A96,,,,at,,E,ES002693,Mosstodloch,,,Mosstodloch,EN,-,EN,false,UKOS,333275,859871,-3.11881,57.62384,BCT,MKD,OTH,,,,131,2003-09-11T00:00:00,2013-02-06T16:00:00,1,new,active
638051071,67923856,,,Stynie Road,,,,Stynie Road,,A96,,,,opp,,W,ES002693,Mosstodloch,,,Mosstodloch,EN,-,EN,false,UKOS,333199,859873,-3.12008,57.62385,BCT,MKD,OTH,,,,131,2003-09-09T00:00:00,2013-02-06T16:00:00,3,new,active
638050165,67925462,,,Tait Avenue,,,,Tait Avenue,,,,,,opp,,SW,ES001294,Elgin,,,Elgin,EN,,,false,UKOS,320003,863110,-3.34203,57.65077,BCT,MKD,OTH,,,,131,2015-10-20T00:00:00,2015-10-20T14:30:48,0,new,active
638050164,67925468,,,Smith Drive,,,,Smith Drive,,,,,,opp,,W,ES001294,Elgin,,,Elgin,EN,,,false,UKOS,320406,863274,-3.33533,57.65231,BCT,MKD,OTH,,,,131,2015-10-20T00:00:00,2015-10-20T15:01:54,0,new,active
638050163,67925459,,,Primary School,,,,Primary School,,,,,,at,,SW,ES001294,Elgin,,,Elgin,EN,,,false,UKOS,320978,863535,-3.32583,57.65476,BCT,MKD,OTH,,,,131,2015-10-20T00:00:00,2015-10-20T14:02:12,0,new,active
638050179,67925634,,,Springfield Road,,,,Springfield Road,,Glen Moray Drive,,,,at,,N,ES001294,Elgin,,,Elgin,EN,,,false,UKOS,321617,861449,-3.31445,57.63614,BCT,MKD,OTH,,,,131,2015-10-21T00:00:00,2015-10-21T11:31:06,0,new,active
638050182,67925474,,,Manbeen Place,,,,Manbeen Place,,Glen Moray Drive,,,,at,,N,ES001294,Elgin,,,Elgin,EN,,,false,UKOS,321488,861760,-3.31671,57.63891,BCT,MKD,OTH,,,,131,2015-10-23T00:00:00,2015-10-23T15:56:42,0,new,active
638050183,67925494,,,Glen Elgin Drive,,,,Glen Elgin Drive,,Birnie Road,,,,at,,SW,ES001294,Elgin,,,Elgin,EN,,,false,UKOS,321894,861090,-3.3097,57.63296,BCT,MKD,OTH,,,,131,2015-10-30T00:00:00,2015-10-30T15:35:48,0,new,active
638050177,67925623,,,Birnie Drive,,,,Birnie Drive,,Birnie Road,,,,at,,SW,ES001294,Elgin,,,Elgin,EN,,,false,UKOS,322018,861155,-3.30764,57.63357,BCT,MKD,OTH,,,,131,2015-10-21T00:00:00,2015-10-21T10:57:42,0,new,active
638050166,67925473,,,Duffus Lane,,,,Duffus Lane,,Duffus Heights,,,,opp,,NE,ES001294,Elgin,,,Elgin,EN,,,false,UKOS,320507,864041,-3.33389,57.65922,BCT,MKD,OTH,,,,131,2015-10-20T00:00:00,2015-10-20T15:30:12,0,new,active
638050176,67925495,,,Thornhill Road,,,,Thornhill Road,,Thornhill Drive,,,,at,,N,ES001294,Elgin,,,Elgin,EN,,,false,UKOS,322284,861159,-3.30319,57.63365,BCT,MKD,OTH,,,,131,2015-10-21T00:00:00,2015-10-21T10:40:06,0,new,active
638050175,67925492,,,Ben Riach View,,,,Ben Riach View,,Thornhill Drive,,,,at,,NW,ES001294,Elgin,,,Elgin,EN,,,false,UKOS,322342,861051,-3.30219,57.63269,BCT,MKD,OTH,,,,131,2015-10-21T00:00:00,2015-10-21T10:37:54,0,new,active
638050174,67925487,,,Dove Court,,,,Dove Court,,Thornhill Drive,,,,at,,W,ES001294,Elgin,,,Elgin,EN,,,false,UKOS,322614,861122,-3.29765,57.63337,BCT,MKD,OTH,,,,131,2015-10-20T00:00:00,2015-10-20T18:03:06,0,new,active
638050173,67925484,,,Linkwood Drive,,,,Linkwood Drive,,Thornhill Drive,,,,opp,,SW,ES001294,Elgin,,,Elgin,EN,,,false,UKOS,322713,861294,-3.29605,57.63493,BCT,MKD,OTH,,,,131,2015-10-20T00:00:00,2015-10-20T17:38:12,0,new,active
638050169,67925465,,,Southfield Drive,,,,Southfield Drive,,Thornhill Drive,,,,at,,S,ES001294,Elgin,,,Elgin,EN,,,false,UKOS,322827,861450,-3.29419,57.63636,BCT,MKD,OTH,,,,131,2015-10-20T00:00:00,2015-10-20T16:54:42,0,new,active
638050168,67925482,,,Duffus Crescent,,,,Duffus Crescent,,,,,,o/s,,W,ES001294,Elgin,,,Elgin,EN,,,false,UKOS,320588,864064,-3.33254,57.65944,BCT,MKD,OTH,,,,131,2015-10-20T00:00:00,2015-10-20T16:40:18,0,new,active
638050167,67925476,,,Duffus Crescent,,,,Duffus Crescent,,Duffus Crescent,,,,o/s,,N,ES001294,Elgin,,,Elgin,EN,,,false,UKOS,320762,864173,-3.32966,57.66045,BCT,MKD,OTH,,,,131,2015-10-20T00:00:00,2015-10-20T16:33:48,0,new,active
638050178,67925626,,,Land Street,,,,Land Street,,Sandy Road,,,,opp,,N,ES001294,Elgin,,,Elgin,EN,,,false,UKOS,321727,861224,-3.31254,57.63414,BCT,MKD,OTH,,,,131,2015-10-21T00:00:00,2015-10-21T11:09:00,0,new,active
638061732,67925426,,,Road End,,,,Road End,,B9011,,,,opp,,NE,ES002120,Kinloss,,,Grangehall,EN,,,false,UKOS,306182,861005,-3.57269,57.6292,BCT,MKD,OTH,,,,131,2015-05-21T00:00:00,2015-05-21T12:49:24,1,new,active
638061733,67925427,,,Road End,,,,Road End,,B9011,,,,at,,SW,ES002120,Kinloss,,,Grangehall,EN,,,false,UKOS,306192,861005,-3.57252,57.6292,BCT,MKD,OTH,,,,131,2015-05-21T00:00:00,2015-05-21T12:48:54,0,new,active
638060865,67925453,,,Bridge of Brown,,,,Bridge of Brown,,A939,,,,NE-bound,,NE,ES001607,Glenlivet,,,,,,,false,UKOS,312395,820584,-3.45421,57.26748,BCT,MKD,OTH,,,,131,2015-06-04T00:00:00,2015-06-24T15:09:18,2,new,active
638060866,67925454,,,Bridge of Brown,,,,Bridge of Brown,,A939,,,,SE-bound,,SE,ES001607,Glenlivet,,,,,,,false,UKOS,312396,820597,-3.4542,57.2676,BCT,MKD,OTH,,,,131,2015-06-04T00:00:00,2015-06-24T15:09:42,1,new,active
638060863,67925439,,,White Bridge,,,,White Bridge,,A939,,,,NE-bound,,NE,N0066834,Tomintoul,,,,,,,false,UKOS,313280,820925,-3.43966,57.27072,BCT,MKD,OTH,,,,131,2015-06-04T00:00:00,2015-06-24T15:08:36,1,new,active
638060864,67925452,,,White Bridge,,,,White Bridge,,A939,,,,SW-bound,,SW,N0066834,Tomintoul,,,Ballindalloch,EN,,,false,UKOS,313305,820919,-3.43924,57.27067,BCT,MKD,OTH,,,,131,2015-06-04T00:00:00,2015-06-24T15:08:54,1,new,active
638051912,67925348,,,Chanonry Road,,,,Chanonry Road,,Pansport Road,,,,opp,,N,ES001294,Elgin,,,Elgin,EN,Pansport,EN,false,UKOS,322319,862830,-3.30314,57.64866,BCT,MKD,OTH,,,,131,2015-02-16T00:00:00,2015-02-16T14:29:06,1,new,active
638063213,67925397,,,Burgie Lodge Road End,,,,Burgie Lodge Road End,,A96,,,,opp,,E,ES002120,Kinloss,,,Kinloss,EN,,,false,UKOS,308581,860439,-3.53232,57.62461,BCT,MKD,OTH,,,,131,2015-05-01T00:00:00,2015-05-01T11:57:36,0,new,active
638063212,67925393,,,Burgie Lodge Road End,,,,Burgie Lodge Road End,,A96,,,,at,,W,ES002120,Kinloss,,,Kinloss,EN,,,false,UKOS,308574,860422,-3.53243,57.62446,BCT,MKD,OTH,,,,131,2015-05-01T00:00:00,2015-05-01T11:53:54,0,new,active
638063835,67925424,,,Cairdshill Quarry,,,,Cairdshill Quarry,,A96,,,,at,,N,ES001929,Keith,,,Keith,EN,,,false,UKOS,344496,848035,-2.92826,57.51907,BCT,MKD,OTH,,,,131,2015-05-06T00:00:00,2015-05-06T11:06:30,0,new,active
638060861,67925437,,,Fodderletter,,,,Fodderletter,,A939,,,,at,,NW,N0066834,Tomintoul,,,Ballindalloch,EN,,,false,UKOS,314755,820606,-3.4151,57.26813,BCT,MKD,OTH,,,,131,2015-06-04T00:00:00,2015-06-24T15:07:36,1,new,active
638060862,67925438,,,Fodderletter,,,,Fodderletter,,A939,,,,opp,,SE,N0066834,Tomintoul,,,Ballindalloch,EN,,,false,UKOS,314739,820622,-3.41537,57.26827,BCT,MKD,OTH,,,,131,2015-06-04T00:00:00,2015-06-24T15:08:06,1,new,active
638060858,67925435,,,Kylnadrochit Lodge,,,,Kylnadrochit Lodge,,A939,,,,at,,NW,N0066834,Tomintoul,,,Tomintoul,EN,,,false,UKOS,314995,819952,-3.4109,57.2623,BCT,MKD,OTH,,,,131,2015-06-04T00:00:00,2015-06-24T15:06:42,1,new,active
638060859,67925436,,,Kylnadrochit Lodge,,,,Kylnadrochit Lodge,,A939,,,,opp,,SE,N0066834,Tomintoul,,,Tomintoul,EN,,,false,UKOS,315016,819947,-3.41055,57.26226,BCT,MKD,OTH,,,,131,2015-06-04T00:00:00,2015-06-24T15:11:06,2,new,active
638068056,67925428,,,Creag Chalcaidh Quarry,,,,Creag Chalcaidh Quarry,,A939,,,,at,,NE,N0066834,Tomintoul,,,Tomintoul,EN,,,false,UKOS,315618,819385,-3.40038,57.25732,BCT,MKD,OTH,,,,131,2015-06-04T00:00:00,2015-06-24T15:10:18,1,new,active
638060857,67925432,,,Creag Chalcaidh Quarry,,,,Creag Chalcaidh Quarry,,A939,,,,opp,,SW,N0066834,Tomintoul,,,Tomintoul,EN,,,false,UKOS,315609,819373,-3.40052,57.25721,BCT,MKD,OTH,,,,131,2015-06-04T00:00:00,2015-06-24T15:06:12,1,new,active
638063342,67925363,,,Bulwark Cottage,,,,Bulwark Cottage,,A941,,,,opp,,NW,ES003204,Rothes,,,Rothes,EN,-,EN,false,UKOS,328085,847157,-3.20191,57.50887,BCT,MKD,OTH,,,,131,2015-04-30T00:00:00,2015-04-30T11:11:36,0,new,active
638063198,67925389,,,Castlehill Farm Road End,,,,Castlehill Farm Road End,,A96,,,,opp,,NW,ES002693,Mosstodloch,,,Mosstodloch,EN,,,false,UKOS,330898,860249,-3.15871,57.62688,BCT,MKD,OTH,,,,131,2015-04-30T00:00:00,2015-04-30T18:07:36,0,new,active
638063199,67925392,,,Castlehill Farm Road End,,,,Castlehill Farm Road End,,A96,,,,at,,SE,ES002693,Mosstodloch,,,Mosstodloch,EN,,,false,UKOS,330908,860259,-3.15854,57.62697,BCT,MKD,OTH,,,,131,2015-04-30T00:00:00,2015-04-30T18:09:54,0,new,active
638063196,67925386,,,Burnie Strype Croft,,,,Burnie Strype Croft,,Unclassified Road,,,,at,,NE,ES001490,Garmouth,,,Garmouth,EN,,,false,UKOS,331898,863223,-3.1428,57.65374,BCT,MKD,OTH,,,,131,2015-04-30T00:00:00,2015-04-30T17:17:06,0,new,active
638063197,67925387,,,Burnie Strype Croft,,,,Burnie Strype Croft,,Unclassified Road,,,,opp,,SW,ES001490,Garmouth,,,Garmouth,EN,,,false,UKOS,331901,863215,-3.14275,57.65367,BCT,MKD,OTH,,,,131,2015-04-30T00:00:00,2015-04-30T17:19:36,0,new,active
638063195,67925385,,,Morayscairn Road End,,,,Morayscairn Road End,,A96,,,,opp,,NE,ES002120,Kinloss,,,Kinloss,EN,-,EN,false,UKOS,310684,861400,-3.49748,57.63366,BCT,MKD,OTH,,,,131,2015-04-30T00:00:00,2015-04-30T16:54:54,0,new,active
638063194,67925384,,,Morayscairn Road End,,,,Morayscairn Road End,,A96,,,,at,,SW,ES002120,Kinloss,,,Kinloss,EN,-,EN,false,UKOS,310708,861394,-3.49707,57.63361,BCT,MKD,OTH,,,,131,2015-04-30T00:00:00,2015-04-30T16:52:12,0,new,active
638063214,67925394,,,Whitegates Lodge,,,,Whitegates Lodge,,A98,,,,at,,NE,ES001406,Fochabers,,,Fochabers,EN,,,false,UKOS,335854,858675,-3.07532,57.61348,BCT,MKD,OTH,,,,131,2015-05-01T00:00:00,2015-05-01T12:42:06,0,new,active
638063215,67925396,,,Whitegates Lodge,,,,Whitegates Lodge,,A98,,,,opp,,SW,ES001406,Fochabers,,,Fochabers,EN,,,false,UKOS,335851,858668,-3.07537,57.61342,BCT,MKD,OTH,,,,131,2015-05-01T00:00:00,2015-05-01T12:44:00,0,new,active
638063216,67925398,,,Findrassie Crossroads,,,,Findrassie Crossroads,,B9012,,,,adj,,NW,ES001294,Elgin,,,Findrassie,EN,,,false,UKOS,318943,864493,-3.36025,57.663,BCT,MKD,OTH,,,,131,2015-05-01T00:00:00,2015-05-01T14:06:12,0,new,active
638063217,67925423,,,Findrassie Crossroads,,,,,,Duffus Road,,,,opp,,SE,ES001294,Elgin,,,,,-,EN,false,UKOS,318952,864498,-3.3601,57.66304,BCT,MKD,OTH,,,,131,2015-05-01T00:00:00,2015-05-01T14:07:48,0,new,active
638063187,67925375,,,Hillhead Cemetery,,,,Hillhead Cemetery,,A942,,,,at,,NE,ES003061,Portknockie,,,Portknockie,EN,-,EN,false,UKOS,347356,868118,-2.8849,57.69978,BCT,MKD,OTH,,,,131,2015-04-30T00:00:00,2015-04-30T14:32:00,0,new,active
638063188,67925376,,,Hillhead Cemetery,,,,Hillhead Cemetery,,A942,,,,opp,,SW,ES003061,Portknockie,,,Portknockie,EN,-,EN,false,UKOS,347349,868103,-2.88501,57.69964,BCT,MKD,OTH,,,,131,2015-04-30T00:00:00,2015-04-30T14:34:24,0,new,active
638063185,67925373,,,Whitehillock Farm,,,,Whitehillock Farm,,A96,,,,at,,NW,ES001929,Keith,,,Keith,EN,-,EN,false,UKOS,344590,846168,-2.92627,57.50231,BCT,MKD,OTH,,,,131,2015-04-30T00:00:00,2015-04-30T14:00:06,0,new,active
638063186,67925374,,,Whitehillock Farm,,,,Whitehillock Farm,,A96,,,,opp,,SE,ES001929,Keith,,,Keith,EN,-,EN,false,UKOS,344579,846186,-2.92645,57.50247,BCT,MKD,OTH,,,,131,2015-04-30T00:00:00,2015-04-30T14:02:42,0,new,active
638063183,67925368,,,Cullen Bay Hotel,,,,Cullen Bay Hotel,,A98,,,,at,,NW,ES000911,Cullen,,,Cullen,EN,-,EN,false,UKOS,350042,867291,-2.83967,57.69266,BCT,MKD,OTH,,,,131,2015-04-30T00:00:00,2015-04-30T12:40:42,0,new,active
638063184,67925369,,,Cullen Bay Hotel,,,,Cullen Bay Hotel,,A98,,,,opp,,SE,ES000911,Cullen,,,Cullen,EN,-,EN,false,UKOS,350056,867294,-2.83943,57.69269,BCT,MKD,OTH,,,,131,2015-04-30T00:00:00,2015-04-30T12:42:54,0,new,active
638063193,67925383,,,Crannoch-hill Cottage,,,,Crannoch-hill Cottage,,A98,,,,opp,,NW,ES000911,Cullen,,,Cullen,EN,-,EN,false,UKOS,352217,865787,-2.80289,57.67939,BCT,MKD,OTH,,,,131,2015-04-30T00:00:00,2015-04-30T15:23:12,0,new,active
638063192,67925382,,,Crannoch-hill Cottage,,,,Crannoch-hill Cottage,,A98,,,,at,,SE,ES000911,Cullen,,,Cullen,EN,-,EN,false,UKOS,352228,865795,-2.8027,57.67946,BCT,MKD,OTH,,,,131,2015-04-30T00:00:00,2015-04-30T15:21:00,0,new,active
638063189,67925378,,,Williamston Steading,,,,Williamston Steading,,B9012,,,,opp,,N,ES001083,Duffus,,,Duffus,EN,-,EN,false,UKOS,316026,869039,-3.41071,57.70328,BCT,MKD,OTH,,,,131,2015-04-30T00:00:00,2015-04-30T14:58:30,0,new,active
638063191,67925379,,,Williamston Steading,,,,Williamston Steading,,B9012,,,,at,,S,ES001083,Duffus,,,Duffus,EN,-,EN,false,UKOS,316032,869040,-3.41061,57.70329,BCT,MKD,OTH,,,,131,2015-04-30T00:00:00,2015-04-30T15:00:36,0,new,active
638055133,67925347,,,Fife Street,,,,Fife Street,,A941,,,,adj,,SE,N0066948,Craigellachie,,,Craigellachie,EN,-,EN,false,UKOS,328941,844943,-3.18698,57.48912,BCT,MKD,OTH,,,,131,2015-02-10T00:00:00,2015-02-16T10:13:18,1,new,active
638055132,67925346,,,Fife Street,,,,Fife Street,,A941,,,,opp,,NW,N0066948,Craigellachie,,,Craigellachie,EN,-,EN,false,UKOS,328929,844936,-3.18718,57.48906,BCT,MKD,OTH,,,,131,2015-02-10T00:00:00,2022-04-20T13:42:28,5,new,active
638055061,67924828,,,Mill House Hotel,,,,Mill House Hotel,,A98,,,,opp,,NE,N0078407,Bridge of Tynet,,,Bridge of Tynet,EN,,,false,UKOS,338385,861418,-3.03367,57.63847,BCT,MKD,OTH,,,,131,2006-07-18T00:00:00,2016-01-19T12:02:00,6,new,active
638051031,67925463,,,Mill House Hotel,,,,Mill House Hotel,,A98,,,,at,,SW,N0078407,Bridge of Tynet,,,Bridge of Tynet,EN,,,false,UKOS,338388,861400,-3.03361,57.6383,BCT,MKD,OTH,,,,131,2016-01-19T00:00:00,2016-01-19T12:00:00,0,new,active
638064252,67925467,,,Hamilton Gardens,,,,Hamilton Gardens,,Duffus Road,,,,opp,,NW,ES001294,Elgin,,,Elgin,EN,,,false,UKOS,320142,864048,-3.34001,57.65922,BCT,MKD,OTH,,,,131,2016-02-09T00:00:00,2016-02-09T14:37:30,0,new,active
638064253,67925469,,,Hamilton Gardens,,,,Hamilton Gardens,,Duffus Road,,,,at,,SE,ES001294,Elgin,,,Elgin,EN,,,false,UKOS,320161,864048,-3.33969,57.65922,BCT,MKD,OTH,,,,131,2016-02-09T00:00:00,2016-02-09T14:40:48,0,new,active
638066611,67924643,,,Craigellachie Garage,,,,Craigellachie,,Edward Avenue,,,,NE-bound,,NE,N0066948,Craigellachie,,,Craigellachie,EN,-,EN,false,UKOS,328752,844932,-3.19013,57.48899,BCT,CUS,OTH,,,,131,2004-11-19T00:00:00,2010-09-16T13:52:00,2,new,active
638000001,67925478,,,Hay Street,,,,,,,,,,E-bound,,E,ES001294,Elgin,,,,,,,false,UKOS,321380,862555,-3.31878,57.64603,BCT,MKD,OTH,,,,131,2025-11-25T00:00:00,2025-11-25T15:09:19,47,new,active
638000002,67925479,,,Hay Street,,,,,,,,,,W-bound,,W,ES001294,Elgin,,,,,,,false,UKOS,321417,862505,-3.31814,57.64559,BCT,MKD,OTH,,,,131,2025-11-25T00:00:00,2025-11-25T15:09:39,48,new,active
638053231,67923647,,,Abbey Crescent,,,,Abbey Crescent,,Abbey Crescent,,,,at,,S,ES002120,Kinloss,,,Kinloss,EN,South Side,EN,false,UKOS,307857,861464,-3.54483,57.63367,BCT,MKD,OTH,,,,131,2003-09-05T00:00:00,2012-12-05T13:45:00,2,new,active
638053241,67923895,,,Queen Street,,,,Queen Street,,West Church Street,,,,opp,,E,ES000495,Buckie,,,Buckie,EN,-,EN,false,UKOS,342071,865348,-2.97288,57.67425,BCT,MKD,OTH,,,,131,2003-09-10T00:00:00,2013-02-06T11:23:00,1,new,active
638053242,67923894,,,Queen Street,,,,Queen Street,,West Church Street,,,,at,,W,ES000495,Buckie,,,Buckie,EN,-,EN,false,UKOS,342042,865312,-2.97336,57.67392,BCT,MKD,OTH,,,,131,2003-09-10T00:00:00,2013-02-06T11:23:00,1,new,active
