ATCOCode,NaptanCode,PlateCode,CleardownCode,CommonName,CommonNameLang,ShortCommonName,ShortCommonNameLang,Landmark,LandmarkLang,Street,StreetLang,Crossing,CrossingLang,Indicator,IndicatorLang,Bearing,NptgLocalityCode,LocalityName,ParentLocalityName,GrandParentLocalityName,Town,TownLang,Suburb,SuburbLang,LocalityCentre,GridType,Easting,Northing,Longitude,Latitude,StopType,BusStopType,TimingStatus,DefaultWaitTime,Notes,NotesLang,AdministrativeAreaCode,CreationDateTime,ModificationDateTime,RevisionNumber,Modification,Status
668029684,26524384,,,Cambus Road,,,,,,Cambus Road,,,,at Broompark East,,N,ES002587,Menstrie,,,,,,,0,UKOS,285422,696941,-3.845999,56.151329,BCT,CUS,TIP,,,,116,2009-06-09T00:00:00.000,2009-06-09T00:00:00.000,0,new,inactive
66806000079,26523657,,,Shillinghill,,,,,,Shillinghill,,,,Stance 3,,,ES000069,Alloa,,,,,,,0,UKOS,288856,692913,-3.789071,56.115979,BCS,,PTP,,,,116,2002-11-26T00:00:00.000,2019-03-26T09:23:47.000,7,revise,active
66806000083,26523658,,,Shillinghill,,,,,,Shillinghill,,,,Stance 2,,,ES000069,Alloa,,,,,,,0,UKOS,288843,692904,-3.789276,56.115895,BCS,,TIP,,,,116,2004-04-30T00:00:00.000,2019-03-26T09:22:26.000,6,revise,active
66806000084,26524397,,,Shillinghill,,,,,,Shillinghill,,,,Stance 1,,,ES000069,Alloa,,,,,,,0,UKOS,288831,692898,-3.789466,56.11583,BCS,,PTP,,,,116,2009-11-27T00:00:00.000,2019-03-26T09:35:16.000,3,revise,active
66806000090,26523753,,,Coalgate,,,,Car Park,,Greenside Street,,,,after,,E,ES000069,Alloa,,,,,,,0,UKOS,288625,692637,-3.792668,56.113438,BCT,MKD,OTH,,,,116,2006-01-05T00:00:00.000,2015-09-09T00:00:00.000,4,revise,inactive
66806000500,26524525,,,Alloa Rail Station,,,,Alloa Rail Station,,King Street,,,,at,,E,ES000069,Alloa,,,,,,,0,UKOS,288818,693115,-3.789766,56.117784,BCT,MKD,PTP,,,,116,2010-02-11T00:00:00.000,2015-09-09T00:00:00.000,2,revise,inactive
66806000800,26523897,,,Morrisons,,,,Morrisons,,Clackmannan Road,,,,at,,W,ES000069,Alloa,,,,,,,0,UKOS,289739,692795,-3.774829,56.115124,BCT,MKD,TIP,,,,116,2006-01-05T00:00:00.000,2019-03-26T09:36:29.000,4,revise,active
66806000805,26524526,,,Carnoch,,,,,,Alloa Park Drive,,,,opp and before,,SE,ES000069,Alloa,,,,,,,0,UKOS,289976,692634,-3.770953,56.113733,BCT,MKD,OTH,,,,116,2010-03-04T00:00:00.000,2011-02-02T10:54:27.000,3,revise,inactive
66806000810,26524527,,,Alloa Park Drive Turning Circle,,,,,,Alloa Park Drive,,,,at,,E,ES000069,Alloa,,,,,,,0,UKOS,289599,692322,-3.776883,56.110844,BCT,MKD,PPT,,,,116,2010-03-04T00:00:00.000,2011-02-02T10:55:15.000,4,revise,inactive
66806000900,26523659,,,Greenside Street,,,,Tesco,,Greenside Street,,,,at,,W,ES000069,Alloa,,,,,,,0,UKOS,288949,692683,-3.78748,56.113927,BCT,MKD,TIP,,,,116,2002-07-08T00:00:00.000,2019-03-26T09:37:27.000,6,revise,active
66806000901,26524269,,,Drysdale Street Taxi Rank at Post Office,,,,Post Office,,Drysdale Street,,,,Taxi Rank at Post Office,,,ES000069,Alloa,,,,,,,0,UKOS,288754,692886,-3.790699,56.115704,TXR,,,,,,116,2008-06-03T00:00:00.000,2019-03-25T11:28:35.000,2,revise,active
66806000902,26524272,,,Mill Street Taxi Rank opposite Woolworths,,,,Woolworths,,Mill Street,,,,Taxi Rank opposite Woolworths,,,ES000069,Alloa,,,,,,,0,UKOS,288697,692787,-3.791574,56.114802,TXR,,,,,,116,2008-06-03T00:00:00.000,2019-03-25T11:44:03.000,2,revise,active
66806100001,26524239,,,Tullibody Road,,,,Lornshill Academy,,Tullibody Road,,,,opp,,NW,ES000069,Alloa,,,,,,,0,UKOS,287176,694694,-3.816828,56.131578,BCT,MKD,TIP,,,,116,2006-01-05T00:00:00.000,2019-03-26T09:39:19.000,4,revise,active
66806100002,26524242,,,Tullibody Rd,,,,Lornshill Academy,,Tullibody Road,,,,before,,SE,ES000069,Alloa,,,,,,,0,UKOS,287296,694573,-3.814832,56.13052,BCT,MKD,OTH,,,,116,2006-01-05T00:00:00.000,2019-03-26T09:40:49.000,4,revise,active
66806100003,26523528,,,Tullibody Road,,,,,,Tullibody Road,,,,opp,,NW,ES000069,Alloa,,,,,,,0,UKOS,287315,694487,-3.814506,56.129752,BCT,MKD,OTH,,,,116,2006-01-05T00:00:00.000,2019-03-26T09:42:42.000,5,revise,active
66806100007,26523529,,,Tullibody Road,,,,,,Tullibody Road,,,,at,,NW,ES000069,Alloa,,,,,,,0,UKOS,287746,694023,-3.807364,56.125679,BCT,MKD,OTH,,,,116,2006-01-05T00:00:00.000,2019-03-26T09:43:32.000,6,revise,active
66806100008,26523532,,,Tullibody Road,,,,,,Tullibody Road,,,,opp,,SE,ES000069,Alloa,,,,,,,0,UKOS,287766,694029,-3.807045,56.125737,BCT,MKD,OTH,,,,116,2006-01-05T00:00:00.000,2019-03-26T09:44:24.000,5,revise,active
66806100009,26523534,,,Tullibody Road,,,,,,TULLIBODY ROAD,,,,at,,NW,ES000069,Alloa,,,,,,,0,UKOS,287902,693862,-3.804804,56.124269,BCT,MKD,OTH,,,,116,2006-01-05T00:00:00.000,2019-03-26T09:45:12.000,7,revise,active
66806100010,26523535,,,Tullibody Road,,,,,,Tullibody Road,,,,opp,,SE,ES000069,Alloa,,,,,,,0,UKOS,287964,693806,-3.803783,56.123781,BCT,MKD,OTH,,,,116,2006-01-05T00:00:00.000,2019-03-26T10:27:22.000,6,revise,active
66806100017,26523536,,,Tullibody Road Rd,,,,,,Tullibody Road,,,,after,,NW,ES000069,Alloa,,,,,,,0,UKOS,288078,693640,-3.801881,56.122317,BCT,MKD,OTH,,,,116,2006-01-05T00:00:00.000,2019-03-26T10:28:19.000,5,revise,active
66806100018,26523537,,,Tullibody Road at No 66,,,,,,Tullibody Road,,,,opp,,SE,ES000069,Alloa,,,,,,,0,UKOS,288134,693597,-3.800963,56.121944,BCT,MKD,OTH,,,,116,2006-01-05T00:00:00.000,2019-03-25T11:53:54.000,5,revise,active
66806100025,26523538,,,Tullobody Road,,,,,,Tullibody Road,,,,opp and after,,NW,ES000069,Alloa,,,,,,,0,UKOS,288232,693443,-3.799323,56.120584,BCT,MKD,OTH,,,,116,2006-01-05T00:00:00.000,2019-03-26T10:41:00.000,6,revise,active
66806100026,26523539,,,Tullibody Road,,,,,,Tullibody Road,,,,at,,SE,ES000069,Alloa,,,,,,,0,UKOS,288249,693449,-3.799052,56.120642,BCT,MKD,OTH,,,,116,2006-01-05T00:00:00.000,2019-03-26T10:49:52.000,5,revise,active
66806100027,26523542,,,Mar Place,,,,Greenfield House,,Mar Place,,,,opp,,NW,ES000069,Alloa,,,,,,,0,UKOS,288329,693281,-3.797695,56.119152,BCT,MKD,OTH,,,,116,2006-01-05T00:00:00.000,2019-03-26T10:50:51.000,4,revise,active
66806100028,26523543,,,Mar Place,,,,Ludgate House,,Mar Place,,,,at,,SE,ES000069,Alloa,,,,,,,0,UKOS,288402,693193,-3.796485,56.118379,BCT,MKD,OTH,,,,116,2006-01-05T00:00:00.000,2019-03-26T10:51:44.000,4,revise,active
66806110012,26524248,,,Smithfield Loan,,,,,,Smithfield Loan,,,,opp and after,,E,ES000069,Alloa,,,,,,,0,UKOS,287850,692916,-3.805242,56.115762,BCT,MKD,OTH,,,,116,2006-12-14T00:00:00.000,2019-03-26T10:53:34.000,5,revise,active
66806110013,26524249,,,Smithfiled Loan,,,,,,Smithfield Loan,,,,before,,W,ES000069,Alloa,,,,,,,0,UKOS,287857,692898,-3.805122,56.115602,BCT,MKD,OTH,,,,116,2006-12-14T00:00:00.000,2019-03-26T10:57:24.000,5,revise,active
66806110014,26523234,,,Grange Road,,,,St Johns Primary School,,Grange Road,,,,at St. Johns Primary School,,NW,ES000069,Alloa,,,,,,,0,UKOS,287843,692971,-3.805377,56.116254,BCT,MKD,OTH,,,,116,2002-11-26T00:00:00.000,2015-02-09T11:39:32.000,1,revise,inactive
66806110015,26523672,,,Grange Road,,,,Dirleton Lane,,Grange Road,,,,opposite No.78,,SE,ES000069,Alloa,,,,,,,0,UKOS,287823,693057,-3.805735,56.117022,BCT,MKD,OTH,,,,116,2003-05-20T00:00:00.000,2015-02-09T11:39:55.000,2,revise,inactive
66806110017,26523673,,,Smithfiled Loan,,,,,,Smithfield Loan,,,,opp and after,,E,ES000069,Alloa,,,,,,,0,UKOS,287616,692907,-3.808999,56.115626,BCT,MKD,TIP,,,,116,2006-01-05T00:00:00.000,2019-03-26T11:03:46.000,5,revise,active
66806110018,26524252,,,Smithfiled Loan,,,,,,Smithfield Loan,,,,after,,NW,ES000069,Alloa,,,,,,,0,UKOS,287507,692929,-3.81076,56.115798,BCT,MKD,TIP,,,,116,2006-12-14T00:00:00.000,2019-03-26T11:04:40.000,7,revise,active
66806110019,26524253,,,Smithfield Loan,,,,New Straun Autism Centre,,Smithfield Loan,,,,at,,SE,ES000069,Alloa,,,,,,,0,UKOS,287341,693062,-3.813485,56.116953,BCT,MKD,OTH,,,,116,2006-12-14T00:00:00.000,2019-03-26T11:05:49.000,5,revise,active
66806110020,26524254,,,Smithfield Loan,,,,New Straun Autism Centre,,Smithfield Loan,,,,opp,,NW,ES000069,Alloa,,,,,,,0,UKOS,287370,693030,-3.813005,56.116673,BCT,MKD,OTH,,,,116,2006-12-14T00:00:00.000,2019-03-26T11:06:38.000,5,revise,active
66806110032,26524236,,,Mar Place,,,,Police Station,,Mar Place,,,,at,,SE,ES000069,Alloa,,,,,,,0,UKOS,288493,693056,-3.794965,56.11717,BCT,MKD,OTH,,,,116,2006-01-05T00:00:00.000,2019-03-26T11:07:27.000,4,revise,active
66806110033,26523546,,,Mar Place,,,,Police Station,,Mar Place,,,,opp,,NW,ES000069,Alloa,,,,,,,0,UKOS,288488,693009,-3.795026,56.116747,BCT,MKD,OTH,,,,116,2006-01-05T00:00:00.000,2019-03-26T11:08:16.000,4,revise,active
66806110071,26523674,,,Grange Road,,,,,,Grange Road,,,,after,,NW,ES000069,Alloa,,,,,,,0,UKOS,288074,692726,-3.801562,56.114117,BCT,MKD,OTH,,,,116,2006-01-05T00:00:00.000,2019-03-26T11:09:09.000,7,revise,active
66806110072,26523675,,,Grange Road,,,,,,Grange Road,,,,before,,E,ES000069,Alloa,,,,,,,0,UKOS,288172,692719,-3.799984,56.114077,BCT,MKD,OTH,,,,116,2006-01-05T00:00:00.000,2019-03-26T11:10:04.000,6,revise,active
66806110073,26523676,,,Ludgate,,,,Bedford Place,,Ludgate,,,,at No.43,,N,ES000069,Alloa,,,,,,,0,UKOS,288352,692705,-3.797084,56.113985,BCT,MKD,OTH,,,,116,2008-03-03T00:00:00.000,2015-02-09T11:40:18.000,2,revise,inactive
66806110074,26523678,,,Bedford Place,,,,Royal Oak Hotel,,Bedford Place,,,,opp,,W,ES000069,Alloa,,,,,,,0,UKOS,288404,692643,-3.796223,56.113449,BCT,MKD,TIP,,,,116,2006-01-05T00:00:00.000,2019-03-26T11:11:00.000,4,revise,active
66806110075,26523679,,,Ludgate,,,,Colville Gardens,,Ludgate,,,,opposite Colville Gardens,,N,ES000069,Alloa,,,,,,,0,UKOS,288338,692904,-3.797393,56.115769,BCT,MKD,OTH,,,,116,2008-03-03T00:00:00.000,2015-02-09T11:40:40.000,2,revise,inactive
66806110076,26523682,,,Church Street,,,,Marshill,,Church Street,,,,at No.49,,S,ES000069,Alloa,,,,,,,0,UKOS,288481,692928,-3.795104,56.116018,BCT,MKD,OTH,,,,116,2008-03-03T00:00:00.000,2015-02-09T11:40:59.000,2,revise,inactive
66806110077,26523683,,,Bedford Place,,,,Royal Oak Hotel,,Bedford Place,,,,at,,E,ES000069,Alloa,,,,,,,0,UKOS,288426,692658,-3.795875,56.11358,BCT,MKD,TIP,,,,116,2006-01-05T00:00:00.000,2019-03-26T11:11:52.000,4,revise,active
66806130016,26523684,,,Ashley Terrace,,,,,,Ashley Terrace,,,,at,,SW,ES000069,Alloa,,,,,,,0,UKOS,288058,693766,-3.802255,56.123444,BCT,MKD,OTH,,,,116,2006-01-05T00:00:00.000,2019-03-26T11:12:38.000,5,revise,active
66806130017,26523845,,,Ashley Terrace,,,,,,Ashley Terrace,,,,opp,,NE,ES000069,Alloa,,,,,,,0,UKOS,288058,693798,-3.802269,56.123731,BCT,MKD,OTH,,,,116,2008-06-03T00:00:00.000,2019-03-26T11:13:32.000,5,revise,active
66806130019,26523892,,,Ashley Terrace,,,,,,Ashley Terrace,,,,opp,,SE,ES000069,Alloa,,,,,,,0,UKOS,288270,693747,-3.798839,56.123323,BCT,MKD,OTH,,,,116,2006-01-05T00:00:00.000,2019-03-26T11:14:24.000,5,revise,active
66806130020,26523685,,,Ashley Terrace,,,,,,Ashley Terrace,,,,after,,NW,ES000069,Alloa,,,,,,,0,UKOS,288258,693732,-3.799026,56.123194,BCT,MKD,OTH,,,,116,2006-01-05T00:00:00.000,2019-03-26T11:16:01.000,5,revise,active
66806130036,26523547,,,Ashley Terrace,,,,,,Ashley Terrace,,,,before,,SE,ES000069,Alloa,,,,,,,0,UKOS,288430,693648,-3.796226,56.12248,BCT,MKD,OTH,,,,116,2006-01-05T00:00:00.000,2019-03-26T11:17:01.000,5,revise,active
66806130037,26523548,,,Ashley Terrace,,,,,,Ashley Terrace,,,,opp,,NW,ES000069,Alloa,,,,,,,0,UKOS,288458,693612,-3.79576,56.122155,BCT,MKD,OTH,,,,116,2006-01-05T00:00:00.000,2019-03-26T11:18:30.000,5,revise,active
66806130038,26523549,,,Ashley Terrace,,,,Sunnyside Primary School,,Ashley Terrace,,,,before,,SE,ES000069,Alloa,,,,,,,0,UKOS,288634,693540,-3.792901,56.121549,BCT,MKD,OTH,,,,116,2006-01-05T00:00:00.000,2019-03-26T11:19:19.000,5,revise,active
66806130039,26523562,,,Ashley Terrace,,,,Sunnyside Primary School,,Ashley Terrace,,,,opp and after,,NW,ES000069,Alloa,,,,,,,0,UKOS,288630,693521,-3.792957,56.121386,BCT,MKD,OTH,,,,116,2006-01-05T00:00:00.000,2019-03-26T11:20:21.000,6,revise,active
66806130040,26523563,,,Ashley Terrace,,,,,,Ashley Terrace,,,,at,,E,ES000069,Alloa,,,,,,,0,UKOS,288838,693488,-3.7896,56.12113,BCT,MKD,TIP,,,,116,2006-01-05T00:00:00.000,2019-03-26T11:21:27.000,7,revise,active
66806130041,26523564,,,Ashley Terrace,,,,Health Centre,,Ashley Terrace,,,,at,,W,ES000069,Alloa,,,,,,,0,UKOS,288851,693468,-3.789382,56.120953,BCT,MKD,TIP,,,,116,2006-01-05T00:00:00.000,2023-03-30T15:22:12.012,5,revise,active
66806140042,26523565,,,Parkhead Road,,,,Cemetery,,Parkhead Road,,,,opp and after,,SW,N0067222,Sauchie,Alloa,,,,,,0,UKOS,289017,693700,-3.78681,56.123075,BCT,MKD,TIP,,,,116,2008-06-03T00:00:00.000,2019-03-26T11:24:04.000,6,revise,active
66806140043,26523567,,,Parkhead Road,,,,,,Parkhead Road,,,,before,,NE,N0067222,Sauchie,Alloa,,,,,,0,UKOS,289029,693772,-3.786648,56.123733,BCT,MKD,TIP,,,,116,2006-01-05T00:00:00.000,2019-03-26T11:24:52.000,6,revise,active
66806140044,26523568,,,Parkhead Road,,,,Community Church,,Parkhead Road,,,,opp and after,,SW,N0067222,Sauchie,Alloa,,,,,,0,UKOS,289159,693992,-3.784649,56.125739,BCT,MKD,OTH,,,,116,2006-01-05T00:00:00.000,2019-03-26T11:25:41.000,6,revise,active
66806140045,26524237,,,Parkhead Road,,,,Community Church,,Parkhead Road,,,,before,,NE,N0067222,Sauchie,Alloa,,,,,,0,UKOS,289133,693982,-3.785063,56.125643,BCT,MKD,OTH,,,,116,2006-01-05T00:00:00.000,2019-03-26T13:30:03.000,6,revise,active
66806140050,26524524,,,Parkhead Rd,,,,Clackmannanshire Community Health Centre,,Parkhead Road,,,,at,,W,N0067222,Sauchie,Alloa,,,,,,0,UKOS,289214,693857,-3.783708,56.124531,BCT,MKD,PTP,,,,116,2010-02-11T00:00:00.000,2019-03-26T13:31:00.000,3,revise,active
66806140086,26523572,,,Alloa Leisure Bowl,,,,Leisure Bowl,,Parkway,,,,at,,W,ES000069,Alloa,,,,,,,0,UKOS,288592,693163,-3.793418,56.118154,BCT,MKD,OTH,,,,116,2006-01-05T00:00:00.000,2015-09-09T00:00:00.000,4,revise,inactive
66806140087,26523573,,,Alloa Leisure Bowl,,,,Leisure Bowl,,Parkway,,,,opp,,E,ES000069,Alloa,,,,,,,0,UKOS,288533,693171,-3.79437,56.118212,BCT,MKD,OTH,,,,116,2006-01-05T00:00:00.000,2015-09-09T00:00:00.000,4,revise,inactive
66806140088,26523574,,,Hillside Terrace,,,,Bowling Club,,Sunnyside Road,,,,after,,SW,ES000069,Alloa,,,,,,,0,UKOS,288877,693406,-3.788939,56.120411,BCT,MKD,OTH,,,,116,2006-01-05T00:00:00.000,2015-09-09T00:00:00.000,5,revise,inactive
66806140089,26523846,,,Hillside Terrace,,,,Bowling Club,,Sunnyside Road,,,,opp and before,,NE,ES000069,Alloa,,,,,,,0,UKOS,288860,693413,-3.789215,56.12047,BCT,MKD,OTH,,,,116,2006-01-05T00:00:00.000,2015-09-09T00:00:00.000,4,revise,inactive
66806140900,26523849,,,Forth Valley College,,,,Forth Valley College,,Branshill Road,,,,at,,N,N0067222,Sauchie,Alloa,,,,,,0,UKOS,288938,693863,-3.788149,56.124529,BCT,MKD,TIP,,,,116,2008-06-03T00:00:00.000,2011-10-26T15:04:09.000,4,revise,inactive
66806150004,26523575,,,Tullibody Road,,,,,,Tullibody Road,,,,opp,,NW,ES000069,Alloa,,,,,,,0,UKOS,287429,694285,-3.812587,56.127965,BCT,MKD,TIP,,,,116,2006-01-05T00:00:00.000,2019-03-26T13:31:41.000,7,revise,active
66806150005,26523576,,,Tullibody Road,,,,,,TULLIBODY ROAD,,,,at,,SE,ES000069,Alloa,,,,,,,0,UKOS,287440,694290,-3.812412,56.128004,BCT,MKD,TIP,,,,116,2006-01-05T00:00:00.000,2019-03-26T13:32:29.000,8,revise,active
66806170005,26524398,,,Claremont,,,,,,Claremont,,,,after,,SE,ES000069,Alloa,,,,,,,0,UKOS,288096,693256,-3.80143,56.118873,BCT,MKD,PPT,,,,116,2010-01-11T00:00:00.000,2019-03-28T17:25:18.000,2,revise,active
66806170006,26523847,,,Paton Street,,,,,,Claremont,,,,opp,,NW,ES000069,Alloa,,,,,,,0,UKOS,288082,693245,-3.801651,56.118771,BCT,MKD,TIP,,,,116,2006-01-05T00:00:00.000,2011-10-26T15:09:44.000,4,revise,inactive
66806170007,26523848,,,Gean Road,,,,,,Claremont,,,,opp and before,,NW,ES000069,Alloa,,,,,,,0,UKOS,287623,693594,-3.809176,56.121797,BCT,MKD,OTH,,,,116,2008-06-03T00:00:00.000,2010-07-21T15:40:30.000,4,revise,inactive
66806170018,26523578,,,Churchill St,,,,,,Churchill Street,,,,at 104,,SE,ES000069,Alloa,,,,,,,0,UKOS,287743,693816,-3.807341,56.123819,BCT,MKD,OTH,,,,116,2006-01-05T00:00:00.000,2019-03-28T17:26:42.000,6,revise,active
66806170019,26523579,,,Churchhill St,,,,,,Churchill Street,,,,after,,SE,ES000069,Alloa,,,,,,,0,UKOS,287839,693590,-3.805702,56.121812,BCT,MKD,TIP,,,,116,2006-01-05T00:00:00.000,2019-03-28T17:27:52.000,5,revise,active
66806170020,26523582,,,Churchhill St,,,,,,Churchill Street,,,,at 30,,SE,ES000069,Alloa,,,,,,,0,UKOS,287920,693500,-3.804362,56.121023,BCT,MKD,OTH,,,,116,2006-01-05T00:00:00.000,2019-03-28T17:40:32.000,6,revise,active
66806170030,26523686,,,Claremont,,,,,,Claremont,,,,at,,NW,ES000069,Alloa,,,,,,,0,UKOS,288288,693031,-3.79825,56.116906,BCT,MKD,OTH,,,,116,2006-01-05T00:00:00.000,2019-03-28T18:15:23.000,8,revise,active
66806170031,26523687,,,Ludgate,,,,War Memorial,,Ludgate,,,,opp,,S,ES000069,Alloa,,,,,,,0,UKOS,288341,693044,-3.797404,56.117035,BCT,MKD,OTH,,,,116,2006-01-05T00:00:00.000,2019-03-28T18:16:16.000,4,revise,active
66806200047,26523468,,,Whins Rd,,,,,,Whins Road,,,,at,,S,ES000069,Alloa,,,,,,,0,UKOS,289436,693510,-3.779996,56.121475,BCT,MKD,OTH,,,,116,2006-01-05T00:00:00.000,2019-03-28T18:17:13.000,4,revise,active
66806200048,26523469,,,Whins Rd,,,,,,Whins Road,,,,after,,NE,ES000069,Alloa,,,,,,,0,UKOS,289359,693376,-3.781177,56.120245,BCT,MKD,OTH,,,,116,2006-01-05T00:00:00.000,2019-03-28T18:18:27.000,5,revise,active
66806200049,26523472,,,Whins Rd,,,,,,Whins Road,,,,after,,NE,ES000069,Alloa,,,,,,,0,UKOS,289271,693293,-3.782558,56.119488,BCT,MKD,OTH,,,,116,2006-01-05T00:00:00.000,2019-03-28T18:20:42.000,5,revise,active
66806200050,26523473,,,Whins Rd,,,,,,Whins Road,,,,opp and before,,SW,ES000069,Alloa,,,,,,,0,UKOS,289272,693272,-3.782533,56.119291,BCT,MKD,OTH,,,,116,2006-01-05T00:00:00.000,2019-03-28T18:21:37.000,5,revise,active
66806200051,26524258,,,Whins Rd,,,,Asda,,WHINS ROAD,,,,at,,NE,ES000069,Alloa,,,,,,,0,UKOS,289030,693077,-3.786342,56.117484,BCT,MKD,OTH,,,,116,2006-12-14T00:00:00.000,2019-03-28T18:22:26.000,5,revise,active
66806200052,26524259,,,Whins Rd,,,,Asda,,Whins Road,,,,opp,,SW,ES000069,Alloa,,,,,,,0,UKOS,289055,693084,-3.785943,56.117561,BCT,MKD,OTH,,,,116,2006-12-14T00:00:00.000,2019-03-28T18:23:22.000,4,revise,active
66806210055,26523583,,,Devon Rd,,,,,,Devon Road,,,,opp,,SE,N0072168,Bowhouse,Alloa,,,,,,0,UKOS,289014,692781,-3.786476,56.114822,BCT,MKD,OTH,,,,116,2006-01-05T00:00:00.000,2019-03-28T18:24:14.000,8,revise,active
66806210056,26523584,,,Devon Rd,,,,,,Devon Road,,,,before,,NW,N0072168,Bowhouse,Alloa,,,,,,0,UKOS,289228,692580,-3.782953,56.113075,BCT,MKD,OTH,,,,116,2006-01-05T00:00:00.000,2024-10-23T10:38:04.166,7,revise,inactive
66806210057,26524247,,,Devon Rd,,,,,,Devon Road,,,,opp,,NE,N0072168,Bowhouse,Alloa,,,,,,0,UKOS,289369,692608,-3.780698,56.113351,BCT,MKD,OTH,,,,116,2006-12-14T00:00:00.000,2019-03-28T18:26:12.000,9,revise,active
66806210058,26524273,,,Devon Rd,,,,,,Devon Road,,,,before,,SW,N0072168,Bowhouse,Alloa,,,,,,0,UKOS,289412,692610,-3.780008,56.113387,BCT,MKD,OTH,,,,116,2007-07-26T00:00:00.000,2024-10-23T10:37:25.776,8,revise,inactive
66806210059,26524383,,,Devon Rd,,,,,,Devon Road,,,,opp and before,,E,N0072168,Bowhouse,Alloa,,,,,,0,UKOS,289130,692673,-3.784566,56.113879,BCT,MKD,OTH,,,,116,2009-05-27T00:00:00.000,2019-03-28T18:29:31.000,4,revise,active
66806210060,26523585,,,Forth Crescent,,,,,,Forth Crescent,,,,opp,,SW,N0072168,Bowhouse,Alloa,,,,,,0,UKOS,289579,692537,-3.777293,56.112762,BCT,MKD,OTH,,,,116,2006-01-05T00:00:00.000,2019-03-28T18:31:04.000,6,revise,active
66806210061,26523586,,,Forth Crescent,,,,,,Forth Crescent,,,,at,,NE,N0072168,Bowhouse,Alloa,,,,,,0,UKOS,289558,692532,-3.777629,56.112712,BCT,MKD,OTH,,,,116,2006-01-05T00:00:00.000,2024-10-23T10:36:44.823,7,revise,inactive
66806210062,26523587,,,Forth Crescent,,,,St Mungos Primary School,,Forth Crescent,,,,opp,,NE,N0072168,Bowhouse,Alloa,,,,,,0,UKOS,289371,692308,-3.780541,56.110657,BCT,MKD,OTH,,,,116,2006-01-05T00:00:00.000,2024-10-23T10:36:06.884,7,revise,inactive
66806210063,26523893,,,Forth Crescent,,,,St Mungos Primary School,,Forth Crescent,,,,before,,SW,N0072168,Bowhouse,Alloa,,,,,,0,UKOS,289375,692289,-3.78047,56.110496,BCT,MKD,OTH,,,,116,2006-01-05T00:00:00.000,2019-03-28T18:34:58.000,6,revise,active
66806210064,26523589,,,Forth Crescent,,,,Alloa Rugby Club,,Forth Crescent,,,,before,,E,N0072168,Bowhouse,Alloa,,,,,,0,UKOS,289203,692268,-3.783225,56.110259,BCT,MKD,OTH,,,,116,2006-01-05T00:00:00.000,2024-10-23T10:35:28.667,6,revise,inactive
66806210065,26523592,,,Forth Crescent,,,,Alloa Rugby Club,,Forth Crescent,,,,opp and after,,W,N0072168,Bowhouse,Alloa,,,,,,0,UKOS,289186,692248,-3.78349,56.110084,BCT,MKD,OTH,,,,116,2006-01-05T00:00:00.000,2019-03-28T18:36:59.000,5,revise,active
66806210066,26523593,,,Forth Crescent,,,,,,Forth Crescent,,,,opp,,W,N0072168,Bowhouse,Alloa,,,,,,0,UKOS,289055,692269,-3.785604,56.110242,BCT,MKD,OTH,,,,116,2006-01-05T00:00:00.000,2019-03-28T18:37:48.000,6,revise,active
66806210067,26523594,,,Forth Crescent,,,,,,Forth Crescent,,,,opp,,S,N0072168,Bowhouse,Alloa,,,,,,0,UKOS,288918,692148,-3.787755,56.109115,BCT,MKD,OTH,,,,116,2006-01-05T00:00:00.000,2019-03-28T18:38:52.000,6,revise,active
66806210068,26524274,,,Bristol Street,,,,,,Forth Crescent,,,,at,,N,N0072168,Bowhouse,Alloa,,,,,,0,UKOS,288899,692147,-3.78806,56.109102,BCT,MKD,OTH,,,,116,2007-07-26T00:00:00.000,2024-10-23T10:34:10.443,7,revise,inactive
66806210069,26523595,,,Bowhouse Rd,,,,Forthbank Industrial Estate,,Bowhouse Rd,,,,opp and before,,E,N0072168,Bowhouse,Alloa,,,,,,0,UKOS,288712,692084,-3.791039,56.108501,BCT,MKD,TIP,,,,116,2002-11-26T00:00:00.000,2024-10-23T10:33:27.399,8,revise,inactive
66806210070,26524276,,,Broad St,,,,Park Primary School,,Broad Street,,,,at,,S,ES000069,Alloa,,,,,,,0,UKOS,288528,692384,-3.794122,56.111152,BCT,MKD,OTH,,,,116,2007-07-26T00:00:00.000,2024-10-23T10:31:46.835,7,revise,inactive
66806210071,26524278,,,Broad St,,,,Park Primary School,,Broad Street,,,,opp,,N,ES000069,Alloa,,,,,,,0,UKOS,288495,692396,-3.794657,56.111252,BCT,MKD,OTH,,,,116,2007-07-26T00:00:00.000,2019-03-28T18:42:32.000,4,revise,active
66806210072,26524285,,,Forth Cr,,,,,,Forth Crescent,,,,before,,E,N0072168,Bowhouse,Alloa,,,,,,0,UKOS,289002,692297,-3.786468,56.110481,BCT,MKD,OTH,,,,116,2007-07-26T00:00:00.000,2024-10-23T10:34:41.894,7,revise,inactive
66806210073,26524389,,,Bowhouse Gardens,,,,Forthbank Industrial Estate,,Bowhouse Rd,,,,after,,W,N0072168,Bowhouse,Alloa,,,,,,0,UKOS,288706,692062,-3.791127,56.108302,BCT,CUS,TIP,,,,116,2009-07-02T00:00:00.000,2019-03-28T18:45:04.000,5,revise,active
66806210074,26524534,,,The Walk,,,,Alloa Academy,,The Walk,,,,at,,S,ES000069,Alloa,,,,,,,0,UKOS,288493,692213,-3.794612,56.1096,BCT,MKD,PTP,,,,116,2010-07-12T00:00:00.000,2024-10-23T10:32:26.959,5,revise,inactive
66806210075,26524538,,,Lime Tree Walk,,,,,,Lime Tree Walk,,,,opp,,N,ES000069,Alloa,,,,,,,0,UKOS,288456,692238,-3.795218,56.109824,BCT,MKD,TIP,,,,116,2010-12-20T14:24:19.000,2019-03-28T18:47:22.000,2,revise,active
66806210900,26523793,,,Devon Road,,,,Auld Brig Road,,Devon Road,,,,at Auld Brig Road H & R,,SE,N0072168,Bowhouse,Alloa,,,,,,0,UKOS,288950,692884,-3.787547,56.115732,BCT,CUS,OTH,,,,116,2008-06-03T00:00:00.000,2009-12-24T00:00:00.000,2,revise,inactive
66806211900,26523794,,,Forth Crescent,,,,Devon Road,,Forth Crescent,,,,at Devon Road H & R,,SW,N0072168,Bowhouse,Alloa,,,,,,0,UKOS,289600,692629,-3.776994,56.113593,BCT,CUS,OTH,,,,116,2008-06-03T00:00:00.000,2009-12-24T00:00:00.000,2,revise,inactive
66806212900,26523795,,,Bowhouse Road,,,,Engelen Drive,,Bowhouse Road,,,,at Engelen Drive H & R,,W,N0072168,Bowhouse,Alloa,,,,,,0,UKOS,288955,692284,-3.787217,56.110345,BCT,CUS,OTH,,,,116,2008-06-03T00:00:00.000,2009-12-24T00:00:00.000,2,revise,inactive
66806213900,26523792,,,Lime Tree Walk,,,,Bowhouse Road,,Lime Tree Walk,,,,at Bowhouse Road H & R,,N,ES000069,Alloa,,,,,,,0,UKOS,288448,692124,-3.795298,56.10879,BCT,CUS,OTH,,,,116,2007-01-25T00:00:00.000,2015-02-09T11:41:19.000,2,revise,inactive
66806214900,26523796,,,Broad Street,,,,East Castle Street,,Broad Street,,,,at East Castle Street H & R,,N,ES000069,Alloa,,,,,,,0,UKOS,288492,692362,-3.794691,56.110946,BCT,CUS,OTH,,,,116,2007-01-25T00:00:00.000,2015-02-09T11:41:36.000,2,revise,inactive
66806220051,26523474,,,Clackmannan Rd,,,,Kwik Fit,,Clackmannan Road,,,,opp,,W,ES000069,Alloa,,,,,,,0,UKOS,289281,692925,-3.782244,56.116177,BCT,MKD,OTH,,,,116,2006-01-05T00:00:00.000,2019-03-28T18:48:15.000,4,revise,active
66806220052,26523475,,,Clackmannan Rd,,,,Kwik Fit,,Clackmannan Road,,,,after,,E,ES000069,Alloa,,,,,,,0,UKOS,289298,692940,-3.781977,56.116324,BCT,MKD,OTH,,,,116,2006-01-05T00:00:00.000,2019-03-28T18:49:14.000,4,revise,active
66806220053,26523476,,,Clackmannan Rd,,,,Alloa Football Club,,Clackmannan Road,,,,opp,,W,ES000069,Alloa,,,,,,,0,UKOS,289517,692887,-3.778435,56.115899,BCT,MKD,OTH,,,,116,2006-01-05T00:00:00.000,2019-03-28T18:50:07.000,4,revise,active
66806220054,26523478,,,Clackmannan Rd,,,,Alloa Football Club,,Clackmannan Road,,,,after,,E,ES000069,Alloa,,,,,,,0,UKOS,289661,692885,-3.776119,56.115906,BCT,MKD,OTH,,,,116,2006-01-05T00:00:00.000,2019-03-28T18:51:08.000,4,revise,active
66806220900,26523754,,,Hillcrest Drive,,,,,,Hillcrest Drive,,,,after,,E,ES000069,Alloa,,,,,,,0,UKOS,289231,692914,-3.783044,56.116075,BCT,CUS,OTH,,,,116,2008-06-03T00:00:00.000,2019-03-28T18:52:04.000,4,revise,active
66806220901,26523756,,,Hawkhill Rd,,,,,,Hawkhill Road,,,,after,,W,ES000069,Alloa,,,,,,,0,UKOS,289592,692858,-3.777218,56.115656,BCT,CUS,OTH,,,,116,2006-01-05T00:00:00.000,2019-03-28T18:52:42.000,5,revise,active
66806221900,26523757,,,Lambert Terrace,,,,,,Lambert Terrace,,,,at,,NW,ES000069,Alloa,,,,,,,0,UKOS,289383,693251,-3.78074,56.119128,BCT,CUS,OTH,,,,116,2008-06-03T00:00:00.000,2019-03-28T18:53:40.000,6,revise,active
66806221901,26523758,,,Gaberston Ave,,,,,,Gaberston Avenue,,,,before,,E,ES000069,Alloa,,,,,,,0,UKOS,289406,693258,-3.780373,56.119205,BCT,CUS,OTH,,,,116,2008-06-03T00:00:00.000,2019-03-28T18:54:15.000,6,revise,active
66806221902,26523759,,,Springfield Rd,,,,,,Springfield Road,,,,before,,W,ES000069,Alloa,,,,,,,0,UKOS,289524,693210,-3.778456,56.118793,BCT,CUS,OTH,,,,116,2008-06-03T00:00:00.000,2019-03-28T18:54:46.000,4,revise,active
66806250001,26524539,,,Alloa Park Drive,,,,,,Alloa Park Drive,,,,at,,E,ES000069,Alloa,,,,,,,0,UKOS,289669,692337,-3.775764,56.110995,BCT,MKD,PTP,,,,116,2012-03-13T15:37:19.000,2019-03-28T19:18:51.000,2,revise,active
66806250002,26524543,,,Alloa Park Drive,,,,,,Alloa Park Drive,,,,opp,,W,ES000069,Alloa,,,,,,,0,UKOS,289660,692321,-3.775902,56.110841,BCT,MKD,PPT,,,,116,2012-03-13T15:53:29.000,2019-03-28T19:19:35.000,2,revise,active
66806300010,26523926,,,Menstrie Rd,,,,,,Menstrie Road,,,,before,,N,ES003715,Tullibody,Alloa,,,,,,0,UKOS,285994,695225,-3.836046,56.136057,BCT,MKD,TIP,,,,116,2008-06-03T00:00:00.000,2019-03-28T19:21:03.000,4,revise,active
66806300011,26523235,,,Menstrie Rd,,,,,,Menstrie Road,,,,opp and after,,S,ES003715,Tullibody,Alloa,,,,,,0,UKOS,286014,695224,-3.835724,56.136053,BCT,MKD,TIP,,,,116,2008-06-03T00:00:00.000,2019-03-28T19:22:54.000,4,revise,active
66806300018,26523596,,,Stirling Rd,,,,Abercromby Arms Hotel,,Stirling Road,,,,at,,E,ES003715,Tullibody,Alloa,,,,,,0,UKOS,285894,695157,-3.837625,56.135422,BCT,MKD,TIP,,,,116,2002-11-26T00:00:00.000,2019-03-28T19:24:23.000,3,revise,active
66806300019,26523597,,,Stirling Rd,,,,Abercromby Arms Hotel,,Stirling Road,,,,opp,,W,ES003715,Tullibody,Alloa,,,,,,0,UKOS,285935,695136,-3.836972,56.135243,BCT,MKD,TIP,,,,116,2002-11-26T00:00:00.000,2019-03-28T19:26:24.000,3,revise,active
66806310012,26523598,,,Alloa Rd,,,,,,Alloa Road,,,,opp,,W,ES003715,Tullibody,Alloa,,,,,,0,UKOS,286200,695090,-3.832691,56.134894,BCT,MKD,OTH,,,,116,2006-01-05T00:00:00.000,2019-03-28T19:29:24.000,4,revise,active
66806310013,26523623,,,Alloa Rd,,,,,,Alloa Road,,,,at,,E,ES003715,Tullibody,Alloa,,,,,,0,UKOS,286285,695088,-3.831323,56.134896,BCT,MKD,OTH,,,,116,2006-01-05T00:00:00.000,2019-03-28T19:30:08.000,4,revise,active
66806310014,26523624,,,Alloa Rd,,,,,,Alloa Road,,,,opp and after,,W,ES003715,Tullibody,Alloa,,,,,,0,UKOS,286537,695007,-3.827236,56.134229,BCT,MKD,OTH,,,,116,2006-01-05T00:00:00.000,2019-03-28T19:31:12.000,5,revise,active
66806311900,26523762,,,Northwood Road,,,,,,Firs Road,,,,before,,SW,ES003715,Tullibody,Alloa,,,,,,0,UKOS,286579,694988,-3.826553,56.134068,BCT,CUS,OTH,,,,116,2008-06-03T00:00:00.000,2010-07-21T15:45:39.000,4,revise,inactive
66806311901,26523763,,,Westview Crescent,,,,,,Delphwood Crescent,,,,opp,,S,ES003715,Tullibody,Alloa,,,,,,0,UKOS,286544,694810,-3.82704,56.132461,BCT,CUS,OTH,,,,116,2008-06-03T00:00:00.000,2010-07-21T15:48:01.000,3,revise,inactive
66806311902,26523764,,,Westview Crescent,,,,,,Firs Road,,,,at,,N,ES003715,Tullibody,Alloa,,,,,,0,UKOS,286523,694829,-3.82737,56.132627,BCT,CUS,OTH,,,,116,2008-06-03T00:00:00.000,2010-07-21T15:48:55.000,3,revise,inactive
66806312900,26523765,,,Abercromby Place,,,,,,Abercromby Place,,,,Hail and Ride,,SE,ES003715,Tullibody,Alloa,,,,,,0,UKOS,285861,694866,-3.838031,56.132801,BCT,CUS,OTH,,,,116,2008-06-03T00:00:00.000,2010-08-26T14:33:27.000,3,revise,inactive
66806312901,26524392,,,Muirside Avenue,,,,,,Muirside Avenue,,,,at,,SE,ES003715,Tullibody,Alloa,,,,,,0,UKOS,286107,695581,-3.834381,56.139281,BCT,HAR,TIP,,,,116,2009-07-24T00:00:00.000,2019-03-25T14:32:33.000,4,revise,active
66806312902,26524393,,,Muirside Ave,,,,,,Muirside Avenue,,,,at,,NW,ES003715,Tullibody,Alloa,,,,,,0,UKOS,286900,695461,-3.821592,56.138392,BCT,HAR,PPT,,,,116,2009-07-24T00:00:00.000,2019-03-28T19:32:56.000,6,revise,active
66806320013,26523625,,,Stirling Rd,,,,,,Stirling Road,,,,opp,,W,ES003715,Tullibody,Alloa,,,,,,0,UKOS,285264,695160,-3.847773,56.135298,BCT,MKD,OTH,,,,116,2006-01-05T00:00:00.000,2019-03-28T19:33:53.000,3,revise,active
66806320014,26523626,,,Stirling Rd,,,,,,Stirling Road,,,,at,,E,ES003715,Tullibody,Alloa,,,,,,0,UKOS,285273,695180,-3.847637,56.13548,BCT,MKD,TIP,,,,116,2006-01-05T00:00:00.000,2019-03-28T19:34:38.000,3,revise,active
66806320015,26523627,,,Stirling Rd,,,,,,Stirling Road,,,,after,,E,ES003715,Tullibody,Alloa,,,,,,0,UKOS,285596,695165,-3.842436,56.135423,BCT,MKD,OTH,,,,116,2006-01-05T00:00:00.000,2019-03-28T19:35:38.000,4,revise,active
66806320016,26523628,,,Stirling Rd,,,,,,Stirling Road,,,,opp,,W,ES003715,Tullibody,Alloa,,,,,,0,UKOS,285484,695154,-3.844217,56.135297,BCT,MKD,OTH,,,,116,2006-01-05T00:00:00.000,2019-03-28T19:36:34.000,3,revise,active
66806320017,26523629,,,Stirling Rd,,,,,,Stirling Road,,,,before,,W,ES003715,Tullibody,Alloa,,,,,,0,UKOS,285765,695142,-3.839693,56.135257,BCT,MKD,OTH,,,,116,2006-01-05T00:00:00.000,2019-03-28T19:37:21.000,4,revise,active
66806330015,26523632,,,Alloa Rd,,,,,,ALLOA ROAD,,,,at,,E,ES003715,Tullibody,Alloa,,,,,,0,UKOS,286625,694993,-3.825815,56.134124,BCT,MKD,TIP,,,,116,2006-01-05T00:00:00.000,2019-03-28T19:38:38.000,4,revise,active
66806340022,26524394,,,Carseview,,,,,,Carseview,,,,opp 2,,W,ES003715,Tullibody,Alloa,,,,,,0,UKOS,285380,695065,-3.845867,56.134473,BCT,MKD,PPT,,,,116,2009-07-30T00:00:00.000,2019-03-28T19:39:16.000,5,revise,active
66806340023,26523634,,,Newmills,,,,,,Newmills,,,,at 82,,E,ES003715,Tullibody,Alloa,,,,,,0,UKOS,285585,695078,-3.842576,56.134639,BCT,MKD,OTH,,,,116,2006-01-05T00:00:00.000,2019-03-28T19:40:02.000,5,revise,active
66806340024,26523635,,,Carseview,,,,,,Carseview,,,,at 2,,E,ES003715,Tullibody,Alloa,,,,,,0,UKOS,285385,695084,-3.845779,56.134645,BCT,MKD,OTH,,,,116,2006-01-05T00:00:00.000,2019-03-28T19:40:39.000,5,revise,active
66806340025,26523636,,,Carseview,,,,,,Carseview,,,,at 258,,N,ES003715,Tullibody,Alloa,,,,,,0,UKOS,285279,694950,-3.847426,56.133416,BCT,MKD,OTH,,,,116,2006-01-05T00:00:00.000,2019-03-28T19:41:26.000,5,revise,active
66806340026,26523637,,,The Orchard,,,,,,The Orchard,,,,at,,E,ES003715,Tullibody,Alloa,,,,,,0,UKOS,285599,694895,-3.842272,56.132999,BCT,MKD,OTH,,,,116,2006-01-05T00:00:00.000,2019-03-28T19:42:03.000,3,revise,active
66806340027,26523894,,,The Orchard,,,,St Bernadettes Primary School,,The Orchard,,,,opp,,W,ES003715,Tullibody,Alloa,,,,,,0,UKOS,285566,694898,-3.842804,56.133018,BCT,MKD,OTH,,,,116,2008-06-03T00:00:00.000,2019-03-28T19:42:39.000,5,revise,active
66806340028,26523895,,,Carseview,,,,,,The Orchard,,,,opp and before,,E,ES003715,Tullibody,Alloa,,,,,,0,UKOS,285370,694851,-3.84592,56.132549,BCT,MKD,OTH,,,,116,2008-06-03T00:00:00.000,2019-03-28T19:43:14.000,8,revise,active
66806340029,26523896,,,Carseview,,,,,,The Orchard,,,,after,,W,ES003715,Tullibody,Alloa,,,,,,0,UKOS,285339,694867,-3.846441,56.132685,BCT,MKD,OTH,,,,116,2008-06-03T00:00:00.000,2019-03-28T19:44:02.000,8,revise,active
66806340900,26524528,,,Newmills,,,,,,Baingle Brae,,,,after,,E,ES003715,Tullibody,Alloa,,,,,,0,UKOS,285699,695002,-3.84071,56.133984,BCT,MKD,OTH,,,,116,2010-03-08T00:00:00.000,2012-03-06T15:10:31.000,4,revise,inactive
66806340901,26524529,,,Baingle Cres,,,,,,Baingle Brae,,,,near and before,,SE,ES003715,Tullibody,Alloa,,,,,,0,UKOS,285714,695144,-3.840514,56.135263,BCT,MKD,OTH,,,,116,2010-03-08T00:00:00.000,2012-03-06T15:13:36.000,2,revise,inactive
66806345001,26524286,,,The Orchard,,,,,,Stirling Road,,,,opp,,N,ES003715,Tullibody,Alloa,,,,,,0,UKOS,285159,694989,-3.849388,56.133737,BCT,MKD,OTH,,,,116,2008-06-03T00:00:00.000,2010-08-26T14:38:24.000,2,revise,inactive
66806345002,26524287,,,The Orchard,,,,,,Stirling Road,,,,near,,S,ES003715,Tullibody,Alloa,,,,,,0,UKOS,285217,694904,-3.848403,56.132988,BCT,MKD,OTH,,,,116,2008-06-03T00:00:00.000,2010-08-26T14:53:38.000,2,revise,inactive
66806350027,26523236,,,Main St,,,,,,Main Street,,,,at,,SW,ES003715,Tullibody,Alloa,,,,,,0,UKOS,285928,694937,-3.836984,56.133455,BCT,MKD,OTH,,,,116,2006-01-05T00:00:00.000,2019-03-28T19:44:44.000,3,revise,active
66806350028,26523237,,,Main St,,,,Health Centre,,Main Street,,,,at,,NE,ES003715,Tullibody,Alloa,,,,,,0,UKOS,285889,694918,-3.837619,56.133275,BCT,MKD,OTH,,,,116,2006-01-05T00:00:00.000,2019-03-28T19:45:32.000,3,revise,active
66806350029,26523238,,,School Rd,,,,,,School Road,,,,opp,,SW,ES003715,Tullibody,Alloa,,,,,,0,UKOS,285837,694825,-3.838415,56.132427,BCT,MKD,OTH,,,,116,2006-01-05T00:00:00.000,2019-03-28T19:46:23.000,4,revise,active
66806350030,26523239,,,Park Terrace,,,,,,Park Terrace,,,,opp and after,,SW,ES003715,Tullibody,Alloa,,,,,,0,UKOS,285718,694550,-3.840195,56.129929,BCT,MKD,TIP,,,,116,2002-11-26T00:00:00.000,2019-03-28T19:47:15.000,4,revise,active
66806350031,26523242,,,Park Terrace,,,,,,Park Terrace,,,,before,,NE,ES003715,Tullibody,Alloa,,,,,,0,UKOS,285691,694529,-3.84062,56.129734,BCT,MKD,TIP,,,,116,2004-04-30T00:00:00.000,2019-03-28T19:47:57.000,4,revise,active
66806350033,26523638,,,Stirling Rd,,,,,,Sirling Road,,,,near,,NW,N0067248,Cambus,Alloa,,,,,,0,UKOS,285755,694207,-3.839453,56.126858,BCT,MKD,TIP,,,,116,2006-01-05T00:00:00.000,2019-03-28T19:48:52.000,4,revise,active
66806361900,26523767,,,St Serfs Place,,,,,,St Serfs Road,,,,before,,W,ES003715,Tullibody,Alloa,,,,,,0,UKOS,286006,695391,-3.83594,56.13755,BCT,CUS,OTH,,,,116,2008-06-03T00:00:00.000,2014-02-03T11:05:56.000,4,revise,inactive
66806361901,26523768,,,Dovecot Road,,,,,,St Serfs Road,,,,near,,N,ES003715,Tullibody,Alloa,,,,,,0,UKOS,285496,695360,-3.844128,56.13715,BCT,CUS,OTH,,,,116,2008-06-03T00:00:00.000,2014-02-03T11:01:58.000,2,revise,inactive
66806362900,26523769,,,Banchory Place,,,,,,Banchory Place,,,,Hail and Ride,,N,ES003715,Tullibody,Alloa,,,,,,0,UKOS,286257,695122,-3.831788,56.135195,BCT,CUS,OTH,,,,116,2008-06-03T00:00:00.000,2010-08-26T14:55:16.000,4,revise,inactive
66806363900,26523782,,,Dovecot Road,,,,Dovecot Road,,Knowefaulds Road,,,,at,,S,ES003715,Tullibody,Alloa,,,,,,0,UKOS,285512,695338,-3.843846,56.136956,BCT,CUS,OTH,,,,116,2003-05-24T00:00:00.000,2014-02-03T10:57:00.000,2,revise,inactive
66806363901,26523783,,,Redlands Road,,,,Stirling Road,,Knowefaulds Road,,,,before,,N,ES003715,Tullibody,Alloa,,,,,,0,UKOS,285491,695198,-3.844139,56.135694,BCT,CUS,OTH,,,,116,2008-06-03T00:00:00.000,2014-02-03T11:03:26.000,2,revise,inactive
66806380001,26523854,,,Station Rd,,,,,,Station Road,,,,opp and after,,NE,N0067248,Cambus,Alloa,,,,,,0,UKOS,285503,694045,-3.843435,56.125343,BCT,MKD,TIP,,,,116,2006-01-05T00:00:00.000,2019-03-28T19:49:39.000,7,revise,active
66806380002,26524396,,,Station Rd,,,,,,Station Rd,,,,before,,SW,N0067248,Cambus,Alloa,,,,,,0,UKOS,285521,694032,-3.84314,56.125231,BCT,MKD,PPT,,,,116,2009-11-27T00:00:00.000,2019-03-25T16:06:11.000,3,revise,active
66806400009,26523425,,,Main St,,,,Schaw Court,,Main Street,,,,opp,,SW,N0067222,Sauchie,Alloa,,,,,,0,UKOS,289446,694229,-3.780133,56.127934,BCT,MKD,OTH,,,,116,2003-05-13T00:00:00.000,2019-03-28T19:52:07.000,3,revise,active
66806400010,26523426,,,Main St,,,,Schaw Court,,Main Street,,,,opp,,NE,N0067222,Sauchie,Alloa,,,,,,0,UKOS,289520,694297,-3.778971,56.128553,BCT,MKD,TIP,,,,116,2003-05-13T00:00:00.000,2019-03-28T19:52:52.000,3,revise,active
66806400011,26523427,,,Main St,,,,Beechwood,,Main Street,,,,at,,NE,N0067222,Sauchie,Alloa,,,,,,0,UKOS,289736,694512,-3.775587,56.130534,BCT,MKD,TIP,,,,116,2006-01-05T00:00:00.000,2019-03-28T19:53:48.000,5,revise,active
66806400012,26523428,,,Main St,,,,Greygoran,,Main Street,,,,after,,SW,N0067222,Sauchie,Alloa,,,,,,0,UKOS,289674,694400,-3.776538,56.129514,BCT,MKD,TIP,,,,116,2006-01-05T00:00:00.000,2019-03-28T19:54:37.000,3,revise,active
66806400013,26523429,,,Main St,,,,Hillview Court,,Main Street,,,,before,,NE,N0067222,Sauchie,Alloa,,,,,,0,UKOS,289936,694806,-3.772492,56.13322,BCT,MKD,OTH,,,,116,2003-05-13T00:00:00.000,2019-03-28T19:55:31.000,3,revise,active
66806400014,26523856,,,Main St,,,,Hillview Court,,Main Street,,,,opp and after,,SW,N0067222,Sauchie,Alloa,,,,,,0,UKOS,289955,694805,-3.772187,56.133224,BCT,MKD,OTH,,,,116,2005-03-19T00:00:00.000,2019-03-28T19:56:22.000,3,revise,active
66806405900,26524263,,,Schawpark Golf Club,,,,Main Street,,Craigview,,,,opp,,NW,N0067222,Sauchie,Alloa,,,,,,0,UKOS,289806,694596,-3.774497,56.131313,BCT,MKD,OTH,,,,116,2006-12-04T00:00:00.000,2006-12-04T00:00:00.000,1,new,active
66806405901,26524264,,,Greygoran,,,,Greygoran,,Craigview,,,,before,,NE,N0067222,Sauchie,Alloa,,,,,,0,UKOS,289545,694495,-3.778651,56.130337,BCT,MKD,OTH,,,,116,2008-06-03T00:00:00.000,2010-03-05T00:00:00.000,2,revise,active
66806405902,26524537,,,Lochbrae,,,,,,Craigview,,,,before,,NE,N0067222,Sauchie,Alloa,,,,,,0,UKOS,289775,694626,-3.775007,56.131575,BCT,MKD,OTH,,,,116,2010-08-04T00:00:00.000,2010-08-04T00:00:00.000,1,new,active
66806406900,26524265,,,Craigbank,,,,Craigview,,Greygoran,,,,after,,SE,N0067222,Sauchie,Alloa,,,,,,0,UKOS,289520,694495,-3.779053,56.130331,BCT,MKD,OTH,,,,116,2008-06-03T00:00:00.000,2010-08-26T15:12:34.000,2,revise,inactive
66806406901,26524267,,,Preston Terrace,,,,Main Street,,Greygoran,,,,opp,,NW,N0067222,Sauchie,Alloa,,,,,,0,UKOS,289631,694384,-3.777222,56.12936,BCT,MKD,OTH,,,,116,2006-12-04T00:00:00.000,2006-12-04T00:00:00.000,1,new,active
66806410009,26523923,,,Sprotwell Terrace,,,,,,Beechwood,,,,before,,W,N0067222,Sauchie,Alloa,,,,,,0,UKOS,289776,694373,-3.774886,56.129295,BCT,MKD,TIP,,,,116,2006-01-05T00:00:00.000,2017-03-07T15:21:24.000,2,revise,active
66806410010,26523924,,,Sprotwell Terrace,,,,Sprotwell Terrace,,Beechwood,,,,opp and after,,E,N0067222,Sauchie,Alloa,,,,,,0,UKOS,289801,694377,-3.774486,56.129345,BCT,MKD,TIP,,,,116,2006-01-05T00:00:00.000,2008-07-16T00:00:00.000,1,revise,active
66806410011,26523925,,,Deerpark,,,,Beechwood,,Beechwood,,,,after,,W,N0067222,Sauchie,Alloa,,,,,,0,UKOS,289959,694359,-3.771938,56.12922,BCT,MKD,TIP,,,,116,2006-01-05T00:00:00.000,2008-07-16T00:00:00.000,1,revise,active
66806410012,26523693,,,Deerpark,,,,Beechwood,,Beechwood,,,,before,,E,N0067222,Sauchie,Alloa,,,,,,0,UKOS,289967,694377,-3.771817,56.129375,BCT,MKD,TIP,,,,116,2006-01-05T00:00:00.000,2008-07-16T00:00:00.000,1,revise,active
66806410013,26523857,,,Tower View,,,,Tower View,,Deerpark,,,,before,,W,N0067222,Sauchie,Alloa,,,,,,0,UKOS,290156,694302,-3.768747,56.128745,BCT,MKD,OTH,,,,116,2006-01-05T00:00:00.000,2008-07-16T00:00:00.000,1,revise,active
66806410014,26523858,,,Tower View,,,,Tower View,,Deerpark,,,,after,,E,N0067222,Sauchie,Alloa,,,,,,0,UKOS,290156,694318,-3.768754,56.128897,BCT,MKD,OTH,,,,116,2006-01-05T00:00:00.000,2008-07-16T00:00:00.000,1,revise,active
66806410015,26523694,,,Mount William,,,,Woodlands,,Deerpark,,,,after,,S,N0067222,Sauchie,Alloa,,,,,,0,UKOS,290407,694215,-3.764676,56.12803,BCT,MKD,TIP,,,,116,2006-01-05T00:00:00.000,2008-07-16T00:00:00.000,1,revise,active
66806410016,26523859,,,Mount William,,,,Woodlands,,Deerpark,,,,before,,N,N0067222,Sauchie,Alloa,,,,,,0,UKOS,290390,694216,-3.764949,56.128035,BCT,MKD,TIP,,,,116,2006-01-05T00:00:00.000,2008-07-16T00:00:00.000,1,revise,active
66806415011,26523862,,,Woodlands,,,,Woodlands,,Gartmorn Road,,,,after,,E,N0067222,Sauchie,Alloa,,,,,,0,UKOS,290307,694146,-3.766255,56.127379,BCT,MKD,OTH,,,,116,2006-01-05T00:00:00.000,2024-10-31T11:12:34.112,3,revise,inactive
66806415012,26523697,,,Woodlands,,,,Woodlands,,Gartmorn Road,,,,opp and before,,W,N0067222,Sauchie,Alloa,,,,,,0,UKOS,290307,694128,-3.766247,56.127217,BCT,MKD,OTH,,,,116,2006-01-05T00:00:00.000,2008-07-16T00:00:00.000,1,revise,active
66806415013,26523696,,,Posthill,,,,Posthill,,Gartmorn Road,,,,before,,NW,N0067222,Sauchie,Alloa,,,,,,0,UKOS,290076,694166,-3.769977,56.127505,BCT,MKD,OTH,,,,116,2006-01-05T00:00:00.000,2008-07-16T00:00:00.000,1,revise,active
66806415014,26523863,,,Posthill,,,,Posthill,,Gartmorn Road,,,,opp and after,,SE,N0067222,Sauchie,Alloa,,,,,,0,UKOS,290085,694181,-3.769838,56.127642,BCT,MKD,OTH,,,,116,2006-01-05T00:00:00.000,2024-10-31T11:11:38.211,2,revise,inactive
66806415015,26523695,,,Burnside Street,,,,Woodlands,,Gartmorn Road,,,,opp and after,,W,N0067222,Sauchie,Alloa,,,,,,0,UKOS,289777,694142,-3.774775,56.127221,BCT,MKD,OTH,,,,116,2006-01-05T00:00:00.000,2008-07-16T00:00:00.000,1,revise,active
66806415016,26523864,,,Burnside Street,,,,Woodlands,,Gartmorn Road,,,,before,,E,N0067222,Sauchie,Alloa,,,,,,0,UKOS,289776,694159,-3.774798,56.127373,BCT,MKD,OTH,,,,116,2006-01-05T00:00:00.000,2024-10-31T11:10:34.717,2,revise,inactive
66806430001,26523698,,,Abbey Craig Road,,,,Ten Acres,,Abbey Craig Road,,,,opp 29,,SE,N0067222,Sauchie,Alloa,,,,,,0,UKOS,288753,694402,-3.791348,56.129318,BCT,MKD,TIP,,,,116,2006-01-05T00:00:00.000,2010-12-07T10:22:50.000,2,revise,active
66806430002,26523723,,,Roundelwood,,,,Abbey Craig Road,,Roundelwood,,,,at 21,,N,N0067222,Sauchie,Alloa,,,,,,0,UKOS,288670,694263,-3.792624,56.12805,BCT,MKD,OTH,,,,116,2006-01-05T00:00:00.000,2010-12-07T10:29:30.000,2,revise,active
66806430003,26523724,,,Church Grove,,,,Church Grove,,Pompee Road,,,,after,,W,N0067222,Sauchie,Alloa,,,,,,0,UKOS,288843,694106,-3.789777,56.126681,BCT,MKD,OTH,,,,116,2006-01-05T00:00:00.000,2008-07-16T00:00:00.000,1,revise,active
66806430004,26523232,,,Pompee Road,,,,Church Grove,,Pompee Road,,,,at 29,,W,N0067222,Sauchie,Alloa,,,,,,0,UKOS,288963,694098,-3.787844,56.126637,BCT,MKD,OTH,,,,116,2006-01-05T00:00:00.000,2010-12-07T10:28:41.000,4,revise,active
66806430005,26523725,,,Park Crescent,,,,Park Crescent,,Fairfield Road,,,,after,,SE,N0067222,Sauchie,Alloa,,,,,,0,UKOS,289073,694204,-3.78612,56.127614,BCT,MKD,TIP,,,,116,2006-01-05T00:00:00.000,2008-07-16T00:00:00.000,1,revise,active
66806430006,26523726,,,Holton Crescent,,,,Holton Crescent,,Fairfield Road,,,,after,,SE,N0067222,Sauchie,Alloa,,,,,,0,UKOS,289164,694065,-3.784599,56.126387,BCT,MKD,OTH,,,,116,2006-01-05T00:00:00.000,2008-07-16T00:00:00.000,1,revise,active
66806435900,26524523,,,Woodlea Park,,,,,,Woodlea Park,,,,at 75,,N,N0067222,Sauchie,Alloa,,,,,,0,UKOS,288599,693892,-3.793611,56.124702,BCT,MKD,PPT,,,,116,2010-01-11T00:00:00.000,2010-12-07T10:30:17.000,1,revise,active
66806440900,26523797,,,Parkhead Court,,,,Parkhead Road,,Branshill Road,,,,opp and before,,NW,N0067222,Sauchie,Alloa,,,,,,0,UKOS,289032,693791,-3.786607,56.123896,BCT,CUS,OTH,,,,116,2006-01-05T00:00:00.000,2009-12-01T00:00:00.000,2,revise,active
66806440901,26523798,,,Roundelwood,,,,Roundelwood,,Branshill Road,,,,after,,S,N0067222,Sauchie,Alloa,,,,,,0,UKOS,288614,694369,-3.793569,56.128989,BCT,CUS,OTH,,,,116,2008-06-03T00:00:00.000,2010-08-26T15:15:24.000,1,revise,inactive
66806441900,26523823,,,Ten Acres,,,,Abbey Craig Road,,Ten Acres,,,,at 52,,E,N0067222,Sauchie,Alloa,,,,,,0,UKOS,288704,694497,-3.792176,56.130168,BCT,CUS,OTH,,,,116,2008-06-03T00:00:00.000,2010-12-07T10:29:54.000,2,revise,active
66806441901,26523824,,,Ten Acres,,,,Fairfield Road,,Ten Acres,,,,opp No 2,,E,N0067222,Sauchie,Alloa,,,,,,0,UKOS,288896,694445,-3.789066,56.129737,BCT,CUS,OTH,,,,116,2008-06-03T00:00:00.000,2010-08-26T15:16:19.000,2,revise,inactive
66806442900,26523825,,,Grant Street,,,,Grange Road,,Grant Street,,,,opp 6,,S,ES000069,Alloa,,,,,,,0,UKOS,287930,692840,-3.803924,56.115107,BCT,CUS,OTH,,,,116,2008-06-03T00:00:00.000,2010-12-07T10:27:55.000,3,revise,active
66806443900,26523826,,,Grant Street,,,,Grant Street,,Caledonian Road,,,,opp,,W,ES000069,Alloa,,,,,,,0,UKOS,287851,692640,-3.80511,56.113284,BCT,CUS,OTH,,,,116,2008-06-03T00:00:00.000,2009-12-04T00:00:00.000,2,revise,active
66806444900,26523827,,,Bellevue Park,,,,Caledonian Road,,Bellevue Road,,,,at,,N,ES000069,Alloa,,,,,,,0,UKOS,287541,692710,-3.810122,56.113848,BCT,CUS,OTH,,,,116,2008-06-03T00:00:00.000,2009-12-16T00:00:00.000,2,revise,active
66806445900,26523828,,,Redwell Place,,,,Stirling Road,,Redwell Place,,,,opp 3,,NW,ES000069,Alloa,,,,,,,0,UKOS,287701,693208,-3.80776,56.118349,BCT,CUS,OTH,,,,116,2008-06-03T00:00:00.000,2010-12-07T10:29:06.000,2,revise,active
66806446900,26523829,,,Academy Street,,,,Academy Street,,Carse Terrace,,,,opp,,W,ES000069,Alloa,,,,,,,0,UKOS,287541,693499,-3.810455,56.120933,BCT,CUS,OTH,,,,116,2008-06-03T00:00:00.000,2009-12-16T00:00:00.000,2,revise,active
66806447900,26523832,,,Carse Terrace,,,,Claremont,,Academy Street,,,,at,,N,ES000069,Alloa,,,,,,,0,UKOS,287483,693517,-3.811395,56.121081,BCT,CUS,OTH,,,,116,2008-06-03T00:00:00.000,2010-03-22T00:00:00.000,3,revise,active
66806448900,26523834,,,Gean Road,,,,Claremont,,Gean Road,,,,at 22,,NE,ES000069,Alloa,,,,,,,0,UKOS,287544,693667,-3.810477,56.122434,BCT,CUS,OTH,,,,116,2008-06-03T00:00:00.000,2010-12-07T10:27:26.000,4,revise,active
66806450007,26523727,,,Public Hall,,,,Fairfield Road,,Mar Place,,,,at,,N,N0067222,Sauchie,Alloa,,,,,,0,UKOS,289241,694087,-3.78337,56.126611,BCT,MKD,TIP,,,,116,2006-01-05T00:00:00.000,2008-07-16T00:00:00.000,2,revise,active
66806450008,26523728,,,Public Hall,,,,Fairfield Road,,Mar Place,,,,opp,,S,N0067222,Sauchie,Alloa,,,,,,0,UKOS,289248,694050,-3.783242,56.126272,BCT,MKD,TIP,,,,116,2003-05-20T00:00:00.000,2003-05-20T00:00:00.000,1,new,active
66806460045,26523479,,,Keilarsbrae,,,,Jet Garage,,HALLPARK,,,,opp and before,,N,N0067222,Sauchie,Alloa,,,,,,0,UKOS,289361,693729,-3.781292,56.123424,BCT,MKD,OTH,,,,116,2006-01-05T00:00:00.000,2019-02-04T14:07:15.000,3,revise,active
66806460046,26523482,,,Keilarsbrae,,,,Vauxhall Garage,,Hallpark,,,,before,,S,N0067222,Sauchie,Alloa,,,,,,0,UKOS,289352,693804,-3.781468,56.124087,BCT,MKD,OTH,,,,116,2006-01-05T00:00:00.000,2008-05-29T00:00:00.000,1,revise,active
66806490001,26523243,,,Burnee,,,,Pitfairn Road,,Pitfairn Road,,,,opp and before,,E,N0067291,Fishcross,Alloa,,,,,,0,UKOS,290067,695385,-3.770625,56.13845,BCT,MKD,OTH,,,,116,2006-01-05T00:00:00.000,2008-07-16T00:00:00.000,1,revise,active
66806490002,26523245,,,Burnee,,,,Burnee,,Pitfairn Road,,,,after,,W,N0067291,Fishcross,Alloa,,,,,,0,UKOS,290169,695377,-3.768981,56.138402,BCT,MKD,OTH,,,,116,2006-01-05T00:00:00.000,2011-03-16T13:29:47.000,2,revise,active
66806490011,26523432,,,Primary School,,,,Primary School,,Alloa Road,,,,at,,N,N0067291,Fishcross,Alloa,,,,,,0,UKOS,289910,695263,-3.7731,56.137318,BCT,MKD,TIP,,,,116,2003-05-13T00:00:00.000,2003-05-13T00:00:00.000,1,new,active
66806490012,26523434,,,Primary School,,,,Lawswell,,Alloa Road,,,,opp and after,,S,N0067291,Fishcross,Alloa,,,,,,0,UKOS,289960,695200,-3.772269,56.136764,BCT,MKD,TIP,,,,116,2006-01-05T00:00:00.000,2008-07-16T00:00:00.000,1,revise,active
66806495007,26524279,,,Glenochil Prison,,,,Glenochil Prison,,King O Muirs Road,,,,at,,E,ES001613,Glenochil,Alloa,,,,,,0,UKOS,287232,695652,-3.816333,56.140185,BCT,MKD,OTH,,,,116,2007-07-03T00:00:00.000,2015-09-18T00:00:00.000,5,revise,active
66806495008,26524282,,,Glenochil Prison,,,,Glenochil Prison,,King O Muirs Road,,,,opp,,W,ES001613,Glenochil,Alloa,,,,,,0,UKOS,287170,695642,-3.817326,56.140081,BCT,MKD,OTH,,,,116,2007-07-03T00:00:00.000,2007-07-03T00:00:00.000,1,new,active
66806495009,26523246,,,King O Muirs Avenue,,,,King O Muirs Avenue,,King O Muirs Road,,,,at,,E,ES001613,Glenochil,Alloa,,,,,,0,UKOS,287476,695619,-3.812395,56.139947,BCT,MKD,TIP,,,,116,2006-01-05T00:00:00.000,2015-09-18T00:00:00.000,5,revise,active
66806495010,26524234,,,King O Muirs Avenue,,,,King O Muirs Avenue,,King O Muirs Road,,,,opp,,W,ES001613,Glenochil,Alloa,,,,,,0,UKOS,287459,695601,-3.812645,56.139781,BCT,MKD,TIP,,,,116,2006-01-05T00:00:00.000,2009-06-15T00:00:00.000,1,revise,active
66806500004,26523483,,,Mary Place,,,,Kirk Wynd,,Alloa Road,,,,opp and before,,W,ES000723,Clackmannan,,,,,,,0,UKOS,291065,692144,-3.753249,56.109574,BCT,MKD,OTH,,,,116,2006-01-05T00:00:00.000,2009-12-16T00:00:00.000,2,revise,active
66806500005,26523484,,,Mary Place,,,,Kirk Wynd,,Alloa Road,,,,after,,E,ES000723,Clackmannan,,,,,,,0,UKOS,291107,692155,-3.752579,56.109691,BCT,MKD,OTH,,,,116,2006-01-05T00:00:00.000,2009-12-16T00:00:00.000,3,revise,active
66806500006,26523485,,,Mill Road,,,,Willbank Crescent,,Alloa Road,,,,opp and after,,W,ES000723,Clackmannan,,,,,,,0,UKOS,291265,692100,-3.750017,56.109233,BCT,MKD,TIP,,,,116,2006-01-05T00:00:00.000,2009-12-16T00:00:00.000,2,revise,active
66806500007,26523486,,,Mill Road,,,,Mill Road,,Alloa Road,,,,at,,E,ES000723,Clackmannan,,,,,,,0,UKOS,291356,692068,-3.748541,56.108958,BCT,MKD,TIP,,,,116,2006-01-05T00:00:00.000,2009-12-16T00:00:00.000,2,revise,active
66806500009,26523729,,,The Horseshoe Bar,,,,Kirk Wynd,,Main Street,,,,opp,,W,ES000723,Clackmannan,,,,,,,0,UKOS,291158,691887,-3.75165,56.107296,BCT,MKD,TIP,,,,116,2006-01-05T00:00:00.000,2009-12-16T00:00:00.000,2,revise,active
66806500010,26523732,,,Health Centre,,,,Castle Street,,Main Street,,,,opp and after,,W,ES000723,Clackmannan,,,,,,,0,UKOS,291242,691893,-3.750302,56.107369,BCT,MKD,OTH,,,,116,2006-01-05T00:00:00.000,2009-12-16T00:00:00.000,2,revise,active
66806500011,26523734,,,Health Centre,,,,Health Centre,,Main Street,,,,at,,E,ES000723,Clackmannan,,,,,,,0,UKOS,291282,691912,-3.749667,56.10754,BCT,MKD,OTH,,,,116,2006-01-05T00:00:00.000,2009-12-16T00:00:00.000,1,revise,active
66806500012,26524243,,,The Horseshoe Bar,,,,The Horseshoe Bar,,Main Street,,,,at,,E,ES000723,Clackmannan,,,,,,,0,UKOS,291158,691908,-3.751658,56.107476,BCT,MKD,TIP,,,,116,2006-01-05T00:00:00.000,2009-12-16T00:00:00.000,2,revise,active
66806510001,26523487,,,Devonway,,,,Devonway,,Alloa Road,,,,opp and after,,N,ES000723,Clackmannan,,,,,,,0,UKOS,290798,692537,-3.757701,56.113051,BCT,MKD,OTH,,,,116,2006-01-05T00:00:00.000,2009-12-16T00:00:00.000,1,revise,active
66806510002,26523489,,,Devonway,,,,Devonway,,Alloa Road,,,,after,,S,ES000723,Clackmannan,,,,,,,0,UKOS,290860,692370,-3.756636,56.111557,BCT,MKD,OTH,,,,116,2006-01-05T00:00:00.000,2009-12-16T00:00:00.000,2,revise,active
66806510900,26523835,,,Devonway,,,,Alloa Road,,Devonway,,,,at 15,,E,ES000723,Clackmannan,,,,,,,0,UKOS,290851,692435,-3.756807,56.112147,BCT,CUS,OTH,,,,116,2008-06-03T00:00:00.000,2012-07-05T15:28:59.000,4,revise,inactive
66806510901,26523836,,,Devonway,,,,Alloa Road,,Devonway,,,,at 20,,W,ES000723,Clackmannan,,,,,,,0,UKOS,290856,692419,-3.75672,56.111996,BCT,CUS,OTH,,,,116,2008-06-03T00:00:00.000,2012-08-29T15:05:31.000,4,revise,inactive
66806520002,26524542,,,Parklands Care Home,,,,,,Alloa Park Drive,,,,opp,,W,ES000069,Alloa,,,,,,,0,UKOS,289660,692320,-3.775902,56.110832,BCT,MKD,PPT,,,,116,2012-03-13T16:04:57.000,2012-03-20T11:20:49.000,1,revise,inactive
66806520012,26523492,,,Izatt Terrace,,,,Izatt Terrace,,Alloa Road,,,,opp and before,,SE,ES000723,Clackmannan,,,,,,,0,UKOS,291542,691924,-3.745493,56.107707,BCT,MKD,OTH,,,,116,2002-11-26T00:00:00.000,2009-12-16T00:00:00.000,2,revise,active
66806520013,26523493,,,Izatt Terrace,,,,Izatt Terrace,,Alloa Road,,,,after,,NW,ES000723,Clackmannan,,,,,,,0,UKOS,291510,691929,-3.74601,56.107753,BCT,MKD,OTH,,,,116,2004-04-30T00:00:00.000,2009-12-16T00:00:00.000,2,revise,active
66806520014,26523736,,,Craigrie Road,,,,Craigrie Road,,Port Street,,,,opp,,SE,ES000723,Clackmannan,,,,,,,0,UKOS,291173,691678,-3.751323,56.105414,BCT,MKD,TIP,,,,116,2006-03-22T00:00:00.000,2014-02-03T10:07:02.000,4,revise,inactive
66806520015,26523737,,,Craigrie Road,,,,Lochies Road,,Port Street,,,,before,,NW,ES000723,Clackmannan,,,,,,,0,UKOS,291176,691638,-3.751259,56.105064,BCT,MKD,TIP,,,,116,2006-03-22T00:00:00.000,2010-10-11T00:00:00.000,2,revise,active
66806520016,26523494,,,Bruce Street,,,,Bruce Street,,Lochies Road,,,,after,,E,ES000723,Clackmannan,,,,,,,0,UKOS,291321,691676,-3.748944,56.105438,BCT,MKD,OTH,,,,116,2006-01-05T00:00:00.000,2014-02-03T10:08:23.000,3,revise,inactive
66806520017,26523495,,,Bruce Street,,,,Castle Street,,Lochies Road,,,,opp and before,,W,ES000723,Clackmannan,,,,,,,0,UKOS,291348,691664,-3.748505,56.105328,BCT,MKD,OTH,,,,116,2006-01-05T00:00:00.000,2009-12-16T00:00:00.000,2,revise,active
66806520020,26523496,,,Brucefield Crescent,,,,Alloa Road,,Alloa Road,,,,opp and after,,NW,ES000723,Clackmannan,,,,,,,0,UKOS,291614,691795,-3.744284,56.106565,BCT,MKD,OTH,,,,116,2006-01-05T00:00:00.000,2009-12-16T00:00:00.000,2,revise,active
66806520021,26523497,,,Brucefield Crescent,,,,South Pilmuir Road,,Alloa Road,,,,before,,SE,ES000723,Clackmannan,,,,,,,0,UKOS,291671,691739,-3.743345,56.106075,BCT,MKD,OTH,,,,116,2006-01-05T00:00:00.000,2013-01-15T09:18:48.000,4,revise,active
66806520022,26523498,,,Duke Street,,,,Duke Street,,Alloa Road,,,,before,,NW,ES000723,Clackmannan,,,,,,,0,UKOS,291868,691535,-3.740097,56.104296,BCT,MKD,OTH,,,,116,2006-01-05T00:00:00.000,2015-02-09T11:54:30.000,3,revise,active
66806520023,26523523,,,Duke Street,,,,Mannan Drive,,Alloa Road,,,,opp and after,,SE,ES000723,Clackmannan,,,,,,,0,UKOS,291884,691547,-3.739844,56.104399,BCT,MKD,OTH,,,,116,2006-01-05T00:00:00.000,2015-02-09T11:54:46.000,3,revise,active
66806520024,26523524,,,Zetland Street,,,,Zetland Street,,South Pilmuir Road,,,,before,,E,ES000723,Clackmannan,,,,,,,0,UKOS,291572,691642,-3.744897,56.10519,BCT,MKD,TIP,,,,116,2006-01-05T00:00:00.000,2014-02-03T10:52:54.000,3,revise,inactive
66806520025,26523865,,,Zetland Street,,,,Zetland Street,,South Pilmuir Road,,,,opp and after,,W,ES000723,Clackmannan,,,,,,,0,UKOS,291576,691624,-3.744825,56.105029,BCT,MKD,TIP,,,,116,2008-06-03T00:00:00.000,2009-12-16T00:00:00.000,2,revise,active
66806520900,26523837,,,Mannan Drive,,,,St Serfs Grove,,Mannan Drive,,,,Hail and Ride westbound,,NE,ES000723,Clackmannan,,,,,,,0,UKOS,291921,691520,-3.739239,56.104165,BCT,CUS,OTH,,,,116,2006-01-05T00:00:00.000,2014-02-03T10:51:29.000,3,revise,inactive
66806520901,26523838,,,Mannan Drive,,,,Mercat Place,,Mannan Drive,,,,Hail and Ride eastbound,,SE,ES000723,Clackmannan,,,,,,,0,UKOS,291908,691594,-3.739478,56.104835,BCT,CUS,OTH,,,,116,2008-06-03T00:00:00.000,2012-07-05T15:31:04.000,3,revise,inactive
66806521900,26523839,,,St Serfs Grove,,,,Mercat Place,,St Serfs Grove,,,,Hail and Ride,,NW,ES000723,Clackmannan,,,,,,,0,UKOS,291860,691708,-3.740296,56.105848,BCT,CUS,OTH,,,,116,2008-06-03T00:00:00.000,2012-07-05T15:31:55.000,3,revise,inactive
66806522900,26523842,,,Mercat Place,,,,St Serfs Grove,,Mercat Place,,,,Hail and Ride,,NE,ES000723,Clackmannan,,,,,,,0,UKOS,291946,691661,-3.738894,56.105437,BCT,CUS,OTH,,,,116,2008-06-03T00:00:00.000,2012-07-05T15:32:39.000,3,revise,inactive
66806590001,26523526,,,No 8,,,,Kennet Village,,Kennet Village,,,,opp,,NW,N0067309,Kennet,Clackmannan,,,,,,0,UKOS,292638,690997,-3.727507,56.09963,BCT,MKD,OTH,,,,116,2006-01-05T00:00:00.000,2010-10-11T00:00:00.000,3,revise,active
66806590002,26523527,,,No 8,,,,Kennet Village,,Kennet Village,,,,at,,SE,N0067309,Kennet,Clackmannan,,,,,,0,UKOS,292657,691001,-3.727203,56.099679,BCT,MKD,OTH,,,,116,2006-01-05T00:00:00.000,2010-10-11T00:00:00.000,3,revise,active
66806595001,26523867,,,Layby,,,,Kilbagie House,,A977,,,,at,,N,N0076697,Kilbagie,Clackmannan,,,,,,0,UKOS,293162,690153,-3.71875,56.092177,BCT,MKD,OTH,,,,116,2006-01-05T00:00:00.000,2008-07-16T00:00:00.000,2,revise,active
66806600000,26524283,,,Windsor Street,,,,Church,,Main Street West,,,,opp,,E,ES002587,Menstrie,,,,,,,0,UKOS,284515,696943,-3.860576,56.151128,BCT,MKD,OTH,,,,116,2007-07-11T00:00:00.000,2007-07-11T00:00:00.000,1,new,active
66806600001,26523248,,,Windsor Street,,,,Windsor Street,,MAIN STREET WEST,,,,at,,W,ES002587,Menstrie,,,,,,,0,UKOS,284577,696937,-3.859576,56.151089,BCT,MKD,OTH,,,,116,2006-01-05T00:00:00.000,2019-02-04T14:00:53.000,2,revise,active
66806600002,26523249,,,Menstrie House,,,,Petrol Station,,MAIN STREET WEST,,,,opp and before,,E,ES002587,Menstrie,,,,,,,0,UKOS,284682,696953,-3.857909,56.151258,BCT,MKD,OTH,,,,116,2006-01-05T00:00:00.000,2019-02-04T14:02:17.000,2,revise,active
66806600004,26523252,,,Menstrie House,,,,Menstrie House,,Main Street West,,,,at,,W,ES002587,Menstrie,,,,,,,0,UKOS,284797,696957,-3.856045,56.151322,BCT,MKD,TIP,,,,116,2003-05-12T00:00:00.000,2003-05-12T00:00:00.000,1,new,active
66806600005,26523253,,,Brook Street,,,,Brook Street,,Main Street East,,,,opp and after,,E,ES002587,Menstrie,,,,,,,0,UKOS,284935,696981,-3.853851,56.151571,BCT,MKD,TIP,,,,116,2002-11-26T00:00:00.000,2008-07-16T00:00:00.000,1,revise,active
66806610001,26524386,,,Broompark East,,,,,,Cambus Road,,,,at,,N,ES002587,Menstrie,,,,,,,0,UKOS,285423,696939,-3.845982,56.151311,BCT,CUS,TIP,,,,116,2009-06-09T00:00:00.000,2009-06-09T00:00:00.000,0,new,active
66806610002,26524385,,,Broompark East,,,,,,Cambus Road,,,,opp,,S,ES002587,Menstrie,,,,,,,0,UKOS,285445,696943,-3.84563,56.151352,BCT,CUS,TIP,,,,116,2009-06-09T00:00:00.000,2009-06-09T00:00:00.000,0,new,active
66806610003,26524535,,,Middleton,,,,,,Cambus Road,,,,after,,N,ES002587,Menstrie,,,,,,,0,UKOS,285565,696499,-3.843508,56.147394,BCT,MKD,TIP,,,,116,2010-07-21T00:00:00.000,2010-07-21T00:00:00.000,1,new,active
66806610004,26524536,,,Middleton,,,,,,Cambus Road,,,,opp and before,,S,ES002587,Menstrie,,,,,,,0,UKOS,285583,696498,-3.843218,56.14739,BCT,MKD,TIP,,,,116,2010-07-21T00:00:00.000,2010-07-21T00:00:00.000,1,new,active
66806620006,26523254,,,Dumyat Centre,,,,Dumyat Centre,,Main Street East,,,,at,,W,ES002587,Menstrie,,,,,,,0,UKOS,285100,696965,-3.851174,56.151467,BCT,MKD,OTH,,,,116,2003-05-12T00:00:00.000,2003-05-12T00:00:00.000,1,new,active
66806620007,26523256,,,Dumyat Centre,,,,Main Street East,,Main Street East,,,,opp and after,,E,ES002587,Menstrie,,,,,,,0,UKOS,285232,696989,-3.849061,56.151714,BCT,MKD,OTH,,,,116,2006-01-05T00:00:00.000,2008-07-16T00:00:00.000,1,revise,active
66806620008,26523257,,,Clifford Park,,,,Clifford Park,,Main Street East,,,,opp,,E,ES002587,Menstrie,,,,,,,0,UKOS,285380,696974,-3.846689,56.151615,BCT,MKD,OTH,,,,116,2006-01-05T00:00:00.000,2008-07-16T00:00:00.000,2,revise,active
66806620009,26523258,,,Clifford Park,,,,Clifford Park,,Main Street East,,,,at,,W,ES002587,Menstrie,,,,,,,0,UKOS,285399,696996,-3.846377,56.151818,BCT,MKD,OTH,,,,116,2006-01-05T00:00:00.000,2013-01-11T10:25:30.000,3,revise,inactive
66806630011,26523738,,,Glenochil Nursery,,,,Victoria Terrace,,Victoria Terrace,,,,before,,E,ES002587,Menstrie,,,,,,,0,UKOS,285942,697017,-3.837666,56.152136,BCT,MKD,OTH,,,,116,2006-01-05T00:00:00.000,2008-07-16T00:00:00.000,1,revise,active
66806630012,26523739,,,Glenochil Nursery,,,,Glenochil Nursery,,Victoria Terrace,,,,opp,,W,ES002587,Menstrie,,,,,,,0,UKOS,285991,697002,-3.836871,56.152013,BCT,MKD,OTH,,,,116,2003-05-21T00:00:00.000,2003-05-21T00:00:00.000,1,new,active
66806700001,26523435,,,Copland Place,,,,Queen Street,,West Stirling Street,,,,after,,E,ES000083,Alva,,,,,,,0,UKOS,288040,697064,-3.803916,56.153056,BCT,MKD,OTH,,,,116,2003-05-13T00:00:00.000,2003-05-13T00:00:00.000,1,new,active
66806700002,26523436,,,The Cross Keys,,,,The Cross Keys,,Stirling Street,,,,opp,,W,ES000083,Alva,,,,,,,0,UKOS,288152,697045,-3.802106,56.152912,BCT,MKD,OTH,,,,116,2003-05-13T00:00:00.000,2003-05-13T00:00:00.000,1,new,active
66806700003,26523437,,,The Cross Keys,,,,Lower Cobden Street,,Stirling Street,,,,after,,E,ES000083,Alva,,,,,,,0,UKOS,288223,697065,-3.800972,56.153108,BCT,MKD,OTH,,,,116,2003-05-13T00:00:00.000,2003-05-13T00:00:00.000,1,new,active
66806700004,26523438,,,Johnstone Arms Hotel,,,,Brook Street,,Stirling Street,,,,opp,,W,ES000083,Alva,,,,,,,0,UKOS,288356,697049,-3.798841,56.152995,BCT,MKD,TIP,,,,116,2003-05-13T00:00:00.000,2003-05-13T00:00:00.000,1,new,active
66806700005,26523439,,,Johnstone Arms Hotel,,,,Brook Street,,Stirling Street,,,,after,,E,ES000083,Alva,,,,,,,0,UKOS,288403,697070,-3.798094,56.153195,BCT,MKD,TIP,,,,116,2002-11-26T00:00:00.000,2008-05-29T00:00:00.000,1,revise,active
66806710006,26523262,,,North Street,,,,Norton Street,,East Stirling Street,,,,near,,E,ES000083,Alva,,,,,,,0,UKOS,288563,697049,-3.795511,56.153044,BCT,MKD,OTH,,,,116,2006-01-05T00:00:00.000,2008-07-16T00:00:00.000,2,revise,active
66806710007,26523263,,,North Street,,,,Norton Street,,East Stirling Street,,,,before,,W,ES000083,Alva,,,,,,,0,UKOS,288608,697025,-3.794777,56.152839,BCT,MKD,OTH,,,,116,2006-01-05T00:00:00.000,2008-07-16T00:00:00.000,1,revise,active
66806710008,26523264,,,Lovers Loan,,,,Lovers Loan,,East Stirling Street,,,,at,,E,ES000083,Alva,,,,,,,0,UKOS,288859,697012,-3.790733,56.15278,BCT,MKD,OTH,,,,116,2006-01-05T00:00:00.000,2008-05-29T00:00:00.000,1,revise,active
66806710009,26523265,,,Dickies Wells,,,,Dickies Wells,,East Stirling Street,,,,opp,,W,ES000083,Alva,,,,,,,0,UKOS,288970,696980,-3.788918,56.152519,BCT,MKD,OTH,,,,116,2003-05-12T00:00:00.000,2011-12-19T11:32:50.000,2,revise,active
66806720001,26523742,,,Myretoungate,,,,Grodwell Drive,,West Stirling Street,,,,opp,,E,ES000083,Alva,,,,,,,0,UKOS,287321,697054,-3.815495,56.152796,BCT,MKD,OTH,,,,116,2006-01-05T00:00:00.000,2008-07-16T00:00:00.000,1,revise,active
66806720002,26523743,,,Myretoungate,,,,Dumyat Road,,West Stirling Street,,,,at,,W,ES000083,Alva,,,,,,,0,UKOS,287253,697036,-3.816566,56.152619,BCT,MKD,OTH,,,,116,2006-01-05T00:00:00.000,2008-07-16T00:00:00.000,1,revise,active
66806720003,26523745,,,Cochrane Park,,,,Park Gate,,West Stirling Street,,,,at,,E,ES000083,Alva,,,,,,,0,UKOS,287628,697058,-3.810542,56.152905,BCT,MKD,TIP,,,,116,2003-05-21T00:00:00.000,2003-05-21T00:00:00.000,1,new,active
66806720004,26523746,,,Cochrane Park,,,,Glenwinnel Road,,West Stirling Street,,,,opp,,W,ES000083,Alva,,,,,,,0,UKOS,287505,697039,-3.812513,56.152705,BCT,MKD,OTH,,,,116,2006-01-05T00:00:00.000,2008-07-16T00:00:00.000,1,revise,active
66806720005,26523452,,,Cochrane Hall,,,,Cochrane Hall,,West Stirling Street,,,,opp,,W,ES000083,Alva,,,,,,,0,UKOS,287710,697042,-3.809216,56.152781,BCT,MKD,OTH,,,,116,2003-05-13T00:00:00.000,2003-05-13T00:00:00.000,1,new,active
66806720006,26523453,,,Cochrane Hall,,,,Tourist Information Centre,,West Stirling Street,,,,after,,E,ES000083,Alva,,,,,,,0,UKOS,287820,697063,-3.807455,56.152995,BCT,MKD,OTH,,,,116,2006-01-05T00:00:00.000,2008-05-29T00:00:00.000,1,revise,active
66806720007,26523454,,,Copland Place,,,,Southcroft,,West Stirling Street,,,,opp and after,,W,ES000083,Alva,,,,,,,0,UKOS,287948,697045,-3.805404,56.152863,BCT,MKD,OTH,,,,116,2006-01-05T00:00:00.000,2008-05-29T00:00:00.000,1,revise,active
66806725001,26524562,,,Balquharn Road End,,,,,,A91,,,,at,,E,ES000083,Alva,,,,,,,0,UKOS,286905,697048,-3.82217,56.152644,BCT,MKD,OTH,,,,116,2015-05-11T16:32:38.000,2015-05-11T16:32:38.000,0,new,active
66806725002,26524563,,,Balquharn Road End,,,,,,A91,,,,opp,,W,ES000083,Alva,,,,,,,0,UKOS,286906,697029,-3.822146,56.152474,BCT,MKD,OTH,,,,116,2015-05-11T16:40:34.000,2015-05-11T16:40:34.000,0,new,active
66806730008,26523456,,,Stirling Road Turning Circle,,,,Stirling Road,,Stirling Road,,,,at,,E,ES000083,Alva,,,,,,,0,UKOS,287510,697037,-3.812447,56.152688,BCT,MKD,TIP,,,,116,2003-05-13T00:00:00.000,2014-02-03T09:47:45.000,2,revise,inactive
66806800011,26523784,,,Murray Square,,,,Moss Road,,Murray Square,,,,at,,W,ES003650,Tillicoultry,,,,,,,0,UKOS,291996,696939,-3.74023,56.152846,BCT,MKD,TIP,,,,116,2002-11-26T00:00:00.000,2021-03-03T08:33:48.527,3,revise,active
66806800015,26523785,,,Murray Square,,,,Moss Road,,Murray Square,,,,Alloa Bus Stance,,W,ES003650,Tillicoultry,,,,,,,0,UKOS,292000,696938,-3.740166,56.152838,BCT,MKD,TIP,,,,116,2006-01-05T00:00:00.000,2021-03-03T08:36:46.955,3,revise,inactive
66806800019,26523786,,,Murray Square,,,,Moss Road,,Murray Square,,,,Stirling Bus Stance,,W,ES003650,Tillicoultry,,,,,,,0,UKOS,291998,696939,-3.740198,56.152847,BCT,MKD,TIP,,,,116,2002-11-26T00:00:00.000,2021-03-03T08:37:17.478,3,revise,inactive
66806810014,26523639,,,Frederick Street,,,,Frederick Street,,Upper Mill Street,,,,before,,N,ES003650,Tillicoultry,,,,,,,0,UKOS,291448,697263,-3.74918,56.155631,BCT,MKD,OTH,,,,116,2006-01-05T00:00:00.000,2009-12-24T00:00:00.000,2,revise,active
66806810015,26524245,,,Frederick Street,,,,Frederick Street,,Upper Mill Street,,,,after,,S,ES003650,Tillicoultry,,,,,,,0,UKOS,291465,697254,-3.748903,56.155554,BCT,MKD,OTH,,,,116,2006-12-14T00:00:00.000,2015-11-03T00:00:00.000,8,revise,active
66806810016,26523642,,,Ochilview Road,,,,Ochil Street,,Walker Terrace,,,,after,,E,ES003650,Tillicoultry,,,,,,,0,UKOS,291724,697253,-3.744735,56.155604,BCT,MKD,OTH,,,,116,2006-01-05T00:00:00.000,2009-12-24T00:00:00.000,3,revise,active
66806810017,26523869,,,Ochilview Road,,,,Ochil Street,,Walker Terrace,,,,before,,W,ES003650,Tillicoultry,,,,,,,0,UKOS,291719,697235,-3.744808,56.15545,BCT,MKD,OTH,,,,116,2006-01-05T00:00:00.000,2015-11-03T00:00:00.000,8,revise,active
66806810020,26523643,,,Church Grove,,,,Roundelwood,,Stalker Avenue,,,,opp,,E,ES003650,Tillicoultry,,,,,,,0,UKOS,291930,697233,-3.741412,56.15548,BCT,MKD,OTH,,,,116,2006-01-05T00:00:00.000,2009-12-24T00:00:00.000,2,revise,active
66806810021,26523645,,,Church Grove,,,,Church Grove,,Stalker Avenue,,,,at,,W,ES003650,Tillicoultry,,,,,,,0,UKOS,291969,697218,-3.740779,56.155354,BCT,MKD,OTH,,,,116,2006-01-05T00:00:00.000,2015-11-03T00:00:00.000,6,revise,active
66806810023,26523747,,,Ravenswood,,,,Fir Park,,Stalker Avenue,,,,after,,E,ES003650,Tillicoultry,,,,,,,0,UKOS,292196,697209,-3.737122,56.155316,BCT,MKD,OTH,,,,116,2006-01-05T00:00:00.000,2009-12-24T00:00:00.000,2,revise,active
66806810026,26523748,,,Heathwood Crescent,,,,Heathwood Crescent,,Harviestoun Grove,,,,before,,E,ES003650,Tillicoultry,,,,,,,0,UKOS,292419,697529,-3.733663,56.15824,BCT,MKD,OTH,,,,116,2006-01-05T00:00:00.000,2009-12-24T00:00:00.000,2,revise,active
66806810027,26523749,,,Heathwood Crescent,,,,Heathwood Crescent,,Harviestoun Grove,,,,after,,W,ES003650,Tillicoultry,,,,,,,0,UKOS,292389,697513,-3.73414,56.15809,BCT,MKD,OTH,,,,116,2006-01-05T00:00:00.000,2015-11-03T00:00:00.000,7,revise,active
66806810029,26523752,,,Simpson Avenue,,,,Sandy Knowe,,Harviestoun Grove,,,,after,,SE,ES003650,Tillicoultry,,,,,,,0,UKOS,292645,697273,-3.729923,56.155992,BCT,MKD,OTH,,,,116,2006-01-05T00:00:00.000,2011-01-11T13:39:06.000,4,revise,active
66806810900,26524284,,,Sterling Mills,,,,Sterling Mills,,Moss Road,,,,at,,E,ES003650,Tillicoultry,,,,,,,0,UKOS,291854,696491,-3.742333,56.148791,BCT,MKD,TIP,,,,116,2008-06-03T00:00:00.000,2024-12-11T08:12:46.416,2,revise,active
66806820012,26523646,,,Library,,,,Stirling Street,,High Street,,,,after,,W,ES003650,Tillicoultry,,,,,,,0,UKOS,291730,697010,-3.74454,56.153432,BCT,MKD,OTH,,,,116,2006-01-05T00:00:00.000,2009-12-24T00:00:00.000,1,revise,active
66806820013,26523647,,,Park Street,,,,Park Street,,High Street,,,,after,,W,ES003650,Tillicoultry,,,,,,,0,UKOS,291463,697056,-3.748854,56.153776,BCT,MKD,OTH,,,,116,2006-01-05T00:00:00.000,2009-12-24T00:00:00.000,1,revise,active
66806820018,26523787,,,Library,,,,Stirling Street,,High Street,,,,opp,,E,ES003650,Tillicoultry,,,,,,,0,UKOS,291769,697022,-3.743917,56.15354,BCT,MKD,OTH,,,,116,2006-01-05T00:00:00.000,2009-12-24T00:00:00.000,2,revise,active
66806820019,26524238,,,Park Street,,,,Park Street,,High Street,,,,opp and after,,E,ES003650,Tillicoultry,,,,,,,0,UKOS,291536,697065,-3.747683,56.153873,BCT,MKD,OTH,,,,116,2006-01-05T00:00:00.000,2009-12-24T00:00:00.000,2,revise,active
66806840010,26523267,,,Cemetery,,,,Cemetery,,Dollar Road,,,,after,,SW,ES003650,Tillicoultry,,,,,,,0,UKOS,292484,697015,-3.732409,56.153639,BCT,MKD,OTH,,,,116,2006-01-05T00:00:00.000,2009-12-04T00:00:00.000,3,revise,active
66806840011,26524235,,,Cemetery,,,,Cemetery,,Dollar Road,,,,opp,,NE,ES003650,Tillicoultry,,,,,,,0,UKOS,292511,697049,-3.731989,56.153959,BCT,MKD,OTH,,,,116,2006-01-05T00:00:00.000,2009-12-24T00:00:00.000,2,revise,active
66806850008,26523269,,,Devonvale Hall,,,,Devonvale Hall,,Moss Road,,,,opp,,N,ES003650,Tillicoultry,,,,,,,0,UKOS,292067,696713,-3.738996,56.150833,BCT,MKD,OTH,,,,116,2006-01-05T00:00:00.000,2009-12-24T00:00:00.000,1,revise,active
66806850009,26523272,,,Devonvale Hall,,,,Devonvale Hall,,Moss Road,,,,at,,S,ES003650,Tillicoultry,,,,,,,0,UKOS,292087,696691,-3.738666,56.15064,BCT,MKD,OTH,,,,116,2006-01-05T00:00:00.000,2009-12-24T00:00:00.000,1,revise,active
66806870006,26523273,,,Football Park,,,,Football Park,,Wardlaw Street,,,,at,,NE,ES000757,Coalsnaughton,Tillicoultry,,,,,,0,UKOS,291820,695661,-3.742543,56.141338,BCT,MKD,TIP,,,,116,2006-01-05T00:00:00.000,2010-10-11T00:00:00.000,1,revise,active
66806870007,26523274,,,Football Park,,,,Football Park,,Wardlaw Street,,,,opp,,SW,ES000757,Coalsnaughton,Tillicoultry,,,,,,0,UKOS,291816,695641,-3.742599,56.141149,BCT,MKD,TIP,,,,116,2006-01-05T00:00:00.000,2010-10-11T00:00:00.000,2,revise,active
66806870008,26523275,,,Burns Club,,,,Burns Club,,Main Street,,,,at,,SW,ES000757,Coalsnaughton,Tillicoultry,,,,,,0,UKOS,292024,695728,-3.739289,56.141986,BCT,MKD,OTH,,,,116,2003-05-12T00:00:00.000,2003-05-12T00:00:00.000,1,new,active
66806870009,26523276,,,Burns Club,,,,Burns Club,,Main Street,,,,opp,,NE,ES000757,Coalsnaughton,Tillicoultry,,,,,,0,UKOS,292019,695761,-3.739382,56.142273,BCT,MKD,OTH,,,,116,2006-01-05T00:00:00.000,2007-10-08T00:00:00.000,1,revise,active
66806870010,26523278,,,Library,,,,Blackfaulds Street,,Main Street,,,,opp,,S,ES000757,Coalsnaughton,Tillicoultry,,,,,,0,UKOS,292068,695838,-3.738625,56.142975,BCT,MKD,OTH,,,,116,2006-01-05T00:00:00.000,2008-07-16T00:00:00.000,1,revise,active
66806870011,26523279,,,Library,,,,Public Library,,Main Street,,,,at,,N,ES000757,Coalsnaughton,Tillicoultry,,,,,,0,UKOS,292050,695870,-3.738928,56.143267,BCT,MKD,OTH,,,,116,2003-05-12T00:00:00.000,2003-05-12T00:00:00.000,1,new,active
66806870012,26523282,,,The Glenhead Inn,,,,Main Street,,The Glen,,,,opp,,S,ES000757,Coalsnaughton,Tillicoultry,,,,,,0,UKOS,292136,695913,-3.737562,56.143664,BCT,MKD,OTH,,,,116,2003-05-12T00:00:00.000,2003-05-12T00:00:00.000,1,new,active
66806880002,26523457,,,The Craigs,,,,The Craigs,,Alexandra Street,,,,opp,,NE,N0067272,Devonside,Tillicoultry,,,,,,0,UKOS,291796,696276,-3.743179,56.146847,BCT,MKD,OTH,,,,116,2006-01-05T00:00:00.000,2010-10-11T00:00:00.000,1,revise,active
66806880003,26523458,,,The Craigs,,,,The Craigs,,Alexandra Street,,,,before,,SW,N0067272,Devonside,Tillicoultry,,,,,,0,UKOS,291855,696280,-3.742231,56.146896,BCT,MKD,OTH,,,,116,2006-01-05T00:00:00.000,2010-10-11T00:00:00.000,2,revise,active
66806880004,26523459,,,The Glen,,,,Devonpark Inn,,Alexandra Street,,,,opp and before,,NE,N0067272,Devonside,Tillicoultry,,,,,,0,UKOS,291928,696334,-3.741079,56.147398,BCT,MKD,OTH,,,,116,2006-01-05T00:00:00.000,2010-10-11T00:00:00.000,3,revise,active
66806880005,26523462,,,The Glen,,,,The Glen,,Alexandra Street,,,,after,,SW,N0067272,Devonside,Tillicoultry,,,,,,0,UKOS,292015,696355,-3.739688,56.147606,BCT,MKD,OTH,,,,116,2006-01-05T00:00:00.000,2010-10-11T00:00:00.000,2,revise,active
66806880006,26523283,,,Drummie Road,,,,Drummie Road,,The Glen,,,,at,,S,N0067272,Devonside,Tillicoultry,,,,,,0,UKOS,292064,696381,-3.73891,56.147859,BCT,MKD,OTH,,,,116,2006-01-05T00:00:00.000,2008-02-08T00:00:00.000,1,revise,active
66806880007,26523284,,,Langour,,,,Langour,,The Glen,,,,opp,,S,N0067272,Devonside,Tillicoultry,,,,,,0,UKOS,292129,696211,-3.737795,56.146339,BCT,MKD,OTH,,,,116,2006-01-05T00:00:00.000,2008-02-08T00:00:00.000,1,revise,active
66806880008,26524257,,,Drummie Road,,,,Drummie Road,,The Glen,,,,opp,,N,N0067272,Devonside,Tillicoultry,,,,,,0,UKOS,292053,696372,-3.739083,56.147767,BCT,MKD,OTH,,,,116,2006-12-14T00:00:00.000,2008-02-08T00:00:00.000,1,revise,active
66806890003,26523463,,,No 7,,,,Devon Village,,A908,,,,opp,,NE,N0067271,Devon Village,Tillicoultry,,,,,,0,UKOS,290141,695690,-3.769561,56.141206,BCT,MKD,OTH,,,,116,2006-01-05T00:00:00.000,2008-07-16T00:00:00.000,2,revise,active
66806890004,26523872,,,Benview Terrace,,,,Benview Terrace,,A908,,,,after,,SW,N0072094,Benview,Tillicoultry,,,,,,0,UKOS,290272,695871,-3.767529,56.14287,BCT,MKD,OTH,,,,116,2006-01-05T00:00:00.000,2008-07-16T00:00:00.000,2,revise,active
66806890005,26523464,,,Benview Terrace,,,,Benview Terrace,,A908,,,,opp,,NE,N0072094,Benview,Tillicoultry,,,,,,0,UKOS,290284,695911,-3.767352,56.143232,BCT,MKD,OTH,,,,116,2006-01-05T00:00:00.000,2008-07-16T00:00:00.000,2,revise,active
66806890006,26523465,,,Marchglen Junction,,,,Benview Terrace,,A908,,,,near,,E,N0072094,Benview,Tillicoultry,,,,,,0,UKOS,290460,696029,-3.764569,56.144324,BCT,MKD,OTH,,,,116,2003-05-13T00:00:00.000,2003-05-13T00:00:00.000,1,new,active
66806890016,26523467,,,No 5,,,,Devon Village,,A908,,,,at,,SW,N0067271,Devon Village,Tillicoultry,,,,,,0,UKOS,290149,695665,-3.769422,56.140983,BCT,MKD,OTH,,,,116,2006-01-05T00:00:00.000,2008-07-16T00:00:00.000,2,revise,active
66806900004,26523285,,,Mitchell Court,,,,Devon Road,,Bridge Street,,,,opp,,W,ES001033,Dollar,,,,,,,0,UKOS,296000,697916,-3.676188,56.162511,BCT,MKD,OTH,,,,116,2003-05-12T00:00:00.000,2011-01-11T13:29:16.000,2,revise,active
66806900005,26523286,,,Mitchell Court,,,,McNab Street,,Bridge Street,,,,after,,E,ES001033,Dollar,,,,,,,0,UKOS,296064,697941,-3.675168,56.162758,BCT,MKD,OTH,,,,116,2003-05-12T00:00:00.000,2003-05-12T00:00:00.000,1,new,active
66806900006,26523287,,,Cafe at No.44,,,,Cairnpark Street,,Bridge Street,,,,at,,E,ES001033,Dollar,,,,,,,0,UKOS,296199,697954,-3.673001,56.162904,BCT,MKD,TIP,,,,116,2002-11-26T00:00:00.000,2024-07-30T13:33:50.775,3,revise,active
66806900007,26523289,,,The Forager,,,,Kings Seat Public House,,Bridge Street,,,,at,,W,ES001033,Dollar,,,,,,,0,UKOS,296207,697939,-3.672866,56.162771,BCT,MKD,TIP,,,,116,2003-05-12T00:00:00.000,2024-07-30T13:36:43.966,3,revise,active
66806900008,26523292,,,Manse Road,,,,Lovers Loan,,Muckhart Road,,,,before,,E,ES001033,Dollar,,,,,,,0,UKOS,296393,697978,-3.669888,56.163162,BCT,MKD,OTH,,,,116,2003-05-12T00:00:00.000,2011-01-11T13:06:24.000,2,revise,active
66806900009,26524246,,,Manse Road,,,,Manse Road,,Muckhart Road,,,,opp and before,,SW,ES001033,Dollar,,,,,,,0,UKOS,296518,697987,-3.667879,56.16327,BCT,MKD,OTH,,,,116,2006-12-14T00:00:00.000,2011-01-11T13:04:48.000,3,revise,active
66806900010,26524546,,,Cowden Farm Road End,,,,,,A91,,,,Opp,,NE,ES001033,Dollar,,,,,,,0,UKOS,298462,698987,-3.636973,56.172669,BCT,MKD,OTH,,,,116,2015-05-11T15:51:29.000,2015-07-06T10:33:00.000,1,revise,active
66806900011,26524547,,,Cowden Farm Road End,,,,,,A91,,,,at,,SW,ES001033,Dollar,,,,,,,0,UKOS,298475,698974,-3.636759,56.172555,BCT,MKD,OTH,,,,116,2015-05-11T16:12:25.000,2015-05-11T16:12:25.000,0,new,active
66806920010,26523649,,,Kirkstyle,,,,Kirkstyle,,Manse Road,,,,at,,S,ES001033,Dollar,,,,,,,0,UKOS,296471,698117,-3.668686,56.164427,BCT,MKD,OTH,,,,116,2006-01-05T00:00:00.000,2011-01-11T13:03:17.000,2,revise,active
66806920013,26523789,,,The Ness Turning Circle,,,,Moirs Well,,The Ness,,,,at,,S,ES001033,Dollar,,,,,,,0,UKOS,296629,698530,-3.666304,56.168162,BCT,MKD,TIP,,,,116,2003-05-24T00:00:00.000,2011-01-11T13:02:06.000,2,revise,active
66806930001,26523293,,,Dean Place,,,,Dean Place,,Harviestoun Road,,,,after,,W,ES001033,Dollar,,,,,,,0,UKOS,295516,697995,-3.684009,56.163123,BCT,MKD,OTH,,,,116,2003-05-12T00:00:00.000,2003-05-12T00:00:00.000,1,new,active
66806930002,26523294,,,Dean Place,,,,Harviestoun Lane,,Harviestoun Road,,,,opp and after,,E,ES001033,Dollar,,,,,,,0,UKOS,295646,698016,-3.681925,56.16334,BCT,MKD,OTH,,,,116,2006-01-05T00:00:00.000,2011-01-11T13:36:05.000,2,revise,active
66806930003,26523652,,,Murray Place,,,,Mylne Avenue,,Harviestoun Road,,,,opp,,E,ES001033,Dollar,,,,,,,0,UKOS,295792,698013,-3.679574,56.163345,BCT,MKD,OTH,,,,116,2003-05-17T00:00:00.000,2003-05-17T00:00:00.000,1,new,active
66806930004,26524292,,,Murray Place,,,,Murray Place,,Harviestoun Road,,,,before,,NW,ES001033,Dollar,,,,,,,0,UKOS,295823,697965,-3.679056,56.162921,BCT,MKD,OTH,,,,116,2008-09-25T00:00:00.000,2011-01-11T13:30:44.000,1,revise,active
66806969001,26523874,,,Parklands Place,,,,Parklands Place,,Parklands Place,,,,at No.2,,SE,N0067292,Forest Mill,Clackmannan,,,,,,0,UKOS,295259,693779,-3.686486,56.125205,BCT,MKD,TIP,,,,116,2006-10-05T00:00:00.000,2007-10-04T00:00:00.000,1,revise,inactive
66806980000,26524395,,,Anchorage,,,,,,A91,,,,opp,,NE,N0067213,Pool of Muckhart,,,,,,,0,UKOS,299310,700163,-3.623767,56.183402,BCT,MKD,TIP,,,,116,2009-11-27T00:00:00.000,2009-11-27T00:00:00.000,0,new,active
66806980001,26523295,,,Coronation Hall,,,,War Memorial,,A91,,,,at,,SW,N0067213,Pool of Muckhart,,,,,,,0,UKOS,299912,700610,-3.614242,56.187552,BCT,MKD,TIP,,,,116,2006-01-05T00:00:00.000,2011-01-11T12:59:54.000,2,revise,active
66806980002,26523296,,,Coronation Hall,,,,Coronation Hall,,A91,,,,opp,,NE,N0067213,Pool of Muckhart,,,,,,,0,UKOS,299935,700642,-3.613883,56.187844,BCT,MKD,OTH,,,,116,2006-01-05T00:00:00.000,2008-02-08T00:00:00.000,1,revise,active
66806980003,26523297,,,Post Office,,,,The Muckhart Inn,,A91,,,,before,,NE,N0067213,Pool of Muckhart,,,,,,,0,UKOS,300071,700747,-3.611733,56.188816,BCT,MKD,TIP,,,,116,2006-01-05T00:00:00.000,2008-02-08T00:00:00.000,1,revise,active
66806980004,26523298,,,Post Office,,,,Post Office,,A91,,,,opp,,SW,N0067213,Pool of Muckhart,,,,,,,0,UKOS,300106,700758,-3.611173,56.188922,BCT,MKD,TIP,,,,116,2006-01-05T00:00:00.000,2008-02-08T00:00:00.000,1,revise,active
66806990005,26524387,,,Old Toll House,,,,Old Toll House,,A91,,,,opp,,NE,N0067364,Yetts o Muckhart,,,,,,,0,UKOS,300476,701427,-3.605464,56.194999,BCT,CUS,TIP,,,,116,2009-06-10T00:00:00.000,2009-06-10T00:00:00.000,0,new,active
66806990006,26523423,,,Old Toll House,,,,Old Toll House,,A91,,,,near,,SW,N0067364,Yetts o Muckhart,,,,,,,0,UKOS,300494,701423,-3.605173,56.194967,BCT,MKD,OTH,,,,116,2002-11-26T00:00:00.000,2008-02-08T00:00:00.000,1,revise,active
66806990007,26524262,,,Hillhead,,,,A823,,A823,,,,opp,,NW,N0067364,Yetts o Muckhart,,,,,,,0,UKOS,300531,701424,-3.604578,56.194992,BCT,MKD,OTH,,,,116,2008-06-03T00:00:00.000,2009-12-01T00:00:00.000,2,revise,active
66806990008,26523424,,,Hillhead,,,,A823,,A823,,,,at,,SE,N0067364,Yetts o Muckhart,,,,,,,0,UKOS,300549,701427,-3.604289,56.195023,BCT,MKD,OTH,,,,116,2004-04-30T00:00:00.000,2011-01-11T12:57:33.000,4,revise,active
66807002901,26523875,,,Alva Academy,,,,Alva Academy,,Academy Avenue,,,,at,,S,ES000083,Alva,,,,,,,0,UKOS,288918,696931,-3.78975,56.152067,BCT,MKD,TIP,,,,116,2005-03-19T00:00:00.000,2013-11-14T10:51:56.000,4,revise,active
66807013900,26523876,,,Lornshill Academy,,,,Lornshill Academy,,Tullibody Road,,,,at,,S,ES000069,Alloa,,,,,,,0,UKOS,287198,694735,-3.816476,56.131943,BCT,MKD,OTH,,,,116,2008-06-03T00:00:00.000,2010-08-26T15:18:30.000,2,revise,inactive
66807143900,26523878,,,St Mungos Primary School,,,,St Mungo Primary School,,Forth Crescent,,,,at,,N,N0072168,Bowhouse,Alloa,,,,,,0,UKOS,289354,692267,-3.780798,56.110285,BCT,MKD,OTH,,,,116,2008-06-03T00:00:00.000,2010-08-26T15:19:34.000,2,revise,inactive
66807991900,26523879,,,Dollar Academy,,,,Dollar Academy,,Mylne Avenue,,,,at,,N,ES001033,Dollar,,,,,,,0,UKOS,295883,698098,-3.678142,56.16412,BCT,MKD,OTH,,,,116,2002-11-26T00:00:00.000,2009-09-15T00:00:00.000,1,revise,active
6680910ALL0,26524532,,,Alloa Station,,,,Railway Station,,King Street,,,,Main Entrance,,,ES000069,Alloa,,,,,,,0,UKOS,288897,693121,-3.788498,56.117848,RSE,,,,,,116,2010-04-29T00:00:00.000,2014-10-28T00:00:00.000,3,revise,inactive
66806400007,26524672,,,Holton Cottages,,,,Sauchie Nursery School,,Holton Cottages,,,,at 5,,S,N0067222,Sauchie,Alloa,,,,,,0,UKOS,289353,694065,-3.78156,56.126431,BCT,MKD,TIP,,,,116,2016-12-08T15:18:59.000,2019-03-28T19:50:48.000,4,revise,active
66806400008,26524659,,,Holton Cottages,,,,Sauchie Nursery School,,Holton Cottages,,,,opp 4,,N,N0067222,Sauchie,Alloa,,,,,,0,UKOS,289335,694059,-3.781847,56.126373,BCT,MKD,TIP,,,,116,2016-12-08T15:14:26.000,2019-03-28T19:51:23.000,3,revise,active
66806415018,26524657,,,Schaw Court,,,,Telephone Box,,Schaw Court,,,,at,,SE,N0067222,Sauchie,Alloa,,,,,,0,UKOS,289547,694215,-3.778503,56.127823,BCT,MKD,TIP,,,,116,2016-09-06T14:17:24.000,2024-10-31T11:10:08.457,2,revise,inactive
66806920011,26524658,,,Argyll Street,,,,,,Manse Road,,,,opp,,W,ES001033,Dollar,,,,,,,0,UKOS,296529,698248,-3.667803,56.165608,BCT,MKD,TIP,,,,116,2016-09-06T15:49:07.000,2016-09-06T15:49:07.000,0,new,active
66806500003,26524845,,,Mayfield Crescent,,,,,,KIRK WYND,,,,at,,SE,ES000723,Clackmannan,,,,,,,,UKOS,291031,692111,-3.7537779,56.1092762,BCT,MKD,PPT,,,,116,2021-07-30T09:47:31.421,2021-07-30T09:47:31.421,0,new,active
66806250900,26524865,,,Parklands Turning Circle,,,,,,Alloa Park Drive,,,,at,,NW,ES000069,Alloa,,,,,,,,UKOS,289562,692353,-3.7774813,56.1111060,BCT,HAR,OTH,,,,116,2024-10-09T10:15:02.803,2024-10-09T10:15:02.803,0,new,active
