ATCOCode,NaptanCode,PlateCode,CleardownCode,CommonName,CommonNameLang,ShortCommonName,ShortCommonNameLang,Landmark,LandmarkLang,Street,StreetLang,Crossing,CrossingLang,Indicator,IndicatorLang,Bearing,NptgLocalityCode,LocalityName,ParentLocalityName,GrandParentLocalityName,Town,TownLang,Suburb,SuburbLang,LocalityCentre,GridType,Easting,Northing,Longitude,Latitude,StopType,BusStopType,TimingStatus,DefaultWaitTime,Notes,NotesLang,AdministrativeAreaCode,CreationDateTime,ModificationDateTime,RevisionNumber,Modification,Status
9300ABA,,,,Aberdeen Ferry Terminal,,,,,,Off Market Street,,,,,,,ES000011,Aberdeen,,,,,,,0,UKOS,394550,805994,-2.09169788532,57.14480526681,FER,,,,,,146,2005-10-10T00:00:00,2007-09-26T14:00:00,2,revise,active
9300ABD,,,,Aberdaron Ferry Landing,,,,,,Off B4413,,,,,,,E0054261,Aberdaron,,,,,,,0,UKOS,217300,326300,-4.71170911526,52.80322945879,FER,,,,,,146,2005-10-10T00:00:00,2007-09-26T14:00:00,2,revise,active
9300ACH,,,,Arden - Cameron House Pier,,,,,,-,,,,,,,N0068327,Arden,,,,,,,0,UKOS,237623,683193,-4.6063240839,56.01407446243,FER,,,,,,146,2010-08-12T16:05:00,2010-08-12T16:10:00,1,revise,active
9300ADG,,,,Ardrishaig Pier,,,,,,-,,,,,,,ES000136,Ardrishaig,,,,,,,0,UKOS,185401,685393,-5.44429669002,56.01327855269,FER,,,,,,146,2009-05-05T14:05:00,2009-05-05T14:12:00,1,revise,active
9300ADL,,,,Ardleish Pier,,,,,,-,,,,,,,N0068330,Ardlui,,,,,,,0,UKOS,232951,715169,-4.70125443242,56.29943847902,FER,,,,,,146,2010-08-12T16:16:00,2010-08-12T16:26:00,1,revise,active
9300ADT,,,,Ardintigh Ferry Landing,,,,,,-,,,,,,,N0067718,Tarbet,,,,,,,0,UKOS,177761,793186,-5.65858497741,56.97628056133,FER,,,,,,146,2013-12-20T11:22:00,2013-12-20T11:24:00,1,revise,active
9300ADT1,,,,Ardintigh Ferry Landing,,,,,,-,,,,Quay,,,N0067718,Tarbet,,,,,,,0,UKOS,177747,793229,-5.65885266647,56.97665932398,FBT,,,,,,146,2013-12-20T11:23:00,2013-12-20T11:24:00,1,revise,active
9300AGN,,,,St Agnes Isles Of Scilly Ferry Landing,,,,,,Trevaunance Cove,,,,,,,N0077290,St Agnes,Isles of Scilly,,,,,,0,UKOS,88390,8570,-6.34058621266,49.89601188695,FER,,,,,,146,2005-10-10T00:00:00,2013-10-22T16:21:00,5,revise,active
9300AGN1,,,,St Agnes Isles Of Scilly Ferry Landing,,,,,,Trevaunance Cove,,,,Quay,,,N0077290,St Agnes,Isles of Scilly,,,,,,0,UKOS,88427,8570,-6.340072541,49.89603115094,FBT,,,,,,146,2013-10-22T12:17:00,2013-10-23T08:44:00,5,revise,active
9300AHB,,,,Aird Mhor Barra Ferry Terminal,,,,,,Aird Mhor,,,,,,,N0068333,Ardveenish,,,,,,,0,UKOS,72123,803817,-7.40332163327,57.00861178116,FER,,,,,,146,2006-01-10T00:00:00,2008-04-24T17:20:00,3,revise,active
9300ALT,,,,Altnaharrie Ferry Landing,,,,,,Altnaharrie area,,,,,,,ES003743,Ullapool,,,,,,,0,UKOS,211545,893076,-5.18055390721,57.88721167359,FER,,,,,,146,2005-10-10T00:00:00,2007-09-26T14:00:00,2,revise,active
9300ALU,,,,Ardlui Pier,,,,,,-,,,,,,,N0068330,Ardlui,,,,,,,0,UKOS,231789,715566,-4.72026290489,56.30259041798,FER,,,,,,146,2010-08-12T16:17:00,2010-08-12T16:26:00,1,revise,active
9300AMB,,,,Ambleside Waterhead Ferry Landing,,,,,,A5095,,,,,,,E0006476,Waterhead,,,,,,,0,UKOS,337650,503115,-2.96237223049,54.41963560566,FER,,,,,,146,2005-10-10T00:00:00,2011-03-07T14:22:00,3,revise,active
9300AMB1,,,,Ambleside Waterhead Ferry Landing,,,,,,A5095,,,,Pier,,,E0006476,Waterhead,,,,,,,0,UKOS,337601,503097,-2.96312344936,54.41946784283,FBT,,,,,,146,2011-10-10T14:41:00,2011-10-10T15:23:00,1,revise,active
9300AMH,,,,Gigha Ferry Terminal,,,,,,Ghiga Island,,,,,,,N0072607,Ardminish,,,,,,,0,UKOS,165344,649003,-5.73386755449,55.67762327832,FER,,,,,,146,2005-10-10T00:00:00,2007-09-26T14:00:00,2,revise,active
9300ANS,,,,Anstruther Harbour,,,,,,-,,,,,,,ES000103,Anstruther,,,,,,,0,UKOS,356821,703395,-2.69788513527,56.22115270018,FER,,,,,,146,2015-07-30T13:40:00,2015-07-30T13:43:00,1,revise,active
9300ANS1,,,,Anstruther Harbour,,,,,,East Shore,,,,Pier,,,ES000103,Anstruther,,,,,,,0,UKOS,356816,703384,-2.6979639608,56.22105342466,FBT,,,,,,146,2015-07-30T13:41:00,2015-07-30T13:43:00,1,revise,active
9300ANT,,,,Place Ferry Landing,,,,,,Off Military Road,,,,,,,E0002765,Bohortha,,,,,,,0,UKOS,185565,32465,-5.00316214791,50.15337448703,FER,,,,,,146,2005-10-10T00:00:00,2007-09-26T14:00:00,2,revise,active
9300ANT1,,,,Place Ferry Landing,,,,,,Off Military Road,,,,Quay,,,E0002765,Bohortha,,,,,,,0,UKOS,185543,32484,-5.00348037093,50.15353716985,FBT,,,,,,146,2013-10-22T11:45:00,2013-10-22T15:25:00,1,revise,active
9300APP,,,,Appledore Ferry Landing,,,,,,The Quay,,,,,,,E0008613,Appledore,,,,,,,0,UKOS,246573,130555,-4.1904722968,51.05379014427,FER,,,,,,146,2005-10-10T00:00:00,2007-09-26T14:00:00,2,revise,active
9300APP1,,,,Appledore Ferry Landing,,,,,,The Quay,,,,Quay,,,E0008613,Appledore,,,,,,,0,UKOS,246575,130555,-4.19044378313,51.05379067893,FBT,,,,,,146,2013-10-22T08:42:00,2013-10-22T12:54:00,1,revise,active
9300ARD,,,,Ardrossan Ferry Terminal,,,,,,Harbour Road,,,,,,,ES000137,Ardrossan,,,,,,,0,UKOS,222350,642135,-4.82415413369,55.64020666756,FER,,,,,,146,2005-10-10T00:00:00,2007-09-26T14:00:00,2,revise,active
9300ARD0,,,,Ardrossan Ferry Terminal,,,,,,Harbour Road,,,,Quay,,,ES000137,Ardrossan,,,,,,,0,UKOS,222347,642136,-4.82420238047,55.64021454535,FBT,,,,,,146,2013-03-15T10:12:00,2014-08-26T15:44:00,1,revise,active
9300ARG,,,,Ardgour Ferry Terminal,,,,,,A861,,,,,,,N0067792,Corran Ferry,,,,,,,0,UKOS,201683,763625,-5.24267658381,56.72203228653,FER,,,,,,146,2005-10-10T00:00:00,2007-09-26T14:00:00,2,revise,active
9300ARI,,,,Arisaig Ferry Landing,,,,,,Off A830,,,,,,,N0067742,Arisaig,,,,,,,0,UKOS,165865,786405,-5.84757152133,56.9096323517,FER,,,,,,146,2005-10-10T00:00:00,2007-09-26T14:00:00,2,revise,active
9300ARM,,,,Armadale Ferry Terminal,,,,,,Newton Bank,,,,,,,N0076361,Armadale,,,,,,,0,UKOS,163979,803802,-5.8947432823,57.06459772168,FER,,,,,,146,2005-10-10T00:00:00,2007-09-26T14:00:00,2,revise,active
9300ARM0,,,,Armadale Ferry Terminal,,,,,,Newton Bank,,,,Pier,,,N0076361,Armadale,,,,,,,0,UKOS,164063,803828,-5.89338579143,57.06487375532,FBT,,,,,,146,2013-03-15T10:59:00,2014-08-26T15:45:00,1,revise,active
9300ARN,,,,Arnolfini Ferry Landing,,,,,,-,,,,,,,N0077031,Harbour,Bristol,,,,,,0,UKOS,358642,172395,-2.59653861794,51.44902244203,FER,,,,,,146,2015-04-23T14:29:00,2015-04-23T14:33:00,1,revise,active
9300ARN1,,,,Arnolfini Ferry Landing,,,,,,-,,,,Quay,,,N0077031,Harbour,Bristol,,,,,,0,UKOS,358654,172385,-2.59636477419,51.44893341028,FBT,,,,,,146,2015-04-23T14:31:00,2015-04-23T14:33:00,1,revise,active
9300ASH,,,,Ashness Gate Derwentwater Ferry Landing,,,,,,B5289,,,,,,,E0004796,Ashness,Borrowdale,,,,,,0,UKOS,326888,520395,-3.13247583758,54.57346375836,FER,,,,,,146,2005-10-10T00:00:00,2014-03-03T16:01:00,3,revise,active
9300ASH1,,,,Ashness Gate Derwentwater Ferry Landing,,,,,,B5289,,,,Pier,,,E0004796,Ashness,Borrowdale,,,,,,0,UKOS,326881,520396,-3.13258434554,54.57347172999,FBT,,,,,,146,2011-10-10T14:43:00,2011-10-10T15:23:00,1,revise,active
9300AYR,,,,Ayr Compass Pier,,,,,,South Harbour Street B748,,,,,,,ES000201,Ayr,,,,,,,0,UKOS,233222,622544,-4.63980518222,55.46821534367,FER,,,,,,146,2006-08-08T00:00:00,2007-09-26T14:00:00,2,revise,active
9300BAD,,,,Badluarach Ferry Landing,,,,,,Jetty,,,,,,,N0079984,Badluarach,,,,,,,0,UKOS,199632,894808,-5.38257458233,57.89755420764,FER,,,,,,146,2005-10-10T00:00:00,2011-03-30T15:04:00,3,revise,active
9300BAL,,,,Balloch Pier,,,,,,-,,,,,,,N0067998,Balloch,,,,,,,0,UKOS,238568,682500,-4.59076588516,56.00817370329,FER,,,,,,146,2010-08-12T16:07:00,2010-08-12T16:12:00,1,revise,active
9300BAN,,,,Bantham Ferry Landing,,,,,,Bantham area,,,,,,,E0008162,Bantham,,,,,,,0,UKOS,266795,43763,-3.87085139748,50.27876549498,FER,,,,,,146,2005-10-10T00:00:00,2007-09-26T14:00:00,2,revise,active
9300BAN1,,,,Bantham Ferry Landing,,,,,,Bantham area,,,,Quay,,,E0008162,Bantham,,,,,,,0,UKOS,266795,43765,-3.8708521024,50.27878347209,FBT,,,,,,146,2013-10-22T08:45:00,2013-10-22T12:55:00,1,revise,active
9300BAR,,,,Barmouth Ferry Landing,,,,,,Penrhyn Drive North,,,,,,,E0054266,Barmouth,,,,,,,0,UKOS,261513,315465,-4.05178102221,52.71906287387,FER,,,,,,146,2005-10-10T00:00:00,2007-09-26T14:00:00,2,revise,active
9300BAS,,,,Barrage South Waterbus Stop,,,,,,Paget Road,,,,,,,E0054764,Penarth,,,,,,,0,UKOS,318957,172500,-3.16754001744,51.44566943138,FER,,,,,,146,2011-01-31T15:27:00,2011-01-31T16:42:00,1,revise,active
9300BAS1,,,,Barrage South Waterbus Stop,,,,,,Paget Road,,,,Landing stage,,,E0054764,Penarth,,,,,,,0,UKOS,318950,172500,-3.16764071986,51.44566842819,FBT,,,,,,146,2011-01-31T15:28:00,2011-01-31T16:42:00,1,revise,active
9300BAY,,,,Barry Waterfront Ferry Terminal,,,,,,Ffordd y Mileniwm,,,,,,,E0054751,Barry,,,,,,,0,UKOS,311470,167495,-3.27399305009,51.39955530964,FER,,,,,,146,2008-04-03T15:19:00,2008-04-03T16:18:00,1,revise,active
9300BAY1,,,,Barry Waterfront Ferry Terminal,,,,,,Ffordd y Mileniwm,,,,Quay,,,E0054751,Barry,,,,,,,0,UKOS,311469,167495,-3.27400742111,51.39955515337,FBT,,,,,,146,2013-10-22T08:47:00,2013-10-22T12:56:00,1,revise,active
9300BCC,,,,Bristol City Centre Ferry Landing,,,,,,Broad Quay,,,,,,,N0076879,Bristol City Centre,Bristol,,,,,,0,UKOS,358565,172745,-2.59768770236,51.45216366441,FER,,,,,,146,2006-10-20T00:00:00,2011-01-24T14:38:00,4,revise,active
9300BCC1,,,,Bristol City Centre Ferry Landing,,,,,,Broad Quay,,,,Quay,,,N0076879,Bristol City Centre,Bristol,,,,,,0,UKOS,358561,172736,-2.59774420637,51.45208245142,FBT,,,,,,146,2013-10-22T09:53:00,2013-10-22T14:22:00,1,revise,active
9300BCP,,,,Balloch Castle Pier,,,,,,-,,,,,,,N0073037,Balloch Castle,,,,,,,0,UKOS,238697,682985,-4.58899058334,56.01257023734,FER,,,,,,146,2010-08-12T16:06:00,2010-08-12T16:11:00,1,revise,active
9300BDG,,,,Bridgwater Ferry Terminal,,,,,,Bristol Road,,,,,,,E0022503,Bridgwater,,,,,,,0,UKOS,330695,138665,-2.99208849681,51.1430390778,FER,,,,,,146,2008-04-03T15:22:00,2008-04-03T16:23:00,1,revise,active
9300BDG1,,,,Bridgwater Ferry Terminal,,,,,,Bristol Road,,,,Quay,,,E0022503,Bridgwater,,,,,,,0,UKOS,330694,138665,-2.99210278943,51.14303895653,FBT,,,,,,146,2013-10-22T09:51:00,2013-10-22T14:15:00,1,revise,active
9300BDY,,,,Bawdsey Ferry Landing,,,,,,Start of Ferry Road East,,,,,,,E0025105,Bawdsey Ferry,,,,,,,0,UKOS,633155,237885,1.39450432082,51.99044502755,FER,,,,,,146,2005-10-10T00:00:00,2011-08-22T14:11:00,3,revise,active
9300BDY1,,,,Bawdsey Ferry Landing,,,,,,Ferry Road East,,,,jetty,,,E0025105,Bawdsey Ferry,,,,,,,0,UKOS,633147,237842,1.39435881093,51.99006246107,FBT,,,,,,146,2011-07-13T09:56:00,2011-07-13T11:42:00,1,revise,active
9300BEL,,,,Belvedere Ferry Landing,,,,,,Benny Shank,,,,,,,N0080307,Belvedere,Kielder Water,,,,,,0,UKOS,368432,588445,-2.49735824122,55.1892691458,FER,,,,,,146,2011-06-27T15:12:00,2011-08-08T15:01:00,2,revise,active
9300BEL1,,,,Belvedere Ferry Landing,,,,,,Benny Shank,,,,Jetty,,,N0080307,Belvedere,Kielder Water,,,,,,0,UKOS,368434,588444,-2.49732671793,55.18926028842,FBT,,,,,,146,2011-06-27T15:14:00,2011-08-08T15:01:00,2,revise,active
9300BFD,,,,Broadford Ferry Terminal,,,,,,Off Hospital Road,,,,,,,ES000467,Broadford,,,,,,,0,UKOS,164455,824190,-5.9061549788,57.24756289738,FER,,,,,,146,2007-03-21T11:00:00,2007-09-26T14:00:00,1,revise,active
9300BFN,,,,Bowness Ferry Nab,,,,,,B5285,,,,,,,E0006149,Bowness on Windermere,,,,,,,0,UKOS,339583,495810,-2.93109993915,54.35422745514,FER,,,,,,146,2006-02-16T14:00:00,2014-01-30T11:56:00,2,revise,active
9300BFN1,,,,Bowness Ferry Nab,,,,,,B5285,,,,Pier,,,E0006149,Bowness on Windermere,,,,,,,0,UKOS,339558,495767,-2.93147579817,54.35383809179,FBT,,,,,,146,2011-10-10T14:44:00,2014-01-30T11:56:00,4,revise,active
9300BFR,,,,Blackfriars Pier,,,,,,Victoria Embankment,,,,,,,N0077631,Blackfriars,London,,,,,,0,UKOS,531809,180812,-0.10200190292,51.51087097197,FER,,,,,,146,2005-10-10T00:00:00,2019-05-07T16:06:10,6,revise,active
9300BFR1,,,,Blackfriars Pier,,,,,,Victoria Embankment,,,,Quay,,,N0077631,Blackfriars,London,,,,,,0,UKOS,531809,180800,-0.10200638491,51.51076313385,FBT,,,,,,146,2010-12-03T18:13:00,2019-05-07T16:06:10,5,revise,active
9300BFR2,,,,Blackfriars Pier,,,,,,Victoria Embankment,,,,,,,N0077631,Blackfriars,London,,,,,,0,UKOS,531812,180800,-0.10196318,51.51076243466,FBT,,,,,,146,2016-03-11T14:01:00,2019-05-07T16:06:10,2,revise,active
9300BGN,,,,Barrage North Waterbus Stop,,,,,,Barrage North,,,,,,,N0078138,Cardiff Bay,Cardiff,,,,,,0,UKOS,319313,173517,-3.16265084101,51.45486284792,FER,,,,,,146,2011-01-31T17:17:00,2011-01-31T18:14:00,1,revise,active
9300BGN1,,,,Barrage North Waterbus Stop,,,,,,Barrage North,,,,Landing stage,,,N0078138,Cardiff Bay,Cardiff,,,,,,0,UKOS,319256,173517,-3.1634710124,51.45485470976,FBT,,,,,,146,2011-01-31T17:19:00,2011-01-31T18:14:00,1,revise,active
9300BGP,,,,Barrier Gardens Pier,,,,,,Off Unity Way,,,,,,,E0034338,Woolwich,London,,,,,,0,UKOS,541828,179359,0.04169480854,51.49539095624,FER,,,,,,146,2005-10-10T00:00:00,2011-11-07T15:20:00,3,revise,active
9300BGP1,,,,Barrier Gardens Pier,,,,,,Off Unity Way,,,,Quay,,,E0034338,Woolwich,London,,,,,,0,UKOS,541838,179399,0.04185482725,51.49574787994,FBT,,,,,,146,2010-12-03T18:14:00,2011-11-10T15:45:00,3,revise,active
9300BHB,,,,Bathurst Basin Ferry Landing,,,,,,-,,,,,,,N0077026,Redcliffe,Bristol,,,,,,0,UKOS,358911,172333,-2.59266066702,51.44848463487,FER,,,,,,146,2015-04-23T14:25:00,2015-04-23T14:28:00,1,revise,active
9300BHB1,,,,Bathurst Basin Ferry Landing,,,,,,-,,,,Quay,,,N0077026,Redcliffe,Bristol,,,,,,0,UKOS,358897,172344,-2.59286339678,51.44858251763,FBT,,,,,,146,2015-04-23T14:26:00,2015-04-23T14:28:00,1,revise,active
9300BHH,,,,Bosham Hoe Ferry Landing,,,,,,Corner of Lower Horne Land and Smugglers Lane,,,,,,,E0026403,Bosham,,,,,,,0,UKOS,480023,102068,-0.86553158406,50.81264600569,FER,,,,,,146,2005-10-10T00:00:00,2008-05-09T14:58:00,3,revise,active
9300BHH1,,,,Bosham Hoe Ferry Landing,,,,,,Corner of Lower Horne Land and Smugglers Lane,,,,Quay,,,E0026403,Bosham,,,,,,,0,UKOS,480018,102016,-0.86561386127,50.81217917577,FBT,,,,,,146,2013-10-22T09:46:00,2013-10-22T14:15:00,1,revise,active
9300BHS,,,,Braehead Shopping Centre Ferry Landing,,,,,,Off Kings Inch Drive,,,,,,,N0068021,Braehead Shopping Centre,,,,,,,0,UKOS,252319,667304,-4.36211454879,55.87619196512,FER,,,,,,146,2005-10-10T00:00:00,2007-09-26T14:00:00,2,revise,active
9300BID,,,,Bideford Ferry Landing,,,,,,The Quay,,,,,,,E0045527,Bideford,,,,,,,0,UKOS,245500,126690,-4.20412057857,51.01877328214,FER,,,,,,146,2005-10-10T00:00:00,2007-09-26T14:00:00,2,revise,active
9300BID1,,,,Bideford Ferry Landing,,,,,,The Quay,,,,Quay,,,E0045527,Bideford,,,,,,,0,UKOS,245506,126689,-4.20403467654,51.01876590977,FBT,,,,,,146,2013-10-22T09:02:00,2013-10-22T14:05:00,1,revise,active
9300BLM,,,,Blairmore Pier Ferry Terminal,,,,,,Shore Road A880,,,,,,,N0068354,Blairmore,,,,,,,0,UKOS,219536,681737,-4.89508969976,55.99454147204,FER,,,,,,146,2006-08-08T00:00:00,2007-09-26T14:00:00,2,revise,active
9300BLS,,,,Brightlingsea Ferry Landing,,,,,,Off Copperas Road,,,,,,,E0055825,Brightlingsea,,,,,,,0,UKOS,608575,216185,1.02394985823,51.80538420338,FER,,,,,,146,2005-10-10T00:00:00,2007-09-26T14:00:00,2,revise,active
9300BLS1,,,,Brightlingsea Ferry Landing,,,,,,Copperas Road,,,,Quay,,,E0055825,Brightlingsea,,,,,,,0,UKOS,608567,216145,1.02380994495,51.80502804659,FBT,,,,,,146,2013-06-07T09:08:00,2013-06-12T10:06:00,1,revise,active
9300BLV,,,,Balloch Village Ferry Landing,,,,,,Balloch Road,,,,,,,N0067998,Balloch,,,,,,,0,UKOS,239065,681958,-4.58247895832,56.003476076,FER,,,,,,146,2011-06-13T11:48:00,2011-06-13T11:51:00,1,revise,active
9300BLV1,,,,Balloch Village Ferry Landing,,,,,,Balloch Road,,,,Jetty,,,N0067998,Balloch,,,,,,,0,UKOS,239064,681957,-4.58249437784,56.0034667648,FBT,,,,,,146,2011-06-13T11:49:00,2011-06-13T11:51:00,1,revise,active
9300BLW,,,,Broomielaw Quay Ferry Terminal,,,,,,-,,,,,,,ES003921,Glasgow,,,,,,,0,UKOS,258446,664902,-4.2630131039,55.85646675862,FER,,,,,,146,2010-08-16T14:37:00,2010-08-16T14:38:00,1,revise,active
9300BMH,,,,Balmaha Pier,,,,,,-,,,,,,,N0067198,Balmaha,Drymen,,,,,,0,UKOS,241547,690793,-4.54794436021,56.08360345447,FER,,,,,,146,2010-08-12T16:08:00,2010-08-12T16:12:00,1,revise,active
9300BMT,,,,Belmont (Unst Shetland) Ferry Terminal,,,,,,A968 South Road,,,,,,,N0067401,Belmont,Unst,,,,,,0,UKOS,456539,1200433,-0.96677868767,60.68312048663,FER,,,,,,146,2006-02-15T00:00:00,2008-06-03T13:57:00,3,revise,active
9300BNP,,,,Barnes Pier,,,,,,,,,,,,,E0034751,Barnes,London,,,,,,,,522961,177970,-0.23042486858,51.48732237454,FER,,,,,,146,2021-05-13T14:05:09,2023-01-26T12:47:09,1,delete,inactive
9300BNP1,,,,Barnes Pier,,,,,,,,,,Pier,,,E0034751,Barnes,London,,,,,,,,522963,177972,-0.23039538212,51.48733991448,FBT,,,,,,146,2021-05-13T14:05:09,2023-01-26T12:47:09,1,delete,inactive
9300BNY,,,,Berneray Ferry Terminal,,,,,,Ferry Terminal,,,,,,,N0077311,Berneray,,,,,,,0,UKOS,91523,879860,-7.18042210895,57.70230440548,FER,,,,,,146,2005-10-10T00:00:00,2007-09-26T14:00:00,3,revise,active
9300BOC,,,,Burnham on Crouch Ferry Landing,,,,,,The Quay,,,,,,,E0055814,Burnham-on-Crouch,,,,,,,0,UKOS,595214,195489,0.81882698837,51.62435102506,FER,,,,,,146,2005-10-10T00:00:00,2024-04-05T14:00:00,3,revise,inactive
9300BOD,,,,Bodinnick Ferry Landing,,,,,,Bodinnick area,,,,,,,E0002392,Bodinnick,,,,,,,0,UKOS,212950,52177,-4.6300003949,50.33974319341,FER,,,,,,146,2005-10-10T00:00:00,2007-09-26T14:00:00,2,revise,active
9300BOD1,,,,Bodinnick Ferry Landing,,,,,,Bodinnick area,,,,Quay,,,E0002392,Bodinnick,,,,,,,0,UKOS,212938,52171,-4.63016586552,50.33968547804,FBT,,,,,,146,2013-10-22T09:17:00,2013-10-22T14:14:00,1,revise,active
9300BOE,,,,Bowness on Windermere Ferry Terminal,,,,,,B5285 Longtail Hill,,,,,,,E0006149,Bowness on Windermere,,,,,,,0,UKOS,340075,496780,-2.9237265534,54.36300198761,FER,,,,,,146,2005-10-10T00:00:00,2007-09-26T14:00:00,3,revise,active
9300BOE1,,,,Bowness on Windermere Ferry Terminal,,,,,,Promenade,,,,Pier,,,E0006149,Bowness on Windermere,,,,,,,0,UKOS,340076,496779,-2.92371096433,54.36299311946,FBT,,,,,,146,2011-10-10T14:45:00,2011-11-03T16:59:00,2,revise,active
9300BOW,,,,Far Sawrey Windermere Ferry Terminal,,,,,,B5285,,,,,,,E0006215,Far Sawrey,,,,,,,0,UKOS,339078,495693,-2.93884490311,54.35311590442,FER,,,,,,146,2005-10-10T00:00:00,2012-03-13T14:41:00,3,revise,active
9300BOW1,,,,Far Sawrey Windermere Ferry Terminal,,,,,,B5285,,,,Pier,,,E0006215,Far Sawrey,,,,,,,0,UKOS,339083,495704,-2.93877023893,54.3532153479,FBT,,,,,,146,2011-10-10T14:46:00,2012-03-13T14:43:00,2,revise,active
9300BRA,,,,Bristol Bridge Ferry Landing,,,,,,Baldwin Street,,,,,,,N0076879,Bristol City Centre,Bristol,,,,,,0,UKOS,358999,172932,-2.59146403872,51.45387667578,FER,,,,,,146,2006-07-26T00:00:00,2017-01-08T22:43:51,3,revise,inactive
9300BRA1,,,,Bristol Bridge Ferry Landing,,,,,,Baldwin Street,,,,Quay,,,N0076879,Bristol City Centre,Bristol,,,,,,0,UKOS,359000,172932,-2.59144964786,51.45387674841,FBT,,,,,,146,2013-10-22T09:52:00,2017-01-08T22:43:51,2,revise,inactive
9300BRB,,,,Brodick Isle of Arran Ferry Terminal,,,,,,Off A841,,,,,,,ES000468,Brodick,,,,,,,0,UKOS,202229,635971,-5.13891058433,55.57713589924,FER,,,,,,146,2005-10-10T00:00:00,2007-09-26T14:00:00,2,revise,active
9300BRB0,,,,Brodick Isle of Arran Ferry Terminal,,,,,,Off A841,,,,Pier,,,ES000468,Brodick,,,,,,,0,UKOS,202214,635989,-5.13916103476,55.57729130324,FBT,,,,,,146,2013-03-15T10:14:00,2014-08-26T15:46:00,1,revise,active
9300BRC,,,,Castle Park Ferry Landing,,,,,,Broadmead,,,,,,,N0077024,Broadmead,Bristol,,,,,,0,UKOS,359185,173055,-2.58880157058,51.45499605372,FER,,,,,,146,2006-07-26T00:00:00,2011-02-07T14:51:00,3,revise,active
9300BRC1,,,,Castle Park Ferry Landing,,,,,,Broadmead,,,,Quay,,,N0077024,Broadmead,Bristol,,,,,,0,UKOS,359185,173054,-2.58880145486,51.45498706266,FBT,,,,,,146,2013-10-22T10:08:00,2013-10-22T14:25:00,2,revise,active
9300BRD,,,,Bristol Marina Ferry Landing,,,,,,Cumberland Close,,,,,,,N0077031,Harbour,Bristol,,,,,,0,UKOS,357534,172357,-2.61247737905,51.44859854534,FER,,,,,,146,2006-07-26T00:00:00,2007-09-26T14:00:00,2,revise,active
9300BRD1,,,,Bristol Marina Ferry Landing,,,,,,Cumberland Close,,,,Quay,,,N0077031,Harbour,Bristol,,,,,,0,UKOS,357534,172358,-2.6124774994,51.44860753637,FBT,,,,,,146,2013-10-22T09:54:00,2013-10-22T14:22:00,1,revise,active
9300BRE,,,,The Cottage Ferry Landing,,,,,,Avon Crescent,,,,,,,N0077031,Harbour,Bristol,,,,,,0,UKOS,357263,172164,-2.61635346249,51.44684283414,FER,,,,,,146,2006-07-26T00:00:00,2007-09-26T14:00:00,2,revise,active
9300BRE1,,,,The Cottage Ferry Landing,,,,,,Avon Crescent,,,,Quay,,,N0077031,Harbour,Bristol,,,,,,0,UKOS,357262,172163,-2.61636772997,51.44683376744,FBT,,,,,,146,2013-10-22T12:26:00,2013-10-22T15:54:00,1,revise,active
9300BRF,,,,Millennium Square Ferry Landing,,,,,,Canon's Way,,,,,,,E0035583,Canons Marsh,Bristol,,,,,,0,UKOS,358471,172354,-2.59899436586,51.44864125853,FER,,,,,,146,2006-07-26T00:00:00,2007-09-26T14:00:00,2,revise,active
9300BRF1,,,,Millennium Square Ferry Landing,,,,,,Canon's Way,,,,Quay,,,E0035583,Canons Marsh,Bristol,,,,,,0,UKOS,358471,172353,-2.59899424816,51.44863226748,FBT,,,,,,146,2013-10-22T11:20:00,2013-10-22T14:54:00,1,revise,active
9300BRG,,,,ss Great Britain Ferry Landing,,,,,,Gasferry Road,,,,,,,N0077031,Harbour,Bristol,,,,,,0,UKOS,357896,172407,-2.60727446924,51.44907520351,FER,,,,,,146,2006-07-26T00:00:00,2007-09-26T14:00:00,2,revise,active
9300BRG1,,,,ss Great Britain Ferry Landing,,,,,,Gasferry Road,,,,Quay,,,N0077031,Harbour,Bristol,,,,,,0,UKOS,357897,172406,-2.6072599606,51.44906628703,FBT,,,,,,146,2013-10-22T12:16:00,2013-10-22T15:42:00,1,revise,active
9300BRH,,,,Mardyke Ferry Landing,,,,,,Hotwell Road,,,,,,,E0035614,Hotwells,Bristol,,,,,,0,UKOS,357488,172426,-2.61314759297,51.44921546514,FER,,,,,,146,2006-07-26T00:00:00,2007-09-26T14:00:00,2,revise,active
9300BRH1,,,,Mardyke Ferry Landing,,,,,,Hotwell Road,,,,Quay,,,E0035614,Hotwells,Bristol,,,,,,0,UKOS,357487,172425,-2.61316186182,51.44920639883,FBT,,,,,,146,2013-10-22T11:15:00,2013-10-22T14:52:00,1,revise,active
9300BRK,,,,Birkenhead Ferry Terminal,,,,,,Morpeth Wharf,,,,,,,E0029952,Woodside,Birkenhead,,,,,,0,UKOS,332416,390000,-3.01798603955,53.40247725489,FER,,,,,,146,2005-10-10T00:00:00,2008-11-18T08:03:00,4,revise,active
9300BRL,,,,Pumphouse Ferry Landing,,,,,,Merchants Road,,,,,,,E0035614,Hotwells,Bristol,,,,,,0,UKOS,357208,172303,-2.61716168998,51.44808842151,FER,,,,,,146,2006-07-26T00:00:00,2007-09-26T14:00:00,2,revise,active
9300BRL1,,,,Pumphouse Ferry Landing,,,,,,Merchants Road,,,,Quay,,,E0035614,Hotwells,Bristol,,,,,,0,UKOS,357210,172303,-2.61713291203,51.44808857306,FBT,,,,,,146,2013-10-22T12:03:00,2013-10-22T15:36:00,1,revise,active
9300BRM,,,,Temple Bridge (Bristol) Ferry Landing,,,,,,Temple Way,,,,,,,N0077020,Temple Meads,Bristol,,,,,,0,UKOS,359522,172780,-2.58392016509,51.45254777508,FER,,,,,,146,2006-07-26T00:00:00,2010-12-16T16:24:00,3,revise,active
9300BRM1,,,,Temple Bridge (Bristol) Ferry Landing,,,,,,Temple Way,,,,Quay,,,N0077020,Temple Meads,Bristol,,,,,,0,UKOS,359524,172781,-2.58389149891,51.45255690954,FBT,,,,,,146,2013-10-22T12:23:00,2013-10-22T15:54:00,1,revise,active
9300BRN,,,,Nova Scotia Ferry Landing,,,,,,Merchants Road,,,,,,,E0035614,Hotwells,Bristol,,,,,,0,UKOS,357149,172221,-2.61800068225,51.44734668416,FER,,,,,,146,2006-07-26T00:00:00,2007-09-26T14:00:00,2,revise,active
9300BRN1,,,,Nova Scotia Ferry Landing,,,,,,Merchants Road,,,,Quay,,,E0035614,Hotwells,Bristol,,,,,,0,UKOS,357150,172220,-2.61798617208,51.44733776901,FBT,,,,,,146,2013-10-22T11:31:00,2013-10-22T15:00:00,1,revise,active
9300BRO,,,,Brockhole Ferry Landing,,,,,,-,,,,,,,N0080634,Brockhole,,,,,,,0,UKOS,338680,501035,-2.94607099389,54.40107056552,FER,,,,,,146,2012-03-27T15:26:00,2015-03-04T11:12:00,2,revise,active
9300BRO1,,,,Brockhole Ferry Landing,,,,,,-,,,,Pier,,,N0080634,Brockhole,,,,,,,0,UKOS,338682,501033,-2.94603977714,54.40105283526,FBT,,,,,,146,2012-03-27T15:28:00,2015-03-04T11:13:00,2,revise,active
9300BRP,,,,Prince Street Bridge Ferry Landing,,,,,,Prince Street,,,,,,,N0077031,Harbour,Bristol,,,,,,0,UKOS,358607,172356,-2.59703766892,51.44866922635,FER,,,,,,146,2006-07-26T00:00:00,2017-01-31T08:35:04,6,revise,active
9300BRP1,,,,Prince Street Bridge Ferry Landing,,,,,,Prince Street,,,,Quay,,,N0077031,Harbour,Bristol,,,,,,0,UKOS,358608,172316,-2.59701858724,51.4483096575,FBT,,,,,,146,2013-10-22T12:02:00,2013-10-22T15:35:00,1,revise,active
9300BRQ,,,,Capricorn Quay Ferry Landing,,,,,,Hotwell Road,,,,,,,E0035583,Canons Marsh,Bristol,,,,,,0,UKOS,357815,172520,-2.60845351371,51.45008514504,FER,,,,,,146,2006-07-26T00:00:00,2007-09-26T14:00:00,2,revise,active
9300BRQ1,,,,Capricorn Quay Ferry Landing,,,,,,Hotwell Road,,,,Quay,,,E0035583,Canons Marsh,Bristol,,,,,,0,UKOS,357814,172520,-2.60846790334,51.45008507033,FBT,,,,,,146,2013-10-22T10:03:00,2013-10-22T14:25:00,1,revise,active
9300BRR,,,,Redcliffe Back Ferry Landing,,,,,,Redcliffe Street,,,,,,,N0077026,Redcliffe,Bristol,,,,,,0,UKOS,358986,172742,-2.59162902795,51.45216743092,FER,,,,,,146,2006-07-26T00:00:00,2007-09-26T14:00:00,2,revise,active
9300BRR1,,,,Redcliffe Back Ferry Landing,,,,,,Redcliffe Street,,,,Quay,,,N0077026,Redcliffe,Bristol,,,,,,0,UKOS,358985,172740,-2.59164318574,51.45214937616,FBT,,,,,,146,2013-10-22T12:05:00,2013-10-22T15:37:00,1,revise,active
9300BRS,,,,Bristol Docks Ferry Landing,,,,,,Off Victoria Road,,,,,,,E0035565,Avonmouth,Bristol,,,,,,0,UKOS,351215,178625,-2.70426876946,51.50444257282,FER,,,,,,146,2005-10-10T00:00:00,2007-09-26T14:00:00,2,revise,active
9300BRT,,,,Temple Meads Station Ferry Landing,,,,,,Temple Meads,,,,,,,N0077020,Temple Meads,Bristol,,,,,,0,UKOS,359699,172663,-2.58135968429,51.4515084824,FER,,,,,,146,2006-07-26T00:00:00,2007-09-26T14:00:00,2,revise,active
9300BRT1,,,,Temple Meads Station Ferry Landing,,,,,,Temple Meads,,,,Quay,,,N0077020,Temple Meads,Bristol,,,,,,0,UKOS,359698,172663,-2.58137407443,51.45150841101,FBT,,,,,,146,2013-10-22T12:24:00,2013-10-22T15:54:00,1,revise,active
9300BRW,,,,Welsh Back Ferry Landing,,,,,,Welsh Back,,,,,,,N0076879,Bristol City Centre,Bristol,,,,,,0,UKOS,358940,172811,-2.5922990145,51.45278447025,FER,,,,,,146,2006-07-26T00:00:00,2007-09-26T14:00:00,2,revise,active
9300BRW1,,,,Welsh Back Ferry Landing,,,,,,Welsh Back,,,,Quay,,,N0076879,Bristol City Centre,Bristol,,,,,,0,UKOS,358940,172810,-2.5922988981,51.4527754792,FBT,,,,,,146,2013-10-22T12:47:00,2013-10-22T16:09:00,1,revise,active
9300BRX,,,,Brixham Ferry Landing,,,,,,The Quay,,,,,,,E0042694,Brixham,,,,,,,0,UKOS,292605,56372,-3.51235980027,50.39738782417,FER,,,,,,146,2005-10-10T00:00:00,2007-09-26T14:00:00,2,revise,active
9300BRX1,,,,Brixham Ferry Landing,,,,,,The Quay,,,,Quay,,,E0042694,Brixham,,,,,,,0,UKOS,292614,56357,-3.51222892878,50.39725461973,FBT,,,,,,146,2013-10-22T09:55:00,2013-10-22T14:23:00,1,revise,active
9300BRY,,,,Bryher Isles Of Scilly Ferry Landing,,,,,,The Quay,,,,,,,E0044514,Bryher,Isles of Scilly,,,,,,0,UKOS,88085,15050,-6.35005724475,49.9539656267,FER,,,,,,146,2005-10-10T00:00:00,2007-09-26T14:00:00,2,revise,active
9300BRY1,,,,Bryher Isles Of Scilly Ferry Landing,,,,,,The Quay,,,,Quay,,,E0044514,Bryher,Isles of Scilly,,,,,,0,UKOS,88124,14933,-6.34942047259,49.95293674556,FBT,,,,,,146,2013-10-22T10:02:00,2013-10-22T14:24:00,1,revise,active
9300BSE,,,,Cadogan Pier,,,,,,A3212 Chelsea Road Cadogan Pier,,,,,,,N0060502,Chelsea,London,,,,,,0,UKOS,527409,177627,-0.16652009057,51.48325619098,FER,,,,,,146,2005-10-10T00:00:00,2010-12-06T16:57:00,2,revise,active
9300BSE1,,,,Cadogan Pier,,,,,,A3212 Chelsea Road Cadogan Pier,,,,Quay,,,N0060502,Chelsea,London,,,,,,0,UKOS,527418,177584,-0.16640604938,51.4828677295,FBT,,,,,,146,2010-12-03T18:16:00,2010-12-14T13:56:00,2,revise,active
9300BSE2,,,,Cadogan Pier,,,,,,A3212 Chelsea Road Cadogan Pier,,,,Quay,,,N0060502,Chelsea,London,,,,,,0,UKOS,527414,177580,-0.16646506471,51.48283268222,FBT,,,,,,146,2016-03-11T14:10:00,2016-03-11T14:12:00,1,revise,active
9300BSI,,,,Brownsea Island Ferry Landing,,,,,,Quay,,,,,,,E0040706,Sandbanks,Poole,,,,,,0,UKOS,403180,87671,-1.95634642326,50.68868409007,FER,,,,,,146,2005-10-10T00:00:00,2007-09-26T14:00:00,2,revise,active
9300BSI1,,,,Brownsea Island Ferry Landing,,,,,,Quay,,,,Quay,,,E0040706,Sandbanks,Poole,,,,,,0,UKOS,403185,87691,-1.95627547589,50.68886391804,FBT,,,,,,146,2013-10-22T09:59:00,2013-10-22T14:24:00,1,revise,active
9300BSP,,,,Battersea Power Station Pier,,,,,,Kirtling Street,,,,,,,E0034886,Battersea,London,,,,,,0,UKOS,528961,177690,-0.14415862015,51.48347094585,FER,,,,,,146,2016-03-11T15:37:00,2016-03-11T15:39:00,1,revise,active
9300BSP1,,,,Battersea Power Station Pier,,,,,,Kirtling Street,,,,Quay,,,E0034886,Battersea,London,,,,,,0,UKOS,528961,177693,-0.1441575256,51.48349790616,FBT,,,,,,146,2016-03-11T15:44:00,2016-03-11T15:45:00,1,revise,active
9300BSP2,,,,Battersea Power Station Pier,,,,,,Kirtling Street,,,,Quay,,,E0034886,Battersea,London,,,,,,0,UKOS,528966,177693,-0.14408555863,51.48349676714,FBT,,,,,,146,2017-09-28T00:00:00,2017-09-28T00:00:00,0,new,active
9300BWC,,,,Burwick Sth Ronaldsay Orkney Ferry Terminal,,,,,,Off A961,,,,,,,N0067627,Burwick,South Ronaldsay,,,,,,0,UKOS,343785,983951,-2.97285420255,58.73955315934,FER,,,,,,146,2006-02-15T00:00:00,2007-11-19T17:30:00,3,revise,active
9300BWD,,,,Brantwood (Coniston) Ferry Landing,,,,,,-,,,,,,,N0080423,Brantwood,,,,,,,0,UKOS,331099,495802,-3.06161231607,54.35307787083,FER,,,,,,146,2010-07-16T17:03:00,2013-01-02T16:42:00,2,revise,active
9300BWD1,,,,Brantwood (Coniston) Ferry Landing,,,,,,,,,,,,,N0080423,Brantwood,,,,,,,0,UKOS,331107,495827,-3.06149504377,54.35330359289,FBT,,,,,,146,2017-05-11T00:00:00,2017-05-11T00:00:00,0,new,active
9300BXM,,,,Brixham Harbour Boarding Stage,,,,,,New Pier,,,,,,,E0042694,Brixham,,,,,,,0,UKOS,292667,56409,-3.51149838843,50.39773179258,FER,,,,,,146,2008-08-21T10:25:00,2008-08-21T10:38:00,1,revise,active
9300BXM1,,,,Brixham Harbour Boarding Stage,,,,,,New Pier,,,,Quay,,,E0042694,Brixham,,,,,,,0,UKOS,292672,56408,-3.5114277799,50.39772371654,FBT,,,,,,146,2013-10-22T09:57:00,2013-10-22T14:23:00,1,revise,active
9300BYI,,,,Bardsey Island Ferry Landing,,,,,,Bardsey Island area,,,,,,,E0037435,Bardsey Island,,,,,,,0,UKOS,211617,320984,-4.79284637191,52.75354286575,FER,,,,,,146,2005-10-10T00:00:00,2007-09-26T14:00:00,2,revise,active
9300CAM,,,,Camusnagaul Ferry Landing,,,,,,Jetty,,,,,,,N0067776,Camusnagaul,,,,,,,0,UKOS,209496,775069,-5.12373351911,56.82794186469,FER,,,,,,146,2005-10-10T00:00:00,2008-12-08T16:43:00,4,revise,active
9300CAN,,,,Canna Ferry Terminal,,,,,,A ' Chill,,,,,,,N0076372,Canna,,,,,,,0,UKOS,127840,805085,-6.49029593552,57.05617248094,FER,,,,,,146,2005-10-10T00:00:00,2007-09-26T14:00:00,2,revise,active
9300CAN0,,,,Canna Ferry Terminal,,,,,,A ' Chill,,,,Pier,,,N0076372,Canna,,,,,,,0,UKOS,127813,805052,-6.49070393665,57.05586101097,FBT,,,,,,146,2013-03-15T11:17:00,2014-08-26T15:46:00,1,revise,active
9300CAS,,,,Cardiff Castle Waterbus Stop,,,,,,Castle Street,,,,,,,E0054000,Cardiff Castle,Cardiff,,,,,,0,UKOS,317759,176532,-3.18571371447,51.48174252288,FER,,,,,,146,2011-01-31T15:08:00,2011-01-31T16:21:00,1,revise,active
9300CAS1,,,,Cardiff Castle Waterbus Stop,,,,,,Castle Street,,,,Landing stage,,,E0054000,Cardiff Castle,Cardiff,,,,,,0,UKOS,317758,176532,-3.18572811178,51.48174237727,FBT,,,,,,146,2011-01-31T15:13:00,2011-01-31T16:21:00,2,revise,active
9300CAW,,,,Canary Wharf Pier,,,,,,Westerray Circus,,,,,,,N0077638,Canary Wharf,London,,,,,,0,UKOS,536926,180371,-0.02848220001,51.50569238333,FER,,,,,,146,2005-10-10T00:00:00,2011-11-07T15:20:00,4,revise,active
9300CAW1,,,,Canary Wharf Pier,,,,,,Westerray Circus,,,,Quay,,,N0077638,Canary Wharf,London,,,,,,0,UKOS,536904,180327,-0.02881605151,51.5053023187,FBT,,,,,,146,2010-12-03T18:17:00,2011-11-10T15:45:00,4,revise,active
9300CAW2,,,,Canary Wharf Pier,,,,,,Westerray Circus,,,,,,,N0077638,Canary Wharf,London,,,,,,0,UKOS,536900,180320,-0.02887636335,51.50524038388,FBT,,,,,,146,2016-03-11T14:15:00,2016-03-11T14:18:00,1,revise,active
9300CAW3,,,,Canary Wharf Pier,,,,,,Westerray Circus,,,,,,,N0077638,Canary Wharf,London,,,,,,0,UKOS,536920,180300,-0.02859613517,51.50505582056,FBT,,,,,,146,2016-03-11T14:17:00,2016-03-11T14:18:00,1,revise,active
9300CBA,,,,Castlebay Barra Ferry Terminal,,,,,,Off A888,,,,,,,ES000667,Castlebay,,,,,,,0,UKOS,66484,798144,-7.48825174156,56.95384885551,FER,,,,,,146,2005-10-10T00:00:00,2008-04-14T10:45:00,4,revise,active
9300CBA0,,,,Castlebay Barra Ferry Terminal,,,,,,Off A888,,,,Pier,,,ES000667,Castlebay,,,,,,,0,UKOS,66488,798129,-7.48816650926,56.9537176051,FBT,,,,,,146,2013-03-15T11:21:00,2014-08-26T15:47:00,1,revise,active
9300CDF,,,,Cardiff - Britannia Quay,,,,,,Britannia Quay,,,,,,,N0078138,Cardiff Bay,Cardiff,,,,,,0,UKOS,319465,174390,-3.16066281913,51.4627325121,FER,,,,,,146,2008-04-03T15:27:00,2008-04-03T16:25:00,1,revise,active
9300CDI,,,,Caldey Island Ferry Landing,,,,,,A861,,,,,,,E0054476,Caldey Island,,,,,,,0,UKOS,213692,196928,-4.69387578486,51.6402156231,FER,,,,,,146,2005-10-10T00:00:00,2008-04-24T17:21:00,3,revise,active
9300CHH,,,,Mudeford Quay Ferry Landing,,,,,,Warren Hill,,,,,,,E0009105,Stanpit,Christchurch,,,,,,0,UKOS,418308,91611,-1.74199787166,50.72383852539,FER,,,,,,146,2005-10-10T00:00:00,2007-11-07T14:30:00,3,revise,active
9300CHH1,,,,Mudeford Quay Ferry Landing,,,,,,Warren Hill,,,,Quay,,,E0009105,Stanpit,Christchurch,,,,,,0,UKOS,418301,91590,-1.74209807407,50.72364990049,FBT,,,,,,146,2013-10-22T11:25:00,2013-10-22T14:56:00,1,revise,active
9300CHP,,,,Chelsea Harbour Pier,,,,,,Harbour Avenue,,,,,,,E0034389,Sands End,London,,,,,,0,UKOS,526475,176590,-0.18033465054,51.47414614723,FER,,,,,,146,2005-10-10T00:00:00,2010-12-06T16:57:00,2,revise,active
9300CHP1,,,,Chelsea Harbour Pier,,,,,,Harbour Avenue,,,,Quay,,,E0034389,Sands End,London,,,,,,0,UKOS,526509,176579,-0.17984930024,51.47403969634,FBT,,,,,,146,2010-12-03T18:20:00,2010-12-14T13:57:00,2,revise,active
9300CHP2,,,,Chelsea Harbour Pier,,,,,,Harbour Avenue,,,,Quay,,,E0034389,Sands End,London,,,,,,0,UKOS,526504,176574,-0.17992304226,51.47399587846,FBT,,,,,,146,2016-03-11T14:20:00,2016-03-11T14:22:00,1,revise,active
9300CJU,,,,Craighouse (Jura) Ferry Terminal,,,,,,Craighouse,,,,,,,N0068401,Craighouse,,,,,,,0,UKOS,152760,667143,-5.94992899941,55.83398235588,FER,,,,,,146,2008-06-12T19:00:00,2008-06-13T10:44:00,3,revise,active
9300CLA,,,,Clarence Embankment Waterbus Stop,,,,,,Clarence Embankment,,,,,,,N0078138,Cardiff Bay,Cardiff,,,,,,0,UKOS,318572,174569,-3.17355563276,51.46421370313,FER,,,,,,146,2011-01-31T15:17:00,2011-01-31T16:24:00,1,revise,active
9300CLA1,,,,Clarence Embankment Waterbus Stop,,,,,,Clarence Embankment,,,,Landing stage,,,N0078138,Cardiff Bay,Cardiff,,,,,,0,UKOS,318564,174569,-3.17367076764,51.46421255043,FBT,,,,,,146,2011-01-31T15:18:00,2011-01-31T16:24:00,2,revise,active
9300CLB,,,,Claonaig Ferry Terminal,,,,,,Off B842 & B8001,,,,,,,N0068391,Claonaig,,,,,,,0,UKOS,187487,656055,-5.38787531532,55.75107442186,FER,,,,,,146,2005-10-10T00:00:00,2007-09-26T14:00:00,2,revise,active
9300CLK,,,,Camden Lock Waterbus,,,,,,West Yard,,,,,,,N0060504,Camden Town,London,,,,,,0,UKOS,528633,184065,-0.14655582397,51.54083605367,FER,,,,,,146,2014-04-10T11:08:00,2014-06-06T14:20:00,2,revise,active
9300CLK1,,,,Camden Lock Waterbus,,,,,,West Yard,,,,Pier,,,N0060504,Camden Town,London,,,,,,0,UKOS,528634,184066,-0.14654104735,51.54084481268,FBT,,,,,,146,2014-04-10T11:08:00,2014-06-06T14:22:00,2,revise,active
9300CLV,,,,Clevedon Pier,,,,,,Marine Parade,,,,,,,E0053567,Clevedon,,,,,,,0,UKOS,339960,171995,-2.86527980811,51.44374977222,FER,,,,,,146,2008-04-03T15:30:00,2008-04-03T16:28:00,1,revise,active
9300CLV1,,,,Clevedon Pier,,,,,,Marine Parade,,,,Quay,,,E0053567,Clevedon,,,,,,,0,UKOS,339966,172001,-2.86519450698,51.44380435262,FBT,,,,,,146,2013-10-22T10:12:00,2013-10-22T14:29:00,2,revise,active
9300CLY,,,,Clydebank Ferry Landing,,,,,,Aurora Avenue,,,,,,,ES000746,Clydebank,,,,,,,0,UKOS,249573,669568,-4.40722203239,55.89566600372,FER,,,,,,146,2013-03-08T10:31:00,2013-03-08T10:43:00,1,revise,active
9300CLY1,,,,Clydebank Ferry Landing,,,,,,Aurora Avenue,,,,Pier,,,ES000746,Clydebank,,,,,,,0,UKOS,249575,669568,-4.40719007987,55.89566662873,FBT,,,,,,146,2013-03-08T10:32:00,2013-03-08T10:43:00,1,revise,active
9300CNU,,,,Craignure Mull Ferry Terminal,,,,,,Off A849,,,,,,,N0068403,Craignure,,,,,,,0,UKOS,171817,737118,-5.70631310525,56.47076020197,FER,,,,,,146,2005-10-10T00:00:00,2007-09-26T14:00:00,2,revise,active
9300CNU0,,,,Craignure Mull Ferry Terminal,,,,,,Off A849,,,,Pier,,,N0068403,Craignure,,,,,,,0,UKOS,171857,737169,-5.70570981506,56.47123679069,FBT,,,,,,146,2013-03-15T10:45:00,2014-08-26T15:47:00,1,revise,active
9300COC,,,,Cockleridge Ham Ferry Landing,,,,,,Cockleridge Ham area,,,,,,,E0008162,Bantham,,,,,,,0,UKOS,266578,44035,-3.87399124574,50.28116132632,FER,,,,,,146,2005-10-10T00:00:00,2007-09-26T14:00:00,2,revise,active
9300COC1,,,,Cockleridge Ham Ferry Landing,,,,,,Cockleridge Ham area,,,,Quay,,,E0008162,Bantham,,,,,,,0,UKOS,266568,44012,-3.87412339943,50.28095232745,FBT,,,,,,146,2013-10-22T10:14:00,2013-10-22T14:30:00,1,revise,active
9300COF,,,,East Cowes Floating Bridge,,,,,,End of Ferry Road,,,,,,,E0038861,East Cowes,Cowes,,,,,,0,UKOS,450141,95545,-1.29051560567,50.75734404709,FER,,,,,,146,2005-10-10T00:00:00,2007-09-26T14:00:00,1,revise,active
9300COF1,,,,East Cowes Floating Bridge,,,,,,Ferry Road,,,,berth,,,E0038861,East Cowes,Cowes,,,,,,0,UKOS,450135,95548,-1.29060025319,50.75737154006,FBT,,,,,,146,2011-07-13T09:59:00,2011-07-13T11:44:00,1,revise,active
9300COH,,,,Red Jet Ferry Terminal,,,,,,Cowes Pontoon. High Street,,,,,,,E0053406,Cowes,,,,,,,0,UKOS,449700,96105,-1.29669172182,50.7624173777,FER,,,,,,146,2006-10-19T00:00:00,2015-04-21T11:48:00,5,revise,active
9300COH1,,,,Red Jet Ferry Terminal,,,,,,High Street,,,,landing stage,,,E0053406,Cowes,,,,,,,0,UKOS,449722,96103,-1.29638008832,50.76239751329,FBT,,,,,,146,2011-07-13T10:02:00,2015-04-21T11:48:00,3,revise,active
9300COL,,,,Coll Ferry Terminal,,,,,,Main Street,,,,,,,N0077276,Coll,,,,,,,0,UKOS,122535,756180,-6.52424088762,56.61506089707,FER,,,,,,146,2005-10-10T00:00:00,2007-09-26T14:00:00,2,revise,active
9300COL0,,,,Coll Ferry Terminal,,,,,,Main Street,,,,Pier,,,N0077276,Coll,,,,,,,0,UKOS,122632,756129,-6.52261066411,56.6146615411,FBT,,,,,,146,2013-03-15T10:52:00,2014-08-26T15:48:00,1,revise,active
9300COM,,,,West Cowes Floating Bridge,,,,,,Off Medina Road,,,,,,,E0053406,Cowes,,,,,,,0,UKOS,450005,95623,-1.2924329518,50.75805712536,FER,,,,,,146,2005-10-10T00:00:00,2008-05-29T10:26:00,4,revise,active
9300COM1,,,,West Cowes Floating Bridge,,,,,,Medina Road,,,,berth,,,E0053406,Cowes,,,,,,,0,UKOS,450029,95605,-1.29209516667,50.75789320685,FBT,,,,,,146,2011-07-13T10:04:00,2011-07-13T11:46:00,1,revise,active
9300CON,,,,Coniston Ferry Landing,,,,,,Lake Road,,,,,,,E0044878,Coniston,,,,,,,0,UKOS,330810,497000,-3.0663368387,54.36380336831,FER,,,,,,146,2005-10-10T00:00:00,2007-09-26T14:00:00,2,revise,active
9300CON1,,,,Coniston Ferry Landing,,,,,,Lake Road,,,,Pier,,,E0044878,Coniston,,,,,,,0,UKOS,330845,497023,-3.0658036455,54.36401479338,FBT,,,,,,146,2011-10-10T14:47:00,2011-10-10T15:25:00,1,revise,active
9300COT,,,,Colintraive Ferry Terminal,,,,,,A886,,,,,,,N0068395,Colintraive,,,,,,,0,UKOS,203110,674522,-5.15275771146,55.92335501407,FER,,,,,,146,2005-10-10T00:00:00,2007-09-26T14:00:00,2,revise,active
9300COW,,,,East Cowes Ferry Terminal,,,,,,Well Road,,,,,,,E0038861,East Cowes,Cowes,,,,,,0,UKOS,450174,95742,-1.29002101015,50.75911260979,FER,,,,,,146,2005-10-10T00:00:00,2008-03-28T13:50:00,4,revise,active
9300COW1,,,,East Cowes Ferry Terminal,,,,,,Well Road,,,,quay,,,E0038861,East Cowes,Cowes,,,,,,0,UKOS,450117,95753,-1.29082757045,50.75921643539,FBT,,,,,,146,2011-07-13T10:06:00,2011-07-13T11:47:00,1,revise,active
9300CPB,,,,Campbeltown Ferry Terminal,,,,,,Terminal Group,,,,,,,ES000591,Campbeltown,,,,,,,0,UKOS,172329,620353,-5.59943161513,55.42403073766,FER,,,,,,146,2006-04-12T00:00:00,2007-09-26T14:00:00,1,revise,active
9300CQU,,,,Christchurch Quay Ferry Landing,,,,,,Wick Lane,,,,,,,E0009096,Millhams,,,,,,,0,UKOS,415548,92292,-1.78106953668,50.73004235256,FER,,,,,,146,2005-10-10T00:00:00,2007-09-26T14:00:00,2,revise,active
9300CQU1,,,,Christchurch Quay Ferry Landing,,,,,,Wick Lane,,,,Quay,,,E0009096,Millhams,,,,,,,0,UKOS,415548,92291,-1.78106957855,50.73003335997,FBT,,,,,,146,2013-10-22T10:11:00,2013-10-22T14:28:00,2,revise,active
9300CRE,,,,Cremyll Mount Edgcumbe Ferry Landing,,,,,,Off B3247,,,,,,,E0002446,Cremyll,,,,,,,0,UKOS,245410,53445,-4.17474031962,50.36055916148,FER,,,,,,146,2005-10-10T00:00:00,2007-09-26T14:00:00,2,revise,active
9300CRE1,,,,Cremyll Mount Edgcumbe Ferry Landing,,,,,,Off B3247,,,,Quay,,,E0002446,Cremyll,,,,,,,0,UKOS,245433,53457,-4.17442213871,50.36067304711,FBT,,,,,,146,2013-10-22T10:19:00,2013-10-22T14:30:00,1,revise,active
9300CRN,,,,Cromarty Ferry Terminal,,,,,,Off A832 Bank Street,,,,,,,ES000882,Cromarty,,,,,,,0,UKOS,278590,867703,-4.03780513015,57.68273756517,FER,,,,,,146,2005-10-10T00:00:00,2007-09-26T14:00:00,2,revise,active
9300CRR,,,,Nether Lochaber Ferry Terminal,,,,,,Off A861,,,,,,,N0067792,Corran Ferry,,,,,,,0,UKOS,202118,763547,-5.23552016507,56.72151729597,FER,,,,,,146,2005-10-10T00:00:00,2007-09-26T14:00:00,2,revise,active
9300CSL,,,,Castle Slip Ferry Landing,,,,,,-,,,,,,,ES000667,Castlebay,,,,,,,0,UKOS,66605,798146,-7.48627417809,56.95395386853,FER,,,,,,146,2014-02-10T11:39:00,2014-02-10T11:44:00,1,revise,active
9300CSL1,,,,Castle Slip Ferry Landing,,,,,,-,,,,Quay,,,ES000667,Castlebay,,,,,,,0,UKOS,66606,798144,-7.48625517748,56.95393670425,FBT,,,,,,146,2014-02-10T11:40:00,2014-02-10T11:44:00,1,revise,active
9300CSY,,,,Colonsay Ferry Terminal,,,,,,B8087 Scalasaig,,,,,,,N0077277,Colonsay,,,,,,,0,UKOS,139432,694108,-6.18820524532,56.06860423892,FER,,,,,,146,2005-10-10T00:00:00,2007-09-26T14:00:00,2,revise,active
9300CSY0,,,,Colonsay Ferry Terminal,,,,,,B8087 Scalasaig,,,,Pier,,,N0077277,Colonsay,,,,,,,0,UKOS,139604,694088,-6.18543051967,56.06851864288,FBT,,,,,,146,2013-03-15T10:49:00,2014-08-26T15:49:00,1,revise,active
9300CTL,,,,Cowes Trinity Landing,,,,,,-,,,,,,,E0053406,Cowes,,,,,,,0,UKOS,449533,96545,-1.29900025633,50.76638807429,FER,,,,,,146,2015-12-01T11:40:00,2015-12-01T11:52:00,1,revise,active
9300CTL1,,,,Cowes Trinity Landing,,,,,,-,,,,Pier,,,E0053406,Cowes,,,,,,,0,UKOS,449533,96545,-1.29900025633,50.76638807429,FBT,,,,,,146,2015-12-01T11:41:00,2015-12-01T11:52:00,1,revise,active
9300CUM,,,,Cumbrae Ferry Terminal,,,,,,B896,,,,,,,N0077284,Cumbrae,,,,,,,0,UKOS,218370,658625,-4.89824558466,55.78671108552,FER,,,,,,146,2005-10-10T00:00:00,2007-09-26T14:00:00,2,revise,active
9300CUN,,,,North Cuan Seil Ferry Terminal,,,,,,End B8003,,,,,,,N0076396,North Cuan,,,,,,,0,UKOS,175360,714285,-5.6293866747,56.26774147562,FER,,,,,,146,2005-10-10T00:00:00,2007-09-26T14:00:00,2,revise,active
9300CUS,,,,Falmouth Custom House Quay,,,,,,Quay Street,,,,,,,E0044490,Falmouth,,,,,,,0,UKOS,181166,32577,-5.06471442589,50.1527725796,FER,,,,,,146,2011-08-09T15:30:00,2014-01-28T16:18:00,2,revise,active
9300CUS1,,,,Falmouth Custom House Quay,,,,,,Quay Street,,,,Pier,,,E0044490,Falmouth,,,,,,,0,UKOS,181164,32588,-5.06474870128,50.15287062863,FBT,,,,,,146,2011-08-09T15:31:00,2014-01-28T16:19:00,2,revise,active
9300CVW,,,,Channel View Waterbus Stop,,,,,,Jim Driscoll Way,,,,,,,E0054006,Grangetown,Cardiff,,,,,,0,UKOS,318163,174359,-3.17939321359,51.46226680763,FER,,,,,,146,2011-01-31T15:19:00,2011-01-31T16:28:00,1,revise,active
9300CVW1,,,,Channel View Waterbus Stop,,,,,,Jim Driscoll Way,,,,Landing stage,,,E0054006,Grangetown,Cardiff,,,,,,0,UKOS,318173,174359,-3.17924930141,51.46226825547,FBT,,,,,,146,2011-01-31T15:21:00,2011-01-31T16:28:00,1,revise,active
9300CWR,,,,Cape Wrath Ferry Landing,,,,,,Keoldale area,,,,,,,N0078999,Keoldale,,,,,,,0,UKOS,237112,966043,-4.80104027912,58.55185664724,FER,,,,,,146,2005-10-10T00:00:00,2010-08-31T09:24:00,3,revise,active
9300CWS,,,,Cawsand Beach Ferry Landing,,,,,,,,,,N/A,,,E0002423,Cawsand,,,,,,,0,UKOS,243412,50194,-4.20145656204,50.3308151939,FER,,,,,,146,2019-08-22T17:07:26,2019-08-22T17:07:26,1,new,active
9300CWS1,,,,Cawsand Beach Ferry Landing Pier,,,,,,,,,,Pier,,,E0002423,Cawsand,,,,,,,0,UKOS,243414,53577,-4.20283520961,50.36121739937,FBT,,,,,,146,2019-08-22T17:07:26,2024-07-18T17:07:26,2,revise,active
9300CYN,,,,Cairnryan P&O Ferry Terminal,,,,,,off A77,,,,,,,N0068578,Cairnryan,,,,,,,0,UKOS,207105,567621,-5.01481908973,54.9657787116,FER,,,,,,146,2005-10-10T00:00:00,2013-03-08T12:07:00,4,revise,active
9300CYN1,,,,Cairnryan P&O Ferry Terminal,,,,,,off A77,,,,Pier,,,N0068578,Cairnryan,,,,,,,0,UKOS,207104,567620,-5.01483401434,54.96576935082,FBT,,,,,,146,2013-03-08T12:07:00,2013-03-08T12:15:00,1,revise,active
9300CYS,,,,Cairnryan Stena Line Ferry Terminal,,,,,,Port Rodie,,,,,,,N0068578,Cairnryan,,,,,,,0,UKOS,205847,569797,-5.03591432609,54.98481675533,FER,,,,,,146,2013-03-08T12:05:00,2013-03-08T12:08:00,1,revise,active
9300CYS1,,,,Cairnryan Stena Line Ferry Terminal,,,,,,Port Rodie,,,,Pier,,,N0068578,Cairnryan,,,,,,,0,UKOS,205845,569797,-5.03594553483,54.9848159757,FBT,,,,,,146,2013-03-08T12:05:00,2013-03-08T12:08:00,1,revise,active
9300DIT,,,,Dittisham Ferry Landing,,,,,,The Quay,,,,,,,E0008331,Lower Dittisham,,,,,,,0,UKOS,286665,54815,-3.59542982001,50.38227441721,FER,,,,,,146,2005-10-10T00:00:00,2007-09-26T14:00:00,2,revise,active
9300DIT1,,,,Dittisham Ferry Landing,,,,,,The Quay,,,,Quay,,,E0008331,Lower Dittisham,,,,,,,0,UKOS,286685,54819,-3.59514983895,50.38231423385,FBT,,,,,,146,2013-10-22T10:38:00,2013-10-22T14:35:00,1,revise,active
9300DNE,,,,Dartmouth North Embankment Ferry Terminal,,,,,,North Embankment,,,,,,,E0045423,Dartmouth,,,,,,,0,UKOS,287915,51340,-3.57681952708,50.35127464479,FER,,,,,,146,2005-10-10T00:00:00,2010-11-08T15:49:00,3,revise,active
9300DNE1,,,,Dartmouth North Embankment Ferry Terminal,,,,,,North Embankment,,,,Quay,,,E0045423,Dartmouth,,,,,,,0,UKOS,287913,51340,-3.57684762778,50.35127426364,FBT,,,,,,146,2013-10-22T10:35:00,2013-10-22T14:33:00,1,revise,active
9300DNU,,,,Dunoon Ferry Terminal,,,,,,Argyll Street,,,,,,,ES001181,Dunoon,,,,,,,0,UKOS,217675,676459,-4.92131094514,55.94647812901,FER,,,,,,146,2005-10-10T00:00:00,2008-04-14T10:08:00,3,revise,active
9300DNV,,,,Dartmouth Naval College Ferry Terminal,,,,,,End of A379 College Way,,,,,,,E0045423,Dartmouth,,,,,,,0,UKOS,287945,51945,-3.57657819627,50.35671920902,FER,,,,,,146,2005-10-10T00:00:00,2010-11-08T15:49:00,3,revise,active
9300DNV1,,,,Dartmouth Naval College Ferry Terminal,,,,,,End of A379 College Way,,,,Quay,,,E0045423,Dartmouth,,,,,,,0,UKOS,287955,51955,-3.57644065505,50.3568110128,FBT,,,,,,146,2013-10-22T10:21:00,2013-10-22T14:31:00,1,revise,active
9300DRM,,,,Drimnin Ferry Landing,,,,,,B849,,,,,,,N0067812,Drimnin,,,,,,,0,UKOS,155598,753925,-5.98476232956,56.61325887316,FER,,,,,,146,2005-10-10T00:00:00,2007-09-26T14:00:00,2,revise,active
9300DTI,,,,Ditton Island Ferry Landing,,,,,,Summer Road,,,,,,,E0025311,Thames Ditton,,,,,,,0,UKOS,516204,167296,-0.33119813724,51.39281480479,FER,,,,,,146,2005-10-10T00:00:00,2007-09-26T14:00:00,2,revise,active
9300DTI1,,,,Ditton Island Ferry Landing,,,,,,Summer Road,,,,Quay,,,E0025311,Thames Ditton,,,,,,,0,UKOS,516202,167296,-0.33122686997,51.39281521397,FBT,,,,,,146,2013-10-22T10:39:00,2013-10-22T14:36:00,1,revise,active
9300DTM,,,,Dartmouth South Embankment Ferry Terminal,,,,,,Banyards Cove,,,,,,,E0045423,Dartmouth,,,,,,,0,UKOS,287857,51070,-3.57755399125,50.34883633388,FER,,,,,,146,2005-10-10T00:00:00,2007-09-26T14:00:00,2,revise,active
9300DTM1,,,,Dartmouth South Embankment Ferry Terminal,,,,,,Banyards Cove,,,,Quay,,,E0045423,Dartmouth,,,,,,,0,UKOS,287863,51070,-3.57746969348,50.34883747779,FBT,,,,,,146,2013-10-22T10:36:00,2013-10-22T14:33:00,1,revise,active
9300DUR,,,,Durness Keoldale Ferry Landing,,,,,,A82,,,,,,,N0078999,Keoldale,,,,,,,0,UKOS,237745,966131,-4.79023948168,58.55288260715,FER,,,,,,146,2005-10-10T00:00:00,2010-08-31T09:24:00,3,revise,active
9300DVE,,,,Dover Eastern Docks Ferry Terminal,,,,,,A2 Jubilee Way,,,,,,,E0047158,Dover,,,,,,,0,UKOS,632905,141592,1.32713103344,51.12623207087,FER,,,,,,146,2008-06-18T19:29:00,2008-06-18T19:32:00,1,revise,active
9300DVE1,,,,Dover Eastern Docks Ferry Terminal,,,,,,A2 Jubilee Way,,,,Quay,,,E0047158,Dover,,,,,,,0,UKOS,632905,141517,1.32708261469,51.12555880554,FBT,,,,,,146,2013-10-22T10:40:00,2013-10-22T14:37:00,1,revise,active
9300DVP,,,,Devonport Ferry Terminal,,,,,,A374 Pottery Road and Ferry Road,,,,,,,E0040584,Devonport,Plymouth,,,,,,0,UKOS,244797,55198,-4.184075292,50.37615137334,FER,,,,,,146,2005-10-10T00:00:00,2007-09-26T14:00:00,2,revise,active
9300DVP1,,,,Devonport Ferry Terminal,,,,,,A374 Pottery Road and Ferry Road,,,,Quay,,,E0040584,Devonport,Plymouth,,,,,,0,UKOS,244787,55197,-4.18421540711,50.37613974641,FBT,,,,,,146,2013-10-22T10:37:00,2013-10-22T14:34:00,1,revise,active
9300DVW,,,,Dover Western Docks Ferry Terminal,,,,,,Off A20 Union Street,,,,,,,E0047158,Dover,,,,,,,0,UKOS,632115,140525,1.31517486989,51.11697402849,FER,,,,,,146,2008-06-18T19:31:00,2008-06-18T19:33:00,1,revise,active
9300DVW1,,,,Dover Western Docks Ferry Terminal,,,,,,Off A20 Union Street,,,,Quay,,,E0047158,Dover,,,,,,,0,UKOS,632156,140502,1.31574485102,51.11675096181,FBT,,,,,,146,2013-10-22T10:41:00,2013-10-22T14:37:00,1,revise,active
9300EAI,,,,Easdale Seil Ferry Landing,,,,,,End of B844,,,,,,,N0068423,Easdale,,,,,,,0,UKOS,174138,717233,-5.65159770578,56.2935937352,FER,,,,,,146,2005-10-10T00:00:00,2007-09-26T14:00:00,2,revise,active
9300EAS,,,,Easdale Island Ferry Landing,,,,,,Ferry Port,,,,,,,N0068423,Easdale,,,,,,,0,UKOS,173952,717178,-5.65454951045,56.29301202747,FER,,,,,,146,2005-10-10T00:00:00,2007-09-26T14:00:00,2,revise,active
9300EDY,,,,Eday Orkney Ferry Terminal,,,,,,B9036 South,,,,,,,ES001263,Eday,,,,,,,0,UKOS,357354,1030102,-2.74738389716,59.15553118135,FER,,,,,,146,2005-10-10T00:00:00,2008-04-24T17:22:00,3,revise,active
9300EGI,,,,Egilsay Orkney Ferry Terminal,,,,,,Off The Main Road,,,,,,,ES003212,Egilsay,,,,,,,0,UKOS,346183,1030272,-2.94271636785,59.15578699035,FER,,,,,,146,2005-10-10T00:00:00,2007-11-19T17:30:00,3,revise,active
9300EIB,,,,East India Pier,,,,,,-,,,,,,,N0077655,East India,London,,,,,,0,UKOS,538716,180582,-0.00262465475,51.5071522925,FER,,,,,,146,2010-01-04T11:54:00,2014-04-02T16:31:00,2,revise,active
9300EIB1,,,,East India Pier,,,,,,-,,,,,,,N0077655,East India,London,,,,,,0,UKOS,538721,180575,-0.0025554076,51.50708816435,FBT,,,,,,146,2012-01-12T17:39:00,2014-08-26T15:49:00,2,revise,active
9300EMB,,,,Embankment Pier,,,,,,Victoria Embankment,,,,,,,N0077659,Embankment,London,,,,,,0,UKOS,530471,180390,-0.12142751325,51.50738887498,FER,,,,,,146,2005-10-10T00:00:00,2011-11-07T15:18:00,4,revise,active
9300EMB1,,,,Embankment Pier,,,,,,Victoria Embankment,,,,Quay,,,N0077659,Embankment,London,,,,,,0,UKOS,530488,180379,-0.12118676728,51.50728610066,FBT,,,,,,146,2010-12-03T18:21:00,2011-11-10T15:43:00,3,revise,active
9300EMB2,,,,Embankment Pier,,,,,,Victoria Embankment,,,,Quay,,,N0077659,Embankment,London,,,,,,0,UKOS,530480,180370,-0.12130529978,51.50720706662,FBT,,,,,,146,2016-03-11T14:25:00,2016-03-11T14:27:00,1,revise,active
9300EMB3,,,,Embankment Pier,,,,,,Victoria Embankment,,,,Quay,,,N0077659,Embankment,London,,,,,,0,UKOS,530484,180364,-0.12124991506,51.5071522242,FBT,,,,,,146,2016-03-11T14:26:00,2016-03-11T14:27:00,1,revise,active
9300EMS,,,,East Mersea Ferry Landing,,,,,,unnamed road,,,,,,,E0046249,East Mersea,,,,,,,0,UKOS,607317,215458,1.0052955002,51.79932422886,FER,,,,,,146,2013-06-07T09:10:00,2013-06-12T10:10:00,1,revise,active
9300EMS1,,,,East Mersea Ferry Landing,,,,,,unnamed road,,,,Quay,,,E0046249,East Mersea,,,,,,,0,UKOS,607320,215460,1.00534013919,51.79934107491,FBT,,,,,,146,2013-06-07T09:10:00,2013-06-12T10:04:00,1,revise,active
9300ERI,,,,Eriskay Ferry Terminal,,,,,,Minor Road,,,,,,,ES001310,Eriskay,,,,,,,0,UKOS,78427,810289,-7.30824734987,57.07093199989,FER,,,,,,146,2005-10-10T00:00:00,2015-03-25T11:50:00,4,revise,active
9300EXM,,,,Exmouth Ferry Landing,,,,,,Shelley Road with Junction Esplanade,,,,,,,N0074556,The Point,Exmouth,,,,,,0,UKOS,299355,80680,-3.42398180425,50.61711828503,FER,,,,,,146,2005-10-10T00:00:00,2010-11-08T15:50:00,3,revise,active
9300EXM1,,,,Exmouth Ferry Landing,,,,,,Shelley Road with Junction Esplanade,,,,Quay,,,N0074556,The Point,Exmouth,,,,,,0,UKOS,299344,80653,-3.42412990606,50.61687365322,FBT,,,,,,146,2013-10-22T10:44:00,2013-10-22T14:39:00,1,revise,active
9300FAG,,,,Fort Augustus Ferry Landing,,,,,,Canal Side,,,,,,,ES001433,Fort Augustus,,,,,,,0,UKOS,237937,809254,-4.68021479333,57.14548813155,FER,,,,,,146,2005-10-10T00:00:00,2007-09-26T14:00:00,2,revise,active
9300FAI,,,,Fairlie Ferry Terminal,,,,,,Off Main Road,,,,,,,ES001338,Fairlie,,,,,,,0,UKOS,219694,654358,-4.87433897546,55.74891598388,FER,,,,,,146,2007-03-21T11:00:00,2007-09-26T14:00:00,1,revise,active
9300FAL,,,,Falmouth Prince of Wales Pier Ferry Landing,,,,,,Off High Street,,,,,,,E0044490,Falmouth,,,,,,,0,UKOS,180800,33000,-5.07007360683,50.15643614958,FER,,,,,,146,2005-10-10T00:00:00,2007-09-26T14:00:00,3,revise,active
9300FAL1,,,,Falmouth Prince of Wales Pier Ferry Landing,,,,,,Off High Street,,,,Quay,,,E0044490,Falmouth,,,,,,,0,UKOS,180815,33010,-5.06986968779,50.15653150342,FBT,,,,,,146,2013-10-22T10:46:00,2013-10-22T14:40:00,1,revise,active
9300FCQ,,,,Fowey Custom House Quay Ferry Landing,,,,,,Station Road,,,,,,,E0044638,Fowey,,,,,,,0,UKOS,212690,52280,-4.63370133088,50.34058585623,FER,,,,,,146,2007-02-16T13:00:00,2007-09-26T14:00:00,1,revise,active
9300FCQ1,,,,Fowey Custom House Quay Ferry Landing,,,,,,Station Road,,,,Quay,,,E0044638,Fowey,,,,,,,0,UKOS,212707,52274,-4.6334597079,50.34053736231,FBT,,,,,,146,2013-10-22T10:48:00,2013-10-22T14:41:00,1,revise,active
9300FEL,,,,Fell Foot Country Park Ferry Landing,,,,,,Off A592,,,,,,,E0006217,Fell Foot,,,,,,,0,UKOS,338101,487224,-2.95211552566,54.27689616626,FER,,,,,,146,2005-10-10T00:00:00,2012-03-13T14:44:00,3,revise,active
9300FEL1,,,,Fell Foot Country Park Ferry Landing,,,,,,Off A592,,,,Pier,,,E0006217,Fell Foot,,,,,,,0,UKOS,338102,487220,-2.9520993416,54.27686034357,FBT,,,,,,146,2011-10-10T14:48:00,2012-03-13T14:44:00,2,revise,active
9300FEO,,,,Feolin Jura Ferry Terminal,,,,,,Ferry Terminal,,,,,,,N0077281,Jura,,,,,,,0,UKOS,144040,669100,-6.09063768218,55.84697695355,FER,,,,,,146,2005-10-10T00:00:00,2007-09-26T14:00:00,2,revise,active
9300FES,,,,Festival Pier,,,,,,Off Belvedere Road,,,,,,,N0077743,South Bank,London,,,,,,0,UKOS,530763,180320,-0.11724843869,51.50669238384,FER,,,,,,146,2005-10-10T00:00:00,2011-11-07T15:17:00,3,revise,active
9300FES1,,,,Festival Pier,,,,,,Off Belvedere Road,,,,Quay,,,N0077743,South Bank,London,,,,,,0,UKOS,530727,180352,-0.11775500501,51.50698827615,FBT,,,,,,146,2010-12-03T18:22:00,2011-11-10T15:42:00,3,revise,active
9300FET,,,,Folkestone Eurotunnel Terminal,,,,,,Newington area,,,,,,,N0078001,Eurotunnel Terminal,,,,,,,0,UKOS,618440,137662,1.11836898157,51.09664031141,FER,,,,,,146,2006-06-28T00:00:00,2007-09-26T14:00:00,2,revise,active
9300FET1,,,,Folkestone Eurotunnel Terminal,,,,,,Newington area,,,,Quay,,,N0078001,Eurotunnel Terminal,,,,,,,0,UKOS,618432,137659,1.11825309385,51.09661642012,FBT,,,,,,146,2013-10-22T10:48:00,2013-10-22T14:41:00,1,revise,active
9300FIB,,,,Fishnish Ferry Terminal,,,,,,A884,,,,,,,N0076386,Fishnish,,,,,,,0,UKOS,165685,742360,-5.81033992518,56.51474163074,FER,,,,,,146,2005-10-10T00:00:00,2007-09-26T14:00:00,2,revise,active
9300FIE,,,,Fair Isle Shetland Ferry Terminal,,,,,,Main Road,,,,,,,ES001334,Fair Isle,,,,,,,0,UKOS,422524,1072506,-1.60350218645,59.53786592583,FER,,,,,,146,2005-10-10T00:00:00,2007-09-26T14:00:00,2,revise,active
9300FIO,,,,Fionnphort Mull Ferry Terminal,,,,,,End A849 (west),,,,,,,N0068433,Fionnphort,,,,,,,0,UKOS,129977,723382,-6.36940347443,56.32561296175,FER,,,,,,146,2005-10-10T00:00:00,2007-09-26T14:00:00,2,revise,active
9300FIS,,,,Fishguard Ferry Terminal,,,,,,Terminal Road,,,,,,,E0055082,Fishguard,,,,,,,0,UKOS,194613,238234,-4.99372344614,52.00444825955,FER,,,,,,146,2005-10-10T00:00:00,2007-09-26T14:00:00,3,revise,active
9300FLE,,,,Fleetwood for Knott End Ferry Landing,,,,,,Off Queens Terrace,,,,,,,E0016552,Fleetwood,,,,,,,0,UKOS,334050,448415,-3.00584105165,53.9276473559,FER,,,,,,146,2005-10-10T00:00:00,2007-09-26T14:00:00,2,revise,active
9300FLH,,,,Flotta Orkney Ferry Terminal,,,,,,B9045,,,,,,,ES001403,Flotta,,,,,,,0,UKOS,334975,995063,-3.12825160646,58.8380886891,FER,,,,,,146,2005-10-10T00:00:00,2007-09-26T14:00:00,2,revise,active
9300FLU,,,,Flushing Falmouth Ferry Landing,,,,,,Trefusis Road,,,,,,,E0002818,Flushing,,,,,,,0,UKOS,180798,33735,-5.07052476896,50.1630361625,FER,,,,,,146,2005-10-10T00:00:00,2007-09-26T14:00:00,2,revise,active
9300FLU1,,,,Flushing Falmouth Ferry Landing,,,,,,Trefusis Road,,,,Quay,,,E0002818,Flushing,,,,,,,0,UKOS,180796,33728,-5.07054869821,50.16297255835,FBT,,,,,,146,2013-10-22T10:47:00,2013-10-22T14:40:00,1,revise,active
9300FOA,,,,Foula Shetland Ferry Terminal,,,,,,Pier Road,,,,,,,ES003745,Foula,,,,,,,0,UKOS,397421,1138791,-2.0482275224,60.13364456394,FER,,,,,,146,2005-10-10T00:00:00,2009-03-23T12:58:00,3,revise,active
9300FOY,,,,Fowey Ferry Landing,,,,,,The Esplanade,,,,,,,E0044638,Fowey,,,,,,,0,UKOS,212415,51460,-4.63715350003,50.33313163926,FER,,,,,,146,2005-10-10T00:00:00,2007-09-26T14:00:00,2,revise,active
9300FOY1,,,,Fowey Ferry Landing,,,,,,The Esplanade,,,,Quay,,,E0044638,Fowey,,,,,,,0,UKOS,212420,51465,-4.6370858112,50.33317815066,FBT,,,,,,146,2013-10-22T10:49:00,2013-10-22T14:42:00,1,revise,active
9300FSB,,,,Fishbourne IOW Ferry Terminal,,,,,,Fishbourne Lane,,,,,,,E0038865,Fishbourne,Wootton,,,,,,0,UKOS,455623,92836,-1.21321281813,50.73248683817,FER,,,,,,146,2005-10-10T00:00:00,2008-08-12T17:11:00,5,revise,active
9300FSB1,,,,Fishbourne IOW Ferry Terminal,,,,,,Fishbourne Lane,,,,jetty,,,E0038865,Fishbourne,Wootton,,,,,,0,UKOS,455664,93082,-1.21259485261,50.73469490132,FBT,,,,,,146,2011-07-13T10:07:00,2011-07-13T11:48:00,1,revise,active
9300FTQ,,,,Fowey Town Quay Ferry Landing,,,,,,Town Quay,,,,,,,E0044638,Fowey,,,,,,,0,UKOS,212615,51677,-4.63445429628,50.33514478983,FER,,,,,,146,2006-11-27T00:00:00,2008-10-06T17:16:00,3,revise,active
9300FTQ1,,,,Fowey Town Quay Ferry Landing,,,,,,Town Quay,,,,Quay,,,E0044638,Fowey,,,,,,,0,UKOS,212636,51671,-4.63415655627,50.33509756982,FBT,,,,,,146,2013-10-22T11:01:00,2013-10-22T14:43:00,1,revise,active
9300FWD,,,,Fleetwood for Ireland Ferry Terminal,,,,,,Off Queens Terrace,,,,,,,E0016552,Fleetwood,,,,,,,0,UKOS,334134,448221,-3.0045201561,53.92591470676,FER,,,,,,146,2005-10-10T00:00:00,2011-02-07T14:54:00,4,delete,inactive
9300FWL,,,,Fort William Ferry Landing,,,,,,A82,,,,,,,ES001435,Fort William,,,,,,,0,UKOS,209978,773820,-5.11491656598,56.81693536488,FER,,,,,,146,2005-10-10T00:00:00,2009-07-13T15:59:00,3,revise,active
9300FXF,,,,Felixstowe for Bawdsey Ferry Landing,,,,,,End Of Ferry Road West,,,,,,,E0025137,Felixstowe Ferry,Felixstowe,,,,,,0,UKOS,632920,237755,1.39099979281,51.98937679373,FER,,,,,,146,2005-10-10T00:00:00,2007-09-26T14:00:00,2,revise,active
9300FXF1,,,,Felixstowe for Bawdsey Ferry Landing,,,,,,Ferry Road West,,,,quay,,,E0025137,Felixstowe Ferry,Felixstowe,,,,,,0,UKOS,632953,237791,1.39150395188,51.98968606513,FBT,,,,,,146,2011-07-13T10:48:00,2011-07-13T11:48:00,1,revise,active
9300FXT,,,,Felixstowe for Harwich Ferry Landing,,,,,,View Point Road,,,,,,,N0077968,Felixstowe Dock,Felixstowe,,,,,,0,UKOS,628282,232020,1.31976366257,51.93982544553,FER,,,,,,146,2005-10-10T00:00:00,2011-08-22T14:11:00,4,revise,active
9300FXT1,,,,Felixstowe for Harwich Ferry Landing,,,,,,View Point Road,,,,quay,,,N0077968,Felixstowe Dock,Felixstowe,,,,,,0,UKOS,628313,232101,1.32026757691,51.94053976795,FBT,,,,,,146,2011-07-13T10:49:00,2011-07-13T11:50:00,1,revise,active
9300GAE,,,,Graemsay Orkney Ferry Terminal,,,,,,Ferry Terminal,,,,,,,ES001405,Graemsay,,,,,,,0,UKOS,327148,1005573,-3.26726228603,58.93119536883,FER,,,,,,146,2005-10-10T00:00:00,2007-11-19T17:30:00,3,revise,active
9300GAL,,,,Eigg Ferry Terminal,,,,,,Off the Main Street,,,,,,,N0076376,Eigg,,,,,,,0,UKOS,148467,783805,-6.12996506535,56.87722472925,FER,,,,,,146,2005-10-10T00:00:00,2007-09-26T14:00:00,2,revise,active
9300GAL0,,,,Eigg Ferry Terminal,,,,,,Off the Main Street,,,,Quay,,,N0076376,Eigg,,,,,,,0,UKOS,148506,783803,-6.12932487567,56.87722794056,FBT,,,,,,146,2013-03-15T11:06:00,2014-08-26T15:50:00,1,revise,active
9300GAS,,,,Gas ferry North,,,,,,,,,,,,,E0057160,Bristol,,,,,,,0,UKOS,357945,172469,-2.60657678269,51.44963629916,FER,,,,,,146,2017-01-17T13:36:12,2017-01-17T13:36:12,0,new,active
9300GAS1,,,,Gas ferry North,,,,,,,,,,Pier,,,E0057160,Bristol,,,,,,,0,UKOS,357936,172475,-2.60670700342,51.44968957502,FBT,,,,,,146,2017-01-17T13:36:12,2017-01-17T13:36:12,0,new,active
9300GCH,,,,Greenock Custom House Quay Ferry Terminal,,,,,,Dalrymple Street,,,,,,,ES001670,Greenock,,,,,,,0,UKOS,228333,676259,-4.75073555556,55.94860925919,FER,,,,,,146,2006-08-08T00:00:00,2007-09-26T14:00:00,2,revise,active
9300GIL,,,,Gills Bay Ferry Terminal,,,,,,Off A836,,,,,,,N0067852,Gills,,,,,,,0,UKOS,332663,972952,-3.16165674902,58.63920038641,FER,,,,,,146,2005-10-10T00:00:00,2008-04-24T17:23:00,3,revise,active
9300GLC,,,,Gairloch Ferry Landing,,,,,,Pier Road,,,,,,,ES001464,Gairloch,,,,,,,0,UKOS,180596,874973,-5.68484913007,57.7108148563,FER,,,,,,146,2011-03-31T15:16:00,2011-03-31T15:19:00,1,revise,active
9300GLC1,,,,Gairloch Ferry Landing,,,,,,Pier Road,,,,Pier,,,ES001464,Gairloch,,,,,,,0,UKOS,180596,874974,-5.68485004192,57.71082381992,FBT,,,,,,146,2011-03-31T15:18:00,2011-03-31T15:19:00,1,revise,active
9300GLE,,,,Glenelg Isle of Skye Ferry Terminal,,,,,,Pier,,,,,,,ES001601,Glenelg,,,,,,,0,UKOS,179450,821302,-5.65561969731,57.22914657089,FER,,,,,,146,2005-10-10T00:00:00,2007-09-26T14:00:00,2,revise,active
9300GLP,,,,Greenland Surrey Quays Pier,,,,,,Rope Street,,,,,,,N0077723,Surrey Quays,London,,,,,,0,UKOS,536662,179139,-0.03276046382,51.49468528125,FER,,,,,,146,2005-10-10T00:00:00,2017-12-06T18:04:46,5,revise,active
9300GLP0,,,,Greenland Surrey Quays Pier,,,,,,Rope Street,,,,Quay,,,N0077723,Surrey Quays,London,,,,,,0,UKOS,536727,179146,-0.03182201581,51.49473248267,FBT,,,,,,146,2010-12-03T18:23:00,2017-12-06T18:04:46,5,revise,active
9300GLP1,,,,Greenland Surrey Quays Pier,,,,,,Rope Street,,,,Quay,,,N0077723,Surrey Quays,London,,,,,,0,UKOS,536722,179140,-0.03189631818,51.49467977379,FBT,,,,,,146,2016-03-11T14:30:00,2017-12-06T18:04:46,2,revise,active
9300GLR,,,,Glenridding Ullswater Ferry Landing,,,,,,Off A592,,,,,,,E0005854,Glenridding,,,,,,,0,UKOS,339034,516920,-2.94390018488,54.54385139184,FER,,,,,,146,2005-10-10T00:00:00,2007-09-26T14:00:00,2,revise,active
9300GLR1,,,,Glenridding Ullswater Ferry Terminal,,,,,,,,,,Pier,,,E0005854,Glenridding,,,,,,,0,UKOS,339033,516889,-2.94390920843,54.54357271721,FBT,,,,,,146,2017-05-11T00:00:00,2017-05-11T00:00:00,0,new,active
9300GLW,,,,Glasgow Central Station Bridge Ferry Landing,,,,,,A77,,,,,,,ES003921,Glasgow,,,,,,,0,UKOS,258724,664856,-4.25855173912,55.85613533407,FER,,,,,,146,2005-10-10T00:00:00,2007-09-26T14:00:00,2,revise,active
9300GNQ,,,,Glasgow Science Centre North Quay,,,,,,Pointhouse Road,,,,,,,N0076056,Cessnock,Glasgow,,,,,,0,UKOS,256471,665202,-4.29469592461,55.85857603781,FER,,,,,,146,2006-08-08T00:00:00,2007-09-26T14:00:00,1,revise,active
9300GNW,,,,Greenwich Pier,,,,,,King William Walk,,,,,,,E0034328,Greenwich,London,,,,,,0,UKOS,538299,177952,-0.00965910988,51.48362112572,FER,,,,,,146,2005-10-10T00:00:00,2010-12-06T16:59:00,2,revise,active
9300GNW1,,,,Greenwich Pier,,,,,,King William Walk,,,,Quay,,,E0034328,Greenwich,London,,,,,,0,UKOS,538315,177998,-0.00941083168,51.48403057527,FBT,,,,,,146,2010-12-03T18:24:00,2010-12-14T13:58:00,2,revise,active
9300GNW2,,,,Greenwich Pier,,,,,,King William Walk,,,,Quay,,,E0034328,Greenwich,London,,,,,,0,UKOS,538312,177996,-0.00945479162,51.48401333616,FBT,,,,,,146,2017-09-28T00:00:00,2017-09-28T00:00:00,0,new,active
9300GOS,,,,Gosport Ferry Terminal,,,,,,Off The Esplanade,,,,,,,E0057430,Gosport,,,,,,,0,UKOS,462263,99845,-1.1179545768,50.79483602138,FER,,,,,,146,2005-10-10T00:00:00,2011-01-19T16:42:00,6,revise,active
9300GOS1,,,,Gosport Ferry Terminal,,,,,,The Esplanade,,,,Quay,,,E0057430,Gosport,,,,,,,0,UKOS,462392,99848,-1.11612399657,50.79484914811,FBT,,,,,,146,2011-01-19T16:40:00,2011-07-13T13:40:00,2,revise,active
9300GOV,,,,Govan Ferry Landing,,,,,,Water Row,,,,,,,ES001639,Govan,Glasgow,,,,,,0,UKOS,255533,665859,-4.31001863511,55.86419407475,FER,,,,,,146,2011-03-18T14:24:00,2011-03-18T14:30:00,1,revise,active
9300GOV1,,,,Govan Ferry Landing,,,,,,Water Row,,,,Pier,,,ES001639,Govan,Glasgow,,,,,,0,UKOS,255533,665860,-4.31001916821,55.86420305231,FBT,,,,,,146,2011-03-18T14:25:00,2011-03-18T14:30:00,1,revise,active
9300GRE,,,,Greenway House Ferry Landing,,,,,,End of Greenway Road,,,,,,,E0008331,Lower Dittisham,,,,,,,0,UKOS,286950,54805,-3.59141988096,50.38223942978,FER,,,,,,146,2005-10-10T00:00:00,2007-09-26T14:00:00,2,revise,active
9300GRE1,,,,Greenway House Ferry Landing,,,,,,End of Greenway Road,,,,Quay,,,E0008331,Lower Dittisham,,,,,,,0,UKOS,286940,54807,-3.59156107686,50.38225548491,FBT,,,,,,146,2013-10-22T11:02:00,2013-10-22T14:43:00,1,revise,active
9300GUR,,,,Gourock Ferry Terminal,,,,,,A771 Tarbert Street,,,,,,,ES001638,Gourock,,,,,,,0,UKOS,224394,677764,-4.81471260823,55.96069153481,FER,,,,,,146,2005-10-10T00:00:00,2008-04-14T10:09:00,3,revise,active
9300GUT,,,,Gutcher Shetland Ferry Terminal,,,,,,A968 North Road,,,,,,,N0067519,Gutcher,Yell,,,,,,0,UKOS,454937,1199271,-0.99642594513,60.67291243768,FER,,,,,,146,2005-10-10T00:00:00,2008-10-06T17:17:00,3,revise,active
9300GVH,,,,Greenock - Victoria Harbour,,,,,,Greenock,,,,,,,ES001670,Greenock,,,,,,,0,UKOS,228573,675813,-4.74661349512,55.94469235548,FER,,,,,,146,2008-06-16T13:52:00,2008-06-16T13:56:00,1,revise,active
9300GVN,,,,Girvan Harbour Ferry Terminal,,,,,,Henrietta St A77(T),,,,,,,ES001522,Girvan,,,,,,,0,UKOS,218266,598149,-4.86023412075,55.24395847392,FER,,,,,,146,2006-08-08T00:00:00,2007-09-26T14:00:00,2,revise,active
9300GVS,,,,Town Pier,,,,,,West Street,,,,,,,E0014875,Gravesend,,,,,,,0,UKOS,564779,174511,0.36977112526,51.44561986505,FER,,,,,,146,2005-10-10T00:00:00,2015-08-03T10:18:00,3,revise,active
9300GVS1,,,,Town Pier,,,,,,West Street,,,,berth,,,E0014875,Gravesend,,,,,,,0,UKOS,564846,174531,0.37074367317,51.44578006048,FBT,,,,,,146,2011-07-13T10:51:00,2015-07-30T16:52:00,2,revise,active
9300GWS,,,,West Street Pier,,,,,,West Street,,,,,,,E0014875,Gravesend,,,,,,,0,UKOS,564673,174511,0.36824719154,51.4456506703,FER,,,,,,146,2015-08-03T10:47:00,2015-08-03T10:49:00,1,revise,active
9300GWS1,,,,West Street Pier,,,,,,West Street,,,,Berth,,,E0014875,Gravesend,,,,,,,0,UKOS,564673,174531,0.36825648997,51.44583034752,FBT,,,,,,146,2015-07-30T16:54:00,2015-08-03T10:49:00,3,revise,active
9300HAM,,,,Hamble-le-Rice Ferry Landing,,,,,,The Quay off School Lane,,,,,,,E0012938,Warsash,,,,,,,0,UKOS,448491,106715,-1.3124336794,50.85792333475,FER,,,,,,146,2005-10-10T00:00:00,2010-10-01T11:37:00,3,revise,active
9300HAM1,,,,Hamble-le-Rice Ferry Landing,,,,,,The Quay off School Lane,,,,Quay,,,E0012938,Warsash,,,,,,,0,UKOS,448497,106714,-1.31234857319,50.85791384095,FBT,,,,,,146,2013-10-22T11:03:00,2013-10-22T14:43:00,1,revise,active
9300HAN,,,,Handa Island Ferry Landing,,,,,,Handa Island area,,,,,,,N0076505,Handa Island,,,,,,,0,UKOS,214790,947602,-5.16908918787,58.37756117434,FER,,,,,,146,2005-10-10T00:00:00,2007-09-26T14:00:00,2,revise,active
9300HCP,,,,Hampton Court Pier,,,,,,Off Hampton Court Way,,,,,,,E0034760,Hampton Court,London,,,,,,0,UKOS,515447,168514,-0.34167768058,51.40391637878,FER,,,,,,146,2005-10-10T00:00:00,2007-09-26T14:00:00,1,revise,active
9300HCP1,,,,Hampton Court Pier,,,,,,Off Hampton Court Way,,,,Quay,,,E0034760,Hampton Court,London,,,,,,0,UKOS,515454,168507,-0.34157936696,51.40385204048,FBT,,,,,,146,2010-12-03T18:26:00,2010-12-14T13:58:00,2,revise,active
9300HEL,,,,Helensburgh Ferry Terminal,,,,,,A814 West Clyde Street,,,,,,,ES001745,Helensburgh,,,,,,,0,UKOS,229470,682140,-4.73627667544,56.00179303483,FER,,,,,,146,2005-10-10T00:00:00,2007-09-26T14:00:00,2,revise,active
9300HEP,,,,Helford Passage Ferry Landing,,,,,,Hill Grove Road,,,,,,,E0003208,Helford Passage,,,,,,,0,UKOS,176350,26880,-5.12868572519,50.099815125,FER,,,,,,146,2005-10-10T00:00:00,2007-09-26T14:00:00,2,revise,active
9300HEP1,,,,Helford Passage Ferry Landing,,,,,,Hill Grove Road,,,,Quay,,,E0003208,Helford Passage,,,,,,,0,UKOS,176350,26879,-5.12868513971,50.09980614478,FBT,,,,,,146,2013-10-22T11:07:00,2013-10-22T14:46:00,1,revise,active
9300HIE,,,,Hayling Island Ferry Landing,,,,,,Ferry Road,,,,,,,E0013042,Hayling Island,,,,,,,0,UKOS,468802,100083,-1.02514576382,50.79623784979,FER,,,,,,146,2005-10-10T00:00:00,2007-09-26T14:00:00,2,revise,active
9300HIE1,,,,Hayling Island Ferry Landing,,,,,,Ferry Road,,,,Quay,,,E0013042,Hayling Island,,,,,,,0,UKOS,468805,100063,-1.02510694418,50.79605766921,FBT,,,,,,146,2013-10-22T11:06:00,2013-10-22T14:46:00,1,revise,active
9300HIG,,,,High Brandelhow Ferry Landing,,,,,,High Brandelow area,,,,,,,N0065055,Brandelhow,,,,,,,0,UKOS,325176,519770,-3.15879328748,54.56759742808,FER,,,,,,146,2005-10-10T00:00:00,2011-10-10T14:51:00,4,revise,active
9300HIG1,,,,High Brandelhow Ferry Landing,,,,,,High Brandelow area,,,,Pier,,,N0065055,Brandelhow,,,,,,,0,UKOS,325185,519774,-3.15865513842,54.56763470089,FBT,,,,,,146,2011-10-10T14:50:00,2011-10-10T15:25:00,1,revise,active
9300HIW,,,,Eastney Ferry Landing,,,,,,Ferry Road,,,,,,,E0040720,Eastney,Portsmouth,,,,,,0,UKOS,468474,100123,-1.02979154824,50.79663628316,FER,,,,,,146,2005-10-10T00:00:00,2007-09-26T14:00:00,2,revise,active
9300HIW1,,,,Eastney Ferry Landing,,,,,,Ferry Road,,,,Quay,,,E0040720,Eastney,Portsmouth,,,,,,0,UKOS,468462,100111,-1.02996402289,50.7965298034,FBT,,,,,,146,2013-10-22T10:43:00,2013-10-22T14:39:00,1,revise,active
9300HLF,,,,Helford Village Ferry Landing,,,,,,Off Orchard Lane,,,,,,,E0003208,Helford Passage,,,,,,,0,UKOS,175920,26387,-5.13439981506,50.09522581078,FER,,,,,,146,2005-10-10T00:00:00,2007-09-26T14:00:00,2,revise,active
9300HLF1,,,,Helford Village Ferry Landing,,,,,,Off Orchard Lane,,,,Quay,,,E0003208,Helford Passage,,,,,,,0,UKOS,175943,26434,-5.13410630285,50.09565655546,FBT,,,,,,146,2013-10-22T11:08:00,2013-10-22T14:47:00,1,revise,active
9300HLI,,,,Holy Island Arran Ferry Landing,,,,,,Jetty,,,,,,,ES002263,Lamlash,,,,,,,0,UKOS,205128,630974,-5.08947475491,55.53346966135,FER,,,,,,146,2005-10-10T00:00:00,2007-09-26T14:00:00,2,revise,active
9300HLY,,,,Holyhead Ferry Terminal,,,,,,A55 Victoria Road,,,,,,,E0054333,Holyhead,,,,,,,0,UKOS,224935,382397,-4.62908733206,53.30949740856,FER,,,,,,146,2005-10-10T00:00:00,2007-09-26T14:00:00,2,revise,active
9300HMP,,,,Hampton Ferry Landing,,,,,,Thames Street,,,,,,,E0034759,Hampton,London,,,,,,0,UKOS,514016,169435,-0.36194543205,51.41248343143,FER,,,,,,146,2010-02-10T15:21:00,2010-02-10T15:21:00,1,revise,active
9300HMP1,,,,Hampton Ferry Landing,,,,,,Thames Street,,,,Quay,,,E0034759,Hampton,London,,,,,,0,UKOS,514022,169431,-0.3618604805,51.41244627447,FBT,,,,,,146,2010-12-03T18:27:00,2010-12-14T13:59:00,2,revise,active
9300HMS,,,,Hammersmith Pier,,,,,,,,,,,,,N0060449,Hammersmith,London,,,,,,,,523090,177985,-0.22856265371,51.48742914566,FER,,,,,,146,2021-05-13T14:05:09,2023-01-26T12:47:09,1,delete,inactive
9300HMS1,,,,Hammersmith Pier,,,,,,,,,,Pier,,,N0060449,Hammersmith,London,,,,,,,,523092,177987,-0.22853316648,51.48744668512,FBT,,,,,,146,2021-05-13T14:05:09,2023-01-26T12:47:09,1,delete,inactive
9300HNV,,,,Hannover Quay,,,,,,,,,,,,,E0057160,Bristol,,,,,,,0,UKOS,357980,172437,-2.60606933946,51.44935119154,FER,,,,,,146,2017-01-17T13:36:12,2017-01-17T13:36:12,0,new,active
9300HNV1,,,,Hannover Quay,,,,,,,,,,Pier,,,E0057160,Bristol,,,,,,,0,UKOS,357996,172421,-2.60583720426,51.44920852532,FBT,,,,,,146,2017-01-17T13:36:12,2017-01-17T13:36:12,0,new,active
9300HOO,,,,Kingswear Hoodown Ferry Terminal,,,,,,A379 Brixham Road,,,,,,,E0045439,Kingswear,Dartmouth,,,,,,0,UKOS,288180,52275,-3.57337407916,50.35973059032,FER,,,,,,146,2005-10-10T00:00:00,2010-11-08T15:50:00,3,revise,active
9300HOO1,,,,Kingswear Hoodown Ferry Terminal,,,,,,A379 Brixham Road,,,,Quay,,,E0045439,Kingswear,Dartmouth,,,,,,0,UKOS,288173,52267,-3.57347007078,50.35965734033,FBT,,,,,,146,2013-10-22T11:13:00,2013-10-22T14:50:00,1,revise,active
9300HOW,,,,Howtown Ullswater Ferry Landing,,,,,,Howtown area,,,,,,,E0005901,Howtown,,,,,,,0,UKOS,344314,519917,-2.86286340764,54.57139118849,FER,,,,,,146,2005-10-10T00:00:00,2007-09-26T14:00:00,2,revise,active
9300HOW1,,,,Howtown Ullswater Ferry Landing,,,,,,Howtown area,,,,Pier,,,E0005901,Howtown,,,,,,,0,UKOS,344303,519915,-2.86303315407,54.57137200343,FBT,,,,,,146,2011-10-10T14:52:00,2011-10-10T15:26:00,1,revise,active
9300HTN,,,,Houton Orkney Ferry Terminal,,,,,,Off A964 Houton,,,,,,,N0078258,Houton,Orphir,,,,,,0,UKOS,331920,1003927,-3.18388181563,58.91720210182,FER,,,,,,146,2005-10-10T00:00:00,2007-11-19T17:30:00,3,revise,active
9300HTW,,,,Harwich International Ferry Terminal,,,,,,A120 The Quay,,,,,,,N0077992,Harwich International Port,,,,,,,0,UKOS,623715,232705,1.25388265704,51.94782753888,FER,,,,,,146,2005-10-10T00:00:00,2008-09-15T15:41:00,5,revise,active
9300HUL,,,,Hull Ferry Terminal,,,,,,Off Hedon Road A1003,,,,,,,N0078368,Myton,Hull,,,,,,0,UKOS,513940,428870,-0.27381672145,53.74376611634,FER,,,,,,146,2005-10-10T00:00:00,2009-07-02T09:51:00,3,revise,active
9300HUN,,,,Dunoon Hunters Quay Ferry Terminal,,,,,,Marine Parade A815,,,,,,,N0068456,Hunters Quay,,,,,,,0,UKOS,218540,679110,-4.90926434929,55.97059337786,FER,,,,,,146,2005-10-10T00:00:00,2007-09-26T14:00:00,2,revise,active
9300HVN,,,,Shell Bay Ferry Terminal,,,,,,Ferry Road,,,,,,,E0045761,Studland,,,,,,,0,UKOS,403628,86703,-1.95001362612,50.67997660132,FER,,,,,,146,2005-10-10T00:00:00,2007-09-26T14:00:00,2,revise,active
9300HVN1,,,,Shell Bay Ferry Terminal,,,,,,Ferry Road,,,,Quay,,,E0045761,Studland,,,,,,,0,UKOS,403629,86717,-1.94999933943,50.6801024935,FBT,,,,,,146,2013-10-22T12:14:00,2013-10-22T15:41:00,1,revise,active
9300HWH,,,,Harwich Harbour Ferry Landing,,,,,,B1352 Stour Road,,,,,,,E0055830,Harwich,,,,,,,0,UKOS,625915,232860,1.28594018126,51.94833049126,FER,,,,,,146,2005-10-10T00:00:00,2007-09-26T14:00:00,2,revise,active
9300HWH1,,,,Harwich Harbour Ferry Landing,,,,,,Stour Road,,,,landing,,,E0055830,Harwich,,,,,,,0,UKOS,625885,232870,1.28551098435,51.94843242345,FBT,,,,,,146,2011-07-13T10:52:00,2011-07-13T11:53:00,1,revise,active
9300HYM,,,,Heysham Ferry Terminal,,,,,,Off Shore Road,,,,,,,E0015978,Heysham,Morecambe,,,,,,0,UKOS,340340,460133,-2.9123634522,54.03371579277,FER,,,,,,146,2005-10-10T00:00:00,2009-01-30T15:33:00,4,revise,active
9300HYT,,,,Hythe (Hants) Ferry Terminal,,,,,,The Promenade,,,,,,,E0013194,Hythe,,,,,,,0,UKOS,442366,108084,-1.39929099809,50.87071329931,FER,,,,,,146,2005-10-10T00:00:00,2008-03-28T13:59:00,4,revise,active
9300HYT1,,,,Hythe (Hants) Ferry Terminal,,,,,,The Promenade,,,,pier,,,E0013194,Hythe,,,,,,,0,UKOS,442513,108247,-1.39718315384,50.87216822071,FBT,,,,,,146,2011-07-13T10:54:00,2011-08-03T15:49:00,2,revise,active
9300ICM,,,,Inchmurrin Pier,,,,,,-,,,,,,,N0080475,Inchmurrin,,,,,,,0,UKOS,237794,686405,-4.6055266436,56.04296117613,FER,,,,,,146,2013-08-14T11:09:00,2013-08-14T11:12:00,1,revise,active
9300ICM1,,,,Inchmurrin Pier,,,,,,-,,,,Pier,,,N0080475,Inchmurrin,,,,,,,0,UKOS,237795,686405,-4.60551060897,56.04296151494,FBT,,,,,,146,2013-08-14T11:09:00,2013-08-14T11:12:00,1,revise,active
9300ILF,,,,Ilfracombe Ferry Landing,,,,,,The Quay on Chapstone Road,,,,,,,E0045375,Ilfracombe,,,,,,,0,UKOS,252620,147850,-4.11133645183,51.2107867452,FER,,,,,,146,2005-10-10T00:00:00,2007-09-26T14:00:00,2,revise,active
9300ILF1,,,,Ilfracombe Ferry Landing,,,,,,The Quay on Chapstone Road,,,,Quay,,,E0045375,Ilfracombe,,,,,,,0,UKOS,252632,147848,-4.1111639576,51.21077187241,FBT,,,,,,146,2013-10-22T11:10:00,2013-10-22T14:48:00,1,revise,active
9300ILN,,,,Inverness Loch Ness Ferry Landing,,,,,,Lochend Road End,,,,,,,N0067918,Lochend,,,,,,,0,UKOS,259807,837914,-4.3353523804,57.4099219312,FER,,,,,,146,2005-10-10T00:00:00,2007-09-26T14:00:00,2,revise,active
9300INC,,,,Inchcolm Island Ferry Landing,,,,,,Inchcolm Island area,,,,,,,N0071887,Inchcolm Island,,,,,,,0,UKOS,319136,682716,-3.29917154659,56.03048950611,FER,,,,,,146,2005-10-10T00:00:00,2014-06-20T13:14:00,3,revise,active
9300INP,,,,Inchcailloch North Pier,,,,,,-,,,,,,,N0080474,Inchcailloch,,,,,,,0,UKOS,241346,690666,-4.55109547085,56.08239687698,FER,,,,,,146,2013-08-14T11:02:00,2013-08-14T11:11:00,1,revise,active
9300INP1,,,,Inchcailloch North Pier,,,,,,-,,,,Pier,,,N0080474,Inchcailloch,,,,,,,0,UKOS,241347,690665,-4.55107882561,56.08238823322,FBT,,,,,,146,2013-08-14T11:05:00,2013-08-14T11:11:00,1,revise,active
9300INV,,,,Invergordon Port Ferry Terminal,,,,,,B817 Saltburn Road,,,,,,,ES001865,Invergordon,,,,,,,0,UKOS,270805,868285,-4.16857418054,57.68579264405,FER,,,,,,146,2005-10-10T00:00:00,2007-09-26T14:00:00,2,revise,active
9300INW,,,,Instow Ferry Landing,,,,,,Off B3233 Anstey Way,,,,,,,E0045376,Instow,,,,,,,0,UKOS,247155,130250,-4.18204591285,51.05120482245,FER,,,,,,146,2005-10-10T00:00:00,2007-09-26T14:00:00,2,revise,active
9300INW1,,,,Instow Ferry Landing,,,,,,Off B3233 Anstey Way,,,,Quay,,,E0045376,Instow,,,,,,,0,UKOS,247143,130246,-4.18221529616,51.05116568426,FBT,,,,,,146,2013-10-22T11:11:00,2013-10-22T14:49:00,1,revise,active
9300IOA,,,,Iona Ferry Terminal,,,,,,Baile Mor,,,,,,,N0077280,Iona,,,,,,,0,UKOS,128598,723985,-6.39225746477,56.33022697489,FER,,,,,,146,2005-10-10T00:00:00,2007-09-26T14:00:00,2,revise,active
9300IPB,,,,Inchcailloch Port Bawn Pier,,,,,,-,,,,,,,N0080474,Inchcailloch,,,,,,,0,UKOS,240612,689986,-4.56247193689,56.07604932109,FER,,,,,,146,2013-08-14T11:07:00,2013-08-14T11:11:00,1,revise,active
9300IPB1,,,,Inchcailloch Port Bawn Pier,,,,,,-,,,,Pier,,,N0080474,Inchcailloch,,,,,,,0,UKOS,240613,689985,-4.56245529193,56.07604067886,FBT,,,,,,146,2013-08-14T11:08:00,2013-08-14T11:11:00,1,revise,active
9300ITC,,,,West Itchenor Ferry Landing,,,,,,The Street,,,,,,,E0052144,West Itchenor,,,,,,,0,UKOS,479955,101460,-0.86662883089,50.80718899471,FER,,,,,,146,2005-10-10T00:00:00,2007-09-26T14:00:00,2,revise,active
9300ITC1,,,,West Itchenor Ferry Landing,,,,,,The Street,,,,Quay,,,E0052144,West Itchenor,,,,,,,0,UKOS,479959,101472,-0.86656946365,50.80729633272,FBT,,,,,,146,2013-10-22T12:48:00,2013-10-22T16:10:00,1,revise,active
9300IVB,,,,Inverbeg Pier,,,,,,-,,,,,,,N0068459,Inverbeg,,,,,,,0,UKOS,234661,697903,-4.66287826362,56.14508234868,FER,,,,,,146,2010-08-12T16:18:00,2010-08-12T16:27:00,1,revise,active
9300IVE,,,,Inverie Ferry Landing,,,,,,Pier,,,,,,,N0067872,Inverie,Knoydart,,,,,,0,UKOS,176638,799973,-5.68303665566,57.03658268007,FER,,,,,,146,2005-10-10T00:00:00,2007-09-26T14:00:00,2,revise,active
9300IVS,,,,Inversnaid Pier,,,,,,-,,,,,,,N0071785,Inversnaid,,,,,,,0,UKOS,233704,708824,-4.68510546489,56.242760637,FER,,,,,,146,2010-08-12T16:20:00,2010-08-12T16:28:00,1,revise,active
9300IVU,,,,Inveruglas Pier,,,,,,-,,,,,,,N0072709,Inveruglas,,,,,,,0,UKOS,232233,709852,-4.70946512456,56.25146912392,FER,,,,,,146,2010-08-12T16:19:00,2010-08-12T16:28:00,1,revise,active
9300IVY,,,,Inveraray Ferry Terminal,,,,,,Off Front Street,,,,,,,ES001853,Inveraray,,,,,,,0,UKOS,209794,708577,-5.07017754725,56.23157789368,FER,,,,,,146,2007-03-21T11:00:00,2007-09-26T14:00:00,1,revise,active
9300JOG,,,,John O Groats Ferry Terminal,,,,,,A99,,,,,,,N0067882,John o Groats,,,,,,,0,UKOS,337982,973417,-3.0701791407,58.64417031565,FER,,,,,,146,2005-10-10T00:00:00,2007-09-26T14:00:00,2,revise,active
9300KBR,,,,Kingsbridge Ferry Landing,,,,,,Off Promenade,,,,,,,E0045437,Kingsbridge,,,,,,,0,UKOS,273595,43875,-3.77550237299,50.2812689892,FER,,,,,,146,2005-10-10T00:00:00,2007-09-26T14:00:00,2,revise,active
9300KBR1,,,,Kingsbridge Ferry Landing,,,,,,Off Promenade,,,,Quay,,,E0045437,Kingsbridge,,,,,,,0,UKOS,273595,43866,-3.7754993622,50.28118808794,FBT,,,,,,146,2013-10-22T11:11:00,2013-10-22T14:49:00,1,revise,active
9300KEN,,,,Kennacraig Ferry Terminal,,,,,,A83 Kennacraig,,,,,,,N0072715,Kennacraig,,,,,,,0,UKOS,181805,662540,-5.48342135355,55.80670738461,FER,,,,,,146,2005-10-10T00:00:00,2007-09-26T14:00:00,2,revise,active
9300KEN0,,,,Kennacraig Ferry Terminal,,,,,,A83 Kennacraig,,,,Pier,,,N0072715,Kennacraig,,,,,,,0,UKOS,181749,662533,-5.48430750478,55.80661931394,FBT,,,,,,146,2013-03-15T10:19:00,2014-08-26T15:51:00,1,revise,active
9300KER,,,,Kerrera Ferry Landing,,,,,,Jetty,,,,,,,N0077282,Kerrera,,,,,,,0,UKOS,182958,728641,-5.51878961526,56.4000093657,FER,,,,,,146,2005-10-10T00:00:00,2007-09-26T14:00:00,2,revise,active
9300KES,,,,Keswick Ferry Landing,,,,,,Lake Road,,,,,,,E0055490,Keswick,,,,,,,0,UKOS,326398,522778,-3.1406520895,54.59480382155,FER,,,,,,146,2005-10-10T00:00:00,2011-10-10T14:54:00,3,revise,active
9300KES1,,,,Keswick Ferry Landing,,,,,,Lake Road,,,,Pier,,,E0055490,Keswick,,,,,,,0,UKOS,326395,522778,-3.14069851023,54.594803384,FBT,,,,,,146,2011-10-10T14:53:00,2011-10-10T15:26:00,1,revise,active
9300KEW,,,,Kew Pier,,,,,,Kew Pier. Waterloo Road,,,,,,,N0060460,Kew,London,,,,,,0,UKOS,519075,177777,-0.28643132161,51.48641859246,FER,,,,,,146,2006-02-15T00:00:00,2010-12-06T16:59:00,3,revise,active
9300KEW1,,,,Kew Pier,,,,,,Kew Pier. Waterloo Road,,,,Quay,,,N0060460,Kew,London,,,,,,0,UKOS,519064,177800,-0.28658192287,51.48662761778,FBT,,,,,,146,2010-12-03T18:28:00,2010-12-14T13:59:00,2,revise,active
9300KEW2,,,,Kew Pier,,,,,,Kew Pier. Waterloo Road,,,,Quay,,,N0060460,Kew,London,,,,,,0,UKOS,519060,177802,-0.28663883109,51.48664643401,FBT,,,,,,146,2016-03-11T14:35:00,2016-03-11T14:36:00,1,revise,active
9300KGH,,,,Philleigh King Harry Ferry Landing,,,,,,B3289,,,,,,,E0044491,Feock,,,,,,,0,UKOS,184305,39573,-5.02480763993,50.21675406715,FER,,,,,,146,2005-10-10T00:00:00,2007-09-26T14:00:00,2,revise,active
9300KGH1,,,,Philleigh King Harry Ferry Landing,,,,,,B3289,,,,Quay,,,E0044491,Feock,,,,,,,0,UKOS,184282,39578,-5.02513240325,50.21679058265,FBT,,,,,,146,2013-10-22T11:43:00,2013-10-22T15:24:00,1,revise,active
9300KGL,,,,King's Lynn Ferry Landing,,,,,,Ferry Street,,,,,,,E0017902,Kings Lynn,,,,,,,0,UKOS,561509,320187,0.39177706275,52.7551580421,FER,,,,,,146,2005-10-10T00:00:00,2011-03-24T16:28:00,3,revise,active
9300KGL1,,,,King's Lynn Ferry Landing,,,,,,Ferry Street,,,,quay,,,E0017902,Kings Lynn,,,,,,,0,UKOS,561502,320187,0.39167343623,52.75516013232,FBT,,,,,,146,2011-07-13T10:56:00,2011-07-13T11:58:00,1,revise,active
9300KGN,,,,Kilcreggan Ferry Terminal,,,,,,B833 Shore Road,,,,,,,ES001981,Kilcreggan,,,,,,,0,UKOS,224145,680450,-4.82045069133,55.98470413457,FER,,,,,,146,2005-10-10T00:00:00,2007-09-26T14:00:00,2,revise,active
9300KGT,,,,Kingston Turks Pier,,,,,,Thames Side,,,,,,,N0060498,Kingston Upon Thames,London,,,,,,0,UKOS,517770,169505,-0.30796807832,51.41234607074,FER,,,,,,146,2005-10-10T00:00:00,2010-07-29T14:18:00,3,revise,active
9300KGT1,,,,Kingston Turks Pier,,,,,,Thames Side,,,,Quay,,,N0060498,Kingston Upon Thames,London,,,,,,0,UKOS,517770,169521,-0.30796276942,51.41248987354,FBT,,,,,,146,2010-12-03T18:29:00,2010-12-14T13:59:00,2,revise,active
9300KGT2,,,,Kingston Turks Pier,,,,,,Thames Side,,,,Quay,,,N0060498,Kingston Upon Thames,London,,,,,,0,UKOS,517765,169521,-0.30803463122,51.41249091099,FBT,,,,,,146,2016-03-11T14:47:00,2016-03-11T14:48:00,1,revise,active
9300KIN,,,,Kingswear Dartmouth Lower Ferry Terminal,,,,,,Priory Street,,,,,,,E0045439,Kingswear,Dartmouth,,,,,,0,UKOS,288156,51038,-3.57334363674,50.34860558901,FER,,,,,,146,2006-07-03T00:00:00,2007-09-26T14:00:00,2,revise,active
9300KIN1,,,,Kingswear Dartmouth Lower Ferry Terminal,,,,,,Priory Street,,,,Quay,,,E0045439,Kingswear,Dartmouth,,,,,,0,UKOS,288140,51037,-3.5735681329,50.34859355659,FBT,,,,,,146,2013-10-22T11:12:00,2013-10-22T14:50:00,1,revise,active
9300KLB,,,,Kilchoan Ferry Terminal,,,,,,B8007 (south) Pier Road,,,,,,,N0067886,Kilchoan,,,,,,,0,UKOS,149402,762695,-6.09397586223,56.68857474703,FER,,,,,,146,2005-10-10T00:00:00,2007-09-26T14:00:00,2,revise,active
9300KLH,,,,Rum Ferry Terminal,,,,,,Main Street,,,,,,,N0076374,Kinloch,Rum,,,,,,0,UKOS,141175,799170,-6.2649910059,57.01086387935,FER,,,,,,146,2005-10-10T00:00:00,2013-11-25T15:20:00,3,revise,active
9300KLH0,,,,Rum Ferry Terminal,,,,,,Main Street,,,,Pier,,,N0076374,Kinloch,Rum,,,,,,0,UKOS,140703,799201,-6.27277315531,57.01087683906,FBT,,,,,,146,2013-03-15T11:10:00,2014-08-26T15:52:00,1,revise,active
9300KNO,,,,Knott End-On-Sea Ferry Landing,,,,,,B527 Esplanade,,,,,,,E0016564,Knott End on Sea,,,,,,,0,UKOS,334635,448497,-2.99695113107,53.92845853133,FER,,,,,,146,2005-10-10T00:00:00,2007-09-26T14:00:00,2,revise,active
9300KOL,,,,Kyle of Lochalsh Ferry Terminal,,,,,,Slipway Road,,,,,,,ES002246,Kyle of Lochalsh,,,,,,,0,UKOS,176274,827109,-5.71335312548,57.27965999567,FER,,,,,,146,2007-03-21T11:00:00,2007-09-26T14:00:00,1,revise,active
9300KRS,,,,Kinross Ferry Landing,,,,,,Kirkgate,,,,,,,ES002134,Kinross,,,,,,,0,UKOS,312751,701730,-3.40781945501,56.20014814491,FER,,,,,,146,2008-06-17T16:02:00,2008-06-17T16:16:00,3,revise,active
9300KSM,,,,Kisimul Castle Ferry Landing,,,,,,-,,,,,,,ES000667,Castlebay,,,,,,,0,UKOS,66545,797964,-7.48701625584,56.95228320647,FER,,,,,,146,2014-02-10T11:41:00,2014-02-24T10:18:00,3,revise,active
9300KSM1,,,,Kisimul Castle Ferry Landing,,,,,,-,,,,Quay,,,ES000667,Castlebay,,,,,,,0,UKOS,66546,797965,-7.487001209,56.9522928686,FBT,,,,,,146,2014-02-10T11:42:00,2014-02-10T11:44:00,1,revise,active
9300KUT,,,,Kingston Town End Pier,,,,,,A307 High Street,,,,,,,N0060498,Kingston Upon Thames,London,,,,,,0,UKOS,517758,168740,-0.30839430081,51.40547298395,FER,,,,,,146,2005-10-10T00:00:00,2010-12-06T17:00:00,4,revise,active
9300KUT1,,,,Kingston Town End Pier,,,,,,A307 High Street,,,,Quay,,,N0060498,Kingston Upon Thames,London,,,,,,0,UKOS,517747,168746,-0.30855038297,51.4055291916,FBT,,,,,,146,2010-12-03T18:30:00,2010-12-14T13:59:00,2,revise,active
9300KUT2,,,,Kingston Town End Pier,,,,,,A307 High Street,,,,Quay,,,N0060498,Kingston Upon Thames,London,,,,,,0,UKOS,517742,168746,-0.30862223388,51.40553022859,FBT,,,,,,146,2016-03-11T14:44:00,2016-03-11T14:45:00,1,revise,active
9300KWH,,,,Kirkwall Orkney Hatston Ferry Terminal,,,,,,Pier,,,,,,,N0078255,Hatston,Kirkwall,,,,,,0,UKOS,344136,1012938,-2.97408040449,58.99988093188,FER,,,,,,146,2005-10-10T00:00:00,2007-11-19T17:30:00,3,revise,active
9300KWL,,,,Kirkwall Orkney Ferry Terminal,,,,,,A965 Ayre Road,,,,,,,ES002219,Kirkwall,,,,,,,0,UKOS,344903,1011435,-2.96035662079,58.98648501639,FER,,,,,,146,2005-10-10T00:00:00,2007-09-26T14:00:00,2,revise,active
9300KWS,,,,Kirkwall Shapinsay Ferry Terminal,,,,,,-,,,,,,,ES002219,Kirkwall,,,,,,,0,UKOS,344895,1011305,-2.96046328649,58.98531669639,FER,,,,,,146,2011-07-12T15:49:00,2011-07-12T15:51:00,1,revise,active
9300KWS1,,,,Kirkwall Shapinsay Ferry Terminal,,,,,,-,,,,Pier,,,ES002219,Kirkwall,,,,,,,0,UKOS,344896,1011307,-2.96044639112,58.98533478371,FBT,,,,,,146,2011-07-12T15:50:00,2011-07-12T15:51:00,1,revise,active
9300KYL,,,,Kylerhea Isle of Skye Ferry Terminal,,,,,,Pier,,,,,,,N0078881,Kylerhea,,,,,,,0,UKOS,178915,821183,-5.66435681852,57.22782181708,FER,,,,,,146,2005-10-10T00:00:00,2010-07-13T15:19:00,3,revise,active
9300LAG,,,,Laga Ferry Landing,,,,,,B8007,,,,,,,N0077519,Laga,,,,,,,0,UKOS,163255,760872,-5.86667429469,56.67945635551,FER,,,,,,146,2005-10-10T00:00:00,2008-04-24T17:26:00,3,revise,active
9300LAK,,,,Lakeside Windermere Ferry Landing,,,,,,Pier,,,,,,,E0006318,Lakeside,,,,,,,0,UKOS,337898,487344,-2.95525756993,54.27794982534,FER,,,,,,146,2005-10-10T00:00:00,2007-09-26T14:00:00,2,new,active
9300LAK1,,,,Lakeside Windermere Ferry Landing,,,,,,Pier,,,,Pier,,,E0006318,Lakeside,,,,,,,0,UKOS,337895,487334,-2.95530155721,54.27785960049,FBT,,,,,,146,2011-10-10T15:02:00,2011-10-10T15:27:00,1,revise,active
9300LAM,,,,Lamlash Arran Ferry Landing,,,,,,A841,,,,,,,ES002263,Lamlash,,,,,,,0,UKOS,202938,631217,-5.12429275769,55.53477051425,FER,,,,,,146,2005-10-10T00:00:00,2007-09-26T14:00:00,2,revise,active
9300LAX,,,,Laxo Shetland Ferry Terminal,,,,,,Off B9071,,,,,,,N0078616,Laxo,,,,,,,0,UKOS,445887,1163412,-1.17029857584,60.35213176986,FER,,,,,,146,2005-10-10T00:00:00,2014-08-04T14:26:00,4,revise,active
9300LBH,,,,Low Brandelhow (Derwentwater) Ferry Landing,,,,,,-,,,,,,,N0065055,Brandelhow,,,,,,,0,UKOS,325271,520715,-3.15756493421,54.57610227403,FER,,,,,,146,2010-07-16T17:10:00,2011-03-09T13:40:00,3,delete,inactive
9300LBR,,,,London Bridge City Pier,,,,,,A200 Tooley Street,,,,,,,N0077694,London Bridge,London,,,,,,0,UKOS,533018,180368,-0.08475775897,51.5065979382,FER,,,,,,146,2005-10-10T00:00:00,2011-11-07T15:15:00,3,revise,active
9300LBR1,,,,London Bridge City Pier,,,,,,A200 Tooley Street,,,,Quay,,,N0077694,London Bridge,London,,,,,,0,UKOS,533022,180403,-0.08468696849,51.50691152243,FBT,,,,,,146,2010-12-03T18:32:00,2011-11-10T15:41:00,3,revise,active
9300LBR2,,,,London Bridge City Pier,,,,,,A200 Tooley Street,,,,Quay,,,N0077694,London Bridge,London,,,,,,0,UKOS,533016,180403,-0.08477337016,51.50691293344,FBT,,,,,,146,2016-03-11T14:50:00,2016-03-11T14:51:00,1,revise,active
9300LBS,,,,Lochboisdale South Uist Ferry Terminal,,,,,,A865 (South East),,,,,,,N0077289,Lochboisdale,,,,,,,0,UKOS,79390,819300,-7.30396981555,57.15220303845,FER,,,,,,146,2005-10-10T00:00:00,2007-09-26T14:00:00,2,revise,active
9300LBS0,,,,Lochboisdale South Uist Ferry Terminal,,,,,,A865 (South East),,,,Pier,,,N0077289,Lochboisdale,,,,,,,0,UKOS,79391,819301,-7.30395464151,57.1522126806,FBT,,,,,,146,2013-03-15T11:25:00,2014-08-26T15:52:00,1,revise,active
9300LCR,,,,Lochranza Arran Ferry Terminal,,,,,,Off A841,,,,,,,N0068146,Lochranza,,,,,,,0,UKOS,192645,650972,-5.30198512649,55.70771594553,FER,,,,,,146,2005-10-10T00:00:00,2007-09-26T14:00:00,2,revise,active
9300LCS,,,,Lochleven Castle Ferry Landing,,,,,,Pier,,,,,,,ES002134,Kinross,,,,,,,0,UKOS,313663,701767,-3.39313732268,56.20064691213,FER,,,,,,146,2008-06-17T16:10:00,2008-07-04T18:30:00,5,revise,active
9300LCT,,,,Tarbert (Loch Fyne) Ferry Terminal,,,,,,A801 Pier Road,,,,,,,ES003609,Tarbert,,,,,,,0,UKOS,187120,668905,-5.40376620923,55.86616666075,FER,,,,,,146,2005-10-10T00:00:00,2010-09-06T15:32:00,3,revise,active
9300LEV,,,,Leverburgh Harris Ferry Terminal,,,,,,Off A859 Pier Road,,,,,,,N0068479,Leverburgh,,,,,,,0,UKOS,101286,886303,-7.02525836957,57.76654252606,FER,,,,,,146,2005-10-10T00:00:00,2008-04-14T10:45:00,4,revise,active
9300LGH,,,,Lochgoilhead Ferry Terminal,,,,,,Lochgoilhead,,,,,,,ES002443,Lochgoilhead,,,,,,,0,UKOS,219969,701098,-4.90119449955,56.16843205343,FER,,,,,,146,2008-06-16T13:54:00,2008-06-16T13:57:00,1,revise,active
9300LGS,,,,Largs Ferry Terminal,,,,,,Off Gallowgate Main Street,,,,,,,ES002288,Largs,,,,,,,0,UKOS,220115,659470,-4.87101352776,55.79494635104,FER,,,,,,146,2005-10-10T00:00:00,2007-09-26T14:00:00,2,revise,active
9300LHD,,,,Lerwick Shetland Hays Dock Ferry Terminal,,,,,,Freefield Road,,,,,,,ES002328,Lerwick,,,,,,,0,UKOS,447249,1141881,-1.1506408919,60.15867771617,FER,,,,,,146,2005-10-10T00:00:00,2007-09-26T14:00:00,2,revise,active
9300LHJ,,,,Lingholm Jetty,,,,,,,,,,Pier,,,N0080975,Lingholm,,,,,,,0,UKOS,325461,522427,-3.15506149769,54.59151258248,FBT,,,,,,146,2018-07-05T17:00:25,2018-07-05T17:00:25,1,new,active
9300LHL,,,,Lochaline Ferry Terminal,,,,,,End of B884,,,,,,,N0067916,Lochaline,,,,,,,0,UKOS,167990,744680,-5.77503564676,56.53668124826,FER,,,,,,146,2005-10-10T00:00:00,2007-09-26T14:00:00,2,revise,active
9300LHM,,,,Lerwick Shetland Holmsgarth Ferry Terminal,,,,,,Off A970 Holmsgarth Road,,,,,,,ES002328,Lerwick,,,,,,,0,UKOS,446859,1142311,-1.15756688001,60.16258299909,FER,,,,,,146,2005-10-10T00:00:00,2007-09-26T14:00:00,2,revise,active
9300LHP,,,,Longhope Orkney Ferry Terminal,,,,,,B90747 (South),,,,,,,N0067563,Longhope,South Walls,,,,,,0,UKOS,330352,990950,-3.20703841547,58.80043504506,FER,,,,,,146,2005-10-10T00:00:00,2007-09-26T14:00:00,2,revise,active
9300LIB,,,,Liverpool Belfast Ferry Terminal Bootle,,,,,,A5036 Rocklebank Dock,,,,,,,E0029625,Bootle,,,,,,,0,UKOS,333266,394554,-3.00616963725,53.44351298861,FER,,,,,,146,2008-06-18T19:46:00,2009-12-04T16:15:00,3,revise,active
9300LID,,,,Liverpool Isle of Man & Dublin Terminal,,,,,,Liverpool Landing Stage,,,,,,,N0071055,Vauxhall,Liverpool,,,,,,0,UKOS,333690,390400,-2.99891144828,53.40623397015,FER,,,,,,146,2008-06-18T19:45:00,2008-06-18T19:47:00,1,revise,active
9300LKB,,,,Lake Bank (Coniston) Ferry Landing,,,,,,-,,,,,,,E0006475,Water Yeat,,,,,,,0,UKOS,328984,489980,-3.09275906919,54.30047353535,FER,,,,,,146,2010-07-16T17:01:00,2010-07-16T17:06:00,1,revise,active
9300LKB1,,,,Lake Bank (Coniston) Ferry Landing,,,,,,,,,,,,,E0006475,Water Yeat,,,,,,,0,UKOS,328973,489973,-3.09292639847,54.30040910487,FBT,,,,,,146,2017-05-11T00:00:00,2017-05-11T00:00:00,0,new,active
9300LMA,,,,Lochmaddy North Uist Ferry Terminal,,,,,,A865 (Northwest),,,,,,,ES002449,Lochmaddy,,,,,,,0,UKOS,91980,868000,-7.1576725527,57.59652042638,FER,,,,,,146,2005-10-10T00:00:00,2007-09-26T14:00:00,2,revise,active
9300LMA0,,,,Lochmaddy North Uist Ferry Terminal,,,,,,A865 (Northwest),,,,Pier,,,ES002449,Lochmaddy,,,,,,,0,UKOS,92080,867952,-7.15594543724,57.59615918532,FBT,,,,,,146,2013-03-15T11:33:00,2014-08-26T15:52:00,1,revise,active
9300LMB,,,,Lambeth Pier,,,,,,Albert Embankment,,,,,,,E0034633,Lambeth,London,,,,,,0,UKOS,530522,179030,-0.12119579559,51.49515530204,FER,,,,,,146,2012-01-12T17:40:00,2012-01-12T17:43:00,1,revise,active
9300LMB1,,,,Lambeth Pier,,,,,,Albert Embankment,,,,,,,E0034633,Lambeth,London,,,,,,0,UKOS,530494,179020,-0.12160260259,51.49507189333,FBT,,,,,,146,2012-01-12T17:42:00,2012-01-12T17:43:00,1,revise,active
9300LMR,,,,Lismore Ferry Terminal,,,,,,Off B8045 An T-Sraid - Achnacriosh,,,,,,,N0068319,Achnacroish,,,,,,,0,UKOS,185235,740920,-5.49206816032,56.5111600168,FER,,,,,,146,2005-10-10T00:00:00,2007-09-26T14:00:00,2,revise,active
9300LNH,,,,Leith Newhaven Harbour Ferry Landing,,,,,,Off Pier Place,,,,,,,ES002802,Newhaven,Edinburgh,,,,,,0,UKOS,325406,677197,-3.19705101753,55.98193246119,FER,,,,,,146,2005-10-10T00:00:00,2007-09-26T14:00:00,2,revise,active
9300LNZ,,,,London Zoo Waterbus Stop,,,,,,Outer Circle,,,,,,,E0034946,Regents Park,Marylebone,,,,,,0,UKOS,527587,183450,-0.16185304322,51.53554637818,FER,,,,,,146,2014-04-10T11:05:00,2014-04-10T11:13:00,1,revise,active
9300LNZ1,,,,London Zoo Waterbus Stop,,,,,,Outer Circle,,,,Pier,,,E0034946,Regents Park,Marylebone,,,,,,0,UKOS,527588,183451,-0.16183827123,51.53555513916,FBT,,,,,,146,2014-04-10T11:06:00,2014-04-10T11:13:00,1,revise,active
9300LOD,,,,Lodore Falls Derwentwater Ferry Landing,,,,,,B5289,,,,,,,E0004796,Ashness,Borrowdale,,,,,,0,UKOS,326455,519227,-3.13887973678,54.56290638662,FER,,,,,,146,2005-10-10T00:00:00,2007-09-26T14:00:00,2,revise,active
9300LOD1,,,,Lodore Falls Derwentwater Ferry Landing,,,,,,B5289,,,,Pier,,,E0004796,Ashness,Borrowdale,,,,,,0,UKOS,326451,519234,-3.13894333633,54.56296869954,FBT,,,,,,146,2011-10-10T15:04:00,2011-10-10T15:27:00,1,revise,active
9300LOW,,,,Low Brandelhow Derwentwater Ferry Landing,,,,,,Brandelhow area,,,,,,,N0065055,Brandelhow,,,,,,,0,UKOS,325272,520717,-3.15754997725,54.57612039191,FER,,,,,,146,2005-10-10T00:00:00,2007-09-26T14:00:00,2,revise,active
9300LOW1,,,,Low Brandelhow Derwentwater Ferry Landing,,,,,,Brandelhow area,,,,Pier,,,N0065055,Brandelhow,,,,,,,0,UKOS,325274,520713,-3.15751802559,54.57608474805,FBT,,,,,,146,2011-10-10T15:05:00,2011-11-03T17:00:00,2,revise,active
9300LPL,,,,Leaplish Ferry Landing,,,,,,-,,,,,,,N0070161,Leaplish Waterside Park,Kielder Water,,,,,,0,UKOS,366044,587895,-2.53479691779,55.1841683503,FER,,,,,,146,2011-06-27T15:04:00,2011-06-27T15:06:00,1,revise,active
9300LPL1,,,,Leaplish Ferry Landing,,,,,,-,,,,Pier,,,N0070161,Leaplish Waterside Park,Kielder Water,,,,,,0,UKOS,366048,587901,-2.5347348259,55.18422253879,FBT,,,,,,146,2011-06-27T15:05:00,2011-06-27T15:06:00,1,revise,active
9300LRK,,,,Lerwick Shetland Esplanade Ferry Terminal,,,,,,A969 Commercial Road,,,,,,,ES002328,Lerwick,,,,,,,0,UKOS,447674,1141548,-1.14306353882,60.15563884343,FER,,,,,,146,2005-10-10T00:00:00,2012-08-29T15:33:00,3,revise,active
9300LTK,,,,Lymington Town Quay,,,,,,-,,,,,,,E0013221,Lymington,,,,,,,0,UKOS,432832,95574,-1.53589225568,50.75883885008,FER,,,,,,146,2015-12-01T11:36:00,2015-12-01T11:49:00,1,revise,active
9300LTK1,,,,Lymington Town Quay,,,,,,-,,,,Pier,,,E0013221,Lymington,,,,,,,0,UKOS,432832,95574,-1.53589225568,50.75883885008,FBT,,,,,,146,2015-12-01T11:38:00,2015-12-01T11:49:00,1,revise,active
9300LUI,,,,South Cuan Luing Ferry Terminal,,,,,,Main Road (North of Island),,,,,,,N0076392,South Cuan,,,,,,,0,UKOS,175120,714155,-5.6331431221,56.2664622854,FER,,,,,,146,2005-10-10T00:00:00,2007-09-26T14:00:00,2,revise,active
9300LUN,,,,Lundy Island Ferry Landing,,,,,,Quay,,,,,,,N0078167,Lundy Island,,,,,,,0,UKOS,214259,143819,-4.65787493664,51.16338728069,FER,,,,,,146,2005-10-10T00:00:00,2008-04-24T17:27:00,3,revise,active
9300LUN1,,,,Lundy Island Ferry Landing,,,,,,Quay,,,,Quay,,,N0078167,Lundy Island,,,,,,,0,UKOS,214279,143826,-4.6575928395,51.163456653,FBT,,,,,,146,2013-10-22T11:14:00,2013-10-22T14:51:00,1,revise,active
9300LUS,,,,Luss Pier,,,,,,-,,,,,,,ES002518,Luss,,,,,,,0,UKOS,236099,693053,-4.63677844129,56.10205012928,FER,,,,,,146,2010-08-12T16:09:00,2010-08-12T16:13:00,1,revise,active
9300LVN,,,,Little Venice Waterbus Stop,,,,,,Warwick Crescent,,,,,,,N0065175,Little Venice,London,,,,,,0,UKOS,526120,181817,-0.18357681836,51.52120010599,FER,,,,,,146,2014-04-10T10:59:00,2014-04-10T11:11:00,1,revise,active
9300LVN1,,,,Little Venice Waterbus Stop,,,,,,Warwick Crescent,,,,Pier,,,N0065175,Little Venice,London,,,,,,0,UKOS,526121,181818,-0.18356205518,51.52120886982,FBT,,,,,,146,2014-04-10T11:01:00,2014-04-10T11:11:00,1,revise,active
9300LYB,,,,Lymington Bath Road,,,,,,-,,,,,,,E0013221,Lymington,,,,,,,0,UKOS,433394,95055,-1.52797174416,50.75413988287,FER,,,,,,146,2015-12-01T11:39:00,2015-12-01T11:52:00,1,revise,active
9300LYB1,,,,Lymington Bath Road,,,,,,-,,,,Pier,,,E0013221,Lymington,,,,,,,0,UKOS,433394,95055,-1.52797174416,50.75413988287,FBT,,,,,,146,2015-12-01T11:39:00,2015-12-01T11:52:00,1,revise,active
9300LYD,,,,Lydney Harbour,,,,,,Harbour Road,,,,,,,E0046573,Lydney,,,,,,,0,UKOS,365095,201395,-2.50657532021,51.71019703125,FER,,,,,,146,2008-04-03T15:43:00,2008-04-03T16:31:00,1,revise,active
9300LYM,,,,Lymington Pier Ferry Terminal,,,,,,Undershore South,,,,,,,E0013308,Walhampton,,,,,,,0,UKOS,433320,95410,-1.52898871055,50.75733639199,FER,,,,,,146,2005-10-10T00:00:00,2007-09-26T14:00:00,2,revise,active
9300LYM1,,,,Lymington Pier Ferry Terminal,,,,,,Undershore South,,,,pier,,,E0013308,Walhampton,,,,,,,0,UKOS,433315,95405,-1.52906004387,50.75729171652,FBT,,,,,,146,2011-07-13T11:12:00,2011-07-13T11:58:00,1,revise,active
9300LYS,,,,Lyness Orkney Ferry Terminal,,,,,,B9048 (East),,,,,,,N0067564,Lyness,Hoy,,,,,,0,UKOS,331310,994620,-3.19159380202,58.83354083914,FER,,,,,,146,2005-10-10T00:00:00,2008-04-18T11:14:00,3,revise,active
9300MAH,,,,Martins Haven Ferry Landing,,,,,,Martins Haven area,,,,,,,E0040338,Martins Haven,,,,,,,0,UKOS,176084,209206,-5.24439824473,51.73671679715,FER,,,,,,146,2005-10-10T00:00:00,2007-09-26T14:00:00,2,revise,active
9300MAL,,,,Malpas Ferry Terminal,,,,,,,,,,,,,E0002875,Malpas,Truro,,,,,,,UKOS,184336,42538,-5.0260601108,50.24339369151,FER,,,,,,146,2016-07-29T00:00:00,2016-07-29T00:00:00,0,new,active
9300MAL1,,,,Malpas Ferry Terminal,,,,,,,,,,,,,E0002875,Malpas,Truro,,,,,,,UKOS,184172,42567,-5.02837333927,50.24359425128,FBT,,,,,,146,2016-07-30T00:00:00,2016-07-30T00:00:00,0,new,active
9300MAR,,,,St Mary's Isles Of Scilly Ferry Terminal,,,,,,The Pier. Hugh Town,,,,,,,E0003056,Hugh Town,Isles of Scilly,,,,,,0,UKOS,90265,10950,-6.31646296213,49.91833004519,FER,,,,,,146,2006-02-15T00:00:00,2007-09-26T14:00:00,2,revise,active
9300MAR1,,,,St Mary's Isles Of Scilly Ferry Terminal,,,,,,The Pier. Hugh Town,,,,Quay,,,E0003056,Hugh Town,Isles of Scilly,,,,,,0,UKOS,90262,10963,-6.3165150605,49.91844508018,FBT,,,,,,146,2013-10-22T12:19:00,2013-10-22T15:52:00,1,revise,active
9300MAT,,,,St Martin's Isles Of Scilly Ferry Landing,,,,,,Cruther's Point,,,,,,,E0044517,St Marys,Isles of Scilly,,,,,,0,UKOS,93040,15145,-6.28125599268,49.95738501609,FER,,,,,,146,2005-10-10T00:00:00,2007-09-26T14:00:00,2,revise,active
9300MAT1,,,,St Martin's Isles Of Scilly Ferry Landing,,,,,,Cruther's Point,,,,Quay,,,E0044517,St Marys,Isles of Scilly,,,,,,0,UKOS,93059,15145,-6.28099185964,49.95739478243,FBT,,,,,,146,2013-10-22T12:18:00,2013-10-22T15:51:00,1,revise,active
9300MAW,,,,St Mawes Ferry Landing,,,,,,A3078 Marine Parade,,,,,,,E0002956,St Mawes,,,,,,,0,UKOS,184782,32995,-5.01440665441,50.15785067313,FER,,,,,,146,2005-10-10T00:00:00,2007-09-26T14:00:00,2,revise,active
9300MAW1,,,,St Mawes Ferry Landing,,,,,,A3078 Marine Parade,,,,Quay,,,E0002956,St Mawes,,,,,,,0,UKOS,184801,33016,-5.0141529138,50.1580461757,FBT,,,,,,146,2013-10-22T12:20:00,2013-10-22T15:52:00,1,revise,active
9300MBK,,,,Millbank Pier,,,,,,Millbank,,,,,,,N0065177,Millbank,London,,,,,,0,UKOS,530250,178685,-0.12523895971,51.49211757845,FER,,,,,,146,2006-08-24T00:00:00,2013-07-25T15:19:00,5,revise,active
9300MBK1,,,,Millbank Pier,,,,,,Millbank,,,,Quay,,,N0065177,Millbank,London,,,,,,0,UKOS,530258,178694,-0.12512047375,51.49219661712,FBT,,,,,,146,2010-12-03T18:33:00,2013-07-25T15:19:00,5,revise,active
9300MBK2,,,,Millbank Pier,,,,,,Millbank,,,,Quay,,,N0065177,Millbank,London,,,,,,0,UKOS,530271,178743,-0.12491525744,51.49263397102,FBT,,,,,,146,2017-11-28T09:48:21,2017-11-28T09:48:21,1,new,active
9300MBL,,,,Twickenham - Marble Hill Pk Ferry Landing,,,,,,-,,,,,,,E0034783,Twickenham,London,,,,,,0,UKOS,517175,173350,-0.31524902412,51.44702686563,FER,,,,,,146,2010-02-10T15:14:00,2011-12-13T16:33:00,4,delete,inactive
9300MBL1,,,,Twickenham - Marble Hill Pk Ferry Landing,,,,,,-,,,,Quay,,,E0034783,Twickenham,London,,,,,,0,UKOS,517165,173340,-0.31539616425,51.44693905596,FBT,,,,,,146,2010-12-03T18:35:00,2011-12-13T16:33:00,4,delete,inactive
9300MCP,,,,Gourock McInroy's Point Ferry Terminal,,,,,,Cloch Road A770,,,,,,,N0072858,Levan,Gourock,,,,,,0,UKOS,221880,676777,-4.85427766537,55.95090883099,FER,,,,,,146,2005-10-10T00:00:00,2007-09-26T14:00:00,2,revise,active
9300MEV,,,,Mevagissey Ferry Landing,,,,,,Off Polkirt Hill,,,,,,,E0044644,Mevagissey,,,,,,,0,UKOS,201816,44732,-4.78236995901,50.26922470489,FER,,,,,,146,2005-10-10T00:00:00,2007-09-26T14:00:00,2,revise,active
9300MEV1,,,,Mevagissey Ferry Landing,,,,,,Off Polkirt Hill,,,,Quay,,,E0044644,Mevagissey,,,,,,,0,UKOS,201838,44719,-4.78205482049,50.26911531552,FBT,,,,,,146,2013-10-22T11:18:00,2013-10-22T14:53:00,1,revise,active
9300MGK,,,,Mallaig (for Knoydart) Ferry Terminal,,,,,,Mallaig Harbour,,,,,,,ES002534,Mallaig,,,,,,,0,UKOS,167684,797053,-5.8275531608,57.00598852557,FER,,,,,,146,2010-01-07T15:25:00,2010-01-07T15:29:00,1,revise,active
9300MHT,,,,Masthouse Terrace Pier,,,,,,Maritime Quay,,,,,,,E0034852,Millwall,London,,,,,,0,UKOS,537435,178360,-0.02193546499,51.48749788537,FER,,,,,,146,2006-08-24T00:00:00,2011-01-10T13:09:00,2,revise,active
9300MHT1,,,,Masthouse Terrace Pier,,,,,,Maritime Quay,,,,Quay,,,E0034852,Millwall,London,,,,,,0,UKOS,537406,178357,-0.02235404674,51.48747796781,FBT,,,,,,146,2010-12-03T18:36:00,2011-01-10T13:10:00,3,revise,active
9300MHT2,,,,Masthouse Terrace Pier,,,,,,Maritime Quay,,,,Quay,,,E0034852,Millwall,London,,,,,,0,UKOS,537400,178357,-0.02244040848,51.48747942434,FBT,,,,,,146,2016-03-11T15:11:00,2016-03-11T15:12:00,1,revise,active
9300MHV,,,,Milford Haven - Dock Entrance,,,,,,Hamilton Terrace,,,,,,,E0055085,Milford Haven,,,,,,,0,UKOS,190285,205575,-5.03685893244,51.70961107305,FER,,,,,,146,2008-04-03T15:46:00,2008-04-03T16:32:00,1,revise,active
9300MIL,,,,North Greenwich Pier,,,,,,East Parkside,,,,,,,N0077702,North Greenwich,London,,,,,,0,UKOS,539522,180041,0.00876757928,51.50209266286,FER,,,,,,146,2005-10-10T00:00:00,2011-06-13T12:00:00,6,revise,active
9300MIL1,,,,North Greenwich Pier,,,,,,East Parkside,,,,Quay,,,N0077702,North Greenwich,London,,,,,,0,UKOS,539549,180056,0.00916225265,51.50222079215,FBT,,,,,,146,2010-12-03T18:37:00,2011-06-13T12:00:00,3,revise,active
9300MIL2,,,,North Greenwich Pier,,,,,,East Parkside,,,,Quay,,,N0077702,North Greenwich,London,,,,,,0,UKOS,539547,180053,0.00913227094,51.50219432771,FBT,,,,,,146,2017-09-28T00:00:00,2017-09-28T00:00:00,0,new,active
9300MIN,,,,Minehead Harbour,,,,,,Quay West,,,,,,,E0051074,Minehead,,,,,,,0,UKOS,297230,147085,-3.47273669154,51.21369049006,FER,,,,,,146,2008-04-03T15:52:00,2008-04-03T16:34:00,1,revise,active
9300MIN1,,,,Minehead Harbour,,,,,,Quay West,,,,Quay,,,E0051074,Minehead,,,,,,,0,UKOS,297241,147078,-3.47257725284,51.21362954934,FBT,,,,,,146,2013-10-22T11:21:00,2013-10-22T14:55:00,1,revise,active
9300MKC,,,,Monk Coniston Ferry Landing,,,,,,-,,,,,,,N0080427,Monk Coniston,Coniston,,,,,,0,UKOS,331606,497882,-3.05429178038,54.37183625004,FER,,,,,,146,2010-07-16T17:03:00,2013-01-02T16:43:00,2,revise,active
9300MLG,,,,Mallaig (CalMac) Ferry Terminal,,,,,,Mallaig Harbour,,,,,,,ES002534,Mallaig,,,,,,,0,UKOS,167658,797149,-5.82806876801,57.00683591005,FER,,,,,,146,2005-10-10T00:00:00,2010-01-07T15:30:00,3,revise,active
9300MLG0,,,,Mallaig (CalMac) Ferry Terminal,,,,,,Mallaig Harbour,,,,Pier,,,ES002534,Mallaig,,,,,,,0,UKOS,167752,797165,-5.82653935005,57.00702659867,FBT,,,,,,146,2013-03-15T09:55:00,2014-08-26T15:53:00,1,revise,active
9300MMQ,,,,Mermaid Quay Waterbus Stop,,,,,,Bute Street,,,,,,,N0078138,Cardiff Bay,Cardiff,,,,,,0,UKOS,319130,174425,-3.16549196899,51.46299931491,FER,,,,,,146,2011-01-31T15:23:00,2011-01-31T16:37:00,1,revise,active
9300MMQ1,,,,Mermaid Quay Waterbus Stop,,,,,,Bute Street,,,,Landing stage East,,,N0078138,Cardiff Bay,Cardiff,,,,,,0,UKOS,319177,174420,-3.16481442277,51.46296108985,FBT,,,,,,146,2011-01-31T15:24:00,2011-01-31T16:37:00,1,revise,active
9300MMQ2,,,,Mermaid Quay Waterbus Stop,,,,,,Bute Street,,,,Landing stage West,,,N0078138,Cardiff Bay,Cardiff,,,,,,0,UKOS,319117,174394,-3.16567195645,51.46271877523,FBT,,,,,,146,2011-01-31T15:25:00,2011-01-31T16:37:00,1,revise,active
9300MOU,,,,Moulsey - Hurst Park Ferry Landing,,,,,,-,,,,,,,N0060218,Hurst Park,,,,,,,0,UKOS,513932,169317,-0.36319061905,51.41143972326,FER,,,,,,146,2010-02-10T15:22:00,2010-02-10T15:23:00,1,revise,active
9300MOU1,,,,Moulsey - Hurst Park Ferry Landing,,,,,,-,,,,Quay,,,N0060218,Hurst Park,,,,,,,0,UKOS,513940,169317,-0.36307563958,51.41143811744,FBT,,,,,,146,2010-12-03T18:38:00,2010-12-14T15:41:00,2,revise,active
9300MPT,,,,Millport Pier Ferry Terminal,,,,,,Clyde St B896,,,,,,,ES002621,Millport,Cumbrae,,,,,,0,UKOS,217735,654532,-4.90562258544,55.74974377768,FER,,,,,,146,2006-08-08T00:00:00,2015-05-27T08:47:00,3,revise,active
9300MSB,,,,Hengistbury Head Ferry Landing,,,,,,Mudeford Sandbank area,,,,,,,E0035387,Southbourne,Bournemouth,,,,,,0,UKOS,418238,91275,-1.74300605033,50.72081920729,FER,,,,,,146,2005-10-10T00:00:00,2014-06-06T14:26:00,5,revise,active
9300MSB1,,,,Hengistbury Head Ferry Landing,,,,,,Mudeford Sandbank area,,,,Quay,,,E0035387,Southbourne,Bournemouth,,,,,,0,UKOS,418238,91283,-1.74300565727,50.72089114792,FBT,,,,,,146,2013-10-22T11:09:00,2014-06-06T14:27:00,2,revise,active
9300MTN,,,,Transporter Bridge North Side,,,,,,Port Clarence Road,,,,,,,E0042089,Port Clarence,,,,,Stockton,,0,UKOS,450039,521371,-1.22725557288,54.58507089904,FER,,,,,,146,2011-06-08T11:55:00,2011-06-08T12:04:00,1,revise,active
9300MTN1,,,,Transporter Bridge North Side,,,,,,Port Clarence Road,,,,Landing Stage,,,E0042089,Port Clarence,,,,,Stockton,,0,UKOS,450033,521366,-1.22734925213,54.58502656168,FBT,,,,,,146,2011-06-08T11:59:00,2011-10-10T15:51:00,4,revise,active
9300MTS,,,,Transporter Bridge South Side,,,,,,Ferry Road,,,,,,,E0039258,Middlesbrough,,,,,Middlesbrough,,0,UKOS,449945,521217,-1.22873603008,54.58369633434,FER,,,,,,146,2011-06-08T12:01:00,2011-06-08T12:05:00,1,revise,active
9300MTS1,,,,Transporter Bridge South Side,,,,,,Ferry Road,,,,Landing Stage,,,E0039258,Middlesbrough,,,,,Middlesbrough,,0,UKOS,449946,521228,-1.22871869258,54.58379508135,FBT,,,,,,146,2011-06-08T12:02:00,2011-10-10T15:52:00,3,revise,active
9300MYF,,,,Bressay Shetland Ferry Terminal,,,,,,Off Heogan Road,,,,,,,ES000457,Bressay,,,,,,,0,UKOS,448772,1141721,-1.12324681027,60.15706266251,FER,,,,,,146,2005-10-10T00:00:00,2007-09-26T14:00:00,2,revise,active
9300NBW,,,,North Berwick Harbour,,,,,,-,,,,,,,ES002849,North Berwick,,,,,,,0,UKOS,355366,685596,-2.71835680913,56.06111614018,FER,,,,,,146,2015-07-30T13:44:00,2015-07-30T13:46:00,1,revise,active
9300NBW1,,,,North Berwick Harbour,,,,,,Victoria Road,,,,Quay,,,ES002849,North Berwick,,,,,,,0,UKOS,355362,685596,-2.71842103922,56.06111576622,FBT,,,,,,146,2015-07-30T13:45:00,2015-07-30T13:46:00,1,revise,active
9300NCL,,,,Newcastle International Ferry Terminal,,,,,,A187 Dene Road,,,,,,,E0031046,Royal Quays,,,,,,,0,UKOS,435320,566590,-1.4495005397,54.99265056448,FER,,,,,,146,2005-10-10T00:00:00,2007-09-26T14:00:00,2,revise,active
9300NCL1,,,,Newcastle International Ferry Terminal,,,,,,A187 Dene Road,,,,Pier,,,E0031046,Royal Quays,,,,,,,0,UKOS,435323,566541,-1.44945967818,54.99221005066,FBT,,,,,,146,2011-10-10T15:10:00,2011-10-10T15:28:00,1,revise,active
9300NDY,,,,Sanday Orkney Ferry Terminal,,,,,,B9070 (South),,,,,,,ES003238,Loth,Sanday,,,,,,0,UKOS,360305,1033972,-2.69649866061,59.19056838692,FER,,,,,,146,2005-10-10T00:00:00,2007-09-26T14:00:00,2,revise,active
9300NEL,,,,Rotherhithe Pier,,,,,,Off Rotherhithe Street,,,,,,,E0034802,Rotherhithe,London,,,,,,0,UKOS,536623,180234,-0.03289825354,51.50453454628,FER,,,,,,146,2005-10-10T00:00:00,2025-04-23T15:02:00,7,revise,active
9300NEL1,,,,Doubletree Docklands Nelson Dock Pier,,,,,,Off Rotherhithe Street,,,,Quay,,,E0034802,Rotherhithe,London,,,,,,0,UKOS,536700,180238,-0.03178797554,51.50455188835,FBT,,,,,,146,2010-12-03T18:40:00,2015-06-05T16:18:00,3,revise,active
9300NEL2,,,,Doubletree Docklands Nelson Dock Pier,,,,,,Off Rotherhithe Street,,,,Quay,,,E0034802,Rotherhithe,London,,,,,,0,UKOS,536675,180238,-0.03214795267,51.50455792929,FBT,,,,,,146,2016-03-11T14:24:00,2016-03-11T14:24:00,1,revise,active
9300NGG,,,,Nigg Ferry Terminal,,,,,,End of B9175,,,,,,,ES002839,Nigg,,,,,,,0,UKOS,279665,868770,-4.020322583,57.69260457035,FER,,,,,,146,2005-10-10T00:00:00,2007-09-26T14:00:00,2,revise,active
9300NHV,,,,Newhaven Harbour Ferry Terminal,,,,,,End A26 New Road,,,,,,,E0046047,Newhaven,,,,,,,0,UKOS,544911,100976,0.05455907121,50.79024903619,FER,,,,,,146,2005-10-10T00:00:00,2008-05-02T14:45:00,5,revise,active
9300NHV1,,,,Newhaven Harbour Ferry Terminal,,,,,,End A26 New Road,,,,Quay,,,E0046047,Newhaven,,,,,,,0,UKOS,544901,100965,0.05441295934,50.79015267924,FBT,,,,,,146,2013-10-22T11:26:00,2013-10-22T14:57:00,1,revise,active
9300NHY,,,,North Hoy Orkney Ferry Terminal,,,,,,B9047 (North),,,,,,,N0078247,Moaness,Hoy,,,,,,0,UKOS,324550,1003955,-3.31182812748,58.91621882307,FER,,,,,,146,2005-10-10T00:00:00,2007-11-19T17:30:00,3,revise,active
9300NIC,,,,Hawes End Derwentwater Ferry Landing,,,,,,Hawes End area,,,,,,,E0004928,Hawes End,,,,,,,0,UKOS,325106,521290,-3.16026369914,54.58124417007,FER,,,,,,146,2005-10-10T00:00:00,2011-10-10T15:13:00,3,revise,active
9300NIC1,,,,Hawes End Derwentwater Ferry Landing,,,,,,Hawes End area,,,,Pier,,,E0004928,Hawes End,,,,,,,0,UKOS,325108,521301,-3.16023557141,54.58134330099,FBT,,,,,,146,2011-10-10T15:11:00,2011-10-10T15:29:00,1,revise,active
9300NLE,,,,Nichol End (Derwentwater) Ferry Landing,,,,,,-,,,,,,,E0005042,Portinscale,,,,,,,0,UKOS,325437,522843,-3.15553867298,54.59524676851,FER,,,,,,146,2010-07-16T17:10:00,2011-10-10T15:16:00,2,revise,active
9300NLE1,,,,Nichol End (Derwentwater) Ferry Landing,,,,,,-,,,,Pier,,,E0005042,Portinscale,,,,,,,0,UKOS,325443,522840,-3.15544506768,54.5952207002,FBT,,,,,,146,2011-10-10T15:15:00,2011-10-10T15:29:00,1,revise,active
9300NMC,,,,Falmouth Ntl Maritime Museum Ferry Landing,,,,,,Off Avenue Road,,,,,,,E0044490,Falmouth,,,,,,,0,UKOS,181400,32450,-5.06137082084,50.15171837433,FER,,,,,,146,2005-10-10T00:00:00,2007-09-26T14:00:00,2,revise,active
9300NMC1,,,,Falmouth Ntl Maritime Museum Ferry Landing,,,,,,Off Avenue Road,,,,Quay,,,E0044490,Falmouth,,,,,,,0,UKOS,181407,32456,-5.06127642474,50.15177483997,FBT,,,,,,146,2013-10-22T10:45:00,2013-10-22T14:40:00,1,revise,active
9300NOS,,,,Noss Mayo Ferry Landing,,,,,,Passage Road,,,,,,,E0008365,Noss Mayo,,,,,,,0,UKOS,254023,47788,-4.05154283036,50.31191780743,FER,,,,,,146,2005-10-10T00:00:00,2007-09-26T14:00:00,2,revise,active
9300NOS1,,,,Noss Mayo Ferry Landing,,,,,,Passage Road,,,,Quay,,,E0008365,Noss Mayo,,,,,,,0,UKOS,254033,47784,-4.05140093211,50.311884335,FBT,,,,,,146,2013-10-22T11:30:00,2013-10-22T14:59:00,1,revise,active
9300NPT,,,,Newport (S Wales) Ferry Terminal,,,,,,East Bank Road,,,,,,,E0039779,Newport,,,,,,,0,UKOS,332370,185485,-2.97706408094,51.56416990805,FER,,,,,,146,2008-04-03T15:56:00,2008-04-03T16:36:00,1,revise,active
9300NRO,,,,North Ronaldsay Orkney Ferry Terminal,,,,,,Main Street,,,,,,,ES002880,North Ronaldsay,,,,,,,0,UKOS,375028,1052223,-2.44093902232,59.35558306068,FER,,,,,,146,2005-10-10T00:00:00,2008-04-24T17:29:00,3,revise,active
9300NSH,,,,North Shields Ferry Terminal,,,,,,New Quay,,,,,,,E0031092,North Shields,,,,,,,0,UKOS,435630,567840,-1.44450058357,55.0038607237,FER,,,,,,146,2005-10-10T00:00:00,2007-09-26T14:00:00,2,revise,active
9300NSH1,,,,North Shields Ferry Terminal,,,,,,New Quay,,,,Pier,,,E0031092,North Shields,,,,,,,0,UKOS,435654,567842,-1.44412514349,55.00387698251,FBT,,,,,,146,2011-10-10T15:14:00,2011-11-03T17:00:00,2,revise,active
9300NWF,,,,Newton Ferrers Ferry Landing,,,,,,Yealm Road,,,,,,,E0008363,Newton Ferrers,,,,,,,0,UKOS,253949,47998,-4.05266272601,50.31378684756,FER,,,,,,146,2005-10-10T00:00:00,2007-09-26T14:00:00,2,revise,active
9300NWF1,,,,Newton Ferrers Ferry Landing,,,,,,Yealm Road,,,,Quay,,,E0008363,Newton Ferrers,,,,,,,0,UKOS,253958,47999,-4.05253679273,50.3137980663,FBT,,,,,,146,2013-10-22T11:26:00,2013-10-22T14:59:00,1,revise,active
9300OBA,,,,Oban Ferry Terminal,,,,,,Off Albany Street and Gallanach Road,,,,,,,ES002899,Oban,,,,,,,0,UKOS,185585,729800,-5.47725657794,56.41160207949,FER,,,,,,146,2005-10-10T00:00:00,2007-09-26T14:00:00,2,revise,active
9300OBA0,,,,Oban Ferry Terminal,,,,,,Off Albany Street and Gallanach Road,,,,Quay,,,ES002899,Oban,,,,,,,0,UKOS,185571,729798,-5.47748140732,56.41157778886,FBT,,,,,,146,2013-03-15T10:03:00,2014-08-26T15:53:00,1,revise,active
9300ODD,,,,Oddsta Shetland Ferry Terminal,,,,,,Off B9088 West,,,,,,,ES001375,Fetlar,,,,,,,0,UKOS,458591,1194484,-0.93099092303,60.62942419817,FER,,,,,,146,2005-10-10T00:00:00,2012-08-29T15:30:00,3,revise,active
9300OKF,,,,Oban Kerrera Ferry,,,,,,Gallanach Road,,,,,,,ES002899,Oban,,,,,,,0,UKOS,183467,728286,-5.51026538975,56.39705951759,FER,,,,,,146,2005-10-10T00:00:00,2007-09-26T14:00:00,1,revise,active
9300ONP,,,,Oban North Pier Ferry Terminal,,,,,,Corran Esplanade A85(T),,,,,,,ES002899,Oban,,,,,,,0,UKOS,185827,730139,-5.4736192322,56.41475187637,FER,,,,,,146,2006-08-08T00:00:00,2007-09-26T14:00:00,2,revise,active
9300OST,,,,The ostrich,,,,,,,,,,,,,E0057160,Bristol,,,,,,,0,UKOS,358811,172316,-2.59409759878,51.44832450134,FER,,,,,,146,2017-01-17T13:36:12,2017-01-17T13:36:12,0,new,active
9300OST1,,,,The ostrich,,,,,,,,,,Pier,,,E0057160,Bristol,,,,,,,0,UKOS,358832,172320,-2.59379589413,51.448361997,FBT,,,,,,146,2017-01-17T13:36:12,2017-01-17T13:36:12,0,new,active
9300OUT,,,,Out Skerries Shetland Ferry Terminal,,,,,,Main Road,,,,,,,N0077287,Out Skerries,,,,,,,0,UKOS,468864,1171630,-0.75120699759,60.4226527364,FER,,,,,,146,2005-10-10T00:00:00,2007-09-26T14:00:00,2,revise,active
9300PAD,,,,Padstow Ferry Landing,,,,,,North Quay Parade,,,,,,,E0044582,Padstow,,,,,,,0,UKOS,192022,75565,-4.93669910717,50.5427788937,FER,,,,,,146,2005-10-10T00:00:00,2007-09-26T14:00:00,3,revise,active
9300PAD1,,,,Padstow Ferry Landing,,,,,,North Quay Parade,,,,Quay,,,E0044582,Padstow,,,,,,,0,UKOS,192064,75516,-4.93607980992,50.54235375891,FBT,,,,,,146,2013-10-22T11:32:00,2013-10-22T15:01:00,1,revise,active
9300PAK,,,,Port Askaig Islay Ferry Terminal,,,,,,Off A846,,,,,,,N0068510,Port Askaig,,,,,,,0,UKOS,143140,669235,-6.10510190018,55.84770858235,FER,,,,,,146,2005-10-10T00:00:00,2007-09-26T14:00:00,2,revise,active
9300PAK0,,,,Port Askraig Islay Ferry Terminal,,,,,,Off A846,,,,Quay,,,N0068510,Port Askaig,,,,,,,0,UKOS,143165,669301,-6.10476610111,55.84831337034,FBT,,,,,,146,2013-03-15T10:31:00,2014-08-26T15:53:00,1,revise,active
9300PAP,,,,Port Appin Ferry Terminal,,,,,,Off A828 Port Appin,,,,,,,N0068509,Port Appin,,,,,,,0,UKOS,190215,745365,-5.4148842627,56.5532692289,FER,,,,,,146,2005-10-10T00:00:00,2007-09-26T14:00:00,2,revise,active
9300PAV,,,,Portavadie Ferry Terminal,,,,,,Junction B800 - B8003,,,,,,,N0068513,Portavadie,,,,,,,0,UKOS,192630,669790,-5.3165520156,55.87650672583,FER,,,,,,146,2005-10-10T00:00:00,2007-09-26T14:00:00,2,revise,active
9300PBA,,,,Plymouth (Barbican) Landing Stage,,,,,,The Barbican,,,,,,,E0040566,Barbican,Plymouth,,,,,,0,UKOS,248314,53931,-4.13413919717,50.36568294579,FER,,,,,,146,2006-11-27T00:00:00,2010-12-16T16:23:00,4,revise,active
9300PBA1,,,,Plymouth (Barbican) Landing Stage,,,,,,The Barbican,,,,Quay,,,E0040566,Barbican,Plymouth,,,,,,0,UKOS,248321,53930,-4.13404044272,50.3656757644,FBT,,,,,,146,2013-10-22T11:46:00,2013-10-22T15:27:00,1,revise,active
9300PCL,,,,Point Clear Ferry Landing,,,,,,Off Colne Way,,,,,,,E0011486,Point Clear,,,,,,,0,UKOS,608409,215886,1.02136604699,51.80276148457,FER,,,,,,146,2005-10-10T00:00:00,2007-09-26T14:00:00,2,revise,active
9300PCL1,,,,Point Clear Ferry Landing,,,,,,Colne Way,,,,Quay,,,E0011486,Point Clear,,,,,,,0,UKOS,608414,215900,1.02144686804,51.80288532139,FBT,,,,,,146,2013-06-07T09:09:00,2013-06-12T10:08:00,1,revise,active
9300PED,,,,Pembroke Dock Ferry Terminal,,,,,,Admiralty Way,,,,,,,E0040381,Pembroke Ferry,Pembroke Dock,,,,,,0,UKOS,195990,203917,-4.95343310942,51.69682775814,FER,,,,,,146,2005-10-10T00:00:00,2007-09-26T14:00:00,2,revise,active
9300PEN,,,,Penzance Ferry Terminal,,,,,,The Quay,,,,,,,E0044623,Penzance,,,,,,,0,UKOS,147822,30108,-5.52897377719,50.11736597671,FER,,,,,,146,2005-10-10T00:00:00,2008-06-12T18:36:00,4,revise,active
9300PEN1,,,,Penzance Ferry Terminal,,,,,,The Quay,,,,Quay,,,E0044623,Penzance,,,,,,,0,UKOS,147834,30111,-5.52880823286,50.11739800411,FBT,,,,,,146,2013-10-22T11:37:00,2013-10-22T15:23:00,1,revise,active
9300PHD,,,,Liverpool Pier Head Ferry Terminal,,,,,,Liverpool Landing Stage,,,,,,,E0057850,Liverpool,,,,,,,0,UKOS,333850,390285,-2.99648094158,53.40522055468,FER,,,,,,146,2005-10-10T00:00:00,2008-12-05T09:52:00,3,revise,active
9300PHY,,,,Rock Padstow Ferry Landing,,,,,,End of Rock Road,,,,,,,E0003881,Rock,,,,,,,0,UKOS,192800,75770,-4.9258479451,50.54489630627,FER,,,,,,146,2005-10-10T00:00:00,2011-09-30T11:07:00,3,revise,active
9300PHY1,,,,Rock Padstow Ferry Landing,,,,,,End of Rock Road,,,,Quay,,,E0003881,Rock,,,,,,,0,UKOS,192790,75766,-4.92598666724,50.5448568368,FBT,,,,,,146,2013-10-22T12:06:00,2013-10-22T15:39:00,1,revise,active
9300PIE,,,,Piel Island Ferry Landing,,,,,,-,,,,,,,E0005189,Piel Island,,,,,,,0,UKOS,323366,463793,-3.17239026452,54.06435770038,FER,,,,,,146,2010-12-09T14:31:00,2010-12-09T14:34:00,1,revise,active
9300PIE1,,,,Piel Island Ferry Landing,,,,,,-,,,,,,,E0005189,Piel Island,,,,,,,0,UKOS,323380,463795,-3.17217691295,54.06437775648,FBT,,,,,,146,2010-12-09T14:32:00,2010-12-09T14:34:00,1,revise,active
9300PLN,,,,Port Ellen Islay Ferry Terminal,,,,,,A846 Charlotte Street,,,,,,,ES003051,Port Ellen,,,,,,,0,UKOS,136360,645105,-6.18982409262,55.62782575869,FER,,,,,,146,2005-10-10T00:00:00,2007-09-26T14:00:00,2,revise,active
9300PLN0,,,,Port Ellen Islay Ferry Terminal,,,,,,A846 Charlotte Street,,,,Pier,,,ES003051,Port Ellen,,,,,,,0,UKOS,136352,645070,-6.18991728001,55.62750778201,FBT,,,,,,146,2013-03-15T10:28:00,2014-08-26T15:54:00,1,revise,active
9300PLQ,,,,Plantation Quay Ferry Landing,,,,,,Pacific Drive,,,,,,,N0079231,Plantation,Glasgow,,,,,,0,UKOS,256693,665185,-4.29114329428,55.8584894734,FER,,,,,,146,2011-04-13T15:47:00,2011-04-13T15:50:00,1,revise,active
9300PLQ1,,,,Plantation Quay Ferry Landing,,,,,,Pacific Drive,,,,Pier,,,N0079231,Plantation,Glasgow,,,,,,0,UKOS,256694,665186,-4.29112786058,55.85849874841,FBT,,,,,,146,2011-04-13T15:49:00,2011-04-13T15:50:00,1,revise,active
9300PLW,,,,St Marys Wandsworth Pier,,,,,,Gartons Way,,,,,,,E0034892,Clapham Junction,London,,,,,,0,UKOS,526415,175766,-0.18149257084,51.46675427555,FER,,,,,,146,2015-04-15T14:44:00,2015-04-15T14:50:00,1,revise,active
9300PLW1,,,,Plantation Wharf Pier,,,,,,Gartons Way,,,,,,,E0034892,Clapham Junction,London,,,,,,0,UKOS,526395,175774,-0.18177748149,51.46683063441,FBT,,,,,,146,2015-04-15T14:46:00,2015-04-15T14:50:00,1,revise,active
9300PLW2,,,,Plantation Wharf Pier,,,,,,Gartons Way,,,,,,,E0034892,Clapham Junction,London,,,,,,0,UKOS,526385,175774,-0.18192136603,51.46683286564,FBT,,,,,,146,2016-03-11T15:14:00,2016-03-17T11:45:00,2,revise,active
9300PLY,,,,Plymouth Ferry Terminal,,,,,,Martin Street,,,,,,,N0073197,Plymouth,,,,,,,0,UKOS,246705,53885,-4.15672690969,50.36485231936,FER,,,,,,146,2005-10-10T00:00:00,2015-01-28T11:00:00,3,revise,active
9300PLY1,,,,Plymouth Ferry Terminal,,,,,,Martin Street,,,,Quay,,,N0073197,Plymouth,,,,,,,0,UKOS,246707,53877,-4.1566955501,50.36478094595,FBT,,,,,,146,2013-10-22T11:47:00,2015-01-28T11:01:00,2,revise,active
9300PMB,,,,Plymouth Mount Batten Ferry Landing,,,,,,Lawrence Road,,,,,,,E0040623,Mount Batten,Plymouth,,,,,,0,UKOS,248580,53405,-4.13019012244,50.36102433681,FER,,,,,,146,2006-11-27T00:00:00,2007-09-26T14:00:00,2,revise,active
9300PMB1,,,,Plymouth Mount Batten Ferry Landing,,,,,,Lawrence Road,,,,Quay,,,E0040623,Mount Batten,Plymouth,,,,,,0,UKOS,248587,53407,-4.1300925855,50.36104411295,FBT,,,,,,146,2013-10-22T11:48:00,2013-10-22T15:29:00,1,revise,active
9300PMC,,,,Portsmouth International Cruise & Ferry Terminal,,,,,,Off Island Way,,,,,,,E0040741,Stamshaw,Portsmouth,,,,,,0,UKOS,464276,101702,-1.08907259452,50.81131370149,FER,,,,,,146,2008-05-20T16:09:00,2013-11-25T15:44:00,4,revise,active
9300PMC1,,,,Portsmouth International Cruise & Ferry Terminal,,,,,,Off Island Way,,,,Quay,,,E0040741,Stamshaw,Portsmouth,,,,,,0,UKOS,464140,101733,-1.09099722883,50.81160748397,FBT,,,,,,146,2013-10-22T12:01:00,2013-11-25T15:44:00,2,revise,active
9300PMH,,,,Portsmouth Harbour Station Pier,,,,,,Station Approach Off B215,,,,,,,E0040736,Portsea,Portsmouth,,,,,,0,UKOS,462877,100086,-1.10920283548,50.79693679696,FER,,,,,,146,2008-05-20T17:21:00,2008-05-20T17:43:00,2,revise,active
9300PMH1,,,,Portsmouth Harbour Station Pier,,,,,,Station Approach,,,,pier,,,E0040736,Portsea,Portsmouth,,,,,,0,UKOS,462872,100095,-1.10927223367,50.79701826163,FBT,,,,,,146,2011-07-13T11:14:00,2011-07-13T13:32:00,1,revise,active
9300PMP,,,,Portsmouth Millenium Pontoon,,,,,,-,,,,,,,E0057225,Portsmouth,,,,,,,0,UKOS,462961,99558,-1.10810144646,50.79218019994,FER,,,,,,146,2015-12-01T13:11:00,2015-12-01T13:13:00,1,revise,active
9300PMP1,,,,Portsmouth Millenium Pontoon,,,,,,-,,,,Pier,,,E0057225,Portsmouth,,,,,,,0,UKOS,462961,99558,-1.10810144646,50.79218019994,FBT,,,,,,146,2015-12-01T13:12:00,2015-12-01T13:13:00,1,revise,active
9300PMT,,,,East Portlemouth Ferry Landing,,,,,,Off Cross Lane,,,,,,,E0045428,East Portlemouth,,,,,,,0,UKOS,274325,38705,-3.76354434284,50.23495127559,FER,,,,,,146,2005-10-10T00:00:00,2007-09-26T14:00:00,2,revise,active
9300PMT1,,,,East Portlemouth Ferry Landing,,,,,,Off Cross Lane,,,,Quay,,,E0045428,East Portlemouth,,,,,,,0,UKOS,274278,38713,-3.76420569327,50.23501318648,FBT,,,,,,146,2013-10-22T10:42:00,2013-10-22T14:38:00,1,revise,active
9300POC,,,,Portsmouth IOW Car Ferry Terminal,,,,,,Gunwharf Road,,,,,,,E0040736,Portsea,Portsmouth,,,,,,0,UKOS,463103,99640,-1.10607300909,50.79290208555,FER,,,,,,146,2005-10-10T00:00:00,2008-05-20T15:46:00,2,revise,active
9300POC1,,,,Portsmouth IOW Car Ferry Terminal,,,,,,Gunwharf Road,,,,quay,,,E0040736,Portsea,Portsmouth,,,,,,0,UKOS,463103,99663,-1.10606906544,50.79310888918,FBT,,,,,,146,2011-07-13T11:16:00,2011-07-13T13:32:00,1,revise,active
9300POL,,,,Polruan Ferry Landing,,,,,,The Quay,,,,,,,E0002645,Polruan,,,,,,,0,UKOS,212568,51068,-4.63481116558,50.32965872582,FER,,,,,,146,2005-10-10T00:00:00,2007-09-26T14:00:00,2,revise,active
9300POL1,,,,Polruan Ferry Landing,,,,,,The Quay,,,,Quay,,,E0002645,Polruan,,,,,,,0,UKOS,212567,51066,-4.63482420566,50.32964044005,FBT,,,,,,146,2013-10-22T11:55:00,2013-10-24T12:08:00,2,revise,active
9300PON,,,,Ponsharden Ferry Landing,,,,,,Falmouth Road,,,,,,,E0044498,Penryn,,,,,,,0,UKOS,179585,33980,-5.08762451321,50.16478640077,FER,,,,,,146,2005-10-10T00:00:00,2011-09-30T11:07:00,3,revise,active
9300PON1,,,,Ponsharden Ferry Landing,,,,,,Falmouth Road,,,,Quay,,,E0044498,Penryn,,,,,,,0,UKOS,179596,33992,-5.08747767628,50.16489825833,FBT,,,,,,146,2013-10-22T11:57:00,2013-10-22T15:33:00,1,revise,active
9300POP,,,,Poole Quay Ferry Landing,,,,,,The Quay Aquarium and Information Centre,,,,,,,E0057224,Poole,,,,,,,0,UKOS,401125,90250,-1.98543045969,50.71188346418,FER,,,,,,146,2008-06-18T19:38:00,2010-02-10T15:08:00,2,revise,active
9300POP1,,,,Poole Quay Ferry Landing,,,,,,The Quay Aquarium and Information Centre,,,,Quay,,,E0057224,Poole,,,,,,,0,UKOS,401132,90248,-1.98533132257,50.71186546661,FBT,,,,,,146,2013-10-22T12:00:00,2013-10-22T15:34:00,1,revise,active
9300POU,,,,Pooley Bridge Ullswater Ferry Landing,,,,,,B5320,,,,,,,E0006004,Pooley Bridge,,,,,,,0,UKOS,346657,524199,-2.82740601449,54.61012152537,FER,,,,,,146,2005-10-10T00:00:00,2007-09-26T14:00:00,2,revise,active
9300POU1,,,,Pooley Bridge Ullswater Ferry Landing,,,,,,B5320,,,,Pier,,,E0006004,Pooley Bridge,,,,,,,0,UKOS,346652,524195,-2.82748268935,54.61008505302,FBT,,,,,,146,2011-10-10T15:17:00,2011-10-10T15:30:00,1,revise,active
9300POV,,,,Poole Ferry Terminal,,,,,,New Harbour Road,,,,,,,E0040696,Lower Hamworthy,Poole,,,,,,0,UKOS,400573,89892,-1.99324900919,50.70866477958,FER,,,,,,146,2008-06-18T19:36:00,2010-02-10T15:08:00,2,revise,active
9300POV1,,,,Poole Ferry Terminal,,,,,,New Harbour Road,,,,Quay,,,E0040696,Lower Hamworthy,Poole,,,,,,0,UKOS,400442,89832,-1.99510431899,50.70812530668,FBT,,,,,,146,2013-10-22T11:59:00,2013-10-22T15:34:00,1,revise,active
9300PPR,,,,Porth Penrhyn Ferry Landing,,,,,,Porth Penrhyn area,,,,,,,E0054266,Barmouth,,,,,,,0,UKOS,261719,315016,-4.04854417299,52.71508185028,FER,,,,,,146,2005-10-10T00:00:00,2007-09-26T14:00:00,2,revise,active
9300PRA,,,,Port Ramsay Lismore Ferry Terminal,,,,,,Top of B8045 (North),,,,,,,N0076390,Lismore Point,,,,,,,0,UKOS,189435,746125,-5.42816640043,56.55973579109,FER,,,,,,146,2005-10-10T00:00:00,2007-09-26T14:00:00,2,revise,active
9300PRE,,,,Portree Ferry Terminal,,,,,,Quay Street,,,,,,,ES003070,Portree,,,,,,,0,UKOS,148462,843368,-6.19003128039,57.41086660799,FER,,,,,,146,2007-03-21T11:00:00,2007-09-26T14:00:00,1,revise,active
9300PST,,,,Papa Stour Shetland Ferry Terminal,,,,,,Main Road North,,,,,,,N0067659,Papa Stour,,,,,,,0,UKOS,418174,1160847,-1.67270024512,60.3312850837,FER,,,,,,146,2005-10-10T00:00:00,2014-08-05T15:17:00,3,revise,active
9300PTD,,,,Portishead Pier,,,,,,Lockside,,,,,,,E0040053,Portishead Harbour,,,,,,,0,UKOS,347720,177595,-2.75446594006,51.49486894187,FER,,,,,,146,2008-04-03T16:01:00,2008-04-03T16:38:00,1,revise,active
9300PTH,,,,Penarth Pier,,,,,,Esplanade,,,,,,,E0054764,Penarth,,,,,,,0,UKOS,319120,171290,-3.16491824087,51.43481523699,FER,,,,,,146,2008-04-03T15:58:00,2008-04-03T16:37:00,1,revise,active
9300PTH1,,,,Penarth Pier,,,,,,Esplanade,,,,Quay,,,E0054764,Penarth,,,,,,,0,UKOS,319132,171289,-3.16474542019,51.43480796272,FBT,,,,,,146,2013-10-22T11:33:00,2013-10-22T15:20:00,1,revise,active
9300PTM,,,,Muck Ferry Terminal,,,,,,The Main Street,,,,,,,N0076375,Port Mor,Muck,,,,,,0,UKOS,142265,779320,-6.22690467937,56.83364197933,FER,,,,,,146,2005-10-10T00:00:00,2007-09-26T14:00:00,2,revise,active
9300PTM0,,,,Muck Ferry Terminal,,,,,,The Main Street,,,,Quay,,,N0076375,Port Mor,Muck,,,,,,0,UKOS,142351,779152,-6.22532933723,56.83218452449,FBT,,,,,,146,2013-03-15T11:14:00,2014-08-26T15:54:00,1,revise,active
9300PUT,,,,Putney Pier,,,,,,Lower Richmond Road,,,,,,,E0034898,Putney,London,,,,,,0,UKOS,524033,175744,-0.21577403801,51.46708313494,FER,,,,,,146,2005-10-10T00:00:00,2013-04-23T15:43:00,2,revise,active
9300PUT1,,,,Putney Pier,,,,,,Lower Richmond Road,,,,Quay,,,E0034898,Putney,London,,,,,,0,UKOS,524052,175768,-0.21549223588,51.46729466595,FBT,,,,,,146,2010-12-03T18:41:00,2013-04-23T15:44:00,3,revise,active
9300PWL,,,,Westray Pierowall Orkney Ferry Terminal,,,,,,B9066 Gill Pier Road,,,,,,,N0078245,Pierowall,Westray,,,,,,0,UKOS,344670,1048995,-2.97394909627,59.32370151436,FER,,,,,,146,2005-10-10T00:00:00,2007-11-19T17:30:00,3,revise,active
9300PWY,,,,Papa Westray Orkney Ferry Terminal,,,,,,Main Road,,,,,,,ES003839,Papa Westray,,,,,,,0,UKOS,349364,1049280,-2.89155079023,59.32685078908,FER,,,,,,146,2005-10-10T00:00:00,2008-06-12T18:09:00,3,revise,active
9300RAA,,,,Raasay Ferry Terminal,,,,,,Main Road,,,,,,,ES003105,Raasay,,,,,,,0,UKOS,154518,836321,-6.08245399886,57.35103572153,FER,,,,,,146,2005-10-10T00:00:00,2010-08-12T16:04:00,3,revise,active
9300RAP,,,,Rapness Orkney Ferry Terminal,,,,,,B9066 South,,,,,,,ES003838,Rapness,Westray,,,,,,0,UKOS,351136,1040553,-2.85844077976,59.24870064157,FER,,,,,,146,2005-10-10T00:00:00,2008-06-12T18:08:00,4,revise,active
9300RAY,,,,Rothesay Ferry Terminal,,,,,,Off A844 Argyle Street,,,,,,,ES003206,Rothesay,,,,,,,0,UKOS,208847,664805,-5.0542280893,55.83848787829,FER,,,,,,146,2005-10-10T00:00:00,2007-09-26T14:00:00,2,revise,active
9300RAY0,,,,Rothesay Ferry Terminal,,,,,,Off A844 Argyle Street,,,,Front Pier,,,ES003206,Rothesay,,,,,,,0,UKOS,208918,664856,-5.05313194099,55.83897357995,FBT,,,,,,146,2013-03-15T10:17:00,2014-08-26T15:54:00,1,revise,active
9300RDM,,,,Reedham Ferry North,,,,,,Ferry Road,,,,,,,E0048483,Reedham,,,,,,,0,UKOS,640747,301507,1.55023393418,52.55810401349,FER,,,,,,146,2010-11-18T14:09:00,2010-11-18T14:10:00,1,revise,active
9300RDM1,,,,Reedham Ferry North,,,,,,Ferry Road,,,,Quay,,,E0048483,Reedham,,,,,,,0,UKOS,640750,301497,1.55027084836,52.55801296192,FBT,,,,,,146,2010-11-18T14:12:00,2013-05-31T10:32:00,2,revise,active
9300RFW,,,,Renfrew Ferry Terminal,,,,,,Clyde Street,,,,,,,ES000397,Blythswood,,,,,,,0,UKOS,251040,668395,-4.38313867969,55.88559213695,FER,,,,,,146,2005-10-10T00:00:00,2007-09-26T14:00:00,2,revise,active
9300RHH,,,,Ham House Ferry Landing,,,,,,-,,,,,,,E0034774,Richmond,London,,,,,,0,UKOS,517316,173284,-0.31324284486,51.4464045189,FER,,,,,,146,2011-12-13T16:39:00,2014-02-05T16:38:00,2,revise,active
9300RHH1,,,,Ham House Ferry Landing,,,,,,-,,,,,,,E0034774,Richmond,London,,,,,,0,UKOS,517326,173284,-0.31309901444,51.44640244938,FBT,,,,,,146,2011-12-13T16:40:00,2014-02-05T16:39:00,2,revise,active
9300RHM,,,,Reedham Ferry South,,,,,,Ferry Road,,,,,,,E0048483,Reedham,,,,,,,0,UKOS,640782,301437,1.5506984339,52.55746046433,FER,,,,,,146,2005-10-10T00:00:00,2010-11-18T14:07:00,2,revise,active
9300RHM1,,,,Reedham Ferry South,,,,,,Ferry Road,,,,Quay,,,E0048483,Reedham,,,,,,,0,UKOS,640778,301453,1.55065115062,52.55760579343,FBT,,,,,,146,2010-11-18T14:13:00,2013-05-31T10:32:00,3,revise,active
9300RHU,,,,Rhubodach Bute Ferry Terminal,,,,,,A886,,,,,,,N0072766,Rhubodach,,,,,,,0,UKOS,202713,674243,-5.15889697656,55.92068940271,FER,,,,,,146,2005-10-10T00:00:00,2007-09-26T14:00:00,2,revise,active
9300RLS,,,,Richmond Landing Stage,,,,,,Old Deer Park Recreation Ground,,,,,,,E0034774,Richmond,London,,,,,,0,UKOS,517787,174490,-0.30606732733,51.45714590646,FER,,,,,,146,2005-10-10T00:00:00,2011-12-13T16:06:00,3,revise,active
9300RLS1,,,,Richmond Landing Stage,,,,,,Old Deer Park Recreation Ground,,,,Quay,,,E0034774,Richmond,London,,,,,,0,UKOS,517784,174484,-0.30611248263,51.45709260443,FBT,,,,,,146,2010-12-03T18:42:00,2011-12-13T16:05:00,3,revise,active
9300RLS2,,,,Richmond Landing Stage,,,,,,Old Deer Park Recreation Ground,,,,Quay,,,E0034774,Richmond,London,,,,,,0,UKOS,517774,174484,-0.30625634614,51.45709468282,FBT,,,,,,146,2016-03-11T15:18:00,2016-03-11T15:19:00,1,revise,active
9300RMG,,,,Ramsgate Ferry Terminal,,,,,,West Cliff Promenade,,,,,,,E0015445,Ramsgate,,,,,,,0,UKOS,637950,164215,1.41410303235,51.32722408826,FER,,,,,,146,2005-10-10T00:00:00,2007-09-26T14:00:00,2,revise,active
9300RMG1,,,,Ramsgate Ferry Terminal,,,,,,West Cliff Promenade,,,,Quay,,,E0015445,Ramsgate,,,,,,,0,UKOS,638033,164094,1.41521136779,51.32610332085,FBT,,,,,,146,2013-10-22T12:04:00,2013-10-22T15:36:00,1,revise,active
9300RMY,,,,Ramsey Island Ferry Landing,,,,,,Ramsey area,,,,,,,N0071335,Rhosson,,,,,,,0,UKOS,170627,223703,-5.33288243303,51.86463238835,FER,,,,,,146,2005-10-10T00:00:00,2007-09-26T14:00:00,2,revise,active
9300ROA,,,,Roa Island Ferry Landing,,,,,,Piel Street,,,,,,,E0005191,Roa Island,,,,,,,0,UKOS,323268,464807,-3.17414438308,54.073454553,FER,,,,,,146,2010-12-09T14:26:00,2010-12-09T14:29:00,1,revise,active
9300ROA1,,,,Roa Island Ferry Landing,,,,,,Piel Street,,,,,,,E0005191,Roa Island,,,,,,,0,UKOS,323270,464780,-3.1741069774,54.07321223877,FBT,,,,,,146,2010-12-09T14:27:00,2010-12-09T14:29:00,1,revise,active
9300ROU,,,,Rousay Orkney Ferry Terminal,,,,,,B9065,,,,,,,ES003210,Rousay,,,,,,,0,UKOS,343655,1027475,-2.98618737911,59.13034486901,FER,,,,,,146,2005-10-10T00:00:00,2007-09-26T14:00:00,2,revise,active
9300ROW,,,,Rowardennan Pier,,,,,,-,,,,,,,N0071781,Rowardennan,Drymen,,,,,,0,UKOS,235878,698661,-4.64378040839,56.15230566832,FER,,,,,,146,2010-08-12T16:21:00,2010-08-12T16:29:00,1,revise,active
9300ROY,,,,Rosyth Ferry Terminal,,,,,,Selkirk Road,,,,,,,ES003200,Rosyth,,,,,,,0,UKOS,310397,682087,-3.43914501243,56.0232836511,FER,,,,,,146,2006-05-16T00:00:00,2019-07-05T09:28:00,2,revise,active
9300RSH,,,,Richmond St. Helena Pier,,,,,,Northumberland Place,,,,,,,E0034774,Richmond,London,,,,,,0,UKOS,517621,174650,-0.30840230559,51.45861840302,FER,,,,,,146,2005-10-10T00:00:00,2011-12-13T16:02:00,4,revise,active
9300RSH1,,,,Richmond St. Helena Pier,,,,,,Northumberland Place,,,,Quay,,,E0034774,Richmond,London,,,,,,0,UKOS,517624,174632,-0.30836512602,51.4584560034,FBT,,,,,,146,2010-12-03T18:43:00,2011-12-13T16:02:00,3,revise,active
9300RVM,,,,Riverside Museum (Glasgow) Ferry Landing,,,,,,Ferry Road,,,,,,,N0079223,Kelvinhaugh,Glasgow,,,,,,0,UKOS,255784,665931,-4.30604986462,55.86491564297,FER,,,,,,146,2011-03-18T14:27:00,2011-03-18T14:31:00,1,revise,active
9300RVM1,,,,Riverside Museum (Glasgow) Ferry Landing,,,,,,Ferry Road,,,,Pier,,,N0079223,Kelvinhaugh,Glasgow,,,,,,0,UKOS,255784,665930,-4.30604933242,55.86490666537,FBT,,,,,,146,2011-03-18T14:28:00,2011-03-18T14:31:00,1,revise,active
9300RWY,,,,Royal William Yard Ferry Landing,,,,,,,,,,N/A,,,E0040652,Stonehouse,Plymouth,,,,,,0,UKOS,246100,53575,-4.16510013119,50.36190839562,FER,,,,,,146,2019-08-22T17:07:26,2019-08-22T17:07:26,1,new,active
9300RWY1,,,,Royal William Yard Ferry Landing,,,,,,,,,,Pier,,,E0040652,Stonehouse,Plymouth,,,,,,0,UKOS,246102,53577,-4.16507285176,50.36192689256,FBT,,,,,,146,2019-08-22T17:07:26,2019-08-22T17:07:26,1,new,active
9300RYD,,,,Ryde Pier Head Ferry Terminal,,,,,,Pier Head,,,,,,,E0038957,Ryde,,,,,,,0,UKOS,459328,93645,-1.16059053509,50.73939521631,FER,,,,,,146,2005-10-10T00:00:00,2007-09-26T14:00:00,2,revise,active
9300RYD1,,,,Ryde Pier Head Ferry Terminal,,,,,,Pier Head,,,,pier,,,E0038957,Ryde,,,,,,,0,UKOS,459328,93655,-1.16058892812,50.73948513306,FBT,,,,,,146,2011-07-13T11:18:00,2011-07-13T13:33:00,1,revise,active
9300RYH,,,,Ryde Hoverport,,,,,,Quay Road,,,,,,,E0038957,Ryde,,,,,,,0,UKOS,459499,92894,-1.15828847293,50.73262500611,FER,,,,,,146,2005-10-10T00:00:00,2007-09-26T14:00:00,1,revise,active
9300RYH1,,,,Ryde Hoverport,,,,,,Quay Road,,,,landing,,,E0038957,Ryde,,,,,,,0,UKOS,459529,92894,-1.15786343422,50.73262193811,FBT,,,,,,146,2011-07-13T11:20:00,2011-07-13T13:34:00,1,revise,active
9300SBK,,,,Sunny Bank (Coniston) Ferry Landing,,,,,,-,,,,,,,E0006437,Sunny Bank,,,,,,,0,UKOS,329222,492241,-3.08963934509,54.32082295872,FER,,,,,,146,2010-07-16T17:00:00,2010-07-16T17:05:00,1,revise,active
9300SBK1,,,,Sunny Bank (Coniston) Ferry Landing,,,,,,-,,,,Pier,,,E0006437,Sunny Bank,,,,,,,0,UKOS,329215,492240,-3.08974670349,54.32081300112,FBT,,,,,,146,2011-10-10T15:18:00,2011-10-10T15:30:00,1,revise,active
9300SCG,,,,Scoraig Ferry Landing,,,,,,Jetty,,,,,,,N0076359,Scoraig,,,,,,,0,UKOS,199994,896176,-5.3776304619,57.90998250618,FER,,,,,,146,2005-10-10T00:00:00,2007-09-26T14:00:00,2,revise,active
9300SCO,,,,Sconser Isle Of Skye Ferry Terminal,,,,,,Off A87 at Sconser,,,,,,,N0067981,Sconser,,,,,,,0,UKOS,152593,832300,-6.11032890397,57.31396856061,FER,,,,,,146,2005-10-10T00:00:00,2007-09-26T14:00:00,2,revise,active
9300SCR,,,,Scrabster Ferry Terminal,,,,,,A9,,,,,,,N0067693,Scrabster,Thurso,,,,,,0,UKOS,310389,970300,-3.54415465105,58.61135636371,FER,,,,,,146,2005-10-10T00:00:00,2008-04-03T17:01:00,3,revise,active
9300SCY,,,,Scalloway Shetland Ferry Terminal,,,,,,Terminal Group,,,,,,,ES003259,Scalloway,,,,,,,0,UKOS,440310,1139110,-1.27617727515,60.13454138869,FER,,,,,,146,2006-04-12T00:00:00,2009-06-12T16:25:00,3,revise,active
9300SDN,,,,Shaldon Teignmouth Ferry Landing,,,,,,Marine Parade,,,,,,,E0045509,Shaldon,,,,,,,0,UKOS,293570,72240,-3.50330568272,50.54021639394,FER,,,,,,146,2005-10-10T00:00:00,2010-11-08T15:50:00,3,revise,active
9300SDN1,,,,Shaldon Teignmouth Ferry Landing,,,,,,Marine Parade,,,,Quay,,,E0045509,Shaldon,,,,,,,0,UKOS,293577,72239,-3.50320664859,50.54020867932,FBT,,,,,,146,2013-10-22T12:08:00,2013-10-22T15:40:00,1,revise,active
9300SEA,,,,Seacombe Ferry Terminal,,,,,,Seacombe Promenade,,,,,,,E0029875,Seacombe,Wallasey,,,,,,0,UKOS,332540,390810,-3.01629483103,53.40977271873,FER,,,,,,146,2005-10-10T00:00:00,2008-11-17T19:16:00,3,revise,active
9300SEC,,,,Glasgow SECC Ferry Landing,,,,,,Congress Road,,,,,,,N0072795,Finnieston,Glasgow,,,,,,0,UKOS,256782,665281,-4.28977336476,55.85937778621,FER,,,,,,146,2013-03-08T10:44:00,2013-03-08T10:46:00,1,revise,active
9300SEC1,,,,Glasgow SECC Ferry Landing,,,,,,Congress Road,,,,Pier,,,N0072795,Finnieston,Glasgow,,,,,,0,UKOS,256784,665281,-4.28974143934,55.85937838049,FBT,,,,,,146,2013-03-08T10:45:00,2013-03-08T10:46:00,1,revise,active
9300SGW,,,,Vauxhall St George Wharf Pier,,,,,,Nine Elms Lane,,,,-,,,E0034648,Vauxhall,London,,,,,,0,UKOS,530152,178033,-0.12688992315,51.48628081497,FER,,,,,,146,2011-11-07T15:33:00,2017-12-06T18:04:46,3,revise,active
9300SGW1,,,,Vauxhall St George Wharf Pier,,,,,,Nine Elms Lane,,,,Quay,,,E0034648,Vauxhall,London,,,,,,0,UKOS,530152,178053,-0.12688255751,51.4864605485,FBT,,,,,,146,2011-11-07T15:34:00,2017-12-06T18:04:46,3,revise,active
9300SGW2,,,,Vauxhall St George Wharf Pier,,,,,,Nine Elms Lane,,,,Quay,,,E0034648,Vauxhall,London,,,,,,0,UKOS,530145,178053,-0.12698331682,51.48646215796,FBT,,,,,,146,2016-03-11T15:22:00,2017-12-06T18:04:46,2,revise,active
9300SHP,,,,Shepperton Ferry Landing,,,,,,Ferry Lane,,,,,,,E0025646,Shepperton,,,,,,,0,UKOS,507464,165978,-0.45716494644,51.38268899881,FER,,,,,,146,2010-02-10T15:16:00,2010-02-10T15:17:00,1,revise,active
9300SHP1,,,,Shepperton Ferry Landing,,,,,,Ferry Lane,,,,Quay,,,E0025646,Shepperton,,,,,,,0,UKOS,507471,165981,-0.45706349112,51.38271464007,FBT,,,,,,146,2010-12-03T18:44:00,2010-12-14T15:43:00,2,revise,active
9300SHS,,,,Sharpness Old Docks,,,,,,Bridge Road,,,,,,,E0012335,Sharpness,,,,,,,0,UKOS,366795,203055,-2.48213117829,51.72522532147,FER,,,,,,146,2008-04-03T16:02:00,2008-04-03T16:39:00,1,revise,active
9300SHY,,,,Shotley Point Marina Ferry Landing,,,,,,Edward VII Drive,,,,,,,E0024740,Shotley Gate,Shotley,,,,,,0,UKOS,625218,233837,1.27645562368,51.95738249009,FER,,,,,,146,2005-10-10T00:00:00,2008-10-03T10:56:00,4,revise,active
9300SHY1,,,,Shotley Point Marina Ferry Landing,,,,,,Edward VII Drive,,,,Quay,,,E0024740,Shotley Gate,Shotley,,,,,,0,UKOS,625224,233842,1.27654606944,51.95742494239,FBT,,,,,,146,2013-03-25T13:48:00,2013-03-25T13:49:00,1,revise,active
9300SKO,,,,Skomer Island Ferry Landing,,,,,,Skomer Island area,,,,,,,N0061307,Skomer Island,,,,,,,0,UKOS,173486,209493,-5.28214599592,51.73824893683,FER,,,,,,146,2005-10-10T00:00:00,2007-09-26T14:00:00,2,revise,active
9300SLC,,,,Salcombe Ferry Landing,,,,,,B3204 Fore Street,,,,,,,E0045449,Salcombe,,,,,,,0,UKOS,274133,38870,-3.76629000394,50.23639360033,FER,,,,,,146,2005-10-10T00:00:00,2007-09-26T14:00:00,2,revise,active
9300SLC1,,,,Salcombe Ferry Landing,,,,,,B3204 Fore Street,,,,Quay,,,E0045449,Salcombe,,,,,,,0,UKOS,274143,38863,-3.76614752619,50.23633280735,FBT,,,,,,146,2013-10-22T12:06:00,2013-10-22T15:40:00,1,revise,active
9300SMH,,,,St Margarets Hope Ferry Terminal,,,,,,Pier Road,,,,,,,ES003370,St Margarets Hope,South Ronaldsay,,,,,,0,UKOS,344578,994262,-2.96171465906,58.83224257486,FER,,,,,,146,2005-10-10T00:00:00,2007-11-19T17:30:00,3,revise,active
9300SNS,,,,Stromness Orkney Ferry Terminal,,,,,,A965 Ferry Road,,,,,,,ES003556,Stromness,,,,,,,0,UKOS,325605,1009330,-3.29532240608,58.96466097959,FER,,,,,,146,2005-10-10T00:00:00,2007-09-26T14:00:00,2,revise,active
9300SOP,,,,Southampton Passenger Ferry Terminal,,,,,,Town Quay,,,,2,,,E0041983,Eastern Docks,Southampton,,,,,,0,UKOS,441921,110714,-1.40531385372,50.89439444535,FER,,,,,,146,2008-06-18T19:19:00,2008-06-18T19:24:00,2,revise,active
9300SOP1,,,,Southampton Passenger Ferry Terminal,,,,,,Town Quay,,,,quay,,,E0041983,Eastern Docks,Southampton,,,,,,0,UKOS,441915,110710,-1.40539961801,50.894358912,FBT,,,,,,146,2011-07-13T11:35:00,2011-07-13T13:38:00,1,revise,active
9300SOS,,,,Southsea Hoverport,,,,,,Hovercraft Terminal. Pier Road,,,,,,,E0040739,Southsea,Portsmouth,,,,,,0,UKOS,463545,98784,-1.09995058472,50.78515719754,FER,,,,,,146,2006-02-15T00:00:00,2008-02-14T11:16:00,2,revise,active
9300SOS1,,,,Southsea Hoverport,,,,,,Pier Road,,,,landing,,,E0040739,Southsea,Portsmouth,,,,,,0,UKOS,463545,98754,-1.09995576234,50.78488745375,FBT,,,,,,146,2011-07-13T11:24:00,2011-07-13T13:35:00,1,revise,active
9300SOV,,,,Southampton Vehicle Ferry Terminal,,,,,,Town Quay,,,,1,,,E0041983,Eastern Docks,Southampton,,,,,,0,UKOS,441852,110859,-1.40627830823,50.89570326412,FER,,,,,,146,2008-06-18T19:17:00,2008-06-18T19:24:00,2,revise,active
9300SOV1,,,,Southampton Vehicle Ferry Terminal,,,,,,Town Quay,,,,quay,,,E0041983,Eastern Docks,Southampton,,,,,,0,UKOS,441855,110850,-1.40623668239,50.89562212005,FBT,,,,,,146,2011-07-13T11:25:00,2011-08-03T15:48:00,2,revise,active
9300SPY,,,,Shapinsay Orkney Ferry Terminal,,,,,,B9059,,,,,,,ES003291,Balfour,Shapinsay,,,,,,0,UKOS,347890,1016387,-2.90956699982,59.03132519336,FER,,,,,,146,2005-10-10T00:00:00,2007-09-26T14:00:00,2,revise,active
9300SQF,,,,Hawes Pier,,,,,,Edinburgh Road,,,,,,,ES003099,Queensferry,,,,,,,0,UKOS,313653,678435,-3.38574923453,55.99107960362,FER,,,,,,146,2005-10-10T00:00:00,2014-06-20T13:15:00,4,revise,active
9300SSD,,,,South Sands Ferry Landing,,,,,,South Sands area,,,,,,,E0008349,Mill Bay,,,,,,,0,UKOS,272825,37660,-3.78421566051,50.22523663627,FER,,,,,,146,2005-10-10T00:00:00,2010-11-08T15:50:00,3,revise,active
9300SSD1,,,,South Sands Ferry Landing,,,,,,South Sands area,,,,Quay,,,E0008349,Mill Bay,,,,,,,0,UKOS,272859,37680,-3.78374596761,50.22542373496,FBT,,,,,,146,2013-10-22T12:15:00,2013-10-22T15:42:00,1,revise,active
9300SSH,,,,South Shields Ferry Terminal,,,,,,B1344 Ferry Street,,,,,,,E0031176,South Shields,,,,,,,0,UKOS,435920,567150,-1.44005333625,54.99763980267,FER,,,,,,146,2005-10-10T00:00:00,2007-09-26T14:00:00,2,revise,active
9300SSH1,,,,South Shields Ferry Terminal,,,,,,B1344 Ferry Street,,,,Pier,,,E0031176,South Shields,,,,,,,0,UKOS,435836,567108,-1.44137154401,54.99726843466,FBT,,,,,,146,2011-10-10T15:19:00,2011-10-10T15:30:00,1,revise,active
9300STA,,,,Starcross Ferry Landing,,,,,,A379 The Strand,,,,,,,E0008586,Starcross,,,,,,,0,UKOS,297860,81790,-3.44541254046,50.62683694586,FER,,,,,,146,2005-10-10T00:00:00,2010-11-08T15:51:00,3,revise,active
9300STA1,,,,Starcross Ferry Landing,,,,,,A379 The Strand,,,,Quay,,,E0008586,Starcross,,,,,,,0,UKOS,297860,81792,-3.44541309191,50.62685492576,FBT,,,,,,146,2013-10-22T12:21:00,2013-10-22T15:53:00,1,revise,active
9300STC,,,,Tower Bridge Quay,,,,,,Off Tower Bridge,,,,,,,E0034863,Wapping,London,,,,,,0,UKOS,533780,180337,-0.07379662774,51.50613965282,FER,,,,,,146,2005-10-10T00:00:00,2021-05-17T10:52:19,3,revise,active
9300STC1,,,,Tower Bridge Quay,,,,,,Off Tower Bridge,,,,Quay,,,E0034863,Wapping,London,,,,,,0,UKOS,533796,180322,-0.07357191413,51.50600107294,FBT,,,,,,146,2010-12-03T18:46:00,2021-05-17T10:52:19,4,revise,active
9300STC2,,,,Tower Bridge Quay,,,,,,Off Tower Bridge,,,,Quay,,,E0034863,Wapping,London,,,,,,0,UKOS,533785,180322,-0.073730313,51.50600367472,FBT,,,,,,146,2016-03-14T15:33:00,2021-05-17T10:52:19,2,revise,active
9300STF,,,,Staffa Ferry Landing,,,,,,Am Buachaille,,,,,,,N0079581,Staffa,,,,,,,0,UKOS,132610,735114,-6.33890313006,56.4322058223,FER,,,,,,146,2011-01-24T14:28:00,2011-01-24T14:28:00,1,revise,active
9300STJ,,,,St. Justinian Ferry Landing,,,,,,St. Justinian area,,,,,,,N0071335,Rhosson,,,,,,,0,UKOS,172325,225092,-5.30918078286,51.87779547758,FER,,,,,,146,2005-10-10T00:00:00,2007-09-26T14:00:00,2,revise,active
9300STL,,,,Stronachlachar Pier,,,,,,-,,,,,,,N0067345,Stronachlachar,Aberfoyle,,,,,,0,UKOS,240473,710248,-4.57686048149,56.25786216028,FER,,,,,,146,2013-08-01T11:01:00,2013-08-01T11:06:00,1,revise,active
9300STL1,,,,Stronachlachar Pier,,,,,,-,,,,Pier,,,N0067345,Stronachlachar,Aberfoyle,,,,,,0,UKOS,240474,710248,-4.57684435676,56.2578624962,FBT,,,,,,146,2013-08-01T11:02:00,2013-08-01T11:06:00,1,revise,active
9300STO,,,,Stornoway Lewis Ferry Terminal,,,,,,A866 South Beach,,,,,,,ES003504,Stornoway,,,,,,,0,UKOS,142372,932546,-6.38720291486,58.20616360311,FER,,,,,,146,2005-10-10T00:00:00,2008-04-03T17:02:00,3,revise,active
9300STO0,,,,Stornoway Lewis Ferry Terminal,,,,,,A866 South Beach,,,,Pier,,,ES003504,Stornoway,,,,,,,0,UKOS,142361,932517,-6.387357448,58.20589747948,FBT,,,,,,146,2013-03-15T11:35:00,2014-08-26T15:55:00,1,revise,active
9300STP,,,,St Philip's Bridge,,,,,,,,,,,,,E0057160,Bristol,,,,,,,0,UKOS,359363,172881,-2.58621988438,51.45344445023,FER,,,,,,146,2017-01-17T13:36:12,2017-01-17T13:36:12,0,new,active
9300STP1,,,,St Philip's Bridge,,,,,,,,,,Pier,,,E0057160,Bristol,,,,,,,0,UKOS,359630,172876,-2.58237698192,51.45341865099,FBT,,,,,,146,2017-01-17T13:36:12,2017-01-17T13:36:12,0,new,active
9300STR,,,,Stranraer Ferry Terminal,,,,,,A717 Harbour Street,,,,,,,ES003513,Stranraer,,,,,,,0,UKOS,206295,561178,-5.02310837193,54.907646938,FER,,,,,,146,2009-01-12T17:58:00,2014-09-02T10:33:00,2,revise,active
9300STY,,,,Stronsay Orkney Ferry Terminal,,,,,,Whitehall Village,,,,,,,ES003564,Whitehall,Stronsay,,,,,,0,UKOS,365891,1028578,-2.59789158655,59.14261928494,FER,,,,,,146,2005-10-10T00:00:00,2008-04-24T17:31:00,4,revise,active
9300SUM,,,,Grutness Shetland Ferry Terminal,,,,,,A970 South,,,,,,,N0067518,Grutness,Sumburgh,,,,,,0,UKOS,440497,1110136,-1.27849733779,59.87438646102,FER,,,,,,146,2005-10-10T00:00:00,2007-09-26T14:00:00,2,revise,active
9300SVQ,,,,Sovereign Quay Waterbus Stop,,,,,,Havannah Street,,,,,,,N0078138,Cardiff Bay,Cardiff,,,,,,0,UKOS,319036,174232,-3.16680051152,51.46125085338,FER,,,,,,146,2011-01-31T17:21:00,2011-01-31T18:15:00,1,revise,active
9300SVQ1,,,,Sovereign Quay Waterbus Stop,,,,,,Havannah Street,,,,Landing stage,,,N0078138,Cardiff Bay,Cardiff,,,,,,0,UKOS,319045,174227,-3.16666984641,51.46120719424,FBT,,,,,,146,2011-01-31T17:44:00,2011-01-31T18:15:00,1,revise,active
9300SWA,,,,Swansea Queens Dock Ferry Terminal,,,,,,Roberts Road,,,,,,,N0061391,Swansea Ferry Terminal,,,,,,,0,UKOS,266710,192185,-3.92642540398,51.61267069448,FER,,,,,,146,2005-10-10T00:00:00,2007-09-26T14:00:00,2,revise,active
9300SWD,,,,Sandbanks Ferry Terminal,,,,,,Ferry Way B3369,,,,,,,E0040706,Sandbanks,Poole,,,,,,0,UKOS,403720,87085,-1.9487077677,50.6834112603,FER,,,,,,146,2005-10-10T00:00:00,2007-09-26T14:00:00,2,revise,active
9300SWD1,,,,Sandbanks Ferry Terminal,,,,,,Ferry Way B3369,,,,Quay,,,E0040706,Sandbanks,Poole,,,,,,0,UKOS,403716,87052,-1.9487647078,50.68311452517,FBT,,,,,,146,2013-10-22T12:08:00,2013-10-22T15:40:00,1,revise,active
9300SWK,,,,Bankside Pier,,,,,,Bankside,,,,,,,N0060501,Southwark,London,,,,,,0,UKOS,532206,180546,-0.09638409801,51.5083879033,FER,,,,,,146,2005-10-10T00:00:00,2010-12-06T17:01:00,2,revise,active
9300SWK1,,,,Bankside Pier,,,,,,Bankside,,,,Quay,,,N0060501,Southwark,London,,,,,,0,UKOS,532188,180585,-0.09662870669,51.50874258331,FBT,,,,,,146,2010-12-03T18:47:00,2010-12-14T15:43:00,2,revise,active
9300SWK2,,,,Bankside Pier,,,,,,Bankside,,,,Quay,,,N0060501,Southwark,London,,,,,,0,UKOS,532203,180540,-0.09642954792,51.50833468561,FBT,,,,,,146,2016-03-11T13:45:00,2016-03-11T13:57:00,1,revise,active
9300SWK3,,,,Bankside Pier,,,,,,Bankside,,,,Quay,,,N0060501,Southwark,London,,,,,,0,UKOS,532210,180544,-0.09632724382,51.50836899535,FBT,,,,,,146,2016-03-11T13:46:00,2016-03-11T13:57:00,1,revise,active
9300SWO,,,,Southwold Ferry Landing,,,,,,Ferry Road,,,,,,,E0051733,Southwold,,,,,,,0,UKOS,650080,275060,1.66783861683,52.31663049814,FER,,,,,,146,2005-10-10T00:00:00,2011-08-22T14:12:00,3,revise,active
9300SYM,,,,Whalsay Shetland Ferry Terminal,,,,,,Main Road (South West),,,,,,,ES003595,Symbister,Whalsay,,,,,,0,UKOS,453731,1162375,-1.02845621345,60.34186043697,FER,,,,,,146,2005-10-10T00:00:00,2007-09-26T14:00:00,2,revise,active
9300SYP,,,,Savoy Pier,,,,,,Victoria Embankment,,,,,,,N0077659,Embankment,London,,,,,,0,UKOS,530570,180552,-0.11994191312,51.50882186083,FER,,,,,,146,2005-10-10T00:00:00,2014-05-06T15:03:00,3,revise,active
9300SYP1,,,,Savoy Pier,,,,,,Victoria Embankment,,,,Quay,,,N0077659,Embankment,London,,,,,,0,UKOS,530601,180533,-0.11950250739,51.5086439581,FBT,,,,,,146,2010-12-03T18:48:00,2014-05-06T15:04:00,3,revise,active
9300TAB,,,,Tarbert (Harris) Ferry Terminal,,,,,,A868 Tarbert Main Road,,,,,,,ES003610,Tarbert,,,,,,,0,UKOS,115775,899810,-6.79866874888,57.89685001546,FER,,,,,,146,2005-10-10T00:00:00,2010-09-06T15:31:00,3,revise,active
9300TAB0,,,,Tarbert (Harris) Ferry Terminal,,,,,,A868 Tarbert Main Road,,,,Pier,,,ES003610,Tarbert,,,,,,,0,UKOS,115783,899804,-6.79852709885,57.8968014049,FBT,,,,,,146,2013-03-15T11:30:00,2014-08-26T15:55:00,1,revise,active
9300TAF,,,,Taffs Mead Waterbus Stop,,,,,,Taffs Mead Embankment,,,,,,,E0054006,Grangetown,Cardiff,,,,,,0,UKOS,317964,175770,-3.1825850411,51.47492227655,FER,,,,,,146,2011-01-31T15:14:00,2011-01-31T16:23:00,1,revise,active
9300TAF1,,,,Taffs Mead Waterbus Stop,,,,,,Taffs Mead Embankment,,,,Landing stage,,,E0054006,Grangetown,Cardiff,,,,,,0,UKOS,317971,175770,-3.18248427482,51.47492329298,FBT,,,,,,146,2011-01-31T15:15:00,2011-01-31T16:23:00,2,revise,active
9300TAR,,,,Tarbet (Loch Lomond) Pier,,,,,,-,,,,,,,N0068545,Tarbet,,,,,,,0,UKOS,232106,704423,-4.70807106605,56.20270283768,FER,,,,,,146,2010-08-16T14:35:00,2010-09-06T15:32:00,2,revise,active
9300TAV,,,,Tayvallich (Argyll & Bute) Ferry Terminal,,,,,,Tayvallich,,,,,,,N0068547,Tayvallich,,,,,,,0,UKOS,174239,687259,-5.62453960077,56.02488497941,FER,,,,,,146,2008-06-12T19:05:00,2008-06-12T19:09:00,2,revise,active
9300TBP,,,,Torquay Harbour Boarding Pontoon,,,,,,Victoria Parade,,,,,,,E0042739,Torquay,Torbay,,,,,,0,UKOS,291825,63235,-3.52531150934,50.45894258114,FER,,,,,,146,2008-08-21T10:21:00,2008-08-21T10:36:00,1,revise,active
9300TBP1,,,,Torquay Harbour Boarding Pontoon,,,,,,Victoria Parade,,,,Quay,,,E0042739,Torquay,Torbay,,,,,,0,UKOS,291824,63226,-3.52532298883,50.45886148753,FBT,,,,,,146,2013-10-22T12:40:00,2013-10-22T15:59:00,1,revise,active
9300TCK,,,,Trelissick Ferry Landing,,,,,,B3289,,,,,,,E0002985,Trelissick Gardens,,,,,,,0,UKOS,184035,39595,-5.02859922311,50.21685311046,FER,,,,,,146,2005-10-10T00:00:00,2014-01-30T11:52:00,3,revise,active
9300TCK1,,,,Trelissick Ferry Landing,,,,,,B3289,,,,Quay,,,E0002985,Trelissick Gardens,,,,,,,0,UKOS,184082,39588,-5.02793740209,50.21680740579,FBT,,,,,,146,2013-10-22T12:41:00,2014-01-30T11:54:00,2,revise,active
9300TCO,,,,Tresco Isles Of Scilly Ferry Landing,,,,,,Crown Point,,,,,,,E0044518,Tresco,Isles of Scilly,,,,,,0,UKOS,89296,13379,-6.33187782462,49.93961109326,FER,,,,,,146,2005-10-10T00:00:00,2008-04-24T17:31:00,3,revise,active
9300TCO1,,,,Tresco Isles Of Scilly Ferry Landing,,,,,,Crown Point,,,,Quay,,,E0044518,Tresco,Isles of Scilly,,,,,,0,UKOS,89310,13355,-6.33166394976,49.93940313672,FBT,,,,,,146,2013-10-22T12:42:00,2013-10-22T16:02:00,1,revise,active
9300TEN,,,,Tenby Ferry Landing,,,,,,Off Bridge Street,,,,,,,E0055092,Tenby,,,,,,,0,UKOS,213548,200622,-4.69792520947,51.6733446249,FER,,,,,,146,2005-10-10T00:00:00,2008-04-24T17:32:00,3,revise,active
9300TFL,,,,Turf Lock Inn Ferry Landing,,,,,,-,,,,,,,E0045508,Powderham,,,,,,,0,UKOS,296480,85870,-3.46605747641,50.66327183794,FER,,,,,,146,2010-12-09T14:52:00,2010-12-09T14:53:00,1,revise,active
9300TFL1,,,,Turf Lock Inn Ferry Landing,,,,,,-,,,,Quay,,,E0045508,Powderham,,,,,,,0,UKOS,296482,85863,-3.46602722835,50.66320926522,FBT,,,,,,146,2013-10-22T12:44:00,2013-10-22T16:03:00,1,revise,active
9300THM,,,,Topsham Ferry Landing,,,,,,Ferry Road,,,,,,,E0007735,Topsham,,,,,,,0,UKOS,296395,88125,-3.46789204503,50.68352867819,FER,,,,,,146,2005-10-10T00:00:00,2010-12-09T14:48:00,3,revise,active
9300THM1,,,,Topsham Ferry Landing,,,,,,Ferry Road,,,,Quay,,,E0007735,Topsham,,,,,,,0,UKOS,296379,88108,-3.46811367526,50.68337299979,FBT,,,,,,146,2013-10-22T12:35:00,2013-10-22T15:56:00,1,revise,active
9300THP,,,,Twickenham Hammerton's Pier,,,,,,-,,,,,,,E0034783,Twickenham,London,,,,,,0,UKOS,517175,173350,-0.31524902412,51.44702686563,FER,,,,,,146,2011-12-13T16:35:00,2013-04-23T15:40:00,2,revise,active
9300THP1,,,,Twickenham Hammerton's Pier,,,,,,-,,,,,,,E0034783,Twickenham,London,,,,,,0,UKOS,517165,173340,-0.31539616425,51.44693905596,FBT,,,,,,146,2011-12-13T16:36:00,2013-04-23T15:41:00,2,revise,active
9300TIG,,,,Tighnabruaich Pier Ferry Terminal,,,,,,A8003,,,,,,,N0068549,Tighnabruaich,,,,,,,0,UKOS,198584,673301,-5.22415765067,55.9105281307,FER,,,,,,146,2006-08-08T00:00:00,2007-09-26T14:00:00,2,revise,active
9300TIL,,,,Tilbury Ferry Terminal,,,,,,Off A126 Ferry Road,,,,,,,E0042682,Tilbury,,,,,,,0,UKOS,564504,175069,0.36607671477,51.45071274391,FER,,,,,,146,2005-10-10T00:00:00,2008-04-24T17:33:00,3,revise,active
9300TIL1,,,,Tilbury Ferry Terminal,,,,,,Ferry Road,,,,pier,,,E0042682,Tilbury,,,,,,,0,UKOS,564509,175060,0.36614442525,51.45063043771,FBT,,,,,,146,2011-07-13T11:29:00,2011-08-03T15:48:00,2,revise,active
9300TKN,,,,Tower Knowe Ferry Landing,,,,,,Visitor Centre road,,,,,,,N0070166,Tower Knowe,Kielder Water,,,,,,0,UKOS,369836,586961,-2.4751486757,55.17602252519,FER,,,,,,146,2011-06-27T15:08:00,2011-06-27T15:10:00,1,revise,active
9300TKN1,,,,Tower Knowe Ferry Landing,,,,,,Visitor Centre road,,,,Pier,,,N0070166,Tower Knowe,Kielder Water,,,,,,0,UKOS,369837,586960,-2.47513286827,55.17601360081,FBT,,,,,,146,2011-06-27T15:09:00,2011-06-27T15:10:00,1,revise,active
9300TLI,,,,Topsham Lock Ferry Landing,,,,,,-,,,,,,,E0045489,Exminster,,,,,,,0,UKOS,296256,87972,-3.46981591628,50.68212845017,FER,,,,,,146,2005-10-10T00:00:00,2010-12-09T14:54:00,3,revise,active
9300TLI1,,,,Topsham Lock Ferry Landing,,,,,,-,,,,Quay,,,E0045489,Exminster,,,,,,,0,UKOS,296263,87986,-3.46972080174,50.68225555625,FBT,,,,,,146,2013-10-22T12:36:00,2013-10-22T15:57:00,1,revise,active
9300TLN,,,,Tarbet (Loch Nevis) Ferry Landing,,,,,,Tarbet Loch Nevis area,,,,,,,N0067718,Tarbet,,,,,,,0,UKOS,179082,792512,-5.63630806402,56.97087111314,FER,,,,,,146,2005-10-10T00:00:00,2010-09-06T15:32:00,3,revise,active
9300TMP,,,,Tower Pier,,,,,,Lower Thames Street,,,,,,,N0077729,Tower Hill,London,,,,,,0,UKOS,533408,180513,-0.07908690066,51.50780911724,FER,,,,,,146,2005-10-10T00:00:00,2013-07-25T15:19:00,4,revise,active
9300TMP1,,,,Tower Pier,,,,,,Lower Thames Street,,,,Quay,,,N0077729,Tower Hill,London,,,,,,0,UKOS,533418,180461,-0.07896255105,51.50733946601,FBT,,,,,,146,2010-12-03T18:49:00,2013-07-25T15:19:00,4,revise,active
9300TMP2,,,,Tower Pier,,,,,,Lower Thames Street,,,,Quay,,,N0077729,Tower Hill,London,,,,,,0,UKOS,533408,180461,-0.0791065547,51.5073418247,FBT,,,,,,146,2016-03-11T15:27:00,2016-03-11T15:29:00,1,revise,active
9300TMP3,,,,Tower Pier,,,,,,Lower Thames Street,,,,Quay,,,N0077729,Tower Hill,London,,,,,,0,UKOS,533423,180461,-0.07889054923,51.5073382866,FBT,,,,,,146,2016-03-11T15:28:00,2016-03-11T15:29:00,1,revise,active
9300TMP4,,,,Tower Pier,,,,,,Lower Thames Street,,,,Quay,,,N0077729,Tower Hill,London,,,,,,0,UKOS,533410,180461,-0.07907775397,51.50734135298,FBT,,,,,,146,2016-03-11T15:29:00,2016-03-11T15:30:00,1,revise,active
9300TNM,,,,Teignmouth Ferry Landing,,,,,,Strand,,,,,,,E0045515,Teignmouth,,,,,,,0,UKOS,293885,72425,-3.49891473801,50.54193682218,FER,,,,,,146,2005-10-10T00:00:00,2007-09-26T14:00:00,2,revise,active
9300TNM1,,,,Teignmouth Ferry Landing,,,,,,Strand,,,,Quay,,,E0045515,Teignmouth,,,,,,,0,UKOS,293875,72411,-3.4990518211,50.54180914742,FBT,,,,,,146,2013-10-22T12:22:00,2013-10-22T15:53:00,1,revise,active
9300TOB,,,,Tobermory Mull Ferry Terminal,,,,,,A848 Main Street (North),,,,,,,ES003663,Tobermory,,,,,,,0,UKOS,150845,755327,-6.06335791973,56.62332077555,FER,,,,,,146,2005-10-10T00:00:00,2007-09-26T14:00:00,2,revise,active
9300TOF,,,,Toft Shetland Ferry Terminal,,,,,,A968,,,,,,,ES003781,Toft,,,,,,,0,UKOS,443712,1176169,-1.20692584652,60.46689862901,FER,,,,,,146,2005-10-10T00:00:00,2009-06-05T13:01:00,3,revise,active
9300TOL,,,,Tolverne Ferry Landing,,,,,,Tolverne area,,,,,,,E0044501,Philleigh,,,,,,,0,UKOS,184552,40218,-5.02171674707,50.22263680153,FER,,,,,,146,2005-10-10T00:00:00,2007-09-26T14:00:00,2,revise,active
9300TOL1,,,,Tolverne Ferry Landing,,,,,,Tolverne area,,,,Quay,,,E0044501,Philleigh,,,,,,,0,UKOS,184545,40232,-5.02182268694,50.22275998376,FBT,,,,,,146,2013-10-22T12:32:00,2013-10-22T15:55:00,1,revise,active
9300TOR,,,,Torquay - North Quay,,,,,,A379 Torbay Road,,,,,,,E0042739,Torquay,Torbay,,,,,,0,UKOS,291736,63369,-3.52660364677,50.4601307857,FER,,,,,,146,2005-10-10T00:00:00,2008-08-21T10:33:00,3,revise,active
9300TOR1,,,,Torquay - North Quay,,,,,,A379 Torbay Road,,,,Quay,,,E0042739,Torquay,Torbay,,,,,,0,UKOS,291751,63356,-3.52638864034,50.46001668899,FBT,,,,,,146,2013-10-22T12:39:00,2013-10-22T15:58:00,1,revise,active
9300TOT,,,,Totnes Ferry Landing,,,,,,Steamer Quay Road,,,,,,,E0045463,Totnes,,,,,,,0,UKOS,280644,60012,-3.6817317064,50.42779944861,FER,,,,,,146,2005-10-10T00:00:00,2007-09-26T14:00:00,2,revise,active
9300TOT1,,,,Totnes Ferry Landing,,,,,,Steamer Quay Road,,,,Quay,,,E0045463,Totnes,,,,,,,0,UKOS,280642,60004,-3.68175730267,50.4277271277,FBT,,,,,,146,2013-10-22T12:41:00,2013-10-22T16:01:00,1,revise,active
9300TPR,,,,Town Pier,,,,,,-,,,,,,,ES002878,North Queensferry,,,,,,,0,UKOS,313112,680322,-3.39502937456,56.00793089639,FER,,,,,,146,2014-06-20T13:10:00,2014-06-20T13:12:00,1,revise,active
9300TPR1,,,,Town Pier,,,,,,-,,,,Quay,,,ES002878,North Queensferry,,,,,,,0,UKOS,313065,680207,-3.39574562473,56.00688943904,FBT,,,,,,146,2014-06-20T13:11:00,2014-06-20T13:12:00,1,revise,active
9300TPT,,,,Torpoint Ferry Terminal,,,,,,A374 Ferry Street,,,,,,,E0044485,Torpoint,,,,,,,0,UKOS,244163,55135,-4.19295860976,50.37541748847,FER,,,,,,146,2005-10-10T00:00:00,2007-09-26T14:00:00,2,revise,active
9300TPT1,,,,Torpoint Ferry Terminal,,,,,,A374 Ferry Street,,,,Quay,,,E0044485,Torpoint,,,,,,,0,UKOS,244182,55135,-4.19269161222,50.37542252484,FBT,,,,,,146,2013-10-22T12:38:00,2013-10-22T15:57:00,1,revise,active
9300TRE,,,,Tiree Ferry Terminal,,,,,,End of B8065 Pier Road,,,,,,,N0077283,Tiree,,,,,,,0,UKOS,104867,745462,-6.79892423042,56.50832552294,FER,,,,,,146,2005-10-10T00:00:00,2007-09-26T14:00:00,2,revise,active
9300TRE0,,,,Tiree Ferry Terminal,,,,,,End of B8065 Pier Road,,,,Pier,,,N0077283,Tiree,,,,,,,0,UKOS,104877,745612,-6.79893237204,56.5096746536,FBT,,,,,,146,2013-03-15T10:55:00,2014-08-26T15:56:00,1,revise,active
9300TRN,,,,Troon Ferry Terminal,,,,,,Harbour Road B749,,,,,,,ES003704,Troon,,,,,,,0,UKOS,230846,631647,-4.68290056175,55.54910401651,FER,,,,,,146,2005-10-10T00:00:00,2007-09-26T14:00:00,2,revise,active
9300TRO,,,,Trossachs Pier,,,,,,-,,,,,,,ES003709,Trossachs,Callander,,,,,,0,UKOS,249524,707250,-4.42919596826,56.2339058484,FER,,,,,,146,2013-08-01T11:08:00,2013-08-01T11:11:00,1,revise,active
9300TRO1,,,,Trossachs Pier,,,,,,-,,,,Pier,,,ES003709,Trossachs,Callander,,,,,,0,UKOS,249525,707250,-4.42917985177,56.23390616499,FBT,,,,,,146,2013-08-01T11:09:00,2013-08-01T11:14:00,2,revise,active
9300TRU,,,,Truro Ferry Terminal,,,,,,,,,,,,,E0044512,Truro,,,,,,,,UKOS,182914,44728,-5.04722938474,50.26254060908,FER,,,,,,146,2016-07-27T00:00:00,2016-07-27T00:00:00,0,new,active
9300TRU1,,,,Truro Ferry Terminal,,,,,,,,,,,,,E0044512,Truro,,,,,,,,UKOS,182920,44727,-5.04714475307,50.26253383437,FBT,,,,,,146,2016-07-28T00:00:00,2016-07-28T00:00:00,0,new,active
9300TSC,,,,Tarbet (Scourie) Ferry Landing,,,,,,Tarbet Scourie area,,,,,,,N0067717,Tarbet,,,,,,,0,UKOS,216357,948842,-5.14332763047,58.38934092754,FER,,,,,,146,2005-10-10T00:00:00,2010-09-06T15:32:00,3,revise,active
9300TTL,,,,Topsham (Turf Lock Ferry) Ferry Landing,,,,,,Ferry Road,,,,,,,E0007735,Topsham,,,,,,,0,UKOS,296535,87935,-3.4658578025,50.68184555841,FER,,,,,,146,2010-12-09T14:49:00,2010-12-09T14:51:00,1,revise,active
9300TTL1,,,,Topsham (Turf Lock Ferry) Ferry Landing,,,,,,Ferry Road,,,,Quay,,,E0007735,Topsham,,,,,,,0,UKOS,296537,87925,-3.46582670177,50.68175601658,FBT,,,,,,146,2013-10-22T12:34:00,2013-10-22T15:56:00,1,revise,active
9300TUK,,,,Tuckton Tea Gardens Ferry Landing,,,,,,Riverside Lane,,,,,,,E0035395,Tuckton,Bournemouth,,,,,,0,UKOS,414895,92249,-1.79032336455,50.7296726535,FER,,,,,,146,2005-10-10T00:00:00,2007-09-26T14:00:00,2,revise,active
9300TUK1,,,,Tuckton Tea Gardens Ferry Landing,,,,,,Riverside Lane,,,,Quay,,,E0035395,Tuckton,Bournemouth,,,,,,0,UKOS,414895,92254,-1.7903231641,50.72971761648,FBT,,,,,,146,2013-10-22T12:43:00,2013-10-22T16:02:00,1,revise,active
9300TVR,,,,Torver (Coniston) Ferry Landing,,,,,,-,,,,,,,E0044935,Torver,,,,,,,0,UKOS,330175,495126,-3.07566748285,54.34687775347,FER,,,,,,146,2010-07-16T17:00:00,2010-07-16T17:05:00,1,revise,active
9300TVR1,,,,Torver (Coniston) Ferry Landing,,,,,,,,,,,,,E0044935,Torver,,,,,,,0,UKOS,330163,495124,-3.07585158104,54.34685813677,FBT,,,,,,146,2017-05-11T00:00:00,2017-05-11T00:00:00,0,new,active
9300TWL,,,,Tingwall Orkney Ferry Terminal,,,,,,End of Gorseness Road Junction,,,,,,,N0078264,Tingwall,Rendall,,,,,,0,UKOS,340305,1022885,-3.04345313773,59.08867474654,FER,,,,,,146,2005-10-10T00:00:00,2007-11-19T17:30:00,3,revise,active
9300TYL,,,,Tayinloan Ferry Terminal,,,,,,Off A83 at Tayinloan,,,,,,,N0068546,Tayinloan,,,,,,,0,UKOS,169295,646555,-5.66911379784,55.65756619416,FER,,,,,,146,2005-10-10T00:00:00,2007-09-26T14:00:00,2,revise,active
9300UFT,,,,Ullswater Ferry Terminal,,,,,,,,,,,,,E0006095,Ullswater,,,,,,,0,UKOS,339898,519737,-2.93112343418,54.56926738642,FER,,,,,,146,2017-11-07T00:00:00,2017-11-07T00:00:00,0,new,active
9300UFT1,,,,Ullswater Ferry Terminal,,,,,,,,,,Pier,,,E0006095,Ullswater,,,,,,,0,UKOS,339901,519722,-2.93107396669,54.56913295938,FBT,,,,,,146,2017-05-11T00:00:00,2017-05-11T00:00:00,0,new,active
9300UFU,,,,Ulva Ferry (Ulva) Ferry Landing,,,,,,-,,,,,,,N0076402,Ulva Ferry,,,,,,,0,UKOS,144372,739777,-6.15325628036,56.48050443779,FER,,,,,,146,2010-12-09T14:38:00,2010-12-09T14:40:00,1,revise,active
9300UFU1,,,,Ulva Ferry (Ulva) Ferry Landing,,,,,,-,,,,,,,N0076402,Ulva Ferry,,,,,,,0,UKOS,144414,739793,-6.1525918665,56.48067058616,FBT,,,,,,146,2010-12-09T14:39:00,2010-12-09T14:40:00,1,revise,active
9300UIG,,,,Uig Skye Ferry Terminal,,,,,,A87,,,,,,,N0067732,Uig,,,,,,,0,UKOS,138535,863585,-6.37644698162,57.58634142851,FER,,,,,,146,2005-10-10T00:00:00,2007-09-26T14:00:00,2,revise,active
9300UIG0,,,,Uig Skye Ferry Terminal,,,,,,A87,,,,,,,N0067732,Uig,,,,,,,0,UKOS,138692,863526,-6.37376529208,57.58590383758,FBT,,,,,,146,2013-03-15T11:28:00,2014-08-26T15:56:00,1,revise,active
9300ULL,,,,Ullapool Ferry Terminal,,,,,,A893 Shore Street,,,,,,,ES003743,Ullapool,,,,,,,0,UKOS,212777,893880,-5.16044196177,57.89494053929,FER,,,,,,146,2005-10-10T00:00:00,2007-09-26T14:00:00,2,revise,active
9300ULL0,,,,Ullapool Ferry Terminal,,,,,,A893 Shore Street,,,,Pier,,,ES003743,Ullapool,,,,,,,0,UKOS,212787,893882,-5.16027511443,57.89496267071,FBT,,,,,,146,2013-03-15T09:11:00,2014-08-26T15:56:00,1,revise,active
9300ULS,,,,Ulsta Shetland Ferry Terminal,,,,,,A968 West Road,,,,,,,N0067650,Ulsta,Yell,,,,,,0,UKOS,446328,1179456,-1.15859631777,60.49611601007,FER,,,,,,146,2005-10-10T00:00:00,2007-09-26T14:00:00,2,revise,active
9300ULV,,,,Ulva Ferry (Mull) Ferry Landing,,,,,,Ulva area,,,,,,,N0076402,Ulva Ferry,,,,,,,0,UKOS,144590,739896,-6.14984281001,56.48168893689,FER,,,,,,146,2005-10-10T00:00:00,2010-12-09T14:35:00,3,revise,active
9300ULV1,,,,Ulva Ferry (Mull) Ferry Landing,,,,,,-,,,,,,,N0076402,Ulva Ferry,,,,,,,0,UKOS,144590,739865,-6.14981244261,56.48141116446,FBT,,,,,,146,2010-12-09T14:36:00,2010-12-09T14:37:00,1,revise,active
9300VID,,,,Vidlin Shetland Ferry Terminal,,,,,,Off B9071,,,,,,,ES003747,Vidlin,,,,,,,0,UKOS,448115,1165742,-1.12937280279,60.37279147419,FER,,,,,,146,2005-10-10T00:00:00,2014-07-22T16:16:00,3,revise,active
9300WAL,,,,Wallasea Island Ferry Landing,,,,,,Benton Way,,,,,,,E0046338,Canewdon,,,,,,,0,UKOS,593582,195281,0.79516524073,51.62304637439,FER,,,,,,146,2005-10-10T00:00:00,2011-06-28T14:38:00,3,revise,active
9300WAP,,,,Wapping Pier,,,,,,Wapping High Street,,,,,,,E0034863,Wapping,London,,,,,,0,UKOS,534555,180020,-0.06275755502,51.50310716726,FER,,,,,,146,2016-03-11T15:41:00,2016-03-11T15:43:00,1,revise,active
9300WAP1,,,,Wapping Pier,,,,,,Wapping High Street,,,,Quay,,,E0034863,Wapping,London,,,,,,0,UKOS,534555,180017,-0.06275869837,51.50308020831,FBT,,,,,,146,2016-03-11T15:42:00,2016-03-11T15:43:00,1,revise,active
9300WAR,,,,Warsash Ferry Landing,,,,,,Off Shore Pass Lane,,,,,,,E0012938,Warsash,,,,,,,0,UKOS,448842,106412,-1.30748757388,50.8551693477,FER,,,,,,146,2005-10-10T00:00:00,2007-09-26T14:00:00,2,revise,active
9300WAR1,,,,Warsash Ferry Landing,,,,,,Off Shore Pass Lane,,,,Quay,,,E0012938,Warsash,,,,,,,0,UKOS,448829,106409,-1.30767264526,50.8551434675,FBT,,,,,,146,2013-10-22T12:46:00,2013-10-22T16:07:00,1,revise,active
9300WAS,,,,Woolwich Arsenal Pier,,,,,,Off Granby Road,,,,,,,E0034338,Woolwich,London,,,,,,0,UKOS,543833,179390,0.0705700886,51.49516341154,FER,,,,,,146,2007-06-18T11:00:00,2010-12-06T17:03:00,3,revise,active
9300WAS1,,,,Woolwich Arsenal Pier,,,,,,Off Granby Road,,,,Quay,,,E0034338,Woolwich,London,,,,,,0,UKOS,543851,179457,0.07085649024,51.49576087057,FBT,,,,,,146,2010-12-03T18:50:00,2010-12-14T15:44:00,2,revise,active
9300WAT,,,,Waterhead Hotel (Coniston) Ferry Landing,,,,,,-,,,,,,,E0006477,Waterhead,Coniston,,,,,,0,UKOS,331144,497389,-3.06128771185,54.36734405231,FER,,,,,,146,2010-07-16T16:58:00,2010-07-16T17:04:00,1,revise,active
9300WAT1,,,,Waterhead Hotel (Coniston) Ferry Landing,,,,,,-,,,,Pier,,,E0006477,Waterhead,Coniston,,,,,,0,UKOS,331146,497390,-3.06125716688,54.36735330851,FBT,,,,,,146,2011-10-10T15:20:00,2011-10-10T15:31:00,1,revise,active
9300WBU,,,,West Burrafirth Shetland Ferry Terminal,,,,,,Pier Road,,,,,,,ES003800,West Burrafirth,,,,,,,0,UKOS,425535,1156909,-1.53989995159,60.29553402697,FER,,,,,,146,2005-10-10T00:00:00,2007-09-26T14:00:00,2,revise,active
9300WEY,,,,Weymouth Ferry Terminal,,,,,,Custom House Quay,,,,,,,E0009884,Weymouth,,,,,,,0,UKOS,368360,78827,-2.44850145574,50.60829571308,FER,,,,,,146,2005-10-10T00:00:00,2007-09-26T14:00:00,2,revise,active
9300WEY1,,,,Weymouth Ferry Terminal,,,,,,Custom House Quay,,,,Quay,,,E0009884,Weymouth,,,,,,,0,UKOS,368361,78821,-2.44848681083,50.6082418121,FBT,,,,,,146,2013-10-22T12:50:00,2013-10-22T16:11:00,1,revise,active
9300WIC,,,,Wick Christchurch Ferry Landing,,,,,,Off Wick Lane,,,,,,,E0035401,Wick,Christchurch,,,,,,0,UKOS,415570,92186,-1.78076227092,50.72908855305,FER,,,,,,146,2005-10-10T00:00:00,2007-09-26T14:00:00,2,revise,active
9300WIC1,,,,Wick Christchurch Ferry Landing,,,,,,Off Wick Lane,,,,Quay,,,E0035401,Wick,Christchurch,,,,,,0,UKOS,415570,92192,-1.78076201941,50.7291425086,FBT,,,,,,146,2013-10-22T12:51:00,2013-10-22T16:11:00,1,revise,active
9300WLB,,,,Walberswick Ferry Landing,,,,,,Ferry Road,,,,,,,E0051685,Walberswick,,,,,,,0,UKOS,650068,274970,1.66759610683,52.3158284992,FER,,,,,,146,2005-10-10T00:00:00,2009-12-04T16:16:00,3,revise,active
9300WLN,,,,West Lynn Ferry Landing,,,,,,Ferry Street,,,,,,,E0017996,West Lynn,Kings Lynn,,,,,,0,UKOS,561323,320309,0.38908353189,52.75630932086,FER,,,,,,146,2005-10-10T00:00:00,2008-10-06T15:41:00,3,revise,active
9300WLN1,,,,West Lynn Ferry Landing,,,,,,Ferry Street,,,,quay,,,E0017996,West Lynn,Kings Lynn,,,,,,0,UKOS,561328,320309,0.38915755292,52.75630782945,FBT,,,,,,146,2011-07-13T11:32:00,2011-07-13T13:37:00,1,revise,active
9300WLS,,,,Walls Shetland Ferry Terminal,,,,,,Pier Road Off A971,,,,,,,ES003780,Walls,,,,,,,0,UKOS,424011,1148907,-1.56841352803,60.22378150029,FER,,,,,,146,2005-10-10T00:00:00,2007-09-26T14:00:00,2,revise,active
9300WMB,,,,Wemyss Bay Ferry Terminal,,,,,,Off Shore Road,,,,,,,ES003798,Wemyss Bay,,,,,,,0,UKOS,219250,668510,-4.89080904065,55.87574403388,FER,,,,,,146,2005-10-10T00:00:00,2007-09-26T14:00:00,2,revise,active
9300WMB0,,,,Wemyss Bay Ferry Terminal,,,,,,Off Shore Road,,,,Pier,,,ES003798,Wemyss Bay,,,,,,,0,UKOS,219232,668517,-4.89110102531,55.87580009482,FBT,,,,,,146,2013-03-15T10:10:00,2014-08-26T15:56:00,1,revise,active
9300WMP,,,,London Eye Waterloo Pier,,,,,,Belvedere Road,,,,,,,E0034649,Waterloo,London,,,,,,0,UKOS,530620,179973,-0.11943610195,51.50360707078,FER,,,,,,146,2005-10-10T00:00:00,2017-12-06T18:04:46,8,revise,active
9300WMP1,,,,London Eye Waterloo Pier,,,,,,Belvedere Road,,,,Quay,,,E0034649,Waterloo,London,,,,,,0,UKOS,530551,179939,-0.12044224207,51.50331745353,FBT,,,,,,146,2010-12-03T18:51:00,2017-12-06T18:04:46,5,revise,active
9300WMP2,,,,London Eye Waterloo Pier,,,,,,Belvedere Road,,,,Quay,,,E0034649,Waterloo,London,,,,,,0,UKOS,530541,179939,-0.1205862365,51.50331976118,FBT,,,,,,146,2016-03-11T14:53:00,2017-12-06T18:04:46,2,revise,active
9300WMP3,,,,London Eye Waterloo Pier,,,,,,Belvedere Road,,,,Quay,,,E0034649,Waterloo,London,,,,,,0,UKOS,530545,179939,-0.12052863873,51.50331883814,FBT,,,,,,146,2016-03-11T14:55:00,2017-12-06T18:04:46,2,revise,active
9300WMR,,,,Westminster Pier,,,,,,Off Victoria Embankment,,,,,,,E0034961,Westminster,London,,,,,,0,UKOS,530327,179738,-0.1237419151,51.50156278875,FER,,,,,,146,2005-10-10T00:00:00,2013-07-25T15:21:00,3,revise,active
9300WMR1,,,,Westminster Pier,,,,,,Off Victoria Embankment,,,,Quay,,,E0034961,Westminster,London,,,,,,0,UKOS,530365,179767,-0.12318404928,51.50181464607,FBT,,,,,,146,2010-12-03T18:53:00,2013-07-25T15:22:00,3,revise,active
9300WMR2,,,,Westminster Pier,,,,,,Off Victoria Embankment,,,,Quay,,,E0034961,Westminster,London,,,,,,0,UKOS,530350,179767,-0.12340003418,51.50181810235,FBT,,,,,,146,2016-03-11T15:32:00,2016-03-11T15:36:00,1,revise,active
9300WMR3,,,,Westminster Pier,,,,,,Off Victoria Embankment,,,,Quay,,,E0034961,Westminster,London,,,,,,0,UKOS,530353,179767,-0.12335683719,51.50181741112,FBT,,,,,,146,2016-03-11T15:33:00,2016-03-11T15:36:00,1,revise,active
9300WMR4,,,,Westminster Pier,,,,,,Off Victoria Embankment,,,,Quay,,,E0034961,Westminster,London,,,,,,0,UKOS,530356,179767,-0.12331364021,51.50181671988,FBT,,,,,,146,2016-03-11T15:34:00,2016-03-11T15:36:00,1,revise,active
9300WMR5,,,,Westminster Pier,,,,,,Off Victoria Embankment,,,,Quay,,,E0034961,Westminster,London,,,,,,0,UKOS,530359,179767,-0.12327044323,51.50181602863,FBT,,,,,,146,2016-03-11T15:34:00,2016-03-11T15:36:00,1,revise,active
9300WMR6,,,,Westminster Pier,,,,,,Off Victoria Embankment,,,,Quay,,,E0034961,Westminster,London,,,,,,0,UKOS,530362,179767,-0.12322724626,51.50181533736,FBT,,,,,,146,2016-03-11T15:35:00,2016-03-11T15:36:00,1,revise,active
9300WOO,,,,Woodside Birkenhead Ferry Terminal,,,,,,Off A554 Canning Street,,,,,,,E0029952,Woodside,Birkenhead,,,,,,0,UKOS,332937,389150,-3.00997014215,53.39490472571,FER,,,,,,146,2005-10-10T00:00:00,2008-12-01T14:35:00,4,revise,active
9300WPK,,,,Water Park (Coniston) Ferry Landing,,,,,,-,,,,,,,E0006475,Water Yeat,,,,,,,0,UKOS,329350,490442,-3.08724553066,54.30467569522,FER,,,,,,146,2010-07-16T17:02:00,2010-07-16T17:06:00,1,revise,active
9300WPK1,,,,Water Park (Coniston) Ferry Landing,,,,,,,,,,,,,E0006475,Water Yeat,,,,,,,0,UKOS,329346,490447,-3.08730817448,54.30472006896,FBT,,,,,,146,2017-05-11T00:00:00,2017-05-11T00:00:00,0,new,active
9300WPT,,,,Warren Point Ferry Landing,,,,,,End Warren Lane,,,,,,,E0008363,Newton Ferrers,,,,,,,0,UKOS,253775,47755,-4.05501072913,50.31155971835,FER,,,,,,146,2005-10-10T00:00:00,2007-09-26T14:00:00,2,revise,active
9300WPT1,,,,Warren Point Ferry Landing,,,,,,End Warren Lane,,,,Quay,,,E0008363,Newton Ferrers,,,,,,,0,UKOS,253785,47743,-4.05486572919,50.31145435005,FBT,,,,,,146,2013-10-22T12:45:00,2013-10-22T16:03:00,1,revise,active
9300WRE,,,,Wrey Castle Ferry Terminal,,,,,,,,,,,,,E0006340,Low Wray,,,,,,,0,UKOS,337593,501336,-2.96287575529,54.40364293473,FER,,,,,,146,2017-05-11T00:00:00,2017-05-11T00:00:00,0,new,active
9300WRE1,,,,Wrey Castle Ferry Terminal,,,,,,,,,,,,,E0006340,Low Wray,,,,,,,0,UKOS,337591,501329,-2.96290508621,54.40357978864,FBT,,,,,,146,2017-05-11T00:00:00,2017-05-11T00:00:00,0,new,active
9300WRF,,,,Royal Wharf Pier,,,,,,Cable Street,,,,,,,N0060463,Silvertown,London,,,,,,0,UKOS,540733,179559,0.02601125235,51.4974615256,FER,,,,,,146,2019-06-12T09:27:52,2019-06-12T09:27:52,1,new,active
9300WRF1,,,,Royal Wharf Pier,,,,,,,,,,Quay,,,N0060463,Silvertown,London,,,,,,0,UKOS,540733,179539,0.02600328251,51.49728180875,FBT,,,,,,146,2019-06-12T09:27:52,2019-06-12T09:27:52,1,new,active
9300WRQ,,,,Wandsworth Riverside Quarter Pier,,,,,,Off North Fields,,,,,,,E0034912,Wandsworth,London,,,,,,0,UKOS,525209,175293,-0.19901251804,51.46277124628,FER,,,,,,146,2007-06-18T11:00:00,2009-08-21T17:16:00,2,revise,active
9300WRQ1,,,,Wandsworth Riverside Quarter Pier,,,,,,Off North Fields,,,,Quay,,,E0034912,Wandsworth,London,,,,,,0,UKOS,525215,175301,-0.19892336359,51.46284181682,FBT,,,,,,146,2010-12-03T18:54:00,2010-12-14T15:45:00,2,revise,active
9300WRQ2,,,,Wandsworth Riverside Quarter Pier,,,,,,Off North Fields,,,,Quay,,,E0034912,Wandsworth,London,,,,,,0,UKOS,525210,175305,-0.19899388503,51.46287887018,FBT,,,,,,146,2016-03-11T15:31:00,2016-03-11T15:31:00,1,revise,active
9300WSB,,,,Windermere Steam Boat Museum Ferry Terminal,,,,,,,,,,,,,E0006149,Bowness on Windermere,,,,,,,0,UKOS,340138,497664,-2.92293530027,54.37095296764,FER,,,,,,146,2017-05-11T00:00:00,2017-05-11T00:00:00,0,new,active
9300WSB1,,,,Windermere Steam Boat Museum Ferry Terminal,,,,,,,,,,,,,E0006149,Bowness on Windermere,,,,,,,0,UKOS,340146,497650,-2.92280935572,54.37082810618,FBT,,,,,,146,2017-05-11T00:00:00,2017-05-11T00:00:00,0,new,active
9300WSM,,,,Weston-super-Mare Knightstone Harbour,,,,,,Knightstone Causeway,,,,,,,E0040103,Weston-super-Mare,,,,,,,0,UKOS,331220,161780,-2.98903386811,51.35091834175,FER,,,,,,146,2008-04-03T16:04:00,2008-04-03T16:42:00,1,revise,active
9300WSM1,,,,Weston-super-Mare Knightstone Harbour,,,,,,Knightstone Causeway,,,,Quay,,,E0040103,Weston-super-Mare,,,,,,,0,UKOS,331232,161776,-2.9888608072,51.35088383516,FBT,,,,,,146,2013-10-22T12:49:00,2013-10-22T16:10:00,1,revise,active
9300WWC,,,,Woolwich Ferry North Pier,,,,,,A117 Pier Road,,,,,,,E0034711,North Woolwich,London,,,,,,0,UKOS,543145,179660,0.06077556208,51.4977640021,FER,,,,,,146,2005-10-10T00:00:00,2010-07-29T14:21:00,4,revise,active
9300WWC1,,,,Woolwich Ferry North Pier,,,,,,A117 Pier Road,,,,Quay,,,E0034711,North Woolwich,London,,,,,,0,UKOS,543165,179660,0.06106348453,51.49775894179,FBT,,,,,,146,2010-12-03T18:56:00,2010-12-14T15:45:00,2,revise,active
9300WWH,,,,Wapping Wharf,,,,,,,,,,,,,E0057160,Bristol,,,,,,,0,UKOS,358234,172213,-2.60238791472,51.44735604145,FER,,,,,,146,2017-01-17T13:36:12,2017-01-17T13:36:12,0,new,active
9300WWH1,,,,Wapping Wharf,,,,,,,,,,Pier,,,E0057160,Bristol,,,,,,,0,UKOS,358230,172480,-2.60247707743,51.44975635457,FBT,,,,,,146,2017-01-17T13:36:12,2017-01-17T13:36:12,0,new,active
9300WWS,,,,Woolwich Ferry South Pier,,,,,,Ferry Approach,,,,,,,E0034338,Woolwich,London,,,,,,0,UKOS,543244,179374,0.0620847804,51.49516905331,FER,,,,,,146,2005-10-10T00:00:00,2007-09-26T14:00:00,3,revise,active
9300WWS1,,,,Woolwich Ferry South Pier,,,,,,Ferry Approach,,,,Quay,,,E0034338,Woolwich,London,,,,,,0,UKOS,543261,179374,0.0623295004,51.49516474952,FBT,,,,,,146,2010-12-03T18:57:00,2010-12-14T15:46:00,2,revise,active
9300WYB,,,,Weybridge Ferry Landing,,,,,,Thames Street,,,,,,,E0025318,Weybridge,,,,,,,0,UKOS,507504,165872,-0.45662243072,51.38172866418,FER,,,,,,146,2010-02-10T15:19:00,2010-02-10T15:20:00,1,revise,active
9300WYB1,,,,Weybridge Ferry Landing,,,,,,Thames Street,,,,Quay,,,E0025318,Weybridge,,,,,,,0,UKOS,507504,165881,-0.45661970978,51.38180955962,FBT,,,,,,146,2010-12-03T18:58:00,2010-12-14T15:46:00,2,revise,active
9300WYR,,,,Wyre Orkney Ferry Terminal,,,,,,Off the Main Road (N.W. of Island),,,,,,,N0077286,Wyre,,,,,,,0,UKOS,344430,1026850,-2.97248996509,59.12483519025,FER,,,,,,146,2005-10-10T00:00:00,2007-11-19T17:30:00,2,revise,active
9300YMO,,,,Yarmouth IOW Ferry Terminal,,,,,,Quay Street,,,,,,,E0053426,Yarmouth,,,,,,,0,UKOS,435368,89752,-1.5004964885,50.70633709925,FER,,,,,,146,2005-10-10T00:00:00,2008-05-16T11:46:00,5,revise,active
9300YMO1,,,,Yarmouth IOW Ferry Terminal,,,,,,Quay Street,,,,jetty,,,E0053426,Yarmouth,,,,,,,0,UKOS,435347,89826,-1.50078680755,50.70700380622,FBT,,,,,,146,2011-07-13T11:34:00,2011-07-13T13:37:00,1,revise,active
9300YOK,,,,Yoker Ferry Terminal,,,,,,Yoker Ferry Road,,,,,,,ES003905,Yoker,Glasgow,,,,,,0,UKOS,251167,668559,-4.38120037625,55.88710364831,FER,,,,,,146,2005-10-10T00:00:00,2007-09-26T14:00:00,2,revise,active
9300YVZ,,,,Plymouth Stonehouse Ferry Terminal,,,,,,Off Creymll Street,,,,,,,E0040652,Stonehouse,Plymouth,,,,,,0,UKOS,246160,53985,-4.16442487314,50.36560868106,FER,,,,,,146,2005-10-10T00:00:00,2007-09-26T14:00:00,2,revise,active
9300YVZ1,,,,Plymouth Stonehouse Ferry Terminal,,,,,,Off Creymll Street,,,,Quay,,,E0040652,Stonehouse,Plymouth,,,,,,0,UKOS,246155,53982,-4.16449389548,50.36558041262,FBT,,,,,,146,2013-10-22T11:54:00,2013-10-22T15:30:00,1,revise,active
9300BRVS,,,,Barking Riverside Pier,,,,,,,,,,,,,E0033933,Creekmouth,London,,,,,,0,UKOS,547026,181834,,,FER,,,,,,146,2022-04-07T11:00:00,2025-05-01T11:00:00,1,revise,active
9300BRVS1,,,,Barking Riverside Pier,,,,,,,,,,Pier,,,E0033933,Creekmouth,London,,,,,,0,UKOS,547008,181801,,,FBT,,,,,,146,2022-04-07T11:00:00,2025-05-01T11:00:00,1,revise,active
9300BRVS2,,,,Barking Riverside Pier,,,,,,,,,,Pier,,,E0033933,Creekmouth,London,,,,,,0,UKOS,547034,181821,,,FBT,,,,,,146,2022-04-07T11:00:00,2025-05-01T11:00:00,1,revise,active
9300BYH,,,,Burnham Yacht Harbour (Landing),,,,,,Foundry Lane,,,,,,,E0055814,Burnham-on-Crouch,,,,,,,0,UKOS,594144,195950,0.803650,51.628857,FER,,,,,,146,2024-04-05T14:00:00,2024-04-12T14:00:00,1,revise,active
9300NLF,,,,Netham Lock Ferry Terminal,,,,,,Netham Road,,,,,,,N0081135,Netham,Bristol,,,,,,0,UKOS,361567,172720,-2.5544809,51.452152,FER,,,,,,146,2024-06-07T10:00:00,2024-06-12T14:00:00,1,revise,active
9300MFL,,,,Malpas Ferry Landing,,,,,,Malpas Road,,,,,,,E0002875,Malpas,Truro,,,,,,0,UKOS,184539,042770,-5.0233430,50.245551,FER,,,,,,146,2024-07-09T10:00:00,2024-07-09T10:00:00,1,new,active
9300TRP,,,,Trelissick Pontoon,,,,,,-,,,,,,,E0004402,Trelissick,,,,,,,0,UKOS,184090,039504,-5.0277793,50.216053,FER,,,,,,146,2024-07-10T10:00:00,2024-07-10T10:00:00,0,new,active
9300TRP1,,,,Trelissick Pontoon,,,,,,-,,,,,,,E0004402,Trelissick,,,,,,,0,UKOS,184090,039506,-5.0277787,50.216072,FBT,,,,,,146,2024-07-10T10:00:00,2024-07-10T10:00:00,0,new,active
